{"type":"FeatureCollection","name":"AGO_R11704226","crs":{"type":"name","properties":{"name":"urn:ogc:def:crs:OGC:1.3:CRS84"}},"features":[{"type":"Feature","properties":{"uesi_id":"AGO_R11704226","nbhd_code":"AGO_R11704226_1","nbhd_name":"Samba"},"geometry":{"type":"MultiPolygon","coordinates":[[[[13.21951,-8.83093,0.0],[13.21608,-8.83509,0.0],[13.21563,-8.83574,0.0],[13.21505,-8.83653,0.0],[13.21465,-8.83715,0.0],[13.21431,-8.83768,0.0],[13.21407,-8.83812,0.0],[13.21368,-8.83914,0.0],[13.21311,-8.84111,0.0],[13.2126,-8.84294,0.0],[13.21238,-8.84357,0.0],[13.21148,-8.84682,0.0],[13.21138,-8.84703,0.0],[13.21079,-8.84823,0.0],[13.21036,-8.84909,0.0],[13.2095,-8.85085,0.0],[13.20918,-8.85149,0.0],[13.20767,-8.85438,0.0],[13.20633,-8.85701,0.0],[13.20517,-8.85886,0.0],[13.20464,-8.85969,0.0],[13.20262,-8.86255,0.0],[13.20098,-8.86458,0.0],[13.20053,-8.86515,0.0],[13.19759,-8.86895,0.0],[13.19622,-8.87072,0.0],[13.19367,-8.87358,0.0],[13.19327,-8.87404,0.0],[13.19325,-8.87423,0.0],[13.19048,-8.87622,0.0],[13.18823,-8.87791,0.0],[13.1875,-8.87848,0.0],[13.18694,-8.8789,0.0],[13.18597,-8.87947,0.0],[13.18521,-8.87988,0.0],[13.18429,-8.88016,0.0],[13.18272,-8.88063,0.0],[13.18217,-8.88083,0.0],[13.18074,-8.88138,0.0],[13.18031,-8.88187,0.0],[13.17949,-8.88302,0.0],[13.1788,-8.88422,0.0],[13.17829,-8.88518,0.0],[13.17863,-8.88615,0.0],[13.17913,-8.88732,0.0],[13.17936,-8.88785,0.0],[13.17907,-8.88873,0.0],[13.1789,-8.88915,0.0],[13.17777,-8.89068,0.0],[13.1757,-8.89063,0.0],[13.1757,-8.88931,0.0],[13.17597,-8.88931,0.0],[13.17597,-8.88875,0.0],[13.17625,-8.88875,0.0],[13.17625,-8.88792,0.0],[13.1768,-8.88792,0.0],[13.1768,-8.88736,0.0],[13.17653,-8.88736,0.0],[13.17653,-8.88653,0.0],[13.1768,-8.88653,0.0],[13.1768,-8.8857,0.0],[13.17708,-8.8857,0.0],[13.17708,-8.88542,0.0],[13.1768,-8.88542,0.0],[13.1768,-8.88514,0.0],[13.17708,-8.88514,0.0],[13.17708,-8.88431,0.0],[13.17736,-8.88431,0.0],[13.17736,-8.88347,0.0],[13.17792,-8.88347,0.0],[13.17792,-8.88319,0.0],[13.17819,-8.88319,0.0],[13.17819,-8.88292,0.0],[13.17847,-8.88292,0.0],[13.17847,-8.88264,0.0],[13.17875,-8.88264,0.0],[13.17875,-8.88208,0.0],[13.17903,-8.88208,0.0],[13.17903,-8.88181,0.0],[13.17931,-8.88181,0.0],[13.17931,-8.88153,0.0],[13.17958,-8.88153,0.0],[13.17958,-8.88125,0.0],[13.17986,-8.88125,0.0],[13.17986,-8.88097,0.0],[13.17986,-8.88069,0.0],[13.18014,-8.88069,0.0],[13.18014,-8.88042,0.0],[13.18042,-8.88042,0.0],[13.18042,-8.88014,0.0],[13.18069,-8.88014,0.0],[13.18069,-8.87986,0.0],[13.18097,-8.87986,0.0],[13.18097,-8.87958,0.0],[13.18177,-8.87958,0.0],[13.18208,-8.87958,0.0],[13.18208,-8.87945,0.0],[13.18208,-8.87931,0.0],[13.1824,-8.87931,0.0],[13.18264,-8.87931,0.0],[13.18264,-8.8792,0.0],[13.18264,-8.87903,0.0],[13.18303,-8.87903,0.0],[13.18403,-8.87903,0.0],[13.18403,-8.87875,0.0],[13.18458,-8.87875,0.0],[13.18458,-8.87847,0.0],[13.18486,-8.87847,0.0],[13.18486,-8.87819,0.0],[13.18514,-8.87819,0.0],[13.18514,-8.87809,0.0],[13.18514,-8.87792,0.0],[13.18551,-8.87792,0.0],[13.18597,-8.87792,0.0],[13.18597,-8.87764,0.0],[13.18681,-8.87764,0.0],[13.18681,-8.87736,0.0],[13.18708,-8.87736,0.0],[13.18708,-8.87697,0.0],[13.18708,-8.87681,0.0],[13.18736,-8.87681,0.0],[13.18792,-8.87681,0.0],[13.18792,-8.87653,0.0],[13.18847,-8.87653,0.0],[13.18847,-8.87625,0.0],[13.18875,-8.87625,0.0],[13.18875,-8.87597,0.0],[13.18903,-8.87597,0.0],[13.18903,-8.87579,0.0],[13.18903,-8.87569,0.0],[13.18917,-8.87569,0.0],[13.18931,-8.87569,0.0],[13.18931,-8.87561,0.0],[13.18931,-8.87542,0.0],[13.18958,-8.87542,0.0],[13.18958,-8.87514,0.0],[13.18986,-8.87514,0.0],[13.18986,-8.87486,0.0],[13.19048,-8.87486,0.0],[13.19069,-8.87486,0.0],[13.19069,-8.87473,0.0],[13.19069,-8.87458,0.0],[13.19092,-8.87458,0.0],[13.19125,-8.87458,0.0],[13.19125,-8.87431,0.0],[13.19153,-8.87431,0.0],[13.19153,-8.87403,0.0],[13.19181,-8.87403,0.0],[13.19181,-8.87375,0.0],[13.19188,-8.87375,0.0],[13.19208,-8.87375,0.0],[13.19208,-8.87356,0.0],[13.19208,-8.87347,0.0],[13.19218,-8.87347,0.0],[13.19264,-8.87347,0.0],[13.19264,-8.8732,0.0],[13.19292,-8.8732,0.0],[13.19292,-8.87292,0.0],[13.19347,-8.87292,0.0],[13.19347,-8.87264,0.0],[13.19375,-8.87264,0.0],[13.19375,-8.87236,0.0],[13.19403,-8.87236,0.0],[13.19403,-8.87208,0.0],[13.19431,-8.87208,0.0],[13.19431,-8.87153,0.0],[13.19458,-8.87153,0.0],[13.19458,-8.87125,0.0],[13.19486,-8.87125,0.0],[13.19486,-8.87097,0.0],[13.19514,-8.87097,0.0],[13.19514,-8.87069,0.0],[13.19542,-8.87069,0.0],[13.19542,-8.87014,0.0],[13.19569,-8.87014,0.0],[13.19569,-8.86958,0.0],[13.19597,-8.86958,0.0],[13.19597,-8.8693,0.0],[13.19625,-8.8693,0.0],[13.19625,-8.86903,0.0],[13.19653,-8.86903,0.0],[13.19653,-8.86875,0.0],[13.19681,-8.86875,0.0],[13.19681,-8.86847,0.0],[13.19708,-8.86847,0.0],[13.19708,-8.86819,0.0],[13.19736,-8.86819,0.0],[13.19736,-8.86764,0.0],[13.19764,-8.86764,0.0],[13.19764,-8.86708,0.0],[13.19792,-8.86708,0.0],[13.19792,-8.86681,0.0],[13.19847,-8.86681,0.0],[13.19847,-8.86653,0.0],[13.19875,-8.86653,0.0],[13.19875,-8.86597,0.0],[13.19903,-8.86597,0.0],[13.19903,-8.8657,0.0],[13.1993,-8.8657,0.0],[13.1993,-8.86514,0.0],[13.19958,-8.86514,0.0],[13.19958,-8.8643,0.0],[13.19986,-8.8643,0.0],[13.19986,-8.86403,0.0],[13.20014,-8.86403,0.0],[13.20014,-8.86375,0.0],[13.20042,-8.86375,0.0],[13.20042,-8.8632,0.0],[13.2007,-8.8632,0.0],[13.2007,-8.86264,0.0],[13.20097,-8.86264,0.0],[13.20097,-8.86236,0.0],[13.20125,-8.86236,0.0],[13.20125,-8.86181,0.0],[13.20153,-8.86181,0.0],[13.20153,-8.86097,0.0],[13.20181,-8.86097,0.0],[13.20181,-8.86042,0.0],[13.20208,-8.86042,0.0],[13.20208,-8.85958,0.0],[13.20236,-8.85958,0.0],[13.20236,-8.8593,0.0],[13.20264,-8.8593,0.0],[13.20264,-8.85875,0.0],[13.20292,-8.85875,0.0],[13.20292,-8.85819,0.0],[13.20319,-8.85819,0.0],[13.20319,-8.85764,0.0],[13.20347,-8.85764,0.0],[13.20347,-8.85708,0.0],[13.20375,-8.85708,0.0],[13.20375,-8.85653,0.0],[13.20403,-8.85653,0.0],[13.20403,-8.85625,0.0],[13.2043,-8.85625,0.0],[13.2043,-8.85458,0.0],[13.20458,-8.85458,0.0],[13.20458,-8.85431,0.0],[13.20486,-8.85431,0.0],[13.20486,-8.85347,0.0],[13.20514,-8.85347,0.0],[13.20514,-8.84819,0.0],[13.20486,-8.84819,0.0],[13.20486,-8.84792,0.0],[13.20458,-8.84792,0.0],[13.20458,-8.84764,0.0],[13.20415,-8.84764,0.0],[13.20403,-8.84764,0.0],[13.20403,-8.84748,0.0],[13.20403,-8.84569,0.0],[13.20375,-8.84569,0.0],[13.20375,-8.84486,0.0],[13.20347,-8.84486,0.0],[13.20347,-8.84236,0.0],[13.20319,-8.84236,0.0],[13.20319,-8.84097,0.0],[13.20292,-8.84097,0.0],[13.20292,-8.83847,0.0],[13.20319,-8.83847,0.0],[13.20319,-8.83789,0.0],[13.20319,-8.83764,0.0],[13.20327,-8.83764,0.0],[13.20375,-8.83764,0.0],[13.20375,-8.83736,0.0],[13.20423,-8.83736,0.0],[13.2043,-8.83736,0.0],[13.2043,-8.83764,0.0],[13.20514,-8.83764,0.0],[13.20514,-8.83785,0.0],[13.20519,-8.83792,0.0],[13.2057,-8.83792,0.0],[13.2057,-8.83764,0.0],[13.20597,-8.83764,0.0],[13.20597,-8.83736,0.0],[13.20625,-8.83736,0.0],[13.20625,-8.83708,0.0],[13.20681,-8.83708,0.0],[13.20681,-8.83681,0.0],[13.20706,-8.83681,0.0],[13.20708,-8.83708,0.0],[13.20736,-8.83708,0.0],[13.20736,-8.83681,0.0],[13.20764,-8.83681,0.0],[13.20764,-8.83708,0.0],[13.20792,-8.83708,0.0],[13.20792,-8.83736,0.0],[13.20819,-8.83736,0.0],[13.20819,-8.83764,0.0],[13.20847,-8.83764,0.0],[13.20847,-8.83792,0.0],[13.20913,-8.83792,0.0],[13.2093,-8.83792,0.0],[13.2093,-8.83764,0.0],[13.20958,-8.83764,0.0],[13.20958,-8.83708,0.0],[13.20986,-8.83708,0.0],[13.20986,-8.83681,0.0],[13.21014,-8.83681,0.0],[13.21014,-8.83653,0.0],[13.21042,-8.83653,0.0],[13.21042,-8.83588,0.0],[13.21042,-8.83514,0.0],[13.2105,-8.83514,0.0],[13.21069,-8.83514,0.0],[13.21069,-8.83486,0.0],[13.21097,-8.83486,0.0],[13.21097,-8.83375,0.0],[13.21078,-8.83375,0.0],[13.21069,-8.83375,0.0],[13.21069,-8.83367,0.0],[13.21069,-8.83264,0.0],[13.21097,-8.83264,0.0],[13.21097,-8.83162,0.0],[13.21097,-8.83151,0.0],[13.21347,-8.83153,0.0],[13.21347,-8.8318,0.0],[13.21403,-8.8318,0.0],[13.21403,-8.83153,0.0],[13.21431,-8.83153,0.0],[13.21431,-8.82986,0.0],[13.21458,-8.82986,0.0],[13.21458,-8.82967,0.0],[13.21595,-8.82972,0.0],[13.21643,-8.82947,0.0],[13.21654,-8.82906,0.0],[13.21686,-8.82935,0.0],[13.21721,-8.82953,0.0],[13.21902,-8.83024,0.0],[13.21971,-8.83056,0.0],[13.21976,-8.83065,0.0],[13.21951,-8.83093,0.0]]],[[[13.20792,-8.82653,0.0],[13.20819,-8.82653,0.0],[13.20819,-8.82681,0.0],[13.20958,-8.82681,0.0],[13.20958,-8.82653,0.0],[13.21042,-8.82653,0.0],[13.21042,-8.82708,0.0],[13.21069,-8.82708,0.0],[13.21069,-8.82736,0.0],[13.21097,-8.82736,0.0],[13.21097,-8.82708,0.0],[13.21125,-8.82708,0.0],[13.21125,-8.82681,0.0],[13.2117,-8.82681,0.0],[13.21181,-8.82681,0.0],[13.21181,-8.82736,0.0],[13.21196,-8.82736,0.0],[13.21264,-8.82736,0.0],[13.21264,-8.82764,0.0],[13.21292,-8.82764,0.0],[13.21292,-8.82797,0.0],[13.21292,-8.82819,0.0],[13.21264,-8.82819,0.0],[13.21264,-8.82847,0.0],[13.21167,-8.82847,0.0],[13.21125,-8.82847,0.0],[13.21125,-8.82819,0.0],[13.21097,-8.82819,0.0],[13.21097,-8.82792,0.0],[13.20986,-8.82792,0.0],[13.20986,-8.82764,0.0],[13.20735,-8.82764,0.0],[13.20681,-8.82764,0.0],[13.20681,-8.82781,0.0],[13.20681,-8.82792,0.0],[13.20645,-8.82792,0.0],[13.20625,-8.82792,0.0],[13.20625,-8.82819,0.0],[13.2057,-8.82819,0.0],[13.2057,-8.82847,0.0],[13.20514,-8.82847,0.0],[13.20514,-8.82875,0.0],[13.20486,-8.82875,0.0],[13.20486,-8.82903,0.0],[13.20459,-8.82903,0.0],[13.2043,-8.82903,0.0],[13.2043,-8.82986,0.0],[13.20458,-8.82986,0.0],[13.20458,-8.83014,0.0],[13.20484,-8.83014,0.0],[13.20542,-8.83014,0.0],[13.20542,-8.83034,0.0],[13.20542,-8.83042,0.0],[13.20556,-8.83042,0.0],[13.2057,-8.83042,0.0],[13.2057,-8.83068,0.0],[13.2057,-8.83105,0.0],[13.2057,-8.83122,0.0],[13.20542,-8.83125,0.0],[13.20542,-8.8315,0.0],[13.20514,-8.83153,0.0],[13.20514,-8.83136,0.0],[13.20514,-8.83125,0.0],[13.20486,-8.83125,0.0],[13.20486,-8.83137,0.0],[13.20486,-8.83153,0.0],[13.20451,-8.83153,0.0],[13.2043,-8.83153,0.0],[13.2043,-8.83162,0.0],[13.2043,-8.8318,0.0],[13.20391,-8.8318,0.0],[13.20375,-8.8318,0.0],[13.20375,-8.83208,0.0],[13.20347,-8.83208,0.0],[13.20347,-8.83236,0.0],[13.20292,-8.83236,0.0],[13.20292,-8.83264,0.0],[13.20253,-8.83264,0.0],[13.20236,-8.83264,0.0],[13.20236,-8.83236,0.0],[13.20208,-8.83236,0.0],[13.20208,-8.83153,0.0],[13.20236,-8.83153,0.0],[13.20236,-8.83069,0.0],[13.20264,-8.83069,0.0],[13.20264,-8.83014,0.0],[13.20292,-8.83014,0.0],[13.20292,-8.82958,0.0],[13.20319,-8.82958,0.0],[13.20319,-8.82847,0.0],[13.20347,-8.82847,0.0],[13.20347,-8.82819,0.0],[13.20375,-8.82819,0.0],[13.20375,-8.82792,0.0],[13.20403,-8.82792,0.0],[13.20403,-8.82708,0.0],[13.2043,-8.82708,0.0],[13.2043,-8.82736,0.0],[13.20458,-8.82736,0.0],[13.20458,-8.82708,0.0],[13.2057,-8.82708,0.0],[13.2057,-8.82681,0.0],[13.20653,-8.82681,0.0],[13.20653,-8.82653,0.0],[13.20736,-8.82653,0.0],[13.20736,-8.82625,0.0],[13.20792,-8.82625,0.0],[13.20792,-8.82653,0.0]]]]}},{"type":"Feature","properties":{"uesi_id":"AGO_R11704226","nbhd_code":"AGO_R11704226_2","nbhd_name":"Kilamba Kiaxi"},"geometry":{"type":"MultiPolygon","coordinates":[[[[13.26275,-8.89105,0.0],[13.26174,-8.88678,0.0],[13.2576,-8.88374,0.0],[13.24682,-8.88899,0.0],[13.23742,-8.89314,0.0],[13.22637,-8.89673,0.0],[13.21863,-8.90032,0.0],[13.2084,-8.90115,0.0],[13.19976,-8.89657,0.0],[13.1997,-8.89648,0.0],[13.19353,-8.89493,0.0],[13.19836,-8.89224,0.0],[13.19964,-8.89152,0.0],[13.2015,-8.8905,0.0],[13.20327,-8.88877,0.0],[13.20344,-8.88875,0.0],[13.2058,-8.88638,0.0],[13.20844,-8.88376,0.0],[13.20852,-8.88379,0.0],[13.21238,-8.87988,0.0],[13.21675,-8.87601,0.0],[13.22218,-8.87086,0.0],[13.22608,-8.8672,0.0],[13.22625,-8.86713,0.0],[13.22765,-8.86572,0.0],[13.23308,-8.8606,0.0],[13.23637,-8.85759,0.0],[13.23879,-8.8557,0.0],[13.24222,-8.85261,0.0],[13.24476,-8.85026,0.0],[13.24531,-8.8501,0.0],[13.24573,-8.85034,0.0],[13.24699,-8.85182,0.0],[13.24765,-8.85257,0.0],[13.2484,-8.85213,0.0],[13.24988,-8.85266,0.0],[13.24996,-8.85214,0.0],[13.2513,-8.85111,0.0],[13.25168,-8.8506,0.0],[13.2522,-8.8503,0.0],[13.25219,-8.8498,0.0],[13.25247,-8.8484,0.0],[13.25301,-8.84696,0.0],[13.25414,-8.84358,0.0],[13.25468,-8.84231,0.0],[13.255,-8.84185,0.0],[13.25511,-8.84125,0.0],[13.25528,-8.84003,0.0],[13.25553,-8.83953,0.0],[13.25579,-8.83922,0.0],[13.25587,-8.83905,0.0],[13.2557,-8.83895,0.0],[13.25553,-8.83888,0.0],[13.25572,-8.83804,0.0],[13.25589,-8.83804,0.0],[13.25606,-8.83816,0.0],[13.25751,-8.83754,0.0],[13.25877,-8.83705,0.0],[13.2595,-8.83671,0.0],[13.2597,-8.83664,0.0],[13.26064,-8.83715,0.0],[13.26124,-8.83732,0.0],[13.26194,-8.83764,0.0],[13.26334,-8.83827,0.0],[13.26409,-8.83861,0.0],[13.26515,-8.839,0.0],[13.26626,-8.83947,0.0],[13.26654,-8.83968,0.0],[13.26726,-8.83993,0.0],[13.26835,-8.84039,0.0],[13.2692,-8.84064,0.0],[13.26999,-8.84105,0.0],[13.27139,-8.8418,0.0],[13.27221,-8.84224,0.0],[13.275,-8.84388,0.0],[13.27514,-8.84401,0.0],[13.27615,-8.84454,0.0],[13.27869,-8.8458,0.0],[13.28086,-8.84699,0.0],[13.28166,-8.8475,0.0],[13.28273,-8.84811,0.0],[13.28365,-8.84861,0.0],[13.28505,-8.84944,0.0],[13.28541,-8.84953,0.0],[13.28667,-8.85026,0.0],[13.28877,-8.85133,0.0],[13.29033,-8.85227,0.0],[13.2911,-8.85276,0.0],[13.29217,-8.85341,0.0],[13.29272,-8.85382,0.0],[13.29352,-8.85425,0.0],[13.2948,-8.85508,0.0],[13.29781,-8.85703,0.0],[13.29993,-8.85831,0.0],[13.30254,-8.86003,0.0],[13.30524,-8.86165,0.0],[13.30702,-8.86288,0.0],[13.30739,-8.8631,0.0],[13.30806,-8.86355,0.0],[13.30903,-8.86404,0.0],[13.30988,-8.86457,0.0],[13.31031,-8.86493,0.0],[13.31111,-8.86538,0.0],[13.31092,-8.86571,0.0],[13.31073,-8.86576,0.0],[13.31054,-8.86611,0.0],[13.31015,-8.86688,0.0],[13.30949,-8.86774,0.0],[13.30816,-8.86991,0.0],[13.30757,-8.87077,0.0],[13.30678,-8.87209,0.0],[13.30572,-8.87359,0.0],[13.30467,-8.87531,0.0],[13.31055,-8.87985,0.0],[13.30198,-8.89269,0.0],[13.30841,-8.89626,0.0],[13.31555,-8.9034,0.0],[13.32064,-8.90748,0.0],[13.30762,-8.90696,0.0],[13.27197,-8.90447,0.0],[13.26506,-8.90198,0.0],[13.26275,-8.89105,0.0]]]]}},{"type":"Feature","properties":{"uesi_id":"AGO_R11704226","nbhd_code":"AGO_R11704226_3","nbhd_name":"Ingombota"},"geometry":{"type":"MultiPolygon","coordinates":[[[[13.21348,-8.81792,0.0],[13.21375,-8.81792,0.0],[13.21375,-8.81874,0.0],[13.21375,-8.8201,0.0],[13.21375,-8.82042,0.0],[13.21347,-8.82042,0.0],[13.21347,-8.82097,0.0],[13.2132,-8.82097,0.0],[13.2132,-8.82125,0.0],[13.21264,-8.82125,0.0],[13.21264,-8.82097,0.0],[13.21236,-8.82097,0.0],[13.21236,-8.82014,0.0],[13.21208,-8.82014,0.0],[13.21208,-8.81986,0.0],[13.21181,-8.81986,0.0],[13.21181,-8.81958,0.0],[13.21208,-8.81958,0.0],[13.21208,-8.81903,0.0],[13.21236,-8.81903,0.0],[13.21236,-8.81792,0.0],[13.21292,-8.81792,0.0],[13.21292,-8.81764,0.0],[13.2132,-8.81764,0.0],[13.2132,-8.81792,0.0],[13.21348,-8.81792,0.0]]],[[[13.24551,-8.82256,0.0],[13.2452,-8.82362,0.0],[13.24492,-8.82463,0.0],[13.24434,-8.82571,0.0],[13.24367,-8.82698,0.0],[13.24317,-8.8278,0.0],[13.24259,-8.82862,0.0],[13.24196,-8.82948,0.0],[13.24032,-8.83125,0.0],[13.24008,-8.83159,0.0],[13.23952,-8.83229,0.0],[13.23725,-8.83099,0.0],[13.23821,-8.82941,0.0],[13.239,-8.82749,0.0],[13.23836,-8.82557,0.0],[13.23728,-8.82471,0.0],[13.23641,-8.82533,0.0],[13.23592,-8.82566,0.0],[13.23508,-8.82594,0.0],[13.23452,-8.82582,0.0],[13.23402,-8.82557,0.0],[13.23347,-8.82515,0.0],[13.23297,-8.82468,0.0],[13.23237,-8.82433,0.0],[13.23202,-8.82421,0.0],[13.23121,-8.824,0.0],[13.2302,-8.8234,0.0],[13.22972,-8.82312,0.0],[13.22925,-8.82285,0.0],[13.22791,-8.8222,0.0],[13.22719,-8.82187,0.0],[13.22641,-8.8218,0.0],[13.22633,-8.82229,0.0],[13.22577,-8.82301,0.0],[13.22479,-8.82445,0.0],[13.22406,-8.82534,0.0],[13.22113,-8.82892,0.0],[13.22067,-8.82947,0.0],[13.21971,-8.83056,0.0],[13.21902,-8.83024,0.0],[13.21721,-8.82953,0.0],[13.21686,-8.82935,0.0],[13.21654,-8.82906,0.0],[13.21643,-8.82947,0.0],[13.21595,-8.82972,0.0],[13.21458,-8.82967,0.0],[13.21458,-8.82958,0.0],[13.21486,-8.82958,0.0],[13.21486,-8.82931,0.0],[13.21514,-8.82931,0.0],[13.21514,-8.82903,0.0],[13.21486,-8.82903,0.0],[13.21486,-8.82875,0.0],[13.21403,-8.82875,0.0],[13.21403,-8.82864,0.0],[13.21403,-8.82764,0.0],[13.21431,-8.82764,0.0],[13.21431,-8.82653,0.0],[13.21458,-8.82653,0.0],[13.21458,-8.82625,0.0],[13.21486,-8.82625,0.0],[13.21486,-8.82597,0.0],[13.21514,-8.82597,0.0],[13.21514,-8.82542,0.0],[13.21495,-8.82542,0.0],[13.21486,-8.82542,0.0],[13.21486,-8.82514,0.0],[13.21503,-8.82514,0.0],[13.21514,-8.82514,0.0],[13.21514,-8.82486,0.0],[13.21542,-8.82486,0.0],[13.21542,-8.82431,0.0],[13.21514,-8.82431,0.0],[13.21514,-8.82208,0.0],[13.21542,-8.82208,0.0],[13.21542,-8.82153,0.0],[13.21569,-8.82153,0.0],[13.21569,-8.82125,0.0],[13.21597,-8.82125,0.0],[13.21597,-8.8207,0.0],[13.21625,-8.82069,0.0],[13.21625,-8.82014,0.0],[13.21653,-8.82014,0.0],[13.21653,-8.81958,0.0],[13.21681,-8.81958,0.0],[13.21681,-8.81931,0.0],[13.21653,-8.81931,0.0],[13.21653,-8.81847,0.0],[13.21681,-8.81847,0.0],[13.21681,-8.81825,0.0],[13.21681,-8.81736,0.0],[13.21736,-8.81736,0.0],[13.21736,-8.81708,0.0],[13.21764,-8.81708,0.0],[13.21764,-8.8168,0.0],[13.21781,-8.8168,0.0],[13.21792,-8.8168,0.0],[13.21792,-8.81653,0.0],[13.21819,-8.81653,0.0],[13.21819,-8.816,0.0],[13.21792,-8.81595,0.0],[13.21792,-8.81542,0.0],[13.21819,-8.81542,0.0],[13.21819,-8.81526,0.0],[13.21819,-8.81431,0.0],[13.21847,-8.81431,0.0],[13.21847,-8.81406,0.0],[13.21847,-8.81347,0.0],[13.21764,-8.81347,0.0],[13.21764,-8.8132,0.0],[13.21736,-8.8132,0.0],[13.21736,-8.81236,0.0],[13.21708,-8.81236,0.0],[13.21708,-8.81264,0.0],[13.21681,-8.81264,0.0],[13.21681,-8.81292,0.0],[13.21653,-8.81292,0.0],[13.21653,-8.8132,0.0],[13.21625,-8.8132,0.0],[13.21625,-8.81347,0.0],[13.21569,-8.81347,0.0],[13.21569,-8.81375,0.0],[13.21471,-8.81375,0.0],[13.21431,-8.81375,0.0],[13.21431,-8.81364,0.0],[13.21431,-8.81347,0.0],[13.21458,-8.81347,0.0],[13.21458,-8.81283,0.0],[13.21458,-8.81236,0.0],[13.21486,-8.81236,0.0],[13.21486,-8.8118,0.0],[13.21504,-8.8118,0.0],[13.21514,-8.8118,0.0],[13.21514,-8.81157,0.0],[13.21514,-8.81125,0.0],[13.21537,-8.81125,0.0],[13.21542,-8.81118,0.0],[13.21542,-8.81097,0.0],[13.21514,-8.81097,0.0],[13.21514,-8.81069,0.0],[13.21569,-8.81069,0.0],[13.21569,-8.81042,0.0],[13.21597,-8.81042,0.0],[13.21597,-8.80986,0.0],[13.21625,-8.80986,0.0],[13.21625,-8.80958,0.0],[13.21663,-8.80958,0.0],[13.21681,-8.80958,0.0],[13.21681,-8.80938,0.0],[13.21681,-8.80931,0.0],[13.21708,-8.80931,0.0],[13.21708,-8.80903,0.0],[13.21708,-8.8082,0.0],[13.21736,-8.80812,0.0],[13.21736,-8.80736,0.0],[13.21764,-8.80736,0.0],[13.21764,-8.80625,0.0],[13.21819,-8.80625,0.0],[13.21819,-8.80542,0.0],[13.21847,-8.80541,0.0],[13.21847,-8.80514,0.0],[13.21875,-8.80514,0.0],[13.21875,-8.80486,0.0],[13.21903,-8.80486,0.0],[13.21903,-8.80459,0.0],[13.21933,-8.80459,0.0],[13.21958,-8.80459,0.0],[13.21958,-8.80431,0.0],[13.21986,-8.80431,0.0],[13.21986,-8.80403,0.0],[13.22014,-8.80403,0.0],[13.22014,-8.80375,0.0],[13.22042,-8.80375,0.0],[13.22042,-8.80264,0.0],[13.22069,-8.80264,0.0],[13.22069,-8.80236,0.0],[13.22097,-8.80236,0.0],[13.22097,-8.80181,0.0],[13.22125,-8.80181,0.0],[13.22125,-8.80153,0.0],[13.22153,-8.80153,0.0],[13.22153,-8.80125,0.0],[13.22181,-8.80125,0.0],[13.22181,-8.80069,0.0],[13.22208,-8.80069,0.0],[13.22208,-8.80042,0.0],[13.22264,-8.80042,0.0],[13.22264,-8.79931,0.0],[13.22292,-8.79931,0.0],[13.22292,-8.79875,0.0],[13.22319,-8.79875,0.0],[13.22319,-8.79847,0.0],[13.22347,-8.79847,0.0],[13.22347,-8.79819,0.0],[13.22375,-8.79819,0.0],[13.22375,-8.79764,0.0],[13.22403,-8.79764,0.0],[13.22403,-8.79653,0.0],[13.2243,-8.79653,0.0],[13.2243,-8.79569,0.0],[13.22458,-8.79569,0.0],[13.22458,-8.79486,0.0],[13.22486,-8.79486,0.0],[13.22486,-8.79431,0.0],[13.22514,-8.79431,0.0],[13.22514,-8.79403,0.0],[13.22569,-8.79403,0.0],[13.22569,-8.7942,0.0],[13.22569,-8.79431,0.0],[13.22597,-8.79431,0.0],[13.22597,-8.79486,0.0],[13.22569,-8.79486,0.0],[13.22569,-8.79542,0.0],[13.22542,-8.79542,0.0],[13.22542,-8.79551,0.0],[13.22542,-8.79569,0.0],[13.22569,-8.79569,0.0],[13.22569,-8.79597,0.0],[13.22542,-8.79597,0.0],[13.22542,-8.79625,0.0],[13.22569,-8.79625,0.0],[13.22569,-8.79653,0.0],[13.22542,-8.79653,0.0],[13.22542,-8.79681,0.0],[13.22514,-8.79681,0.0],[13.22514,-8.79708,0.0],[13.22486,-8.79708,0.0],[13.22486,-8.79764,0.0],[13.22514,-8.79764,0.0],[13.22514,-8.79819,0.0],[13.22486,-8.79819,0.0],[13.22486,-8.79875,0.0],[13.22458,-8.79875,0.0],[13.22458,-8.79903,0.0],[13.2243,-8.79903,0.0],[13.2243,-8.79931,0.0],[13.22423,-8.79931,0.0],[13.22403,-8.79931,0.0],[13.22403,-8.80014,0.0],[13.22421,-8.80014,0.0],[13.2243,-8.80014,0.0],[13.2243,-8.80042,0.0],[13.22458,-8.80042,0.0],[13.22458,-8.80125,0.0],[13.2243,-8.80125,0.0],[13.2243,-8.80153,0.0],[13.22403,-8.80153,0.0],[13.22403,-8.80264,0.0],[13.22375,-8.80264,0.0],[13.22375,-8.80347,0.0],[13.22347,-8.80347,0.0],[13.22347,-8.80375,0.0],[13.22292,-8.80375,0.0],[13.22292,-8.80459,0.0],[13.22264,-8.80459,0.0],[13.22264,-8.80478,0.0],[13.22264,-8.80486,0.0],[13.22097,-8.80486,0.0],[13.22097,-8.80514,0.0],[13.22069,-8.80514,0.0],[13.22069,-8.80542,0.0],[13.22042,-8.80542,0.0],[13.22042,-8.80569,0.0],[13.22014,-8.80569,0.0],[13.22014,-8.80597,0.0],[13.21986,-8.80597,0.0],[13.21986,-8.80625,0.0],[13.21931,-8.80625,0.0],[13.21931,-8.80653,0.0],[13.21903,-8.80653,0.0],[13.21903,-8.8068,0.0],[13.21875,-8.8068,0.0],[13.21875,-8.80708,0.0],[13.21847,-8.80708,0.0],[13.21847,-8.80736,0.0],[13.21819,-8.80736,0.0],[13.21819,-8.80764,0.0],[13.21847,-8.80764,0.0],[13.21847,-8.8082,0.0],[13.21792,-8.8082,0.0],[13.21792,-8.80851,0.0],[13.21792,-8.80931,0.0],[13.21792,-8.80945,0.0],[13.21792,-8.80958,0.0],[13.21854,-8.80958,0.0],[13.21875,-8.80958,0.0],[13.21875,-8.80943,0.0],[13.21875,-8.80931,0.0],[13.21891,-8.80931,0.0],[13.21903,-8.80931,0.0],[13.21903,-8.80903,0.0],[13.21913,-8.80903,0.0],[13.21958,-8.80903,0.0],[13.21958,-8.80875,0.0],[13.21966,-8.80875,0.0],[13.22042,-8.80875,0.0],[13.22042,-8.80847,0.0],[13.22097,-8.80847,0.0],[13.22097,-8.8082,0.0],[13.22125,-8.8082,0.0],[13.22125,-8.80792,0.0],[13.22153,-8.80792,0.0],[13.22153,-8.80767,0.0],[13.22153,-8.80625,0.0],[13.22181,-8.80625,0.0],[13.22181,-8.80597,0.0],[13.22208,-8.80597,0.0],[13.22208,-8.80569,0.0],[13.22236,-8.80569,0.0],[13.22236,-8.80542,0.0],[13.22264,-8.80542,0.0],[13.22264,-8.80514,0.0],[13.22275,-8.80514,0.0],[13.22292,-8.80514,0.0],[13.22292,-8.80486,0.0],[13.22333,-8.80486,0.0],[13.22347,-8.80486,0.0],[13.22347,-8.80544,0.0],[13.22347,-8.80569,0.0],[13.22361,-8.80569,0.0],[13.22375,-8.80569,0.0],[13.22375,-8.80593,0.0],[13.22403,-8.80597,0.0],[13.22403,-8.80625,0.0],[13.2243,-8.80625,0.0],[13.2243,-8.8066,0.0],[13.2243,-8.8068,0.0],[13.22458,-8.8068,0.0],[13.22458,-8.80736,0.0],[13.22486,-8.80736,0.0],[13.22486,-8.80764,0.0],[13.22514,-8.80764,0.0],[13.22514,-8.80817,0.0],[13.22514,-8.80847,0.0],[13.22542,-8.80847,0.0],[13.22542,-8.80875,0.0],[13.22569,-8.80875,0.0],[13.22569,-8.80902,0.0],[13.22597,-8.80903,0.0],[13.22597,-8.80931,0.0],[13.22625,-8.80931,0.0],[13.22625,-8.80958,0.0],[13.22664,-8.80958,0.0],[13.2268,-8.80958,0.0],[13.2268,-8.80977,0.0],[13.2268,-8.80986,0.0],[13.22689,-8.80986,0.0],[13.22708,-8.80986,0.0],[13.22708,-8.81008,0.0],[13.22713,-8.81014,0.0],[13.22764,-8.81014,0.0],[13.22764,-8.81036,0.0],[13.2278,-8.81042,0.0],[13.22792,-8.81042,0.0],[13.22792,-8.81069,0.0],[13.2282,-8.81069,0.0],[13.2282,-8.81097,0.0],[13.22847,-8.81097,0.0],[13.22847,-8.81069,0.0],[13.22875,-8.81069,0.0],[13.22875,-8.81097,0.0],[13.22903,-8.81097,0.0],[13.22903,-8.81125,0.0],[13.23097,-8.81125,0.0],[13.23097,-8.81097,0.0],[13.23153,-8.81097,0.0],[13.23153,-8.81069,0.0],[13.23431,-8.81069,0.0],[13.23431,-8.81042,0.0],[13.23486,-8.81042,0.0],[13.23486,-8.81014,0.0],[13.23507,-8.81014,0.0],[13.23514,-8.81014,0.0],[13.23514,-8.80986,0.0],[13.2357,-8.80986,0.0],[13.2357,-8.80958,0.0],[13.23653,-8.80958,0.0],[13.23653,-8.80931,0.0],[13.2368,-8.80931,0.0],[13.2368,-8.80903,0.0],[13.23708,-8.80903,0.0],[13.23708,-8.80875,0.0],[13.23736,-8.80875,0.0],[13.23736,-8.80847,0.0],[13.23764,-8.80847,0.0],[13.23764,-8.8082,0.0],[13.23792,-8.8082,0.0],[13.23792,-8.80792,0.0],[13.23819,-8.80792,0.0],[13.23819,-8.80764,0.0],[13.23875,-8.80764,0.0],[13.23875,-8.80736,0.0],[13.23903,-8.80736,0.0],[13.23903,-8.8068,0.0],[13.23931,-8.8068,0.0],[13.23931,-8.80653,0.0],[13.23958,-8.80653,0.0],[13.23958,-8.80625,0.0],[13.23986,-8.80625,0.0],[13.23986,-8.80597,0.0],[13.24014,-8.80597,0.0],[13.24014,-8.80542,0.0],[13.24042,-8.80542,0.0],[13.24042,-8.80486,0.0],[13.24069,-8.80486,0.0],[13.24069,-8.80459,0.0],[13.24097,-8.80459,0.0],[13.24097,-8.80403,0.0],[13.24125,-8.80403,0.0],[13.24125,-8.80347,0.0],[13.24153,-8.80347,0.0],[13.24153,-8.80292,0.0],[13.24181,-8.80292,0.0],[13.24181,-8.80264,0.0],[13.24208,-8.80264,0.0],[13.24208,-8.80181,0.0],[13.24236,-8.80181,0.0],[13.24236,-8.80069,0.0],[13.24264,-8.80069,0.0],[13.24264,-8.79996,0.0],[13.24264,-8.79958,0.0],[13.2428,-8.79958,0.0],[13.24292,-8.79958,0.0],[13.24292,-8.79938,0.0],[13.24292,-8.79931,0.0],[13.24319,-8.79931,0.0],[13.24319,-8.79903,0.0],[13.24347,-8.79903,0.0],[13.24347,-8.79875,0.0],[13.24375,-8.79875,0.0],[13.24375,-8.79819,0.0],[13.24403,-8.79819,0.0],[13.24403,-8.79764,0.0],[13.24431,-8.79764,0.0],[13.24431,-8.79736,0.0],[13.24458,-8.79736,0.0],[13.24458,-8.79653,0.0],[13.24486,-8.79653,0.0],[13.24486,-8.79569,0.0],[13.24514,-8.79569,0.0],[13.24514,-8.79514,0.0],[13.24553,-8.79514,0.0],[13.24597,-8.79514,0.0],[13.24597,-8.79537,0.0],[13.24609,-8.79542,0.0],[13.24625,-8.79542,0.0],[13.24625,-8.79549,0.0],[13.24625,-8.79569,0.0],[13.2467,-8.79569,0.0],[13.24681,-8.79569,0.0],[13.24681,-8.79578,0.0],[13.24681,-8.79597,0.0],[13.24736,-8.79597,0.0],[13.24736,-8.79625,0.0],[13.24708,-8.79625,0.0],[13.24708,-8.79708,0.0],[13.24681,-8.79708,0.0],[13.24681,-8.79875,0.0],[13.24653,-8.79875,0.0],[13.24653,-8.79903,0.0],[13.24681,-8.79903,0.0],[13.24681,-8.79924,0.0],[13.24736,-8.79931,0.0],[13.24736,-8.79958,0.0],[13.24847,-8.79958,0.0],[13.24847,-8.79931,0.0],[13.24875,-8.79931,0.0],[13.24875,-8.79903,0.0],[13.24903,-8.79903,0.0],[13.24903,-8.79931,0.0],[13.25097,-8.79931,0.0],[13.25097,-8.79903,0.0],[13.25292,-8.79903,0.0],[13.25292,-8.79875,0.0],[13.25347,-8.79875,0.0],[13.25347,-8.79847,0.0],[13.25375,-8.79847,0.0],[13.25375,-8.79819,0.0],[13.25403,-8.79819,0.0],[13.25403,-8.79805,0.0],[13.25403,-8.79792,0.0],[13.25435,-8.79792,0.0],[13.25486,-8.79792,0.0],[13.25486,-8.79764,0.0],[13.25514,-8.79764,0.0],[13.25514,-8.79753,0.0],[13.25514,-8.79708,0.0],[13.25542,-8.79708,0.0],[13.25542,-8.79681,0.0],[13.25669,-8.79681,0.0],[13.25681,-8.79681,0.0],[13.25681,-8.79764,0.0],[13.25708,-8.79764,0.0],[13.25708,-8.79792,0.0],[13.25792,-8.79792,0.0],[13.25792,-8.79764,0.0],[13.25819,-8.79764,0.0],[13.25819,-8.79736,0.0],[13.25847,-8.79736,0.0],[13.25847,-8.79708,0.0],[13.2593,-8.79708,0.0],[13.2593,-8.79736,0.0],[13.25958,-8.79736,0.0],[13.25958,-8.79764,0.0],[13.26042,-8.79764,0.0],[13.26042,-8.79792,0.0],[13.26097,-8.79792,0.0],[13.26097,-8.79819,0.0],[13.26153,-8.79819,0.0],[13.26153,-8.79847,0.0],[13.26208,-8.79847,0.0],[13.26208,-8.79875,0.0],[13.26236,-8.79875,0.0],[13.26236,-8.79903,0.0],[13.26292,-8.79903,0.0],[13.26292,-8.79931,0.0],[13.26486,-8.79931,0.0],[13.26486,-8.79903,0.0],[13.26514,-8.79903,0.0],[13.26514,-8.79875,0.0],[13.26597,-8.79875,0.0],[13.26597,-8.79847,0.0],[13.26625,-8.79847,0.0],[13.26625,-8.79819,0.0],[13.26681,-8.79819,0.0],[13.26681,-8.79792,0.0],[13.26708,-8.79792,0.0],[13.26708,-8.79764,0.0],[13.26931,-8.79764,0.0],[13.26931,-8.79736,0.0],[13.26958,-8.79736,0.0],[13.26958,-8.79708,0.0],[13.26986,-8.79708,0.0],[13.26986,-8.79681,0.0],[13.27014,-8.79681,0.0],[13.27014,-8.79653,0.0],[13.27042,-8.79653,0.0],[13.27042,-8.79625,0.0],[13.27069,-8.79625,0.0],[13.27069,-8.79602,0.0],[13.27069,-8.79569,0.0],[13.27097,-8.79569,0.0],[13.27097,-8.79586,0.0],[13.27097,-8.79597,0.0],[13.27125,-8.79597,0.0],[13.27125,-8.79625,0.0],[13.27208,-8.79625,0.0],[13.27208,-8.79597,0.0],[13.27236,-8.79597,0.0],[13.27236,-8.79569,0.0],[13.27324,-8.79574,0.0],[13.27048,-8.79811,0.0],[13.27114,-8.7985,0.0],[13.27133,-8.7989,0.0],[13.27108,-8.79893,0.0],[13.27098,-8.7994,0.0],[13.27095,-8.79989,0.0],[13.27073,-8.79958,0.0],[13.27046,-8.7993,0.0],[13.27018,-8.79963,0.0],[13.26959,-8.79997,0.0],[13.26954,-8.80028,0.0],[13.26945,-8.80062,0.0],[13.26935,-8.80092,0.0],[13.2692,-8.80117,0.0],[13.26833,-8.80156,0.0],[13.26787,-8.80171,0.0],[13.26737,-8.8022,0.0],[13.26687,-8.80281,0.0],[13.26687,-8.80315,0.0],[13.26656,-8.80305,0.0],[13.26619,-8.80317,0.0],[13.26604,-8.80345,0.0],[13.26647,-8.8038,0.0],[13.2665,-8.8042,0.0],[13.26628,-8.80441,0.0],[13.26625,-8.80469,0.0],[13.26597,-8.80472,0.0],[13.26584,-8.80478,0.0],[13.26569,-8.80499,0.0],[13.26557,-8.80468,0.0],[13.2651,-8.80468,0.0],[13.26486,-8.80421,0.0],[13.26418,-8.80395,0.0],[13.26378,-8.80401,0.0],[13.2638,-8.80445,0.0],[13.26408,-8.8047,0.0],[13.26393,-8.80476,0.0],[13.26356,-8.80469,0.0],[13.26309,-8.80493,0.0],[13.26315,-8.80534,0.0],[13.26278,-8.8053,0.0],[13.26284,-8.80567,0.0],[13.26262,-8.80585,0.0],[13.26293,-8.80595,0.0],[13.26318,-8.80636,0.0],[13.26327,-8.80691,0.0],[13.26342,-8.80719,0.0],[13.26265,-8.80759,0.0],[13.26228,-8.80743,0.0],[13.26197,-8.80681,0.0],[13.26154,-8.80677,0.0],[13.26163,-8.80727,0.0],[13.26191,-8.80745,0.0],[13.262,-8.80777,0.0],[13.26166,-8.80779,0.0],[13.26107,-8.80732,0.0],[13.26098,-8.80741,0.0],[13.26126,-8.80782,0.0],[13.26144,-8.80816,0.0],[13.26119,-8.80825,0.0],[13.26064,-8.80772,0.0],[13.26027,-8.80762,0.0],[13.26015,-8.80715,0.0],[13.25965,-8.80709,0.0],[13.25937,-8.80696,0.0],[13.2592,-8.80685,0.0],[13.25916,-8.80699,0.0],[13.25912,-8.80739,0.0],[13.25909,-8.80789,0.0],[13.25891,-8.80835,0.0],[13.25835,-8.80856,0.0],[13.25807,-8.80896,0.0],[13.25745,-8.81003,0.0],[13.25713,-8.81086,0.0],[13.25698,-8.81131,0.0],[13.25716,-8.81141,0.0],[13.25733,-8.81183,0.0],[13.25754,-8.81236,0.0],[13.25759,-8.8127,0.0],[13.25703,-8.81378,0.0],[13.25651,-8.81479,0.0],[13.25647,-8.8151,0.0],[13.25611,-8.81575,0.0],[13.25587,-8.81608,0.0],[13.25587,-8.81621,0.0],[13.2556,-8.81687,0.0],[13.25509,-8.81812,0.0],[13.2547,-8.81915,0.0],[13.25438,-8.82009,0.0],[13.25411,-8.82126,0.0],[13.25405,-8.82264,0.0],[13.25354,-8.82341,0.0],[13.25344,-8.82372,0.0],[13.25289,-8.82342,0.0],[13.25236,-8.82318,0.0],[13.25169,-8.82271,0.0],[13.25111,-8.82244,0.0],[13.25012,-8.82185,0.0],[13.24925,-8.82141,0.0],[13.24818,-8.8208,0.0],[13.24768,-8.82055,0.0],[13.24688,-8.82003,0.0],[13.24632,-8.81975,0.0],[13.24607,-8.82051,0.0],[13.24551,-8.82256,0.0]]],[[[13.27347,-8.79542,0.0],[13.27347,-8.79514,0.0],[13.27375,-8.79514,0.0],[13.27375,-8.79458,0.0],[13.27403,-8.79458,0.0],[13.27403,-8.79431,0.0],[13.27431,-8.79431,0.0],[13.27431,-8.79375,0.0],[13.27458,-8.79375,0.0],[13.27458,-8.79347,0.0],[13.27514,-8.79347,0.0],[13.27514,-8.7932,0.0],[13.2753,-8.7932,0.0],[13.27539,-8.79324,0.0],[13.27577,-8.79343,0.0],[13.27587,-8.79347,0.0],[13.27581,-8.79353,0.0],[13.27324,-8.79574,0.0],[13.27319,-8.79542,0.0],[13.27347,-8.79542,0.0]]],[[[13.26347,-8.76042,0.0],[13.26347,-8.76097,0.0],[13.26375,-8.76097,0.0],[13.26375,-8.76153,0.0],[13.26347,-8.76153,0.0],[13.26347,-8.7618,0.0],[13.26292,-8.7618,0.0],[13.26292,-8.76209,0.0],[13.26292,-8.76236,0.0],[13.26272,-8.76236,0.0],[13.26264,-8.76236,0.0],[13.26264,-8.76251,0.0],[13.26264,-8.76292,0.0],[13.26236,-8.76292,0.0],[13.26236,-8.76319,0.0],[13.26208,-8.76319,0.0],[13.26208,-8.76347,0.0],[13.2618,-8.76347,0.0],[13.2618,-8.76375,0.0],[13.26153,-8.76375,0.0],[13.26125,-8.76375,0.0],[13.26125,-8.76402,0.0],[13.26097,-8.76403,0.0],[13.26097,-8.76429,0.0],[13.2607,-8.76431,0.0],[13.2607,-8.76454,0.0],[13.26063,-8.76458,0.0],[13.26042,-8.76458,0.0],[13.26042,-8.76474,0.0],[13.26042,-8.76486,0.0],[13.26024,-8.76486,0.0],[13.25986,-8.76486,0.0],[13.25986,-8.76514,0.0],[13.25958,-8.76514,0.0],[13.25958,-8.76542,0.0],[13.25903,-8.76542,0.0],[13.25903,-8.7657,0.0],[13.25875,-8.7657,0.0],[13.25875,-8.76597,0.0],[13.25875,-8.76625,0.0],[13.25847,-8.76625,0.0],[13.25847,-8.76681,0.0],[13.25819,-8.76681,0.0],[13.25819,-8.76736,0.0],[13.25792,-8.76736,0.0],[13.25792,-8.76819,0.0],[13.25764,-8.76819,0.0],[13.25764,-8.76847,0.0],[13.25736,-8.76847,0.0],[13.25736,-8.76903,0.0],[13.25708,-8.76903,0.0],[13.25708,-8.76931,0.0],[13.25681,-8.76931,0.0],[13.25681,-8.76958,0.0],[13.25625,-8.76958,0.0],[13.25625,-8.76986,0.0],[13.25597,-8.76986,0.0],[13.25597,-8.77014,0.0],[13.2557,-8.77014,0.0],[13.2557,-8.77042,0.0],[13.25542,-8.77042,0.0],[13.25542,-8.77097,0.0],[13.25458,-8.77097,0.0],[13.25458,-8.77125,0.0],[13.25403,-8.77125,0.0],[13.25403,-8.77153,0.0],[13.25342,-8.77149,0.0],[13.25347,-8.77181,0.0],[13.25317,-8.77179,0.0],[13.25319,-8.77208,0.0],[13.25292,-8.77208,0.0],[13.25292,-8.77292,0.0],[13.25319,-8.77292,0.0],[13.25319,-8.77319,0.0],[13.25292,-8.77319,0.0],[13.25292,-8.77375,0.0],[13.25264,-8.77375,0.0],[13.25264,-8.77403,0.0],[13.25236,-8.77403,0.0],[13.25236,-8.77431,0.0],[13.25208,-8.77431,0.0],[13.25208,-8.77458,0.0],[13.2518,-8.77458,0.0],[13.2518,-8.77486,0.0],[13.25153,-8.77486,0.0],[13.25153,-8.77514,0.0],[13.25125,-8.77514,0.0],[13.25125,-8.77542,0.0],[13.25097,-8.77542,0.0],[13.25097,-8.77569,0.0],[13.2507,-8.77569,0.0],[13.2507,-8.77597,0.0],[13.25042,-8.77597,0.0],[13.25042,-8.77625,0.0],[13.24986,-8.77625,0.0],[13.24986,-8.77653,0.0],[13.24931,-8.77653,0.0],[13.24931,-8.77736,0.0],[13.24958,-8.77736,0.0],[13.24958,-8.77903,0.0],[13.24764,-8.77903,0.0],[13.24764,-8.7793,0.0],[13.24736,-8.7793,0.0],[13.24736,-8.77986,0.0],[13.24681,-8.77986,0.0],[13.24681,-8.77958,0.0],[13.24597,-8.77958,0.0],[13.24597,-8.77986,0.0],[13.24569,-8.77986,0.0],[13.24569,-8.78069,0.0],[13.24542,-8.78069,0.0],[13.24542,-8.78042,0.0],[13.24514,-8.78042,0.0],[13.24514,-8.78069,0.0],[13.24501,-8.78069,0.0],[13.24486,-8.78069,0.0],[13.24486,-8.78097,0.0],[13.24458,-8.78097,0.0],[13.24458,-8.78114,0.0],[13.24458,-8.78181,0.0],[13.24431,-8.78181,0.0],[13.24431,-8.78208,0.0],[13.24458,-8.78208,0.0],[13.24458,-8.78236,0.0],[13.24347,-8.78236,0.0],[13.24347,-8.78208,0.0],[13.24292,-8.78208,0.0],[13.24292,-8.78181,0.0],[13.24153,-8.78181,0.0],[13.24153,-8.78208,0.0],[13.24125,-8.78208,0.0],[13.24125,-8.78236,0.0],[13.24069,-8.78236,0.0],[13.24069,-8.78264,0.0],[13.24042,-8.78264,0.0],[13.24042,-8.78292,0.0],[13.24014,-8.78292,0.0],[13.24014,-8.78319,0.0],[13.23958,-8.78319,0.0],[13.23958,-8.78347,0.0],[13.23764,-8.78347,0.0],[13.23764,-8.78375,0.0],[13.2368,-8.78375,0.0],[13.2368,-8.78403,0.0],[13.23653,-8.78403,0.0],[13.23653,-8.78458,0.0],[13.23597,-8.78458,0.0],[13.23597,-8.78486,0.0],[13.23537,-8.78482,0.0],[13.23542,-8.78514,0.0],[13.23509,-8.78509,0.0],[13.23514,-8.78625,0.0],[13.23486,-8.78625,0.0],[13.23486,-8.78681,0.0],[13.23458,-8.78681,0.0],[13.23458,-8.78708,0.0],[13.23403,-8.78708,0.0],[13.23403,-8.78736,0.0],[13.23384,-8.78736,0.0],[13.23375,-8.78736,0.0],[13.23375,-8.7875,0.0],[13.23375,-8.78792,0.0],[13.23347,-8.78792,0.0],[13.23347,-8.78847,0.0],[13.2332,-8.78847,0.0],[13.2332,-8.78875,0.0],[13.23292,-8.78875,0.0],[13.23292,-8.78903,0.0],[13.23153,-8.78903,0.0],[13.23153,-8.7893,0.0],[13.23097,-8.7893,0.0],[13.23097,-8.78958,0.0],[13.23069,-8.78958,0.0],[13.23069,-8.78986,0.0],[13.23014,-8.78986,0.0],[13.23014,-8.79014,0.0],[13.22986,-8.79014,0.0],[13.22986,-8.79042,0.0],[13.22931,-8.79042,0.0],[13.22931,-8.79069,0.0],[13.22875,-8.79069,0.0],[13.22875,-8.79097,0.0],[13.2282,-8.79097,0.0],[13.2282,-8.79153,0.0],[13.22792,-8.79153,0.0],[13.22792,-8.79181,0.0],[13.22764,-8.79181,0.0],[13.22764,-8.79208,0.0],[13.22736,-8.79208,0.0],[13.22736,-8.79236,0.0],[13.22708,-8.79236,0.0],[13.22708,-8.79264,0.0],[13.2268,-8.79264,0.0],[13.2268,-8.79252,0.0],[13.2268,-8.79236,0.0],[13.22625,-8.79236,0.0],[13.22625,-8.79208,0.0],[13.22653,-8.79208,0.0],[13.22653,-8.79153,0.0],[13.2268,-8.79153,0.0],[13.2268,-8.79097,0.0],[13.22708,-8.79097,0.0],[13.22709,-8.79038,0.0],[13.22736,-8.79042,0.0],[13.22736,-8.79014,0.0],[13.22764,-8.79014,0.0],[13.22764,-8.78958,0.0],[13.22792,-8.78958,0.0],[13.22788,-8.78931,0.0],[13.2282,-8.7893,0.0],[13.2282,-8.78903,0.0],[13.22847,-8.78903,0.0],[13.22847,-8.78891,0.0],[13.22847,-8.78875,0.0],[13.22875,-8.78875,0.0],[13.22875,-8.78847,0.0],[13.22903,-8.78847,0.0],[13.22903,-8.78819,0.0],[13.22931,-8.78819,0.0],[13.22931,-8.78792,0.0],[13.22958,-8.78792,0.0],[13.22958,-8.78736,0.0],[13.22931,-8.78736,0.0],[13.22931,-8.78695,0.0],[13.22931,-8.78653,0.0],[13.22986,-8.78653,0.0],[13.22986,-8.78597,0.0],[13.23042,-8.78596,0.0],[13.23042,-8.7857,0.0],[13.23061,-8.7857,0.0],[13.23068,-8.7857,0.0],[13.23095,-8.7857,0.0],[13.23153,-8.7857,0.0],[13.23153,-8.78542,0.0],[13.2318,-8.78542,0.0],[13.2318,-8.78514,0.0],[13.23208,-8.78514,0.0],[13.23208,-8.78486,0.0],[13.23236,-8.78486,0.0],[13.23236,-8.78458,0.0],[13.23264,-8.78458,0.0],[13.23264,-8.7843,0.0],[13.2332,-8.7843,0.0],[13.2332,-8.78403,0.0],[13.23347,-8.78403,0.0],[13.23347,-8.78375,0.0],[13.23375,-8.78375,0.0],[13.23375,-8.78347,0.0],[13.23431,-8.78347,0.0],[13.23431,-8.78319,0.0],[13.23458,-8.78319,0.0],[13.23458,-8.78264,0.0],[13.23514,-8.78264,0.0],[13.23514,-8.78236,0.0],[13.2357,-8.78236,0.0],[13.2357,-8.78208,0.0],[13.23597,-8.78208,0.0],[13.23597,-8.78181,0.0],[13.23653,-8.78181,0.0],[13.23653,-8.78153,0.0],[13.23708,-8.78153,0.0],[13.23708,-8.78125,0.0],[13.23764,-8.78125,0.0],[13.23764,-8.78097,0.0],[13.23819,-8.78097,0.0],[13.23819,-8.78069,0.0],[13.23847,-8.78069,0.0],[13.23847,-8.78042,0.0],[13.23903,-8.78042,0.0],[13.23903,-8.78014,0.0],[13.23931,-8.78014,0.0],[13.23931,-8.77986,0.0],[13.23986,-8.77986,0.0],[13.23986,-8.77958,0.0],[13.24042,-8.77958,0.0],[13.24042,-8.7793,0.0],[13.24069,-8.7793,0.0],[13.24069,-8.77903,0.0],[13.24181,-8.77903,0.0],[13.24181,-8.77875,0.0],[13.24208,-8.77875,0.0],[13.24208,-8.7782,0.0],[13.24236,-8.7782,0.0],[13.24236,-8.77792,0.0],[13.24264,-8.77792,0.0],[13.24264,-8.77764,0.0],[13.24292,-8.77764,0.0],[13.24292,-8.77736,0.0],[13.24347,-8.77736,0.0],[13.24347,-8.77708,0.0],[13.24375,-8.77708,0.0],[13.24375,-8.77681,0.0],[13.24431,-8.77681,0.0],[13.24431,-8.77597,0.0],[13.24569,-8.77597,0.0],[13.24569,-8.77514,0.0],[13.24597,-8.77514,0.0],[13.24597,-8.77486,0.0],[13.24681,-8.77486,0.0],[13.24681,-8.77458,0.0],[13.24708,-8.77458,0.0],[13.24708,-8.77403,0.0],[13.24736,-8.77403,0.0],[13.24736,-8.77375,0.0],[13.24819,-8.77375,0.0],[13.24819,-8.77347,0.0],[13.24847,-8.77347,0.0],[13.24847,-8.77264,0.0],[13.24875,-8.77264,0.0],[13.24875,-8.77236,0.0],[13.24958,-8.77236,0.0],[13.24958,-8.77208,0.0],[13.24986,-8.77208,0.0],[13.24986,-8.77181,0.0],[13.25014,-8.77181,0.0],[13.25014,-8.77153,0.0],[13.25042,-8.77153,0.0],[13.25042,-8.77125,0.0],[13.2507,-8.77125,0.0],[13.2507,-8.77097,0.0],[13.25097,-8.77097,0.0],[13.25097,-8.77069,0.0],[13.25125,-8.77069,0.0],[13.25125,-8.77042,0.0],[13.25153,-8.77042,0.0],[13.25153,-8.77014,0.0],[13.25208,-8.77014,0.0],[13.25208,-8.76986,0.0],[13.25236,-8.76986,0.0],[13.25236,-8.76931,0.0],[13.25264,-8.76931,0.0],[13.25264,-8.76903,0.0],[13.25292,-8.76903,0.0],[13.25292,-8.76875,0.0],[13.25347,-8.76875,0.0],[13.25347,-8.76847,0.0],[13.25375,-8.76847,0.0],[13.25375,-8.76792,0.0],[13.25431,-8.76792,0.0],[13.25431,-8.76764,0.0],[13.25458,-8.76764,0.0],[13.25458,-8.76736,0.0],[13.25514,-8.76736,0.0],[13.25514,-8.76708,0.0],[13.25542,-8.76708,0.0],[13.25542,-8.76681,0.0],[13.2557,-8.76681,0.0],[13.2557,-8.76653,0.0],[13.25625,-8.76653,0.0],[13.25625,-8.76625,0.0],[13.25653,-8.76625,0.0],[13.25653,-8.76597,0.0],[13.25681,-8.76597,0.0],[13.25681,-8.7657,0.0],[13.25708,-8.7657,0.0],[13.25708,-8.76542,0.0],[13.25736,-8.76542,0.0],[13.25736,-8.76514,0.0],[13.25764,-8.76514,0.0],[13.25764,-8.76458,0.0],[13.25792,-8.76458,0.0],[13.25792,-8.76431,0.0],[13.25819,-8.76431,0.0],[13.25819,-8.76403,0.0],[13.25875,-8.76403,0.0],[13.25875,-8.76375,0.0],[13.25903,-8.76375,0.0],[13.25903,-8.76347,0.0],[13.2593,-8.76347,0.0],[13.2593,-8.76319,0.0],[13.25958,-8.76319,0.0],[13.25958,-8.76292,0.0],[13.26014,-8.76292,0.0],[13.26014,-8.76264,0.0],[13.26042,-8.76264,0.0],[13.26042,-8.76236,0.0],[13.2607,-8.76236,0.0],[13.2607,-8.7618,0.0],[13.26097,-8.7618,0.0],[13.26097,-8.76125,0.0],[13.26125,-8.76125,0.0],[13.26125,-8.76097,0.0],[13.2618,-8.76097,0.0],[13.2618,-8.76042,0.0],[13.26208,-8.76042,0.0],[13.26208,-8.76014,0.0],[13.26265,-8.76014,0.0],[13.26278,-8.76014,0.0],[13.26292,-8.76014,0.0],[13.26292,-8.76042,0.0],[13.26347,-8.76042,0.0]]]]}},{"type":"Feature","properties":{"uesi_id":"AGO_R11704226","nbhd_code":"AGO_R11704226_4","nbhd_name":"Rangel"},"geometry":{"type":"MultiPolygon","coordinates":[[[[13.27264,-8.81968,0.0],[13.27288,-8.82208,0.0],[13.27345,-8.82808,0.0],[13.27393,-8.8324,0.0],[13.274,-8.83336,0.0],[13.27445,-8.83763,0.0],[13.27456,-8.83901,0.0],[13.275,-8.84388,0.0],[13.27221,-8.84224,0.0],[13.27139,-8.8418,0.0],[13.26999,-8.84105,0.0],[13.2692,-8.84064,0.0],[13.26835,-8.84039,0.0],[13.26726,-8.83993,0.0],[13.26654,-8.83968,0.0],[13.26626,-8.83947,0.0],[13.26515,-8.839,0.0],[13.26409,-8.83861,0.0],[13.26334,-8.83827,0.0],[13.26194,-8.83764,0.0],[13.26124,-8.83732,0.0],[13.26064,-8.83715,0.0],[13.2597,-8.83664,0.0],[13.25797,-8.83578,0.0],[13.25599,-8.83454,0.0],[13.25438,-8.83364,0.0],[13.25317,-8.83284,0.0],[13.25214,-8.83221,0.0],[13.24897,-8.83026,0.0],[13.2462,-8.82855,0.0],[13.24466,-8.82752,0.0],[13.24404,-8.8272,0.0],[13.24367,-8.82698,0.0],[13.24434,-8.82571,0.0],[13.24492,-8.82463,0.0],[13.2452,-8.82362,0.0],[13.24551,-8.82256,0.0],[13.24607,-8.82051,0.0],[13.24632,-8.81975,0.0],[13.24688,-8.82003,0.0],[13.24768,-8.82055,0.0],[13.24818,-8.8208,0.0],[13.24925,-8.82141,0.0],[13.25012,-8.82185,0.0],[13.25111,-8.82244,0.0],[13.25169,-8.82271,0.0],[13.25236,-8.82318,0.0],[13.25289,-8.82342,0.0],[13.25344,-8.82372,0.0],[13.25354,-8.82341,0.0],[13.25405,-8.82264,0.0],[13.25411,-8.82126,0.0],[13.25438,-8.82009,0.0],[13.2547,-8.81915,0.0],[13.25509,-8.81812,0.0],[13.2556,-8.81687,0.0],[13.25587,-8.81621,0.0],[13.26041,-8.81594,0.0],[13.26162,-8.81583,0.0],[13.26312,-8.81584,0.0],[13.26755,-8.81581,0.0],[13.2696,-8.81578,0.0],[13.27124,-8.81576,0.0],[13.27183,-8.81567,0.0],[13.27205,-8.81685,0.0],[13.27232,-8.81813,0.0],[13.27264,-8.81968,0.0]]]]}},{"type":"Feature","properties":{"uesi_id":"AGO_R11704226","nbhd_code":"AGO_R11704226_5","nbhd_name":"Sambizanga"},"geometry":{"type":"MultiPolygon","coordinates":[[[[13.27183,-8.81567,0.0],[13.27124,-8.81576,0.0],[13.2696,-8.81578,0.0],[13.26755,-8.81581,0.0],[13.26312,-8.81584,0.0],[13.26162,-8.81583,0.0],[13.26041,-8.81594,0.0],[13.25587,-8.81621,0.0],[13.25587,-8.81608,0.0],[13.25611,-8.81575,0.0],[13.25647,-8.8151,0.0],[13.25651,-8.81479,0.0],[13.25703,-8.81378,0.0],[13.25759,-8.8127,0.0],[13.25754,-8.81236,0.0],[13.25733,-8.81183,0.0],[13.25716,-8.81141,0.0],[13.25698,-8.81131,0.0],[13.25713,-8.81086,0.0],[13.25745,-8.81003,0.0],[13.25807,-8.80896,0.0],[13.25835,-8.80856,0.0],[13.25891,-8.80835,0.0],[13.25909,-8.80789,0.0],[13.25912,-8.80739,0.0],[13.25916,-8.80699,0.0],[13.2592,-8.80685,0.0],[13.25937,-8.80696,0.0],[13.25965,-8.80709,0.0],[13.26015,-8.80715,0.0],[13.26027,-8.80762,0.0],[13.26064,-8.80772,0.0],[13.26119,-8.80825,0.0],[13.26144,-8.80816,0.0],[13.26126,-8.80782,0.0],[13.26098,-8.80741,0.0],[13.26107,-8.80732,0.0],[13.26166,-8.80779,0.0],[13.262,-8.80777,0.0],[13.26191,-8.80745,0.0],[13.26163,-8.80727,0.0],[13.26154,-8.80677,0.0],[13.26197,-8.80681,0.0],[13.26228,-8.80743,0.0],[13.26265,-8.80759,0.0],[13.26342,-8.80719,0.0],[13.26327,-8.80691,0.0],[13.26318,-8.80636,0.0],[13.26293,-8.80595,0.0],[13.26262,-8.80585,0.0],[13.26284,-8.80567,0.0],[13.26278,-8.8053,0.0],[13.26315,-8.80534,0.0],[13.26309,-8.80493,0.0],[13.26356,-8.80469,0.0],[13.26393,-8.80476,0.0],[13.26408,-8.8047,0.0],[13.2638,-8.80445,0.0],[13.26378,-8.80401,0.0],[13.26418,-8.80395,0.0],[13.26486,-8.80421,0.0],[13.2651,-8.80468,0.0],[13.26557,-8.80468,0.0],[13.26569,-8.80499,0.0],[13.26584,-8.80478,0.0],[13.26597,-8.80472,0.0],[13.26625,-8.80469,0.0],[13.26628,-8.80441,0.0],[13.2665,-8.8042,0.0],[13.26647,-8.8038,0.0],[13.26604,-8.80345,0.0],[13.26619,-8.80317,0.0],[13.26656,-8.80305,0.0],[13.26687,-8.80315,0.0],[13.26687,-8.80281,0.0],[13.26737,-8.8022,0.0],[13.26787,-8.80171,0.0],[13.26833,-8.80156,0.0],[13.2692,-8.80117,0.0],[13.26935,-8.80092,0.0],[13.26945,-8.80062,0.0],[13.26954,-8.80028,0.0],[13.26959,-8.79997,0.0],[13.27018,-8.79963,0.0],[13.27046,-8.7993,0.0],[13.27073,-8.79958,0.0],[13.27095,-8.79989,0.0],[13.27098,-8.7994,0.0],[13.27108,-8.79893,0.0],[13.27133,-8.7989,0.0],[13.27114,-8.7985,0.0],[13.27048,-8.79811,0.0],[13.27324,-8.79574,0.0],[13.27581,-8.79353,0.0],[13.27587,-8.79347,0.0],[13.27577,-8.79343,0.0],[13.27539,-8.79324,0.0],[13.27542,-8.79264,0.0],[13.27597,-8.79264,0.0],[13.27597,-8.79208,0.0],[13.27625,-8.79208,0.0],[13.27625,-8.79153,0.0],[13.27653,-8.79153,0.0],[13.27653,-8.79118,0.0],[13.27653,-8.79069,0.0],[13.27681,-8.79069,0.0],[13.27681,-8.79042,0.0],[13.277,-8.79042,0.0],[13.27708,-8.79042,0.0],[13.27708,-8.79028,0.0],[13.27708,-8.78957,0.0],[13.27708,-8.78947,0.0],[13.27708,-8.7893,0.0],[13.27681,-8.7893,0.0],[13.27681,-8.78872,0.0],[13.27681,-8.78819,0.0],[13.27708,-8.78819,0.0],[13.27708,-8.78847,0.0],[13.27736,-8.78847,0.0],[13.27736,-8.78819,0.0],[13.27764,-8.78819,0.0],[13.27764,-8.78792,0.0],[13.27792,-8.78792,0.0],[13.27792,-8.78773,0.0],[13.27792,-8.78764,0.0],[13.2781,-8.78764,0.0],[13.2782,-8.78764,0.0],[13.2782,-8.78716,0.0],[13.2782,-8.78708,0.0],[13.27792,-8.78708,0.0],[13.27792,-8.78681,0.0],[13.27764,-8.78681,0.0],[13.27764,-8.78619,0.0],[13.27764,-8.78508,0.0],[13.27764,-8.78486,0.0],[13.27805,-8.78486,0.0],[13.27819,-8.78486,0.0],[13.2782,-8.78514,0.0],[13.27847,-8.78514,0.0],[13.27847,-8.78542,0.0],[13.27875,-8.78542,0.0],[13.27875,-8.7857,0.0],[13.27903,-8.7857,0.0],[13.27903,-8.78542,0.0],[13.2793,-8.78542,0.0],[13.2793,-8.78483,0.0],[13.27958,-8.78486,0.0],[13.27958,-8.78458,0.0],[13.27986,-8.78458,0.0],[13.27986,-8.78403,0.0],[13.28042,-8.78403,0.0],[13.28042,-8.7843,0.0],[13.28069,-8.7843,0.0],[13.28069,-8.78458,0.0],[13.28042,-8.78458,0.0],[13.28042,-8.78483,0.0],[13.28125,-8.78486,0.0],[13.28125,-8.78514,0.0],[13.28181,-8.78514,0.0],[13.28292,-8.78514,0.0],[13.28292,-8.78486,0.0],[13.28319,-8.78486,0.0],[13.28319,-8.78471,0.0],[13.28319,-8.78458,0.0],[13.28347,-8.78458,0.0],[13.28347,-8.7843,0.0],[13.28375,-8.7843,0.0],[13.28375,-8.78403,0.0],[13.28403,-8.78403,0.0],[13.28403,-8.78375,0.0],[13.2843,-8.78375,0.0],[13.2843,-8.78292,0.0],[13.28458,-8.78292,0.0],[13.28458,-8.78248,0.0],[13.28458,-8.78236,0.0],[13.28466,-8.78236,0.0],[13.28486,-8.78236,0.0],[13.28486,-8.78209,0.0],[13.28486,-8.78125,0.0],[13.28506,-8.78125,0.0],[13.28514,-8.78125,0.0],[13.28514,-8.78097,0.0],[13.28504,-8.78097,0.0],[13.28486,-8.78097,0.0],[13.28486,-8.78079,0.0],[13.28486,-8.78069,0.0],[13.28471,-8.78069,0.0],[13.28458,-8.78069,0.0],[13.28458,-8.78061,0.0],[13.28458,-8.78014,0.0],[13.2843,-8.78014,0.0],[13.2843,-8.77958,0.0],[13.28458,-8.77958,0.0],[13.28458,-8.77875,0.0],[13.28458,-8.77836,0.0],[13.28458,-8.77695,0.0],[13.28458,-8.77542,0.0],[13.28486,-8.77542,0.0],[13.28486,-8.77514,0.0],[13.28514,-8.77513,0.0],[13.28514,-8.77485,0.0],[13.28514,-8.77458,0.0],[13.28522,-8.77458,0.0],[13.28542,-8.77458,0.0],[13.28542,-8.77374,0.0],[13.28542,-8.77319,0.0],[13.28561,-8.77319,0.0],[13.2857,-8.77319,0.0],[13.2857,-8.77306,0.0],[13.2857,-8.77236,0.0],[13.28597,-8.77236,0.0],[13.28597,-8.77153,0.0],[13.28625,-8.77153,0.0],[13.28625,-8.77125,0.0],[13.28653,-8.77125,0.0],[13.28653,-8.77097,0.0],[13.28681,-8.77097,0.0],[13.28681,-8.76958,0.0],[13.28708,-8.76958,0.0],[13.28708,-8.76931,0.0],[13.28736,-8.76931,0.0],[13.28736,-8.76819,0.0],[13.28764,-8.76819,0.0],[13.28764,-8.76792,0.0],[13.28792,-8.76792,0.0],[13.28792,-8.76764,0.0],[13.28819,-8.76764,0.0],[13.28819,-8.76681,0.0],[13.28847,-8.76681,0.0],[13.28847,-8.76653,0.0],[13.28875,-8.76653,0.0],[13.28875,-8.7657,0.0],[13.28903,-8.7657,0.0],[13.28903,-8.76514,0.0],[13.28927,-8.76514,0.0],[13.2893,-8.76507,0.0],[13.2893,-8.76486,0.0],[13.28944,-8.76486,0.0],[13.28958,-8.76486,0.0],[13.28958,-8.76464,0.0],[13.28958,-8.76403,0.0],[13.28986,-8.76403,0.0],[13.28986,-8.76375,0.0],[13.29042,-8.76375,0.0],[13.29042,-8.76347,0.0],[13.29069,-8.76347,0.0],[13.29069,-8.76319,0.0],[13.29097,-8.76319,0.0],[13.29097,-8.76292,0.0],[13.29125,-8.76292,0.0],[13.29125,-8.76264,0.0],[13.29153,-8.76264,0.0],[13.29153,-8.76236,0.0],[13.29181,-8.76236,0.0],[13.29181,-8.76208,0.0],[13.29208,-8.76208,0.0],[13.29208,-8.7618,0.0],[13.29264,-8.7618,0.0],[13.29264,-8.76153,0.0],[13.2932,-8.76153,0.0],[13.2932,-8.76125,0.0],[13.29347,-8.76125,0.0],[13.29347,-8.76097,0.0],[13.29375,-8.76097,0.0],[13.29375,-8.7607,0.0],[13.29431,-8.7607,0.0],[13.29431,-8.76042,0.0],[13.29458,-8.76042,0.0],[13.29458,-8.76014,0.0],[13.29486,-8.76014,0.0],[13.29486,-8.75986,0.0],[13.29514,-8.75986,0.0],[13.29514,-8.75958,0.0],[13.29569,-8.75958,0.0],[13.29569,-8.7593,0.0],[13.29625,-8.7593,0.0],[13.29625,-8.75903,0.0],[13.29681,-8.75903,0.0],[13.29681,-8.75875,0.0],[13.29699,-8.75875,0.0],[13.29708,-8.75872,0.0],[13.29708,-8.75847,0.0],[13.29736,-8.75847,0.0],[13.29736,-8.75819,0.0],[13.29764,-8.75819,0.0],[13.29764,-8.75792,0.0],[13.29819,-8.75792,0.0],[13.29819,-8.75764,0.0],[13.29875,-8.75764,0.0],[13.29875,-8.75736,0.0],[13.29931,-8.75736,0.0],[13.29931,-8.75708,0.0],[13.29958,-8.75708,0.0],[13.29958,-8.75681,0.0],[13.29986,-8.75681,0.0],[13.29986,-8.75653,0.0],[13.30097,-8.75653,0.0],[13.30097,-8.75625,0.0],[13.30125,-8.75625,0.0],[13.30125,-8.75597,0.0],[13.30208,-8.75597,0.0],[13.30208,-8.7557,0.0],[13.30432,-8.7557,0.0],[13.30341,-8.75592,0.0],[13.30273,-8.75615,0.0],[13.30272,-8.75629,0.0],[13.30282,-8.75648,0.0],[13.30293,-8.7573,0.0],[13.3033,-8.75857,0.0],[13.30349,-8.75951,0.0],[13.30381,-8.7613,0.0],[13.30432,-8.76363,0.0],[13.30467,-8.76495,0.0],[13.30493,-8.76623,0.0],[13.30511,-8.76713,0.0],[13.30555,-8.76876,0.0],[13.30585,-8.77023,0.0],[13.30672,-8.77397,0.0],[13.30728,-8.7766,0.0],[13.30744,-8.77729,0.0],[13.30761,-8.778,0.0],[13.30781,-8.77882,0.0],[13.30812,-8.78016,0.0],[13.30822,-8.78054,0.0],[13.30839,-8.78126,0.0],[13.30849,-8.78168,0.0],[13.30853,-8.78187,0.0],[13.30859,-8.78227,0.0],[13.30867,-8.78284,0.0],[13.30871,-8.78306,0.0],[13.30875,-8.7833,0.0],[13.30882,-8.78356,0.0],[13.30904,-8.78388,0.0],[13.30934,-8.78398,0.0],[13.31039,-8.78819,0.0],[13.30723,-8.7887,0.0],[13.30699,-8.78867,0.0],[13.3069,-8.78783,0.0],[13.30681,-8.78695,0.0],[13.30679,-8.7868,0.0],[13.30676,-8.78649,0.0],[13.3067,-8.78601,0.0],[13.30667,-8.78562,0.0],[13.30665,-8.78547,0.0],[13.30656,-8.78553,0.0],[13.30594,-8.78596,0.0],[13.30531,-8.78641,0.0],[13.30523,-8.78647,0.0],[13.3038,-8.78747,0.0],[13.30261,-8.78823,0.0],[13.30208,-8.78858,0.0],[13.30148,-8.78899,0.0],[13.30077,-8.78947,0.0],[13.3004,-8.78977,0.0],[13.29965,-8.79027,0.0],[13.29933,-8.79051,0.0],[13.29912,-8.79065,0.0],[13.29865,-8.79097,0.0],[13.29828,-8.79123,0.0],[13.29821,-8.7913,0.0],[13.29798,-8.79143,0.0],[13.29787,-8.7915,0.0],[13.29748,-8.79174,0.0],[13.29707,-8.792,0.0],[13.29694,-8.792,0.0],[13.29672,-8.79203,0.0],[13.29663,-8.79212,0.0],[13.29622,-8.79243,0.0],[13.29571,-8.79281,0.0],[13.29555,-8.79295,0.0],[13.29517,-8.79326,0.0],[13.2951,-8.79334,0.0],[13.29471,-8.79359,0.0],[13.29458,-8.79368,0.0],[13.29422,-8.79389,0.0],[13.29312,-8.79459,0.0],[13.29243,-8.79501,0.0],[13.29231,-8.79512,0.0],[13.29183,-8.79556,0.0],[13.29175,-8.79566,0.0],[13.29142,-8.79587,0.0],[13.29129,-8.79597,0.0],[13.29086,-8.79624,0.0],[13.29079,-8.79628,0.0],[13.29041,-8.79651,0.0],[13.29014,-8.7967,0.0],[13.28994,-8.79681,0.0],[13.28978,-8.79691,0.0],[13.28937,-8.79718,0.0],[13.28885,-8.7975,0.0],[13.28857,-8.79768,0.0],[13.28819,-8.79801,0.0],[13.28808,-8.79808,0.0],[13.28791,-8.79822,0.0],[13.28777,-8.79829,0.0],[13.28736,-8.79852,0.0],[13.28711,-8.79874,0.0],[13.28694,-8.79884,0.0],[13.2864,-8.79926,0.0],[13.2863,-8.79935,0.0],[13.28594,-8.79974,0.0],[13.2856,-8.80004,0.0],[13.28543,-8.80005,0.0],[13.28519,-8.80006,0.0],[13.28481,-8.80006,0.0],[13.28449,-8.79996,0.0],[13.28401,-8.79982,0.0],[13.28361,-8.79982,0.0],[13.28283,-8.79981,0.0],[13.28111,-8.79979,0.0],[13.27981,-8.79977,0.0],[13.27877,-8.7999,0.0],[13.27824,-8.8,0.0],[13.27747,-8.79998,0.0],[13.27736,-8.80022,0.0],[13.27705,-8.80169,0.0],[13.27697,-8.80231,0.0],[13.27666,-8.80359,0.0],[13.27629,-8.80457,0.0],[13.27575,-8.8056,0.0],[13.27528,-8.80656,0.0],[13.27487,-8.8074,0.0],[13.27413,-8.80898,0.0],[13.2737,-8.80977,0.0],[13.27304,-8.81116,0.0],[13.27271,-8.81166,0.0],[13.27225,-8.81238,0.0],[13.27162,-8.81365,0.0],[13.27164,-8.8149,0.0],[13.27183,-8.81567,0.0]]]]}},{"type":"Feature","properties":{"uesi_id":"AGO_R11704226","nbhd_code":"AGO_R11704226_6","nbhd_name":"Maianga"},"geometry":{"type":"MultiPolygon","coordinates":[[[[13.21976,-8.83065,0.0],[13.21971,-8.83056,0.0],[13.22067,-8.82947,0.0],[13.22113,-8.82892,0.0],[13.22406,-8.82534,0.0],[13.22479,-8.82445,0.0],[13.22577,-8.82301,0.0],[13.22633,-8.82229,0.0],[13.22641,-8.8218,0.0],[13.22719,-8.82187,0.0],[13.22791,-8.8222,0.0],[13.22925,-8.82285,0.0],[13.22972,-8.82312,0.0],[13.2302,-8.8234,0.0],[13.23121,-8.824,0.0],[13.23202,-8.82421,0.0],[13.23237,-8.82433,0.0],[13.23297,-8.82468,0.0],[13.23347,-8.82515,0.0],[13.23402,-8.82557,0.0],[13.23452,-8.82582,0.0],[13.23508,-8.82594,0.0],[13.23592,-8.82566,0.0],[13.23641,-8.82533,0.0],[13.23728,-8.82471,0.0],[13.23836,-8.82557,0.0],[13.239,-8.82749,0.0],[13.23821,-8.82941,0.0],[13.23725,-8.83099,0.0],[13.23952,-8.83229,0.0],[13.24008,-8.83159,0.0],[13.24032,-8.83125,0.0],[13.24196,-8.82948,0.0],[13.24259,-8.82862,0.0],[13.24317,-8.8278,0.0],[13.24367,-8.82698,0.0],[13.24404,-8.8272,0.0],[13.24466,-8.82752,0.0],[13.2462,-8.82855,0.0],[13.24897,-8.83026,0.0],[13.25214,-8.83221,0.0],[13.25317,-8.83284,0.0],[13.25438,-8.83364,0.0],[13.25599,-8.83454,0.0],[13.25797,-8.83578,0.0],[13.2597,-8.83664,0.0],[13.2595,-8.83671,0.0],[13.25877,-8.83705,0.0],[13.25751,-8.83754,0.0],[13.25606,-8.83816,0.0],[13.25589,-8.83804,0.0],[13.25572,-8.83804,0.0],[13.25553,-8.83888,0.0],[13.2557,-8.83895,0.0],[13.25587,-8.83905,0.0],[13.25579,-8.83922,0.0],[13.25553,-8.83953,0.0],[13.25528,-8.84003,0.0],[13.25511,-8.84125,0.0],[13.255,-8.84185,0.0],[13.25468,-8.84231,0.0],[13.25414,-8.84358,0.0],[13.25301,-8.84696,0.0],[13.25247,-8.8484,0.0],[13.25219,-8.8498,0.0],[13.2522,-8.8503,0.0],[13.25168,-8.8506,0.0],[13.2513,-8.85111,0.0],[13.24996,-8.85214,0.0],[13.24988,-8.85266,0.0],[13.2484,-8.85213,0.0],[13.24765,-8.85257,0.0],[13.24699,-8.85182,0.0],[13.24573,-8.85034,0.0],[13.24531,-8.8501,0.0],[13.24476,-8.85026,0.0],[13.24222,-8.85261,0.0],[13.23879,-8.8557,0.0],[13.23637,-8.85759,0.0],[13.23308,-8.8606,0.0],[13.22765,-8.86572,0.0],[13.22625,-8.86713,0.0],[13.22608,-8.8672,0.0],[13.22218,-8.87086,0.0],[13.21675,-8.87601,0.0],[13.21238,-8.87988,0.0],[13.20852,-8.88379,0.0],[13.20844,-8.88376,0.0],[13.2058,-8.88638,0.0],[13.20344,-8.88875,0.0],[13.20327,-8.88877,0.0],[13.2015,-8.8905,0.0],[13.19964,-8.89152,0.0],[13.19836,-8.89224,0.0],[13.19353,-8.89493,0.0],[13.19314,-8.8948,0.0],[13.1924,-8.89456,0.0],[13.19156,-8.89438,0.0],[13.19075,-8.89422,0.0],[13.18919,-8.89369,0.0],[13.18812,-8.89345,0.0],[13.18596,-8.89298,0.0],[13.18131,-8.89177,0.0],[13.18071,-8.89161,0.0],[13.18026,-8.8915,0.0],[13.17769,-8.89079,0.0],[13.17777,-8.89068,0.0],[13.1789,-8.88915,0.0],[13.17907,-8.88873,0.0],[13.17936,-8.88785,0.0],[13.17913,-8.88732,0.0],[13.17863,-8.88615,0.0],[13.17829,-8.88518,0.0],[13.1788,-8.88422,0.0],[13.17949,-8.88302,0.0],[13.18031,-8.88187,0.0],[13.18074,-8.88138,0.0],[13.18217,-8.88083,0.0],[13.18272,-8.88063,0.0],[13.18429,-8.88016,0.0],[13.18521,-8.87988,0.0],[13.18597,-8.87947,0.0],[13.18694,-8.8789,0.0],[13.1875,-8.87848,0.0],[13.18823,-8.87791,0.0],[13.19048,-8.87622,0.0],[13.19325,-8.87423,0.0],[13.19327,-8.87404,0.0],[13.19367,-8.87358,0.0],[13.19622,-8.87072,0.0],[13.19759,-8.86895,0.0],[13.20053,-8.86515,0.0],[13.20098,-8.86458,0.0],[13.20262,-8.86255,0.0],[13.20464,-8.85969,0.0],[13.20517,-8.85886,0.0],[13.20633,-8.85701,0.0],[13.20767,-8.85438,0.0],[13.20918,-8.85149,0.0],[13.2095,-8.85085,0.0],[13.21036,-8.84909,0.0],[13.21079,-8.84823,0.0],[13.21138,-8.84703,0.0],[13.21148,-8.84682,0.0],[13.21238,-8.84357,0.0],[13.2126,-8.84294,0.0],[13.21311,-8.84111,0.0],[13.21368,-8.83914,0.0],[13.21407,-8.83812,0.0],[13.21431,-8.83768,0.0],[13.21465,-8.83715,0.0],[13.21505,-8.83653,0.0],[13.21563,-8.83574,0.0],[13.21608,-8.83509,0.0],[13.21951,-8.83093,0.0],[13.21976,-8.83065,0.0]]]]}}]}