{"type":"FeatureCollection","name":"ALB_R1250106","crs":{"type":"name","properties":{"name":"urn:ogc:def:crs:OGC:1.3:CRS84"}},"features":[{"type":"Feature","properties":{"uesi_id":"ALB_R1250106","nbhd_code":"ALB_R1250106_1","nbhd_name":"Nj\u00ebsia Bashkiake Nr. 10"},"geometry":{"type":"MultiPolygon","coordinates":[[[[19.80614,41.33417,0.0],[19.80625,41.33397,0.0],[19.80648,41.33368,0.0],[19.80671,41.33354,0.0],[19.80697,41.33345,0.0],[19.80831,41.33305,0.0],[19.80955,41.33267,0.0],[19.80999,41.33252,0.0],[19.81069,41.33214,0.0],[19.81158,41.33167,0.0],[19.8127,41.33106,0.0],[19.81347,41.33063,0.0],[19.81426,41.33007,0.0],[19.8148,41.32965,0.0],[19.81523,41.32927,0.0],[19.81558,41.32916,0.0],[19.81607,41.32898,0.0],[19.8168,41.32875,0.0],[19.81774,41.32888,0.0],[19.81824,41.32906,0.0],[19.81852,41.32806,0.0],[19.81853,41.32804,0.0],[19.81884,41.32686,0.0],[19.8191,41.32601,0.0],[19.81933,41.32508,0.0],[19.81949,41.32453,0.0],[19.81969,41.32377,0.0],[19.81902,41.32366,0.0],[19.81579,41.32316,0.0],[19.81352,41.32281,0.0],[19.81248,41.32264,0.0],[19.81103,41.32241,0.0],[19.81055,41.32232,0.0],[19.81045,41.32276,0.0],[19.81033,41.32334,0.0],[19.81038,41.32346,0.0],[19.81034,41.32363,0.0],[19.81025,41.32399,0.0],[19.81019,41.32425,0.0],[19.81022,41.3243,0.0],[19.81024,41.32431,0.0],[19.8102,41.32451,0.0],[19.81019,41.32454,0.0],[19.80993,41.3245,0.0],[19.80989,41.32477,0.0],[19.81002,41.32478,0.0],[19.81009,41.32475,0.0],[19.81007,41.32482,0.0],[19.81007,41.32487,0.0],[19.81007,41.32492,0.0],[19.81006,41.32497,0.0],[19.81005,41.32504,0.0],[19.81006,41.32507,0.0],[19.81006,41.32514,0.0],[19.8101,41.32522,0.0],[19.81009,41.32528,0.0],[19.81004,41.32527,0.0],[19.80993,41.32527,0.0],[19.80988,41.32526,0.0],[19.80984,41.32525,0.0],[19.80983,41.32529,0.0],[19.80981,41.32534,0.0],[19.80979,41.32538,0.0],[19.80966,41.32543,0.0],[19.80959,41.32541,0.0],[19.80946,41.3254,0.0],[19.80942,41.3254,0.0],[19.80931,41.32538,0.0],[19.80929,41.32544,0.0],[19.80927,41.32552,0.0],[19.80923,41.32558,0.0],[19.8092,41.32567,0.0],[19.8092,41.32569,0.0],[19.80921,41.3257,0.0],[19.80915,41.32578,0.0],[19.80912,41.32577,0.0],[19.8091,41.32578,0.0],[19.80909,41.3258,0.0],[19.80916,41.32585,0.0],[19.80916,41.32587,0.0],[19.80913,41.3259,0.0],[19.80908,41.32595,0.0],[19.80901,41.32601,0.0],[19.80898,41.32603,0.0],[19.80895,41.32603,0.0],[19.80888,41.32601,0.0],[19.80883,41.32601,0.0],[19.80874,41.32602,0.0],[19.8087,41.32602,0.0],[19.80862,41.326,0.0],[19.80849,41.32595,0.0],[19.80843,41.32594,0.0],[19.80841,41.32594,0.0],[19.80834,41.32593,0.0],[19.80829,41.32601,0.0],[19.80821,41.32613,0.0],[19.80813,41.32616,0.0],[19.80807,41.32616,0.0],[19.80795,41.32614,0.0],[19.8079,41.32614,0.0],[19.80782,41.32616,0.0],[19.80768,41.32618,0.0],[19.80756,41.32616,0.0],[19.80743,41.32615,0.0],[19.8074,41.32615,0.0],[19.80738,41.32614,0.0],[19.80735,41.32615,0.0],[19.80733,41.32615,0.0],[19.80731,41.32615,0.0],[19.80728,41.32614,0.0],[19.80727,41.32616,0.0],[19.80716,41.32614,0.0],[19.80712,41.32613,0.0],[19.8071,41.32614,0.0],[19.80703,41.3263,0.0],[19.807,41.32636,0.0],[19.80694,41.32632,0.0],[19.8069,41.32632,0.0],[19.80688,41.32636,0.0],[19.80687,41.32638,0.0],[19.80679,41.32635,0.0],[19.80677,41.32634,0.0],[19.80674,41.32632,0.0],[19.8067,41.32631,0.0],[19.80666,41.32642,0.0],[19.80641,41.32636,0.0],[19.80629,41.32662,0.0],[19.80669,41.32675,0.0],[19.80681,41.32678,0.0],[19.8069,41.32681,0.0],[19.80705,41.32686,0.0],[19.80767,41.32707,0.0],[19.80792,41.32715,0.0],[19.80874,41.32739,0.0],[19.8087,41.32749,0.0],[19.80859,41.32778,0.0],[19.80838,41.32843,0.0],[19.80824,41.32899,0.0],[19.80803,41.32973,0.0],[19.80766,41.331,0.0],[19.80748,41.33153,0.0],[19.80736,41.332,0.0],[19.80617,41.33241,0.0],[19.80489,41.33288,0.0],[19.80534,41.33365,0.0],[19.80552,41.33383,0.0],[19.80614,41.33417,0.0]]]]}},{"type":"Feature","properties":{"uesi_id":"ALB_R1250106","nbhd_code":"ALB_R1250106_2","nbhd_name":"Nj\u00ebsia Bashkiake Nr. 7"},"geometry":{"type":"MultiPolygon","coordinates":[[[[19.81055,41.32232,0.0],[19.80996,41.32223,0.0],[19.80928,41.32212,0.0],[19.80796,41.32192,0.0],[19.80602,41.32161,0.0],[19.80544,41.32154,0.0],[19.80489,41.32144,0.0],[19.80391,41.32129,0.0],[19.80312,41.32117,0.0],[19.80223,41.32102,0.0],[19.8003,41.32073,0.0],[19.79969,41.32062,0.0],[19.79935,41.32057,0.0],[19.79912,41.32055,0.0],[19.79893,41.32051,0.0],[19.79866,41.32047,0.0],[19.79824,41.32041,0.0],[19.79799,41.32037,0.0],[19.79768,41.32033,0.0],[19.79736,41.3203,0.0],[19.79699,41.32029,0.0],[19.79658,41.32033,0.0],[19.79618,41.32038,0.0],[19.79587,41.32044,0.0],[19.79557,41.32052,0.0],[19.7953,41.32059,0.0],[19.79506,41.32067,0.0],[19.79472,41.32077,0.0],[19.79435,41.3209,0.0],[19.79405,41.321,0.0],[19.79356,41.32116,0.0],[19.7932,41.32129,0.0],[19.79278,41.32153,0.0],[19.79254,41.32171,0.0],[19.79223,41.32194,0.0],[19.79201,41.32212,0.0],[19.79184,41.32233,0.0],[19.79163,41.32274,0.0],[19.79125,41.32304,0.0],[19.79091,41.32318,0.0],[19.79084,41.32334,0.0],[19.79085,41.32357,0.0],[19.79085,41.32385,0.0],[19.79081,41.32397,0.0],[19.79068,41.32407,0.0],[19.79054,41.3241,0.0],[19.79043,41.32408,0.0],[19.7903,41.32405,0.0],[19.79005,41.32406,0.0],[19.78979,41.32409,0.0],[19.78962,41.32411,0.0],[19.78946,41.32409,0.0],[19.78933,41.32414,0.0],[19.78924,41.3242,0.0],[19.78918,41.3243,0.0],[19.78918,41.32438,0.0],[19.78922,41.32447,0.0],[19.78931,41.32455,0.0],[19.78941,41.32464,0.0],[19.78952,41.32473,0.0],[19.7896,41.32482,0.0],[19.78972,41.32495,0.0],[19.78975,41.32503,0.0],[19.78972,41.32514,0.0],[19.78966,41.32522,0.0],[19.7896,41.32531,0.0],[19.78948,41.32539,0.0],[19.78929,41.3255,0.0],[19.78914,41.32562,0.0],[19.78898,41.32575,0.0],[19.78881,41.32587,0.0],[19.78873,41.32592,0.0],[19.78874,41.326,0.0],[19.78883,41.32615,0.0],[19.78891,41.32632,0.0],[19.78894,41.32644,0.0],[19.78891,41.32654,0.0],[19.7889,41.32667,0.0],[19.7889,41.3268,0.0],[19.78888,41.32693,0.0],[19.78881,41.32708,0.0],[19.78876,41.3272,0.0],[19.78872,41.32732,0.0],[19.78873,41.32747,0.0],[19.78873,41.32763,0.0],[19.78873,41.3278,0.0],[19.78873,41.32794,0.0],[19.78875,41.32808,0.0],[19.78877,41.32823,0.0],[19.78875,41.32831,0.0],[19.78878,41.3284,0.0],[19.78886,41.32859,0.0],[19.78893,41.32874,0.0],[19.78902,41.3289,0.0],[19.78909,41.32903,0.0],[19.78922,41.32925,0.0],[19.78931,41.32942,0.0],[19.78937,41.32956,0.0],[19.78943,41.3297,0.0],[19.78946,41.32982,0.0],[19.78952,41.32999,0.0],[19.78954,41.33009,0.0],[19.78957,41.33021,0.0],[19.78963,41.33036,0.0],[19.78969,41.33046,0.0],[19.78976,41.33053,0.0],[19.78989,41.33056,0.0],[19.79001,41.33055,0.0],[19.79013,41.33057,0.0],[19.79022,41.33062,0.0],[19.79034,41.33065,0.0],[19.79042,41.33069,0.0],[19.7905,41.33075,0.0],[19.79053,41.33084,0.0],[19.79048,41.33093,0.0],[19.79037,41.33104,0.0],[19.79024,41.33114,0.0],[19.79007,41.33125,0.0],[19.78987,41.33133,0.0],[19.78964,41.33138,0.0],[19.78928,41.33176,0.0],[19.78871,41.33201,0.0],[19.78836,41.33268,0.0],[19.78811,41.33279,0.0],[19.78756,41.33263,0.0],[19.78731,41.33266,0.0],[19.7871,41.33277,0.0],[19.78714,41.3329,0.0],[19.78736,41.33307,0.0],[19.78738,41.33322,0.0],[19.78736,41.33334,0.0],[19.78717,41.33343,0.0],[19.78696,41.33356,0.0],[19.78683,41.33368,0.0],[19.78664,41.33387,0.0],[19.78636,41.33408,0.0],[19.78611,41.33425,0.0],[19.78578,41.33439,0.0],[19.78567,41.33452,0.0],[19.78552,41.33492,0.0],[19.78538,41.33508,0.0],[19.78499,41.33523,0.0],[19.78434,41.33548,0.0],[19.7839,41.33564,0.0],[19.7834,41.33579,0.0],[19.78341,41.33581,0.0],[19.78342,41.33583,0.0],[19.78306,41.33595,0.0],[19.78267,41.33608,0.0],[19.78267,41.33608,0.0],[19.78231,41.3362,0.0],[19.78205,41.33629,0.0],[19.78186,41.33636,0.0],[19.78169,41.33641,0.0],[19.7816,41.33644,0.0],[19.78141,41.33651,0.0],[19.78121,41.33658,0.0],[19.781,41.33664,0.0],[19.78076,41.33672,0.0],[19.78068,41.33675,0.0],[19.78048,41.3368,0.0],[19.7803,41.33685,0.0],[19.78017,41.33688,0.0],[19.78009,41.33691,0.0],[19.78002,41.33692,0.0],[19.77989,41.33696,0.0],[19.77976,41.33699,0.0],[19.77969,41.337,0.0],[19.77953,41.337,0.0],[19.77938,41.33702,0.0],[19.77929,41.337,0.0],[19.77905,41.33698,0.0],[19.77895,41.33696,0.0],[19.77887,41.33698,0.0],[19.77871,41.33701,0.0],[19.77858,41.33704,0.0],[19.77845,41.33706,0.0],[19.77825,41.3371,0.0],[19.77792,41.33716,0.0],[19.77768,41.33715,0.0],[19.77747,41.3371,0.0],[19.77731,41.33707,0.0],[19.7772,41.33708,0.0],[19.77702,41.33711,0.0],[19.77698,41.33717,0.0],[19.77692,41.33725,0.0],[19.77685,41.33735,0.0],[19.77677,41.33746,0.0],[19.77674,41.3375,0.0],[19.77673,41.33753,0.0],[19.7767,41.33757,0.0],[19.77668,41.3376,0.0],[19.77661,41.33771,0.0],[19.77656,41.33779,0.0],[19.77656,41.33788,0.0],[19.77656,41.33804,0.0],[19.77656,41.33831,0.0],[19.77655,41.3386,0.0],[19.77645,41.33878,0.0],[19.77636,41.33897,0.0],[19.77624,41.33905,0.0],[19.77632,41.33918,0.0],[19.77634,41.33921,0.0],[19.77643,41.33929,0.0],[19.77646,41.33933,0.0],[19.77645,41.33938,0.0],[19.77646,41.33942,0.0],[19.77654,41.33955,0.0],[19.77666,41.33975,0.0],[19.77671,41.33984,0.0],[19.77678,41.33994,0.0],[19.7769,41.34012,0.0],[19.77696,41.34018,0.0],[19.77705,41.34029,0.0],[19.77706,41.34035,0.0],[19.77719,41.34055,0.0],[19.7773,41.34072,0.0],[19.77781,41.34152,0.0],[19.77809,41.34195,0.0],[19.77818,41.34208,0.0],[19.77821,41.34212,0.0],[19.77824,41.34216,0.0],[19.77882,41.34196,0.0],[19.7822,41.34081,0.0],[19.78534,41.33966,0.0],[19.78631,41.33932,0.0],[19.78704,41.33905,0.0],[19.78831,41.33861,0.0],[19.78929,41.33827,0.0],[19.78998,41.33802,0.0],[19.79083,41.3377,0.0],[19.79164,41.33741,0.0],[19.7921,41.33727,0.0],[19.79266,41.3371,0.0],[19.79344,41.33685,0.0],[19.79534,41.3362,0.0],[19.7976,41.33542,0.0],[19.79792,41.3353,0.0],[19.79832,41.33516,0.0],[19.79865,41.33505,0.0],[19.79955,41.33472,0.0],[19.80047,41.33438,0.0],[19.80084,41.33425,0.0],[19.80115,41.33415,0.0],[19.8014,41.33407,0.0],[19.80192,41.33388,0.0],[19.80247,41.3337,0.0],[19.80302,41.33352,0.0],[19.8037,41.3333,0.0],[19.80469,41.33295,0.0],[19.80481,41.3329,0.0],[19.80489,41.33288,0.0],[19.80617,41.33241,0.0],[19.80736,41.332,0.0],[19.80748,41.33153,0.0],[19.80766,41.331,0.0],[19.80803,41.32973,0.0],[19.80824,41.32899,0.0],[19.80838,41.32843,0.0],[19.80859,41.32778,0.0],[19.8087,41.32749,0.0],[19.80874,41.32739,0.0],[19.80792,41.32715,0.0],[19.80767,41.32707,0.0],[19.80705,41.32686,0.0],[19.8069,41.32681,0.0],[19.80681,41.32678,0.0],[19.80669,41.32675,0.0],[19.80629,41.32662,0.0],[19.80641,41.32636,0.0],[19.80666,41.32642,0.0],[19.8067,41.32631,0.0],[19.80674,41.32632,0.0],[19.80677,41.32634,0.0],[19.80679,41.32635,0.0],[19.80687,41.32638,0.0],[19.80688,41.32636,0.0],[19.8069,41.32632,0.0],[19.80694,41.32632,0.0],[19.807,41.32636,0.0],[19.80703,41.3263,0.0],[19.8071,41.32614,0.0],[19.80712,41.32613,0.0],[19.80716,41.32614,0.0],[19.80727,41.32616,0.0],[19.80728,41.32614,0.0],[19.80731,41.32615,0.0],[19.80733,41.32615,0.0],[19.80735,41.32615,0.0],[19.80738,41.32614,0.0],[19.8074,41.32615,0.0],[19.80743,41.32615,0.0],[19.80756,41.32616,0.0],[19.80768,41.32618,0.0],[19.80782,41.32616,0.0],[19.8079,41.32614,0.0],[19.80795,41.32614,0.0],[19.80807,41.32616,0.0],[19.80813,41.32616,0.0],[19.80821,41.32613,0.0],[19.80829,41.32601,0.0],[19.80834,41.32593,0.0],[19.80841,41.32594,0.0],[19.80843,41.32594,0.0],[19.80849,41.32595,0.0],[19.80862,41.326,0.0],[19.8087,41.32602,0.0],[19.80874,41.32602,0.0],[19.80883,41.32601,0.0],[19.80888,41.32601,0.0],[19.80895,41.32603,0.0],[19.80898,41.32603,0.0],[19.80901,41.32601,0.0],[19.80908,41.32595,0.0],[19.80913,41.3259,0.0],[19.80916,41.32587,0.0],[19.80916,41.32585,0.0],[19.80909,41.3258,0.0],[19.8091,41.32578,0.0],[19.80912,41.32577,0.0],[19.80915,41.32578,0.0],[19.80921,41.3257,0.0],[19.8092,41.32569,0.0],[19.8092,41.32567,0.0],[19.80923,41.32558,0.0],[19.80927,41.32552,0.0],[19.80929,41.32544,0.0],[19.80931,41.32538,0.0],[19.80942,41.3254,0.0],[19.80946,41.3254,0.0],[19.80959,41.32541,0.0],[19.80966,41.32543,0.0],[19.80979,41.32538,0.0],[19.80981,41.32534,0.0],[19.80983,41.32529,0.0],[19.80984,41.32525,0.0],[19.80988,41.32526,0.0],[19.80993,41.32527,0.0],[19.81004,41.32527,0.0],[19.81009,41.32528,0.0],[19.8101,41.32522,0.0],[19.81006,41.32514,0.0],[19.81006,41.32507,0.0],[19.81005,41.32504,0.0],[19.81006,41.32497,0.0],[19.81007,41.32492,0.0],[19.81007,41.32487,0.0],[19.81007,41.32482,0.0],[19.81009,41.32475,0.0],[19.81002,41.32478,0.0],[19.80989,41.32477,0.0],[19.80993,41.3245,0.0],[19.81019,41.32454,0.0],[19.8102,41.32451,0.0],[19.81024,41.32431,0.0],[19.81022,41.3243,0.0],[19.81019,41.32425,0.0],[19.81025,41.32399,0.0],[19.81034,41.32363,0.0],[19.81038,41.32346,0.0],[19.81033,41.32334,0.0],[19.81045,41.32276,0.0],[19.81055,41.32232,0.0]]]]}},{"type":"Feature","properties":{"uesi_id":"ALB_R1250106","nbhd_code":"ALB_R1250106_3","nbhd_name":"Nj\u00ebsia Bashkiake Nr. 6"},"geometry":{"type":"MultiPolygon","coordinates":[[[[19.79184,41.32233,0.0],[19.79163,41.32229,0.0],[19.79145,41.3222,0.0],[19.79125,41.32218,0.0],[19.7906,41.32201,0.0],[19.79046,41.32196,0.0],[19.79019,41.32187,0.0],[19.78978,41.32174,0.0],[19.78946,41.32162,0.0],[19.78911,41.32151,0.0],[19.78862,41.32134,0.0],[19.78876,41.32122,0.0],[19.78966,41.32048,0.0],[19.79063,41.31971,0.0],[19.79086,41.3196,0.0],[19.79102,41.31954,0.0],[19.79133,41.3194,0.0],[19.79162,41.31929,0.0],[19.79316,41.31864,0.0],[19.79314,41.31862,0.0],[19.79301,41.31851,0.0],[19.7928,41.31834,0.0],[19.79261,41.31821,0.0],[19.79247,41.31803,0.0],[19.79218,41.31781,0.0],[19.79217,41.31779,0.0],[19.79214,41.31777,0.0],[19.79203,41.31772,0.0],[19.792,41.31768,0.0],[19.79205,41.31763,0.0],[19.79198,41.31757,0.0],[19.7919,41.31751,0.0],[19.79175,41.31749,0.0],[19.79155,41.31739,0.0],[19.79123,41.31716,0.0],[19.79034,41.31652,0.0],[19.78897,41.31559,0.0],[19.78845,41.31524,0.0],[19.78817,41.31506,0.0],[19.78794,41.31489,0.0],[19.7876,41.31465,0.0],[19.78728,41.31444,0.0],[19.78719,41.31451,0.0],[19.78695,41.3147,0.0],[19.78682,41.31481,0.0],[19.78663,41.31495,0.0],[19.78643,41.31507,0.0],[19.78618,41.31522,0.0],[19.78619,41.31467,0.0],[19.7862,41.31437,0.0],[19.78622,41.31415,0.0],[19.78624,41.31386,0.0],[19.78625,41.31374,0.0],[19.78622,41.31367,0.0],[19.78618,41.31356,0.0],[19.78614,41.31347,0.0],[19.78599,41.31338,0.0],[19.78584,41.31331,0.0],[19.78573,41.31324,0.0],[19.78598,41.31317,0.0],[19.78617,41.31313,0.0],[19.7863,41.31309,0.0],[19.78635,41.31307,0.0],[19.78635,41.31297,0.0],[19.78639,41.31288,0.0],[19.78646,41.31274,0.0],[19.78627,41.31272,0.0],[19.78626,41.3126,0.0],[19.78624,41.31231,0.0],[19.78624,41.31229,0.0],[19.78621,41.31165,0.0],[19.78649,41.31136,0.0],[19.78641,41.31134,0.0],[19.78628,41.31133,0.0],[19.78617,41.31134,0.0],[19.78609,41.31134,0.0],[19.78602,41.31132,0.0],[19.78591,41.31136,0.0],[19.7858,41.31135,0.0],[19.78568,41.31127,0.0],[19.7856,41.3112,0.0],[19.7854,41.31118,0.0],[19.78521,41.31117,0.0],[19.78504,41.31125,0.0],[19.78491,41.31135,0.0],[19.7848,41.31146,0.0],[19.78468,41.31161,0.0],[19.78446,41.31181,0.0],[19.78423,41.31206,0.0],[19.78395,41.31217,0.0],[19.7839,41.3123,0.0],[19.78376,41.31255,0.0],[19.78349,41.31277,0.0],[19.78349,41.313,0.0],[19.78344,41.31313,0.0],[19.78328,41.31332,0.0],[19.78308,41.31328,0.0],[19.78275,41.31321,0.0],[19.78237,41.31308,0.0],[19.78214,41.31302,0.0],[19.78197,41.31298,0.0],[19.78168,41.31308,0.0],[19.78162,41.31328,0.0],[19.7815,41.31352,0.0],[19.78147,41.31362,0.0],[19.78132,41.31386,0.0],[19.78121,41.31399,0.0],[19.78119,41.31405,0.0],[19.7812,41.31416,0.0],[19.78106,41.31423,0.0],[19.78095,41.31427,0.0],[19.7808,41.31429,0.0],[19.78058,41.3142,0.0],[19.78048,41.31412,0.0],[19.78031,41.31399,0.0],[19.78017,41.31392,0.0],[19.78011,41.31382,0.0],[19.77995,41.31376,0.0],[19.77997,41.31366,0.0],[19.78004,41.31354,0.0],[19.77995,41.31344,0.0],[19.77988,41.31327,0.0],[19.7798,41.31309,0.0],[19.77973,41.31283,0.0],[19.77969,41.31268,0.0],[19.77967,41.31255,0.0],[19.77977,41.31244,0.0],[19.77982,41.31243,0.0],[19.77986,41.3124,0.0],[19.7799,41.31239,0.0],[19.77993,41.31238,0.0],[19.77998,41.31236,0.0],[19.78002,41.31233,0.0],[19.78009,41.31231,0.0],[19.78018,41.31228,0.0],[19.78026,41.31225,0.0],[19.78035,41.3122,0.0],[19.78047,41.31217,0.0],[19.78057,41.31212,0.0],[19.78065,41.31206,0.0],[19.78071,41.31196,0.0],[19.78086,41.31186,0.0],[19.78095,41.31178,0.0],[19.78115,41.31171,0.0],[19.78139,41.31163,0.0],[19.78169,41.31157,0.0],[19.78192,41.31159,0.0],[19.78207,41.31156,0.0],[19.78225,41.31155,0.0],[19.78264,41.31137,0.0],[19.78559,41.30941,0.0],[19.78632,41.30901,0.0],[19.78705,41.30914,0.0],[19.7875,41.30905,0.0],[19.78767,41.30887,0.0],[19.78682,41.3086,0.0],[19.78594,41.30804,0.0],[19.78547,41.30696,0.0],[19.78506,41.30629,0.0],[19.78444,41.30569,0.0],[19.78412,41.30555,0.0],[19.78394,41.30526,0.0],[19.78369,41.30473,0.0],[19.78301,41.30436,0.0],[19.78269,41.3041,0.0],[19.78207,41.30403,0.0],[19.78187,41.30408,0.0],[19.78164,41.30426,0.0],[19.78136,41.30424,0.0],[19.78066,41.30403,0.0],[19.78017,41.30361,0.0],[19.77953,41.30322,0.0],[19.77924,41.30297,0.0],[19.77846,41.3027,0.0],[19.77793,41.30259,0.0],[19.77764,41.30255,0.0],[19.77736,41.30254,0.0],[19.77721,41.30247,0.0],[19.77698,41.30226,0.0],[19.77691,41.30197,0.0],[19.77637,41.30147,0.0],[19.77515,41.30039,0.0],[19.77423,41.30108,0.0],[19.77077,41.30363,0.0],[19.76858,41.3027,0.0],[19.76758,41.30233,0.0],[19.76753,41.30227,0.0],[19.76734,41.30211,0.0],[19.7672,41.30203,0.0],[19.76683,41.30182,0.0],[19.76672,41.30174,0.0],[19.76627,41.30159,0.0],[19.76586,41.30146,0.0],[19.76573,41.30143,0.0],[19.76546,41.30141,0.0],[19.76528,41.30141,0.0],[19.76506,41.30141,0.0],[19.76486,41.30141,0.0],[19.7647,41.30141,0.0],[19.76439,41.3014,0.0],[19.76431,41.30138,0.0],[19.76426,41.30136,0.0],[19.76421,41.30134,0.0],[19.76404,41.3012,0.0],[19.76387,41.30108,0.0],[19.76334,41.30075,0.0],[19.76298,41.30056,0.0],[19.76235,41.30034,0.0],[19.76147,41.30002,0.0],[19.76135,41.29998,0.0],[19.76085,41.29989,0.0],[19.76061,41.29984,0.0],[19.76042,41.29979,0.0],[19.76029,41.29975,0.0],[19.76019,41.29972,0.0],[19.76019,41.29987,0.0],[19.7602,41.30009,0.0],[19.76024,41.30022,0.0],[19.7603,41.30035,0.0],[19.76032,41.30041,0.0],[19.76037,41.30061,0.0],[19.76029,41.30109,0.0],[19.76031,41.30152,0.0],[19.76013,41.30185,0.0],[19.75994,41.30215,0.0],[19.75974,41.30247,0.0],[19.7595,41.30286,0.0],[19.75919,41.30326,0.0],[19.759,41.3035,0.0],[19.75882,41.30372,0.0],[19.75837,41.30424,0.0],[19.75789,41.3048,0.0],[19.75761,41.30513,0.0],[19.75747,41.30549,0.0],[19.75724,41.3061,0.0],[19.75717,41.30628,0.0],[19.75708,41.30645,0.0],[19.75706,41.30651,0.0],[19.75727,41.30664,0.0],[19.75742,41.30674,0.0],[19.75749,41.30682,0.0],[19.75754,41.3069,0.0],[19.75779,41.30736,0.0],[19.75816,41.30805,0.0],[19.75854,41.30874,0.0],[19.75725,41.30944,0.0],[19.75723,41.30955,0.0],[19.75633,41.31032,0.0],[19.75583,41.31076,0.0],[19.75571,41.31086,0.0],[19.75618,41.31121,0.0],[19.75636,41.31136,0.0],[19.75473,41.31208,0.0],[19.75505,41.31241,0.0],[19.75521,41.31259,0.0],[19.75536,41.31278,0.0],[19.75547,41.31284,0.0],[19.75643,41.31314,0.0],[19.75598,41.31379,0.0],[19.75591,41.31381,0.0],[19.7557,41.31382,0.0],[19.75563,41.31386,0.0],[19.75556,41.31393,0.0],[19.75555,41.3141,0.0],[19.75554,41.31428,0.0],[19.75561,41.31484,0.0],[19.75572,41.31549,0.0],[19.75772,41.31631,0.0],[19.75824,41.31649,0.0],[19.75903,41.31678,0.0],[19.7594,41.31693,0.0],[19.75971,41.31705,0.0],[19.75999,41.31717,0.0],[19.76016,41.31724,0.0],[19.75995,41.31742,0.0],[19.75988,41.3175,0.0],[19.76004,41.31756,0.0],[19.7603,41.31765,0.0],[19.76076,41.31783,0.0],[19.76113,41.31798,0.0],[19.76141,41.31808,0.0],[19.76162,41.31821,0.0],[19.76175,41.31829,0.0],[19.76192,41.31837,0.0],[19.76223,41.31849,0.0],[19.76311,41.31885,0.0],[19.76402,41.31921,0.0],[19.7649,41.31956,0.0],[19.76512,41.31965,0.0],[19.76584,41.31991,0.0],[19.76565,41.32028,0.0],[19.76562,41.32038,0.0],[19.76561,41.32048,0.0],[19.76562,41.32072,0.0],[19.76566,41.3208,0.0],[19.76569,41.3209,0.0],[19.76574,41.32107,0.0],[19.76577,41.3212,0.0],[19.76594,41.32126,0.0],[19.76617,41.32131,0.0],[19.76638,41.32137,0.0],[19.7667,41.32155,0.0],[19.76687,41.32163,0.0],[19.7673,41.32187,0.0],[19.7676,41.32213,0.0],[19.76784,41.32234,0.0],[19.76801,41.32254,0.0],[19.76811,41.3227,0.0],[19.76815,41.32268,0.0],[19.76815,41.32265,0.0],[19.76817,41.32251,0.0],[19.76819,41.32238,0.0],[19.76821,41.32232,0.0],[19.76862,41.3222,0.0],[19.76882,41.32211,0.0],[19.7691,41.32201,0.0],[19.76943,41.32183,0.0],[19.76961,41.32173,0.0],[19.76985,41.3216,0.0],[19.77021,41.32141,0.0],[19.7702,41.32141,0.0],[19.77021,41.3214,0.0],[19.76881,41.31981,0.0],[19.76841,41.31935,0.0],[19.76836,41.3193,0.0],[19.76809,41.31896,0.0],[19.76828,41.31886,0.0],[19.76856,41.31885,0.0],[19.76868,41.31861,0.0],[19.76871,41.31856,0.0],[19.76892,41.31821,0.0],[19.76929,41.31761,0.0],[19.77008,41.31772,0.0],[19.77142,41.3179,0.0],[19.77247,41.31806,0.0],[19.77355,41.31822,0.0],[19.77414,41.31831,0.0],[19.77464,41.31835,0.0],[19.77494,41.31839,0.0],[19.77568,41.31847,0.0],[19.77556,41.3187,0.0],[19.77546,41.31885,0.0],[19.7753,41.31912,0.0],[19.77508,41.31948,0.0],[19.77489,41.31978,0.0],[19.77467,41.32015,0.0],[19.77437,41.32068,0.0],[19.77416,41.32105,0.0],[19.77353,41.32221,0.0],[19.77332,41.32262,0.0],[19.77321,41.32281,0.0],[19.77321,41.32292,0.0],[19.77321,41.32301,0.0],[19.77328,41.32315,0.0],[19.77335,41.3233,0.0],[19.77354,41.32367,0.0],[19.77365,41.32388,0.0],[19.77375,41.32407,0.0],[19.77381,41.32419,0.0],[19.77416,41.32419,0.0],[19.77454,41.32418,0.0],[19.77512,41.32409,0.0],[19.77571,41.32399,0.0],[19.77621,41.32395,0.0],[19.77653,41.32382,0.0],[19.77749,41.32368,0.0],[19.77897,41.32346,0.0],[19.77934,41.32424,0.0],[19.77974,41.32504,0.0],[19.7799,41.32502,0.0],[19.77994,41.32517,0.0],[19.77996,41.32517,0.0],[19.77996,41.32518,0.0],[19.78026,41.32514,0.0],[19.78026,41.32513,0.0],[19.78027,41.32512,0.0],[19.78067,41.32507,0.0],[19.78068,41.32507,0.0],[19.78074,41.32505,0.0],[19.78114,41.32499,0.0],[19.78139,41.32495,0.0],[19.78141,41.32497,0.0],[19.78214,41.32486,0.0],[19.78207,41.32458,0.0],[19.78209,41.32458,0.0],[19.7821,41.32459,0.0],[19.78219,41.32457,0.0],[19.78222,41.32456,0.0],[19.78227,41.32455,0.0],[19.78245,41.32452,0.0],[19.7826,41.32451,0.0],[19.7827,41.32453,0.0],[19.78285,41.32458,0.0],[19.78296,41.32464,0.0],[19.78299,41.32466,0.0],[19.78304,41.3247,0.0],[19.78308,41.32472,0.0],[19.78309,41.32471,0.0],[19.7831,41.32472,0.0],[19.78311,41.32472,0.0],[19.78313,41.32473,0.0],[19.78316,41.32473,0.0],[19.78319,41.32473,0.0],[19.78323,41.32472,0.0],[19.78327,41.32468,0.0],[19.78333,41.32463,0.0],[19.78337,41.32461,0.0],[19.78353,41.32447,0.0],[19.78373,41.32434,0.0],[19.78389,41.32424,0.0],[19.78401,41.32432,0.0],[19.78452,41.32399,0.0],[19.78467,41.32412,0.0],[19.78492,41.32431,0.0],[19.78507,41.32444,0.0],[19.78533,41.32465,0.0],[19.78558,41.32485,0.0],[19.7856,41.32487,0.0],[19.78562,41.32488,0.0],[19.78585,41.32475,0.0],[19.78592,41.32468,0.0],[19.78597,41.32465,0.0],[19.78602,41.32464,0.0],[19.78619,41.32453,0.0],[19.78619,41.32453,0.0],[19.78621,41.32452,0.0],[19.78636,41.32466,0.0],[19.78645,41.32476,0.0],[19.78655,41.32485,0.0],[19.78658,41.32487,0.0],[19.78662,41.32491,0.0],[19.78666,41.32494,0.0],[19.78673,41.325,0.0],[19.78692,41.32514,0.0],[19.787,41.32518,0.0],[19.78707,41.32521,0.0],[19.78708,41.3252,0.0],[19.78739,41.32533,0.0],[19.78739,41.32534,0.0],[19.78739,41.32534,0.0],[19.78725,41.3256,0.0],[19.7871,41.32588,0.0],[19.78692,41.32622,0.0],[19.78681,41.32643,0.0],[19.78667,41.32668,0.0],[19.78655,41.3269,0.0],[19.78632,41.32733,0.0],[19.78619,41.32759,0.0],[19.78588,41.32816,0.0],[19.78579,41.32834,0.0],[19.78569,41.32853,0.0],[19.78562,41.32865,0.0],[19.78549,41.3289,0.0],[19.78536,41.32915,0.0],[19.7852,41.32948,0.0],[19.78511,41.32965,0.0],[19.78503,41.32979,0.0],[19.78502,41.32978,0.0],[19.78475,41.33029,0.0],[19.78436,41.33102,0.0],[19.78411,41.33147,0.0],[19.78388,41.33191,0.0],[19.78346,41.33272,0.0],[19.78327,41.3331,0.0],[19.78319,41.33332,0.0],[19.78314,41.33345,0.0],[19.7831,41.33356,0.0],[19.78304,41.33384,0.0],[19.78299,41.33416,0.0],[19.783,41.33416,0.0],[19.78299,41.33419,0.0],[19.783,41.33445,0.0],[19.783,41.33457,0.0],[19.78302,41.33471,0.0],[19.78304,41.33483,0.0],[19.7831,41.33507,0.0],[19.78318,41.33533,0.0],[19.78325,41.33549,0.0],[19.78329,41.33558,0.0],[19.78336,41.3357,0.0],[19.7834,41.33579,0.0],[19.7839,41.33564,0.0],[19.78434,41.33548,0.0],[19.78499,41.33523,0.0],[19.78538,41.33508,0.0],[19.78552,41.33492,0.0],[19.78567,41.33452,0.0],[19.78578,41.33439,0.0],[19.78611,41.33425,0.0],[19.78636,41.33408,0.0],[19.78664,41.33387,0.0],[19.78683,41.33368,0.0],[19.78696,41.33356,0.0],[19.78717,41.33343,0.0],[19.78736,41.33334,0.0],[19.78738,41.33322,0.0],[19.78736,41.33307,0.0],[19.78714,41.3329,0.0],[19.7871,41.33277,0.0],[19.78731,41.33266,0.0],[19.78756,41.33263,0.0],[19.78811,41.33279,0.0],[19.78836,41.33268,0.0],[19.78871,41.33201,0.0],[19.78928,41.33176,0.0],[19.78964,41.33138,0.0],[19.78987,41.33133,0.0],[19.79007,41.33125,0.0],[19.79024,41.33114,0.0],[19.79037,41.33104,0.0],[19.79048,41.33093,0.0],[19.79053,41.33084,0.0],[19.7905,41.33075,0.0],[19.79042,41.33069,0.0],[19.79034,41.33065,0.0],[19.79022,41.33062,0.0],[19.79013,41.33057,0.0],[19.79001,41.33055,0.0],[19.78989,41.33056,0.0],[19.78976,41.33053,0.0],[19.78969,41.33046,0.0],[19.78963,41.33036,0.0],[19.78957,41.33021,0.0],[19.78954,41.33009,0.0],[19.78952,41.32999,0.0],[19.78946,41.32982,0.0],[19.78943,41.3297,0.0],[19.78937,41.32956,0.0],[19.78931,41.32942,0.0],[19.78922,41.32925,0.0],[19.78909,41.32903,0.0],[19.78902,41.3289,0.0],[19.78893,41.32874,0.0],[19.78886,41.32859,0.0],[19.78878,41.3284,0.0],[19.78875,41.32831,0.0],[19.78877,41.32823,0.0],[19.78875,41.32808,0.0],[19.78873,41.32794,0.0],[19.78873,41.3278,0.0],[19.78873,41.32763,0.0],[19.78873,41.32747,0.0],[19.78872,41.32732,0.0],[19.78876,41.3272,0.0],[19.78881,41.32708,0.0],[19.78888,41.32693,0.0],[19.7889,41.3268,0.0],[19.7889,41.32667,0.0],[19.78891,41.32654,0.0],[19.78894,41.32644,0.0],[19.78891,41.32632,0.0],[19.78883,41.32615,0.0],[19.78874,41.326,0.0],[19.78873,41.32592,0.0],[19.78881,41.32587,0.0],[19.78898,41.32575,0.0],[19.78914,41.32562,0.0],[19.78929,41.3255,0.0],[19.78948,41.32539,0.0],[19.7896,41.32531,0.0],[19.78966,41.32522,0.0],[19.78972,41.32514,0.0],[19.78975,41.32503,0.0],[19.78972,41.32495,0.0],[19.7896,41.32482,0.0],[19.78952,41.32473,0.0],[19.78941,41.32464,0.0],[19.78931,41.32455,0.0],[19.78922,41.32447,0.0],[19.78918,41.32438,0.0],[19.78918,41.3243,0.0],[19.78924,41.3242,0.0],[19.78933,41.32414,0.0],[19.78946,41.32409,0.0],[19.78962,41.32411,0.0],[19.78979,41.32409,0.0],[19.79005,41.32406,0.0],[19.7903,41.32405,0.0],[19.79043,41.32408,0.0],[19.79054,41.3241,0.0],[19.79068,41.32407,0.0],[19.79081,41.32397,0.0],[19.79085,41.32385,0.0],[19.79085,41.32357,0.0],[19.79084,41.32334,0.0],[19.79091,41.32318,0.0],[19.79125,41.32304,0.0],[19.79163,41.32274,0.0],[19.79184,41.32233,0.0]]]]}},{"type":"Feature","properties":{"uesi_id":"ALB_R1250106","nbhd_code":"ALB_R1250106_4","nbhd_name":"Nj\u00ebsia Bashkiake Nr. 5"},"geometry":{"type":"MultiPolygon","coordinates":[[[[19.81969,41.32377,0.0],[19.81973,41.32362,0.0],[19.81989,41.32308,0.0],[19.82007,41.32253,0.0],[19.82039,41.32132,0.0],[19.82059,41.32059,0.0],[19.82069,41.32025,0.0],[19.82088,41.31952,0.0],[19.82106,41.31874,0.0],[19.82122,41.31817,0.0],[19.82144,41.31734,0.0],[19.82068,41.31722,0.0],[19.81994,41.31712,0.0],[19.81951,41.31706,0.0],[19.81932,41.31703,0.0],[19.81931,41.31697,0.0],[19.81938,41.31664,0.0],[19.8194,41.31654,0.0],[19.81955,41.31607,0.0],[19.81955,41.31585,0.0],[19.81948,41.31561,0.0],[19.81931,41.31542,0.0],[19.81901,41.31521,0.0],[19.81874,41.31509,0.0],[19.81859,41.31498,0.0],[19.81837,41.31469,0.0],[19.81824,41.31449,0.0],[19.81809,41.31428,0.0],[19.81791,41.31393,0.0],[19.81763,41.31385,0.0],[19.81711,41.31363,0.0],[19.81664,41.31334,0.0],[19.81648,41.31326,0.0],[19.8151,41.31249,0.0],[19.81407,41.31181,0.0],[19.81235,41.31061,0.0],[19.81152,41.31008,0.0],[19.81089,41.31042,0.0],[19.80998,41.31085,0.0],[19.80921,41.31127,0.0],[19.8094,41.31157,0.0],[19.80807,41.31188,0.0],[19.80758,41.31222,0.0],[19.80727,41.31226,0.0],[19.80703,41.3122,0.0],[19.80711,41.31303,0.0],[19.80424,41.31356,0.0],[19.80149,41.31379,0.0],[19.8001,41.31402,0.0],[19.79943,41.31428,0.0],[19.79875,41.31466,0.0],[19.79829,41.31487,0.0],[19.79838,41.31454,0.0],[19.7983,41.31407,0.0],[19.79834,41.31348,0.0],[19.7983,41.31329,0.0],[19.79819,41.31314,0.0],[19.79821,41.3128,0.0],[19.79768,41.31238,0.0],[19.79704,41.31265,0.0],[19.79609,41.31279,0.0],[19.79577,41.31278,0.0],[19.79554,41.31282,0.0],[19.7951,41.31292,0.0],[19.79443,41.31292,0.0],[19.79424,41.3129,0.0],[19.79396,41.31293,0.0],[19.79375,41.313,0.0],[19.79371,41.31294,0.0],[19.79364,41.31283,0.0],[19.79372,41.31265,0.0],[19.79381,41.31258,0.0],[19.79356,41.31242,0.0],[19.79304,41.31218,0.0],[19.79276,41.31212,0.0],[19.79245,41.31209,0.0],[19.79214,41.3122,0.0],[19.79192,41.31212,0.0],[19.79162,41.31203,0.0],[19.79152,41.31218,0.0],[19.79124,41.31218,0.0],[19.79123,41.31197,0.0],[19.791,41.31169,0.0],[19.79108,41.3115,0.0],[19.79088,41.31131,0.0],[19.79083,41.31098,0.0],[19.79027,41.31109,0.0],[19.79012,41.31104,0.0],[19.79001,41.31092,0.0],[19.78984,41.31071,0.0],[19.78968,41.31054,0.0],[19.78955,41.31035,0.0],[19.789,41.31036,0.0],[19.78868,41.31037,0.0],[19.78838,41.31036,0.0],[19.78813,41.31035,0.0],[19.78791,41.31057,0.0],[19.78777,41.31077,0.0],[19.78761,41.31085,0.0],[19.78744,41.31135,0.0],[19.78736,41.3114,0.0],[19.78713,41.31141,0.0],[19.78698,41.31138,0.0],[19.78683,41.31134,0.0],[19.78667,41.31135,0.0],[19.78653,41.31136,0.0],[19.78649,41.31136,0.0],[19.78621,41.31165,0.0],[19.78624,41.31229,0.0],[19.78624,41.31231,0.0],[19.78626,41.3126,0.0],[19.78627,41.31272,0.0],[19.78646,41.31274,0.0],[19.78639,41.31288,0.0],[19.78635,41.31297,0.0],[19.78635,41.31307,0.0],[19.7863,41.31309,0.0],[19.78617,41.31313,0.0],[19.78598,41.31317,0.0],[19.78573,41.31324,0.0],[19.78584,41.31331,0.0],[19.78599,41.31338,0.0],[19.78614,41.31347,0.0],[19.78618,41.31356,0.0],[19.78622,41.31367,0.0],[19.78625,41.31374,0.0],[19.78624,41.31386,0.0],[19.78622,41.31415,0.0],[19.7862,41.31437,0.0],[19.78619,41.31467,0.0],[19.78618,41.31522,0.0],[19.78643,41.31507,0.0],[19.78663,41.31495,0.0],[19.78682,41.31481,0.0],[19.78695,41.3147,0.0],[19.78719,41.31451,0.0],[19.78728,41.31444,0.0],[19.7876,41.31465,0.0],[19.78794,41.31489,0.0],[19.78817,41.31506,0.0],[19.78845,41.31524,0.0],[19.78897,41.31559,0.0],[19.79034,41.31652,0.0],[19.79123,41.31716,0.0],[19.79155,41.31739,0.0],[19.79175,41.31749,0.0],[19.7919,41.31751,0.0],[19.79198,41.31757,0.0],[19.79205,41.31763,0.0],[19.792,41.31768,0.0],[19.79203,41.31772,0.0],[19.79214,41.31777,0.0],[19.79217,41.31779,0.0],[19.79218,41.31781,0.0],[19.79247,41.31803,0.0],[19.79261,41.31821,0.0],[19.7928,41.31834,0.0],[19.79301,41.31851,0.0],[19.79314,41.31862,0.0],[19.79316,41.31864,0.0],[19.79162,41.31929,0.0],[19.79133,41.3194,0.0],[19.79102,41.31954,0.0],[19.79086,41.3196,0.0],[19.79063,41.31971,0.0],[19.78966,41.32048,0.0],[19.78876,41.32122,0.0],[19.78862,41.32134,0.0],[19.78911,41.32151,0.0],[19.78946,41.32162,0.0],[19.78978,41.32174,0.0],[19.79019,41.32187,0.0],[19.79046,41.32196,0.0],[19.7906,41.32201,0.0],[19.79125,41.32218,0.0],[19.79145,41.3222,0.0],[19.79163,41.32229,0.0],[19.79184,41.32233,0.0],[19.79201,41.32212,0.0],[19.79223,41.32194,0.0],[19.79254,41.32171,0.0],[19.79278,41.32153,0.0],[19.7932,41.32129,0.0],[19.79356,41.32116,0.0],[19.79405,41.321,0.0],[19.79435,41.3209,0.0],[19.79472,41.32077,0.0],[19.79506,41.32067,0.0],[19.7953,41.32059,0.0],[19.79557,41.32052,0.0],[19.79587,41.32044,0.0],[19.79618,41.32038,0.0],[19.79658,41.32033,0.0],[19.79699,41.32029,0.0],[19.79736,41.3203,0.0],[19.79768,41.32033,0.0],[19.79799,41.32037,0.0],[19.79824,41.32041,0.0],[19.79866,41.32047,0.0],[19.79893,41.32051,0.0],[19.79912,41.32055,0.0],[19.79935,41.32057,0.0],[19.79969,41.32062,0.0],[19.8003,41.32073,0.0],[19.80223,41.32102,0.0],[19.80312,41.32117,0.0],[19.80391,41.32129,0.0],[19.80489,41.32144,0.0],[19.80544,41.32154,0.0],[19.80602,41.32161,0.0],[19.80796,41.32192,0.0],[19.80928,41.32212,0.0],[19.80996,41.32223,0.0],[19.81055,41.32232,0.0],[19.81103,41.32241,0.0],[19.81248,41.32264,0.0],[19.81352,41.32281,0.0],[19.81579,41.32316,0.0],[19.81902,41.32366,0.0],[19.81969,41.32377,0.0]]]]}},{"type":"Feature","properties":{"uesi_id":"ALB_R1250106","nbhd_code":"ALB_R1250106_5","nbhd_name":"Nj\u00ebsia Bashkiake Nr. 2"},"geometry":{"type":"MultiPolygon","coordinates":[[[[19.81152,41.31008,0.0],[19.81235,41.31061,0.0],[19.81407,41.31181,0.0],[19.8151,41.31249,0.0],[19.81648,41.31326,0.0],[19.81664,41.31334,0.0],[19.81711,41.31363,0.0],[19.81763,41.31385,0.0],[19.81791,41.31393,0.0],[19.81809,41.31428,0.0],[19.81824,41.31449,0.0],[19.81837,41.31469,0.0],[19.81859,41.31498,0.0],[19.81874,41.31509,0.0],[19.81901,41.31521,0.0],[19.81931,41.31542,0.0],[19.81948,41.31561,0.0],[19.81955,41.31585,0.0],[19.81955,41.31607,0.0],[19.8194,41.31654,0.0],[19.81938,41.31664,0.0],[19.81931,41.31697,0.0],[19.81932,41.31703,0.0],[19.81951,41.31706,0.0],[19.81994,41.31712,0.0],[19.82068,41.31722,0.0],[19.82144,41.31734,0.0],[19.82122,41.31817,0.0],[19.82106,41.31874,0.0],[19.82088,41.31952,0.0],[19.82069,41.32025,0.0],[19.82059,41.32059,0.0],[19.82039,41.32132,0.0],[19.82007,41.32253,0.0],[19.81989,41.32308,0.0],[19.81973,41.32362,0.0],[19.81969,41.32377,0.0],[19.81949,41.32453,0.0],[19.81933,41.32508,0.0],[19.8191,41.32601,0.0],[19.81884,41.32686,0.0],[19.81853,41.32804,0.0],[19.81852,41.32806,0.0],[19.81824,41.32906,0.0],[19.81863,41.32921,0.0],[19.81884,41.32929,0.0],[19.81921,41.32951,0.0],[19.81945,41.32966,0.0],[19.81992,41.33007,0.0],[19.82051,41.33057,0.0],[19.82064,41.33068,0.0],[19.82075,41.33078,0.0],[19.82083,41.3306,0.0],[19.82113,41.33,0.0],[19.82162,41.33018,0.0],[19.82318,41.33069,0.0],[19.82398,41.33094,0.0],[19.82474,41.33119,0.0],[19.82548,41.33144,0.0],[19.82604,41.33163,0.0],[19.82684,41.33198,0.0],[19.82764,41.33233,0.0],[19.82827,41.33261,0.0],[19.82882,41.33285,0.0],[19.82958,41.33317,0.0],[19.82983,41.33328,0.0],[19.83029,41.33349,0.0],[19.83087,41.33374,0.0],[19.83155,41.33404,0.0],[19.83256,41.33449,0.0],[19.83289,41.33463,0.0],[19.8336,41.33358,0.0],[19.83381,41.33328,0.0],[19.83396,41.33295,0.0],[19.83405,41.3325,0.0],[19.83427,41.33143,0.0],[19.83439,41.33088,0.0],[19.83445,41.33045,0.0],[19.8338,41.33017,0.0],[19.83182,41.32933,0.0],[19.82936,41.32826,0.0],[19.82833,41.32784,0.0],[19.82813,41.3277,0.0],[19.82744,41.32711,0.0],[19.8266,41.32639,0.0],[19.82571,41.32566,0.0],[19.82521,41.32525,0.0],[19.8253,41.32504,0.0],[19.82531,41.32485,0.0],[19.82523,41.32457,0.0],[19.82532,41.32454,0.0],[19.82559,41.32458,0.0],[19.82577,41.32464,0.0],[19.82602,41.32473,0.0],[19.82645,41.32491,0.0],[19.82665,41.32509,0.0],[19.82689,41.32533,0.0],[19.82692,41.32543,0.0],[19.82672,41.3255,0.0],[19.82645,41.3256,0.0],[19.82651,41.32567,0.0],[19.82727,41.32632,0.0],[19.82786,41.32682,0.0],[19.82798,41.32694,0.0],[19.82805,41.32692,0.0],[19.82816,41.327,0.0],[19.82826,41.32708,0.0],[19.82833,41.32715,0.0],[19.82842,41.32722,0.0],[19.82851,41.32723,0.0],[19.82856,41.32727,0.0],[19.82863,41.32722,0.0],[19.82877,41.32713,0.0],[19.82889,41.32718,0.0],[19.82905,41.32721,0.0],[19.82919,41.32718,0.0],[19.82939,41.32727,0.0],[19.82944,41.32737,0.0],[19.82967,41.32742,0.0],[19.82974,41.32734,0.0],[19.82971,41.32726,0.0],[19.82977,41.32717,0.0],[19.82983,41.32714,0.0],[19.82998,41.3272,0.0],[19.83012,41.32728,0.0],[19.83026,41.32733,0.0],[19.83052,41.32743,0.0],[19.83084,41.32746,0.0],[19.83118,41.32746,0.0],[19.83156,41.32745,0.0],[19.832,41.32741,0.0],[19.83221,41.32735,0.0],[19.83228,41.32731,0.0],[19.83188,41.32707,0.0],[19.83215,41.32687,0.0],[19.83222,41.32682,0.0],[19.83227,41.32684,0.0],[19.83248,41.32675,0.0],[19.83262,41.32664,0.0],[19.83266,41.32654,0.0],[19.83278,41.32641,0.0],[19.83284,41.32634,0.0],[19.83293,41.32622,0.0],[19.83303,41.32629,0.0],[19.83313,41.32639,0.0],[19.83315,41.32645,0.0],[19.83323,41.32648,0.0],[19.83353,41.32647,0.0],[19.83375,41.32642,0.0],[19.83379,41.32621,0.0],[19.83403,41.32631,0.0],[19.83418,41.32633,0.0],[19.83463,41.32638,0.0],[19.83506,41.32639,0.0],[19.83553,41.32643,0.0],[19.83573,41.32651,0.0],[19.83585,41.32636,0.0],[19.83601,41.32638,0.0],[19.83629,41.32649,0.0],[19.83656,41.32652,0.0],[19.83685,41.32652,0.0],[19.8371,41.32652,0.0],[19.83742,41.32653,0.0],[19.83767,41.32651,0.0],[19.83797,41.32642,0.0],[19.83831,41.32588,0.0],[19.83855,41.32594,0.0],[19.83883,41.32601,0.0],[19.83902,41.32606,0.0],[19.83917,41.32607,0.0],[19.83934,41.32602,0.0],[19.83952,41.32593,0.0],[19.8399,41.32575,0.0],[19.84003,41.32569,0.0],[19.84019,41.3259,0.0],[19.84029,41.32591,0.0],[19.84042,41.32593,0.0],[19.84052,41.32595,0.0],[19.84059,41.32602,0.0],[19.84074,41.32598,0.0],[19.84106,41.32589,0.0],[19.84156,41.32568,0.0],[19.842,41.32554,0.0],[19.84212,41.32544,0.0],[19.84237,41.32529,0.0],[19.84266,41.32549,0.0],[19.843,41.32587,0.0],[19.84326,41.32611,0.0],[19.84334,41.32627,0.0],[19.84336,41.32652,0.0],[19.84351,41.3267,0.0],[19.84377,41.32672,0.0],[19.84419,41.32694,0.0],[19.84467,41.32707,0.0],[19.84558,41.32708,0.0],[19.84699,41.32709,0.0],[19.84732,41.32693,0.0],[19.84778,41.32669,0.0],[19.84802,41.3265,0.0],[19.84815,41.32635,0.0],[19.84837,41.32608,0.0],[19.84843,41.32583,0.0],[19.8484,41.32565,0.0],[19.84829,41.32538,0.0],[19.84826,41.32524,0.0],[19.84832,41.32505,0.0],[19.84842,41.32489,0.0],[19.84856,41.32465,0.0],[19.84882,41.32434,0.0],[19.84906,41.32413,0.0],[19.84917,41.32416,0.0],[19.84934,41.32423,0.0],[19.8495,41.32425,0.0],[19.84962,41.32424,0.0],[19.84986,41.32421,0.0],[19.85005,41.32421,0.0],[19.85021,41.32418,0.0],[19.85035,41.32413,0.0],[19.85052,41.324,0.0],[19.8506,41.32392,0.0],[19.85068,41.3239,0.0],[19.85081,41.32394,0.0],[19.85099,41.3241,0.0],[19.85115,41.32431,0.0],[19.85123,41.32437,0.0],[19.85141,41.32442,0.0],[19.85178,41.3245,0.0],[19.85209,41.32454,0.0],[19.85229,41.32456,0.0],[19.85254,41.32468,0.0],[19.85296,41.32479,0.0],[19.85297,41.32493,0.0],[19.85304,41.32524,0.0],[19.85306,41.32541,0.0],[19.85302,41.32554,0.0],[19.85274,41.32586,0.0],[19.85263,41.32603,0.0],[19.85248,41.32629,0.0],[19.85245,41.32644,0.0],[19.85235,41.32664,0.0],[19.85227,41.32688,0.0],[19.854,41.3268,0.0],[19.85594,41.32692,0.0],[19.8584,41.32727,0.0],[19.8585,41.32731,0.0],[19.8588,41.32626,0.0],[19.85895,41.32531,0.0],[19.85946,41.3236,0.0],[19.85967,41.32312,0.0],[19.85941,41.32268,0.0],[19.85916,41.32232,0.0],[19.85828,41.32159,0.0],[19.85814,41.3214,0.0],[19.85806,41.32136,0.0],[19.85787,41.32135,0.0],[19.85771,41.32135,0.0],[19.85754,41.32134,0.0],[19.85733,41.32129,0.0],[19.85684,41.32116,0.0],[19.85638,41.321,0.0],[19.85582,41.32087,0.0],[19.85564,41.32084,0.0],[19.8555,41.32082,0.0],[19.85537,41.3208,0.0],[19.85512,41.32071,0.0],[19.85491,41.32067,0.0],[19.85491,41.32055,0.0],[19.85504,41.3204,0.0],[19.85507,41.32028,0.0],[19.85527,41.32006,0.0],[19.85542,41.31981,0.0],[19.85581,41.3193,0.0],[19.85587,41.31922,0.0],[19.85597,41.31908,0.0],[19.85606,41.31902,0.0],[19.85576,41.31876,0.0],[19.8555,41.31859,0.0],[19.85532,41.31846,0.0],[19.85518,41.31834,0.0],[19.85503,41.3183,0.0],[19.85472,41.31822,0.0],[19.85449,41.3182,0.0],[19.85436,41.31814,0.0],[19.85423,41.3181,0.0],[19.85414,41.31804,0.0],[19.85407,41.31801,0.0],[19.85397,41.31791,0.0],[19.85383,41.31781,0.0],[19.85362,41.3177,0.0],[19.85339,41.31761,0.0],[19.85311,41.31748,0.0],[19.85269,41.31726,0.0],[19.85227,41.31708,0.0],[19.85175,41.31685,0.0],[19.8513,41.31669,0.0],[19.8502,41.31628,0.0],[19.84919,41.31597,0.0],[19.84875,41.31589,0.0],[19.84861,41.31581,0.0],[19.84857,41.31564,0.0],[19.84839,41.3154,0.0],[19.84822,41.31521,0.0],[19.84781,41.31505,0.0],[19.84749,41.31488,0.0],[19.84721,41.31475,0.0],[19.84705,41.31462,0.0],[19.84685,41.31452,0.0],[19.84663,41.31437,0.0],[19.84638,41.31427,0.0],[19.84612,41.31416,0.0],[19.84592,41.31411,0.0],[19.84575,41.31408,0.0],[19.84534,41.314,0.0],[19.84529,41.31356,0.0],[19.84502,41.31353,0.0],[19.84491,41.31342,0.0],[19.84483,41.31324,0.0],[19.84478,41.3131,0.0],[19.84471,41.31287,0.0],[19.84464,41.31267,0.0],[19.84448,41.31242,0.0],[19.84455,41.31231,0.0],[19.84459,41.31212,0.0],[19.84473,41.31191,0.0],[19.84485,41.31177,0.0],[19.84498,41.31167,0.0],[19.8451,41.31169,0.0],[19.84522,41.31165,0.0],[19.84535,41.31158,0.0],[19.8455,41.31142,0.0],[19.84564,41.31115,0.0],[19.84579,41.31085,0.0],[19.84607,41.31052,0.0],[19.84629,41.31014,0.0],[19.84646,41.30972,0.0],[19.84657,41.30914,0.0],[19.84663,41.30885,0.0],[19.84677,41.30855,0.0],[19.84691,41.30837,0.0],[19.84711,41.30827,0.0],[19.84724,41.30801,0.0],[19.8474,41.30759,0.0],[19.84748,41.30734,0.0],[19.84756,41.30708,0.0],[19.84769,41.3069,0.0],[19.84782,41.30658,0.0],[19.84786,41.30629,0.0],[19.84793,41.30599,0.0],[19.84798,41.30573,0.0],[19.84813,41.30544,0.0],[19.84825,41.30533,0.0],[19.84837,41.30526,0.0],[19.84845,41.30519,0.0],[19.84857,41.30506,0.0],[19.84859,41.30495,0.0],[19.84863,41.30474,0.0],[19.84864,41.30454,0.0],[19.84865,41.30424,0.0],[19.8488,41.30409,0.0],[19.84925,41.30428,0.0],[19.84979,41.30359,0.0],[19.84965,41.30357,0.0],[19.84964,41.30351,0.0],[19.84963,41.30339,0.0],[19.84962,41.30329,0.0],[19.84952,41.30321,0.0],[19.84945,41.30313,0.0],[19.84942,41.30312,0.0],[19.84936,41.30308,0.0],[19.84935,41.30303,0.0],[19.84938,41.30295,0.0],[19.84947,41.30286,0.0],[19.84958,41.30276,0.0],[19.84972,41.30265,0.0],[19.84981,41.30257,0.0],[19.84984,41.30254,0.0],[19.84989,41.30246,0.0],[19.84992,41.3024,0.0],[19.84996,41.30223,0.0],[19.84998,41.30201,0.0],[19.84999,41.30197,0.0],[19.85003,41.30191,0.0],[19.85007,41.30187,0.0],[19.8501,41.30185,0.0],[19.85016,41.30183,0.0],[19.85026,41.3018,0.0],[19.85036,41.30179,0.0],[19.85041,41.30178,0.0],[19.85061,41.30176,0.0],[19.85067,41.30175,0.0],[19.85072,41.30174,0.0],[19.85077,41.30172,0.0],[19.85081,41.30171,0.0],[19.85086,41.30168,0.0],[19.85091,41.30163,0.0],[19.85096,41.30157,0.0],[19.851,41.30141,0.0],[19.85102,41.301,0.0],[19.85102,41.30074,0.0],[19.85101,41.30064,0.0],[19.85097,41.30044,0.0],[19.8509,41.30029,0.0],[19.85077,41.30008,0.0],[19.85067,41.29994,0.0],[19.85061,41.29989,0.0],[19.85046,41.29975,0.0],[19.85011,41.29954,0.0],[19.85048,41.29926,0.0],[19.85019,41.2991,0.0],[19.84996,41.29896,0.0],[19.84976,41.29883,0.0],[19.84966,41.29875,0.0],[19.84963,41.29872,0.0],[19.8496,41.2987,0.0],[19.84944,41.29866,0.0],[19.84933,41.29863,0.0],[19.84938,41.29846,0.0],[19.84951,41.2981,0.0],[19.84971,41.29768,0.0],[19.84977,41.29748,0.0],[19.84905,41.29725,0.0],[19.84845,41.29706,0.0],[19.84815,41.29696,0.0],[19.84703,41.29658,0.0],[19.84645,41.29637,0.0],[19.84612,41.29625,0.0],[19.84602,41.2962,0.0],[19.84597,41.29617,0.0],[19.84594,41.29613,0.0],[19.84585,41.29603,0.0],[19.84573,41.29588,0.0],[19.84569,41.29577,0.0],[19.84568,41.29573,0.0],[19.84568,41.29568,0.0],[19.84571,41.29559,0.0],[19.84566,41.29559,0.0],[19.84525,41.29562,0.0],[19.84401,41.29586,0.0],[19.84369,41.29602,0.0],[19.84333,41.29638,0.0],[19.84313,41.29659,0.0],[19.84283,41.29687,0.0],[19.84266,41.29704,0.0],[19.84248,41.29704,0.0],[19.84205,41.29708,0.0],[19.84156,41.29721,0.0],[19.84102,41.29736,0.0],[19.8407,41.29747,0.0],[19.84025,41.2975,0.0],[19.83992,41.29767,0.0],[19.83948,41.29786,0.0],[19.83908,41.29791,0.0],[19.83881,41.29789,0.0],[19.83835,41.29789,0.0],[19.83796,41.29785,0.0],[19.83746,41.29783,0.0],[19.83697,41.29771,0.0],[19.83661,41.29763,0.0],[19.83636,41.29761,0.0],[19.83581,41.29735,0.0],[19.83544,41.29723,0.0],[19.83508,41.29707,0.0],[19.83483,41.29705,0.0],[19.83452,41.29694,0.0],[19.83424,41.29682,0.0],[19.83397,41.29677,0.0],[19.83365,41.29673,0.0],[19.83326,41.2967,0.0],[19.83289,41.29662,0.0],[19.83254,41.29647,0.0],[19.83228,41.29639,0.0],[19.83219,41.29618,0.0],[19.83203,41.29604,0.0],[19.83177,41.29581,0.0],[19.83139,41.29568,0.0],[19.83101,41.29561,0.0],[19.83063,41.2956,0.0],[19.83032,41.29561,0.0],[19.83003,41.29554,0.0],[19.8299,41.29562,0.0],[19.82956,41.29568,0.0],[19.82926,41.29581,0.0],[19.8289,41.29592,0.0],[19.82908,41.29607,0.0],[19.82912,41.29618,0.0],[19.82916,41.2963,0.0],[19.82913,41.29642,0.0],[19.82897,41.29648,0.0],[19.8288,41.29658,0.0],[19.82857,41.2966,0.0],[19.82849,41.29681,0.0],[19.82837,41.29696,0.0],[19.82837,41.29703,0.0],[19.82832,41.29714,0.0],[19.82719,41.29755,0.0],[19.82739,41.29791,0.0],[19.82671,41.29821,0.0],[19.82617,41.29838,0.0],[19.82552,41.29843,0.0],[19.82506,41.29827,0.0],[19.82518,41.29919,0.0],[19.82548,41.29931,0.0],[19.8257,41.29944,0.0],[19.82604,41.29961,0.0],[19.82606,41.29986,0.0],[19.82594,41.30022,0.0],[19.82561,41.30061,0.0],[19.8256,41.30096,0.0],[19.82548,41.30148,0.0],[19.82528,41.30177,0.0],[19.82504,41.30195,0.0],[19.82485,41.30219,0.0],[19.82519,41.30242,0.0],[19.82503,41.30272,0.0],[19.82491,41.30298,0.0],[19.82456,41.30356,0.0],[19.82407,41.30427,0.0],[19.82359,41.30487,0.0],[19.82334,41.3051,0.0],[19.82293,41.30531,0.0],[19.8227,41.30523,0.0],[19.82252,41.305,0.0],[19.82215,41.30478,0.0],[19.82174,41.3047,0.0],[19.82135,41.30467,0.0],[19.82095,41.30482,0.0],[19.82063,41.30514,0.0],[19.82033,41.30525,0.0],[19.82014,41.30519,0.0],[19.81988,41.30494,0.0],[19.81974,41.30454,0.0],[19.81957,41.30418,0.0],[19.81921,41.30375,0.0],[19.81884,41.30366,0.0],[19.81823,41.3037,0.0],[19.81786,41.30385,0.0],[19.81782,41.30406,0.0],[19.81776,41.30448,0.0],[19.8176,41.30495,0.0],[19.81677,41.30497,0.0],[19.81569,41.30521,0.0],[19.81545,41.30532,0.0],[19.81521,41.30544,0.0],[19.81504,41.30557,0.0],[19.81483,41.30575,0.0],[19.81471,41.30591,0.0],[19.81453,41.30603,0.0],[19.81429,41.30629,0.0],[19.81414,41.30643,0.0],[19.81384,41.30665,0.0],[19.81334,41.307,0.0],[19.8128,41.30727,0.0],[19.81236,41.30755,0.0],[19.81212,41.30767,0.0],[19.81169,41.30787,0.0],[19.81155,41.30802,0.0],[19.81143,41.30824,0.0],[19.81133,41.30845,0.0],[19.81124,41.30901,0.0],[19.81134,41.30966,0.0],[19.81163,41.31002,0.0],[19.81152,41.31008,0.0]]]]}},{"type":"Feature","properties":{"uesi_id":"ALB_R1250106","nbhd_code":"ALB_R1250106_6","nbhd_name":"Nj\u00ebsia Bashkiake Nr. 1"},"geometry":{"type":"MultiPolygon","coordinates":[[[[19.83445,41.33045,0.0],[19.83565,41.33095,0.0],[19.83632,41.33124,0.0],[19.837,41.33154,0.0],[19.83734,41.33168,0.0],[19.83774,41.33189,0.0],[19.83798,41.332,0.0],[19.83808,41.33203,0.0],[19.83814,41.33208,0.0],[19.83822,41.33213,0.0],[19.83837,41.33218,0.0],[19.8385,41.33221,0.0],[19.83871,41.33228,0.0],[19.8389,41.33233,0.0],[19.83904,41.33232,0.0],[19.83909,41.33232,0.0],[19.83912,41.33235,0.0],[19.8392,41.33242,0.0],[19.83926,41.33246,0.0],[19.83937,41.3325,0.0],[19.83946,41.33254,0.0],[19.83951,41.3326,0.0],[19.83956,41.33264,0.0],[19.83975,41.33267,0.0],[19.83992,41.3327,0.0],[19.84011,41.33274,0.0],[19.84022,41.33277,0.0],[19.84027,41.33282,0.0],[19.84031,41.33286,0.0],[19.84034,41.33291,0.0],[19.84033,41.33297,0.0],[19.84033,41.333,0.0],[19.84033,41.33303,0.0],[19.84036,41.33307,0.0],[19.84041,41.33313,0.0],[19.84045,41.33321,0.0],[19.84048,41.33325,0.0],[19.84051,41.33329,0.0],[19.84056,41.33334,0.0],[19.84063,41.33337,0.0],[19.84071,41.33339,0.0],[19.84082,41.33337,0.0],[19.84093,41.33335,0.0],[19.84098,41.33333,0.0],[19.84102,41.33326,0.0],[19.84104,41.33318,0.0],[19.84107,41.33313,0.0],[19.84113,41.33306,0.0],[19.84117,41.33303,0.0],[19.84129,41.33302,0.0],[19.84155,41.33296,0.0],[19.84179,41.33291,0.0],[19.842,41.33289,0.0],[19.84221,41.33286,0.0],[19.8424,41.3328,0.0],[19.84258,41.33277,0.0],[19.84278,41.33278,0.0],[19.84288,41.33277,0.0],[19.84296,41.33267,0.0],[19.84309,41.33253,0.0],[19.84323,41.33242,0.0],[19.84334,41.33235,0.0],[19.84342,41.33233,0.0],[19.84352,41.33233,0.0],[19.84362,41.33237,0.0],[19.84371,41.33242,0.0],[19.84378,41.33247,0.0],[19.84383,41.33256,0.0],[19.84388,41.33264,0.0],[19.8439,41.33273,0.0],[19.84393,41.33282,0.0],[19.84394,41.3329,0.0],[19.84399,41.33299,0.0],[19.84404,41.33304,0.0],[19.84412,41.33312,0.0],[19.84423,41.33322,0.0],[19.84433,41.33331,0.0],[19.84441,41.3334,0.0],[19.84448,41.33346,0.0],[19.84456,41.33349,0.0],[19.84464,41.3335,0.0],[19.84472,41.33348,0.0],[19.84481,41.33344,0.0],[19.84487,41.33342,0.0],[19.84494,41.33344,0.0],[19.84502,41.33349,0.0],[19.84513,41.33353,0.0],[19.84525,41.33358,0.0],[19.84532,41.33365,0.0],[19.8454,41.3337,0.0],[19.8455,41.33378,0.0],[19.84564,41.33386,0.0],[19.84572,41.3339,0.0],[19.84587,41.33392,0.0],[19.84598,41.33395,0.0],[19.84606,41.33398,0.0],[19.84614,41.334,0.0],[19.84624,41.33399,0.0],[19.84633,41.33393,0.0],[19.84643,41.33385,0.0],[19.84652,41.33376,0.0],[19.84665,41.33369,0.0],[19.84674,41.33363,0.0],[19.84682,41.33358,0.0],[19.84694,41.33351,0.0],[19.84705,41.33348,0.0],[19.84713,41.33347,0.0],[19.84722,41.33349,0.0],[19.84727,41.33351,0.0],[19.84735,41.33356,0.0],[19.84747,41.33362,0.0],[19.84763,41.3337,0.0],[19.84775,41.33375,0.0],[19.84785,41.33381,0.0],[19.84798,41.33389,0.0],[19.84811,41.33394,0.0],[19.84826,41.33398,0.0],[19.84843,41.33402,0.0],[19.84854,41.33406,0.0],[19.84884,41.3342,0.0],[19.84892,41.33423,0.0],[19.84901,41.33423,0.0],[19.84914,41.3343,0.0],[19.84901,41.33441,0.0],[19.84885,41.33458,0.0],[19.84872,41.33471,0.0],[19.84863,41.33487,0.0],[19.84846,41.33504,0.0],[19.84818,41.33518,0.0],[19.84786,41.3353,0.0],[19.84775,41.33534,0.0],[19.84781,41.33546,0.0],[19.84814,41.33561,0.0],[19.84852,41.33576,0.0],[19.8486,41.33579,0.0],[19.84877,41.33586,0.0],[19.84894,41.33593,0.0],[19.84908,41.33602,0.0],[19.84921,41.33606,0.0],[19.84938,41.33601,0.0],[19.8495,41.33599,0.0],[19.84958,41.33598,0.0],[19.84973,41.33603,0.0],[19.8498,41.33604,0.0],[19.84985,41.33607,0.0],[19.84996,41.33615,0.0],[19.8501,41.33621,0.0],[19.85025,41.33627,0.0],[19.85046,41.33631,0.0],[19.85081,41.33638,0.0],[19.85079,41.33662,0.0],[19.851,41.33664,0.0],[19.85124,41.33667,0.0],[19.85141,41.33668,0.0],[19.85152,41.33671,0.0],[19.8516,41.3368,0.0],[19.85225,41.33708,0.0],[19.85238,41.33718,0.0],[19.85279,41.33734,0.0],[19.85306,41.33745,0.0],[19.85353,41.33756,0.0],[19.85364,41.33773,0.0],[19.85367,41.33783,0.0],[19.85371,41.33801,0.0],[19.85378,41.33805,0.0],[19.85397,41.33806,0.0],[19.85416,41.33808,0.0],[19.85431,41.33809,0.0],[19.8544,41.33807,0.0],[19.8545,41.33795,0.0],[19.85464,41.33771,0.0],[19.85486,41.33752,0.0],[19.85506,41.33736,0.0],[19.85515,41.33734,0.0],[19.85527,41.3373,0.0],[19.85601,41.33737,0.0],[19.85636,41.33741,0.0],[19.85693,41.33787,0.0],[19.85934,41.33833,0.0],[19.86105,41.33953,0.0],[19.86219,41.33942,0.0],[19.86251,41.33939,0.0],[19.86316,41.33946,0.0],[19.86352,41.33955,0.0],[19.86351,41.3394,0.0],[19.8642,41.33947,0.0],[19.86428,41.33896,0.0],[19.86465,41.33789,0.0],[19.86635,41.3374,0.0],[19.86675,41.33749,0.0],[19.86731,41.33769,0.0],[19.86765,41.33777,0.0],[19.86781,41.33779,0.0],[19.86814,41.33773,0.0],[19.86829,41.33772,0.0],[19.86838,41.33779,0.0],[19.86844,41.33787,0.0],[19.86848,41.33795,0.0],[19.86849,41.33806,0.0],[19.86843,41.33817,0.0],[19.86867,41.33848,0.0],[19.86918,41.33856,0.0],[19.86944,41.33868,0.0],[19.86999,41.33882,0.0],[19.8703,41.33881,0.0],[19.87103,41.33849,0.0],[19.8714,41.33839,0.0],[19.87185,41.33832,0.0],[19.87212,41.33802,0.0],[19.87262,41.33794,0.0],[19.87259,41.33622,0.0],[19.87259,41.33606,0.0],[19.87314,41.33603,0.0],[19.87434,41.33594,0.0],[19.87483,41.33586,0.0],[19.87505,41.3358,0.0],[19.87518,41.33573,0.0],[19.8753,41.33562,0.0],[19.87543,41.3355,0.0],[19.87547,41.33524,0.0],[19.87545,41.33489,0.0],[19.87519,41.33394,0.0],[19.87536,41.33373,0.0],[19.87535,41.33365,0.0],[19.87548,41.33353,0.0],[19.87564,41.33342,0.0],[19.87574,41.33334,0.0],[19.87582,41.33323,0.0],[19.87586,41.33317,0.0],[19.87589,41.33304,0.0],[19.87588,41.33296,0.0],[19.8757,41.33294,0.0],[19.87615,41.33263,0.0],[19.87609,41.33244,0.0],[19.87589,41.33214,0.0],[19.87598,41.33178,0.0],[19.87618,41.33144,0.0],[19.87644,41.33126,0.0],[19.87555,41.33042,0.0],[19.87534,41.33055,0.0],[19.87527,41.33058,0.0],[19.87521,41.3306,0.0],[19.87514,41.33059,0.0],[19.87478,41.33048,0.0],[19.8728,41.33105,0.0],[19.87233,41.33102,0.0],[19.87224,41.33099,0.0],[19.87212,41.33081,0.0],[19.87203,41.33067,0.0],[19.87194,41.33031,0.0],[19.87191,41.33027,0.0],[19.87143,41.33016,0.0],[19.87113,41.33012,0.0],[19.87074,41.33019,0.0],[19.86947,41.3304,0.0],[19.8685,41.33045,0.0],[19.86732,41.33073,0.0],[19.86718,41.33079,0.0],[19.8666,41.33089,0.0],[19.86651,41.3308,0.0],[19.86651,41.33062,0.0],[19.86647,41.32993,0.0],[19.86642,41.32961,0.0],[19.86623,41.32931,0.0],[19.866,41.32903,0.0],[19.86581,41.32879,0.0],[19.8658,41.3286,0.0],[19.86547,41.32853,0.0],[19.8655,41.32824,0.0],[19.865,41.32814,0.0],[19.86497,41.32791,0.0],[19.86534,41.32752,0.0],[19.86516,41.32688,0.0],[19.86545,41.32675,0.0],[19.86536,41.32664,0.0],[19.86506,41.32666,0.0],[19.86462,41.32677,0.0],[19.86435,41.32685,0.0],[19.86391,41.32618,0.0],[19.86332,41.32569,0.0],[19.86309,41.32543,0.0],[19.86165,41.32543,0.0],[19.86073,41.32461,0.0],[19.86005,41.32405,0.0],[19.85976,41.32383,0.0],[19.85946,41.3236,0.0],[19.85895,41.32531,0.0],[19.8588,41.32626,0.0],[19.8585,41.32731,0.0],[19.8584,41.32727,0.0],[19.85594,41.32692,0.0],[19.854,41.3268,0.0],[19.85227,41.32688,0.0],[19.85235,41.32664,0.0],[19.85245,41.32644,0.0],[19.85248,41.32629,0.0],[19.85263,41.32603,0.0],[19.85274,41.32586,0.0],[19.85302,41.32554,0.0],[19.85306,41.32541,0.0],[19.85304,41.32524,0.0],[19.85297,41.32493,0.0],[19.85296,41.32479,0.0],[19.85254,41.32468,0.0],[19.85229,41.32456,0.0],[19.85209,41.32454,0.0],[19.85178,41.3245,0.0],[19.85141,41.32442,0.0],[19.85123,41.32437,0.0],[19.85115,41.32431,0.0],[19.85099,41.3241,0.0],[19.85081,41.32394,0.0],[19.85068,41.3239,0.0],[19.8506,41.32392,0.0],[19.85052,41.324,0.0],[19.85035,41.32413,0.0],[19.85021,41.32418,0.0],[19.85005,41.32421,0.0],[19.84986,41.32421,0.0],[19.84962,41.32424,0.0],[19.8495,41.32425,0.0],[19.84934,41.32423,0.0],[19.84917,41.32416,0.0],[19.84906,41.32413,0.0],[19.84882,41.32434,0.0],[19.84856,41.32465,0.0],[19.84842,41.32489,0.0],[19.84832,41.32505,0.0],[19.84826,41.32524,0.0],[19.84829,41.32538,0.0],[19.8484,41.32565,0.0],[19.84843,41.32583,0.0],[19.84837,41.32608,0.0],[19.84815,41.32635,0.0],[19.84802,41.3265,0.0],[19.84778,41.32669,0.0],[19.84732,41.32693,0.0],[19.84699,41.32709,0.0],[19.84558,41.32708,0.0],[19.84467,41.32707,0.0],[19.84419,41.32694,0.0],[19.84377,41.32672,0.0],[19.84351,41.3267,0.0],[19.84336,41.32652,0.0],[19.84334,41.32627,0.0],[19.84326,41.32611,0.0],[19.843,41.32587,0.0],[19.84266,41.32549,0.0],[19.84237,41.32529,0.0],[19.84212,41.32544,0.0],[19.842,41.32554,0.0],[19.84156,41.32568,0.0],[19.84106,41.32589,0.0],[19.84074,41.32598,0.0],[19.84059,41.32602,0.0],[19.84052,41.32595,0.0],[19.84042,41.32593,0.0],[19.84029,41.32591,0.0],[19.84019,41.3259,0.0],[19.84003,41.32569,0.0],[19.8399,41.32575,0.0],[19.83952,41.32593,0.0],[19.83934,41.32602,0.0],[19.83917,41.32607,0.0],[19.83902,41.32606,0.0],[19.83883,41.32601,0.0],[19.83855,41.32594,0.0],[19.83831,41.32588,0.0],[19.83797,41.32642,0.0],[19.83767,41.32651,0.0],[19.83742,41.32653,0.0],[19.8371,41.32652,0.0],[19.83685,41.32652,0.0],[19.83656,41.32652,0.0],[19.83629,41.32649,0.0],[19.83601,41.32638,0.0],[19.83585,41.32636,0.0],[19.83573,41.32651,0.0],[19.83553,41.32643,0.0],[19.83506,41.32639,0.0],[19.83463,41.32638,0.0],[19.83418,41.32633,0.0],[19.83403,41.32631,0.0],[19.83379,41.32621,0.0],[19.83375,41.32642,0.0],[19.83353,41.32647,0.0],[19.83323,41.32648,0.0],[19.83315,41.32645,0.0],[19.83313,41.32639,0.0],[19.83303,41.32629,0.0],[19.83293,41.32622,0.0],[19.83284,41.32634,0.0],[19.83278,41.32641,0.0],[19.83266,41.32654,0.0],[19.83262,41.32664,0.0],[19.83248,41.32675,0.0],[19.83227,41.32684,0.0],[19.83222,41.32682,0.0],[19.83215,41.32687,0.0],[19.83188,41.32707,0.0],[19.83228,41.32731,0.0],[19.83221,41.32735,0.0],[19.832,41.32741,0.0],[19.83156,41.32745,0.0],[19.83118,41.32746,0.0],[19.83084,41.32746,0.0],[19.83052,41.32743,0.0],[19.83026,41.32733,0.0],[19.83012,41.32728,0.0],[19.82998,41.3272,0.0],[19.82983,41.32714,0.0],[19.82977,41.32717,0.0],[19.82971,41.32726,0.0],[19.82974,41.32734,0.0],[19.82967,41.32742,0.0],[19.82944,41.32737,0.0],[19.82939,41.32727,0.0],[19.82919,41.32718,0.0],[19.82905,41.32721,0.0],[19.82889,41.32718,0.0],[19.82877,41.32713,0.0],[19.82863,41.32722,0.0],[19.82856,41.32727,0.0],[19.82851,41.32723,0.0],[19.82842,41.32722,0.0],[19.82833,41.32715,0.0],[19.82826,41.32708,0.0],[19.82816,41.327,0.0],[19.82805,41.32692,0.0],[19.82798,41.32694,0.0],[19.82786,41.32682,0.0],[19.82727,41.32632,0.0],[19.82651,41.32567,0.0],[19.82645,41.3256,0.0],[19.82672,41.3255,0.0],[19.82692,41.32543,0.0],[19.82689,41.32533,0.0],[19.82665,41.32509,0.0],[19.82645,41.32491,0.0],[19.82602,41.32473,0.0],[19.82577,41.32464,0.0],[19.82559,41.32458,0.0],[19.82532,41.32454,0.0],[19.82523,41.32457,0.0],[19.82531,41.32485,0.0],[19.8253,41.32504,0.0],[19.82521,41.32525,0.0],[19.82571,41.32566,0.0],[19.8266,41.32639,0.0],[19.82744,41.32711,0.0],[19.82813,41.3277,0.0],[19.82833,41.32784,0.0],[19.82936,41.32826,0.0],[19.83182,41.32933,0.0],[19.8338,41.33017,0.0],[19.83445,41.33045,0.0]]]]}},{"type":"Feature","properties":{"uesi_id":"ALB_R1250106","nbhd_code":"ALB_R1250106_7","nbhd_name":"Nj\u00ebsia Bashkiake Nr. 3"},"geometry":{"type":"MultiPolygon","coordinates":[[[[19.83289,41.33463,0.0],[19.83286,41.33467,0.0],[19.83278,41.33479,0.0],[19.83228,41.33544,0.0],[19.83174,41.33625,0.0],[19.83119,41.33707,0.0],[19.83069,41.33777,0.0],[19.82995,41.33884,0.0],[19.82972,41.33916,0.0],[19.82928,41.3398,0.0],[19.82918,41.33997,0.0],[19.82913,41.34002,0.0],[19.83283,41.3419,0.0],[19.83376,41.34237,0.0],[19.83389,41.34242,0.0],[19.83404,41.34233,0.0],[19.83412,41.34227,0.0],[19.83423,41.34216,0.0],[19.83439,41.34209,0.0],[19.83455,41.34192,0.0],[19.83526,41.34145,0.0],[19.83536,41.34147,0.0],[19.83542,41.34144,0.0],[19.83555,41.34128,0.0],[19.83578,41.34101,0.0],[19.83668,41.33995,0.0],[19.83678,41.33983,0.0],[19.83692,41.33965,0.0],[19.83719,41.33977,0.0],[19.83959,41.3408,0.0],[19.84122,41.34149,0.0],[19.84135,41.34155,0.0],[19.84148,41.34139,0.0],[19.84223,41.34042,0.0],[19.84289,41.33963,0.0],[19.84296,41.33962,0.0],[19.84334,41.33996,0.0],[19.84342,41.34004,0.0],[19.84388,41.34042,0.0],[19.84431,41.3408,0.0],[19.84523,41.34161,0.0],[19.84591,41.34222,0.0],[19.84613,41.34241,0.0],[19.84634,41.34255,0.0],[19.8467,41.34279,0.0],[19.84701,41.343,0.0],[19.84753,41.34328,0.0],[19.84831,41.34378,0.0],[19.84925,41.34438,0.0],[19.85042,41.34494,0.0],[19.85064,41.34505,0.0],[19.85073,41.34513,0.0],[19.85099,41.34526,0.0],[19.85126,41.34537,0.0],[19.85199,41.34563,0.0],[19.85309,41.34599,0.0],[19.85407,41.34611,0.0],[19.85436,41.34613,0.0],[19.8544,41.34597,0.0],[19.85456,41.34539,0.0],[19.85462,41.34524,0.0],[19.85458,41.34515,0.0],[19.85453,41.34499,0.0],[19.85453,41.3448,0.0],[19.85461,41.34456,0.0],[19.85469,41.34439,0.0],[19.85463,41.3443,0.0],[19.85458,41.34425,0.0],[19.85458,41.34418,0.0],[19.85469,41.34412,0.0],[19.85506,41.34395,0.0],[19.8552,41.34385,0.0],[19.8554,41.3437,0.0],[19.85551,41.3436,0.0],[19.85552,41.34353,0.0],[19.85559,41.34337,0.0],[19.85568,41.34327,0.0],[19.85574,41.34319,0.0],[19.85591,41.34304,0.0],[19.85634,41.34255,0.0],[19.85643,41.34245,0.0],[19.85658,41.34227,0.0],[19.85675,41.34209,0.0],[19.85725,41.34158,0.0],[19.85769,41.34112,0.0],[19.85822,41.34055,0.0],[19.85879,41.33993,0.0],[19.86001,41.33968,0.0],[19.86105,41.33953,0.0],[19.85934,41.33833,0.0],[19.85693,41.33787,0.0],[19.85636,41.33741,0.0],[19.85601,41.33737,0.0],[19.85527,41.3373,0.0],[19.85515,41.33734,0.0],[19.85506,41.33736,0.0],[19.85486,41.33752,0.0],[19.85464,41.33771,0.0],[19.8545,41.33795,0.0],[19.8544,41.33807,0.0],[19.85431,41.33809,0.0],[19.85416,41.33808,0.0],[19.85397,41.33806,0.0],[19.85378,41.33805,0.0],[19.85371,41.33801,0.0],[19.85367,41.33783,0.0],[19.85364,41.33773,0.0],[19.85353,41.33756,0.0],[19.85306,41.33745,0.0],[19.85279,41.33734,0.0],[19.85238,41.33718,0.0],[19.85225,41.33708,0.0],[19.8516,41.3368,0.0],[19.85152,41.33671,0.0],[19.85141,41.33668,0.0],[19.85124,41.33667,0.0],[19.851,41.33664,0.0],[19.85079,41.33662,0.0],[19.85081,41.33638,0.0],[19.85046,41.33631,0.0],[19.85025,41.33627,0.0],[19.8501,41.33621,0.0],[19.84996,41.33615,0.0],[19.84985,41.33607,0.0],[19.8498,41.33604,0.0],[19.84973,41.33603,0.0],[19.84958,41.33598,0.0],[19.8495,41.33599,0.0],[19.84938,41.33601,0.0],[19.84921,41.33606,0.0],[19.84908,41.33602,0.0],[19.84894,41.33593,0.0],[19.84877,41.33586,0.0],[19.8486,41.33579,0.0],[19.84852,41.33576,0.0],[19.84814,41.33561,0.0],[19.84781,41.33546,0.0],[19.84775,41.33534,0.0],[19.84786,41.3353,0.0],[19.84818,41.33518,0.0],[19.84846,41.33504,0.0],[19.84863,41.33487,0.0],[19.84872,41.33471,0.0],[19.84885,41.33458,0.0],[19.84901,41.33441,0.0],[19.84914,41.3343,0.0],[19.84901,41.33423,0.0],[19.84892,41.33423,0.0],[19.84884,41.3342,0.0],[19.84854,41.33406,0.0],[19.84843,41.33402,0.0],[19.84826,41.33398,0.0],[19.84811,41.33394,0.0],[19.84798,41.33389,0.0],[19.84785,41.33381,0.0],[19.84775,41.33375,0.0],[19.84763,41.3337,0.0],[19.84747,41.33362,0.0],[19.84735,41.33356,0.0],[19.84727,41.33351,0.0],[19.84722,41.33349,0.0],[19.84713,41.33347,0.0],[19.84705,41.33348,0.0],[19.84694,41.33351,0.0],[19.84682,41.33358,0.0],[19.84674,41.33363,0.0],[19.84665,41.33369,0.0],[19.84652,41.33376,0.0],[19.84643,41.33385,0.0],[19.84633,41.33393,0.0],[19.84624,41.33399,0.0],[19.84614,41.334,0.0],[19.84606,41.33398,0.0],[19.84598,41.33395,0.0],[19.84587,41.33392,0.0],[19.84572,41.3339,0.0],[19.84564,41.33386,0.0],[19.8455,41.33378,0.0],[19.8454,41.3337,0.0],[19.84532,41.33365,0.0],[19.84525,41.33358,0.0],[19.84513,41.33353,0.0],[19.84502,41.33349,0.0],[19.84494,41.33344,0.0],[19.84487,41.33342,0.0],[19.84481,41.33344,0.0],[19.84472,41.33348,0.0],[19.84464,41.3335,0.0],[19.84456,41.33349,0.0],[19.84448,41.33346,0.0],[19.84441,41.3334,0.0],[19.84433,41.33331,0.0],[19.84423,41.33322,0.0],[19.84412,41.33312,0.0],[19.84404,41.33304,0.0],[19.84399,41.33299,0.0],[19.84394,41.3329,0.0],[19.84393,41.33282,0.0],[19.8439,41.33273,0.0],[19.84388,41.33264,0.0],[19.84383,41.33256,0.0],[19.84378,41.33247,0.0],[19.84371,41.33242,0.0],[19.84362,41.33237,0.0],[19.84352,41.33233,0.0],[19.84342,41.33233,0.0],[19.84334,41.33235,0.0],[19.84323,41.33242,0.0],[19.84309,41.33253,0.0],[19.84296,41.33267,0.0],[19.84288,41.33277,0.0],[19.84278,41.33278,0.0],[19.84258,41.33277,0.0],[19.8424,41.3328,0.0],[19.84221,41.33286,0.0],[19.842,41.33289,0.0],[19.84179,41.33291,0.0],[19.84155,41.33296,0.0],[19.84129,41.33302,0.0],[19.84117,41.33303,0.0],[19.84113,41.33306,0.0],[19.84107,41.33313,0.0],[19.84104,41.33318,0.0],[19.84102,41.33326,0.0],[19.84098,41.33333,0.0],[19.84093,41.33335,0.0],[19.84082,41.33337,0.0],[19.84071,41.33339,0.0],[19.84063,41.33337,0.0],[19.84056,41.33334,0.0],[19.84051,41.33329,0.0],[19.84048,41.33325,0.0],[19.84045,41.33321,0.0],[19.84041,41.33313,0.0],[19.84036,41.33307,0.0],[19.84033,41.33303,0.0],[19.84033,41.333,0.0],[19.84033,41.33297,0.0],[19.84034,41.33291,0.0],[19.84031,41.33286,0.0],[19.84027,41.33282,0.0],[19.84022,41.33277,0.0],[19.84011,41.33274,0.0],[19.83992,41.3327,0.0],[19.83975,41.33267,0.0],[19.83956,41.33264,0.0],[19.83951,41.3326,0.0],[19.83946,41.33254,0.0],[19.83937,41.3325,0.0],[19.83926,41.33246,0.0],[19.8392,41.33242,0.0],[19.83912,41.33235,0.0],[19.83909,41.33232,0.0],[19.83904,41.33232,0.0],[19.8389,41.33233,0.0],[19.83871,41.33228,0.0],[19.8385,41.33221,0.0],[19.83837,41.33218,0.0],[19.83822,41.33213,0.0],[19.83814,41.33208,0.0],[19.83808,41.33203,0.0],[19.83798,41.332,0.0],[19.83774,41.33189,0.0],[19.83734,41.33168,0.0],[19.837,41.33154,0.0],[19.83632,41.33124,0.0],[19.83565,41.33095,0.0],[19.83445,41.33045,0.0],[19.83439,41.33088,0.0],[19.83427,41.33143,0.0],[19.83405,41.3325,0.0],[19.83396,41.33295,0.0],[19.83381,41.33328,0.0],[19.8336,41.33358,0.0],[19.83289,41.33463,0.0]]]]}},{"type":"Feature","properties":{"uesi_id":"ALB_R1250106","nbhd_code":"ALB_R1250106_8","nbhd_name":"Nj\u00ebsia Bashkiake Nr. 4"},"geometry":{"type":"MultiPolygon","coordinates":[[[[19.85407,41.34611,0.0],[19.85309,41.34599,0.0],[19.85199,41.34563,0.0],[19.85126,41.34537,0.0],[19.85099,41.34526,0.0],[19.85073,41.34513,0.0],[19.85064,41.34505,0.0],[19.85042,41.34494,0.0],[19.84925,41.34438,0.0],[19.84831,41.34378,0.0],[19.84753,41.34328,0.0],[19.84701,41.343,0.0],[19.8467,41.34279,0.0],[19.84634,41.34255,0.0],[19.84613,41.34241,0.0],[19.84591,41.34222,0.0],[19.84523,41.34161,0.0],[19.84431,41.3408,0.0],[19.84388,41.34042,0.0],[19.84342,41.34004,0.0],[19.84334,41.33996,0.0],[19.84296,41.33962,0.0],[19.84289,41.33963,0.0],[19.84223,41.34042,0.0],[19.84148,41.34139,0.0],[19.84135,41.34155,0.0],[19.84122,41.34149,0.0],[19.83959,41.3408,0.0],[19.83719,41.33977,0.0],[19.83692,41.33965,0.0],[19.83678,41.33983,0.0],[19.83668,41.33995,0.0],[19.83578,41.34101,0.0],[19.83555,41.34128,0.0],[19.83542,41.34144,0.0],[19.83536,41.34147,0.0],[19.83526,41.34145,0.0],[19.83455,41.34192,0.0],[19.83439,41.34209,0.0],[19.83423,41.34216,0.0],[19.83412,41.34227,0.0],[19.83404,41.34233,0.0],[19.83389,41.34242,0.0],[19.83376,41.34237,0.0],[19.83283,41.3419,0.0],[19.82913,41.34002,0.0],[19.82904,41.34012,0.0],[19.82894,41.3402,0.0],[19.8288,41.34022,0.0],[19.82845,41.34022,0.0],[19.82791,41.34023,0.0],[19.82701,41.34018,0.0],[19.82667,41.34014,0.0],[19.82646,41.3401,0.0],[19.82638,41.34009,0.0],[19.82635,41.34021,0.0],[19.82635,41.34048,0.0],[19.82631,41.34095,0.0],[19.82603,41.34202,0.0],[19.82575,41.34288,0.0],[19.82564,41.34326,0.0],[19.82515,41.34519,0.0],[19.82495,41.34572,0.0],[19.82462,41.34668,0.0],[19.82431,41.34759,0.0],[19.82409,41.34822,0.0],[19.82404,41.34835,0.0],[19.82387,41.34878,0.0],[19.82372,41.34906,0.0],[19.82366,41.34916,0.0],[19.82356,41.34917,0.0],[19.82353,41.34923,0.0],[19.8234,41.34935,0.0],[19.82333,41.34957,0.0],[19.82333,41.34981,0.0],[19.82318,41.35066,0.0],[19.82281,41.35166,0.0],[19.82379,41.35169,0.0],[19.8246,41.35159,0.0],[19.82531,41.35151,0.0],[19.82583,41.35147,0.0],[19.82623,41.35142,0.0],[19.82676,41.35137,0.0],[19.82727,41.35146,0.0],[19.82808,41.35175,0.0],[19.82843,41.35185,0.0],[19.83003,41.35194,0.0],[19.83083,41.35189,0.0],[19.8315,41.3518,0.0],[19.83214,41.35179,0.0],[19.83259,41.35185,0.0],[19.83295,41.35185,0.0],[19.83333,41.35179,0.0],[19.83386,41.35189,0.0],[19.83415,41.35199,0.0],[19.83439,41.35201,0.0],[19.83464,41.35197,0.0],[19.83488,41.35202,0.0],[19.83516,41.3521,0.0],[19.83547,41.35234,0.0],[19.83576,41.35256,0.0],[19.83607,41.35274,0.0],[19.83637,41.3528,0.0],[19.83671,41.35295,0.0],[19.83692,41.35312,0.0],[19.83721,41.3532,0.0],[19.83757,41.35337,0.0],[19.838,41.35353,0.0],[19.83834,41.3537,0.0],[19.83848,41.35386,0.0],[19.83868,41.35395,0.0],[19.83903,41.35398,0.0],[19.83941,41.35404,0.0],[19.84038,41.35421,0.0],[19.84096,41.3543,0.0],[19.84149,41.35435,0.0],[19.84182,41.35443,0.0],[19.842,41.35463,0.0],[19.84226,41.35493,0.0],[19.84256,41.35516,0.0],[19.84293,41.35557,0.0],[19.84324,41.35582,0.0],[19.84371,41.35601,0.0],[19.84427,41.35633,0.0],[19.84463,41.35653,0.0],[19.84485,41.35677,0.0],[19.84507,41.3572,0.0],[19.84529,41.35748,0.0],[19.84543,41.35775,0.0],[19.84578,41.35819,0.0],[19.84595,41.35832,0.0],[19.84607,41.35841,0.0],[19.84629,41.35861,0.0],[19.84644,41.35877,0.0],[19.84666,41.35884,0.0],[19.84693,41.35893,0.0],[19.84719,41.35901,0.0],[19.84733,41.35909,0.0],[19.84775,41.35874,0.0],[19.84819,41.35848,0.0],[19.84825,41.35844,0.0],[19.84829,41.35843,0.0],[19.84832,41.35845,0.0],[19.84846,41.35857,0.0],[19.84871,41.35873,0.0],[19.84896,41.35889,0.0],[19.84907,41.35896,0.0],[19.84921,41.35905,0.0],[19.84946,41.35921,0.0],[19.84978,41.3594,0.0],[19.84992,41.35948,0.0],[19.85005,41.35956,0.0],[19.85029,41.3597,0.0],[19.85056,41.35986,0.0],[19.85095,41.36009,0.0],[19.85124,41.35975,0.0],[19.85134,41.35963,0.0],[19.85144,41.35944,0.0],[19.85143,41.35927,0.0],[19.85137,41.35912,0.0],[19.85158,41.35904,0.0],[19.85166,41.35901,0.0],[19.85186,41.35898,0.0],[19.85216,41.35902,0.0],[19.85231,41.35908,0.0],[19.85247,41.35915,0.0],[19.85277,41.35917,0.0],[19.85321,41.35916,0.0],[19.85386,41.35913,0.0],[19.85432,41.35912,0.0],[19.8545,41.35905,0.0],[19.85468,41.35896,0.0],[19.85487,41.35875,0.0],[19.85506,41.35853,0.0],[19.85532,41.3585,0.0],[19.85555,41.35847,0.0],[19.85582,41.35846,0.0],[19.85609,41.35845,0.0],[19.85584,41.35797,0.0],[19.8561,41.35787,0.0],[19.85595,41.35752,0.0],[19.85548,41.3576,0.0],[19.8555,41.35737,0.0],[19.85549,41.35713,0.0],[19.8555,41.357,0.0],[19.85539,41.35686,0.0],[19.85522,41.35673,0.0],[19.8551,41.35668,0.0],[19.85494,41.35622,0.0],[19.85487,41.35606,0.0],[19.85487,41.35593,0.0],[19.85495,41.3558,0.0],[19.85507,41.35573,0.0],[19.85509,41.35567,0.0],[19.85514,41.35561,0.0],[19.85518,41.35555,0.0],[19.85526,41.35533,0.0],[19.85529,41.35524,0.0],[19.85526,41.35502,0.0],[19.85502,41.35467,0.0],[19.8549,41.35451,0.0],[19.85552,41.35422,0.0],[19.85582,41.35399,0.0],[19.8563,41.35391,0.0],[19.8564,41.35325,0.0],[19.85644,41.35318,0.0],[19.85681,41.35313,0.0],[19.8571,41.35306,0.0],[19.85731,41.35283,0.0],[19.85753,41.35265,0.0],[19.85776,41.35244,0.0],[19.85781,41.3522,0.0],[19.85787,41.35189,0.0],[19.85783,41.35167,0.0],[19.85741,41.35176,0.0],[19.85685,41.3519,0.0],[19.85647,41.35199,0.0],[19.85606,41.35209,0.0],[19.85581,41.35215,0.0],[19.85554,41.35221,0.0],[19.85529,41.35227,0.0],[19.85514,41.35227,0.0],[19.85499,41.35216,0.0],[19.85483,41.35205,0.0],[19.85469,41.352,0.0],[19.85412,41.35182,0.0],[19.85388,41.35172,0.0],[19.85365,41.35158,0.0],[19.85353,41.35154,0.0],[19.85315,41.35149,0.0],[19.85293,41.35144,0.0],[19.85274,41.35144,0.0],[19.85277,41.35089,0.0],[19.85276,41.35038,0.0],[19.85275,41.3502,0.0],[19.85275,41.3499,0.0],[19.85274,41.34971,0.0],[19.85275,41.34954,0.0],[19.85266,41.34958,0.0],[19.8524,41.3496,0.0],[19.85221,41.3496,0.0],[19.85199,41.34963,0.0],[19.85179,41.34965,0.0],[19.85151,41.34962,0.0],[19.85149,41.34958,0.0],[19.85148,41.34908,0.0],[19.85149,41.3486,0.0],[19.85155,41.34841,0.0],[19.852,41.34815,0.0],[19.85247,41.34786,0.0],[19.85277,41.34766,0.0],[19.85302,41.34743,0.0],[19.85327,41.34705,0.0],[19.85341,41.34683,0.0],[19.8537,41.34646,0.0],[19.85378,41.34638,0.0],[19.85377,41.34637,0.0],[19.85382,41.34634,0.0],[19.85395,41.34623,0.0],[19.85404,41.3462,0.0],[19.85407,41.34611,0.0]]]]}},{"type":"Feature","properties":{"uesi_id":"ALB_R1250106","nbhd_code":"ALB_R1250106_9","nbhd_name":"Nj\u00ebsia Bashkiake Nr. 8"},"geometry":{"type":"MultiPolygon","coordinates":[[[[19.82075,41.33078,0.0],[19.8212,41.33113,0.0],[19.82172,41.33161,0.0],[19.82215,41.33209,0.0],[19.82263,41.33275,0.0],[19.8229,41.33317,0.0],[19.82284,41.33328,0.0],[19.82249,41.33375,0.0],[19.82156,41.33504,0.0],[19.82082,41.33607,0.0],[19.82034,41.33675,0.0],[19.82011,41.33706,0.0],[19.81991,41.33722,0.0],[19.81943,41.33781,0.0],[19.81906,41.33822,0.0],[19.81885,41.33856,0.0],[19.81878,41.33885,0.0],[19.81854,41.33915,0.0],[19.81808,41.33982,0.0],[19.81763,41.34041,0.0],[19.8172,41.34097,0.0],[19.81677,41.34157,0.0],[19.81628,41.34239,0.0],[19.81624,41.34246,0.0],[19.81574,41.34341,0.0],[19.81521,41.34441,0.0],[19.81499,41.34479,0.0],[19.81467,41.34536,0.0],[19.81424,41.3463,0.0],[19.81359,41.3475,0.0],[19.81325,41.34788,0.0],[19.81292,41.34796,0.0],[19.81262,41.34839,0.0],[19.81219,41.34886,0.0],[19.8117,41.34953,0.0],[19.81187,41.34993,0.0],[19.81193,41.35022,0.0],[19.81194,41.35032,0.0],[19.81195,41.35049,0.0],[19.81192,41.35056,0.0],[19.81185,41.35064,0.0],[19.81174,41.35072,0.0],[19.81158,41.35081,0.0],[19.81108,41.35118,0.0],[19.81108,41.35121,0.0],[19.81101,41.35214,0.0],[19.81109,41.35214,0.0],[19.81144,41.35209,0.0],[19.81203,41.35196,0.0],[19.8124,41.35191,0.0],[19.81271,41.35194,0.0],[19.81316,41.35201,0.0],[19.81357,41.35204,0.0],[19.81393,41.35196,0.0],[19.81451,41.3518,0.0],[19.81476,41.35173,0.0],[19.81527,41.35159,0.0],[19.81564,41.35154,0.0],[19.81593,41.35153,0.0],[19.81613,41.35147,0.0],[19.81632,41.35129,0.0],[19.81666,41.35107,0.0],[19.81696,41.35088,0.0],[19.81744,41.35071,0.0],[19.81788,41.35061,0.0],[19.81825,41.35054,0.0],[19.81863,41.35047,0.0],[19.81935,41.35053,0.0],[19.81964,41.35062,0.0],[19.81996,41.35072,0.0],[19.82032,41.35084,0.0],[19.8208,41.35109,0.0],[19.82135,41.35136,0.0],[19.82175,41.35151,0.0],[19.82208,41.35161,0.0],[19.82245,41.35165,0.0],[19.82281,41.35166,0.0],[19.82318,41.35066,0.0],[19.82333,41.34981,0.0],[19.82333,41.34957,0.0],[19.8234,41.34935,0.0],[19.82353,41.34923,0.0],[19.82356,41.34917,0.0],[19.82366,41.34916,0.0],[19.82372,41.34906,0.0],[19.82387,41.34878,0.0],[19.82404,41.34835,0.0],[19.82409,41.34822,0.0],[19.82431,41.34759,0.0],[19.82462,41.34668,0.0],[19.82495,41.34572,0.0],[19.82515,41.34519,0.0],[19.82564,41.34326,0.0],[19.82575,41.34288,0.0],[19.82603,41.34202,0.0],[19.82631,41.34095,0.0],[19.82635,41.34048,0.0],[19.82635,41.34021,0.0],[19.82638,41.34009,0.0],[19.82646,41.3401,0.0],[19.82667,41.34014,0.0],[19.82701,41.34018,0.0],[19.82791,41.34023,0.0],[19.82845,41.34022,0.0],[19.8288,41.34022,0.0],[19.82894,41.3402,0.0],[19.82904,41.34012,0.0],[19.82913,41.34002,0.0],[19.82918,41.33997,0.0],[19.82928,41.3398,0.0],[19.82972,41.33916,0.0],[19.82995,41.33884,0.0],[19.83069,41.33777,0.0],[19.83119,41.33707,0.0],[19.83174,41.33625,0.0],[19.83228,41.33544,0.0],[19.83278,41.33479,0.0],[19.83286,41.33467,0.0],[19.83289,41.33463,0.0],[19.83256,41.33449,0.0],[19.83155,41.33404,0.0],[19.83087,41.33374,0.0],[19.83029,41.33349,0.0],[19.82983,41.33328,0.0],[19.82958,41.33317,0.0],[19.82882,41.33285,0.0],[19.82827,41.33261,0.0],[19.82764,41.33233,0.0],[19.82684,41.33198,0.0],[19.82604,41.33163,0.0],[19.82548,41.33144,0.0],[19.82474,41.33119,0.0],[19.82398,41.33094,0.0],[19.82318,41.33069,0.0],[19.82162,41.33018,0.0],[19.82113,41.33,0.0],[19.82083,41.3306,0.0],[19.82075,41.33078,0.0]]]]}},{"type":"Feature","properties":{"uesi_id":"ALB_R1250106","nbhd_code":"ALB_R1250106_10","nbhd_name":"Nj\u00ebsia Bashkiake Nr. 9"},"geometry":{"type":"MultiPolygon","coordinates":[[[[19.79909,41.34905,0.0],[19.79911,41.34906,0.0],[19.7994,41.34927,0.0],[19.79945,41.34931,0.0],[19.7996,41.34943,0.0],[19.79984,41.34972,0.0],[19.79998,41.34994,0.0],[19.80017,41.35009,0.0],[19.80038,41.35017,0.0],[19.80062,41.35022,0.0],[19.801,41.35017,0.0],[19.80158,41.35012,0.0],[19.80201,41.3501,0.0],[19.80222,41.35009,0.0],[19.80254,41.35012,0.0],[19.80282,41.35021,0.0],[19.8031,41.35031,0.0],[19.80353,41.3504,0.0],[19.80419,41.35053,0.0],[19.80459,41.35059,0.0],[19.80516,41.35054,0.0],[19.80533,41.35059,0.0],[19.80544,41.35069,0.0],[19.80563,41.35087,0.0],[19.80574,41.35103,0.0],[19.806,41.35111,0.0],[19.80691,41.35117,0.0],[19.80725,41.3512,0.0],[19.80781,41.35121,0.0],[19.80829,41.35127,0.0],[19.80914,41.35152,0.0],[19.80957,41.3517,0.0],[19.80986,41.35189,0.0],[19.8101,41.35201,0.0],[19.81039,41.35209,0.0],[19.81073,41.35215,0.0],[19.81101,41.35214,0.0],[19.81108,41.35121,0.0],[19.81108,41.35118,0.0],[19.81158,41.35081,0.0],[19.81174,41.35072,0.0],[19.81185,41.35064,0.0],[19.81192,41.35056,0.0],[19.81195,41.35049,0.0],[19.81194,41.35032,0.0],[19.81193,41.35022,0.0],[19.81187,41.34993,0.0],[19.8117,41.34953,0.0],[19.81219,41.34886,0.0],[19.81262,41.34839,0.0],[19.81292,41.34796,0.0],[19.81325,41.34788,0.0],[19.81359,41.3475,0.0],[19.81424,41.3463,0.0],[19.81467,41.34536,0.0],[19.81499,41.34479,0.0],[19.81521,41.34441,0.0],[19.81574,41.34341,0.0],[19.81624,41.34246,0.0],[19.81628,41.34239,0.0],[19.81677,41.34157,0.0],[19.8172,41.34097,0.0],[19.81763,41.34041,0.0],[19.81808,41.33982,0.0],[19.81854,41.33915,0.0],[19.81878,41.33885,0.0],[19.81885,41.33856,0.0],[19.81906,41.33822,0.0],[19.81943,41.33781,0.0],[19.81991,41.33722,0.0],[19.82011,41.33706,0.0],[19.82034,41.33675,0.0],[19.82082,41.33607,0.0],[19.82156,41.33504,0.0],[19.82249,41.33375,0.0],[19.82284,41.33328,0.0],[19.8229,41.33317,0.0],[19.82263,41.33275,0.0],[19.82215,41.33209,0.0],[19.82172,41.33161,0.0],[19.8212,41.33113,0.0],[19.82075,41.33078,0.0],[19.82064,41.33068,0.0],[19.82051,41.33057,0.0],[19.81992,41.33007,0.0],[19.81945,41.32966,0.0],[19.81921,41.32951,0.0],[19.81884,41.32929,0.0],[19.81863,41.32921,0.0],[19.81824,41.32906,0.0],[19.81774,41.32888,0.0],[19.8168,41.32875,0.0],[19.81607,41.32898,0.0],[19.81558,41.32916,0.0],[19.81523,41.32927,0.0],[19.8148,41.32965,0.0],[19.81426,41.33007,0.0],[19.81347,41.33063,0.0],[19.8127,41.33106,0.0],[19.81158,41.33167,0.0],[19.81069,41.33214,0.0],[19.80999,41.33252,0.0],[19.80955,41.33267,0.0],[19.80831,41.33305,0.0],[19.80697,41.33345,0.0],[19.80671,41.33354,0.0],[19.80648,41.33368,0.0],[19.80625,41.33397,0.0],[19.80614,41.33417,0.0],[19.80607,41.33427,0.0],[19.80593,41.33446,0.0],[19.80566,41.33487,0.0],[19.80549,41.33516,0.0],[19.80533,41.33543,0.0],[19.80518,41.33568,0.0],[19.80502,41.33597,0.0],[19.80492,41.33612,0.0],[19.80481,41.33629,0.0],[19.80476,41.33636,0.0],[19.80468,41.33647,0.0],[19.80459,41.33661,0.0],[19.80448,41.33677,0.0],[19.8043,41.33704,0.0],[19.80387,41.33764,0.0],[19.80247,41.33978,0.0],[19.8016,41.34111,0.0],[19.80106,41.34196,0.0],[19.80067,41.34251,0.0],[19.80066,41.34278,0.0],[19.80048,41.34278,0.0],[19.80044,41.34304,0.0],[19.80038,41.34365,0.0],[19.8004,41.34382,0.0],[19.8005,41.34391,0.0],[19.80053,41.34403,0.0],[19.80046,41.34406,0.0],[19.80045,41.3441,0.0],[19.80047,41.34426,0.0],[19.80044,41.34465,0.0],[19.80038,41.34481,0.0],[19.80029,41.34502,0.0],[19.80027,41.34515,0.0],[19.80022,41.34539,0.0],[19.80016,41.3456,0.0],[19.80016,41.3457,0.0],[19.80011,41.34588,0.0],[19.80003,41.34609,0.0],[19.79996,41.34617,0.0],[19.79988,41.34637,0.0],[19.79964,41.34658,0.0],[19.79948,41.34667,0.0],[19.79934,41.34718,0.0],[19.79952,41.34725,0.0],[19.79946,41.34751,0.0],[19.79938,41.34773,0.0],[19.79923,41.34837,0.0],[19.79909,41.34905,0.0]]]]}},{"type":"Feature","properties":{"uesi_id":"ALB_R1250106","nbhd_code":"ALB_R1250106_11","nbhd_name":"Nj\u00ebsia Bashkiake Nr. 11"},"geometry":{"type":"MultiPolygon","coordinates":[[[[19.77792,41.36243,0.0],[19.77825,41.36247,0.0],[19.77856,41.3625,0.0],[19.77892,41.36253,0.0],[19.77967,41.36262,0.0],[19.78001,41.36264,0.0],[19.78023,41.36271,0.0],[19.78026,41.36238,0.0],[19.78022,41.36199,0.0],[19.78022,41.36176,0.0],[19.7803,41.36147,0.0],[19.78053,41.36135,0.0],[19.78059,41.36133,0.0],[19.7806,41.36131,0.0],[19.7807,41.36127,0.0],[19.7808,41.36119,0.0],[19.78079,41.3609,0.0],[19.78077,41.36063,0.0],[19.7807,41.36019,0.0],[19.78119,41.36015,0.0],[19.78113,41.35986,0.0],[19.78111,41.35975,0.0],[19.7811,41.35966,0.0],[19.7811,41.35937,0.0],[19.78104,41.35933,0.0],[19.7809,41.35929,0.0],[19.78082,41.35929,0.0],[19.78068,41.35932,0.0],[19.78046,41.35933,0.0],[19.78023,41.35936,0.0],[19.78027,41.35922,0.0],[19.78005,41.35918,0.0],[19.78017,41.3589,0.0],[19.78023,41.35882,0.0],[19.7803,41.3587,0.0],[19.78037,41.35862,0.0],[19.78039,41.35863,0.0],[19.78056,41.35845,0.0],[19.7805,41.3584,0.0],[19.78047,41.35838,0.0],[19.78058,41.35828,0.0],[19.78065,41.35819,0.0],[19.78075,41.35824,0.0],[19.78093,41.35805,0.0],[19.78011,41.3576,0.0],[19.77998,41.35755,0.0],[19.77938,41.35738,0.0],[19.77896,41.35729,0.0],[19.77853,41.35722,0.0],[19.77842,41.35726,0.0],[19.77835,41.35732,0.0],[19.77825,41.35737,0.0],[19.77819,41.35732,0.0],[19.7777,41.357,0.0],[19.77743,41.35685,0.0],[19.77761,41.35667,0.0],[19.7779,41.35633,0.0],[19.77805,41.35605,0.0],[19.77819,41.35587,0.0],[19.77838,41.3556,0.0],[19.77848,41.35563,0.0],[19.77852,41.35559,0.0],[19.77862,41.35552,0.0],[19.77858,41.35548,0.0],[19.77865,41.35544,0.0],[19.77868,41.35548,0.0],[19.7787,41.35547,0.0],[19.77874,41.35548,0.0],[19.77911,41.35526,0.0],[19.77964,41.35496,0.0],[19.78019,41.35467,0.0],[19.78023,41.35469,0.0],[19.78038,41.3546,0.0],[19.78035,41.35455,0.0],[19.78026,41.35446,0.0],[19.78039,41.3544,0.0],[19.78081,41.35412,0.0],[19.78051,41.35388,0.0],[19.78026,41.35365,0.0],[19.77968,41.35319,0.0],[19.77954,41.35307,0.0],[19.77946,41.35301,0.0],[19.77937,41.35302,0.0],[19.77916,41.35308,0.0],[19.77897,41.35315,0.0],[19.77814,41.35249,0.0],[19.77817,41.35246,0.0],[19.77775,41.35213,0.0],[19.77713,41.35165,0.0],[19.77699,41.35155,0.0],[19.77683,41.35143,0.0],[19.77669,41.35133,0.0],[19.77657,41.35121,0.0],[19.77704,41.35106,0.0],[19.7774,41.35094,0.0],[19.77773,41.35083,0.0],[19.7779,41.35074,0.0],[19.77826,41.35057,0.0],[19.77852,41.35044,0.0],[19.77891,41.35025,0.0],[19.7797,41.35002,0.0],[19.78031,41.34988,0.0],[19.78063,41.34971,0.0],[19.78096,41.34962,0.0],[19.78132,41.34954,0.0],[19.78184,41.34947,0.0],[19.78233,41.34942,0.0],[19.78276,41.34946,0.0],[19.78297,41.34951,0.0],[19.78307,41.34963,0.0],[19.78308,41.34977,0.0],[19.78305,41.34995,0.0],[19.78308,41.35005,0.0],[19.78318,41.35016,0.0],[19.78333,41.35024,0.0],[19.78352,41.35026,0.0],[19.78373,41.35023,0.0],[19.78398,41.35014,0.0],[19.78446,41.34998,0.0],[19.78492,41.34981,0.0],[19.78551,41.34964,0.0],[19.78623,41.34951,0.0],[19.78704,41.34945,0.0],[19.78786,41.34943,0.0],[19.78887,41.34951,0.0],[19.78928,41.34961,0.0],[19.78969,41.34972,0.0],[19.78982,41.34974,0.0],[19.78994,41.34976,0.0],[19.79039,41.34964,0.0],[19.79068,41.34948,0.0],[19.79115,41.34923,0.0],[19.79141,41.34911,0.0],[19.79167,41.349,0.0],[19.79234,41.34874,0.0],[19.79274,41.34859,0.0],[19.79304,41.34853,0.0],[19.79331,41.34858,0.0],[19.79352,41.34867,0.0],[19.79367,41.34871,0.0],[19.79386,41.3487,0.0],[19.79417,41.34846,0.0],[19.79457,41.34825,0.0],[19.79492,41.34806,0.0],[19.79543,41.34792,0.0],[19.79582,41.34794,0.0],[19.7962,41.34801,0.0],[19.79646,41.34805,0.0],[19.79696,41.34823,0.0],[19.7978,41.34844,0.0],[19.79851,41.3487,0.0],[19.79909,41.34905,0.0],[19.79923,41.34837,0.0],[19.79938,41.34773,0.0],[19.79946,41.34751,0.0],[19.79952,41.34725,0.0],[19.79934,41.34718,0.0],[19.79948,41.34667,0.0],[19.79964,41.34658,0.0],[19.79988,41.34637,0.0],[19.79996,41.34617,0.0],[19.80003,41.34609,0.0],[19.80011,41.34588,0.0],[19.80016,41.3457,0.0],[19.80016,41.3456,0.0],[19.80022,41.34539,0.0],[19.80027,41.34515,0.0],[19.80029,41.34502,0.0],[19.80038,41.34481,0.0],[19.80044,41.34465,0.0],[19.80047,41.34426,0.0],[19.80045,41.3441,0.0],[19.80046,41.34406,0.0],[19.80053,41.34403,0.0],[19.8005,41.34391,0.0],[19.8004,41.34382,0.0],[19.80038,41.34365,0.0],[19.80044,41.34304,0.0],[19.80048,41.34278,0.0],[19.80066,41.34278,0.0],[19.80067,41.34251,0.0],[19.80106,41.34196,0.0],[19.8016,41.34111,0.0],[19.80247,41.33978,0.0],[19.80387,41.33764,0.0],[19.8043,41.33704,0.0],[19.80448,41.33677,0.0],[19.80459,41.33661,0.0],[19.80468,41.33647,0.0],[19.80476,41.33636,0.0],[19.80481,41.33629,0.0],[19.80492,41.33612,0.0],[19.80502,41.33597,0.0],[19.80518,41.33568,0.0],[19.80533,41.33543,0.0],[19.80549,41.33516,0.0],[19.80566,41.33487,0.0],[19.80593,41.33446,0.0],[19.80607,41.33427,0.0],[19.80614,41.33417,0.0],[19.80552,41.33383,0.0],[19.80534,41.33365,0.0],[19.80489,41.33288,0.0],[19.80481,41.3329,0.0],[19.80469,41.33295,0.0],[19.8037,41.3333,0.0],[19.80302,41.33352,0.0],[19.80247,41.3337,0.0],[19.80192,41.33388,0.0],[19.8014,41.33407,0.0],[19.80115,41.33415,0.0],[19.80084,41.33425,0.0],[19.80047,41.33438,0.0],[19.79955,41.33472,0.0],[19.79865,41.33505,0.0],[19.79832,41.33516,0.0],[19.79792,41.3353,0.0],[19.7976,41.33542,0.0],[19.79534,41.3362,0.0],[19.79344,41.33685,0.0],[19.79266,41.3371,0.0],[19.7921,41.33727,0.0],[19.79164,41.33741,0.0],[19.79083,41.3377,0.0],[19.78998,41.33802,0.0],[19.78929,41.33827,0.0],[19.78831,41.33861,0.0],[19.78704,41.33905,0.0],[19.78631,41.33932,0.0],[19.78534,41.33966,0.0],[19.7822,41.34081,0.0],[19.77882,41.34196,0.0],[19.77901,41.34227,0.0],[19.77931,41.34279,0.0],[19.77946,41.34303,0.0],[19.7794,41.34308,0.0],[19.77932,41.34315,0.0],[19.77935,41.3432,0.0],[19.77939,41.34327,0.0],[19.77954,41.34356,0.0],[19.7797,41.34385,0.0],[19.77986,41.34413,0.0],[19.78031,41.34488,0.0],[19.78059,41.34535,0.0],[19.78072,41.34558,0.0],[19.78075,41.34564,0.0],[19.78078,41.34569,0.0],[19.78016,41.34592,0.0],[19.77982,41.34606,0.0],[19.77961,41.34615,0.0],[19.77939,41.34625,0.0],[19.77925,41.34631,0.0],[19.77899,41.34643,0.0],[19.77858,41.34662,0.0],[19.77845,41.34668,0.0],[19.778,41.34691,0.0],[19.77785,41.34699,0.0],[19.77758,41.34714,0.0],[19.77729,41.3473,0.0],[19.77681,41.34758,0.0],[19.77631,41.34786,0.0],[19.77617,41.34795,0.0],[19.77569,41.34822,0.0],[19.77543,41.34838,0.0],[19.77409,41.34914,0.0],[19.77247,41.35008,0.0],[19.77215,41.35026,0.0],[19.77184,41.35043,0.0],[19.77134,41.3507,0.0],[19.77132,41.35072,0.0],[19.77103,41.35089,0.0],[19.77066,41.35109,0.0],[19.77036,41.35126,0.0],[19.77005,41.35144,0.0],[19.7696,41.35171,0.0],[19.76889,41.35212,0.0],[19.76835,41.3524,0.0],[19.76828,41.35244,0.0],[19.7682,41.35248,0.0],[19.76778,41.35266,0.0],[19.76735,41.35281,0.0],[19.76715,41.35287,0.0],[19.76698,41.35293,0.0],[19.76678,41.35299,0.0],[19.76629,41.3531,0.0],[19.76589,41.35319,0.0],[19.76559,41.35326,0.0],[19.76303,41.35379,0.0],[19.7618,41.35406,0.0],[19.76054,41.35432,0.0],[19.76011,41.35441,0.0],[19.75977,41.35449,0.0],[19.75895,41.35466,0.0],[19.75845,41.35477,0.0],[19.75819,41.35483,0.0],[19.75835,41.3552,0.0],[19.75847,41.35546,0.0],[19.75853,41.35547,0.0],[19.75867,41.35554,0.0],[19.75882,41.35581,0.0],[19.75894,41.35608,0.0],[19.75898,41.35616,0.0],[19.75905,41.35639,0.0],[19.7591,41.35656,0.0],[19.75939,41.3565,0.0],[19.75959,41.35701,0.0],[19.75977,41.35697,0.0],[19.75995,41.35693,0.0],[19.75996,41.35694,0.0],[19.75998,41.35693,0.0],[19.76,41.35693,0.0],[19.76004,41.35702,0.0],[19.75996,41.35703,0.0],[19.75998,41.35722,0.0],[19.76005,41.35761,0.0],[19.76037,41.35816,0.0],[19.76046,41.35831,0.0],[19.76048,41.3584,0.0],[19.76056,41.35858,0.0],[19.76064,41.35875,0.0],[19.76041,41.35881,0.0],[19.76048,41.35935,0.0],[19.76028,41.35939,0.0],[19.76005,41.35941,0.0],[19.76002,41.35918,0.0],[19.75956,41.35924,0.0],[19.75909,41.35929,0.0],[19.75844,41.35936,0.0],[19.75832,41.35931,0.0],[19.75765,41.35922,0.0],[19.75706,41.35941,0.0],[19.75688,41.35942,0.0],[19.75648,41.35953,0.0],[19.75597,41.35968,0.0],[19.75545,41.35979,0.0],[19.75508,41.35984,0.0],[19.75483,41.35988,0.0],[19.75507,41.36059,0.0],[19.75519,41.36091,0.0],[19.7553,41.36122,0.0],[19.75541,41.36149,0.0],[19.75552,41.36176,0.0],[19.75557,41.36184,0.0],[19.75581,41.36254,0.0],[19.75596,41.36294,0.0],[19.75606,41.3631,0.0],[19.75607,41.36317,0.0],[19.75606,41.3633,0.0],[19.75609,41.36344,0.0],[19.75618,41.36369,0.0],[19.75623,41.36385,0.0],[19.75636,41.36416,0.0],[19.75644,41.36435,0.0],[19.75655,41.36461,0.0],[19.75665,41.36488,0.0],[19.75677,41.36512,0.0],[19.75685,41.3653,0.0],[19.75732,41.36525,0.0],[19.75735,41.36528,0.0],[19.7574,41.36533,0.0],[19.75755,41.36542,0.0],[19.75764,41.36544,0.0],[19.75782,41.36532,0.0],[19.75804,41.36528,0.0],[19.75904,41.36527,0.0],[19.7589,41.36459,0.0],[19.75901,41.36431,0.0],[19.75922,41.36382,0.0],[19.75968,41.36343,0.0],[19.75988,41.36325,0.0],[19.76045,41.36272,0.0],[19.76078,41.36245,0.0],[19.76096,41.36229,0.0],[19.76137,41.36184,0.0],[19.76179,41.36195,0.0],[19.76203,41.36201,0.0],[19.7623,41.36203,0.0],[19.76286,41.36209,0.0],[19.76365,41.36224,0.0],[19.7639,41.36231,0.0],[19.76424,41.36247,0.0],[19.76448,41.36268,0.0],[19.76452,41.36279,0.0],[19.7645,41.36296,0.0],[19.76382,41.36292,0.0],[19.76343,41.36338,0.0],[19.76347,41.36339,0.0],[19.76351,41.36343,0.0],[19.76362,41.36348,0.0],[19.76368,41.36352,0.0],[19.7639,41.36383,0.0],[19.76411,41.36393,0.0],[19.76455,41.36393,0.0],[19.76487,41.36398,0.0],[19.76489,41.36396,0.0],[19.7649,41.36392,0.0],[19.76497,41.36382,0.0],[19.76503,41.36377,0.0],[19.76512,41.36367,0.0],[19.76549,41.36387,0.0],[19.76585,41.36412,0.0],[19.76668,41.36381,0.0],[19.7669,41.36379,0.0],[19.76722,41.36379,0.0],[19.76742,41.36377,0.0],[19.76742,41.36377,0.0],[19.7675,41.36377,0.0],[19.76774,41.36371,0.0],[19.7678,41.36374,0.0],[19.76801,41.36437,0.0],[19.7681,41.36429,0.0],[19.76857,41.36459,0.0],[19.76875,41.36456,0.0],[19.76875,41.36455,0.0],[19.7688,41.36454,0.0],[19.76888,41.36453,0.0],[19.76934,41.3646,0.0],[19.7694,41.36461,0.0],[19.76945,41.3646,0.0],[19.76951,41.36461,0.0],[19.76957,41.36463,0.0],[19.76968,41.36455,0.0],[19.76974,41.36446,0.0],[19.76983,41.3644,0.0],[19.76986,41.36438,0.0],[19.76989,41.36437,0.0],[19.77046,41.36391,0.0],[19.77055,41.3639,0.0],[19.77055,41.36389,0.0],[19.77063,41.36389,0.0],[19.77063,41.36391,0.0],[19.77069,41.36391,0.0],[19.77125,41.36399,0.0],[19.77148,41.36402,0.0],[19.77158,41.36381,0.0],[19.77162,41.36373,0.0],[19.77166,41.36362,0.0],[19.77172,41.36347,0.0],[19.77174,41.36338,0.0],[19.77177,41.3633,0.0],[19.7718,41.36319,0.0],[19.77185,41.36292,0.0],[19.77185,41.3629,0.0],[19.77191,41.36245,0.0],[19.77193,41.36212,0.0],[19.772,41.36153,0.0],[19.77203,41.36123,0.0],[19.77211,41.36126,0.0],[19.7722,41.36129,0.0],[19.77228,41.36131,0.0],[19.77237,41.36132,0.0],[19.77251,41.36133,0.0],[19.77264,41.36133,0.0],[19.77282,41.36132,0.0],[19.77293,41.36131,0.0],[19.77304,41.36133,0.0],[19.77347,41.36142,0.0],[19.77368,41.36146,0.0],[19.77405,41.36154,0.0],[19.77437,41.36161,0.0],[19.77459,41.36166,0.0],[19.77493,41.36176,0.0],[19.77518,41.36184,0.0],[19.77554,41.36194,0.0],[19.77587,41.36202,0.0],[19.77614,41.36207,0.0],[19.77637,41.36211,0.0],[19.77656,41.36214,0.0],[19.777,41.36224,0.0],[19.77722,41.36228,0.0],[19.77769,41.36239,0.0],[19.77792,41.36243,0.0]]]]}}]}