{"type":"FeatureCollection","name":"BEN_R2851879","crs":{"type":"name","properties":{"name":"urn:ogc:def:crs:OGC:1.3:CRS84"}},"features":[{"type":"Feature","properties":{"uesi_id":"BEN_R2851879","nbhd_code":"BEN_R2851879_1","nbhd_name":"9\u00e8me Arrondissement"},"geometry":{"type":"MultiPolygon","coordinates":[[[[2.35888,6.3987,0.0],[2.35896,6.39869,0.0],[2.359,6.39868,0.0],[2.3591,6.39864,0.0],[2.35917,6.3986,0.0],[2.35932,6.39846,0.0],[2.35946,6.39829,0.0],[2.35953,6.39819,0.0],[2.35954,6.39814,0.0],[2.35956,6.39809,0.0],[2.35968,6.39807,0.0],[2.35973,6.39805,0.0],[2.35989,6.39791,0.0],[2.36005,6.3977,0.0],[2.36042,6.39717,0.0],[2.36054,6.39706,0.0],[2.36074,6.39694,0.0],[2.36127,6.39671,0.0],[2.36167,6.39655,0.0],[2.36203,6.39642,0.0],[2.36213,6.39639,0.0],[2.36226,6.39636,0.0],[2.36236,6.39635,0.0],[2.36238,6.39635,0.0],[2.36246,6.39637,0.0],[2.36248,6.39639,0.0],[2.36252,6.3964,0.0],[2.36256,6.3964,0.0],[2.3626,6.39639,0.0],[2.36267,6.39631,0.0],[2.36281,6.39625,0.0],[2.36291,6.39625,0.0],[2.36326,6.39628,0.0],[2.3634,6.39626,0.0],[2.36353,6.39625,0.0],[2.36415,6.39621,0.0],[2.36435,6.39621,0.0],[2.36443,6.39621,0.0],[2.36449,6.39622,0.0],[2.36458,6.39621,0.0],[2.36467,6.39622,0.0],[2.36508,6.39626,0.0],[2.36532,6.39629,0.0],[2.36548,6.39632,0.0],[2.36558,6.39633,0.0],[2.3657,6.39633,0.0],[2.3659,6.39633,0.0],[2.36599,6.39634,0.0],[2.36607,6.39637,0.0],[2.36616,6.39641,0.0],[2.36626,6.39646,0.0],[2.36634,6.39648,0.0],[2.3664,6.39647,0.0],[2.36646,6.39646,0.0],[2.36652,6.39644,0.0],[2.36658,6.39643,0.0],[2.36665,6.39643,0.0],[2.3667,6.39644,0.0],[2.36675,6.39643,0.0],[2.36682,6.39641,0.0],[2.36687,6.39641,0.0],[2.36693,6.39641,0.0],[2.36702,6.39643,0.0],[2.36711,6.39643,0.0],[2.36722,6.39639,0.0],[2.3673,6.39636,0.0],[2.36738,6.39635,0.0],[2.36747,6.39635,0.0],[2.36763,6.39634,0.0],[2.3678,6.3963,0.0],[2.36792,6.39628,0.0],[2.36803,6.39629,0.0],[2.36813,6.39633,0.0],[2.36818,6.39636,0.0],[2.36821,6.3964,0.0],[2.36822,6.3964,0.0],[2.36823,6.39641,0.0],[2.36824,6.39641,0.0],[2.36826,6.39641,0.0],[2.36829,6.3964,0.0],[2.36831,6.39639,0.0],[2.36836,6.39636,0.0],[2.36838,6.39633,0.0],[2.36843,6.39628,0.0],[2.36849,6.39626,0.0],[2.36856,6.39625,0.0],[2.36876,6.39622,0.0],[2.36883,6.39621,0.0],[2.36896,6.39619,0.0],[2.36904,6.39618,0.0],[2.36917,6.39617,0.0],[2.36928,6.39617,0.0],[2.36935,6.39617,0.0],[2.36945,6.39615,0.0],[2.36973,6.39612,0.0],[2.37014,6.39606,0.0],[2.37026,6.39607,0.0],[2.37039,6.39608,0.0],[2.37043,6.39608,0.0],[2.3705,6.39607,0.0],[2.37056,6.39605,0.0],[2.37063,6.39604,0.0],[2.37074,6.39603,0.0],[2.37083,6.39601,0.0],[2.37097,6.39597,0.0],[2.37104,6.39595,0.0],[2.37113,6.39594,0.0],[2.3712,6.39595,0.0],[2.37121,6.39595,0.0],[2.37124,6.39596,0.0],[2.37128,6.39598,0.0],[2.37132,6.396,0.0],[2.37135,6.396,0.0],[2.37138,6.39599,0.0],[2.37147,6.39594,0.0],[2.37155,6.3959,0.0],[2.37165,6.39587,0.0],[2.37175,6.39585,0.0],[2.37182,6.39583,0.0],[2.37194,6.39577,0.0],[2.37205,6.3957,0.0],[2.37211,6.39566,0.0],[2.37216,6.39564,0.0],[2.37223,6.39566,0.0],[2.37228,6.39569,0.0],[2.37231,6.39569,0.0],[2.37235,6.39569,0.0],[2.37237,6.39569,0.0],[2.37239,6.39569,0.0],[2.3724,6.3957,0.0],[2.3724,6.39572,0.0],[2.37241,6.39574,0.0],[2.37243,6.39576,0.0],[2.37246,6.39576,0.0],[2.37251,6.39575,0.0],[2.37254,6.39573,0.0],[2.37258,6.39571,0.0],[2.37261,6.39567,0.0],[2.37264,6.39566,0.0],[2.37268,6.39566,0.0],[2.37272,6.39567,0.0],[2.37278,6.3957,0.0],[2.37281,6.39571,0.0],[2.37287,6.39571,0.0],[2.37296,6.3957,0.0],[2.37305,6.39569,0.0],[2.37315,6.39569,0.0],[2.37337,6.39571,0.0],[2.37357,6.3957,0.0],[2.37371,6.39571,0.0],[2.37384,6.39571,0.0],[2.37394,6.39571,0.0],[2.37405,6.39568,0.0],[2.37432,6.39559,0.0],[2.37439,6.39556,0.0],[2.37446,6.39554,0.0],[2.37452,6.39554,0.0],[2.37457,6.39555,0.0],[2.37461,6.39556,0.0],[2.37465,6.39556,0.0],[2.37469,6.39556,0.0],[2.37483,6.39552,0.0],[2.37495,6.39551,0.0],[2.37512,6.39551,0.0],[2.37539,6.39551,0.0],[2.3756,6.39551,0.0],[2.37576,6.3955,0.0],[2.37588,6.39548,0.0],[2.37594,6.39547,0.0],[2.376,6.39546,0.0],[2.37605,6.39546,0.0],[2.37609,6.39547,0.0],[2.37614,6.3955,0.0],[2.37618,6.39552,0.0],[2.37621,6.39555,0.0],[2.37624,6.3956,0.0],[2.37626,6.39562,0.0],[2.37628,6.39562,0.0],[2.3763,6.39562,0.0],[2.37633,6.39561,0.0],[2.37634,6.3956,0.0],[2.37635,6.39557,0.0],[2.37636,6.39555,0.0],[2.37638,6.39554,0.0],[2.37641,6.39552,0.0],[2.37645,6.39552,0.0],[2.37649,6.39553,0.0],[2.37651,6.39553,0.0],[2.37655,6.39554,0.0],[2.3766,6.39555,0.0],[2.37669,6.39555,0.0],[2.37681,6.39555,0.0],[2.37689,6.39555,0.0],[2.37697,6.39557,0.0],[2.37708,6.3956,0.0],[2.37721,6.39563,0.0],[2.37735,6.39566,0.0],[2.37741,6.39567,0.0],[2.37749,6.39567,0.0],[2.37753,6.39567,0.0],[2.37758,6.39567,0.0],[2.37763,6.39569,0.0],[2.37765,6.3957,0.0],[2.37767,6.39571,0.0],[2.37769,6.39571,0.0],[2.37774,6.39572,0.0],[2.37785,6.39573,0.0],[2.3779,6.39574,0.0],[2.37793,6.39576,0.0],[2.37796,6.39577,0.0],[2.37797,6.39578,0.0],[2.37798,6.39579,0.0],[2.378,6.39579,0.0],[2.37801,6.39579,0.0],[2.37803,6.39578,0.0],[2.37804,6.39578,0.0],[2.37806,6.39577,0.0],[2.37807,6.39576,0.0],[2.37809,6.39576,0.0],[2.3781,6.39575,0.0],[2.37811,6.39574,0.0],[2.37811,6.39573,0.0],[2.37813,6.39571,0.0],[2.37815,6.39569,0.0],[2.37817,6.39569,0.0],[2.37819,6.39569,0.0],[2.37821,6.3957,0.0],[2.37823,6.39572,0.0],[2.37825,6.39573,0.0],[2.37826,6.39573,0.0],[2.37828,6.39574,0.0],[2.37834,6.39574,0.0],[2.37848,6.39572,0.0],[2.37863,6.39569,0.0],[2.37877,6.39566,0.0],[2.37888,6.39564,0.0],[2.37897,6.39565,0.0],[2.37908,6.39568,0.0],[2.37919,6.3957,0.0],[2.37927,6.3957,0.0],[2.37936,6.39569,0.0],[2.37947,6.39568,0.0],[2.37958,6.39566,0.0],[2.37972,6.39564,0.0],[2.37987,6.39563,0.0],[2.37997,6.39563,0.0],[2.38008,6.39562,0.0],[2.38016,6.39561,0.0],[2.38021,6.39558,0.0],[2.38025,6.39554,0.0],[2.38031,6.39552,0.0],[2.38037,6.39551,0.0],[2.38044,6.39552,0.0],[2.38052,6.39554,0.0],[2.38062,6.39559,0.0],[2.38068,6.39561,0.0],[2.38078,6.39562,0.0],[2.3809,6.39563,0.0],[2.38098,6.39562,0.0],[2.3811,6.3956,0.0],[2.38122,6.39557,0.0],[2.38136,6.39553,0.0],[2.38142,6.39551,0.0],[2.38149,6.39548,0.0],[2.38154,6.39542,0.0],[2.38157,6.39538,0.0],[2.38161,6.39536,0.0],[2.38165,6.39536,0.0],[2.38169,6.39537,0.0],[2.38175,6.3954,0.0],[2.38179,6.39543,0.0],[2.38183,6.39549,0.0],[2.38186,6.39555,0.0],[2.3819,6.39559,0.0],[2.38194,6.39561,0.0],[2.38202,6.39562,0.0],[2.38213,6.39561,0.0],[2.38223,6.3956,0.0],[2.38229,6.39556,0.0],[2.38233,6.39551,0.0],[2.38241,6.39537,0.0],[2.38245,6.39533,0.0],[2.38251,6.39531,0.0],[2.38261,6.39528,0.0],[2.38272,6.39526,0.0],[2.38276,6.39526,0.0],[2.38281,6.39527,0.0],[2.38284,6.39531,0.0],[2.38285,6.39537,0.0],[2.38285,6.39543,0.0],[2.38284,6.39547,0.0],[2.38282,6.39549,0.0],[2.38278,6.39551,0.0],[2.38277,6.39552,0.0],[2.38277,6.39554,0.0],[2.38278,6.39556,0.0],[2.38279,6.39557,0.0],[2.3828,6.39557,0.0],[2.38283,6.39557,0.0],[2.38285,6.39556,0.0],[2.3829,6.39553,0.0],[2.38293,6.39552,0.0],[2.38297,6.39552,0.0],[2.383,6.39553,0.0],[2.38305,6.39555,0.0],[2.3831,6.39555,0.0],[2.38315,6.39554,0.0],[2.38318,6.39553,0.0],[2.38321,6.3955,0.0],[2.38322,6.39545,0.0],[2.38322,6.39536,0.0],[2.38323,6.39534,0.0],[2.38324,6.39531,0.0],[2.38327,6.39528,0.0],[2.38332,6.39525,0.0],[2.38334,6.39524,0.0],[2.3834,6.39521,0.0],[2.38347,6.39517,0.0],[2.38359,6.3951,0.0],[2.38365,6.39507,0.0],[2.38373,6.39502,0.0],[2.38377,6.39499,0.0],[2.38379,6.39497,0.0],[2.38381,6.39496,0.0],[2.38386,6.39496,0.0],[2.38389,6.39498,0.0],[2.38392,6.39505,0.0],[2.38394,6.39511,0.0],[2.38397,6.39514,0.0],[2.38401,6.39515,0.0],[2.38406,6.39516,0.0],[2.38409,6.39517,0.0],[2.38412,6.39516,0.0],[2.38415,6.39513,0.0],[2.38417,6.39505,0.0],[2.3842,6.39496,0.0],[2.38421,6.39491,0.0],[2.38424,6.39489,0.0],[2.38429,6.39487,0.0],[2.38435,6.39487,0.0],[2.3844,6.3949,0.0],[2.38443,6.39494,0.0],[2.38445,6.39498,0.0],[2.38447,6.39501,0.0],[2.38449,6.39509,0.0],[2.38448,6.39515,0.0],[2.38446,6.39522,0.0],[2.38441,6.39533,0.0],[2.38433,6.39546,0.0],[2.38432,6.39555,0.0],[2.38435,6.3956,0.0],[2.3844,6.39562,0.0],[2.38453,6.39567,0.0],[2.38465,6.3957,0.0],[2.38475,6.39571,0.0],[2.38485,6.39573,0.0],[2.38491,6.39575,0.0],[2.38497,6.39579,0.0],[2.38505,6.3959,0.0],[2.38512,6.39595,0.0],[2.38518,6.39597,0.0],[2.38524,6.39596,0.0],[2.38532,6.39593,0.0],[2.38538,6.39592,0.0],[2.38543,6.39592,0.0],[2.38549,6.39592,0.0],[2.38572,6.39593,0.0],[2.38577,6.39592,0.0],[2.38585,6.39584,0.0],[2.3859,6.39582,0.0],[2.38595,6.39581,0.0],[2.38611,6.39583,0.0],[2.38624,6.39586,0.0],[2.38638,6.39588,0.0],[2.38646,6.39589,0.0],[2.38669,6.3959,0.0],[2.38682,6.3959,0.0],[2.38696,6.39588,0.0],[2.38723,6.39587,0.0],[2.38734,6.39586,0.0],[2.38782,6.39583,0.0],[2.3879,6.39581,0.0],[2.38809,6.39575,0.0],[2.38826,6.39571,0.0],[2.38833,6.3957,0.0],[2.38844,6.3957,0.0],[2.38854,6.39569,0.0],[2.38862,6.39566,0.0],[2.38866,6.39565,0.0],[2.38871,6.39561,0.0],[2.38875,6.39554,0.0],[2.38877,6.39546,0.0],[2.38879,6.39544,0.0],[2.38888,6.3954,0.0],[2.389,6.39537,0.0],[2.38907,6.39534,0.0],[2.3891,6.39534,0.0],[2.3893,6.39529,0.0],[2.3894,6.39527,0.0],[2.38948,6.39526,0.0],[2.38954,6.39527,0.0],[2.38985,6.39527,0.0],[2.39009,6.39528,0.0],[2.3902,6.39529,0.0],[2.39034,6.39532,0.0],[2.39042,6.39534,0.0],[2.39048,6.39534,0.0],[2.39058,6.39531,0.0],[2.39064,6.39528,0.0],[2.39078,6.39527,0.0],[2.39095,6.39527,0.0],[2.39114,6.39531,0.0],[2.39132,6.39536,0.0],[2.39146,6.39539,0.0],[2.39165,6.3954,0.0],[2.39181,6.3954,0.0],[2.39195,6.39537,0.0],[2.39221,6.39528,0.0],[2.39243,6.39514,0.0],[2.39249,6.39512,0.0],[2.39258,6.39511,0.0],[2.39266,6.39511,0.0],[2.39277,6.39515,0.0],[2.39305,6.39525,0.0],[2.39321,6.3953,0.0],[2.3934,6.39539,0.0],[2.39354,6.39544,0.0],[2.39363,6.39545,0.0],[2.39371,6.39544,0.0],[2.39376,6.3954,0.0],[2.39384,6.39529,0.0],[2.39387,6.39524,0.0],[2.39397,6.39518,0.0],[2.39408,6.39515,0.0],[2.39413,6.39513,0.0],[2.39419,6.39509,0.0],[2.39425,6.39503,0.0],[2.39428,6.39501,0.0],[2.39434,6.39501,0.0],[2.3944,6.39503,0.0],[2.39451,6.39508,0.0],[2.39462,6.39511,0.0],[2.39479,6.3952,0.0],[2.39484,6.39522,0.0],[2.39487,6.39522,0.0],[2.39489,6.39521,0.0],[2.39491,6.39518,0.0],[2.39492,6.39515,0.0],[2.39491,6.39512,0.0],[2.39491,6.39509,0.0],[2.39491,6.39506,0.0],[2.39492,6.39504,0.0],[2.39493,6.39503,0.0],[2.39497,6.39502,0.0],[2.39501,6.39504,0.0],[2.39505,6.39508,0.0],[2.39508,6.39513,0.0],[2.3951,6.39522,0.0],[2.39511,6.39527,0.0],[2.39512,6.39532,0.0],[2.39514,6.39535,0.0],[2.39521,6.39538,0.0],[2.39525,6.39543,0.0],[2.39528,6.3955,0.0],[2.39532,6.39556,0.0],[2.39539,6.39559,0.0],[2.39547,6.3956,0.0],[2.39558,6.3956,0.0],[2.39582,6.39558,0.0],[2.39599,6.39555,0.0],[2.39612,6.39552,0.0],[2.39629,6.39547,0.0],[2.39638,6.39545,0.0],[2.39643,6.39544,0.0],[2.3965,6.39546,0.0],[2.39659,6.3955,0.0],[2.39665,6.39552,0.0],[2.3967,6.39551,0.0],[2.39675,6.39547,0.0],[2.39683,6.39538,0.0],[2.39693,6.3953,0.0],[2.39702,6.39526,0.0],[2.39712,6.39526,0.0],[2.39719,6.39528,0.0],[2.39728,6.39532,0.0],[2.39738,6.39538,0.0],[2.39748,6.39546,0.0],[2.39755,6.39555,0.0],[2.39762,6.39567,0.0],[2.39767,6.39576,0.0],[2.39771,6.39584,0.0],[2.39777,6.39593,0.0],[2.39777,6.39597,0.0],[2.39775,6.396,0.0],[2.39773,6.39602,0.0],[2.3977,6.39602,0.0],[2.39762,6.39601,0.0],[2.39759,6.39602,0.0],[2.39758,6.39603,0.0],[2.39756,6.39605,0.0],[2.39755,6.39611,0.0],[2.39757,6.39614,0.0],[2.39764,6.39617,0.0],[2.39771,6.3962,0.0],[2.39781,6.39622,0.0],[2.39788,6.39626,0.0],[2.39797,6.39632,0.0],[2.39825,6.39653,0.0],[2.39833,6.39661,0.0],[2.39838,6.39664,0.0],[2.39844,6.39665,0.0],[2.39849,6.39664,0.0],[2.39862,6.39664,0.0],[2.39876,6.39666,0.0],[2.39894,6.39674,0.0],[2.39908,6.3968,0.0],[2.39919,6.39687,0.0],[2.39922,6.39695,0.0],[2.39922,6.39706,0.0],[2.39922,6.39718,0.0],[2.39922,6.39729,0.0],[2.39925,6.3974,0.0],[2.39936,6.39761,0.0],[2.3994,6.39768,0.0],[2.39949,6.39776,0.0],[2.39955,6.39784,0.0],[2.39963,6.39793,0.0],[2.39975,6.39815,0.0],[2.39977,6.39848,0.0],[2.39984,6.39862,0.0],[2.39991,6.39868,0.0],[2.40013,6.3988,0.0],[2.40028,6.39886,0.0],[2.4005,6.39888,0.0],[2.4008,6.3989,0.0],[2.40089,6.3989,0.0],[2.40102,6.39885,0.0],[2.40118,6.39882,0.0],[2.40125,6.39881,0.0],[2.40189,6.39887,0.0],[2.40229,6.39895,0.0],[2.40258,6.39899,0.0],[2.40282,6.399,0.0],[2.40318,6.39902,0.0],[2.40322,6.39902,0.0],[2.40339,6.39916,0.0],[2.40347,6.39922,0.0],[2.40354,6.39924,0.0],[2.40364,6.39924,0.0],[2.40378,6.39921,0.0],[2.4039,6.39917,0.0],[2.40406,6.39911,0.0],[2.40426,6.39901,0.0],[2.40451,6.39887,0.0],[2.40467,6.39872,0.0],[2.40485,6.39854,0.0],[2.40494,6.39841,0.0],[2.40499,6.39832,0.0],[2.40502,6.39828,0.0],[2.40505,6.39828,0.0],[2.4051,6.3983,0.0],[2.40512,6.39834,0.0],[2.40516,6.39841,0.0],[2.40519,6.39845,0.0],[2.40526,6.39847,0.0],[2.40529,6.39847,0.0],[2.40542,6.39844,0.0],[2.4055,6.39842,0.0],[2.40563,6.39834,0.0],[2.40577,6.39827,0.0],[2.4059,6.39822,0.0],[2.40605,6.39815,0.0],[2.40616,6.39811,0.0],[2.40632,6.39805,0.0],[2.40645,6.39798,0.0],[2.40654,6.3979,0.0],[2.4066,6.3978,0.0],[2.40662,6.39759,0.0],[2.40666,6.3975,0.0],[2.40672,6.39745,0.0],[2.40679,6.39743,0.0],[2.40684,6.39741,0.0],[2.40688,6.39737,0.0],[2.40694,6.39727,0.0],[2.40705,6.39719,0.0],[2.40715,6.39711,0.0],[2.4072,6.39704,0.0],[2.40725,6.39694,0.0],[2.4073,6.39689,0.0],[2.40739,6.39686,0.0],[2.40753,6.39685,0.0],[2.40765,6.39684,0.0],[2.40768,6.39682,0.0],[2.40775,6.39677,0.0],[2.40781,6.39669,0.0],[2.40784,6.39665,0.0],[2.40795,6.3966,0.0],[2.40816,6.39651,0.0],[2.40823,6.39647,0.0],[2.4083,6.39642,0.0],[2.40831,6.39636,0.0],[2.40831,6.39631,0.0],[2.40828,6.39623,0.0],[2.40825,6.39612,0.0],[2.40825,6.39608,0.0],[2.40828,6.39604,0.0],[2.40832,6.39604,0.0],[2.40841,6.39606,0.0],[2.40845,6.3961,0.0],[2.40848,6.39612,0.0],[2.40853,6.39614,0.0],[2.40857,6.39614,0.0],[2.40862,6.39611,0.0],[2.40866,6.39607,0.0],[2.40878,6.39591,0.0],[2.40885,6.39585,0.0],[2.40892,6.39581,0.0],[2.40897,6.39581,0.0],[2.40899,6.39584,0.0],[2.40901,6.39584,0.0],[2.40904,6.39584,0.0],[2.40906,6.39582,0.0],[2.40905,6.39578,0.0],[2.40905,6.39576,0.0],[2.40905,6.39573,0.0],[2.40909,6.39566,0.0],[2.40915,6.39559,0.0],[2.4092,6.39554,0.0],[2.40938,6.39538,0.0],[2.40944,6.39532,0.0],[2.40948,6.39529,0.0],[2.4095,6.39524,0.0],[2.4095,6.39522,0.0],[2.40946,6.39513,0.0],[2.40945,6.39507,0.0],[2.40947,6.39501,0.0],[2.40952,6.39498,0.0],[2.40957,6.39495,0.0],[2.40965,6.39493,0.0],[2.40971,6.3949,0.0],[2.40979,6.39483,0.0],[2.41,6.39462,0.0],[2.41006,6.39454,0.0],[2.41011,6.39447,0.0],[2.41022,6.39437,0.0],[2.4103,6.39431,0.0],[2.41035,6.39427,0.0],[2.41042,6.39425,0.0],[2.41047,6.39424,0.0],[2.41052,6.39426,0.0],[2.41055,6.39429,0.0],[2.4106,6.39431,0.0],[2.41068,6.39431,0.0],[2.41074,6.39431,0.0],[2.4108,6.39431,0.0],[2.41085,6.3943,0.0],[2.41087,6.39427,0.0],[2.41088,6.39425,0.0],[2.41089,6.39419,0.0],[2.41086,6.39409,0.0],[2.41082,6.39397,0.0],[2.41079,6.39393,0.0],[2.41079,6.39388,0.0],[2.41081,6.39384,0.0],[2.41089,6.39374,0.0],[2.41095,6.39365,0.0],[2.41107,6.39353,0.0],[2.41116,6.39348,0.0],[2.41123,6.39344,0.0],[2.41129,6.39342,0.0],[2.41133,6.39343,0.0],[2.41136,6.39345,0.0],[2.41141,6.39355,0.0],[2.41142,6.39358,0.0],[2.41144,6.39359,0.0],[2.41146,6.39358,0.0],[2.41148,6.39356,0.0],[2.41147,6.39351,0.0],[2.41147,6.39348,0.0],[2.4115,6.39342,0.0],[2.41156,6.39336,0.0],[2.41162,6.39327,0.0],[2.41163,6.39325,0.0],[2.41167,6.39323,0.0],[2.41172,6.39322,0.0],[2.41176,6.39321,0.0],[2.41181,6.39324,0.0],[2.41186,6.39329,0.0],[2.4119,6.39332,0.0],[2.41192,6.39331,0.0],[2.41194,6.3933,0.0],[2.41195,6.39328,0.0],[2.41195,6.39325,0.0],[2.41195,6.39324,0.0],[2.41193,6.39316,0.0],[2.41192,6.39314,0.0],[2.41196,6.39309,0.0],[2.412,6.39309,0.0],[2.41204,6.3931,0.0],[2.41209,6.3931,0.0],[2.41212,6.3931,0.0],[2.41215,6.39308,0.0],[2.41215,6.39304,0.0],[2.41214,6.39299,0.0],[2.41213,6.39291,0.0],[2.41212,6.39282,0.0],[2.41214,6.39274,0.0],[2.41217,6.39268,0.0],[2.41223,6.39263,0.0],[2.41232,6.39261,0.0],[2.41236,6.39259,0.0],[2.41245,6.39252,0.0],[2.41265,6.39239,0.0],[2.41304,6.39206,0.0],[2.4133,6.39189,0.0],[2.41352,6.3918,0.0],[2.41372,6.39171,0.0],[2.41392,6.39161,0.0],[2.41407,6.39154,0.0],[2.41429,6.39145,0.0],[2.41452,6.3914,0.0],[2.41477,6.39133,0.0],[2.41503,6.39129,0.0],[2.41519,6.39126,0.0],[2.41536,6.39123,0.0],[2.41554,6.39119,0.0],[2.41599,6.39108,0.0],[2.41642,6.39098,0.0],[2.4166,6.39097,0.0],[2.41676,6.39098,0.0],[2.41701,6.391,0.0],[2.41717,6.391,0.0],[2.4173,6.391,0.0],[2.41743,6.39099,0.0],[2.41751,6.39089,0.0],[2.41759,6.39089,0.0],[2.41764,6.39089,0.0],[2.41786,6.39089,0.0],[2.41794,6.39086,0.0],[2.41816,6.3908,0.0],[2.41829,6.39075,0.0],[2.41839,6.39065,0.0],[2.41758,6.38997,0.0],[2.41597,6.38897,0.0],[2.41381,6.38744,0.0],[2.40592,6.3847,0.0],[2.40238,6.38886,0.0],[2.40157,6.38985,0.0],[2.40069,6.39034,0.0],[2.39986,6.39064,0.0],[2.39541,6.39082,0.0],[2.39235,6.3909,0.0],[2.38966,6.39093,0.0],[2.38924,6.39082,0.0],[2.38794,6.3902,0.0],[2.38751,6.38989,0.0],[2.38686,6.38923,0.0],[2.38422,6.38628,0.0],[2.38377,6.38585,0.0],[2.3831,6.38539,0.0],[2.37837,6.38332,0.0],[2.37778,6.38382,0.0],[2.37705,6.38417,0.0],[2.37499,6.38473,0.0],[2.37385,6.38535,0.0],[2.37191,6.38638,0.0],[2.36516,6.38807,0.0],[2.36301,6.38856,0.0],[2.35679,6.38919,0.0],[2.35645,6.38918,0.0],[2.35643,6.38991,0.0],[2.35675,6.38994,0.0],[2.35686,6.39299,0.0],[2.35693,6.39462,0.0],[2.35888,6.3987,0.0]]]]}},{"type":"Feature","properties":{"uesi_id":"BEN_R2851879","nbhd_code":"BEN_R2851879_2","nbhd_name":"13\u1d49 Arrondissement"},"geometry":{"type":"MultiPolygon","coordinates":[[[[2.39426,6.36828,0.0],[2.39286,6.36773,0.0],[2.39144,6.36697,0.0],[2.39077,6.36647,0.0],[2.39026,6.36619,0.0],[2.38957,6.36618,0.0],[2.38889,6.36619,0.0],[2.38799,6.36611,0.0],[2.38598,6.36586,0.0],[2.38521,6.36565,0.0],[2.38375,6.36588,0.0],[2.37998,6.36645,0.0],[2.37494,6.36722,0.0],[2.37265,6.36756,0.0],[2.36631,6.36854,0.0],[2.35775,6.3719,0.0],[2.35689,6.37225,0.0],[2.35557,6.37278,0.0],[2.3559,6.37355,0.0],[2.3557,6.37421,0.0],[2.35638,6.37569,0.0],[2.35568,6.37585,0.0],[2.35541,6.37598,0.0],[2.35562,6.37638,0.0],[2.35598,6.3775,0.0],[2.35578,6.37751,0.0],[2.35566,6.37751,0.0],[2.35584,6.37794,0.0],[2.35583,6.37818,0.0],[2.35595,6.37821,0.0],[2.35596,6.37826,0.0],[2.35599,6.37827,0.0],[2.356,6.3784,0.0],[2.35609,6.37841,0.0],[2.3561,6.37867,0.0],[2.35602,6.37868,0.0],[2.35602,6.37883,0.0],[2.3558,6.37883,0.0],[2.3558,6.37887,0.0],[2.35574,6.37887,0.0],[2.35574,6.37894,0.0],[2.35589,6.37896,0.0],[2.35589,6.37921,0.0],[2.35571,6.37925,0.0],[2.3557,6.3793,0.0],[2.35558,6.37931,0.0],[2.35558,6.37945,0.0],[2.35655,6.37948,0.0],[2.35655,6.37974,0.0],[2.35666,6.37974,0.0],[2.35666,6.37997,0.0],[2.3567,6.37996,0.0],[2.35671,6.38012,0.0],[2.35677,6.38013,0.0],[2.35675,6.38023,0.0],[2.3565,6.38038,0.0],[2.35643,6.38039,0.0],[2.35643,6.38056,0.0],[2.35637,6.38066,0.0],[2.35624,6.38073,0.0],[2.35623,6.38088,0.0],[2.35618,6.38095,0.0],[2.35623,6.38107,0.0],[2.35677,6.38088,0.0],[2.35686,6.38113,0.0],[2.35712,6.38119,0.0],[2.35713,6.38114,0.0],[2.35721,6.38111,0.0],[2.35744,6.38116,0.0],[2.35754,6.38118,0.0],[2.35755,6.38132,0.0],[2.35744,6.38138,0.0],[2.35743,6.38154,0.0],[2.35764,6.38145,0.0],[2.35767,6.38165,0.0],[2.35779,6.38205,0.0],[2.35763,6.38211,0.0],[2.35799,6.3826,0.0],[2.35811,6.38258,0.0],[2.35816,6.38263,0.0],[2.3582,6.38262,0.0],[2.35828,6.38277,0.0],[2.35821,6.38283,0.0],[2.35854,6.3831,0.0],[2.35867,6.3832,0.0],[2.35871,6.38326,0.0],[2.35885,6.38344,0.0],[2.35896,6.38341,0.0],[2.35903,6.38388,0.0],[2.35895,6.38392,0.0],[2.35902,6.38424,0.0],[2.35889,6.38433,0.0],[2.35886,6.38428,0.0],[2.35879,6.38429,0.0],[2.35874,6.38422,0.0],[2.35865,6.38425,0.0],[2.3586,6.38421,0.0],[2.35846,6.3842,0.0],[2.35846,6.3841,0.0],[2.35835,6.38413,0.0],[2.35835,6.38419,0.0],[2.35807,6.38429,0.0],[2.35797,6.38404,0.0],[2.35783,6.3841,0.0],[2.35753,6.38424,0.0],[2.35764,6.38444,0.0],[2.35776,6.38471,0.0],[2.35803,6.3846,0.0],[2.35812,6.38482,0.0],[2.35812,6.38502,0.0],[2.35802,6.38507,0.0],[2.35801,6.38528,0.0],[2.358,6.38575,0.0],[2.35825,6.38576,0.0],[2.35826,6.38591,0.0],[2.35831,6.38593,0.0],[2.3583,6.3861,0.0],[2.35816,6.38613,0.0],[2.35817,6.38625,0.0],[2.35804,6.38626,0.0],[2.35807,6.38635,0.0],[2.35805,6.3865,0.0],[2.35744,6.38671,0.0],[2.3568,6.38674,0.0],[2.35683,6.3877,0.0],[2.35672,6.38834,0.0],[2.35679,6.38919,0.0],[2.36301,6.38856,0.0],[2.36516,6.38807,0.0],[2.37191,6.38638,0.0],[2.37385,6.38535,0.0],[2.37499,6.38473,0.0],[2.37705,6.38417,0.0],[2.37778,6.38382,0.0],[2.37837,6.38332,0.0],[2.37859,6.38301,0.0],[2.37901,6.38225,0.0],[2.37915,6.38185,0.0],[2.37926,6.38149,0.0],[2.37949,6.37987,0.0],[2.37956,6.3796,0.0],[2.37984,6.37916,0.0],[2.38029,6.37853,0.0],[2.38142,6.37767,0.0],[2.38262,6.37752,0.0],[2.38933,6.37715,0.0],[2.38974,6.37711,0.0],[2.38978,6.3767,0.0],[2.38993,6.37654,0.0],[2.39037,6.37614,0.0],[2.39047,6.37603,0.0],[2.39092,6.37524,0.0],[2.39209,6.37254,0.0],[2.39284,6.37207,0.0],[2.39323,6.37169,0.0],[2.39341,6.37142,0.0],[2.39356,6.37092,0.0],[2.39426,6.36828,0.0]]]]}},{"type":"Feature","properties":{"uesi_id":"BEN_R2851879","nbhd_code":"BEN_R2851879_3","nbhd_name":"10\u00e8me Arrondissement"},"geometry":{"type":"MultiPolygon","coordinates":[[[[2.39588,6.37676,0.0],[2.38986,6.37711,0.0],[2.38974,6.37711,0.0],[2.38933,6.37715,0.0],[2.38262,6.37752,0.0],[2.38142,6.37767,0.0],[2.38029,6.37853,0.0],[2.37984,6.37916,0.0],[2.37956,6.3796,0.0],[2.37949,6.37987,0.0],[2.37926,6.38149,0.0],[2.37915,6.38185,0.0],[2.37901,6.38225,0.0],[2.37859,6.38301,0.0],[2.37837,6.38332,0.0],[2.3831,6.38539,0.0],[2.38377,6.38585,0.0],[2.38422,6.38628,0.0],[2.38686,6.38923,0.0],[2.38751,6.38989,0.0],[2.38794,6.3902,0.0],[2.38924,6.39082,0.0],[2.38966,6.39093,0.0],[2.39235,6.3909,0.0],[2.39541,6.39082,0.0],[2.39986,6.39064,0.0],[2.40069,6.39034,0.0],[2.40157,6.38985,0.0],[2.40238,6.38886,0.0],[2.40592,6.3847,0.0],[2.39977,6.37983,0.0],[2.39588,6.37676,0.0]]]]}},{"type":"Feature","properties":{"uesi_id":"BEN_R2851879","nbhd_code":"BEN_R2851879_4","nbhd_name":"8\u00e8me Arrondissement"},"geometry":{"type":"MultiPolygon","coordinates":[[[[2.39588,6.37676,0.0],[2.39977,6.37983,0.0],[2.40592,6.3847,0.0],[2.41381,6.38744,0.0],[2.42005,6.37956,0.0],[2.41137,6.3727,0.0],[2.4098,6.37147,0.0],[2.409,6.37214,0.0],[2.40699,6.37385,0.0],[2.40623,6.3745,0.0],[2.40578,6.37483,0.0],[2.40527,6.37516,0.0],[2.4049,6.37538,0.0],[2.40456,6.37556,0.0],[2.40415,6.37575,0.0],[2.40371,6.37593,0.0],[2.40275,6.37622,0.0],[2.40184,6.37639,0.0],[2.40072,6.37651,0.0],[2.39588,6.37676,0.0]]]]}},{"type":"Feature","properties":{"uesi_id":"BEN_R2851879","nbhd_code":"BEN_R2851879_5","nbhd_name":"7\u00e8me Arrondissement"},"geometry":{"type":"MultiPolygon","coordinates":[[[[2.4098,6.37147,0.0],[2.41137,6.3727,0.0],[2.42005,6.37956,0.0],[2.42764,6.36994,0.0],[2.42987,6.36715,0.0],[2.42211,6.36098,0.0],[2.41566,6.36646,0.0],[2.41396,6.36789,0.0],[2.41104,6.37038,0.0],[2.4098,6.37147,0.0]]]]}},{"type":"Feature","properties":{"uesi_id":"BEN_R2851879","nbhd_code":"BEN_R2851879_6","nbhd_name":"6\u00e8me Arrondissement"},"geometry":{"type":"MultiPolygon","coordinates":[[[[2.41381,6.38744,0.0],[2.41597,6.38897,0.0],[2.41758,6.38997,0.0],[2.41839,6.39065,0.0],[2.41845,6.3905,0.0],[2.41848,6.39031,0.0],[2.4185,6.39019,0.0],[2.41851,6.38999,0.0],[2.4185,6.38988,0.0],[2.41842,6.38963,0.0],[2.41845,6.38947,0.0],[2.41855,6.38936,0.0],[2.41873,6.38932,0.0],[2.4189,6.38927,0.0],[2.41904,6.38926,0.0],[2.41919,6.38927,0.0],[2.41929,6.38932,0.0],[2.41937,6.38936,0.0],[2.41942,6.38943,0.0],[2.41947,6.38954,0.0],[2.41953,6.38962,0.0],[2.41961,6.38971,0.0],[2.4197,6.38978,0.0],[2.41984,6.38986,0.0],[2.41996,6.3899,0.0],[2.42005,6.38995,0.0],[2.42035,6.38996,0.0],[2.42069,6.38992,0.0],[2.42087,6.38979,0.0],[2.42096,6.38969,0.0],[2.42101,6.38955,0.0],[2.42108,6.38943,0.0],[2.42117,6.38936,0.0],[2.42129,6.38933,0.0],[2.42146,6.3893,0.0],[2.42159,6.3893,0.0],[2.42165,6.38929,0.0],[2.42169,6.38925,0.0],[2.42171,6.38919,0.0],[2.42174,6.38913,0.0],[2.42179,6.38908,0.0],[2.42184,6.38907,0.0],[2.42196,6.38907,0.0],[2.4221,6.38909,0.0],[2.42217,6.3891,0.0],[2.42233,6.38909,0.0],[2.42238,6.38907,0.0],[2.42243,6.38903,0.0],[2.42247,6.38894,0.0],[2.42252,6.38886,0.0],[2.42254,6.38881,0.0],[2.42256,6.38875,0.0],[2.42259,6.38873,0.0],[2.42263,6.38873,0.0],[2.42265,6.38876,0.0],[2.42268,6.38881,0.0],[2.42269,6.38892,0.0],[2.42269,6.38904,0.0],[2.42269,6.38914,0.0],[2.42271,6.38923,0.0],[2.42272,6.38931,0.0],[2.42276,6.38941,0.0],[2.42278,6.38944,0.0],[2.4228,6.38946,0.0],[2.42283,6.38946,0.0],[2.42288,6.38943,0.0],[2.42298,6.38926,0.0],[2.42303,6.38919,0.0],[2.42308,6.38918,0.0],[2.42316,6.38919,0.0],[2.42323,6.38924,0.0],[2.42326,6.38928,0.0],[2.42326,6.38933,0.0],[2.42323,6.38938,0.0],[2.42323,6.38943,0.0],[2.42325,6.38952,0.0],[2.4233,6.38957,0.0],[2.42334,6.38957,0.0],[2.42343,6.38959,0.0],[2.42352,6.38957,0.0],[2.4236,6.38956,0.0],[2.42376,6.38961,0.0],[2.42389,6.38969,0.0],[2.42402,6.3898,0.0],[2.42414,6.38992,0.0],[2.42425,6.39001,0.0],[2.42433,6.39013,0.0],[2.42438,6.39021,0.0],[2.42438,6.39027,0.0],[2.42436,6.39034,0.0],[2.42433,6.39044,0.0],[2.42434,6.39051,0.0],[2.42437,6.39055,0.0],[2.42443,6.39058,0.0],[2.42449,6.3906,0.0],[2.4246,6.39056,0.0],[2.42468,6.3905,0.0],[2.42481,6.39041,0.0],[2.42486,6.3904,0.0],[2.42491,6.39039,0.0],[2.42493,6.39039,0.0],[2.42495,6.39041,0.0],[2.42497,6.39044,0.0],[2.42497,6.39048,0.0],[2.42495,6.39051,0.0],[2.42491,6.39055,0.0],[2.42485,6.3906,0.0],[2.42484,6.39062,0.0],[2.42484,6.39064,0.0],[2.42485,6.39065,0.0],[2.42487,6.39064,0.0],[2.42496,6.39057,0.0],[2.425,6.39056,0.0],[2.42505,6.39056,0.0],[2.42529,6.39059,0.0],[2.42552,6.39061,0.0],[2.42559,6.39063,0.0],[2.42563,6.39067,0.0],[2.42565,6.39072,0.0],[2.42568,6.39081,0.0],[2.42567,6.39084,0.0],[2.42565,6.39085,0.0],[2.42561,6.39088,0.0],[2.4256,6.3909,0.0],[2.42562,6.39093,0.0],[2.42573,6.391,0.0],[2.42589,6.39108,0.0],[2.42592,6.39109,0.0],[2.42593,6.39112,0.0],[2.42593,6.39115,0.0],[2.42592,6.39118,0.0],[2.4259,6.39121,0.0],[2.4259,6.39124,0.0],[2.4259,6.39127,0.0],[2.42591,6.3913,0.0],[2.42597,6.39134,0.0],[2.42605,6.39139,0.0],[2.42615,6.39142,0.0],[2.42621,6.39147,0.0],[2.42622,6.39151,0.0],[2.42622,6.39156,0.0],[2.42618,6.39159,0.0],[2.42614,6.39163,0.0],[2.4261,6.39166,0.0],[2.42604,6.39178,0.0],[2.426,6.39185,0.0],[2.426,6.3919,0.0],[2.42602,6.39192,0.0],[2.42606,6.39195,0.0],[2.42611,6.39195,0.0],[2.42615,6.39195,0.0],[2.42627,6.39189,0.0],[2.42631,6.39185,0.0],[2.42632,6.39181,0.0],[2.42632,6.39176,0.0],[2.42633,6.39175,0.0],[2.42634,6.39175,0.0],[2.4264,6.39177,0.0],[2.42654,6.39183,0.0],[2.42658,6.39185,0.0],[2.42659,6.39187,0.0],[2.4266,6.39189,0.0],[2.42661,6.39192,0.0],[2.4266,6.39196,0.0],[2.42658,6.392,0.0],[2.42657,6.39203,0.0],[2.4265,6.39213,0.0],[2.42647,6.39216,0.0],[2.42645,6.39218,0.0],[2.42642,6.39218,0.0],[2.42639,6.39217,0.0],[2.42637,6.39219,0.0],[2.42627,6.39244,0.0],[2.42625,6.39249,0.0],[2.42625,6.39251,0.0],[2.42626,6.39253,0.0],[2.42632,6.39257,0.0],[2.42639,6.39261,0.0],[2.42643,6.39262,0.0],[2.42646,6.39262,0.0],[2.4265,6.39261,0.0],[2.42653,6.3926,0.0],[2.42656,6.39261,0.0],[2.42657,6.39262,0.0],[2.42658,6.39264,0.0],[2.42657,6.39266,0.0],[2.42657,6.39268,0.0],[2.42657,6.3927,0.0],[2.42662,6.39274,0.0],[2.42666,6.39277,0.0],[2.42668,6.39277,0.0],[2.42671,6.39275,0.0],[2.4268,6.39258,0.0],[2.4269,6.39229,0.0],[2.42692,6.39225,0.0],[2.42694,6.39223,0.0],[2.42696,6.39223,0.0],[2.42702,6.39226,0.0],[2.42722,6.39235,0.0],[2.42724,6.39237,0.0],[2.42725,6.3924,0.0],[2.42726,6.39242,0.0],[2.42726,6.39249,0.0],[2.42729,6.39259,0.0],[2.42733,6.39264,0.0],[2.42744,6.39272,0.0],[2.4276,6.39284,0.0],[2.42768,6.39289,0.0],[2.42772,6.39291,0.0],[2.42775,6.39291,0.0],[2.4278,6.39288,0.0],[2.42783,6.39287,0.0],[2.42787,6.39286,0.0],[2.42791,6.39287,0.0],[2.42814,6.39297,0.0],[2.4282,6.39298,0.0],[2.42825,6.39297,0.0],[2.42828,6.39296,0.0],[2.42833,6.39291,0.0],[2.42837,6.39287,0.0],[2.4284,6.39282,0.0],[2.4284,6.3928,0.0],[2.42839,6.39278,0.0],[2.42837,6.39276,0.0],[2.42832,6.39273,0.0],[2.42828,6.39271,0.0],[2.42828,6.39268,0.0],[2.42829,6.39267,0.0],[2.42836,6.39267,0.0],[2.42846,6.39267,0.0],[2.42857,6.39268,0.0],[2.42862,6.39269,0.0],[2.42864,6.3927,0.0],[2.42865,6.39272,0.0],[2.42866,6.39275,0.0],[2.42865,6.39281,0.0],[2.42863,6.39288,0.0],[2.42863,6.39292,0.0],[2.42865,6.39294,0.0],[2.42868,6.39295,0.0],[2.42871,6.39294,0.0],[2.42873,6.39293,0.0],[2.42873,6.3929,0.0],[2.42876,6.39284,0.0],[2.42877,6.3928,0.0],[2.42878,6.39278,0.0],[2.42881,6.39278,0.0],[2.42885,6.39278,0.0],[2.42888,6.39278,0.0],[2.42889,6.39278,0.0],[2.4289,6.39276,0.0],[2.4289,6.39274,0.0],[2.42888,6.39263,0.0],[2.42888,6.39258,0.0],[2.4289,6.39252,0.0],[2.42892,6.3925,0.0],[2.42895,6.39249,0.0],[2.4291,6.3925,0.0],[2.4292,6.39248,0.0],[2.42922,6.39249,0.0],[2.42923,6.39249,0.0],[2.42924,6.39252,0.0],[2.42924,6.39254,0.0],[2.42922,6.39264,0.0],[2.42921,6.39267,0.0],[2.42921,6.3927,0.0],[2.42923,6.39273,0.0],[2.42926,6.39274,0.0],[2.42929,6.39273,0.0],[2.42931,6.39271,0.0],[2.42937,6.39269,0.0],[2.42945,6.39267,0.0],[2.4295,6.39265,0.0],[2.42957,6.3926,0.0],[2.42969,6.39253,0.0],[2.42977,6.39249,0.0],[2.42988,6.39244,0.0],[2.42995,6.39244,0.0],[2.42999,6.39244,0.0],[2.43001,6.39243,0.0],[2.43006,6.3924,0.0],[2.43011,6.39236,0.0],[2.43014,6.39234,0.0],[2.43021,6.39231,0.0],[2.43036,6.3923,0.0],[2.43045,6.39229,0.0],[2.43068,6.39227,0.0],[2.43076,6.39224,0.0],[2.43082,6.39224,0.0],[2.43087,6.39227,0.0],[2.4309,6.39232,0.0],[2.43091,6.39238,0.0],[2.43092,6.39243,0.0],[2.43089,6.39246,0.0],[2.43085,6.39249,0.0],[2.43077,6.3925,0.0],[2.43062,6.39254,0.0],[2.43057,6.39257,0.0],[2.43052,6.3926,0.0],[2.43038,6.39274,0.0],[2.43023,6.39293,0.0],[2.43022,6.39296,0.0],[2.43024,6.39301,0.0],[2.43029,6.39312,0.0],[2.43032,6.39315,0.0],[2.43036,6.39316,0.0],[2.43045,6.39313,0.0],[2.43052,6.39311,0.0],[2.43058,6.39311,0.0],[2.43061,6.39313,0.0],[2.43064,6.39314,0.0],[2.43067,6.39314,0.0],[2.43074,6.39312,0.0],[2.43077,6.39313,0.0],[2.43079,6.39314,0.0],[2.4308,6.39316,0.0],[2.4308,6.39321,0.0],[2.43081,6.39326,0.0],[2.43084,6.39329,0.0],[2.43089,6.39332,0.0],[2.43095,6.39334,0.0],[2.43103,6.39334,0.0],[2.43114,6.39331,0.0],[2.4312,6.39327,0.0],[2.43125,6.3932,0.0],[2.43131,6.39305,0.0],[2.43134,6.39299,0.0],[2.43137,6.39295,0.0],[2.43138,6.39291,0.0],[2.43138,6.39287,0.0],[2.43136,6.39283,0.0],[2.43136,6.39278,0.0],[2.43138,6.39274,0.0],[2.43142,6.39267,0.0],[2.43155,6.39254,0.0],[2.43159,6.39255,0.0],[2.43164,6.39256,0.0],[2.43168,6.39258,0.0],[2.43176,6.39269,0.0],[2.4318,6.39272,0.0],[2.43183,6.39273,0.0],[2.43188,6.39272,0.0],[2.43193,6.39266,0.0],[2.43206,6.3925,0.0],[2.43209,6.39246,0.0],[2.43211,6.39244,0.0],[2.43213,6.39239,0.0],[2.43213,6.39232,0.0],[2.43212,6.39225,0.0],[2.4321,6.39219,0.0],[2.43207,6.3921,0.0],[2.43206,6.39209,0.0],[2.43205,6.39209,0.0],[2.43204,6.39209,0.0],[2.43199,6.3921,0.0],[2.43194,6.39212,0.0],[2.43188,6.39212,0.0],[2.43184,6.3921,0.0],[2.43182,6.39208,0.0],[2.43179,6.39205,0.0],[2.43173,6.392,0.0],[2.43167,6.39194,0.0],[2.43166,6.39191,0.0],[2.43167,6.39188,0.0],[2.43169,6.39186,0.0],[2.43173,6.39184,0.0],[2.43179,6.39184,0.0],[2.4318,6.39184,0.0],[2.43181,6.39186,0.0],[2.4318,6.39191,0.0],[2.43182,6.39194,0.0],[2.43193,6.39208,0.0],[2.43194,6.39209,0.0],[2.43198,6.39208,0.0],[2.43204,6.39206,0.0],[2.43211,6.39203,0.0],[2.43217,6.39197,0.0],[2.43219,6.39193,0.0],[2.4322,6.3919,0.0],[2.43219,6.39187,0.0],[2.43215,6.39175,0.0],[2.43214,6.39169,0.0],[2.43215,6.39164,0.0],[2.43224,6.39155,0.0],[2.43248,6.39136,0.0],[2.43256,6.39126,0.0],[2.4327,6.39112,0.0],[2.43283,6.39096,0.0],[2.43285,6.39094,0.0],[2.43285,6.39089,0.0],[2.43284,6.39077,0.0],[2.43274,6.39058,0.0],[2.43275,6.39054,0.0],[2.43279,6.39049,0.0],[2.43292,6.39038,0.0],[2.43306,6.39022,0.0],[2.43312,6.39025,0.0],[2.43316,6.39025,0.0],[2.4332,6.3902,0.0],[2.43326,6.39022,0.0],[2.43334,6.39017,0.0],[2.43337,6.39009,0.0],[2.43338,6.39007,0.0],[2.43341,6.39006,0.0],[2.43343,6.39007,0.0],[2.43345,6.39009,0.0],[2.43346,6.39013,0.0],[2.43346,6.39018,0.0],[2.43346,6.39024,0.0],[2.43347,6.39028,0.0],[2.4335,6.39031,0.0],[2.43354,6.39031,0.0],[2.43358,6.39028,0.0],[2.43364,6.39016,0.0],[2.4337,6.39007,0.0],[2.43374,6.39003,0.0],[2.43377,6.39,0.0],[2.4338,6.39,0.0],[2.43382,6.39001,0.0],[2.43385,6.39003,0.0],[2.43393,6.39007,0.0],[2.43397,6.39006,0.0],[2.43401,6.39003,0.0],[2.43404,6.38995,0.0],[2.43408,6.38988,0.0],[2.43416,6.3898,0.0],[2.43442,6.38964,0.0],[2.43458,6.3895,0.0],[2.43458,6.3894,0.0],[2.43458,6.38913,0.0],[2.43461,6.38893,0.0],[2.43465,6.38883,0.0],[2.43473,6.38868,0.0],[2.43476,6.38862,0.0],[2.4348,6.38855,0.0],[2.43487,6.38849,0.0],[2.43492,6.38845,0.0],[2.43494,6.38842,0.0],[2.43495,6.38837,0.0],[2.43494,6.3883,0.0],[2.43492,6.38823,0.0],[2.43488,6.38817,0.0],[2.43484,6.38811,0.0],[2.43482,6.38803,0.0],[2.43477,6.38778,0.0],[2.43475,6.38769,0.0],[2.43476,6.38763,0.0],[2.43478,6.38756,0.0],[2.43487,6.38745,0.0],[2.43493,6.38737,0.0],[2.43496,6.38731,0.0],[2.43496,6.38723,0.0],[2.43495,6.38711,0.0],[2.43495,6.38704,0.0],[2.43493,6.38689,0.0],[2.4349,6.38678,0.0],[2.43488,6.38673,0.0],[2.43482,6.38665,0.0],[2.43475,6.38657,0.0],[2.43472,6.38649,0.0],[2.43469,6.3864,0.0],[2.43466,6.38627,0.0],[2.43463,6.38619,0.0],[2.43459,6.38611,0.0],[2.43458,6.386,0.0],[2.4346,6.38593,0.0],[2.43463,6.38578,0.0],[2.4346,6.38558,0.0],[2.43457,6.38546,0.0],[2.43454,6.38536,0.0],[2.43452,6.38526,0.0],[2.43452,6.38514,0.0],[2.43455,6.38492,0.0],[2.43458,6.38471,0.0],[2.43462,6.38451,0.0],[2.43462,6.38437,0.0],[2.43461,6.3842,0.0],[2.43458,6.38407,0.0],[2.43456,6.38395,0.0],[2.43455,6.38384,0.0],[2.43455,6.38366,0.0],[2.43453,6.38338,0.0],[2.43451,6.3832,0.0],[2.4345,6.38311,0.0],[2.43449,6.38303,0.0],[2.43449,6.38298,0.0],[2.43451,6.38294,0.0],[2.43452,6.3829,0.0],[2.43454,6.38287,0.0],[2.43454,6.38285,0.0],[2.43453,6.38284,0.0],[2.43453,6.38283,0.0],[2.4345,6.38283,0.0],[2.43446,6.38281,0.0],[2.43441,6.38279,0.0],[2.43436,6.38277,0.0],[2.43434,6.38274,0.0],[2.43433,6.38269,0.0],[2.43434,6.38263,0.0],[2.43436,6.3826,0.0],[2.43438,6.38257,0.0],[2.43441,6.38256,0.0],[2.43447,6.38255,0.0],[2.43451,6.38255,0.0],[2.43452,6.38254,0.0],[2.43453,6.38252,0.0],[2.43453,6.38249,0.0],[2.43452,6.38242,0.0],[2.43452,6.38238,0.0],[2.43449,6.38236,0.0],[2.43441,6.38233,0.0],[2.43438,6.38231,0.0],[2.43436,6.38228,0.0],[2.43436,6.38222,0.0],[2.43437,6.38217,0.0],[2.43439,6.38214,0.0],[2.43445,6.38209,0.0],[2.43446,6.38206,0.0],[2.43446,6.38202,0.0],[2.43445,6.38198,0.0],[2.43441,6.38192,0.0],[2.43439,6.38186,0.0],[2.43438,6.38179,0.0],[2.43439,6.38173,0.0],[2.43441,6.38169,0.0],[2.43445,6.38164,0.0],[2.43454,6.38158,0.0],[2.43463,6.38152,0.0],[2.43468,6.38147,0.0],[2.43471,6.38139,0.0],[2.43471,6.38133,0.0],[2.43469,6.38124,0.0],[2.43461,6.38107,0.0],[2.43462,6.3809,0.0],[2.43464,6.38073,0.0],[2.43465,6.3806,0.0],[2.43468,6.38049,0.0],[2.4347,6.38036,0.0],[2.43473,6.38018,0.0],[2.43476,6.37997,0.0],[2.43478,6.3799,0.0],[2.4348,6.37981,0.0],[2.43485,6.37973,0.0],[2.43486,6.3797,0.0],[2.43486,6.37965,0.0],[2.43485,6.37961,0.0],[2.43484,6.3796,0.0],[2.43482,6.37959,0.0],[2.43479,6.37956,0.0],[2.43478,6.37954,0.0],[2.43478,6.37951,0.0],[2.43477,6.37946,0.0],[2.43477,6.37941,0.0],[2.43474,6.37927,0.0],[2.43475,6.37919,0.0],[2.43476,6.37908,0.0],[2.43479,6.37897,0.0],[2.43483,6.37888,0.0],[2.4349,6.3788,0.0],[2.43497,6.37871,0.0],[2.43503,6.37863,0.0],[2.43507,6.37853,0.0],[2.43509,6.3784,0.0],[2.43509,6.37824,0.0],[2.43509,6.37812,0.0],[2.43511,6.37797,0.0],[2.43514,6.3778,0.0],[2.4352,6.37759,0.0],[2.43525,6.37744,0.0],[2.43532,6.37733,0.0],[2.43539,6.37718,0.0],[2.43547,6.37694,0.0],[2.4355,6.37686,0.0],[2.43551,6.37679,0.0],[2.43551,6.37671,0.0],[2.4355,6.37663,0.0],[2.43548,6.37653,0.0],[2.43547,6.37647,0.0],[2.43545,6.37642,0.0],[2.43541,6.37637,0.0],[2.43539,6.37632,0.0],[2.43538,6.37628,0.0],[2.43538,6.37625,0.0],[2.4354,6.37619,0.0],[2.43543,6.37614,0.0],[2.43546,6.37607,0.0],[2.43552,6.37585,0.0],[2.43555,6.37564,0.0],[2.43563,6.37533,0.0],[2.43567,6.37518,0.0],[2.43569,6.37506,0.0],[2.4357,6.37492,0.0],[2.43568,6.37476,0.0],[2.43565,6.37464,0.0],[2.43562,6.37453,0.0],[2.4356,6.37438,0.0],[2.4356,6.37424,0.0],[2.43559,6.37413,0.0],[2.43556,6.37399,0.0],[2.43554,6.3739,0.0],[2.43554,6.3738,0.0],[2.43556,6.37368,0.0],[2.4356,6.37356,0.0],[2.43567,6.37345,0.0],[2.43577,6.37324,0.0],[2.4358,6.37304,0.0],[2.43581,6.3729,0.0],[2.4358,6.3727,0.0],[2.43582,6.37258,0.0],[2.43584,6.37249,0.0],[2.43585,6.3724,0.0],[2.43585,6.37234,0.0],[2.4358,6.37222,0.0],[2.43577,6.37211,0.0],[2.43576,6.37205,0.0],[2.43576,6.37201,0.0],[2.43578,6.37197,0.0],[2.43582,6.37189,0.0],[2.43587,6.37179,0.0],[2.43591,6.37167,0.0],[2.43595,6.37153,0.0],[2.43596,6.37139,0.0],[2.43596,6.37123,0.0],[2.43598,6.37118,0.0],[2.436,6.37113,0.0],[2.43605,6.37109,0.0],[2.4361,6.37104,0.0],[2.43614,6.37098,0.0],[2.43616,6.37087,0.0],[2.43583,6.37082,0.0],[2.43443,6.37052,0.0],[2.43425,6.37046,0.0],[2.4341,6.37039,0.0],[2.43395,6.37032,0.0],[2.43379,6.37022,0.0],[2.42987,6.36715,0.0],[2.42764,6.36994,0.0],[2.42005,6.37956,0.0],[2.41381,6.38744,0.0]]]]}},{"type":"Feature","properties":{"uesi_id":"BEN_R2851879","nbhd_code":"BEN_R2851879_7","nbhd_name":"11\u00e8me Arrondissement"},"geometry":{"type":"MultiPolygon","coordinates":[[[[2.38974,6.37711,0.0],[2.38986,6.37711,0.0],[2.39588,6.37676,0.0],[2.40072,6.37651,0.0],[2.40184,6.37639,0.0],[2.40275,6.37622,0.0],[2.40371,6.37593,0.0],[2.40415,6.37575,0.0],[2.40456,6.37556,0.0],[2.4049,6.37538,0.0],[2.40527,6.37516,0.0],[2.40578,6.37483,0.0],[2.40623,6.3745,0.0],[2.40699,6.37385,0.0],[2.409,6.37214,0.0],[2.4098,6.37147,0.0],[2.41104,6.37038,0.0],[2.41396,6.36789,0.0],[2.41566,6.36646,0.0],[2.42211,6.36098,0.0],[2.41824,6.35789,0.0],[2.41685,6.3581,0.0],[2.41422,6.35866,0.0],[2.41101,6.35941,0.0],[2.40967,6.36051,0.0],[2.40351,6.36818,0.0],[2.40301,6.36856,0.0],[2.40148,6.36928,0.0],[2.40091,6.36936,0.0],[2.40045,6.3694,0.0],[2.40011,6.36939,0.0],[2.39678,6.36882,0.0],[2.39426,6.36828,0.0],[2.39356,6.37092,0.0],[2.39341,6.37142,0.0],[2.39323,6.37169,0.0],[2.39284,6.37207,0.0],[2.39209,6.37254,0.0],[2.39092,6.37524,0.0],[2.39047,6.37603,0.0],[2.39037,6.37614,0.0],[2.38993,6.37654,0.0],[2.38978,6.3767,0.0],[2.38974,6.37711,0.0]]]]}},{"type":"Feature","properties":{"uesi_id":"BEN_R2851879","nbhd_code":"BEN_R2851879_8","nbhd_name":"12\u1d49 Arrondissement"},"geometry":{"type":"MultiPolygon","coordinates":[[[[2.41824,6.35789,0.0],[2.41747,6.3563,0.0],[2.41769,6.35267,0.0],[2.41784,6.35029,0.0],[2.41209,6.35012,0.0],[2.41262,6.34326,0.0],[2.41253,6.34204,0.0],[2.41212,6.34212,0.0],[2.41184,6.34219,0.0],[2.41158,6.34222,0.0],[2.41127,6.34222,0.0],[2.41078,6.34219,0.0],[2.41047,6.34221,0.0],[2.41014,6.34225,0.0],[2.40936,6.3424,0.0],[2.40857,6.34249,0.0],[2.40774,6.34259,0.0],[2.4068,6.3427,0.0],[2.40619,6.34285,0.0],[2.40577,6.34291,0.0],[2.40519,6.34295,0.0],[2.40425,6.343,0.0],[2.4036,6.34305,0.0],[2.4033,6.34307,0.0],[2.40298,6.3431,0.0],[2.40261,6.34315,0.0],[2.40232,6.34322,0.0],[2.40201,6.34328,0.0],[2.40154,6.34337,0.0],[2.4008,6.34347,0.0],[2.40004,6.34357,0.0],[2.39976,6.34361,0.0],[2.3995,6.34363,0.0],[2.39881,6.3437,0.0],[2.39853,6.34371,0.0],[2.39786,6.34372,0.0],[2.39744,6.34376,0.0],[2.39692,6.3438,0.0],[2.3963,6.34385,0.0],[2.39564,6.34391,0.0],[2.39523,6.34394,0.0],[2.39456,6.34403,0.0],[2.39395,6.34408,0.0],[2.39328,6.34418,0.0],[2.39288,6.34423,0.0],[2.3925,6.34424,0.0],[2.39215,6.34425,0.0],[2.39198,6.34427,0.0],[2.39186,6.34429,0.0],[2.39161,6.34437,0.0],[2.39135,6.34443,0.0],[2.39115,6.34445,0.0],[2.39087,6.34447,0.0],[2.39056,6.34451,0.0],[2.3902,6.34457,0.0],[2.3897,6.3447,0.0],[2.38922,6.34483,0.0],[2.38887,6.34492,0.0],[2.38843,6.34502,0.0],[2.3882,6.34509,0.0],[2.38782,6.34523,0.0],[2.38749,6.34533,0.0],[2.38698,6.34544,0.0],[2.3866,6.34549,0.0],[2.38616,6.34556,0.0],[2.38551,6.34567,0.0],[2.38483,6.34578,0.0],[2.3842,6.34587,0.0],[2.38377,6.34594,0.0],[2.38325,6.34601,0.0],[2.38278,6.34611,0.0],[2.38223,6.3462,0.0],[2.38183,6.34623,0.0],[2.38133,6.34628,0.0],[2.38068,6.34634,0.0],[2.37992,6.34636,0.0],[2.37933,6.34638,0.0],[2.37872,6.34643,0.0],[2.37807,6.3465,0.0],[2.37759,6.34656,0.0],[2.37683,6.34666,0.0],[2.37605,6.34677,0.0],[2.37555,6.34681,0.0],[2.37476,6.34692,0.0],[2.37442,6.34696,0.0],[2.37413,6.347,0.0],[2.37338,6.34703,0.0],[2.37318,6.34704,0.0],[2.37292,6.34705,0.0],[2.37238,6.34707,0.0],[2.37164,6.34709,0.0],[2.37096,6.34709,0.0],[2.37036,6.3471,0.0],[2.36967,6.34708,0.0],[2.36885,6.34706,0.0],[2.36814,6.34706,0.0],[2.36732,6.34706,0.0],[2.36673,6.34705,0.0],[2.36631,6.34705,0.0],[2.36553,6.34702,0.0],[2.36449,6.34704,0.0],[2.36394,6.34708,0.0],[2.3635,6.3471,0.0],[2.36309,6.34715,0.0],[2.36268,6.34722,0.0],[2.36153,6.34744,0.0],[2.36096,6.34757,0.0],[2.36136,6.34952,0.0],[2.36143,6.34984,0.0],[2.36089,6.35397,0.0],[2.36044,6.35816,0.0],[2.36021,6.35933,0.0],[2.35722,6.35889,0.0],[2.3581,6.3659,0.0],[2.3576,6.36597,0.0],[2.35789,6.36942,0.0],[2.35769,6.36954,0.0],[2.35721,6.36984,0.0],[2.35677,6.37018,0.0],[2.35639,6.37054,0.0],[2.35582,6.37106,0.0],[2.35506,6.37162,0.0],[2.35458,6.37182,0.0],[2.35505,6.37301,0.0],[2.35557,6.37278,0.0],[2.35689,6.37225,0.0],[2.35775,6.3719,0.0],[2.36631,6.36854,0.0],[2.37265,6.36756,0.0],[2.37494,6.36722,0.0],[2.37998,6.36645,0.0],[2.38375,6.36588,0.0],[2.38521,6.36565,0.0],[2.38598,6.36586,0.0],[2.38799,6.36611,0.0],[2.38889,6.36619,0.0],[2.38957,6.36618,0.0],[2.39026,6.36619,0.0],[2.39077,6.36647,0.0],[2.39144,6.36697,0.0],[2.39286,6.36773,0.0],[2.39426,6.36828,0.0],[2.39678,6.36882,0.0],[2.40011,6.36939,0.0],[2.40045,6.3694,0.0],[2.40091,6.36936,0.0],[2.40148,6.36928,0.0],[2.40301,6.36856,0.0],[2.40351,6.36818,0.0],[2.40967,6.36051,0.0],[2.41101,6.35941,0.0],[2.41422,6.35866,0.0],[2.41685,6.3581,0.0],[2.41824,6.35789,0.0]]]]}},{"type":"Feature","properties":{"uesi_id":"BEN_R2851879","nbhd_code":"BEN_R2851879_9","nbhd_name":"5\u00e8me Arrondissement"},"geometry":{"type":"MultiPolygon","coordinates":[[[[2.4289,6.34213,0.0],[2.42885,6.34207,0.0],[2.42884,6.34201,0.0],[2.42883,6.34176,0.0],[2.4288,6.34103,0.0],[2.42878,6.34034,0.0],[2.42876,6.34011,0.0],[2.42862,6.33735,0.0],[2.42857,6.33729,0.0],[2.42848,6.33728,0.0],[2.42842,6.3373,0.0],[2.42839,6.33736,0.0],[2.42839,6.33742,0.0],[2.42862,6.34012,0.0],[2.42847,6.34008,0.0],[2.42836,6.34006,0.0],[2.42821,6.34004,0.0],[2.42809,6.34005,0.0],[2.42788,6.34011,0.0],[2.42764,6.34018,0.0],[2.42727,6.34031,0.0],[2.42676,6.34045,0.0],[2.42613,6.34064,0.0],[2.42575,6.34073,0.0],[2.42536,6.34079,0.0],[2.42441,6.34088,0.0],[2.42344,6.34103,0.0],[2.42269,6.34112,0.0],[2.42242,6.34113,0.0],[2.42213,6.34111,0.0],[2.42183,6.34106,0.0],[2.42149,6.34105,0.0],[2.4211,6.34108,0.0],[2.4202,6.34123,0.0],[2.41893,6.3414,0.0],[2.41758,6.34156,0.0],[2.4161,6.34171,0.0],[2.41554,6.34175,0.0],[2.41479,6.34181,0.0],[2.41406,6.34185,0.0],[2.41293,6.34197,0.0],[2.41253,6.34204,0.0],[2.41262,6.34326,0.0],[2.41209,6.35012,0.0],[2.41784,6.35029,0.0],[2.41769,6.35267,0.0],[2.41747,6.3563,0.0],[2.41824,6.35789,0.0],[2.42211,6.36098,0.0],[2.42987,6.36715,0.0],[2.43379,6.37022,0.0],[2.43395,6.37032,0.0],[2.4341,6.37039,0.0],[2.43425,6.37046,0.0],[2.43443,6.37052,0.0],[2.43583,6.37082,0.0],[2.43616,6.37087,0.0],[2.43617,6.37074,0.0],[2.43618,6.37053,0.0],[2.4362,6.37034,0.0],[2.43622,6.37017,0.0],[2.43623,6.37008,0.0],[2.43627,6.36998,0.0],[2.43631,6.3699,0.0],[2.43634,6.36982,0.0],[2.43635,6.36975,0.0],[2.43634,6.36963,0.0],[2.43632,6.36953,0.0],[2.43634,6.36939,0.0],[2.43637,6.36923,0.0],[2.43642,6.36909,0.0],[2.43646,6.36894,0.0],[2.43651,6.36871,0.0],[2.43654,6.36853,0.0],[2.43658,6.36838,0.0],[2.43668,6.36794,0.0],[2.43673,6.36775,0.0],[2.43677,6.36763,0.0],[2.43684,6.36747,0.0],[2.4369,6.36735,0.0],[2.43694,6.36722,0.0],[2.43701,6.36706,0.0],[2.43705,6.36698,0.0],[2.43711,6.36688,0.0],[2.43715,6.36675,0.0],[2.43718,6.36665,0.0],[2.43721,6.36651,0.0],[2.43723,6.3664,0.0],[2.43726,6.36632,0.0],[2.43729,6.36626,0.0],[2.43735,6.36619,0.0],[2.43743,6.36606,0.0],[2.43748,6.36593,0.0],[2.43754,6.36577,0.0],[2.43757,6.36566,0.0],[2.43762,6.36558,0.0],[2.43767,6.36549,0.0],[2.4377,6.3654,0.0],[2.43775,6.36529,0.0],[2.43781,6.36518,0.0],[2.43787,6.36508,0.0],[2.43793,6.36499,0.0],[2.43802,6.36489,0.0],[2.43811,6.36477,0.0],[2.43817,6.36466,0.0],[2.43821,6.36451,0.0],[2.43824,6.36435,0.0],[2.43825,6.364,0.0],[2.43828,6.36377,0.0],[2.43828,6.36364,0.0],[2.43826,6.36356,0.0],[2.43826,6.36346,0.0],[2.43826,6.36337,0.0],[2.43835,6.3631,0.0],[2.4384,6.36297,0.0],[2.43847,6.36283,0.0],[2.43852,6.36277,0.0],[2.43855,6.36273,0.0],[2.43857,6.3627,0.0],[2.43857,6.36266,0.0],[2.43857,6.36261,0.0],[2.43858,6.36255,0.0],[2.43858,6.3625,0.0],[2.4386,6.36245,0.0],[2.43866,6.36234,0.0],[2.43884,6.36206,0.0],[2.43944,6.36103,0.0],[2.43993,6.36017,0.0],[2.44015,6.35986,0.0],[2.44023,6.35978,0.0],[2.4403,6.35972,0.0],[2.44039,6.35967,0.0],[2.44048,6.3596,0.0],[2.44054,6.35949,0.0],[2.44063,6.35926,0.0],[2.44066,6.35915,0.0],[2.44071,6.35899,0.0],[2.44076,6.359,0.0],[2.44081,6.35891,0.0],[2.44078,6.35889,0.0],[2.44082,6.35875,0.0],[2.44082,6.35862,0.0],[2.4408,6.35834,0.0],[2.4408,6.35814,0.0],[2.44081,6.35806,0.0],[2.44082,6.358,0.0],[2.44086,6.35792,0.0],[2.4409,6.35786,0.0],[2.44096,6.35781,0.0],[2.44101,6.35777,0.0],[2.44104,6.35772,0.0],[2.44106,6.35766,0.0],[2.44108,6.35759,0.0],[2.44111,6.35747,0.0],[2.44113,6.35741,0.0],[2.44114,6.35734,0.0],[2.44114,6.35726,0.0],[2.44115,6.35722,0.0],[2.44116,6.35719,0.0],[2.44119,6.35716,0.0],[2.44124,6.35714,0.0],[2.44129,6.35709,0.0],[2.44133,6.35705,0.0],[2.44138,6.35697,0.0],[2.44143,6.35689,0.0],[2.44146,6.3568,0.0],[2.44149,6.3567,0.0],[2.44151,6.35657,0.0],[2.44153,6.35648,0.0],[2.44156,6.35636,0.0],[2.4416,6.35618,0.0],[2.44165,6.35606,0.0],[2.44169,6.35598,0.0],[2.44175,6.35588,0.0],[2.44185,6.35576,0.0],[2.44196,6.35565,0.0],[2.44208,6.35553,0.0],[2.44213,6.35548,0.0],[2.44218,6.3554,0.0],[2.44235,6.35515,0.0],[2.44236,6.35514,0.0],[2.44239,6.35514,0.0],[2.44242,6.35514,0.0],[2.44247,6.35516,0.0],[2.44252,6.35519,0.0],[2.44253,6.35519,0.0],[2.44254,6.35519,0.0],[2.44256,6.35519,0.0],[2.44257,6.35518,0.0],[2.44258,6.35516,0.0],[2.44258,6.35515,0.0],[2.44257,6.35512,0.0],[2.44255,6.35508,0.0],[2.4425,6.35501,0.0],[2.44251,6.35497,0.0],[2.44252,6.35491,0.0],[2.44255,6.35487,0.0],[2.44263,6.35477,0.0],[2.44273,6.35462,0.0],[2.44277,6.35457,0.0],[2.44281,6.35454,0.0],[2.44285,6.35452,0.0],[2.44289,6.35449,0.0],[2.44292,6.35446,0.0],[2.44295,6.35442,0.0],[2.44297,6.3544,0.0],[2.44301,6.35439,0.0],[2.44307,6.35441,0.0],[2.44318,6.35445,0.0],[2.4433,6.35451,0.0],[2.44334,6.35453,0.0],[2.44337,6.35454,0.0],[2.44339,6.35454,0.0],[2.4434,6.35453,0.0],[2.4434,6.35451,0.0],[2.4434,6.35449,0.0],[2.44338,6.35447,0.0],[2.44332,6.35442,0.0],[2.44315,6.35431,0.0],[2.4431,6.35427,0.0],[2.44308,6.35423,0.0],[2.44308,6.35419,0.0],[2.44309,6.35414,0.0],[2.44328,6.3538,0.0],[2.44358,6.3533,0.0],[2.44385,6.35287,0.0],[2.44403,6.35259,0.0],[2.44412,6.35246,0.0],[2.44458,6.3513,0.0],[2.44455,6.35057,0.0],[2.44433,6.35002,0.0],[2.4442,6.34968,0.0],[2.44408,6.34932,0.0],[2.44401,6.34936,0.0],[2.44418,6.34984,0.0],[2.44382,6.35022,0.0],[2.4434,6.35043,0.0],[2.44319,6.35049,0.0],[2.44271,6.3506,0.0],[2.44217,6.35072,0.0],[2.44069,6.35082,0.0],[2.43937,6.35094,0.0],[2.43755,6.351,0.0],[2.43647,6.35098,0.0],[2.4356,6.35076,0.0],[2.43511,6.35064,0.0],[2.43462,6.35051,0.0],[2.43437,6.35037,0.0],[2.43423,6.35027,0.0],[2.43408,6.3501,0.0],[2.43403,6.34997,0.0],[2.43373,6.34905,0.0],[2.43371,6.34899,0.0],[2.43372,6.34894,0.0],[2.43373,6.34887,0.0],[2.43376,6.34882,0.0],[2.43375,6.34873,0.0],[2.43363,6.34848,0.0],[2.43357,6.34842,0.0],[2.43351,6.3484,0.0],[2.43348,6.34839,0.0],[2.43342,6.34837,0.0],[2.43334,6.3483,0.0],[2.43269,6.34684,0.0],[2.4317,6.34452,0.0],[2.4317,6.34446,0.0],[2.43168,6.3444,0.0],[2.43161,6.34436,0.0],[2.43156,6.34436,0.0],[2.43152,6.34439,0.0],[2.43149,6.34443,0.0],[2.43148,6.34449,0.0],[2.4315,6.34456,0.0],[2.43156,6.34459,0.0],[2.43183,6.3452,0.0],[2.43244,6.3466,0.0],[2.43269,6.3472,0.0],[2.43296,6.34782,0.0],[2.43327,6.34852,0.0],[2.43362,6.34934,0.0],[2.43369,6.34953,0.0],[2.43358,6.34964,0.0],[2.43357,6.34968,0.0],[2.43357,6.34973,0.0],[2.43358,6.34981,0.0],[2.43362,6.34998,0.0],[2.43364,6.35005,0.0],[2.43368,6.35022,0.0],[2.43361,6.35026,0.0],[2.43366,6.35041,0.0],[2.43352,6.35047,0.0],[2.43347,6.35035,0.0],[2.43341,6.35035,0.0],[2.43333,6.35023,0.0],[2.43327,6.35028,0.0],[2.43324,6.3503,0.0],[2.43318,6.35032,0.0],[2.4328,6.35032,0.0],[2.43282,6.34978,0.0],[2.4328,6.34978,0.0],[2.4328,6.34988,0.0],[2.43277,6.34988,0.0],[2.43275,6.35032,0.0],[2.43267,6.35032,0.0],[2.43249,6.3503,0.0],[2.43224,6.35029,0.0],[2.43218,6.35059,0.0],[2.43206,6.35058,0.0],[2.43193,6.35057,0.0],[2.43195,6.34987,0.0],[2.43196,6.34937,0.0],[2.43206,6.34937,0.0],[2.43209,6.34877,0.0],[2.43129,6.34874,0.0],[2.42568,6.34846,0.0],[2.41954,6.34795,0.0],[2.41956,6.34778,0.0],[2.41942,6.34776,0.0],[2.41907,6.34747,0.0],[2.41904,6.3474,0.0],[2.41905,6.34735,0.0],[2.41911,6.34713,0.0],[2.41915,6.34696,0.0],[2.41915,6.34684,0.0],[2.41915,6.34666,0.0],[2.41913,6.34638,0.0],[2.41918,6.34584,0.0],[2.41926,6.34509,0.0],[2.42416,6.34549,0.0],[2.42646,6.34567,0.0],[2.42652,6.34557,0.0],[2.42692,6.34563,0.0],[2.42698,6.34562,0.0],[2.42703,6.34558,0.0],[2.4271,6.34541,0.0],[2.42736,6.34498,0.0],[2.42755,6.34464,0.0],[2.42778,6.34426,0.0],[2.42795,6.34394,0.0],[2.42813,6.3436,0.0],[2.42843,6.34312,0.0],[2.42856,6.34293,0.0],[2.42866,6.34283,0.0],[2.42875,6.34277,0.0],[2.42885,6.34271,0.0],[2.42889,6.3427,0.0],[2.429,6.34267,0.0],[2.42912,6.34266,0.0],[2.43267,6.34247,0.0],[2.43278,6.34243,0.0],[2.43284,6.3424,0.0],[2.43288,6.34235,0.0],[2.43292,6.34227,0.0],[2.43294,6.34216,0.0],[2.43293,6.34177,0.0],[2.43294,6.34168,0.0],[2.43296,6.34165,0.0],[2.43301,6.34163,0.0],[2.43398,6.3416,0.0],[2.43403,6.34163,0.0],[2.43406,6.34165,0.0],[2.43409,6.34167,0.0],[2.43413,6.34168,0.0],[2.43417,6.34169,0.0],[2.43424,6.34169,0.0],[2.43426,6.34168,0.0],[2.43427,6.34165,0.0],[2.43428,6.34155,0.0],[2.43426,6.34149,0.0],[2.4342,6.34144,0.0],[2.43407,6.34142,0.0],[2.43304,6.34147,0.0],[2.43269,6.34148,0.0],[2.43261,6.34146,0.0],[2.43253,6.34145,0.0],[2.43244,6.34145,0.0],[2.43239,6.34148,0.0],[2.43237,6.34152,0.0],[2.43235,6.34158,0.0],[2.43235,6.34162,0.0],[2.43237,6.34167,0.0],[2.43241,6.34171,0.0],[2.43244,6.34173,0.0],[2.43251,6.34172,0.0],[2.43266,6.34169,0.0],[2.43271,6.3417,0.0],[2.43274,6.34173,0.0],[2.43276,6.34177,0.0],[2.43277,6.3418,0.0],[2.43278,6.34206,0.0],[2.43277,6.34216,0.0],[2.43275,6.34221,0.0],[2.4327,6.34227,0.0],[2.43259,6.34232,0.0],[2.43247,6.34234,0.0],[2.4319,6.34236,0.0],[2.43057,6.34238,0.0],[2.42937,6.34229,0.0],[2.42921,6.34226,0.0],[2.42909,6.34222,0.0],[2.42899,6.34218,0.0],[2.4289,6.34213,0.0]]]]}},{"type":"Feature","properties":{"uesi_id":"BEN_R2851879","nbhd_code":"BEN_R2851879_10","nbhd_name":"1er Arrondissement"},"geometry":{"type":"MultiPolygon","coordinates":[[[[2.46515,6.35439,0.0],[2.46617,6.35503,0.0],[2.46621,6.35504,0.0],[2.46624,6.35503,0.0],[2.46627,6.35501,0.0],[2.4663,6.35497,0.0],[2.46631,6.35494,0.0],[2.46631,6.35491,0.0],[2.4663,6.35487,0.0],[2.46628,6.35484,0.0],[2.46457,6.35374,0.0],[2.46452,6.35372,0.0],[2.46447,6.3537,0.0],[2.46441,6.35369,0.0],[2.46435,6.35369,0.0],[2.4643,6.35371,0.0],[2.46426,6.35372,0.0],[2.46422,6.35374,0.0],[2.46418,6.35377,0.0],[2.46414,6.3538,0.0],[2.46412,6.35383,0.0],[2.46409,6.35389,0.0],[2.46409,6.35395,0.0],[2.4641,6.35401,0.0],[2.46412,6.35407,0.0],[2.46417,6.35417,0.0],[2.46397,6.35427,0.0],[2.46384,6.3543,0.0],[2.46369,6.35433,0.0],[2.46351,6.35433,0.0],[2.46317,6.35431,0.0],[2.4622,6.35433,0.0],[2.46097,6.3667,0.0],[2.46033,6.36663,0.0],[2.45985,6.3726,0.0],[2.45964,6.37471,0.0],[2.46167,6.37489,0.0],[2.46164,6.37422,0.0],[2.46355,6.37418,0.0],[2.46368,6.38096,0.0],[2.46233,6.38095,0.0],[2.46229,6.38223,0.0],[2.46234,6.38298,0.0],[2.46946,6.38281,0.0],[2.46942,6.3796,0.0],[2.47861,6.37926,0.0],[2.48051,6.37899,0.0],[2.48366,6.37919,0.0],[2.48367,6.37865,0.0],[2.48459,6.37518,0.0],[2.48639,6.37561,0.0],[2.4868,6.37449,0.0],[2.48687,6.37418,0.0],[2.48689,6.37387,0.0],[2.48695,6.37288,0.0],[2.48707,6.36917,0.0],[2.4946,6.36996,0.0],[2.49466,6.37,0.0],[2.49474,6.37005,0.0],[2.49481,6.37006,0.0],[2.49488,6.37006,0.0],[2.49493,6.37004,0.0],[2.49499,6.37,0.0],[2.49504,6.36995,0.0],[2.49507,6.36989,0.0],[2.49507,6.36983,0.0],[2.49507,6.36977,0.0],[2.49505,6.36971,0.0],[2.49502,6.36967,0.0],[2.49496,6.36963,0.0],[2.49492,6.36959,0.0],[2.49491,6.36954,0.0],[2.49584,6.3598,0.0],[2.49524,6.35986,0.0],[2.49504,6.35986,0.0],[2.49495,6.35986,0.0],[2.4948,6.35984,0.0],[2.49472,6.35983,0.0],[2.49459,6.3598,0.0],[2.49451,6.35978,0.0],[2.49441,6.35974,0.0],[2.49429,6.35967,0.0],[2.49418,6.35959,0.0],[2.49408,6.35949,0.0],[2.49398,6.3594,0.0],[2.49402,6.35931,0.0],[2.49405,6.35926,0.0],[2.49407,6.35922,0.0],[2.49427,6.35885,0.0],[2.49429,6.35882,0.0],[2.49429,6.35879,0.0],[2.49428,6.35876,0.0],[2.49427,6.35873,0.0],[2.49426,6.35872,0.0],[2.49424,6.3587,0.0],[2.4942,6.35869,0.0],[2.49417,6.35869,0.0],[2.49413,6.35871,0.0],[2.4941,6.35873,0.0],[2.49404,6.35879,0.0],[2.49372,6.35931,0.0],[2.4936,6.35936,0.0],[2.49344,6.35942,0.0],[2.49326,6.35946,0.0],[2.49286,6.35952,0.0],[2.49158,6.35972,0.0],[2.49108,6.35977,0.0],[2.49058,6.35981,0.0],[2.49002,6.35982,0.0],[2.48912,6.35987,0.0],[2.48842,6.35993,0.0],[2.4876,6.36003,0.0],[2.48686,6.36011,0.0],[2.48622,6.36018,0.0],[2.48597,6.3602,0.0],[2.4857,6.36018,0.0],[2.4855,6.36017,0.0],[2.48536,6.36015,0.0],[2.48525,6.36011,0.0],[2.4851,6.36007,0.0],[2.48495,6.35996,0.0],[2.48506,6.35978,0.0],[2.48509,6.35971,0.0],[2.48511,6.35968,0.0],[2.48511,6.35962,0.0],[2.4851,6.35956,0.0],[2.48508,6.35952,0.0],[2.48505,6.35948,0.0],[2.485,6.35945,0.0],[2.48493,6.35942,0.0],[2.48488,6.35942,0.0],[2.48482,6.35944,0.0],[2.48475,6.35949,0.0],[2.48471,6.35956,0.0],[2.4846,6.3598,0.0],[2.48351,6.35993,0.0],[2.48269,6.36004,0.0],[2.48228,6.36012,0.0],[2.48146,6.36024,0.0],[2.48091,6.3603,0.0],[2.48071,6.36032,0.0],[2.4803,6.36036,0.0],[2.47853,6.36049,0.0],[2.4776,6.36056,0.0],[2.4773,6.36059,0.0],[2.47632,6.36063,0.0],[2.47566,6.36064,0.0],[2.47527,6.36062,0.0],[2.47527,6.3606,0.0],[2.47526,6.36059,0.0],[2.47524,6.36057,0.0],[2.47521,6.36055,0.0],[2.47519,6.36054,0.0],[2.47514,6.36053,0.0],[2.47506,6.36051,0.0],[2.47466,6.36049,0.0],[2.47459,6.36049,0.0],[2.47457,6.36046,0.0],[2.47454,6.36045,0.0],[2.47453,6.36041,0.0],[2.47451,6.36032,0.0],[2.47447,6.3602,0.0],[2.47443,6.36011,0.0],[2.47438,6.36002,0.0],[2.47435,6.35995,0.0],[2.47428,6.35984,0.0],[2.47419,6.3597,0.0],[2.47415,6.35966,0.0],[2.47411,6.35963,0.0],[2.47405,6.3596,0.0],[2.47368,6.35943,0.0],[2.47363,6.35942,0.0],[2.47358,6.35942,0.0],[2.47354,6.35945,0.0],[2.47351,6.35948,0.0],[2.47351,6.35952,0.0],[2.47351,6.35955,0.0],[2.47354,6.35959,0.0],[2.47358,6.35962,0.0],[2.47366,6.35964,0.0],[2.47375,6.35968,0.0],[2.47388,6.35973,0.0],[2.47396,6.35978,0.0],[2.47402,6.35983,0.0],[2.47407,6.35988,0.0],[2.47411,6.35994,0.0],[2.47397,6.36015,0.0],[2.47385,6.36031,0.0],[2.47374,6.36043,0.0],[2.47361,6.36055,0.0],[2.47349,6.36064,0.0],[2.47334,6.36071,0.0],[2.4732,6.36076,0.0],[2.47298,6.36081,0.0],[2.47278,6.36084,0.0],[2.47259,6.36085,0.0],[2.472,6.36088,0.0],[2.47157,6.36088,0.0],[2.47115,6.36087,0.0],[2.47057,6.36084,0.0],[2.47004,6.36081,0.0],[2.46972,6.36078,0.0],[2.46937,6.36075,0.0],[2.4689,6.36064,0.0],[2.46844,6.36053,0.0],[2.46773,6.36037,0.0],[2.46735,6.36024,0.0],[2.46706,6.36013,0.0],[2.46667,6.35996,0.0],[2.46631,6.35977,0.0],[2.46568,6.35935,0.0],[2.46522,6.35901,0.0],[2.46503,6.35886,0.0],[2.46479,6.35861,0.0],[2.46462,6.35838,0.0],[2.46455,6.35827,0.0],[2.46452,6.35821,0.0],[2.46449,6.35811,0.0],[2.46462,6.35725,0.0],[2.46462,6.3572,0.0],[2.4646,6.35714,0.0],[2.46457,6.3571,0.0],[2.46454,6.35707,0.0],[2.46415,6.35675,0.0],[2.46368,6.35641,0.0],[2.46364,6.35635,0.0],[2.46363,6.35629,0.0],[2.46363,6.35622,0.0],[2.46364,6.35594,0.0],[2.46366,6.35576,0.0],[2.46368,6.35545,0.0],[2.46373,6.3553,0.0],[2.46378,6.35514,0.0],[2.46393,6.35478,0.0],[2.46415,6.35478,0.0],[2.46419,6.35479,0.0],[2.46424,6.3548,0.0],[2.46428,6.3548,0.0],[2.4643,6.35478,0.0],[2.46433,6.35475,0.0],[2.46435,6.3547,0.0],[2.46436,6.35466,0.0],[2.46455,6.35454,0.0],[2.46471,6.35445,0.0],[2.46484,6.3544,0.0],[2.46496,6.35438,0.0],[2.46506,6.35438,0.0],[2.46515,6.35439,0.0]]]]}},{"type":"Feature","properties":{"uesi_id":"BEN_R2851879","nbhd_code":"BEN_R2851879_11","nbhd_name":"2\u00e8me Arrondissement"},"geometry":{"type":"MultiPolygon","coordinates":[[[[2.46237,6.39281,0.0],[2.46241,6.3928,0.0],[2.46248,6.39278,0.0],[2.4627,6.39273,0.0],[2.4627,6.39262,0.0],[2.46269,6.3924,0.0],[2.46281,6.39237,0.0],[2.46282,6.39243,0.0],[2.46287,6.39242,0.0],[2.46289,6.39231,0.0],[2.46302,6.39227,0.0],[2.46314,6.39223,0.0],[2.46325,6.39224,0.0],[2.46345,6.39226,0.0],[2.46381,6.39223,0.0],[2.46386,6.39217,0.0],[2.46394,6.39215,0.0],[2.46398,6.39213,0.0],[2.46398,6.39213,0.0],[2.46402,6.39212,0.0],[2.46405,6.39212,0.0],[2.46409,6.39211,0.0],[2.46412,6.39211,0.0],[2.46418,6.3921,0.0],[2.46428,6.3921,0.0],[2.46438,6.39212,0.0],[2.46443,6.39214,0.0],[2.46449,6.39223,0.0],[2.46451,6.39227,0.0],[2.46453,6.39235,0.0],[2.46457,6.39246,0.0],[2.46458,6.39248,0.0],[2.46461,6.3925,0.0],[2.46466,6.39249,0.0],[2.4647,6.39247,0.0],[2.46473,6.39242,0.0],[2.46477,6.39236,0.0],[2.46479,6.39233,0.0],[2.46479,6.39228,0.0],[2.46478,6.39225,0.0],[2.46476,6.39221,0.0],[2.46475,6.39217,0.0],[2.46476,6.39213,0.0],[2.46476,6.39211,0.0],[2.4648,6.39208,0.0],[2.46483,6.39208,0.0],[2.46492,6.39211,0.0],[2.465,6.39213,0.0],[2.46508,6.39217,0.0],[2.46512,6.3922,0.0],[2.46517,6.39222,0.0],[2.46524,6.39222,0.0],[2.46531,6.39221,0.0],[2.46537,6.39218,0.0],[2.46539,6.39215,0.0],[2.46539,6.39209,0.0],[2.4654,6.39205,0.0],[2.46542,6.39204,0.0],[2.46544,6.39203,0.0],[2.46547,6.39203,0.0],[2.4655,6.39204,0.0],[2.46552,6.39208,0.0],[2.46569,6.39209,0.0],[2.4659,6.39203,0.0],[2.46588,6.39189,0.0],[2.46598,6.39184,0.0],[2.46605,6.39198,0.0],[2.4662,6.39197,0.0],[2.46637,6.39195,0.0],[2.46638,6.39213,0.0],[2.46666,6.39212,0.0],[2.46687,6.3921,0.0],[2.46688,6.39194,0.0],[2.4671,6.39196,0.0],[2.46725,6.39197,0.0],[2.46736,6.39194,0.0],[2.46747,6.39193,0.0],[2.46779,6.39191,0.0],[2.46834,6.39188,0.0],[2.4686,6.39194,0.0],[2.46875,6.39199,0.0],[2.46882,6.392,0.0],[2.46895,6.39201,0.0],[2.46909,6.39199,0.0],[2.46917,6.39197,0.0],[2.46936,6.39184,0.0],[2.46938,6.39192,0.0],[2.46941,6.39196,0.0],[2.4695,6.392,0.0],[2.46967,6.39201,0.0],[2.46976,6.39201,0.0],[2.47003,6.39198,0.0],[2.47012,6.39197,0.0],[2.4702,6.39198,0.0],[2.47043,6.39205,0.0],[2.47053,6.39206,0.0],[2.47064,6.39203,0.0],[2.47076,6.39196,0.0],[2.47093,6.39185,0.0],[2.47158,6.39159,0.0],[2.47175,6.39152,0.0],[2.47194,6.39148,0.0],[2.47208,6.39146,0.0],[2.4722,6.39148,0.0],[2.4723,6.39148,0.0],[2.47237,6.39145,0.0],[2.47242,6.39139,0.0],[2.47247,6.39133,0.0],[2.47254,6.39129,0.0],[2.47262,6.39126,0.0],[2.47269,6.39123,0.0],[2.47273,6.3912,0.0],[2.47281,6.39109,0.0],[2.47292,6.39093,0.0],[2.47308,6.39083,0.0],[2.4732,6.39078,0.0],[2.47335,6.39074,0.0],[2.47357,6.39069,0.0],[2.47371,6.39063,0.0],[2.47404,6.3905,0.0],[2.4743,6.39038,0.0],[2.47435,6.39037,0.0],[2.47438,6.39036,0.0],[2.4745,6.39031,0.0],[2.47463,6.39028,0.0],[2.47471,6.39025,0.0],[2.47489,6.39018,0.0],[2.47498,6.39014,0.0],[2.47518,6.39009,0.0],[2.47591,6.38957,0.0],[2.47614,6.38942,0.0],[2.47625,6.38938,0.0],[2.47641,6.38933,0.0],[2.47651,6.38933,0.0],[2.47675,6.38932,0.0],[2.47685,6.38933,0.0],[2.47715,6.38928,0.0],[2.47735,6.38924,0.0],[2.47748,6.38921,0.0],[2.47763,6.38915,0.0],[2.47779,6.38906,0.0],[2.47801,6.38891,0.0],[2.47829,6.38873,0.0],[2.47866,6.38846,0.0],[2.47886,6.38828,0.0],[2.47901,6.38809,0.0],[2.47907,6.388,0.0],[2.47917,6.38782,0.0],[2.47927,6.38766,0.0],[2.47935,6.38758,0.0],[2.47949,6.38747,0.0],[2.47959,6.38737,0.0],[2.47968,6.38722,0.0],[2.47971,6.38718,0.0],[2.47973,6.38712,0.0],[2.47981,6.38693,0.0],[2.47984,6.38684,0.0],[2.47987,6.38675,0.0],[2.47993,6.38666,0.0],[2.47997,6.38661,0.0],[2.48,6.38655,0.0],[2.48009,6.38646,0.0],[2.4803,6.38628,0.0],[2.48051,6.38614,0.0],[2.48085,6.38593,0.0],[2.48112,6.38576,0.0],[2.48117,6.38574,0.0],[2.48158,6.38563,0.0],[2.4818,6.38554,0.0],[2.48192,6.38549,0.0],[2.48198,6.38545,0.0],[2.48203,6.38539,0.0],[2.48209,6.38533,0.0],[2.48216,6.38528,0.0],[2.48223,6.38523,0.0],[2.48234,6.3852,0.0],[2.48246,6.38517,0.0],[2.48258,6.38515,0.0],[2.4827,6.38511,0.0],[2.48277,6.38508,0.0],[2.48283,6.38504,0.0],[2.48288,6.38504,0.0],[2.48335,6.38453,0.0],[2.48182,6.38211,0.0],[2.48054,6.37932,0.0],[2.48051,6.37899,0.0],[2.47861,6.37926,0.0],[2.46942,6.3796,0.0],[2.46946,6.38281,0.0],[2.46234,6.38298,0.0],[2.46229,6.38223,0.0],[2.46233,6.38095,0.0],[2.46368,6.38096,0.0],[2.46355,6.37418,0.0],[2.46164,6.37422,0.0],[2.46167,6.37489,0.0],[2.45964,6.37471,0.0],[2.45985,6.3726,0.0],[2.45173,6.37189,0.0],[2.4516,6.37514,0.0],[2.4506,6.37517,0.0],[2.45078,6.3859,0.0],[2.45103,6.39084,0.0],[2.45078,6.39194,0.0],[2.45034,6.3929,0.0],[2.4497,6.39313,0.0],[2.44857,6.39315,0.0],[2.44713,6.39302,0.0],[2.44716,6.39546,0.0],[2.4473,6.39543,0.0],[2.44738,6.3954,0.0],[2.44742,6.39539,0.0],[2.44745,6.3954,0.0],[2.44747,6.39544,0.0],[2.44749,6.39547,0.0],[2.44751,6.39548,0.0],[2.44756,6.3955,0.0],[2.44765,6.39553,0.0],[2.44772,6.39557,0.0],[2.44778,6.39559,0.0],[2.44783,6.3956,0.0],[2.44788,6.39559,0.0],[2.44792,6.39559,0.0],[2.44794,6.3956,0.0],[2.44797,6.39563,0.0],[2.44803,6.39588,0.0],[2.44806,6.39594,0.0],[2.44808,6.39596,0.0],[2.44811,6.39596,0.0],[2.44814,6.39596,0.0],[2.44818,6.39594,0.0],[2.44821,6.39591,0.0],[2.44825,6.39586,0.0],[2.44827,6.39576,0.0],[2.44828,6.39565,0.0],[2.44828,6.39557,0.0],[2.44828,6.39555,0.0],[2.44835,6.39552,0.0],[2.44846,6.39546,0.0],[2.44856,6.39544,0.0],[2.44861,6.39544,0.0],[2.4487,6.39542,0.0],[2.44881,6.3954,0.0],[2.44886,6.39538,0.0],[2.44888,6.39538,0.0],[2.4489,6.39539,0.0],[2.44892,6.39544,0.0],[2.44892,6.39548,0.0],[2.44893,6.39549,0.0],[2.44894,6.39549,0.0],[2.44896,6.39549,0.0],[2.44902,6.39547,0.0],[2.44906,6.39547,0.0],[2.44909,6.39547,0.0],[2.4491,6.39549,0.0],[2.44912,6.39555,0.0],[2.44913,6.39561,0.0],[2.44915,6.39564,0.0],[2.44917,6.39567,0.0],[2.44919,6.39567,0.0],[2.44923,6.39567,0.0],[2.44924,6.39567,0.0],[2.44928,6.39565,0.0],[2.44929,6.39561,0.0],[2.44928,6.39558,0.0],[2.44929,6.39548,0.0],[2.44924,6.39536,0.0],[2.44924,6.39534,0.0],[2.44924,6.39533,0.0],[2.44927,6.39531,0.0],[2.44931,6.39529,0.0],[2.44935,6.39528,0.0],[2.44936,6.39525,0.0],[2.44936,6.39522,0.0],[2.44934,6.39519,0.0],[2.44933,6.39518,0.0],[2.44931,6.39517,0.0],[2.4493,6.39515,0.0],[2.4493,6.39512,0.0],[2.44932,6.39509,0.0],[2.44935,6.39507,0.0],[2.44938,6.39505,0.0],[2.44939,6.39503,0.0],[2.4494,6.39501,0.0],[2.4493,6.39463,0.0],[2.44984,6.39447,0.0],[2.44986,6.39456,0.0],[2.44992,6.39455,0.0],[2.44994,6.39459,0.0],[2.45002,6.39464,0.0],[2.45008,6.39467,0.0],[2.45017,6.39468,0.0],[2.45021,6.39467,0.0],[2.45023,6.39467,0.0],[2.45026,6.39471,0.0],[2.4503,6.39471,0.0],[2.45034,6.39483,0.0],[2.4505,6.3948,0.0],[2.45051,6.39482,0.0],[2.45053,6.39483,0.0],[2.45055,6.39483,0.0],[2.45058,6.39483,0.0],[2.45059,6.39482,0.0],[2.45063,6.39478,0.0],[2.45065,6.39477,0.0],[2.45069,6.39476,0.0],[2.45074,6.39476,0.0],[2.45082,6.3948,0.0],[2.45085,6.39484,0.0],[2.4509,6.39489,0.0],[2.45094,6.39491,0.0],[2.45099,6.39491,0.0],[2.45103,6.39488,0.0],[2.45107,6.39485,0.0],[2.45109,6.39483,0.0],[2.4511,6.3948,0.0],[2.45107,6.39468,0.0],[2.45108,6.39463,0.0],[2.45112,6.39457,0.0],[2.45117,6.39454,0.0],[2.45125,6.3945,0.0],[2.45131,6.39451,0.0],[2.45139,6.39454,0.0],[2.45146,6.39459,0.0],[2.45151,6.39463,0.0],[2.45152,6.39466,0.0],[2.45153,6.39469,0.0],[2.45153,6.39473,0.0],[2.45153,6.39476,0.0],[2.45153,6.39478,0.0],[2.45155,6.39478,0.0],[2.45158,6.39478,0.0],[2.45169,6.39477,0.0],[2.45173,6.39477,0.0],[2.45175,6.39478,0.0],[2.45176,6.39481,0.0],[2.45177,6.39483,0.0],[2.45178,6.39506,0.0],[2.45179,6.39507,0.0],[2.4518,6.39508,0.0],[2.45181,6.39506,0.0],[2.45183,6.39496,0.0],[2.45183,6.39491,0.0],[2.45183,6.39488,0.0],[2.45183,6.39486,0.0],[2.45183,6.39485,0.0],[2.45186,6.39485,0.0],[2.45193,6.39484,0.0],[2.45197,6.39484,0.0],[2.45198,6.39482,0.0],[2.45199,6.3948,0.0],[2.45199,6.39477,0.0],[2.45197,6.39465,0.0],[2.45196,6.39465,0.0],[2.45195,6.39465,0.0],[2.45183,6.39466,0.0],[2.45182,6.39465,0.0],[2.45182,6.39464,0.0],[2.45182,6.3946,0.0],[2.45182,6.39449,0.0],[2.45182,6.39438,0.0],[2.45186,6.39436,0.0],[2.45189,6.39437,0.0],[2.45192,6.39439,0.0],[2.45194,6.39442,0.0],[2.45197,6.39448,0.0],[2.45199,6.3945,0.0],[2.45207,6.39451,0.0],[2.45212,6.39451,0.0],[2.45214,6.3945,0.0],[2.45216,6.39449,0.0],[2.45219,6.39443,0.0],[2.45222,6.39437,0.0],[2.45226,6.39422,0.0],[2.45231,6.39418,0.0],[2.45238,6.39415,0.0],[2.45247,6.39412,0.0],[2.45253,6.39412,0.0],[2.45257,6.39413,0.0],[2.45265,6.39421,0.0],[2.45271,6.39425,0.0],[2.45278,6.39428,0.0],[2.45286,6.39432,0.0],[2.45292,6.39438,0.0],[2.45294,6.39442,0.0],[2.45296,6.39446,0.0],[2.45296,6.39451,0.0],[2.45297,6.39454,0.0],[2.45299,6.39456,0.0],[2.45301,6.39456,0.0],[2.45308,6.39456,0.0],[2.45309,6.39457,0.0],[2.45309,6.39457,0.0],[2.4531,6.39461,0.0],[2.4531,6.39472,0.0],[2.45311,6.39473,0.0],[2.45312,6.39474,0.0],[2.45314,6.39473,0.0],[2.45314,6.39471,0.0],[2.45314,6.39459,0.0],[2.45314,6.39453,0.0],[2.45314,6.39452,0.0],[2.45314,6.3943,0.0],[2.45314,6.39426,0.0],[2.45318,6.39423,0.0],[2.45324,6.39422,0.0],[2.4533,6.39421,0.0],[2.45332,6.39418,0.0],[2.45333,6.3941,0.0],[2.45332,6.39407,0.0],[2.45317,6.39406,0.0],[2.45314,6.39404,0.0],[2.45312,6.39402,0.0],[2.4531,6.39391,0.0],[2.45311,6.39384,0.0],[2.45311,6.39383,0.0],[2.45324,6.39382,0.0],[2.4533,6.39383,0.0],[2.45337,6.39386,0.0],[2.4534,6.39389,0.0],[2.45343,6.39392,0.0],[2.45346,6.39394,0.0],[2.4535,6.39395,0.0],[2.45354,6.39395,0.0],[2.45356,6.39395,0.0],[2.45358,6.39394,0.0],[2.45361,6.39394,0.0],[2.45363,6.39397,0.0],[2.45365,6.39419,0.0],[2.45368,6.3942,0.0],[2.45368,6.39426,0.0],[2.45372,6.39432,0.0],[2.45374,6.39434,0.0],[2.45378,6.39436,0.0],[2.45414,6.39441,0.0],[2.45418,6.39442,0.0],[2.4542,6.39443,0.0],[2.45421,6.39445,0.0],[2.45422,6.39448,0.0],[2.45422,6.39449,0.0],[2.45419,6.3945,0.0],[2.45416,6.39451,0.0],[2.45415,6.39452,0.0],[2.45415,6.39453,0.0],[2.45416,6.39454,0.0],[2.45417,6.39455,0.0],[2.45424,6.39456,0.0],[2.45428,6.39456,0.0],[2.45429,6.39457,0.0],[2.4543,6.39461,0.0],[2.45429,6.39464,0.0],[2.4543,6.39465,0.0],[2.45432,6.39465,0.0],[2.45433,6.39465,0.0],[2.45434,6.39463,0.0],[2.45435,6.3946,0.0],[2.45434,6.39453,0.0],[2.45434,6.39451,0.0],[2.45434,6.39451,0.0],[2.45435,6.3945,0.0],[2.45456,6.39444,0.0],[2.45468,6.39444,0.0],[2.45472,6.39446,0.0],[2.45478,6.3945,0.0],[2.4548,6.39452,0.0],[2.45482,6.39452,0.0],[2.45483,6.39452,0.0],[2.45482,6.39447,0.0],[2.45482,6.3944,0.0],[2.45482,6.39436,0.0],[2.45483,6.3943,0.0],[2.45486,6.39426,0.0],[2.45489,6.39425,0.0],[2.45494,6.39425,0.0],[2.45498,6.39426,0.0],[2.455,6.39429,0.0],[2.45501,6.39432,0.0],[2.45502,6.39436,0.0],[2.45503,6.39438,0.0],[2.45505,6.3944,0.0],[2.45509,6.3944,0.0],[2.45514,6.3944,0.0],[2.45523,6.39438,0.0],[2.45527,6.39434,0.0],[2.45531,6.3943,0.0],[2.45534,6.39427,0.0],[2.45541,6.39424,0.0],[2.45546,6.39423,0.0],[2.45552,6.39419,0.0],[2.45562,6.39411,0.0],[2.45566,6.39409,0.0],[2.45569,6.39406,0.0],[2.45573,6.394,0.0],[2.45577,6.39397,0.0],[2.45585,6.39396,0.0],[2.45595,6.39395,0.0],[2.456,6.39395,0.0],[2.45606,6.39397,0.0],[2.4561,6.394,0.0],[2.45614,6.39405,0.0],[2.45619,6.39408,0.0],[2.4562,6.3941,0.0],[2.45622,6.39413,0.0],[2.45623,6.39416,0.0],[2.45622,6.39421,0.0],[2.45621,6.39426,0.0],[2.45618,6.39431,0.0],[2.45617,6.39432,0.0],[2.45617,6.39433,0.0],[2.45618,6.39434,0.0],[2.45619,6.39435,0.0],[2.4562,6.39435,0.0],[2.45621,6.39435,0.0],[2.45623,6.39434,0.0],[2.45625,6.39433,0.0],[2.45628,6.39428,0.0],[2.45629,6.39425,0.0],[2.45629,6.3942,0.0],[2.45628,6.39418,0.0],[2.4563,6.39416,0.0],[2.45632,6.39416,0.0],[2.45636,6.39417,0.0],[2.45638,6.39417,0.0],[2.45639,6.39415,0.0],[2.4564,6.39413,0.0],[2.45639,6.39412,0.0],[2.45638,6.39411,0.0],[2.45631,6.3941,0.0],[2.45629,6.39408,0.0],[2.45629,6.39405,0.0],[2.45629,6.39403,0.0],[2.4563,6.394,0.0],[2.45633,6.394,0.0],[2.45643,6.39399,0.0],[2.45646,6.39398,0.0],[2.45647,6.39396,0.0],[2.45647,6.39392,0.0],[2.45649,6.39389,0.0],[2.4565,6.39389,0.0],[2.45654,6.3939,0.0],[2.4566,6.39393,0.0],[2.45664,6.39394,0.0],[2.45669,6.39396,0.0],[2.45672,6.39396,0.0],[2.45674,6.39396,0.0],[2.45675,6.39391,0.0],[2.45672,6.39381,0.0],[2.45672,6.39374,0.0],[2.45673,6.39372,0.0],[2.45678,6.3937,0.0],[2.45696,6.39372,0.0],[2.45703,6.39371,0.0],[2.45709,6.39374,0.0],[2.45713,6.39379,0.0],[2.45715,6.39383,0.0],[2.45719,6.39401,0.0],[2.45721,6.39407,0.0],[2.45725,6.39411,0.0],[2.45733,6.39414,0.0],[2.45741,6.3942,0.0],[2.45745,6.3943,0.0],[2.45747,6.39436,0.0],[2.4575,6.39437,0.0],[2.45754,6.39437,0.0],[2.45756,6.39437,0.0],[2.4576,6.39435,0.0],[2.45763,6.39433,0.0],[2.45766,6.39423,0.0],[2.4577,6.39414,0.0],[2.45774,6.39408,0.0],[2.45782,6.39401,0.0],[2.45816,6.39395,0.0],[2.45828,6.39394,0.0],[2.45842,6.39393,0.0],[2.4586,6.39386,0.0],[2.4588,6.39382,0.0],[2.45884,6.39385,0.0],[2.45897,6.39381,0.0],[2.45897,6.39372,0.0],[2.45892,6.39364,0.0],[2.45891,6.3936,0.0],[2.45892,6.39358,0.0],[2.45901,6.39355,0.0],[2.45923,6.39354,0.0],[2.45924,6.39362,0.0],[2.45927,6.39362,0.0],[2.45929,6.39357,0.0],[2.45934,6.39362,0.0],[2.45953,6.3936,0.0],[2.45954,6.39347,0.0],[2.45954,6.39338,0.0],[2.45954,6.39333,0.0],[2.45956,6.3933,0.0],[2.45961,6.39328,0.0],[2.45965,6.39328,0.0],[2.45971,6.39331,0.0],[2.45975,6.39334,0.0],[2.45978,6.39335,0.0],[2.4598,6.39334,0.0],[2.45985,6.39331,0.0],[2.45991,6.39327,0.0],[2.45998,6.39321,0.0],[2.46002,6.39318,0.0],[2.46003,6.39312,0.0],[2.46014,6.39314,0.0],[2.46018,6.39318,0.0],[2.46021,6.39321,0.0],[2.46025,6.39323,0.0],[2.46027,6.39324,0.0],[2.46031,6.39322,0.0],[2.46035,6.39321,0.0],[2.46038,6.39322,0.0],[2.46039,6.39324,0.0],[2.46039,6.39327,0.0],[2.46039,6.39329,0.0],[2.46037,6.39331,0.0],[2.46034,6.39332,0.0],[2.46032,6.39332,0.0],[2.46031,6.39332,0.0],[2.46031,6.39334,0.0],[2.4603,6.39336,0.0],[2.46031,6.39342,0.0],[2.46032,6.39351,0.0],[2.46034,6.39356,0.0],[2.46038,6.39359,0.0],[2.46044,6.3936,0.0],[2.46058,6.3936,0.0],[2.46069,6.39357,0.0],[2.46075,6.39352,0.0],[2.46077,6.39357,0.0],[2.46097,6.39355,0.0],[2.46097,6.3935,0.0],[2.46108,6.39348,0.0],[2.46112,6.39347,0.0],[2.46115,6.39345,0.0],[2.4612,6.39338,0.0],[2.46123,6.39331,0.0],[2.46124,6.3932,0.0],[2.46124,6.39313,0.0],[2.46125,6.39309,0.0],[2.46126,6.39306,0.0],[2.46127,6.39304,0.0],[2.46134,6.39301,0.0],[2.46148,6.39299,0.0],[2.4616,6.39301,0.0],[2.46164,6.39307,0.0],[2.46166,6.39306,0.0],[2.46166,6.39303,0.0],[2.46165,6.39294,0.0],[2.46168,6.39283,0.0],[2.46172,6.39274,0.0],[2.46172,6.39265,0.0],[2.46188,6.39264,0.0],[2.46189,6.39292,0.0],[2.46199,6.39293,0.0],[2.46208,6.39291,0.0],[2.46219,6.39289,0.0],[2.46227,6.39286,0.0],[2.46237,6.39281,0.0]]]]}},{"type":"Feature","properties":{"uesi_id":"BEN_R2851879","nbhd_code":"BEN_R2851879_12","nbhd_name":"3\u00e8me Arrondissement"},"geometry":{"type":"MultiPolygon","coordinates":[[[[2.43753,6.39005,0.0],[2.43759,6.39017,0.0],[2.4376,6.39023,0.0],[2.43766,6.39024,0.0],[2.43766,6.3903,0.0],[2.43766,6.39033,0.0],[2.43767,6.39035,0.0],[2.43769,6.39036,0.0],[2.43771,6.39036,0.0],[2.43773,6.39035,0.0],[2.43775,6.39033,0.0],[2.43777,6.39032,0.0],[2.4378,6.39031,0.0],[2.43782,6.39031,0.0],[2.43784,6.39032,0.0],[2.43786,6.39035,0.0],[2.43787,6.39038,0.0],[2.43786,6.39043,0.0],[2.43785,6.39046,0.0],[2.43785,6.39049,0.0],[2.43786,6.39051,0.0],[2.43788,6.39051,0.0],[2.43789,6.39051,0.0],[2.43791,6.3905,0.0],[2.43793,6.39049,0.0],[2.43794,6.39048,0.0],[2.43795,6.39048,0.0],[2.43797,6.39049,0.0],[2.43798,6.3905,0.0],[2.43802,6.39053,0.0],[2.43803,6.39055,0.0],[2.43804,6.39056,0.0],[2.43804,6.39059,0.0],[2.43804,6.39061,0.0],[2.43806,6.39063,0.0],[2.43808,6.39064,0.0],[2.4381,6.39064,0.0],[2.43812,6.39063,0.0],[2.43815,6.39062,0.0],[2.43816,6.39061,0.0],[2.43817,6.39061,0.0],[2.43818,6.39061,0.0],[2.43819,6.39061,0.0],[2.43819,6.39062,0.0],[2.43819,6.39063,0.0],[2.43819,6.39065,0.0],[2.43818,6.39066,0.0],[2.43818,6.39069,0.0],[2.43818,6.39071,0.0],[2.43818,6.39073,0.0],[2.43818,6.39075,0.0],[2.4382,6.39077,0.0],[2.43821,6.39078,0.0],[2.43823,6.39079,0.0],[2.43824,6.3908,0.0],[2.43825,6.3908,0.0],[2.43826,6.3908,0.0],[2.43827,6.39079,0.0],[2.43828,6.39078,0.0],[2.43829,6.39077,0.0],[2.43829,6.39076,0.0],[2.43828,6.39074,0.0],[2.43827,6.39073,0.0],[2.43825,6.39071,0.0],[2.43824,6.3907,0.0],[2.43824,6.3907,0.0],[2.43824,6.39069,0.0],[2.43825,6.39067,0.0],[2.43827,6.39066,0.0],[2.4383,6.39063,0.0],[2.43832,6.39062,0.0],[2.43833,6.39061,0.0],[2.43834,6.39062,0.0],[2.43836,6.39062,0.0],[2.43838,6.39063,0.0],[2.4384,6.39065,0.0],[2.43842,6.39067,0.0],[2.43844,6.39069,0.0],[2.43845,6.3907,0.0],[2.43847,6.3907,0.0],[2.4385,6.3907,0.0],[2.43851,6.3907,0.0],[2.43853,6.39068,0.0],[2.43856,6.39065,0.0],[2.43858,6.39064,0.0],[2.43861,6.39063,0.0],[2.43864,6.39063,0.0],[2.43866,6.39065,0.0],[2.43869,6.39069,0.0],[2.43871,6.39075,0.0],[2.43873,6.39085,0.0],[2.43876,6.39098,0.0],[2.43876,6.39108,0.0],[2.43875,6.39116,0.0],[2.43873,6.39122,0.0],[2.43869,6.39134,0.0],[2.43869,6.39138,0.0],[2.43868,6.39144,0.0],[2.4387,6.39148,0.0],[2.43873,6.39151,0.0],[2.43878,6.39154,0.0],[2.43885,6.39156,0.0],[2.43887,6.39157,0.0],[2.43888,6.39159,0.0],[2.4389,6.39161,0.0],[2.43892,6.39161,0.0],[2.43895,6.39161,0.0],[2.43899,6.3916,0.0],[2.43901,6.3916,0.0],[2.43903,6.39161,0.0],[2.43905,6.39163,0.0],[2.43906,6.39165,0.0],[2.43906,6.39167,0.0],[2.43906,6.39169,0.0],[2.43904,6.39171,0.0],[2.43902,6.39172,0.0],[2.43901,6.39173,0.0],[2.43901,6.39175,0.0],[2.439,6.39176,0.0],[2.439,6.3918,0.0],[2.43899,6.39182,0.0],[2.43898,6.39183,0.0],[2.43896,6.39184,0.0],[2.43892,6.39185,0.0],[2.43891,6.39186,0.0],[2.4389,6.39187,0.0],[2.4389,6.39188,0.0],[2.4389,6.39189,0.0],[2.4389,6.39192,0.0],[2.4389,6.39194,0.0],[2.4389,6.39195,0.0],[2.43889,6.39196,0.0],[2.43888,6.39197,0.0],[2.43888,6.39199,0.0],[2.43888,6.392,0.0],[2.43888,6.39201,0.0],[2.43889,6.39202,0.0],[2.4389,6.39202,0.0],[2.43891,6.39202,0.0],[2.43893,6.39201,0.0],[2.43895,6.39201,0.0],[2.43896,6.392,0.0],[2.43897,6.39201,0.0],[2.43897,6.39201,0.0],[2.43898,6.39202,0.0],[2.43898,6.39202,0.0],[2.43899,6.39203,0.0],[2.43899,6.39203,0.0],[2.43899,6.39204,0.0],[2.43899,6.39204,0.0],[2.439,6.39204,0.0],[2.43906,6.39204,0.0],[2.43906,6.39204,0.0],[2.43907,6.39203,0.0],[2.43907,6.39202,0.0],[2.43907,6.392,0.0],[2.43907,6.39197,0.0],[2.43907,6.39197,0.0],[2.43908,6.39196,0.0],[2.43909,6.39196,0.0],[2.43911,6.39195,0.0],[2.43914,6.39196,0.0],[2.43917,6.39196,0.0],[2.43919,6.39198,0.0],[2.43919,6.39199,0.0],[2.43919,6.39201,0.0],[2.43918,6.39203,0.0],[2.43916,6.39204,0.0],[2.43913,6.39204,0.0],[2.43912,6.39205,0.0],[2.4391,6.39206,0.0],[2.4391,6.39208,0.0],[2.4391,6.3921,0.0],[2.43909,6.3921,0.0],[2.43909,6.39211,0.0],[2.43908,6.39211,0.0],[2.43907,6.39211,0.0],[2.43907,6.39212,0.0],[2.43907,6.39213,0.0],[2.43907,6.39213,0.0],[2.43907,6.39214,0.0],[2.43907,6.39214,0.0],[2.43908,6.39215,0.0],[2.43908,6.39216,0.0],[2.43909,6.39217,0.0],[2.43909,6.39218,0.0],[2.43909,6.39219,0.0],[2.43908,6.3922,0.0],[2.43907,6.3922,0.0],[2.43905,6.39221,0.0],[2.43902,6.39221,0.0],[2.43901,6.39221,0.0],[2.439,6.39222,0.0],[2.439,6.39223,0.0],[2.439,6.39225,0.0],[2.439,6.39228,0.0],[2.439,6.39229,0.0],[2.43901,6.39229,0.0],[2.43902,6.39229,0.0],[2.43906,6.39229,0.0],[2.43908,6.3923,0.0],[2.4391,6.3923,0.0],[2.43912,6.39231,0.0],[2.43913,6.39232,0.0],[2.43913,6.39233,0.0],[2.43914,6.39233,0.0],[2.43916,6.39233,0.0],[2.43918,6.39233,0.0],[2.4392,6.39233,0.0],[2.43921,6.39232,0.0],[2.43922,6.39232,0.0],[2.43923,6.39231,0.0],[2.43925,6.3923,0.0],[2.43926,6.39229,0.0],[2.43929,6.39229,0.0],[2.43934,6.39229,0.0],[2.43937,6.3923,0.0],[2.43941,6.39233,0.0],[2.43943,6.39236,0.0],[2.43943,6.39238,0.0],[2.43944,6.39241,0.0],[2.43943,6.39244,0.0],[2.43943,6.39247,0.0],[2.43943,6.39251,0.0],[2.43944,6.39253,0.0],[2.43944,6.39257,0.0],[2.4394,6.39262,0.0],[2.43939,6.3927,0.0],[2.4394,6.39276,0.0],[2.4394,6.39278,0.0],[2.43941,6.39282,0.0],[2.43942,6.39283,0.0],[2.43946,6.39287,0.0],[2.43948,6.39288,0.0],[2.43951,6.39289,0.0],[2.43953,6.39289,0.0],[2.43954,6.39289,0.0],[2.43958,6.39288,0.0],[2.43964,6.39288,0.0],[2.43971,6.39288,0.0],[2.43985,6.39288,0.0],[2.43987,6.39288,0.0],[2.43989,6.39289,0.0],[2.4399,6.39291,0.0],[2.43991,6.39294,0.0],[2.43992,6.39299,0.0],[2.43993,6.39304,0.0],[2.43994,6.39307,0.0],[2.43994,6.39309,0.0],[2.43992,6.3931,0.0],[2.43988,6.39312,0.0],[2.43982,6.39313,0.0],[2.43976,6.39313,0.0],[2.43973,6.39311,0.0],[2.43971,6.3931,0.0],[2.43968,6.39308,0.0],[2.43966,6.39307,0.0],[2.43964,6.39308,0.0],[2.4396,6.39311,0.0],[2.43959,6.39312,0.0],[2.43959,6.39314,0.0],[2.43959,6.39314,0.0],[2.4396,6.39316,0.0],[2.4396,6.39317,0.0],[2.43962,6.39318,0.0],[2.43963,6.39319,0.0],[2.43966,6.39318,0.0],[2.43969,6.39317,0.0],[2.43972,6.39317,0.0],[2.43973,6.39318,0.0],[2.43973,6.3932,0.0],[2.43973,6.39324,0.0],[2.43973,6.39326,0.0],[2.43974,6.39328,0.0],[2.43975,6.39329,0.0],[2.43976,6.3933,0.0],[2.43978,6.39331,0.0],[2.4398,6.3933,0.0],[2.43982,6.39329,0.0],[2.43984,6.39329,0.0],[2.43986,6.39329,0.0],[2.43987,6.39331,0.0],[2.43988,6.39334,0.0],[2.43988,6.39335,0.0],[2.4399,6.39342,0.0],[2.43994,6.39346,0.0],[2.43997,6.39349,0.0],[2.44001,6.39352,0.0],[2.44003,6.39356,0.0],[2.44004,6.39359,0.0],[2.44006,6.39365,0.0],[2.44009,6.39372,0.0],[2.44012,6.39379,0.0],[2.44013,6.39384,0.0],[2.44015,6.39386,0.0],[2.44016,6.3939,0.0],[2.4402,6.39393,0.0],[2.44021,6.39394,0.0],[2.44023,6.39396,0.0],[2.44024,6.39397,0.0],[2.44024,6.394,0.0],[2.44025,6.39401,0.0],[2.44025,6.39403,0.0],[2.44027,6.39404,0.0],[2.44045,6.39404,0.0],[2.44057,6.39404,0.0],[2.44061,6.39407,0.0],[2.44064,6.39413,0.0],[2.44065,6.39416,0.0],[2.44067,6.39419,0.0],[2.44069,6.39421,0.0],[2.44069,6.39421,0.0],[2.44073,6.39423,0.0],[2.44075,6.39423,0.0],[2.44076,6.39425,0.0],[2.44077,6.39428,0.0],[2.44077,6.3943,0.0],[2.44078,6.39432,0.0],[2.44079,6.39435,0.0],[2.44081,6.39442,0.0],[2.44081,6.39444,0.0],[2.4408,6.39447,0.0],[2.44079,6.39449,0.0],[2.44078,6.39452,0.0],[2.44076,6.39457,0.0],[2.44074,6.39466,0.0],[2.44074,6.39473,0.0],[2.44077,6.3948,0.0],[2.44079,6.39485,0.0],[2.44082,6.39493,0.0],[2.44082,6.395,0.0],[2.44081,6.39509,0.0],[2.44078,6.39517,0.0],[2.44075,6.39523,0.0],[2.44073,6.39529,0.0],[2.44069,6.39535,0.0],[2.44069,6.39538,0.0],[2.44069,6.39541,0.0],[2.44071,6.39546,0.0],[2.44074,6.3955,0.0],[2.44077,6.39551,0.0],[2.44082,6.39552,0.0],[2.44086,6.39556,0.0],[2.4409,6.39563,0.0],[2.441,6.3957,0.0],[2.44107,6.39573,0.0],[2.44112,6.39574,0.0],[2.44116,6.39576,0.0],[2.44142,6.39591,0.0],[2.44157,6.39597,0.0],[2.44166,6.39602,0.0],[2.44172,6.39608,0.0],[2.44175,6.39615,0.0],[2.44178,6.39623,0.0],[2.44181,6.39627,0.0],[2.44184,6.39632,0.0],[2.44187,6.39632,0.0],[2.44194,6.3963,0.0],[2.44203,6.39627,0.0],[2.44225,6.39625,0.0],[2.44241,6.39628,0.0],[2.44249,6.39629,0.0],[2.4426,6.39631,0.0],[2.4431,6.39646,0.0],[2.44316,6.39651,0.0],[2.44319,6.39662,0.0],[2.4432,6.39674,0.0],[2.44319,6.39689,0.0],[2.44319,6.39697,0.0],[2.44321,6.39699,0.0],[2.44322,6.39702,0.0],[2.44326,6.39703,0.0],[2.44328,6.39703,0.0],[2.44331,6.39703,0.0],[2.44336,6.39696,0.0],[2.44343,6.39688,0.0],[2.4435,6.39677,0.0],[2.44358,6.39666,0.0],[2.44366,6.39663,0.0],[2.44374,6.39662,0.0],[2.44379,6.39665,0.0],[2.44384,6.3967,0.0],[2.44388,6.39673,0.0],[2.44392,6.39677,0.0],[2.44399,6.39678,0.0],[2.44405,6.39675,0.0],[2.44408,6.39673,0.0],[2.44414,6.39668,0.0],[2.44423,6.39664,0.0],[2.44432,6.39663,0.0],[2.44434,6.39665,0.0],[2.44438,6.3967,0.0],[2.44443,6.3968,0.0],[2.44445,6.39679,0.0],[2.44445,6.39673,0.0],[2.44473,6.39671,0.0],[2.44473,6.39683,0.0],[2.44474,6.39687,0.0],[2.44478,6.39688,0.0],[2.44482,6.39687,0.0],[2.44485,6.39685,0.0],[2.44487,6.39681,0.0],[2.4449,6.39674,0.0],[2.44493,6.39663,0.0],[2.44495,6.39658,0.0],[2.44498,6.39654,0.0],[2.44503,6.39653,0.0],[2.44509,6.39653,0.0],[2.44515,6.39652,0.0],[2.44517,6.39664,0.0],[2.44522,6.39665,0.0],[2.44532,6.39663,0.0],[2.44534,6.39662,0.0],[2.44537,6.3967,0.0],[2.44543,6.3967,0.0],[2.44544,6.39673,0.0],[2.44546,6.39675,0.0],[2.44549,6.39675,0.0],[2.4455,6.39678,0.0],[2.44555,6.39678,0.0],[2.44557,6.39677,0.0],[2.4456,6.39675,0.0],[2.44564,6.39672,0.0],[2.44571,6.39669,0.0],[2.44576,6.39667,0.0],[2.44577,6.39665,0.0],[2.44576,6.39662,0.0],[2.44574,6.3966,0.0],[2.44571,6.39658,0.0],[2.44563,6.39655,0.0],[2.44561,6.39652,0.0],[2.44562,6.39649,0.0],[2.44565,6.39647,0.0],[2.44568,6.39642,0.0],[2.4457,6.39639,0.0],[2.44569,6.39637,0.0],[2.44567,6.39635,0.0],[2.44565,6.39635,0.0],[2.44558,6.39638,0.0],[2.4455,6.3964,0.0],[2.44547,6.3964,0.0],[2.44545,6.39639,0.0],[2.44544,6.39637,0.0],[2.44544,6.39635,0.0],[2.44545,6.39634,0.0],[2.44569,6.39624,0.0],[2.44567,6.39619,0.0],[2.4458,6.39614,0.0],[2.44589,6.39612,0.0],[2.44591,6.39614,0.0],[2.44592,6.39616,0.0],[2.44593,6.39619,0.0],[2.44595,6.39623,0.0],[2.44597,6.39629,0.0],[2.44597,6.39629,0.0],[2.44598,6.3963,0.0],[2.446,6.39629,0.0],[2.44602,6.39629,0.0],[2.44603,6.39628,0.0],[2.44604,6.39626,0.0],[2.44604,6.39624,0.0],[2.44604,6.39621,0.0],[2.44604,6.39619,0.0],[2.44602,6.39613,0.0],[2.44603,6.39611,0.0],[2.44604,6.39607,0.0],[2.44606,6.39605,0.0],[2.44617,6.39604,0.0],[2.44635,6.39602,0.0],[2.44644,6.39603,0.0],[2.44647,6.39604,0.0],[2.4465,6.39607,0.0],[2.44652,6.39621,0.0],[2.44653,6.39625,0.0],[2.44653,6.39629,0.0],[2.44655,6.39631,0.0],[2.44659,6.39632,0.0],[2.44661,6.39631,0.0],[2.44664,6.39631,0.0],[2.44666,6.39629,0.0],[2.44667,6.3963,0.0],[2.44668,6.3963,0.0],[2.4467,6.39634,0.0],[2.44671,6.39634,0.0],[2.44673,6.39634,0.0],[2.44687,6.39633,0.0],[2.44691,6.39633,0.0],[2.44693,6.39632,0.0],[2.44693,6.3963,0.0],[2.44693,6.39627,0.0],[2.44692,6.39626,0.0],[2.44691,6.39625,0.0],[2.44689,6.39626,0.0],[2.4468,6.39627,0.0],[2.44676,6.39627,0.0],[2.44673,6.39626,0.0],[2.44672,6.39623,0.0],[2.44673,6.39621,0.0],[2.44675,6.39618,0.0],[2.44677,6.39616,0.0],[2.44677,6.39611,0.0],[2.44677,6.396,0.0],[2.44679,6.39595,0.0],[2.44677,6.39583,0.0],[2.44681,6.39579,0.0],[2.4468,6.39573,0.0],[2.4467,6.39574,0.0],[2.44669,6.3957,0.0],[2.44673,6.39567,0.0],[2.44673,6.39559,0.0],[2.4468,6.39557,0.0],[2.44682,6.39552,0.0],[2.4469,6.39549,0.0],[2.44699,6.39548,0.0],[2.44716,6.39546,0.0],[2.44713,6.39302,0.0],[2.44857,6.39315,0.0],[2.4497,6.39313,0.0],[2.45034,6.3929,0.0],[2.45078,6.39194,0.0],[2.45103,6.39084,0.0],[2.45078,6.3859,0.0],[2.4506,6.37517,0.0],[2.4516,6.37514,0.0],[2.45173,6.37189,0.0],[2.44691,6.37188,0.0],[2.44206,6.37182,0.0],[2.44092,6.37178,0.0],[2.43854,6.37135,0.0],[2.43851,6.37144,0.0],[2.43849,6.37148,0.0],[2.43848,6.37152,0.0],[2.43848,6.37155,0.0],[2.43848,6.37161,0.0],[2.43847,6.37168,0.0],[2.43846,6.37178,0.0],[2.43844,6.3719,0.0],[2.4384,6.37208,0.0],[2.43836,6.37227,0.0],[2.43834,6.37236,0.0],[2.43832,6.37241,0.0],[2.43832,6.37245,0.0],[2.43832,6.37247,0.0],[2.43836,6.37253,0.0],[2.43837,6.37256,0.0],[2.43837,6.37259,0.0],[2.43836,6.37262,0.0],[2.43833,6.37266,0.0],[2.43829,6.37272,0.0],[2.43827,6.37264,0.0],[2.43823,6.37274,0.0],[2.43815,6.37299,0.0],[2.43812,6.37317,0.0],[2.43809,6.37327,0.0],[2.43806,6.37336,0.0],[2.43807,6.37351,0.0],[2.43811,6.37356,0.0],[2.43812,6.37367,0.0],[2.43811,6.37379,0.0],[2.4381,6.3739,0.0],[2.4381,6.37399,0.0],[2.4381,6.37406,0.0],[2.43818,6.37401,0.0],[2.43818,6.37405,0.0],[2.43817,6.37408,0.0],[2.43815,6.37411,0.0],[2.43813,6.37416,0.0],[2.43812,6.37422,0.0],[2.43812,6.37433,0.0],[2.43811,6.37439,0.0],[2.43808,6.37448,0.0],[2.43806,6.37453,0.0],[2.43803,6.3746,0.0],[2.43801,6.37467,0.0],[2.438,6.37475,0.0],[2.43798,6.37482,0.0],[2.43797,6.3749,0.0],[2.43797,6.37507,0.0],[2.43798,6.37528,0.0],[2.43797,6.37542,0.0],[2.43795,6.37555,0.0],[2.43795,6.37567,0.0],[2.43796,6.3758,0.0],[2.43789,6.37606,0.0],[2.4379,6.3762,0.0],[2.43791,6.37635,0.0],[2.43793,6.37642,0.0],[2.43796,6.3765,0.0],[2.43799,6.37657,0.0],[2.43801,6.37663,0.0],[2.43799,6.37711,0.0],[2.43798,6.3772,0.0],[2.43799,6.37726,0.0],[2.43802,6.37733,0.0],[2.43806,6.3774,0.0],[2.4381,6.37744,0.0],[2.43816,6.37748,0.0],[2.43826,6.37753,0.0],[2.43836,6.37755,0.0],[2.43842,6.37755,0.0],[2.43847,6.37756,0.0],[2.43852,6.3776,0.0],[2.43854,6.37763,0.0],[2.43857,6.37769,0.0],[2.4386,6.37774,0.0],[2.43859,6.37779,0.0],[2.43858,6.37784,0.0],[2.43855,6.37788,0.0],[2.43851,6.37791,0.0],[2.43846,6.37793,0.0],[2.43843,6.37796,0.0],[2.4384,6.37802,0.0],[2.43839,6.37807,0.0],[2.43839,6.37812,0.0],[2.43843,6.37824,0.0],[2.43845,6.37834,0.0],[2.43845,6.37846,0.0],[2.43844,6.37857,0.0],[2.43841,6.37868,0.0],[2.43837,6.37883,0.0],[2.43829,6.37902,0.0],[2.43818,6.37925,0.0],[2.43812,6.37936,0.0],[2.43804,6.37947,0.0],[2.43796,6.37956,0.0],[2.43791,6.37964,0.0],[2.43787,6.37972,0.0],[2.43786,6.37976,0.0],[2.43785,6.3798,0.0],[2.43785,6.37987,0.0],[2.43782,6.37999,0.0],[2.43777,6.38022,0.0],[2.43781,6.38028,0.0],[2.43772,6.38029,0.0],[2.43772,6.38036,0.0],[2.4376,6.38047,0.0],[2.43748,6.3806,0.0],[2.43738,6.38073,0.0],[2.43733,6.38083,0.0],[2.4373,6.38094,0.0],[2.4373,6.38108,0.0],[2.4373,6.38117,0.0],[2.43729,6.38127,0.0],[2.43725,6.38139,0.0],[2.43722,6.3815,0.0],[2.43718,6.38163,0.0],[2.43715,6.3818,0.0],[2.43713,6.38195,0.0],[2.43714,6.38211,0.0],[2.43716,6.38222,0.0],[2.4372,6.38237,0.0],[2.43723,6.38246,0.0],[2.43725,6.38256,0.0],[2.43727,6.38271,0.0],[2.43728,6.38291,0.0],[2.43729,6.38307,0.0],[2.43729,6.38323,0.0],[2.4373,6.38333,0.0],[2.43733,6.38344,0.0],[2.43736,6.38358,0.0],[2.43739,6.38373,0.0],[2.4374,6.38392,0.0],[2.43733,6.38394,0.0],[2.43733,6.384,0.0],[2.43734,6.38423,0.0],[2.43742,6.38422,0.0],[2.43742,6.38438,0.0],[2.43742,6.38454,0.0],[2.4374,6.3847,0.0],[2.4374,6.38487,0.0],[2.43742,6.38507,0.0],[2.43746,6.38537,0.0],[2.43751,6.38558,0.0],[2.43755,6.3857,0.0],[2.43756,6.38576,0.0],[2.43756,6.38585,0.0],[2.43755,6.38594,0.0],[2.43756,6.38604,0.0],[2.43758,6.38612,0.0],[2.43761,6.38619,0.0],[2.43763,6.38623,0.0],[2.43763,6.38629,0.0],[2.43761,6.38638,0.0],[2.4376,6.38646,0.0],[2.43761,6.38661,0.0],[2.43764,6.38667,0.0],[2.43763,6.38675,0.0],[2.4376,6.38689,0.0],[2.43757,6.38706,0.0],[2.43756,6.38726,0.0],[2.43755,6.38742,0.0],[2.43753,6.3877,0.0],[2.43752,6.38794,0.0],[2.43752,6.3881,0.0],[2.43751,6.38828,0.0],[2.43751,6.38839,0.0],[2.43751,6.38851,0.0],[2.4375,6.38864,0.0],[2.43749,6.38885,0.0],[2.43747,6.38905,0.0],[2.43746,6.38922,0.0],[2.4374,6.38935,0.0],[2.4374,6.38939,0.0],[2.4374,6.38943,0.0],[2.43748,6.38944,0.0],[2.43746,6.38964,0.0],[2.43755,6.38967,0.0],[2.43754,6.38972,0.0],[2.43749,6.38971,0.0],[2.43747,6.38988,0.0],[2.43749,6.38993,0.0],[2.4375,6.38996,0.0],[2.43754,6.38996,0.0],[2.43756,6.38999,0.0],[2.43753,6.39005,0.0]]]]}},{"type":"Feature","properties":{"uesi_id":"BEN_R2851879","nbhd_code":"BEN_R2851879_13","nbhd_name":"4\u00e8me Arrondissement"},"geometry":{"type":"MultiPolygon","coordinates":[[[[2.43854,6.37135,0.0],[2.44092,6.37178,0.0],[2.44206,6.37182,0.0],[2.44691,6.37188,0.0],[2.45173,6.37189,0.0],[2.45985,6.3726,0.0],[2.46033,6.36663,0.0],[2.46097,6.3667,0.0],[2.4622,6.35433,0.0],[2.46172,6.35432,0.0],[2.46123,6.35436,0.0],[2.4609,6.35436,0.0],[2.46064,6.35436,0.0],[2.46041,6.35431,0.0],[2.45996,6.35414,0.0],[2.46004,6.35378,0.0],[2.46004,6.35372,0.0],[2.46004,6.35363,0.0],[2.46003,6.35357,0.0],[2.46001,6.35352,0.0],[2.45998,6.35348,0.0],[2.45994,6.35346,0.0],[2.4599,6.35346,0.0],[2.45985,6.35346,0.0],[2.45981,6.35347,0.0],[2.45977,6.35349,0.0],[2.45974,6.35353,0.0],[2.45972,6.35358,0.0],[2.45967,6.35367,0.0],[2.45959,6.35402,0.0],[2.4596,6.35406,0.0],[2.4596,6.35409,0.0],[2.45962,6.35414,0.0],[2.45963,6.35419,0.0],[2.45963,6.35426,0.0],[2.45894,6.35439,0.0],[2.45838,6.35445,0.0],[2.45789,6.35448,0.0],[2.45678,6.35455,0.0],[2.45572,6.35464,0.0],[2.45495,6.35469,0.0],[2.45397,6.35477,0.0],[2.45312,6.35484,0.0],[2.45271,6.35487,0.0],[2.45222,6.35487,0.0],[2.45138,6.35486,0.0],[2.4508,6.35485,0.0],[2.45027,6.35482,0.0],[2.45006,6.3548,0.0],[2.44985,6.35477,0.0],[2.44959,6.35471,0.0],[2.44844,6.35435,0.0],[2.44815,6.35427,0.0],[2.44747,6.35415,0.0],[2.44729,6.35411,0.0],[2.44677,6.354,0.0],[2.44656,6.35394,0.0],[2.44636,6.35386,0.0],[2.44622,6.35384,0.0],[2.44609,6.35385,0.0],[2.44599,6.35389,0.0],[2.44579,6.35401,0.0],[2.44556,6.35408,0.0],[2.44534,6.35407,0.0],[2.44511,6.35402,0.0],[2.44467,6.35387,0.0],[2.44447,6.35385,0.0],[2.44436,6.35386,0.0],[2.44426,6.3539,0.0],[2.44421,6.35393,0.0],[2.4442,6.35398,0.0],[2.44422,6.35403,0.0],[2.4443,6.3541,0.0],[2.44441,6.35414,0.0],[2.44452,6.35419,0.0],[2.44463,6.35426,0.0],[2.44472,6.35435,0.0],[2.4448,6.35444,0.0],[2.44487,6.35459,0.0],[2.44493,6.35474,0.0],[2.44499,6.35487,0.0],[2.44507,6.35497,0.0],[2.44517,6.35508,0.0],[2.44525,6.35516,0.0],[2.4453,6.35521,0.0],[2.44533,6.35529,0.0],[2.44534,6.35537,0.0],[2.44537,6.35546,0.0],[2.4454,6.35552,0.0],[2.44548,6.3556,0.0],[2.44558,6.35571,0.0],[2.44563,6.3558,0.0],[2.4457,6.35588,0.0],[2.44579,6.35597,0.0],[2.44591,6.35606,0.0],[2.44602,6.35616,0.0],[2.44612,6.35624,0.0],[2.44619,6.35628,0.0],[2.44629,6.35633,0.0],[2.44638,6.35637,0.0],[2.44643,6.3564,0.0],[2.44646,6.35641,0.0],[2.44648,6.35641,0.0],[2.4465,6.3564,0.0],[2.4465,6.35638,0.0],[2.44649,6.35635,0.0],[2.44648,6.35632,0.0],[2.44646,6.35629,0.0],[2.44642,6.35625,0.0],[2.44636,6.35621,0.0],[2.44632,6.35617,0.0],[2.44629,6.35614,0.0],[2.44624,6.35606,0.0],[2.4462,6.356,0.0],[2.44613,6.35586,0.0],[2.44601,6.35566,0.0],[2.44586,6.35543,0.0],[2.44584,6.35534,0.0],[2.44585,6.35528,0.0],[2.44588,6.35521,0.0],[2.44594,6.35516,0.0],[2.44601,6.35513,0.0],[2.44609,6.35511,0.0],[2.44616,6.35512,0.0],[2.44622,6.35515,0.0],[2.44629,6.35518,0.0],[2.44637,6.35523,0.0],[2.44643,6.35526,0.0],[2.44653,6.35529,0.0],[2.44662,6.3553,0.0],[2.44667,6.35532,0.0],[2.4467,6.35535,0.0],[2.44674,6.35541,0.0],[2.44676,6.35552,0.0],[2.44676,6.35558,0.0],[2.44673,6.35565,0.0],[2.4467,6.35571,0.0],[2.44668,6.35576,0.0],[2.44668,6.3558,0.0],[2.4467,6.35586,0.0],[2.44674,6.35592,0.0],[2.44679,6.35596,0.0],[2.44688,6.356,0.0],[2.44698,6.35603,0.0],[2.44717,6.35611,0.0],[2.4472,6.35614,0.0],[2.44722,6.35618,0.0],[2.44724,6.35623,0.0],[2.44724,6.35626,0.0],[2.44722,6.35637,0.0],[2.44719,6.35652,0.0],[2.44714,6.35671,0.0],[2.44711,6.35677,0.0],[2.44709,6.3568,0.0],[2.44704,6.35685,0.0],[2.44696,6.35693,0.0],[2.44694,6.35698,0.0],[2.44694,6.35703,0.0],[2.44695,6.3572,0.0],[2.44693,6.35726,0.0],[2.44692,6.3573,0.0],[2.44689,6.35733,0.0],[2.44686,6.35735,0.0],[2.44676,6.3574,0.0],[2.44667,6.35744,0.0],[2.44662,6.35747,0.0],[2.44659,6.35751,0.0],[2.44654,6.35758,0.0],[2.4465,6.35763,0.0],[2.44645,6.35768,0.0],[2.44642,6.3577,0.0],[2.4463,6.35779,0.0],[2.44615,6.35792,0.0],[2.44599,6.35803,0.0],[2.44593,6.35799,0.0],[2.44589,6.35799,0.0],[2.44584,6.35801,0.0],[2.4458,6.35804,0.0],[2.44573,6.3581,0.0],[2.44576,6.35815,0.0],[2.44576,6.35816,0.0],[2.44569,6.35822,0.0],[2.44566,6.35824,0.0],[2.44563,6.35824,0.0],[2.44558,6.3582,0.0],[2.44555,6.35822,0.0],[2.44552,6.35822,0.0],[2.4455,6.35822,0.0],[2.44549,6.35822,0.0],[2.44547,6.3582,0.0],[2.44533,6.35806,0.0],[2.4452,6.35818,0.0],[2.44534,6.35837,0.0],[2.44524,6.35844,0.0],[2.44504,6.35834,0.0],[2.44501,6.3584,0.0],[2.44475,6.35882,0.0],[2.44473,6.35881,0.0],[2.44468,6.35891,0.0],[2.44481,6.35897,0.0],[2.44471,6.35905,0.0],[2.44464,6.35905,0.0],[2.44466,6.35909,0.0],[2.44459,6.35917,0.0],[2.44444,6.3593,0.0],[2.44429,6.35949,0.0],[2.44421,6.35954,0.0],[2.44416,6.35949,0.0],[2.44414,6.35949,0.0],[2.44412,6.3595,0.0],[2.4441,6.35953,0.0],[2.44406,6.35956,0.0],[2.44404,6.35957,0.0],[2.444,6.3596,0.0],[2.44391,6.35963,0.0],[2.44385,6.35965,0.0],[2.44379,6.35967,0.0],[2.44374,6.35969,0.0],[2.44355,6.35978,0.0],[2.44338,6.35982,0.0],[2.4433,6.35985,0.0],[2.44325,6.35989,0.0],[2.4432,6.35993,0.0],[2.44316,6.35997,0.0],[2.44313,6.36003,0.0],[2.44303,6.36026,0.0],[2.44298,6.36036,0.0],[2.44288,6.36055,0.0],[2.4425,6.36135,0.0],[2.44246,6.36143,0.0],[2.44243,6.36147,0.0],[2.4424,6.36151,0.0],[2.44234,6.3616,0.0],[2.44232,6.36163,0.0],[2.4423,6.36167,0.0],[2.44229,6.36168,0.0],[2.44228,6.36172,0.0],[2.44226,6.36177,0.0],[2.44223,6.36183,0.0],[2.44219,6.36187,0.0],[2.44214,6.36192,0.0],[2.44206,6.36197,0.0],[2.44196,6.36203,0.0],[2.44184,6.3621,0.0],[2.4418,6.36213,0.0],[2.44176,6.36216,0.0],[2.44167,6.36221,0.0],[2.44161,6.36225,0.0],[2.44155,6.36228,0.0],[2.44152,6.36231,0.0],[2.44147,6.36239,0.0],[2.44143,6.36247,0.0],[2.44138,6.36255,0.0],[2.44129,6.36266,0.0],[2.44127,6.3627,0.0],[2.44126,6.36273,0.0],[2.44122,6.36284,0.0],[2.4412,6.36291,0.0],[2.44115,6.363,0.0],[2.44111,6.36309,0.0],[2.44106,6.36323,0.0],[2.44102,6.36331,0.0],[2.44099,6.36335,0.0],[2.44093,6.36343,0.0],[2.44088,6.3635,0.0],[2.44086,6.36352,0.0],[2.44086,6.36354,0.0],[2.44086,6.36356,0.0],[2.44087,6.36358,0.0],[2.44087,6.36361,0.0],[2.44085,6.36363,0.0],[2.44083,6.36365,0.0],[2.44082,6.36366,0.0],[2.4408,6.36368,0.0],[2.44079,6.3637,0.0],[2.44073,6.36381,0.0],[2.4407,6.36388,0.0],[2.4407,6.36392,0.0],[2.4407,6.36398,0.0],[2.4407,6.36404,0.0],[2.4407,6.36409,0.0],[2.44066,6.36428,0.0],[2.44064,6.36442,0.0],[2.44061,6.36452,0.0],[2.44059,6.36461,0.0],[2.44057,6.36471,0.0],[2.44056,6.3648,0.0],[2.44055,6.365,0.0],[2.44056,6.36511,0.0],[2.44057,6.36521,0.0],[2.44055,6.36532,0.0],[2.4405,6.36542,0.0],[2.44045,6.36551,0.0],[2.44037,6.36561,0.0],[2.44031,6.36565,0.0],[2.44026,6.36567,0.0],[2.44016,6.36571,0.0],[2.44014,6.36573,0.0],[2.44011,6.36575,0.0],[2.4401,6.36578,0.0],[2.4401,6.36582,0.0],[2.44011,6.36588,0.0],[2.44011,6.36596,0.0],[2.44009,6.36604,0.0],[2.44004,6.36612,0.0],[2.43996,6.36621,0.0],[2.4398,6.36645,0.0],[2.43971,6.3666,0.0],[2.43963,6.36674,0.0],[2.43952,6.36699,0.0],[2.43942,6.36717,0.0],[2.43937,6.36723,0.0],[2.43931,6.36732,0.0],[2.43925,6.36747,0.0],[2.43922,6.36755,0.0],[2.4392,6.36763,0.0],[2.43919,6.36772,0.0],[2.43915,6.36792,0.0],[2.43912,6.36805,0.0],[2.43911,6.36815,0.0],[2.43909,6.36827,0.0],[2.4391,6.36871,0.0],[2.43909,6.3689,0.0],[2.43907,6.36901,0.0],[2.43905,6.36911,0.0],[2.43904,6.36927,0.0],[2.43901,6.3694,0.0],[2.43896,6.36952,0.0],[2.43888,6.3697,0.0],[2.43885,6.36986,0.0],[2.43882,6.37001,0.0],[2.43879,6.37008,0.0],[2.43876,6.37014,0.0],[2.43872,6.3702,0.0],[2.4387,6.37026,0.0],[2.43871,6.37037,0.0],[2.4387,6.37049,0.0],[2.43866,6.37063,0.0],[2.43863,6.37075,0.0],[2.4386,6.37087,0.0],[2.43859,6.37102,0.0],[2.43859,6.3711,0.0],[2.43859,6.37114,0.0],[2.43859,6.37119,0.0],[2.43854,6.37135,0.0]]]]}}]}