{"type":"FeatureCollection","name":"BRA_R301117","crs":{"type":"name","properties":{"name":"urn:ogc:def:crs:OGC:1.3:CRS84"}},"features":[{"type":"Feature","properties":{"nbhd_name":"Santos Reis","uesi_id":"BRA_R301117","nbhd_code":"BRA_R301117_1"},"geometry":{"type":"MultiPolygon","coordinates":[[[[-35.19418,-5.76422],[-35.19386,-5.76732],[-35.19461,-5.76732],[-35.19463,-5.76732],[-35.19457,-5.76798],[-35.1945,-5.76827],[-35.19445,-5.76849],[-35.19428,-5.76914],[-35.19414,-5.76967],[-35.1938,-5.77082],[-35.19347,-5.77224],[-35.19347,-5.77225],[-35.19343,-5.77239],[-35.19342,-5.77245],[-35.19335,-5.77275],[-35.19335,-5.77276],[-35.19335,-5.77276],[-35.19407,-5.77296],[-35.19433,-5.77303],[-35.19436,-5.77304],[-35.19439,-5.77304],[-35.19456,-5.77306],[-35.1946,-5.77314],[-35.19478,-5.77347],[-35.19502,-5.77332],[-35.19504,-5.77331],[-35.19553,-5.77407],[-35.1958,-5.77463],[-35.19621,-5.77445],[-35.19657,-5.77432],[-35.19637,-5.77388],[-35.19646,-5.77356],[-35.19655,-5.77311],[-35.19663,-5.77277],[-35.19671,-5.77251],[-35.19678,-5.77236],[-35.19687,-5.77217],[-35.19718,-5.77169],[-35.19732,-5.77147],[-35.19747,-5.7713],[-35.19758,-5.77121],[-35.19784,-5.77103],[-35.19823,-5.77082],[-35.19851,-5.77061],[-35.19862,-5.77054],[-35.19873,-5.77045],[-35.19896,-5.77029],[-35.19919,-5.77034],[-35.19965,-5.77045],[-35.19999,-5.77049],[-35.20012,-5.77055],[-35.2004,-5.77018],[-35.20113,-5.76924],[-35.20151,-5.76877],[-35.2013,-5.76872],[-35.20159,-5.76857],[-35.2019,-5.7683],[-35.20199,-5.76816],[-35.20207,-5.76803],[-35.20215,-5.76777],[-35.20218,-5.76767],[-35.20244,-5.76762],[-35.20258,-5.76757],[-35.20324,-5.76738],[-35.20352,-5.76748],[-35.20366,-5.7678],[-35.20379,-5.76819],[-35.20618,-5.76761],[-35.20608,-5.76727],[-35.20599,-5.76467],[-35.20584,-5.75999],[-35.20306,-5.75715],[-35.19911,-5.75346],[-35.19897,-5.75341],[-35.19806,-5.75337],[-35.1977,-5.75337],[-35.19721,-5.75337],[-35.19656,-5.75345],[-35.19574,-5.75388],[-35.19481,-5.75448],[-35.1941,-5.7549],[-35.1941,-5.7554],[-35.19412,-5.75554],[-35.19397,-5.76133],[-35.19418,-5.76422]]]]}},{"type":"Feature","properties":{"nbhd_name":"Praia do Meio","uesi_id":"BRA_R301117","nbhd_code":"BRA_R301117_2"},"geometry":{"type":"MultiPolygon","coordinates":[[[[-35.1933,-5.77301],[-35.19316,-5.77371],[-35.19274,-5.77541],[-35.19235,-5.77809],[-35.19198,-5.78073],[-35.19194,-5.78081],[-35.19169,-5.7814],[-35.19156,-5.78178],[-35.19117,-5.78224],[-35.19094,-5.7824],[-35.19085,-5.78242],[-35.19077,-5.78243],[-35.19053,-5.78243],[-35.19037,-5.7824],[-35.1903,-5.78228],[-35.19021,-5.78214],[-35.19009,-5.78203],[-35.19007,-5.78203],[-35.18997,-5.78203],[-35.18973,-5.78208],[-35.18962,-5.78214],[-35.18951,-5.7822],[-35.18924,-5.78244],[-35.18913,-5.78277],[-35.18903,-5.78313],[-35.18902,-5.78341],[-35.18901,-5.7837],[-35.18959,-5.78365],[-35.19041,-5.78371],[-35.19045,-5.78368],[-35.19049,-5.78365],[-35.19054,-5.78362],[-35.19058,-5.7836],[-35.19065,-5.78357],[-35.19076,-5.78353],[-35.19081,-5.78353],[-35.19087,-5.78354],[-35.19092,-5.78355],[-35.19097,-5.78357],[-35.19102,-5.78359],[-35.19107,-5.78361],[-35.19132,-5.78372],[-35.19153,-5.78377],[-35.1916,-5.78378],[-35.19168,-5.78378],[-35.19176,-5.78378],[-35.19184,-5.78377],[-35.19218,-5.78363],[-35.19245,-5.78355],[-35.19258,-5.78348],[-35.19286,-5.78338],[-35.19301,-5.78323],[-35.19411,-5.78223],[-35.19441,-5.78192],[-35.19484,-5.7815],[-35.19545,-5.78082],[-35.19558,-5.78068],[-35.19565,-5.78062],[-35.19572,-5.78062],[-35.19581,-5.78067],[-35.19676,-5.78135],[-35.19683,-5.7814],[-35.19692,-5.78133],[-35.19763,-5.78073],[-35.19781,-5.78059],[-35.19821,-5.78028],[-35.19884,-5.77987],[-35.19892,-5.77982],[-35.19887,-5.77976],[-35.19871,-5.77963],[-35.19849,-5.77946],[-35.19836,-5.77938],[-35.19815,-5.77924],[-35.19797,-5.77914],[-35.19792,-5.7791],[-35.19761,-5.77894],[-35.19743,-5.77883],[-35.1971,-5.77862],[-35.19689,-5.77833],[-35.19676,-5.77806],[-35.19669,-5.77769],[-35.19662,-5.7774],[-35.19674,-5.77727],[-35.19677,-5.77723],[-35.19691,-5.77707],[-35.19679,-5.77698],[-35.19645,-5.7768],[-35.19623,-5.77673],[-35.19623,-5.77673],[-35.19632,-5.77659],[-35.19661,-5.77635],[-35.19595,-5.77496],[-35.1958,-5.77463],[-35.19553,-5.77407],[-35.19504,-5.77331],[-35.19502,-5.77332],[-35.19478,-5.77347],[-35.1946,-5.77314],[-35.19456,-5.77306],[-35.19439,-5.77304],[-35.19436,-5.77304],[-35.19433,-5.77303],[-35.19407,-5.77296],[-35.19335,-5.77276],[-35.19334,-5.77277],[-35.19333,-5.77286],[-35.1933,-5.77301]]]]}},{"type":"Feature","properties":{"nbhd_name":"Rocas","uesi_id":"BRA_R301117","nbhd_code":"BRA_R301117_3"},"geometry":{"type":"MultiPolygon","coordinates":[[[[-35.2004,-5.77018],[-35.20012,-5.77055],[-35.19999,-5.77049],[-35.19965,-5.77045],[-35.19919,-5.77034],[-35.19896,-5.77029],[-35.19873,-5.77045],[-35.19862,-5.77054],[-35.19851,-5.77061],[-35.19823,-5.77082],[-35.19784,-5.77103],[-35.19758,-5.77121],[-35.19747,-5.7713],[-35.19732,-5.77147],[-35.19718,-5.77169],[-35.19687,-5.77217],[-35.19678,-5.77236],[-35.19671,-5.77251],[-35.19663,-5.77277],[-35.19655,-5.77311],[-35.19646,-5.77356],[-35.19637,-5.77388],[-35.19657,-5.77432],[-35.19621,-5.77445],[-35.1958,-5.77463],[-35.19595,-5.77496],[-35.19661,-5.77635],[-35.19632,-5.77659],[-35.19623,-5.77673],[-35.19623,-5.77673],[-35.19645,-5.7768],[-35.19679,-5.77698],[-35.19691,-5.77707],[-35.19677,-5.77723],[-35.19674,-5.77727],[-35.19662,-5.7774],[-35.19669,-5.77769],[-35.19676,-5.77806],[-35.19689,-5.77833],[-35.1971,-5.77862],[-35.19743,-5.77883],[-35.19761,-5.77894],[-35.19792,-5.7791],[-35.19797,-5.77914],[-35.19815,-5.77924],[-35.19836,-5.77938],[-35.19849,-5.77946],[-35.19871,-5.77963],[-35.19887,-5.77976],[-35.19892,-5.77982],[-35.19957,-5.77939],[-35.19967,-5.77933],[-35.2003,-5.77903],[-35.20045,-5.77896],[-35.20063,-5.77888],[-35.20064,-5.77881],[-35.2007,-5.778],[-35.20073,-5.7777],[-35.20076,-5.77727],[-35.20082,-5.77689],[-35.20084,-5.77678],[-35.20086,-5.77665],[-35.20089,-5.7762],[-35.20094,-5.77582],[-35.20094,-5.77558],[-35.20172,-5.77535],[-35.20175,-5.77534],[-35.20186,-5.77531],[-35.20266,-5.77506],[-35.20312,-5.77491],[-35.20352,-5.77479],[-35.20344,-5.77449],[-35.20331,-5.77401],[-35.20318,-5.77335],[-35.20312,-5.77301],[-35.20308,-5.77273],[-35.20304,-5.77261],[-35.20283,-5.77172],[-35.20273,-5.77124],[-35.2025,-5.77054],[-35.20249,-5.77045],[-35.20278,-5.76991],[-35.20313,-5.76931],[-35.20326,-5.76917],[-35.20344,-5.76878],[-35.20375,-5.76855],[-35.20379,-5.76819],[-35.20366,-5.7678],[-35.20352,-5.76748],[-35.20324,-5.76738],[-35.20258,-5.76757],[-35.20244,-5.76762],[-35.20218,-5.76767],[-35.20215,-5.76777],[-35.20207,-5.76803],[-35.20199,-5.76816],[-35.2019,-5.7683],[-35.20159,-5.76857],[-35.2013,-5.76872],[-35.20151,-5.76877],[-35.20113,-5.76924],[-35.2004,-5.77018]],[[-35.19703,-5.77719],[-35.19704,-5.7772],[-35.19703,-5.77718],[-35.19703,-5.77719]]]]}},{"type":"Feature","properties":{"nbhd_name":"Ribeira","uesi_id":"BRA_R301117","nbhd_code":"BRA_R301117_4"},"geometry":{"type":"MultiPolygon","coordinates":[[[[-35.20122,-5.78045],[-35.20132,-5.78074],[-35.20154,-5.78137],[-35.20175,-5.78196],[-35.20205,-5.7827],[-35.2021,-5.78283],[-35.20225,-5.78276],[-35.20266,-5.78253],[-35.20289,-5.7824],[-35.20309,-5.7823],[-35.20355,-5.78205],[-35.20374,-5.78194],[-35.20418,-5.78169],[-35.20438,-5.78159],[-35.20498,-5.78128],[-35.20561,-5.78083],[-35.20574,-5.78064],[-35.20582,-5.78055],[-35.2059,-5.78051],[-35.20599,-5.78048],[-35.20602,-5.78048],[-35.20617,-5.78046],[-35.2063,-5.78048],[-35.20659,-5.7806],[-35.20695,-5.78084],[-35.20765,-5.78126],[-35.20778,-5.78134],[-35.21098,-5.78025],[-35.20867,-5.77582],[-35.20618,-5.76761],[-35.20379,-5.76819],[-35.20375,-5.76855],[-35.20344,-5.76878],[-35.20326,-5.76917],[-35.20313,-5.76931],[-35.20278,-5.76991],[-35.20249,-5.77045],[-35.2025,-5.77054],[-35.20273,-5.77124],[-35.20283,-5.77172],[-35.20304,-5.77261],[-35.20308,-5.77273],[-35.20312,-5.77301],[-35.20318,-5.77335],[-35.20331,-5.77401],[-35.20344,-5.77449],[-35.20352,-5.77479],[-35.20312,-5.77491],[-35.20266,-5.77506],[-35.20186,-5.77531],[-35.20175,-5.77534],[-35.20172,-5.77535],[-35.20094,-5.77558],[-35.20094,-5.77582],[-35.20089,-5.7762],[-35.20086,-5.77665],[-35.20084,-5.77678],[-35.20082,-5.77689],[-35.20076,-5.77727],[-35.20073,-5.7777],[-35.2007,-5.778],[-35.20064,-5.77881],[-35.20063,-5.77888],[-35.20045,-5.77896],[-35.2003,-5.77903],[-35.2007,-5.7795],[-35.20071,-5.77951],[-35.20102,-5.78005],[-35.20122,-5.78045]]]]}},{"type":"Feature","properties":{"nbhd_name":"Petr\u00f3polis","uesi_id":"BRA_R301117","nbhd_code":"BRA_R301117_5"},"geometry":{"type":"MultiPolygon","coordinates":[[[[-35.19692,-5.78133],[-35.19683,-5.7814],[-35.19676,-5.78135],[-35.19581,-5.78067],[-35.19572,-5.78062],[-35.19565,-5.78062],[-35.19558,-5.78068],[-35.19545,-5.78082],[-35.19484,-5.7815],[-35.19441,-5.78192],[-35.19411,-5.78223],[-35.19301,-5.78323],[-35.19327,-5.78339],[-35.19451,-5.78402],[-35.19467,-5.7841],[-35.19472,-5.78412],[-35.19425,-5.78469],[-35.19332,-5.78537],[-35.19296,-5.78573],[-35.19236,-5.78632],[-35.1922,-5.78645],[-35.19194,-5.78666],[-35.19177,-5.78682],[-35.19158,-5.78701],[-35.19143,-5.78707],[-35.19119,-5.78716],[-35.19102,-5.78723],[-35.19158,-5.78724],[-35.19191,-5.78713],[-35.19245,-5.78692],[-35.19273,-5.78745],[-35.1932,-5.78858],[-35.19323,-5.78857],[-35.1938,-5.78827],[-35.19449,-5.788],[-35.19538,-5.78771],[-35.19557,-5.78763],[-35.196,-5.78878],[-35.19698,-5.7884],[-35.19709,-5.78836],[-35.19758,-5.78816],[-35.19827,-5.78792],[-35.19835,-5.78789],[-35.20328,-5.78594],[-35.20242,-5.7837],[-35.2021,-5.78283],[-35.20205,-5.7827],[-35.20175,-5.78196],[-35.20154,-5.78137],[-35.20132,-5.78074],[-35.20122,-5.78045],[-35.20102,-5.78005],[-35.20071,-5.77951],[-35.2007,-5.7795],[-35.2003,-5.77903],[-35.19967,-5.77933],[-35.19957,-5.77939],[-35.19892,-5.77982],[-35.19884,-5.77987],[-35.19821,-5.78028],[-35.19781,-5.78059],[-35.19763,-5.78073],[-35.19692,-5.78133]]]]}},{"type":"Feature","properties":{"nbhd_name":"Areia Preta","uesi_id":"BRA_R301117","nbhd_code":"BRA_R301117_6"},"geometry":{"type":"MultiPolygon","coordinates":[[[[-35.19176,-5.78378],[-35.19168,-5.78378],[-35.1916,-5.78378],[-35.19153,-5.78377],[-35.19132,-5.78372],[-35.19107,-5.78361],[-35.19102,-5.78359],[-35.19097,-5.78357],[-35.19092,-5.78355],[-35.19087,-5.78354],[-35.19081,-5.78353],[-35.19076,-5.78353],[-35.19065,-5.78357],[-35.19058,-5.7836],[-35.19054,-5.78362],[-35.19049,-5.78365],[-35.19045,-5.78368],[-35.19041,-5.78371],[-35.1902,-5.78395],[-35.18984,-5.7844],[-35.18976,-5.78451],[-35.18972,-5.78457],[-35.18973,-5.78466],[-35.18968,-5.78481],[-35.18967,-5.78501],[-35.18964,-5.78529],[-35.18958,-5.78563],[-35.18954,-5.78579],[-35.18935,-5.78616],[-35.18918,-5.7866],[-35.18984,-5.78653],[-35.19017,-5.7868],[-35.19047,-5.78703],[-35.19078,-5.7869],[-35.19102,-5.78723],[-35.19119,-5.78716],[-35.19143,-5.78707],[-35.19158,-5.78701],[-35.19177,-5.78682],[-35.19194,-5.78666],[-35.1922,-5.78645],[-35.19236,-5.78632],[-35.19296,-5.78573],[-35.19332,-5.78537],[-35.19425,-5.78469],[-35.19472,-5.78412],[-35.19467,-5.7841],[-35.19451,-5.78402],[-35.19327,-5.78339],[-35.19301,-5.78323],[-35.19286,-5.78338],[-35.19258,-5.78348],[-35.19245,-5.78355],[-35.19218,-5.78363],[-35.19184,-5.78377],[-35.19176,-5.78378]]]]}},{"type":"Feature","properties":{"nbhd_name":"M\u00e3e Lu\u00edza","uesi_id":"BRA_R301117","nbhd_code":"BRA_R301117_7"},"geometry":{"type":"MultiPolygon","coordinates":[[[[-35.19191,-5.78713],[-35.19158,-5.78724],[-35.19102,-5.78723],[-35.19066,-5.78736],[-35.19055,-5.7874],[-35.19003,-5.78767],[-35.18975,-5.78807],[-35.18958,-5.7883],[-35.1891,-5.78908],[-35.18881,-5.78946],[-35.18854,-5.78984],[-35.18838,-5.79014],[-35.18799,-5.79074],[-35.18766,-5.79117],[-35.18747,-5.79142],[-35.18719,-5.79179],[-35.18676,-5.79218],[-35.18604,-5.79273],[-35.18569,-5.79305],[-35.18481,-5.79217],[-35.18481,-5.79217],[-35.18478,-5.7922],[-35.18465,-5.79233],[-35.18445,-5.79255],[-35.18398,-5.79304],[-35.18362,-5.79325],[-35.18343,-5.79318],[-35.18302,-5.79301],[-35.18279,-5.79304],[-35.18225,-5.79311],[-35.18206,-5.79323],[-35.18187,-5.79335],[-35.18154,-5.79366],[-35.18115,-5.79411],[-35.18114,-5.79417],[-35.18111,-5.79446],[-35.18137,-5.79522],[-35.18121,-5.80139],[-35.18224,-5.80134],[-35.18273,-5.80132],[-35.18381,-5.80059],[-35.18439,-5.79962],[-35.18543,-5.79859],[-35.18731,-5.79692],[-35.18786,-5.79651],[-35.18867,-5.79588],[-35.18935,-5.79538],[-35.19015,-5.79455],[-35.19041,-5.79432],[-35.19057,-5.79419],[-35.19071,-5.79391],[-35.19076,-5.79354],[-35.1908,-5.79349],[-35.1911,-5.79305],[-35.19159,-5.79271],[-35.19199,-5.79283],[-35.19214,-5.79273],[-35.19223,-5.79265],[-35.1924,-5.79251],[-35.19261,-5.79233],[-35.19261,-5.79208],[-35.19249,-5.79181],[-35.19248,-5.79172],[-35.19299,-5.79103],[-35.19359,-5.79022],[-35.19355,-5.79008],[-35.19322,-5.7896],[-35.19318,-5.78929],[-35.1932,-5.78858],[-35.19273,-5.78745],[-35.19245,-5.78692],[-35.19191,-5.78713]]]]}},{"type":"Feature","properties":{"nbhd_name":"Tirol","uesi_id":"BRA_R301117","nbhd_code":"BRA_R301117_8"},"geometry":{"type":"MultiPolygon","coordinates":[[[[-35.19698,-5.7884],[-35.196,-5.78878],[-35.19557,-5.78763],[-35.19538,-5.78771],[-35.19449,-5.788],[-35.1938,-5.78827],[-35.19323,-5.78857],[-35.19349,-5.7886],[-35.19381,-5.78888],[-35.19401,-5.78913],[-35.19407,-5.78936],[-35.19401,-5.78978],[-35.19391,-5.79002],[-35.19384,-5.79021],[-35.19371,-5.79037],[-35.19363,-5.79063],[-35.19297,-5.79219],[-35.19282,-5.79269],[-35.19271,-5.79304],[-35.19255,-5.7934],[-35.1924,-5.7937],[-35.19204,-5.79456],[-35.19224,-5.79589],[-35.1918,-5.79713],[-35.19193,-5.79779],[-35.19221,-5.79818],[-35.19429,-5.79504],[-35.19475,-5.79435],[-35.19581,-5.7939],[-35.19634,-5.79497],[-35.19639,-5.79532],[-35.1964,-5.79577],[-35.1964,-5.79644],[-35.1963,-5.79658],[-35.19625,-5.79668],[-35.19616,-5.79675],[-35.19601,-5.79689],[-35.19562,-5.79723],[-35.19545,-5.79759],[-35.19544,-5.79789],[-35.1954,-5.79903],[-35.19522,-5.79955],[-35.19519,-5.79965],[-35.19508,-5.80024],[-35.19508,-5.80065],[-35.19509,-5.8009],[-35.19516,-5.80128],[-35.19519,-5.80146],[-35.19522,-5.80161],[-35.19522,-5.80181],[-35.19519,-5.8019],[-35.19512,-5.80199],[-35.19499,-5.80207],[-35.19478,-5.80217],[-35.19415,-5.80374],[-35.19378,-5.80441],[-35.19345,-5.80507],[-35.19329,-5.80528],[-35.19319,-5.80547],[-35.19283,-5.80583],[-35.19275,-5.80601],[-35.19268,-5.80622],[-35.19268,-5.80633],[-35.19279,-5.80641],[-35.19304,-5.8064],[-35.19332,-5.80623],[-35.19354,-5.80605],[-35.19372,-5.80598],[-35.19383,-5.80598],[-35.19416,-5.80619],[-35.19419,-5.80635],[-35.19412,-5.80663],[-35.19393,-5.8072],[-35.19345,-5.80826],[-35.19343,-5.8084],[-35.19343,-5.80857],[-35.19347,-5.80878],[-35.19354,-5.80901],[-35.19354,-5.80917],[-35.19352,-5.80931],[-35.19342,-5.8097],[-35.19316,-5.81013],[-35.19158,-5.81207],[-35.19137,-5.81249],[-35.1915,-5.81278],[-35.19166,-5.813],[-35.19193,-5.81304],[-35.19312,-5.81252],[-35.19382,-5.81237],[-35.19403,-5.81239],[-35.19455,-5.81245],[-35.19503,-5.81271],[-35.19525,-5.81301],[-35.19537,-5.8135],[-35.19531,-5.81388],[-35.19515,-5.81411],[-35.19518,-5.81434],[-35.19522,-5.81446],[-35.19531,-5.81467],[-35.19545,-5.8151],[-35.19554,-5.81517],[-35.19565,-5.81513],[-35.19585,-5.81508],[-35.19633,-5.81484],[-35.19682,-5.81478],[-35.19697,-5.81494],[-35.19704,-5.81512],[-35.19715,-5.81523],[-35.1977,-5.81505],[-35.19813,-5.81482],[-35.19835,-5.81474],[-35.19905,-5.81446],[-35.19916,-5.81442],[-35.19934,-5.81435],[-35.20054,-5.81387],[-35.20114,-5.81364],[-35.20184,-5.81341],[-35.20199,-5.81335],[-35.20426,-5.81249],[-35.20463,-5.81237],[-35.20467,-5.81249],[-35.20478,-5.81245],[-35.20754,-5.81141],[-35.20752,-5.81132],[-35.20741,-5.81102],[-35.20723,-5.81052],[-35.20699,-5.80987],[-35.20682,-5.80941],[-35.20673,-5.80911],[-35.20665,-5.80888],[-35.20663,-5.80883],[-35.20646,-5.8083],[-35.2059,-5.80673],[-35.20582,-5.80649],[-35.20562,-5.80599],[-35.20558,-5.8059],[-35.2045,-5.80312],[-35.20421,-5.80239],[-35.20418,-5.80229],[-35.20407,-5.80201],[-35.20387,-5.80147],[-35.20353,-5.80059],[-35.20346,-5.80044],[-35.20324,-5.79982],[-35.20288,-5.79997],[-35.20275,-5.80003],[-35.20255,-5.79958],[-35.20233,-5.79904],[-35.20194,-5.7981],[-35.2021,-5.79804],[-35.20241,-5.79793],[-35.20318,-5.79764],[-35.20336,-5.79756],[-35.20391,-5.79732],[-35.20433,-5.79711],[-35.20449,-5.79705],[-35.20477,-5.79692],[-35.20551,-5.79666],[-35.20558,-5.79663],[-35.20666,-5.79618],[-35.20718,-5.79598],[-35.20716,-5.79518],[-35.20698,-5.79455],[-35.20688,-5.79392],[-35.20678,-5.79347],[-35.20676,-5.7933],[-35.20674,-5.79318],[-35.20668,-5.79294],[-35.2065,-5.79265],[-35.20644,-5.79255],[-35.20626,-5.79232],[-35.20611,-5.79197],[-35.206,-5.7917],[-35.20598,-5.79165],[-35.20597,-5.79162],[-35.20548,-5.79023],[-35.20514,-5.79015],[-35.20496,-5.79002],[-35.2046,-5.78946],[-35.20414,-5.78815],[-35.20405,-5.78794],[-35.2039,-5.78749],[-35.20374,-5.78707],[-35.20328,-5.78594],[-35.20314,-5.786],[-35.20243,-5.78629],[-35.20229,-5.78635],[-35.20075,-5.78697],[-35.20061,-5.78703],[-35.19947,-5.78748],[-35.19936,-5.78753],[-35.19835,-5.78789],[-35.19827,-5.78792],[-35.19758,-5.78816],[-35.19709,-5.78836],[-35.19698,-5.7884]]]]}},{"type":"Feature","properties":{"nbhd_name":"Cidade Alta","uesi_id":"BRA_R301117","nbhd_code":"BRA_R301117_9"},"geometry":{"type":"MultiPolygon","coordinates":[[[[-35.21098,-5.78025],[-35.20778,-5.78134],[-35.20765,-5.78126],[-35.20695,-5.78084],[-35.20659,-5.7806],[-35.2063,-5.78048],[-35.20617,-5.78046],[-35.20602,-5.78048],[-35.20599,-5.78048],[-35.2059,-5.78051],[-35.20582,-5.78055],[-35.20574,-5.78064],[-35.20561,-5.78083],[-35.20498,-5.78128],[-35.20438,-5.78159],[-35.20418,-5.78169],[-35.20374,-5.78194],[-35.20355,-5.78205],[-35.20309,-5.7823],[-35.20289,-5.7824],[-35.20266,-5.78253],[-35.20225,-5.78276],[-35.2021,-5.78283],[-35.20242,-5.7837],[-35.20287,-5.78484],[-35.2029,-5.7849],[-35.20327,-5.78589],[-35.20328,-5.78594],[-35.20374,-5.78707],[-35.2039,-5.78749],[-35.20405,-5.78794],[-35.20414,-5.78815],[-35.2046,-5.78946],[-35.20496,-5.79002],[-35.20514,-5.79015],[-35.20548,-5.79023],[-35.20597,-5.79162],[-35.20598,-5.79165],[-35.206,-5.7917],[-35.20611,-5.79197],[-35.20626,-5.79232],[-35.20644,-5.79255],[-35.2065,-5.79265],[-35.20668,-5.79294],[-35.20708,-5.79255],[-35.20742,-5.79223],[-35.2075,-5.79211],[-35.20793,-5.79147],[-35.20809,-5.79127],[-35.2084,-5.79087],[-35.20844,-5.79083],[-35.2085,-5.79078],[-35.2087,-5.79061],[-35.20879,-5.79054],[-35.20934,-5.79018],[-35.2098,-5.78987],[-35.20996,-5.78977],[-35.21073,-5.78927],[-35.21114,-5.78898],[-35.21133,-5.78873],[-35.21134,-5.7887],[-35.21143,-5.78845],[-35.2116,-5.78834],[-35.21381,-5.78702],[-35.21455,-5.78652],[-35.21468,-5.78643],[-35.21689,-5.7846],[-35.212,-5.78221],[-35.21123,-5.78073],[-35.21098,-5.78025]]]]}},{"type":"Feature","properties":{"nbhd_name":"Lagoa Seca","uesi_id":"BRA_R301117","nbhd_code":"BRA_R301117_10"},"geometry":{"type":"MultiPolygon","coordinates":[[[[-35.20752,-5.81132],[-35.20754,-5.81141],[-35.20766,-5.81136],[-35.20943,-5.81076],[-35.20956,-5.81072],[-35.21038,-5.81041],[-35.21087,-5.81023],[-35.21129,-5.81009],[-35.21236,-5.80969],[-35.21311,-5.80943],[-35.21339,-5.80933],[-35.21444,-5.80893],[-35.21439,-5.80882],[-35.21419,-5.8083],[-35.214,-5.80781],[-35.2139,-5.80752],[-35.21365,-5.80696],[-35.21337,-5.80615],[-35.21308,-5.80535],[-35.21301,-5.80516],[-35.21264,-5.80418],[-35.21235,-5.80332],[-35.21216,-5.80277],[-35.21191,-5.802],[-35.21153,-5.80065],[-35.21099,-5.80129],[-35.21049,-5.80192],[-35.21007,-5.80237],[-35.20954,-5.80303],[-35.20932,-5.80329],[-35.20897,-5.8037],[-35.20883,-5.80387],[-35.20878,-5.80393],[-35.20857,-5.80419],[-35.20839,-5.80437],[-35.20812,-5.80463],[-35.20778,-5.80499],[-35.20755,-5.80516],[-35.20744,-5.80525],[-35.20692,-5.80548],[-35.20649,-5.80566],[-35.20605,-5.80584],[-35.20577,-5.80594],[-35.20562,-5.80599],[-35.20582,-5.80649],[-35.2059,-5.80673],[-35.20646,-5.8083],[-35.20663,-5.80883],[-35.20665,-5.80888],[-35.20673,-5.80911],[-35.20682,-5.80941],[-35.20699,-5.80987],[-35.20723,-5.81052],[-35.20741,-5.81102],[-35.20752,-5.81132]]]]}},{"type":"Feature","properties":{"nbhd_name":"Alecrim","uesi_id":"BRA_R301117","nbhd_code":"BRA_R301117_11"},"geometry":{"type":"MultiPolygon","coordinates":[[[[-35.21439,-5.80882],[-35.21444,-5.80893],[-35.2145,-5.80891],[-35.21553,-5.80855],[-35.21645,-5.80822],[-35.21715,-5.80794],[-35.21744,-5.80782],[-35.21822,-5.80751],[-35.21864,-5.80735],[-35.21929,-5.80711],[-35.22109,-5.80652],[-35.2222,-5.80607],[-35.22222,-5.80606],[-35.2223,-5.80603],[-35.22281,-5.80587],[-35.22464,-5.80518],[-35.22471,-5.80515],[-35.22594,-5.80469],[-35.22729,-5.80423],[-35.22782,-5.80405],[-35.22792,-5.80401],[-35.22756,-5.804],[-35.22703,-5.80371],[-35.22662,-5.80342],[-35.22636,-5.80324],[-35.22595,-5.80295],[-35.22594,-5.80295],[-35.22535,-5.80257],[-35.22522,-5.80232],[-35.22508,-5.80211],[-35.22496,-5.80194],[-35.22485,-5.80157],[-35.22503,-5.80117],[-35.22508,-5.80103],[-35.22525,-5.80079],[-35.22535,-5.80059],[-35.22551,-5.80028],[-35.22552,-5.80014],[-35.22555,-5.79984],[-35.22542,-5.79948],[-35.22508,-5.79894],[-35.22499,-5.79872],[-35.22475,-5.79811],[-35.22486,-5.79775],[-35.22493,-5.79761],[-35.22505,-5.79736],[-35.22511,-5.79724],[-35.22525,-5.79703],[-35.22547,-5.79673],[-35.22556,-5.79634],[-35.22553,-5.79604],[-35.22554,-5.79571],[-35.22466,-5.79516],[-35.22432,-5.79506],[-35.22356,-5.79475],[-35.22284,-5.79366],[-35.22281,-5.79312],[-35.22363,-5.79288],[-35.22516,-5.78945],[-35.22615,-5.78734],[-35.21796,-5.78513],[-35.21689,-5.7846],[-35.21468,-5.78643],[-35.21455,-5.78652],[-35.21381,-5.78702],[-35.2116,-5.78834],[-35.21143,-5.78845],[-35.21134,-5.7887],[-35.21133,-5.78873],[-35.21114,-5.78898],[-35.21073,-5.78927],[-35.20996,-5.78977],[-35.2098,-5.78987],[-35.20934,-5.79018],[-35.20879,-5.79054],[-35.2087,-5.79061],[-35.2085,-5.79078],[-35.20844,-5.79083],[-35.20864,-5.79092],[-35.20875,-5.79098],[-35.20899,-5.79132],[-35.20906,-5.79142],[-35.20926,-5.79175],[-35.20926,-5.79175],[-35.20952,-5.79243],[-35.20978,-5.79287],[-35.21024,-5.79365],[-35.21107,-5.79514],[-35.21131,-5.79564],[-35.21153,-5.79604],[-35.21167,-5.79635],[-35.21195,-5.79688],[-35.2121,-5.79719],[-35.21227,-5.79739],[-35.21262,-5.79807],[-35.21193,-5.79966],[-35.21156,-5.80021],[-35.21148,-5.80034],[-35.21153,-5.80043],[-35.21153,-5.80065],[-35.21191,-5.802],[-35.21216,-5.80277],[-35.21235,-5.80332],[-35.21264,-5.80418],[-35.21301,-5.80516],[-35.21308,-5.80535],[-35.21337,-5.80615],[-35.21365,-5.80696],[-35.2139,-5.80752],[-35.214,-5.80781],[-35.21419,-5.8083],[-35.21439,-5.80882]]]]}},{"type":"Feature","properties":{"nbhd_name":"Quintas","uesi_id":"BRA_R301117","nbhd_code":"BRA_R301117_12"},"geometry":{"type":"MultiPolygon","coordinates":[[[[-35.22933,-5.8053],[-35.22969,-5.80555],[-35.23008,-5.80582],[-35.23042,-5.80606],[-35.231,-5.80584],[-35.23166,-5.80561],[-35.23235,-5.80537],[-35.2332,-5.80602],[-35.23372,-5.80635],[-35.23396,-5.80655],[-35.23428,-5.80675],[-35.23451,-5.80692],[-35.23479,-5.80711],[-35.23482,-5.80714],[-35.23494,-5.80726],[-35.2351,-5.80744],[-35.23531,-5.80756],[-35.23597,-5.80697],[-35.23661,-5.80642],[-35.23707,-5.80595],[-35.23764,-5.80543],[-35.23769,-5.80538],[-35.23794,-5.80511],[-35.23877,-5.8043],[-35.23861,-5.80418],[-35.23823,-5.8039],[-35.23794,-5.80368],[-35.23772,-5.80331],[-35.23758,-5.80308],[-35.23752,-5.80298],[-35.23746,-5.80289],[-35.23739,-5.80274],[-35.23736,-5.80265],[-35.23733,-5.80249],[-35.2373,-5.8023],[-35.23741,-5.80208],[-35.23759,-5.80167],[-35.23786,-5.80117],[-35.23793,-5.80105],[-35.23804,-5.80084],[-35.23804,-5.80084],[-35.23807,-5.80013],[-35.23807,-5.80006],[-35.23805,-5.80003],[-35.23799,-5.79999],[-35.23796,-5.79999],[-35.23795,-5.79999],[-35.23793,-5.79998],[-35.23789,-5.79997],[-35.23786,-5.79994],[-35.23789,-5.79993],[-35.23798,-5.79974],[-35.23799,-5.79958],[-35.23796,-5.79945],[-35.23789,-5.79915],[-35.23787,-5.79908],[-35.23786,-5.79901],[-35.23782,-5.79889],[-35.23775,-5.79867],[-35.23765,-5.79853],[-35.23759,-5.79849],[-35.23725,-5.79827],[-35.23724,-5.79826],[-35.23692,-5.79816],[-35.23702,-5.79813],[-35.23699,-5.79708],[-35.23686,-5.79558],[-35.23729,-5.79545],[-35.23755,-5.79529],[-35.23815,-5.79492],[-35.23793,-5.79457],[-35.23787,-5.79447],[-35.23603,-5.79079],[-35.2345,-5.78743],[-35.22615,-5.78734],[-35.22516,-5.78945],[-35.22363,-5.79288],[-35.22281,-5.79312],[-35.22284,-5.79366],[-35.22356,-5.79475],[-35.22432,-5.79506],[-35.22466,-5.79516],[-35.22554,-5.79571],[-35.22553,-5.79604],[-35.22556,-5.79634],[-35.22547,-5.79673],[-35.22525,-5.79703],[-35.22511,-5.79724],[-35.22505,-5.79736],[-35.22493,-5.79761],[-35.22486,-5.79775],[-35.22475,-5.79811],[-35.22499,-5.79872],[-35.22508,-5.79894],[-35.22542,-5.79948],[-35.22555,-5.79984],[-35.22552,-5.80014],[-35.22551,-5.80028],[-35.22535,-5.80059],[-35.22525,-5.80079],[-35.22508,-5.80103],[-35.22503,-5.80117],[-35.22485,-5.80157],[-35.22496,-5.80194],[-35.22508,-5.80211],[-35.22522,-5.80232],[-35.22535,-5.80257],[-35.22594,-5.80295],[-35.22595,-5.80295],[-35.22636,-5.80324],[-35.22662,-5.80342],[-35.22703,-5.80371],[-35.22756,-5.804],[-35.22792,-5.80401],[-35.22862,-5.80472],[-35.22883,-5.80493],[-35.22909,-5.80513],[-35.22933,-5.8053]]]]}},{"type":"Feature","properties":{"nbhd_name":"Nordeste","uesi_id":"BRA_R301117","nbhd_code":"BRA_R301117_13"},"geometry":{"type":"MultiPolygon","coordinates":[[[[-35.23739,-5.80274],[-35.23746,-5.80289],[-35.23752,-5.80298],[-35.23758,-5.80308],[-35.23772,-5.80331],[-35.23794,-5.80368],[-35.23823,-5.8039],[-35.23861,-5.80418],[-35.23877,-5.8043],[-35.23935,-5.80466],[-35.2394,-5.8047],[-35.23956,-5.80481],[-35.23984,-5.80506],[-35.24066,-5.80563],[-35.2407,-5.80565],[-35.24085,-5.80555],[-35.24113,-5.80526],[-35.24181,-5.80453],[-35.24245,-5.80368],[-35.2433,-5.8026],[-35.24352,-5.80233],[-35.24478,-5.80146],[-35.24656,-5.80027],[-35.25176,-5.79657],[-35.25136,-5.79403],[-35.25146,-5.79078],[-35.25078,-5.78757],[-35.24939,-5.78534],[-35.24778,-5.78354],[-35.24724,-5.78185],[-35.2471,-5.78186],[-35.24358,-5.78207],[-35.24051,-5.78348],[-35.2373,-5.78615],[-35.2345,-5.78743],[-35.23603,-5.79079],[-35.23787,-5.79447],[-35.23793,-5.79457],[-35.23815,-5.79492],[-35.23755,-5.79529],[-35.23729,-5.79545],[-35.23686,-5.79558],[-35.23699,-5.79708],[-35.23702,-5.79813],[-35.23692,-5.79816],[-35.23724,-5.79826],[-35.23725,-5.79827],[-35.23759,-5.79849],[-35.23765,-5.79853],[-35.23775,-5.79867],[-35.23782,-5.79889],[-35.23786,-5.79901],[-35.23787,-5.79908],[-35.23789,-5.79915],[-35.23796,-5.79945],[-35.23799,-5.79958],[-35.23798,-5.79974],[-35.23789,-5.79993],[-35.23786,-5.79994],[-35.23789,-5.79997],[-35.23793,-5.79998],[-35.23795,-5.79999],[-35.23796,-5.79999],[-35.23799,-5.79999],[-35.23805,-5.80003],[-35.23807,-5.80006],[-35.23807,-5.80013],[-35.23804,-5.80084],[-35.23804,-5.80084],[-35.23793,-5.80105],[-35.23786,-5.80117],[-35.23759,-5.80167],[-35.23741,-5.80208],[-35.2373,-5.8023],[-35.23733,-5.80249],[-35.23736,-5.80265],[-35.23739,-5.80274]]]]}},{"type":"Feature","properties":{"nbhd_name":"Bom Pastor","uesi_id":"BRA_R301117","nbhd_code":"BRA_R301117_14"},"geometry":{"type":"MultiPolygon","coordinates":[[[[-35.24085,-5.80555],[-35.2407,-5.80565],[-35.24066,-5.80563],[-35.23984,-5.80506],[-35.23956,-5.80481],[-35.2394,-5.8047],[-35.23935,-5.80466],[-35.23877,-5.8043],[-35.23794,-5.80511],[-35.23769,-5.80538],[-35.23764,-5.80543],[-35.23707,-5.80595],[-35.23661,-5.80642],[-35.23597,-5.80697],[-35.23531,-5.80756],[-35.2351,-5.80744],[-35.23494,-5.80726],[-35.23482,-5.80714],[-35.23479,-5.80711],[-35.23451,-5.80692],[-35.23428,-5.80675],[-35.23396,-5.80655],[-35.23372,-5.80635],[-35.2332,-5.80602],[-35.23235,-5.80537],[-35.23166,-5.80561],[-35.231,-5.80584],[-35.23042,-5.80606],[-35.23078,-5.8063],[-35.23119,-5.80654],[-35.23131,-5.80668],[-35.23147,-5.80682],[-35.23192,-5.80719],[-35.23222,-5.8075],[-35.2329,-5.80821],[-35.23318,-5.80856],[-35.23353,-5.80898],[-35.23384,-5.80942],[-35.23414,-5.80983],[-35.23454,-5.8105],[-35.23457,-5.81055],[-35.23514,-5.81139],[-35.23515,-5.81141],[-35.23547,-5.81189],[-35.23565,-5.8121],[-35.23588,-5.81252],[-35.2361,-5.81287],[-35.23638,-5.81328],[-35.23656,-5.81354],[-35.2372,-5.81457],[-35.2376,-5.8152],[-35.23799,-5.81564],[-35.23809,-5.81584],[-35.2384,-5.81632],[-35.23894,-5.81719],[-35.23906,-5.8173],[-35.23968,-5.81834],[-35.24021,-5.81815],[-35.24045,-5.81807],[-35.24083,-5.81792],[-35.241,-5.81786],[-35.24121,-5.81777],[-35.24311,-5.81712],[-35.24441,-5.81659],[-35.24494,-5.81634],[-35.24498,-5.81632],[-35.2459,-5.81601],[-35.24662,-5.81573],[-35.24751,-5.81543],[-35.24836,-5.81513],[-35.24924,-5.81474],[-35.24939,-5.81469],[-35.25002,-5.81446],[-35.25082,-5.81424],[-35.26263,-5.81006],[-35.2622,-5.80991],[-35.26146,-5.80966],[-35.26114,-5.8097],[-35.26092,-5.80963],[-35.25814,-5.80798],[-35.25698,-5.80665],[-35.25522,-5.80463],[-35.25361,-5.80176],[-35.25276,-5.79904],[-35.25196,-5.7978],[-35.25176,-5.79657],[-35.24656,-5.80027],[-35.24478,-5.80146],[-35.24352,-5.80233],[-35.2433,-5.8026],[-35.24245,-5.80368],[-35.24181,-5.80453],[-35.24113,-5.80526],[-35.24085,-5.80555]]]]}},{"type":"Feature","properties":{"nbhd_name":"Cidade da Esperan\u00e7a","uesi_id":"BRA_R301117","nbhd_code":"BRA_R301117_15"},"geometry":{"type":"MultiPolygon","coordinates":[[[[-35.22663,-5.8233],[-35.22764,-5.82602],[-35.22792,-5.82665],[-35.22798,-5.82681],[-35.22802,-5.8269],[-35.22772,-5.827],[-35.22721,-5.82718],[-35.22668,-5.82736],[-35.22658,-5.82739],[-35.22651,-5.82742],[-35.22658,-5.82746],[-35.22661,-5.82749],[-35.22662,-5.82756],[-35.22662,-5.82765],[-35.22666,-5.82775],[-35.22678,-5.82793],[-35.22712,-5.82846],[-35.22745,-5.82899],[-35.22759,-5.82922],[-35.22779,-5.82953],[-35.22813,-5.83006],[-35.22848,-5.8306],[-35.22881,-5.83114],[-35.22915,-5.83166],[-35.22936,-5.83197],[-35.2295,-5.8322],[-35.23,-5.83238],[-35.2302,-5.83303],[-35.23035,-5.83328],[-35.23053,-5.83371],[-35.23065,-5.83364],[-35.23138,-5.8333],[-35.23222,-5.83296],[-35.23237,-5.83287],[-35.23252,-5.83279],[-35.23265,-5.83272],[-35.23301,-5.83257],[-35.23345,-5.8324],[-35.2338,-5.83221],[-35.23405,-5.83207],[-35.23611,-5.8307],[-35.23658,-5.83143],[-35.23681,-5.83127],[-35.23719,-5.83083],[-35.23757,-5.83052],[-35.23794,-5.83016],[-35.23831,-5.82982],[-35.23879,-5.82941],[-35.23883,-5.82937],[-35.23922,-5.82904],[-35.23962,-5.82865],[-35.24,-5.82838],[-35.24041,-5.82809],[-35.24079,-5.82775],[-35.2412,-5.82742],[-35.2416,-5.82711],[-35.24207,-5.82685],[-35.24239,-5.82672],[-35.24249,-5.82667],[-35.24259,-5.82657],[-35.24278,-5.82642],[-35.24285,-5.82635],[-35.24303,-5.82625],[-35.24332,-5.8261],[-35.24364,-5.82592],[-35.24388,-5.82579],[-35.24392,-5.82576],[-35.24411,-5.82566],[-35.24365,-5.82455],[-35.24357,-5.82459],[-35.24354,-5.8246],[-35.24349,-5.82462],[-35.24344,-5.82465],[-35.24337,-5.82456],[-35.24305,-5.82389],[-35.24292,-5.82363],[-35.24282,-5.82347],[-35.24255,-5.82297],[-35.24226,-5.8226],[-35.24176,-5.82182],[-35.2415,-5.82144],[-35.24126,-5.82105],[-35.24054,-5.81976],[-35.24038,-5.81949],[-35.24009,-5.81902],[-35.23968,-5.81834],[-35.23939,-5.81844],[-35.23924,-5.8185],[-35.23903,-5.81857],[-35.23818,-5.81888],[-35.23773,-5.81905],[-35.2364,-5.81958],[-35.23536,-5.81998],[-35.23491,-5.82016],[-35.23446,-5.82032],[-35.23389,-5.82054],[-35.23371,-5.82061],[-35.23356,-5.82066],[-35.23258,-5.82104],[-35.23211,-5.82124],[-35.23176,-5.82135],[-35.23157,-5.82143],[-35.23095,-5.82167],[-35.23001,-5.822],[-35.22941,-5.82222],[-35.22865,-5.82251],[-35.22851,-5.82259],[-35.22787,-5.82283],[-35.22751,-5.82297],[-35.22663,-5.8233]]]]}},{"type":"Feature","properties":{"nbhd_name":"Dix-Sept Rosado","uesi_id":"BRA_R301117","nbhd_code":"BRA_R301117_16"},"geometry":{"type":"MultiPolygon","coordinates":[[[[-35.22339,-5.81461],[-35.22343,-5.81471],[-35.22407,-5.81446],[-35.22473,-5.81423],[-35.22504,-5.81408],[-35.22546,-5.81394],[-35.22604,-5.81372],[-35.22664,-5.8135],[-35.22733,-5.81324],[-35.22796,-5.81303],[-35.22858,-5.81279],[-35.22939,-5.8125],[-35.22985,-5.81234],[-35.23035,-5.81215],[-35.2311,-5.81187],[-35.23175,-5.81164],[-35.23235,-5.81141],[-35.23302,-5.81115],[-35.23327,-5.81103],[-35.23354,-5.81093],[-35.23385,-5.8108],[-35.2341,-5.8107],[-35.23457,-5.81055],[-35.23454,-5.8105],[-35.23414,-5.80983],[-35.23384,-5.80942],[-35.23353,-5.80898],[-35.23318,-5.80856],[-35.2329,-5.80821],[-35.23222,-5.8075],[-35.23192,-5.80719],[-35.23147,-5.80682],[-35.23131,-5.80668],[-35.23119,-5.80654],[-35.23078,-5.8063],[-35.23042,-5.80606],[-35.23008,-5.80582],[-35.22969,-5.80555],[-35.22933,-5.8053],[-35.22909,-5.80513],[-35.22883,-5.80493],[-35.22862,-5.80472],[-35.22792,-5.80401],[-35.22782,-5.80405],[-35.22729,-5.80423],[-35.22594,-5.80469],[-35.22471,-5.80515],[-35.22464,-5.80518],[-35.22281,-5.80587],[-35.2223,-5.80603],[-35.22222,-5.80606],[-35.2222,-5.80607],[-35.22109,-5.80652],[-35.21929,-5.80711],[-35.21864,-5.80735],[-35.21933,-5.80787],[-35.21977,-5.80819],[-35.22033,-5.80861],[-35.22091,-5.809],[-35.22122,-5.8092],[-35.2213,-5.80926],[-35.22144,-5.80934],[-35.22165,-5.80991],[-35.22166,-5.81007],[-35.22188,-5.81055],[-35.22212,-5.81126],[-35.22241,-5.81201],[-35.22262,-5.81258],[-35.22276,-5.81299],[-35.22296,-5.81356],[-35.22309,-5.81385],[-35.22321,-5.8141],[-35.22339,-5.81461]]]]}},{"type":"Feature","properties":{"nbhd_name":"Lagoa Nova","uesi_id":"BRA_R301117","nbhd_code":"BRA_R301117_17"},"geometry":{"type":"MultiPolygon","coordinates":[[[[-35.20478,-5.81245],[-35.20467,-5.81249],[-35.20463,-5.81237],[-35.20426,-5.81249],[-35.20199,-5.81335],[-35.20184,-5.81341],[-35.20114,-5.81364],[-35.20054,-5.81387],[-35.19934,-5.81435],[-35.19916,-5.81442],[-35.19905,-5.81446],[-35.19909,-5.81458],[-35.19939,-5.81536],[-35.19944,-5.81551],[-35.19957,-5.81584],[-35.19969,-5.81625],[-35.19992,-5.81691],[-35.19997,-5.81712],[-35.2,-5.81728],[-35.2002,-5.81779],[-35.20051,-5.81858],[-35.20064,-5.81891],[-35.20079,-5.81934],[-35.20096,-5.81985],[-35.20106,-5.82011],[-35.20116,-5.82035],[-35.20139,-5.82099],[-35.20144,-5.82114],[-35.2017,-5.82186],[-35.20204,-5.82279],[-35.20231,-5.82355],[-35.20237,-5.82373],[-35.20277,-5.8247],[-35.20285,-5.82494],[-35.20304,-5.8256],[-35.20331,-5.82655],[-35.20379,-5.82785],[-35.20328,-5.82802],[-35.20239,-5.82838],[-35.2017,-5.82858],[-35.20112,-5.82881],[-35.20115,-5.82887],[-35.20136,-5.82951],[-35.2015,-5.82998],[-35.20173,-5.83051],[-35.20187,-5.83105],[-35.20198,-5.83132],[-35.20231,-5.8323],[-35.20237,-5.83244],[-35.20107,-5.83339],[-35.19917,-5.83487],[-35.19691,-5.83663],[-35.19663,-5.83685],[-35.19618,-5.8374],[-35.19546,-5.83865],[-35.1951,-5.83925],[-35.19484,-5.83975],[-35.19467,-5.84043],[-35.19475,-5.84196],[-35.19481,-5.84225],[-35.19533,-5.84321],[-35.1954,-5.84334],[-35.19554,-5.84346],[-35.19581,-5.84365],[-35.19594,-5.8437],[-35.19612,-5.84371],[-35.19627,-5.84372],[-35.19633,-5.84371],[-35.1967,-5.84367],[-35.19827,-5.84352],[-35.19915,-5.84344],[-35.20033,-5.84329],[-35.20101,-5.84322],[-35.20192,-5.84314],[-35.20212,-5.84311],[-35.20222,-5.84306],[-35.20227,-5.84302],[-35.20233,-5.84298],[-35.20235,-5.84296],[-35.20244,-5.84284],[-35.20289,-5.84201],[-35.2033,-5.84125],[-35.20338,-5.84109],[-35.20361,-5.84059],[-35.20372,-5.84039],[-35.20407,-5.83974],[-35.20438,-5.83917],[-35.20458,-5.83881],[-35.20477,-5.83848],[-35.205,-5.83857],[-35.20578,-5.83901],[-35.20627,-5.83932],[-35.20646,-5.83944],[-35.2071,-5.83983],[-35.20728,-5.83999],[-35.20769,-5.84025],[-35.2094,-5.84129],[-35.2097,-5.84144],[-35.20997,-5.84072],[-35.21028,-5.8396],[-35.21035,-5.83942],[-35.21053,-5.83891],[-35.21066,-5.83852],[-35.21074,-5.83826],[-35.21127,-5.83643],[-35.21141,-5.8359],[-35.21173,-5.83478],[-35.21176,-5.83464],[-35.21187,-5.83377],[-35.2119,-5.83351],[-35.21214,-5.83348],[-35.21468,-5.83245],[-35.21478,-5.83241],[-35.21499,-5.83234],[-35.21709,-5.83156],[-35.21726,-5.83146],[-35.21896,-5.83072],[-35.21904,-5.83068],[-35.2197,-5.83039],[-35.22009,-5.83024],[-35.22035,-5.8301],[-35.22051,-5.83007],[-35.221,-5.82989],[-35.22115,-5.82983],[-35.22164,-5.82963],[-35.22189,-5.82947],[-35.22196,-5.82943],[-35.22244,-5.82916],[-35.22254,-5.82916],[-35.22312,-5.82887],[-35.22327,-5.82876],[-35.22381,-5.82856],[-35.22475,-5.82811],[-35.22534,-5.82783],[-35.22587,-5.82765],[-35.22608,-5.82758],[-35.22638,-5.82746],[-35.22651,-5.82742],[-35.22658,-5.82739],[-35.22668,-5.82736],[-35.22721,-5.82718],[-35.22772,-5.827],[-35.22802,-5.8269],[-35.22798,-5.82681],[-35.22792,-5.82665],[-35.22764,-5.82602],[-35.22663,-5.8233],[-35.22598,-5.82161],[-35.22576,-5.82102],[-35.22572,-5.82092],[-35.22555,-5.82047],[-35.22548,-5.82033],[-35.22543,-5.82022],[-35.22537,-5.81997],[-35.22523,-5.81972],[-35.22503,-5.8191],[-35.22463,-5.81788],[-35.22458,-5.81775],[-35.22433,-5.81711],[-35.22431,-5.81708],[-35.22421,-5.81682],[-35.22401,-5.8163],[-35.22389,-5.81593],[-35.22372,-5.81551],[-35.22343,-5.81471],[-35.22339,-5.81461],[-35.22321,-5.8141],[-35.22309,-5.81385],[-35.22296,-5.81356],[-35.22276,-5.81299],[-35.22262,-5.81258],[-35.22241,-5.81201],[-35.22212,-5.81126],[-35.22188,-5.81055],[-35.22166,-5.81007],[-35.22165,-5.80991],[-35.22144,-5.80934],[-35.2213,-5.80926],[-35.22122,-5.8092],[-35.22091,-5.809],[-35.22033,-5.80861],[-35.21977,-5.80819],[-35.21933,-5.80787],[-35.21864,-5.80735],[-35.21822,-5.80751],[-35.21744,-5.80782],[-35.21715,-5.80794],[-35.21645,-5.80822],[-35.21553,-5.80855],[-35.2145,-5.80891],[-35.21444,-5.80893],[-35.21339,-5.80933],[-35.21311,-5.80943],[-35.21236,-5.80969],[-35.21129,-5.81009],[-35.21087,-5.81023],[-35.21038,-5.81041],[-35.20956,-5.81072],[-35.20943,-5.81076],[-35.20766,-5.81136],[-35.20754,-5.81141],[-35.20478,-5.81245]]]]}},{"type":"Feature","properties":{"nbhd_name":"Nova Descoberta","uesi_id":"BRA_R301117","nbhd_code":"BRA_R301117_18"},"geometry":{"type":"MultiPolygon","coordinates":[[[[-35.1977,-5.81505],[-35.19715,-5.81523],[-35.19704,-5.81512],[-35.19697,-5.81494],[-35.19682,-5.81478],[-35.19633,-5.81484],[-35.19585,-5.81508],[-35.19565,-5.81513],[-35.19613,-5.81572],[-35.19613,-5.816],[-35.19599,-5.81619],[-35.19543,-5.81647],[-35.19538,-5.81681],[-35.19524,-5.81723],[-35.19524,-5.8177],[-35.19538,-5.81807],[-35.19557,-5.81842],[-35.19575,-5.81874],[-35.19645,-5.81991],[-35.19647,-5.81994],[-35.19574,-5.82063],[-35.19508,-5.82168],[-35.19497,-5.82282],[-35.19403,-5.82461],[-35.19379,-5.8247],[-35.19233,-5.82519],[-35.19173,-5.82658],[-35.19064,-5.82997],[-35.19117,-5.83157],[-35.1918,-5.83359],[-35.19203,-5.83407],[-35.19231,-5.83473],[-35.19328,-5.8354],[-35.19381,-5.83563],[-35.19517,-5.83609],[-35.19691,-5.83663],[-35.19917,-5.83487],[-35.20107,-5.83339],[-35.20237,-5.83244],[-35.20231,-5.8323],[-35.20198,-5.83132],[-35.20187,-5.83105],[-35.20173,-5.83051],[-35.2015,-5.82998],[-35.20136,-5.82951],[-35.20115,-5.82887],[-35.20112,-5.82881],[-35.2017,-5.82858],[-35.20239,-5.82838],[-35.20328,-5.82802],[-35.20379,-5.82785],[-35.20331,-5.82655],[-35.20304,-5.8256],[-35.20285,-5.82494],[-35.20277,-5.8247],[-35.20237,-5.82373],[-35.20231,-5.82355],[-35.20204,-5.82279],[-35.2017,-5.82186],[-35.20144,-5.82114],[-35.20139,-5.82099],[-35.20116,-5.82035],[-35.20106,-5.82011],[-35.20096,-5.81985],[-35.20079,-5.81934],[-35.20064,-5.81891],[-35.20051,-5.81858],[-35.2002,-5.81779],[-35.2,-5.81728],[-35.19997,-5.81712],[-35.19992,-5.81691],[-35.19969,-5.81625],[-35.19957,-5.81584],[-35.19944,-5.81551],[-35.19939,-5.81536],[-35.19909,-5.81458],[-35.19905,-5.81446],[-35.19835,-5.81474],[-35.19813,-5.81482],[-35.1977,-5.81505]],[[-35.20163,-5.82423],[-35.20158,-5.82427],[-35.20165,-5.82422],[-35.20163,-5.82423]]]]}},{"type":"Feature","properties":{"nbhd_name":"Candel\u00e1ria","uesi_id":"BRA_R301117","nbhd_code":"BRA_R301117_19"},"geometry":{"type":"MultiPolygon","coordinates":[[[[-35.20814,-5.84783],[-35.20817,-5.84796],[-35.2083,-5.84786],[-35.20832,-5.84784],[-35.20846,-5.84822],[-35.20895,-5.84947],[-35.20909,-5.84982],[-35.20976,-5.85121],[-35.2107,-5.85312],[-35.21088,-5.85352],[-35.21127,-5.8544],[-35.21143,-5.85475],[-35.21152,-5.85495],[-35.21159,-5.85509],[-35.2123,-5.85674],[-35.21221,-5.85684],[-35.21276,-5.85801],[-35.21328,-5.85918],[-35.21461,-5.86184],[-35.21541,-5.86355],[-35.21557,-5.86393],[-35.21561,-5.86403],[-35.21576,-5.86395],[-35.21752,-5.86299],[-35.21757,-5.86296],[-35.21828,-5.86255],[-35.21912,-5.86203],[-35.21989,-5.86157],[-35.22022,-5.86141],[-35.22142,-5.86074],[-35.2218,-5.86053],[-35.222,-5.86041],[-35.22244,-5.86018],[-35.22291,-5.85989],[-35.22299,-5.85986],[-35.22363,-5.8595],[-35.22384,-5.85935],[-35.22504,-5.85868],[-35.2257,-5.85827],[-35.22606,-5.85801],[-35.22592,-5.85782],[-35.22669,-5.85736],[-35.22747,-5.85691],[-35.22765,-5.85683],[-35.22791,-5.85671],[-35.22817,-5.85659],[-35.23006,-5.85554],[-35.23059,-5.85524],[-35.23137,-5.85462],[-35.23302,-5.84003],[-35.23282,-5.83772],[-35.231,-5.83444],[-35.23053,-5.83371],[-35.23035,-5.83328],[-35.2302,-5.83303],[-35.23,-5.83238],[-35.2295,-5.8322],[-35.22936,-5.83197],[-35.22915,-5.83166],[-35.22881,-5.83114],[-35.22848,-5.8306],[-35.22813,-5.83006],[-35.22779,-5.82953],[-35.22759,-5.82922],[-35.22745,-5.82899],[-35.22712,-5.82846],[-35.22678,-5.82793],[-35.22666,-5.82775],[-35.22662,-5.82765],[-35.22662,-5.82756],[-35.22661,-5.82749],[-35.22658,-5.82746],[-35.22651,-5.82742],[-35.22638,-5.82746],[-35.22608,-5.82758],[-35.22587,-5.82765],[-35.22534,-5.82783],[-35.22475,-5.82811],[-35.22381,-5.82856],[-35.22327,-5.82876],[-35.22312,-5.82887],[-35.22254,-5.82916],[-35.22244,-5.82916],[-35.22196,-5.82943],[-35.22189,-5.82947],[-35.22164,-5.82963],[-35.22115,-5.82983],[-35.221,-5.82989],[-35.22051,-5.83007],[-35.22035,-5.8301],[-35.22009,-5.83024],[-35.2197,-5.83039],[-35.21904,-5.83068],[-35.21896,-5.83072],[-35.21726,-5.83146],[-35.21709,-5.83156],[-35.21499,-5.83234],[-35.21478,-5.83241],[-35.21468,-5.83245],[-35.21214,-5.83348],[-35.2119,-5.83351],[-35.21187,-5.83377],[-35.21176,-5.83464],[-35.21173,-5.83478],[-35.21141,-5.8359],[-35.21127,-5.83643],[-35.21074,-5.83826],[-35.21066,-5.83852],[-35.21053,-5.83891],[-35.21035,-5.83942],[-35.21028,-5.8396],[-35.20997,-5.84072],[-35.2097,-5.84144],[-35.20959,-5.84172],[-35.20941,-5.84208],[-35.20887,-5.84321],[-35.20868,-5.8436],[-35.20855,-5.84386],[-35.20825,-5.84463],[-35.20811,-5.84513],[-35.20805,-5.84548],[-35.208,-5.84628],[-35.20802,-5.84682],[-35.20814,-5.84783]]]]}},{"type":"Feature","properties":{"nbhd_name":"Cidade Nova","uesi_id":"BRA_R301117","nbhd_code":"BRA_R301117_20"},"geometry":{"type":"MultiPolygon","coordinates":[[[[-35.23719,-5.83083],[-35.23681,-5.83127],[-35.23658,-5.83143],[-35.23611,-5.8307],[-35.23405,-5.83207],[-35.2338,-5.83221],[-35.23345,-5.8324],[-35.23301,-5.83257],[-35.23265,-5.83272],[-35.23252,-5.83279],[-35.23222,-5.83296],[-35.23138,-5.8333],[-35.23065,-5.83364],[-35.23053,-5.83371],[-35.23098,-5.83446],[-35.23144,-5.83524],[-35.23154,-5.83541],[-35.23282,-5.83772],[-35.23302,-5.84003],[-35.23137,-5.85462],[-35.23246,-5.85376],[-35.23244,-5.85306],[-35.23257,-5.85167],[-35.23262,-5.85119],[-35.23289,-5.85112],[-35.23353,-5.85094],[-35.23411,-5.85058],[-35.23467,-5.8502],[-35.23502,-5.84992],[-35.23536,-5.84955],[-35.23564,-5.84923],[-35.23603,-5.84883],[-35.2364,-5.84841],[-35.23677,-5.84801],[-35.23723,-5.8475],[-35.23734,-5.84738],[-35.23762,-5.8471],[-35.23773,-5.84698],[-35.23777,-5.84693],[-35.23794,-5.84646],[-35.23813,-5.84625],[-35.23841,-5.84612],[-35.24014,-5.84487],[-35.24061,-5.8445],[-35.24112,-5.84407],[-35.24152,-5.84371],[-35.24192,-5.84335],[-35.24295,-5.84246],[-35.2431,-5.84219],[-35.24379,-5.84092],[-35.24393,-5.84067],[-35.24469,-5.83941],[-35.24504,-5.8388],[-35.24522,-5.83845],[-35.24524,-5.83837],[-35.24525,-5.83802],[-35.24524,-5.83761],[-35.24519,-5.83698],[-35.24516,-5.83604],[-35.24511,-5.83571],[-35.24505,-5.83495],[-35.24497,-5.83438],[-35.24491,-5.83399],[-35.2448,-5.83356],[-35.24475,-5.83296],[-35.24474,-5.83253],[-35.24473,-5.83188],[-35.24473,-5.83184],[-35.24472,-5.83171],[-35.24471,-5.83155],[-35.24462,-5.83041],[-35.24458,-5.83008],[-35.24452,-5.82956],[-35.24447,-5.82891],[-35.24439,-5.82813],[-35.24436,-5.82717],[-35.24436,-5.82695],[-35.24435,-5.82683],[-35.24433,-5.8267],[-35.24429,-5.8263],[-35.24411,-5.82566],[-35.24392,-5.82576],[-35.24388,-5.82579],[-35.24364,-5.82592],[-35.24332,-5.8261],[-35.24303,-5.82625],[-35.24285,-5.82635],[-35.24278,-5.82642],[-35.24259,-5.82657],[-35.24249,-5.82667],[-35.24239,-5.82672],[-35.24207,-5.82685],[-35.2416,-5.82711],[-35.2412,-5.82742],[-35.24079,-5.82775],[-35.24041,-5.82809],[-35.24,-5.82838],[-35.23962,-5.82865],[-35.23922,-5.82904],[-35.23883,-5.82937],[-35.23879,-5.82941],[-35.23831,-5.82982],[-35.23794,-5.83016],[-35.23757,-5.83052],[-35.23719,-5.83083]]]]}},{"type":"Feature","properties":{"nbhd_name":"Filipe Camar\u00e3o","uesi_id":"BRA_R301117","nbhd_code":"BRA_R301117_21"},"geometry":{"type":"MultiPolygon","coordinates":[[[[-35.24305,-5.82389],[-35.24337,-5.82456],[-35.24344,-5.82465],[-35.24349,-5.82462],[-35.24354,-5.8246],[-35.24357,-5.82459],[-35.24365,-5.82455],[-35.24411,-5.82566],[-35.24429,-5.8263],[-35.24433,-5.8267],[-35.24435,-5.82683],[-35.24436,-5.82695],[-35.24436,-5.82717],[-35.24439,-5.82813],[-35.24447,-5.82891],[-35.24452,-5.82956],[-35.24458,-5.83008],[-35.24462,-5.83041],[-35.24471,-5.83155],[-35.24472,-5.83171],[-35.24473,-5.83184],[-35.24473,-5.83188],[-35.24474,-5.83253],[-35.24475,-5.83296],[-35.2448,-5.83356],[-35.24491,-5.83399],[-35.24497,-5.83438],[-35.24505,-5.83495],[-35.24511,-5.83571],[-35.24516,-5.83604],[-35.24608,-5.83572],[-35.24689,-5.83544],[-35.24762,-5.83517],[-35.24837,-5.83487],[-35.2492,-5.83455],[-35.24994,-5.83428],[-35.25078,-5.83396],[-35.2518,-5.83358],[-35.25188,-5.83433],[-35.25284,-5.83487],[-35.2536,-5.83533],[-35.25412,-5.83563],[-35.25436,-5.83577],[-35.25455,-5.83588],[-35.25539,-5.83629],[-35.25599,-5.83658],[-35.25652,-5.83685],[-35.25718,-5.83719],[-35.25809,-5.83765],[-35.25966,-5.83862],[-35.26002,-5.83884],[-35.26017,-5.83894],[-35.26046,-5.83914],[-35.26101,-5.83735],[-35.26185,-5.83542],[-35.26201,-5.83509],[-35.26226,-5.83457],[-35.26276,-5.83353],[-35.2632,-5.83261],[-35.26353,-5.83191],[-35.26374,-5.83146],[-35.26399,-5.83091],[-35.26428,-5.83027],[-35.26508,-5.82859],[-35.26542,-5.82791],[-35.26633,-5.82589],[-35.26686,-5.82494],[-35.26686,-5.82492],[-35.26735,-5.82378],[-35.26764,-5.82319],[-35.26779,-5.82274],[-35.268,-5.82228],[-35.2685,-5.82127],[-35.26863,-5.82101],[-35.26994,-5.81568],[-35.27054,-5.81318],[-35.27043,-5.81309],[-35.26657,-5.81117],[-35.26484,-5.81075],[-35.26354,-5.81036],[-35.26263,-5.81006],[-35.25082,-5.81424],[-35.25002,-5.81446],[-35.24939,-5.81469],[-35.24924,-5.81474],[-35.24836,-5.81513],[-35.24751,-5.81543],[-35.24662,-5.81573],[-35.2459,-5.81601],[-35.24498,-5.81632],[-35.24494,-5.81634],[-35.24441,-5.81659],[-35.24311,-5.81712],[-35.24121,-5.81777],[-35.241,-5.81786],[-35.24083,-5.81792],[-35.24045,-5.81807],[-35.24021,-5.81815],[-35.23968,-5.81834],[-35.24009,-5.81902],[-35.24038,-5.81949],[-35.24054,-5.81976],[-35.24126,-5.82105],[-35.2415,-5.82144],[-35.24176,-5.82182],[-35.24226,-5.8226],[-35.24255,-5.82297],[-35.24282,-5.82347],[-35.24292,-5.82363],[-35.24305,-5.82389]]]]}},{"type":"Feature","properties":{"nbhd_name":"Guarap\u00e9s","uesi_id":"BRA_R301117","nbhd_code":"BRA_R301117_22"},"geometry":{"type":"MultiPolygon","coordinates":[[[[-35.26101,-5.83735],[-35.26046,-5.83914],[-35.26017,-5.83894],[-35.26002,-5.83884],[-35.25966,-5.83862],[-35.25809,-5.83765],[-35.25718,-5.83719],[-35.25652,-5.83685],[-35.25599,-5.83658],[-35.25539,-5.83629],[-35.25455,-5.83588],[-35.25436,-5.83577],[-35.25412,-5.83563],[-35.2536,-5.83533],[-35.25284,-5.83487],[-35.25188,-5.83433],[-35.2518,-5.83358],[-35.25078,-5.83396],[-35.24994,-5.83428],[-35.2492,-5.83455],[-35.24837,-5.83487],[-35.24762,-5.83517],[-35.24689,-5.83544],[-35.24608,-5.83572],[-35.24516,-5.83604],[-35.24519,-5.83698],[-35.24524,-5.83761],[-35.24525,-5.83802],[-35.24524,-5.83837],[-35.25285,-5.84202],[-35.2537,-5.84245],[-35.25478,-5.843],[-35.25649,-5.8439],[-35.25833,-5.8449],[-35.25932,-5.84537],[-35.26012,-5.84574],[-35.26031,-5.84584],[-35.26166,-5.84655],[-35.26346,-5.84737],[-35.26422,-5.84779],[-35.26518,-5.84832],[-35.26579,-5.84867],[-35.26672,-5.84926],[-35.26709,-5.84949],[-35.26872,-5.85029],[-35.26894,-5.85041],[-35.26941,-5.85063],[-35.2708,-5.8513],[-35.27181,-5.8518],[-35.27232,-5.85205],[-35.27264,-5.85223],[-35.27318,-5.8525],[-35.27377,-5.85281],[-35.27392,-5.85288],[-35.27422,-5.85303],[-35.27618,-5.85416],[-35.27703,-5.854],[-35.27704,-5.854],[-35.27803,-5.85381],[-35.27849,-5.85351],[-35.27874,-5.85314],[-35.27874,-5.85314],[-35.2791,-5.8527],[-35.27927,-5.85229],[-35.27959,-5.85195],[-35.27992,-5.85166],[-35.27992,-5.85166],[-35.28055,-5.85131],[-35.28055,-5.8513],[-35.28078,-5.85109],[-35.28079,-5.85108],[-35.28107,-5.85087],[-35.28107,-5.85087],[-35.28131,-5.85058],[-35.28132,-5.85057],[-35.28167,-5.85026],[-35.28168,-5.85025],[-35.28209,-5.84942],[-35.28221,-5.84918],[-35.28221,-5.84913],[-35.28221,-5.84912],[-35.28226,-5.84782],[-35.28226,-5.84782],[-35.2823,-5.84665],[-35.28235,-5.84558],[-35.28237,-5.8451],[-35.28224,-5.84345],[-35.28214,-5.84166],[-35.2825,-5.8392],[-35.28273,-5.8376],[-35.28213,-5.83639],[-35.28038,-5.83615],[-35.28131,-5.83329],[-35.28139,-5.83133],[-35.28164,-5.82967],[-35.28165,-5.82908],[-35.28166,-5.82804],[-35.28156,-5.82646],[-35.28151,-5.82503],[-35.28119,-5.82165],[-35.28048,-5.8203],[-35.27934,-5.81852],[-35.27805,-5.8179],[-35.27573,-5.81732],[-35.27413,-5.8166],[-35.27214,-5.81448],[-35.27054,-5.81318],[-35.26994,-5.81568],[-35.26863,-5.82101],[-35.2685,-5.82127],[-35.268,-5.82228],[-35.26779,-5.82274],[-35.26764,-5.82319],[-35.26735,-5.82378],[-35.26686,-5.82492],[-35.26686,-5.82494],[-35.26633,-5.82589],[-35.26542,-5.82791],[-35.26508,-5.82859],[-35.26428,-5.83027],[-35.26399,-5.83091],[-35.26374,-5.83146],[-35.26353,-5.83191],[-35.2632,-5.83261],[-35.26276,-5.83353],[-35.26226,-5.83457],[-35.26201,-5.83509],[-35.26185,-5.83542],[-35.26101,-5.83735]]]]}},{"type":"Feature","properties":{"nbhd_name":"Pitimb\u00fa","uesi_id":"BRA_R301117","nbhd_code":"BRA_R301117_23"},"geometry":{"type":"MultiPolygon","coordinates":[[[[-35.21752,-5.86299],[-35.21576,-5.86395],[-35.21561,-5.86403],[-35.2157,-5.86424],[-35.21726,-5.86745],[-35.21726,-5.86745],[-35.21726,-5.86745],[-35.21761,-5.86818],[-35.21761,-5.86818],[-35.21787,-5.86871],[-35.21827,-5.86957],[-35.21865,-5.87047],[-35.21921,-5.87167],[-35.21946,-5.872],[-35.21946,-5.87201],[-35.22035,-5.87317],[-35.2212,-5.87438],[-35.22295,-5.87671],[-35.22368,-5.87771],[-35.22456,-5.88019],[-35.22474,-5.8807],[-35.22477,-5.88067],[-35.22509,-5.88042],[-35.22514,-5.88037],[-35.22571,-5.87992],[-35.22664,-5.87863],[-35.2276,-5.87729],[-35.22801,-5.87695],[-35.22877,-5.87631],[-35.23076,-5.87608],[-35.23113,-5.87587],[-35.23113,-5.87587],[-35.2315,-5.87567],[-35.23212,-5.87517],[-35.23433,-5.87337],[-35.23559,-5.87234],[-35.23647,-5.87111],[-35.23734,-5.86902],[-35.23922,-5.86759],[-35.24104,-5.8659],[-35.24254,-5.86452],[-35.24308,-5.86423],[-35.24428,-5.86411],[-35.24567,-5.86373],[-35.2461,-5.86347],[-35.24709,-5.86338],[-35.24792,-5.86358],[-35.24898,-5.86426],[-35.25046,-5.86491],[-35.25169,-5.86525],[-35.25323,-5.86537],[-35.25371,-5.86541],[-35.25398,-5.86518],[-35.25406,-5.86498],[-35.25306,-5.86439],[-35.25191,-5.86368],[-35.25142,-5.86292],[-35.25096,-5.86213],[-35.25069,-5.86185],[-35.25038,-5.86164],[-35.25011,-5.86153],[-35.24967,-5.86124],[-35.24927,-5.86097],[-35.24897,-5.86054],[-35.24874,-5.86],[-35.24869,-5.8599],[-35.24854,-5.85958],[-35.24845,-5.85924],[-35.24853,-5.85828],[-35.24842,-5.85748],[-35.24812,-5.85684],[-35.2479,-5.85636],[-35.24766,-5.85583],[-35.24708,-5.85339],[-35.24689,-5.85249],[-35.24687,-5.85238],[-35.24675,-5.85183],[-35.2465,-5.85098],[-35.24637,-5.85077],[-35.24566,-5.84975],[-35.24527,-5.84847],[-35.24523,-5.84833],[-35.24484,-5.84732],[-35.24473,-5.84699],[-35.24465,-5.84679],[-35.24444,-5.84632],[-35.24434,-5.84599],[-35.24415,-5.84541],[-35.2441,-5.84506],[-35.24406,-5.84481],[-35.24405,-5.84477],[-35.24384,-5.84427],[-35.24378,-5.84415],[-35.24356,-5.84379],[-35.24332,-5.84327],[-35.24311,-5.84277],[-35.24295,-5.84246],[-35.24192,-5.84335],[-35.24152,-5.84371],[-35.24112,-5.84407],[-35.24061,-5.8445],[-35.24014,-5.84487],[-35.23841,-5.84612],[-35.23813,-5.84625],[-35.23794,-5.84646],[-35.23777,-5.84693],[-35.23773,-5.84698],[-35.23762,-5.8471],[-35.23734,-5.84738],[-35.23723,-5.8475],[-35.23677,-5.84801],[-35.2364,-5.84841],[-35.23603,-5.84883],[-35.23564,-5.84923],[-35.23536,-5.84955],[-35.23502,-5.84992],[-35.23467,-5.8502],[-35.23411,-5.85058],[-35.23353,-5.85094],[-35.23289,-5.85112],[-35.23262,-5.85119],[-35.23257,-5.85167],[-35.23244,-5.85306],[-35.23246,-5.85376],[-35.23137,-5.85462],[-35.23059,-5.85524],[-35.23006,-5.85554],[-35.22817,-5.85659],[-35.22791,-5.85671],[-35.22765,-5.85683],[-35.22747,-5.85691],[-35.22669,-5.85736],[-35.22592,-5.85782],[-35.22606,-5.85801],[-35.2257,-5.85827],[-35.22504,-5.85868],[-35.22384,-5.85935],[-35.22363,-5.8595],[-35.22299,-5.85986],[-35.22291,-5.85989],[-35.22244,-5.86018],[-35.222,-5.86041],[-35.2218,-5.86053],[-35.22142,-5.86074],[-35.22022,-5.86141],[-35.21989,-5.86157],[-35.21912,-5.86203],[-35.21828,-5.86255],[-35.21757,-5.86296],[-35.21752,-5.86299]]]]}},{"type":"Feature","properties":{"nbhd_name":"Ne\u00f3polis","uesi_id":"BRA_R301117","nbhd_code":"BRA_R301117_24"},"geometry":{"type":"MultiPolygon","coordinates":[[[[-35.1978,-5.86771],[-35.19731,-5.86813],[-35.1972,-5.86811],[-35.19633,-5.86873],[-35.19676,-5.86912],[-35.19766,-5.8702],[-35.19801,-5.87066],[-35.19808,-5.87075],[-35.19813,-5.87083],[-35.19912,-5.87215],[-35.19961,-5.87268],[-35.19981,-5.8729],[-35.20002,-5.87308],[-35.2002,-5.87275],[-35.2004,-5.87229],[-35.20063,-5.87164],[-35.20072,-5.87146],[-35.20097,-5.8713],[-35.20116,-5.87128],[-35.20189,-5.87112],[-35.20217,-5.87107],[-35.20261,-5.871],[-35.20296,-5.87094],[-35.20315,-5.87091],[-35.20285,-5.87202],[-35.2027,-5.87265],[-35.2027,-5.87266],[-35.20266,-5.87288],[-35.20265,-5.87293],[-35.2026,-5.87319],[-35.20249,-5.87374],[-35.20222,-5.87473],[-35.20181,-5.87624],[-35.20175,-5.87647],[-35.20173,-5.87653],[-35.20138,-5.87769],[-35.20124,-5.87825],[-35.20084,-5.8797],[-35.20043,-5.88116],[-35.2006,-5.88103],[-35.20069,-5.88097],[-35.20071,-5.88096],[-35.20247,-5.87965],[-35.20298,-5.87928],[-35.2042,-5.87839],[-35.20431,-5.8783],[-35.20475,-5.87789],[-35.20609,-5.87692],[-35.20663,-5.87651],[-35.20799,-5.87546],[-35.20885,-5.87479],[-35.20902,-5.87512],[-35.20909,-5.87526],[-35.20916,-5.87536],[-35.21204,-5.87388],[-35.21144,-5.87273],[-35.21106,-5.87198],[-35.21102,-5.87189],[-35.21118,-5.87181],[-35.21136,-5.87177],[-35.21152,-5.87178],[-35.21162,-5.8718],[-35.21183,-5.87179],[-35.21276,-5.87124],[-35.21279,-5.87122],[-35.21325,-5.87099],[-35.21375,-5.87075],[-35.21427,-5.8705],[-35.21479,-5.87025],[-35.21464,-5.86994],[-35.21591,-5.86914],[-35.216,-5.86911],[-35.21622,-5.86904],[-35.21714,-5.86846],[-35.21761,-5.86818],[-35.21726,-5.86745],[-35.21726,-5.86745],[-35.21726,-5.86745],[-35.2157,-5.86424],[-35.21561,-5.86403],[-35.21557,-5.86393],[-35.21541,-5.86355],[-35.21461,-5.86184],[-35.21328,-5.85918],[-35.21276,-5.85801],[-35.21221,-5.85684],[-35.2123,-5.85674],[-35.21159,-5.85509],[-35.21152,-5.85495],[-35.21143,-5.85475],[-35.21127,-5.8544],[-35.21088,-5.85352],[-35.21041,-5.85365],[-35.21008,-5.85376],[-35.21001,-5.8538],[-35.20986,-5.85384],[-35.2095,-5.85398],[-35.20933,-5.85401],[-35.20878,-5.85415],[-35.2085,-5.85424],[-35.20806,-5.85439],[-35.20799,-5.85441],[-35.2077,-5.85454],[-35.20715,-5.85471],[-35.20675,-5.85481],[-35.20586,-5.85507],[-35.20546,-5.85516],[-35.20538,-5.85568],[-35.20545,-5.85655],[-35.2054,-5.85702],[-35.20541,-5.85758],[-35.20541,-5.85763],[-35.20537,-5.85827],[-35.20533,-5.85916],[-35.20532,-5.85918],[-35.20534,-5.8598],[-35.20528,-5.86014],[-35.20529,-5.86033],[-35.20528,-5.86044],[-35.20527,-5.86055],[-35.20525,-5.86066],[-35.20519,-5.86087],[-35.20518,-5.8609],[-35.20513,-5.86097],[-35.20509,-5.86105],[-35.20506,-5.86113],[-35.20502,-5.86124],[-35.20496,-5.86148],[-35.20481,-5.86215],[-35.20473,-5.86252],[-35.20453,-5.8626],[-35.20376,-5.86317],[-35.20168,-5.86475],[-35.20121,-5.86507],[-35.20108,-5.86517],[-35.20052,-5.86558],[-35.19973,-5.86624],[-35.19968,-5.86627],[-35.19938,-5.86653],[-35.19916,-5.86667],[-35.19887,-5.86686],[-35.19872,-5.86699],[-35.19826,-5.86733],[-35.19804,-5.8675],[-35.1978,-5.86771]]]]}},{"type":"Feature","properties":{"nbhd_name":"Capim Macio","uesi_id":"BRA_R301117","nbhd_code":"BRA_R301117_25"},"geometry":{"type":"MultiPolygon","coordinates":[[[[-35.19633,-5.84371],[-35.19627,-5.84372],[-35.19612,-5.84371],[-35.19594,-5.8437],[-35.19581,-5.84365],[-35.19554,-5.84346],[-35.1954,-5.84334],[-35.19551,-5.84366],[-35.19553,-5.8439],[-35.19582,-5.84494],[-35.19612,-5.84575],[-35.19638,-5.84639],[-35.19644,-5.84653],[-35.1968,-5.84738],[-35.19738,-5.84911],[-35.19805,-5.8508],[-35.19817,-5.85123],[-35.19835,-5.85167],[-35.19848,-5.85193],[-35.19854,-5.85206],[-35.19869,-5.85244],[-35.19904,-5.85308],[-35.19972,-5.85434],[-35.19979,-5.85449],[-35.19974,-5.85453],[-35.19935,-5.85481],[-35.19877,-5.85524],[-35.19853,-5.85543],[-35.19765,-5.85611],[-35.19737,-5.85633],[-35.19721,-5.85644],[-35.19691,-5.85669],[-35.19606,-5.85735],[-35.19476,-5.85834],[-35.19404,-5.85893],[-35.19315,-5.85963],[-35.19235,-5.86025],[-35.19148,-5.86092],[-35.19069,-5.86154],[-35.18988,-5.86217],[-35.189,-5.86285],[-35.18839,-5.86333],[-35.18798,-5.86364],[-35.18732,-5.86407],[-35.18716,-5.86417],[-35.18704,-5.86424],[-35.18614,-5.86478],[-35.18481,-5.86546],[-35.1839,-5.86598],[-35.18405,-5.86616],[-35.18454,-5.86678],[-35.1849,-5.86726],[-35.18541,-5.86782],[-35.18578,-5.86835],[-35.18595,-5.86854],[-35.18622,-5.86885],[-35.18665,-5.86934],[-35.18676,-5.86948],[-35.18693,-5.86968],[-35.1871,-5.86985],[-35.18739,-5.87017],[-35.18748,-5.87028],[-35.18788,-5.87069],[-35.18829,-5.87117],[-35.18862,-5.87158],[-35.18872,-5.87162],[-35.18908,-5.87205],[-35.18917,-5.87214],[-35.18953,-5.87259],[-35.19066,-5.87398],[-35.19143,-5.87328],[-35.19128,-5.87307],[-35.1927,-5.87186],[-35.19401,-5.87071],[-35.19555,-5.86937],[-35.19557,-5.86936],[-35.19562,-5.86932],[-35.19633,-5.86873],[-35.1972,-5.86811],[-35.19731,-5.86813],[-35.1978,-5.86771],[-35.19804,-5.8675],[-35.19826,-5.86733],[-35.19872,-5.86699],[-35.19887,-5.86686],[-35.19916,-5.86667],[-35.19938,-5.86653],[-35.19968,-5.86627],[-35.19973,-5.86624],[-35.20052,-5.86558],[-35.20108,-5.86517],[-35.20121,-5.86507],[-35.20168,-5.86475],[-35.20376,-5.86317],[-35.20453,-5.8626],[-35.20473,-5.86252],[-35.20481,-5.86215],[-35.20496,-5.86148],[-35.20502,-5.86124],[-35.20506,-5.86113],[-35.20509,-5.86105],[-35.20513,-5.86097],[-35.20518,-5.8609],[-35.20519,-5.86087],[-35.20525,-5.86066],[-35.20527,-5.86055],[-35.20528,-5.86044],[-35.20529,-5.86033],[-35.20528,-5.86014],[-35.20534,-5.8598],[-35.20532,-5.85918],[-35.20533,-5.85916],[-35.20537,-5.85827],[-35.20541,-5.85763],[-35.20541,-5.85758],[-35.2054,-5.85702],[-35.20545,-5.85655],[-35.20538,-5.85568],[-35.20546,-5.85516],[-35.20586,-5.85507],[-35.20675,-5.85481],[-35.20715,-5.85471],[-35.2077,-5.85454],[-35.20799,-5.85441],[-35.20806,-5.85439],[-35.2085,-5.85424],[-35.20878,-5.85415],[-35.20933,-5.85401],[-35.2095,-5.85398],[-35.20986,-5.85384],[-35.21001,-5.8538],[-35.21008,-5.85376],[-35.21041,-5.85365],[-35.21088,-5.85352],[-35.2107,-5.85312],[-35.20976,-5.85121],[-35.20909,-5.84982],[-35.20895,-5.84947],[-35.20846,-5.84822],[-35.20832,-5.84784],[-35.2083,-5.84786],[-35.20817,-5.84796],[-35.20814,-5.84783],[-35.20802,-5.84682],[-35.208,-5.84628],[-35.20805,-5.84548],[-35.20811,-5.84513],[-35.20825,-5.84463],[-35.20855,-5.84386],[-35.20868,-5.8436],[-35.20887,-5.84321],[-35.20941,-5.84208],[-35.20959,-5.84172],[-35.2097,-5.84144],[-35.2094,-5.84129],[-35.20769,-5.84025],[-35.20728,-5.83999],[-35.2071,-5.83983],[-35.20646,-5.83944],[-35.20627,-5.83932],[-35.20578,-5.83901],[-35.205,-5.83857],[-35.20477,-5.83848],[-35.20458,-5.83881],[-35.20438,-5.83917],[-35.20407,-5.83974],[-35.20372,-5.84039],[-35.20361,-5.84059],[-35.20338,-5.84109],[-35.2033,-5.84125],[-35.20289,-5.84201],[-35.20244,-5.84284],[-35.20235,-5.84296],[-35.20233,-5.84298],[-35.20227,-5.84302],[-35.20222,-5.84306],[-35.20212,-5.84311],[-35.20192,-5.84314],[-35.20101,-5.84322],[-35.20033,-5.84329],[-35.19915,-5.84344],[-35.19827,-5.84352],[-35.1967,-5.84367],[-35.19633,-5.84371]]]]}},{"type":"Feature","properties":{"nbhd_name":"Ponta Negra","uesi_id":"BRA_R301117","nbhd_code":"BRA_R301117_26"},"geometry":{"type":"MultiPolygon","coordinates":[[[[-35.17622,-5.87372],[-35.17602,-5.87411],[-35.17586,-5.87439],[-35.1756,-5.87484],[-35.17546,-5.87508],[-35.17527,-5.87542],[-35.17497,-5.87601],[-35.17468,-5.87649],[-35.1746,-5.87662],[-35.17449,-5.87677],[-35.17411,-5.87729],[-35.17408,-5.87735],[-35.17405,-5.87741],[-35.17399,-5.87758],[-35.17396,-5.87764],[-35.17393,-5.87769],[-35.1739,-5.87775],[-35.17388,-5.87777],[-35.17369,-5.87801],[-35.17354,-5.87821],[-35.17354,-5.87821],[-35.17354,-5.87821],[-35.17353,-5.87821],[-35.17352,-5.87821],[-35.17351,-5.87821],[-35.17351,-5.87822],[-35.1735,-5.87822],[-35.17349,-5.87823],[-35.17349,-5.87823],[-35.17348,-5.87824],[-35.17348,-5.87824],[-35.17347,-5.87825],[-35.17347,-5.87825],[-35.17347,-5.87826],[-35.17346,-5.87827],[-35.17346,-5.87828],[-35.17335,-5.87849],[-35.17312,-5.87885],[-35.17303,-5.87898],[-35.17293,-5.8791],[-35.17288,-5.87915],[-35.17202,-5.88009],[-35.17102,-5.88108],[-35.17088,-5.88121],[-35.17056,-5.88149],[-35.17056,-5.88149],[-35.17044,-5.88159],[-35.17043,-5.8816],[-35.17033,-5.88168],[-35.17033,-5.88168],[-35.17014,-5.88182],[-35.17006,-5.8819],[-35.17005,-5.8819],[-35.16998,-5.88197],[-35.16998,-5.88198],[-35.1699,-5.88205],[-35.1695,-5.88234],[-35.16947,-5.88235],[-35.16908,-5.8826],[-35.16907,-5.8826],[-35.16865,-5.88287],[-35.16801,-5.8832],[-35.16756,-5.88337],[-35.16706,-5.88352],[-35.16658,-5.88362],[-35.16558,-5.88354],[-35.16401,-5.88342],[-35.16399,-5.88168],[-35.16314,-5.8803],[-35.16125,-5.87983],[-35.15858,-5.88098],[-35.15693,-5.88335],[-35.15691,-5.88336],[-35.15686,-5.88335],[-35.15652,-5.88328],[-35.1551,-5.88298],[-35.15508,-5.88299],[-35.15447,-5.88337],[-35.15433,-5.88345],[-35.1543,-5.88353],[-35.15272,-5.88799],[-35.15272,-5.888],[-35.15276,-5.88814],[-35.1543,-5.89294],[-35.1548,-5.89753],[-35.15652,-5.89768],[-35.17558,-5.8994],[-35.17587,-5.89942],[-35.17881,-5.89729],[-35.18859,-5.89021],[-35.19209,-5.88768],[-35.19331,-5.8868],[-35.19596,-5.8847],[-35.19685,-5.884],[-35.19789,-5.88317],[-35.20043,-5.88116],[-35.20084,-5.8797],[-35.20124,-5.87825],[-35.20138,-5.87769],[-35.20173,-5.87653],[-35.20175,-5.87647],[-35.20181,-5.87624],[-35.20222,-5.87473],[-35.20249,-5.87374],[-35.2026,-5.87319],[-35.20265,-5.87293],[-35.20266,-5.87288],[-35.2027,-5.87266],[-35.2027,-5.87265],[-35.20285,-5.87202],[-35.20315,-5.87091],[-35.20296,-5.87094],[-35.20261,-5.871],[-35.20217,-5.87107],[-35.20189,-5.87112],[-35.20116,-5.87128],[-35.20097,-5.8713],[-35.20072,-5.87146],[-35.20063,-5.87164],[-35.2004,-5.87229],[-35.2002,-5.87275],[-35.20002,-5.87308],[-35.19981,-5.8729],[-35.19961,-5.87268],[-35.19912,-5.87215],[-35.19861,-5.87146],[-35.19813,-5.87083],[-35.19808,-5.87075],[-35.19801,-5.87066],[-35.19766,-5.8702],[-35.19676,-5.86912],[-35.19633,-5.86873],[-35.19562,-5.86932],[-35.19557,-5.86936],[-35.19555,-5.86937],[-35.19401,-5.87071],[-35.1927,-5.87186],[-35.19128,-5.87307],[-35.19143,-5.87328],[-35.19066,-5.87398],[-35.18953,-5.87259],[-35.18917,-5.87214],[-35.18908,-5.87205],[-35.18872,-5.87162],[-35.18862,-5.87158],[-35.18829,-5.87117],[-35.18788,-5.87069],[-35.18748,-5.87028],[-35.18739,-5.87017],[-35.1871,-5.86985],[-35.18693,-5.86968],[-35.18676,-5.86948],[-35.18665,-5.86934],[-35.18622,-5.86885],[-35.18595,-5.86854],[-35.18578,-5.86835],[-35.18541,-5.86782],[-35.1849,-5.86726],[-35.18454,-5.86678],[-35.18405,-5.86616],[-35.1839,-5.86598],[-35.18372,-5.86586],[-35.18373,-5.8655],[-35.18334,-5.86503],[-35.18042,-5.8634],[-35.17976,-5.86308],[-35.17768,-5.86163],[-35.17874,-5.86784],[-35.17862,-5.86811],[-35.17853,-5.86832],[-35.17847,-5.86847],[-35.17842,-5.8686],[-35.17839,-5.86871],[-35.17837,-5.86875],[-35.17832,-5.86893],[-35.17822,-5.86925],[-35.17778,-5.87075],[-35.17776,-5.87081],[-35.17773,-5.87087],[-35.1777,-5.87094],[-35.17762,-5.8711],[-35.17737,-5.87156],[-35.17732,-5.87164],[-35.17712,-5.872],[-35.17657,-5.87301],[-35.17622,-5.87372]]]]}},{"type":"Feature","properties":{"nbhd_name":"Igap\u00f3","uesi_id":"BRA_R301117","nbhd_code":"BRA_R301117_27"},"geometry":{"type":"MultiPolygon","coordinates":[[[[-35.24717,-5.7817],[-35.2471,-5.78186],[-35.24724,-5.78185],[-35.24759,-5.78099],[-35.2476,-5.78095],[-35.24773,-5.78059],[-35.24784,-5.78028],[-35.24784,-5.78027],[-35.24788,-5.78017],[-35.24788,-5.78017],[-35.24822,-5.77922],[-35.24822,-5.77922],[-35.24846,-5.77859],[-35.24847,-5.77855],[-35.24847,-5.77854],[-35.24854,-5.77836],[-35.24854,-5.77836],[-35.24855,-5.77833],[-35.24855,-5.77833],[-35.2487,-5.77783],[-35.24903,-5.77738],[-35.24929,-5.77715],[-35.24957,-5.7769],[-35.24973,-5.77682],[-35.25002,-5.77669],[-35.25103,-5.77623],[-35.25119,-5.7762],[-35.2512,-5.7762],[-35.25153,-5.77608],[-35.25196,-5.77593],[-35.25215,-5.77586],[-35.25274,-5.77565],[-35.25337,-5.77542],[-35.25441,-5.77504],[-35.25468,-5.77494],[-35.25531,-5.77469],[-35.25589,-5.77447],[-35.25589,-5.77447],[-35.25774,-5.77379],[-35.25774,-5.77379],[-35.26023,-5.77286],[-35.26084,-5.77263],[-35.26169,-5.77231],[-35.26636,-5.77052],[-35.26661,-5.77043],[-35.26664,-5.77042],[-35.26664,-5.77042],[-35.26805,-5.76992],[-35.2686,-5.76972],[-35.26893,-5.7696],[-35.26952,-5.76938],[-35.26999,-5.7692],[-35.27057,-5.76899],[-35.27173,-5.76855],[-35.27255,-5.76824],[-35.27371,-5.7678],[-35.27386,-5.76774],[-35.27395,-5.76771],[-35.2742,-5.76761],[-35.27449,-5.7675],[-35.2747,-5.76742],[-35.27485,-5.76736],[-35.27535,-5.76717],[-35.27661,-5.76669],[-35.27703,-5.76652],[-35.27736,-5.7664],[-35.27514,-5.76442],[-35.27492,-5.76423],[-35.27469,-5.76402],[-35.2744,-5.76377],[-35.27419,-5.76359],[-35.2738,-5.7632],[-35.27347,-5.7629],[-35.27329,-5.76272],[-35.2731,-5.76254],[-35.27283,-5.76224],[-35.27188,-5.76134],[-35.27169,-5.76149],[-35.2705,-5.76196],[-35.27024,-5.76206],[-35.2696,-5.7623],[-35.26895,-5.76256],[-35.2687,-5.76261],[-35.26801,-5.76282],[-35.26657,-5.76325],[-35.26528,-5.76365],[-35.26471,-5.76387],[-35.26422,-5.76401],[-35.26413,-5.76404],[-35.26374,-5.76417],[-35.26338,-5.76428],[-35.26272,-5.76447],[-35.26226,-5.76461],[-35.26173,-5.76475],[-35.26094,-5.76499],[-35.26022,-5.76522],[-35.25995,-5.76531],[-35.2597,-5.76538],[-35.25921,-5.76553],[-35.25872,-5.7657],[-35.25823,-5.76586],[-35.25773,-5.76604],[-35.25722,-5.76618],[-35.25718,-5.76622],[-35.25548,-5.76674],[-35.25477,-5.76695],[-35.25463,-5.76698],[-35.25464,-5.76744],[-35.25088,-5.76836],[-35.25127,-5.76912],[-35.25138,-5.76967],[-35.25132,-5.77003],[-35.251,-5.77088],[-35.25081,-5.77168],[-35.25054,-5.77266],[-35.24988,-5.77354],[-35.24955,-5.77386],[-35.24936,-5.7744],[-35.24921,-5.77503],[-35.24914,-5.77576],[-35.24896,-5.77664],[-35.24884,-5.77712],[-35.24883,-5.77715],[-35.24877,-5.77737],[-35.24875,-5.77768],[-35.24861,-5.77789],[-35.24822,-5.77892],[-35.24812,-5.77925],[-35.24778,-5.78027],[-35.24717,-5.7817]]]]}},{"type":"Feature","properties":{"nbhd_name":"Nossa Senhora da Apresenta\u00e7\u00e3o","uesi_id":"BRA_R301117","nbhd_code":"BRA_R301117_28"},"geometry":{"type":"MultiPolygon","coordinates":[[[[-35.2648,-5.76127],[-35.26482,-5.76135],[-35.26495,-5.76181],[-35.26497,-5.76201],[-35.26505,-5.76232],[-35.26508,-5.76254],[-35.26527,-5.76355],[-35.26528,-5.76365],[-35.26657,-5.76325],[-35.26801,-5.76282],[-35.2687,-5.76261],[-35.26895,-5.76256],[-35.2696,-5.7623],[-35.27024,-5.76206],[-35.2705,-5.76196],[-35.27169,-5.76149],[-35.27188,-5.76134],[-35.27283,-5.76224],[-35.2731,-5.76254],[-35.27329,-5.76272],[-35.27347,-5.7629],[-35.2738,-5.7632],[-35.27419,-5.76359],[-35.2744,-5.76377],[-35.27469,-5.76402],[-35.27492,-5.76423],[-35.27514,-5.76442],[-35.27736,-5.7664],[-35.27791,-5.76619],[-35.27873,-5.76587],[-35.27944,-5.76559],[-35.27944,-5.76559],[-35.27974,-5.76548],[-35.28066,-5.76514],[-35.2827,-5.76438],[-35.28341,-5.76411],[-35.28369,-5.76401],[-35.28434,-5.76377],[-35.2853,-5.76342],[-35.28532,-5.76341],[-35.28625,-5.76311],[-35.28649,-5.76276],[-35.28656,-5.76264],[-35.28667,-5.76244],[-35.28677,-5.76224],[-35.28695,-5.76168],[-35.28695,-5.76167],[-35.28708,-5.76119],[-35.28719,-5.76078],[-35.28719,-5.76075],[-35.28763,-5.75905],[-35.28771,-5.75872],[-35.28771,-5.75872],[-35.28778,-5.75848],[-35.28802,-5.75743],[-35.2881,-5.75679],[-35.28829,-5.7553],[-35.28857,-5.75294],[-35.28859,-5.75283],[-35.28859,-5.75283],[-35.28867,-5.75225],[-35.28878,-5.75123],[-35.28878,-5.75123],[-35.28898,-5.74951],[-35.28898,-5.74944],[-35.28912,-5.74837],[-35.28926,-5.74726],[-35.28929,-5.74704],[-35.28929,-5.74704],[-35.28934,-5.74667],[-35.28934,-5.74665],[-35.28935,-5.74659],[-35.28958,-5.7447],[-35.28985,-5.74247],[-35.29006,-5.74012],[-35.29011,-5.73985],[-35.29026,-5.73858],[-35.29047,-5.73683],[-35.29058,-5.73581],[-35.29084,-5.73371],[-35.29095,-5.73268],[-35.29102,-5.7321],[-35.29074,-5.73055],[-35.28985,-5.7294],[-35.28863,-5.72833],[-35.28655,-5.72682],[-35.28562,-5.72615],[-35.28153,-5.72423],[-35.28074,-5.72386],[-35.27987,-5.72344],[-35.27943,-5.72324],[-35.27942,-5.72323],[-35.27913,-5.72312],[-35.27913,-5.72316],[-35.27914,-5.72467],[-35.27877,-5.72595],[-35.27822,-5.72671],[-35.27768,-5.72712],[-35.27737,-5.72737],[-35.27663,-5.72799],[-35.27586,-5.72864],[-35.27568,-5.72878],[-35.27432,-5.73004],[-35.27393,-5.73071],[-35.27389,-5.73077],[-35.27344,-5.73162],[-35.27335,-5.73194],[-35.27307,-5.73286],[-35.27305,-5.73292],[-35.27305,-5.73292],[-35.27281,-5.7336],[-35.27274,-5.73382],[-35.27263,-5.73401],[-35.27202,-5.73486],[-35.27127,-5.73592],[-35.27089,-5.73641],[-35.27048,-5.73692],[-35.26973,-5.73781],[-35.26955,-5.73804],[-35.26923,-5.73842],[-35.26801,-5.73991],[-35.26777,-5.74021],[-35.26739,-5.74074],[-35.2672,-5.74116],[-35.26693,-5.74179],[-35.26657,-5.74266],[-35.26648,-5.74285],[-35.26604,-5.74366],[-35.26585,-5.74393],[-35.2655,-5.74441],[-35.26526,-5.74463],[-35.26477,-5.74505],[-35.26466,-5.74513],[-35.26452,-5.74523],[-35.26445,-5.74528],[-35.26419,-5.74539],[-35.26415,-5.74542],[-35.26297,-5.74603],[-35.26256,-5.74612],[-35.26227,-5.74616],[-35.26203,-5.7462],[-35.26169,-5.74622],[-35.26164,-5.74622],[-35.26113,-5.74625],[-35.26057,-5.74629],[-35.26046,-5.74631],[-35.26014,-5.74635],[-35.26068,-5.74711],[-35.26094,-5.74749],[-35.26105,-5.74764],[-35.26145,-5.74823],[-35.26188,-5.74932],[-35.26222,-5.75025],[-35.26243,-5.75087],[-35.26296,-5.75252],[-35.26306,-5.75285],[-35.26319,-5.75326],[-35.2633,-5.75364],[-35.26342,-5.75416],[-35.26346,-5.75432],[-35.26369,-5.75583],[-35.26377,-5.75626],[-35.26386,-5.75676],[-35.26392,-5.75696],[-35.26406,-5.75758],[-35.26423,-5.75836],[-35.26431,-5.75873],[-35.26443,-5.7593],[-35.26449,-5.75964],[-35.26455,-5.75993],[-35.26457,-5.76005],[-35.26465,-5.76049],[-35.26469,-5.76074],[-35.26474,-5.76099],[-35.26475,-5.76106],[-35.2648,-5.76127]]]]}},{"type":"Feature","properties":{"nbhd_name":"Potengi","uesi_id":"BRA_R301117","nbhd_code":"BRA_R301117_29"},"geometry":{"type":"MultiPolygon","coordinates":[[[[-35.24356,-5.74438],[-35.24347,-5.74452],[-35.24315,-5.74492],[-35.24256,-5.74567],[-35.24229,-5.74604],[-35.24201,-5.74641],[-35.24135,-5.74723],[-35.24083,-5.74792],[-35.24071,-5.74804],[-35.23994,-5.74906],[-35.23981,-5.74923],[-35.23973,-5.74937],[-35.2394,-5.74981],[-35.23903,-5.75031],[-35.23866,-5.7508],[-35.23822,-5.75136],[-35.23798,-5.75168],[-35.23762,-5.75208],[-35.23727,-5.75255],[-35.23694,-5.753],[-35.23655,-5.75292],[-35.23522,-5.7546],[-35.23503,-5.75485],[-35.23481,-5.75513],[-35.23307,-5.75737],[-35.23129,-5.75967],[-35.22732,-5.76449],[-35.22838,-5.76594],[-35.22893,-5.76651],[-35.22949,-5.76685],[-35.23023,-5.76697],[-35.23097,-5.76693],[-35.23214,-5.76683],[-35.23244,-5.76677],[-35.2331,-5.76664],[-35.23373,-5.7664],[-35.23523,-5.7659],[-35.23547,-5.76509],[-35.23581,-5.76407],[-35.23646,-5.76342],[-35.2368,-5.76323],[-35.23755,-5.76308],[-35.23819,-5.76333],[-35.23861,-5.76367],[-35.23869,-5.76396],[-35.23881,-5.76438],[-35.23847,-5.765],[-35.23821,-5.76541],[-35.2378,-5.76582],[-35.23702,-5.76639],[-35.23656,-5.76699],[-35.23651,-5.76745],[-35.23654,-5.76779],[-35.2368,-5.76819],[-35.23714,-5.76843],[-35.23928,-5.76846],[-35.24052,-5.76859],[-35.2411,-5.76853],[-35.24127,-5.76833],[-35.24186,-5.76751],[-35.24581,-5.76443],[-35.2461,-5.76415],[-35.24721,-5.76303],[-35.24824,-5.76191],[-35.24882,-5.76224],[-35.24912,-5.76276],[-35.24936,-5.76311],[-35.24978,-5.76444],[-35.2502,-5.76585],[-35.25034,-5.76639],[-35.25088,-5.76836],[-35.25464,-5.76744],[-35.25463,-5.76698],[-35.25477,-5.76695],[-35.25548,-5.76674],[-35.25718,-5.76622],[-35.25722,-5.76618],[-35.25773,-5.76604],[-35.25823,-5.76586],[-35.25872,-5.7657],[-35.25921,-5.76553],[-35.2597,-5.76538],[-35.25995,-5.76531],[-35.26022,-5.76522],[-35.26094,-5.76499],[-35.26173,-5.76475],[-35.26226,-5.76461],[-35.26272,-5.76447],[-35.26338,-5.76428],[-35.26374,-5.76417],[-35.26413,-5.76404],[-35.26422,-5.76401],[-35.26471,-5.76387],[-35.26528,-5.76365],[-35.26527,-5.76355],[-35.26508,-5.76254],[-35.26505,-5.76232],[-35.26497,-5.76201],[-35.26495,-5.76181],[-35.26482,-5.76135],[-35.2648,-5.76127],[-35.26475,-5.76106],[-35.26474,-5.76099],[-35.26469,-5.76074],[-35.26465,-5.76049],[-35.26457,-5.76005],[-35.26455,-5.75993],[-35.26449,-5.75964],[-35.26443,-5.7593],[-35.26431,-5.75873],[-35.26423,-5.75836],[-35.26406,-5.75758],[-35.26392,-5.75696],[-35.26386,-5.75676],[-35.26377,-5.75626],[-35.26369,-5.75583],[-35.26346,-5.75432],[-35.26342,-5.75416],[-35.2633,-5.75364],[-35.26319,-5.75326],[-35.26306,-5.75285],[-35.26296,-5.75252],[-35.26243,-5.75087],[-35.26222,-5.75025],[-35.26188,-5.74932],[-35.26145,-5.74823],[-35.26105,-5.74764],[-35.26094,-5.74749],[-35.26068,-5.74711],[-35.26014,-5.74635],[-35.26046,-5.74631],[-35.26057,-5.74629],[-35.26113,-5.74625],[-35.26164,-5.74622],[-35.26153,-5.74596],[-35.26137,-5.74557],[-35.26117,-5.74511],[-35.26111,-5.74498],[-35.261,-5.74476],[-35.26088,-5.74467],[-35.26063,-5.74459],[-35.26057,-5.74453],[-35.26036,-5.74431],[-35.26023,-5.74414],[-35.26026,-5.74411],[-35.26015,-5.74401],[-35.25982,-5.74369],[-35.25945,-5.74334],[-35.25872,-5.74267],[-35.2583,-5.74226],[-35.25794,-5.7419],[-35.25743,-5.74139],[-35.2567,-5.74065],[-35.25632,-5.74025],[-35.25626,-5.74019],[-35.25513,-5.73903],[-35.25482,-5.73872],[-35.25477,-5.73866],[-35.25438,-5.73826],[-35.25383,-5.73772],[-35.25258,-5.73645],[-35.25231,-5.73617],[-35.25115,-5.73496],[-35.25075,-5.73539],[-35.24997,-5.73626],[-35.24975,-5.73658],[-35.24953,-5.73681],[-35.24901,-5.73747],[-35.24886,-5.7377],[-35.2487,-5.73788],[-35.24846,-5.73819],[-35.24816,-5.73858],[-35.24803,-5.73873],[-35.24763,-5.73927],[-35.24726,-5.73977],[-35.2461,-5.74122],[-35.24598,-5.74142],[-35.24523,-5.74238],[-35.24506,-5.7426],[-35.24479,-5.74294],[-35.24455,-5.74324],[-35.24433,-5.74347],[-35.24415,-5.74365],[-35.24401,-5.74384],[-35.24386,-5.74403],[-35.24373,-5.74418],[-35.24356,-5.74438]]]]}},{"type":"Feature","properties":{"nbhd_name":"Salinas","uesi_id":"BRA_R301117","nbhd_code":"BRA_R301117_30"},"geometry":{"type":"MultiPolygon","coordinates":[[[[-35.2411,-5.76853],[-35.24052,-5.76859],[-35.23928,-5.76846],[-35.23714,-5.76843],[-35.2368,-5.76819],[-35.23654,-5.76779],[-35.23651,-5.76745],[-35.23656,-5.76699],[-35.23702,-5.76639],[-35.2378,-5.76582],[-35.23821,-5.76541],[-35.23847,-5.765],[-35.23881,-5.76438],[-35.23869,-5.76396],[-35.23861,-5.76367],[-35.23819,-5.76333],[-35.23755,-5.76308],[-35.2368,-5.76323],[-35.23646,-5.76342],[-35.23581,-5.76407],[-35.23547,-5.76509],[-35.23523,-5.7659],[-35.23373,-5.7664],[-35.2331,-5.76664],[-35.23244,-5.76677],[-35.23214,-5.76683],[-35.23097,-5.76693],[-35.23023,-5.76697],[-35.22949,-5.76685],[-35.22893,-5.76651],[-35.22838,-5.76594],[-35.22732,-5.76449],[-35.22713,-5.76423],[-35.22665,-5.76347],[-35.22606,-5.76292],[-35.22518,-5.7628],[-35.22415,-5.76278],[-35.22244,-5.76278],[-35.22174,-5.76282],[-35.22125,-5.76281],[-35.2202,-5.76279],[-35.2194,-5.76329],[-35.21881,-5.76412],[-35.21852,-5.765],[-35.21816,-5.76573],[-35.21747,-5.7665],[-35.21687,-5.76711],[-35.21639,-5.76745],[-35.21577,-5.76777],[-35.2153,-5.76782],[-35.21415,-5.76793],[-35.21304,-5.76785],[-35.21208,-5.76765],[-35.2112,-5.76728],[-35.2099,-5.76614],[-35.20599,-5.76467],[-35.20608,-5.76727],[-35.20618,-5.76761],[-35.20867,-5.77582],[-35.21098,-5.78025],[-35.21123,-5.78073],[-35.212,-5.78221],[-35.21689,-5.7846],[-35.21796,-5.78513],[-35.22615,-5.78734],[-35.2345,-5.78743],[-35.2373,-5.78615],[-35.24051,-5.78348],[-35.24358,-5.78207],[-35.2471,-5.78186],[-35.24717,-5.7817],[-35.24778,-5.78027],[-35.24812,-5.77925],[-35.24822,-5.77892],[-35.24861,-5.77789],[-35.24875,-5.77768],[-35.24877,-5.77737],[-35.24883,-5.77715],[-35.24884,-5.77712],[-35.24896,-5.77664],[-35.24914,-5.77576],[-35.24921,-5.77503],[-35.24936,-5.7744],[-35.24955,-5.77386],[-35.24988,-5.77354],[-35.25054,-5.77266],[-35.25081,-5.77168],[-35.251,-5.77088],[-35.25132,-5.77003],[-35.25138,-5.76967],[-35.25127,-5.76912],[-35.25088,-5.76836],[-35.25034,-5.76639],[-35.2502,-5.76585],[-35.24978,-5.76444],[-35.24936,-5.76311],[-35.24912,-5.76276],[-35.24882,-5.76224],[-35.24824,-5.76191],[-35.24721,-5.76303],[-35.2461,-5.76415],[-35.24581,-5.76443],[-35.24186,-5.76751],[-35.24127,-5.76833],[-35.2411,-5.76853]]]]}},{"type":"Feature","properties":{"nbhd_name":"Lagoa Azul","uesi_id":"BRA_R301117","nbhd_code":"BRA_R301117_31"},"geometry":{"type":"MultiPolygon","coordinates":[[[[-35.26127,-5.7057],[-35.26005,-5.7068],[-35.26,-5.70666],[-35.25962,-5.70581],[-35.25769,-5.70755],[-35.25693,-5.70816],[-35.25641,-5.7086],[-35.25612,-5.70877],[-35.25574,-5.70899],[-35.255,-5.70941],[-35.25436,-5.7097],[-35.25376,-5.70963],[-35.2531,-5.70954],[-35.25278,-5.70951],[-35.25244,-5.70951],[-35.25214,-5.70961],[-35.25192,-5.70973],[-35.25165,-5.70973],[-35.25124,-5.70964],[-35.25061,-5.70947],[-35.25025,-5.70958],[-35.24958,-5.70977],[-35.24888,-5.71017],[-35.24815,-5.71065],[-35.24719,-5.71124],[-35.24655,-5.71169],[-35.24641,-5.71205],[-35.24641,-5.71301],[-35.24612,-5.71341],[-35.24552,-5.71382],[-35.24465,-5.71463],[-35.24438,-5.71496],[-35.24405,-5.71538],[-35.24333,-5.71593],[-35.24295,-5.71624],[-35.24273,-5.71643],[-35.24258,-5.71644],[-35.24213,-5.71638],[-35.24189,-5.71617],[-35.24163,-5.71596],[-35.24141,-5.71567],[-35.2408,-5.71569],[-35.24008,-5.71561],[-35.23983,-5.71558],[-35.23937,-5.71535],[-35.23872,-5.71474],[-35.23827,-5.71458],[-35.23782,-5.7143],[-35.2374,-5.71406],[-35.23723,-5.714],[-35.23679,-5.71421],[-35.23591,-5.71515],[-35.23459,-5.7167],[-35.23376,-5.71753],[-35.23344,-5.71768],[-35.23319,-5.71781],[-35.23285,-5.71814],[-35.23277,-5.71834],[-35.23323,-5.71937],[-35.23329,-5.7196],[-35.23337,-5.72034],[-35.23343,-5.72088],[-35.23351,-5.72176],[-35.23362,-5.72246],[-35.23368,-5.7227],[-35.23373,-5.7229],[-35.23373,-5.7229],[-35.23388,-5.7234],[-35.2339,-5.72355],[-35.2339,-5.72361],[-35.23392,-5.72376],[-35.23392,-5.72377],[-35.23392,-5.72436],[-35.23392,-5.72436],[-35.23392,-5.7244],[-35.23394,-5.72506],[-35.23397,-5.72528],[-35.23404,-5.72558],[-35.23404,-5.72559],[-35.2342,-5.7259],[-35.2345,-5.72638],[-35.23461,-5.72656],[-35.23481,-5.72688],[-35.23501,-5.72667],[-35.23532,-5.72634],[-35.23563,-5.72601],[-35.23591,-5.72573],[-35.23635,-5.72541],[-35.23662,-5.72525],[-35.23734,-5.72478],[-35.23805,-5.72437],[-35.23817,-5.72431],[-35.23866,-5.72407],[-35.23928,-5.72375],[-35.23934,-5.72366],[-35.23972,-5.72342],[-35.24004,-5.72324],[-35.24032,-5.72309],[-35.24062,-5.72293],[-35.24084,-5.72281],[-35.24094,-5.72275],[-35.24124,-5.72259],[-35.24145,-5.72248],[-35.24191,-5.72224],[-35.24197,-5.7222],[-35.24225,-5.72203],[-35.24251,-5.72187],[-35.24259,-5.72182],[-35.24281,-5.7217],[-35.24309,-5.72154],[-35.24319,-5.72149],[-35.24338,-5.72137],[-35.24366,-5.7212],[-35.24478,-5.72052],[-35.24601,-5.71977],[-35.24614,-5.7203],[-35.24624,-5.72052],[-35.24633,-5.72095],[-35.24637,-5.72111],[-35.24659,-5.72199],[-35.24661,-5.72203],[-35.24687,-5.72261],[-35.24707,-5.72328],[-35.2471,-5.72342],[-35.24723,-5.72393],[-35.24726,-5.72406],[-35.24728,-5.72415],[-35.24732,-5.72427],[-35.24763,-5.7254],[-35.24783,-5.72616],[-35.24801,-5.72677],[-35.24818,-5.72729],[-35.24821,-5.72742],[-35.2483,-5.72782],[-35.24844,-5.72831],[-35.24857,-5.72877],[-35.24862,-5.72897],[-35.24869,-5.7292],[-35.24883,-5.72968],[-35.249,-5.7302],[-35.24901,-5.73024],[-35.24926,-5.73095],[-35.24934,-5.73114],[-35.24954,-5.73157],[-35.24956,-5.73159],[-35.25025,-5.73291],[-35.25049,-5.73332],[-35.25064,-5.73356],[-35.25081,-5.73396],[-35.25098,-5.73435],[-35.25115,-5.73496],[-35.25231,-5.73617],[-35.25258,-5.73645],[-35.25383,-5.73772],[-35.25438,-5.73826],[-35.25477,-5.73866],[-35.25482,-5.73872],[-35.25513,-5.73903],[-35.25626,-5.74019],[-35.25632,-5.74025],[-35.2567,-5.74065],[-35.25743,-5.74139],[-35.25794,-5.7419],[-35.2583,-5.74226],[-35.25872,-5.74267],[-35.25945,-5.74334],[-35.25982,-5.74369],[-35.26015,-5.74401],[-35.26026,-5.74411],[-35.26023,-5.74414],[-35.26036,-5.74431],[-35.26057,-5.74453],[-35.26063,-5.74459],[-35.26088,-5.74467],[-35.261,-5.74476],[-35.26111,-5.74498],[-35.26117,-5.74511],[-35.26137,-5.74557],[-35.26153,-5.74596],[-35.26164,-5.74622],[-35.26169,-5.74622],[-35.26203,-5.7462],[-35.26227,-5.74616],[-35.26256,-5.74612],[-35.26297,-5.74603],[-35.26415,-5.74542],[-35.26419,-5.74539],[-35.26445,-5.74528],[-35.26452,-5.74523],[-35.26466,-5.74513],[-35.26477,-5.74505],[-35.26526,-5.74463],[-35.2655,-5.74441],[-35.26585,-5.74393],[-35.26604,-5.74366],[-35.26648,-5.74285],[-35.26657,-5.74266],[-35.26693,-5.74179],[-35.2672,-5.74116],[-35.26739,-5.74074],[-35.26777,-5.74021],[-35.26801,-5.73991],[-35.26923,-5.73842],[-35.26955,-5.73804],[-35.26973,-5.73781],[-35.27048,-5.73692],[-35.27089,-5.73641],[-35.27127,-5.73592],[-35.27202,-5.73486],[-35.27263,-5.73401],[-35.27274,-5.73382],[-35.27281,-5.7336],[-35.27305,-5.73292],[-35.27305,-5.73292],[-35.27307,-5.73286],[-35.27335,-5.73194],[-35.27344,-5.73162],[-35.27389,-5.73077],[-35.27393,-5.73071],[-35.27432,-5.73004],[-35.27568,-5.72878],[-35.27586,-5.72864],[-35.27663,-5.72799],[-35.27737,-5.72737],[-35.27768,-5.72712],[-35.27822,-5.72671],[-35.27877,-5.72595],[-35.27914,-5.72467],[-35.27913,-5.72316],[-35.27913,-5.72312],[-35.27812,-5.72273],[-35.27795,-5.7226],[-35.27726,-5.72214],[-35.27723,-5.72211],[-35.27711,-5.72208],[-35.27694,-5.72197],[-35.27674,-5.72182],[-35.27638,-5.72147],[-35.27618,-5.72126],[-35.27599,-5.72096],[-35.27584,-5.72075],[-35.27559,-5.72035],[-35.27487,-5.71919],[-35.27472,-5.71889],[-35.27399,-5.71735],[-35.27366,-5.71663],[-35.27363,-5.71656],[-35.2735,-5.71629],[-35.27295,-5.71517],[-35.27265,-5.71468],[-35.27205,-5.7137],[-35.27205,-5.71369],[-35.27204,-5.71367],[-35.27136,-5.71276],[-35.27105,-5.71237],[-35.27071,-5.71194],[-35.27071,-5.71194],[-35.27005,-5.71115],[-35.26942,-5.71039],[-35.26942,-5.71039],[-35.26866,-5.70948],[-35.2684,-5.70915],[-35.26761,-5.70811],[-35.26676,-5.70679],[-35.26676,-5.70679],[-35.26603,-5.70544],[-35.2659,-5.70515],[-35.26535,-5.70397],[-35.26521,-5.70365],[-35.26127,-5.7057]]]]}},{"type":"Feature","properties":{"nbhd_name":"Paju\u00e7ara","uesi_id":"BRA_R301117","nbhd_code":"BRA_R301117_32"},"geometry":{"type":"MultiPolygon","coordinates":[[[[-35.23108,-5.72154],[-35.23095,-5.72167],[-35.23074,-5.72164],[-35.23035,-5.72185],[-35.23004,-5.72207],[-35.22972,-5.72255],[-35.22935,-5.72332],[-35.22888,-5.72358],[-35.22824,-5.72384],[-35.22764,-5.72423],[-35.22718,-5.72471],[-35.22701,-5.72486],[-35.22689,-5.72506],[-35.22643,-5.7255],[-35.22617,-5.72582],[-35.22583,-5.72596],[-35.22562,-5.72605],[-35.22587,-5.72638],[-35.22609,-5.72656],[-35.22627,-5.72656],[-35.22662,-5.72683],[-35.22658,-5.72733],[-35.22712,-5.72756],[-35.22725,-5.72791],[-35.22743,-5.72823],[-35.22747,-5.72876],[-35.2272,-5.72944],[-35.2268,-5.72962],[-35.22658,-5.73003],[-35.22622,-5.73065],[-35.22586,-5.73092],[-35.22577,-5.73141],[-35.22573,-5.73169],[-35.22564,-5.73204],[-35.22537,-5.73262],[-35.22528,-5.73282],[-35.22509,-5.73288],[-35.2247,-5.73299],[-35.22412,-5.73385],[-35.22345,-5.73457],[-35.22302,-5.73852],[-35.22165,-5.73945],[-35.22116,-5.73997],[-35.22011,-5.74074],[-35.21961,-5.74111],[-35.21935,-5.74128],[-35.21922,-5.74137],[-35.21855,-5.74182],[-35.21734,-5.74265],[-35.21682,-5.743],[-35.21578,-5.74371],[-35.21578,-5.74371],[-35.21565,-5.7438],[-35.21504,-5.74429],[-35.21455,-5.7446],[-35.21413,-5.74487],[-35.21362,-5.74519],[-35.21361,-5.7453],[-35.21378,-5.74533],[-35.21519,-5.74521],[-35.21651,-5.745],[-35.21821,-5.74478],[-35.21872,-5.74473],[-35.21883,-5.74472],[-35.21912,-5.74468],[-35.21948,-5.74462],[-35.22051,-5.74452],[-35.22114,-5.74446],[-35.22158,-5.74442],[-35.22171,-5.74442],[-35.22184,-5.74442],[-35.22197,-5.74444],[-35.2221,-5.74446],[-35.22258,-5.7446],[-35.22305,-5.74484],[-35.22354,-5.74509],[-35.22417,-5.74543],[-35.22434,-5.74552],[-35.22435,-5.74553],[-35.22544,-5.74622],[-35.22592,-5.74651],[-35.22634,-5.74678],[-35.22672,-5.74701],[-35.2271,-5.74725],[-35.22753,-5.74752],[-35.22766,-5.74759],[-35.22836,-5.74803],[-35.23015,-5.74914],[-35.23074,-5.74952],[-35.23127,-5.74982],[-35.23167,-5.75005],[-35.23206,-5.75028],[-35.23242,-5.75051],[-35.23282,-5.75073],[-35.23319,-5.75093],[-35.2341,-5.75143],[-35.23468,-5.75179],[-35.23502,-5.75198],[-35.23522,-5.75209],[-35.23655,-5.75292],[-35.23694,-5.753],[-35.23727,-5.75255],[-35.23762,-5.75208],[-35.23798,-5.75168],[-35.23822,-5.75136],[-35.23866,-5.7508],[-35.23903,-5.75031],[-35.2394,-5.74981],[-35.23973,-5.74937],[-35.23981,-5.74923],[-35.23994,-5.74906],[-35.24071,-5.74804],[-35.24083,-5.74792],[-35.24135,-5.74723],[-35.24201,-5.74641],[-35.24229,-5.74604],[-35.24256,-5.74567],[-35.24315,-5.74492],[-35.24347,-5.74452],[-35.24356,-5.74438],[-35.24373,-5.74418],[-35.24386,-5.74403],[-35.24401,-5.74384],[-35.24415,-5.74365],[-35.24433,-5.74347],[-35.24455,-5.74324],[-35.24479,-5.74294],[-35.24506,-5.7426],[-35.24523,-5.74238],[-35.24598,-5.74142],[-35.2461,-5.74122],[-35.24726,-5.73977],[-35.24763,-5.73927],[-35.24803,-5.73873],[-35.24816,-5.73858],[-35.24846,-5.73819],[-35.2487,-5.73788],[-35.24886,-5.7377],[-35.24901,-5.73747],[-35.24953,-5.73681],[-35.24975,-5.73658],[-35.24997,-5.73626],[-35.25075,-5.73539],[-35.25115,-5.73496],[-35.25098,-5.73435],[-35.25081,-5.73396],[-35.25064,-5.73356],[-35.25049,-5.73332],[-35.25025,-5.73291],[-35.24956,-5.73159],[-35.24954,-5.73157],[-35.24934,-5.73114],[-35.24926,-5.73095],[-35.24901,-5.73024],[-35.249,-5.7302],[-35.24883,-5.72968],[-35.24869,-5.7292],[-35.24862,-5.72897],[-35.24857,-5.72877],[-35.24844,-5.72831],[-35.2483,-5.72782],[-35.24821,-5.72742],[-35.24818,-5.72729],[-35.24801,-5.72677],[-35.24783,-5.72616],[-35.24763,-5.7254],[-35.24732,-5.72427],[-35.24728,-5.72415],[-35.24726,-5.72406],[-35.24723,-5.72393],[-35.2471,-5.72342],[-35.24707,-5.72328],[-35.24687,-5.72261],[-35.24661,-5.72203],[-35.24659,-5.72199],[-35.24637,-5.72111],[-35.24633,-5.72095],[-35.24624,-5.72052],[-35.24614,-5.7203],[-35.24601,-5.71977],[-35.24478,-5.72052],[-35.24366,-5.7212],[-35.24338,-5.72137],[-35.24319,-5.72149],[-35.24309,-5.72154],[-35.24281,-5.7217],[-35.24259,-5.72182],[-35.24251,-5.72187],[-35.24225,-5.72203],[-35.24197,-5.7222],[-35.24191,-5.72224],[-35.24145,-5.72248],[-35.24124,-5.72259],[-35.24094,-5.72275],[-35.24084,-5.72281],[-35.24062,-5.72293],[-35.24032,-5.72309],[-35.24004,-5.72324],[-35.23972,-5.72342],[-35.23934,-5.72366],[-35.23928,-5.72375],[-35.23866,-5.72407],[-35.23817,-5.72431],[-35.23805,-5.72437],[-35.23734,-5.72478],[-35.23662,-5.72525],[-35.23635,-5.72541],[-35.23591,-5.72573],[-35.23563,-5.72601],[-35.23532,-5.72634],[-35.23501,-5.72667],[-35.23481,-5.72688],[-35.23461,-5.72656],[-35.2345,-5.72638],[-35.2342,-5.7259],[-35.23404,-5.72559],[-35.23404,-5.72558],[-35.23403,-5.72557],[-35.23397,-5.72528],[-35.23394,-5.72506],[-35.23392,-5.7244],[-35.23392,-5.72436],[-35.23392,-5.72436],[-35.23392,-5.72377],[-35.23392,-5.72376],[-35.2339,-5.72361],[-35.2339,-5.72355],[-35.23388,-5.7234],[-35.23373,-5.7229],[-35.23373,-5.7229],[-35.23368,-5.7227],[-35.23362,-5.72246],[-35.23351,-5.72176],[-35.23343,-5.72088],[-35.23337,-5.72034],[-35.23329,-5.7196],[-35.23325,-5.71944],[-35.23323,-5.71937],[-35.23277,-5.71834],[-35.23235,-5.71961],[-35.23169,-5.72071],[-35.23123,-5.72108],[-35.23108,-5.72154]]]]}},{"type":"Feature","properties":{"nbhd_name":"Redinha","uesi_id":"BRA_R301117","nbhd_code":"BRA_R301117_33"},"geometry":{"type":"MultiPolygon","coordinates":[[[[-35.22548,-5.72611],[-35.22547,-5.72686],[-35.22574,-5.72686],[-35.21275,-5.73485],[-35.21123,-5.73587],[-35.2112,-5.7359],[-35.21107,-5.73606],[-35.21093,-5.73616],[-35.21033,-5.73665],[-35.2068,-5.73914],[-35.20724,-5.73957],[-35.20753,-5.73984],[-35.206,-5.74065],[-35.20535,-5.74179],[-35.20515,-5.74214],[-35.20392,-5.74261],[-35.20292,-5.74807],[-35.20292,-5.74811],[-35.20227,-5.74988],[-35.19963,-5.75286],[-35.19911,-5.75346],[-35.20306,-5.75715],[-35.20584,-5.75999],[-35.20599,-5.76467],[-35.2099,-5.76614],[-35.2112,-5.76728],[-35.21208,-5.76765],[-35.21304,-5.76785],[-35.21415,-5.76793],[-35.2153,-5.76782],[-35.21577,-5.76777],[-35.21639,-5.76745],[-35.21687,-5.76711],[-35.21747,-5.7665],[-35.21816,-5.76573],[-35.21852,-5.765],[-35.21881,-5.76412],[-35.2194,-5.76329],[-35.2202,-5.76279],[-35.22125,-5.76281],[-35.22174,-5.76282],[-35.22244,-5.76278],[-35.22415,-5.76278],[-35.22518,-5.7628],[-35.22606,-5.76292],[-35.22665,-5.76347],[-35.22713,-5.76423],[-35.22732,-5.76449],[-35.23129,-5.75967],[-35.23307,-5.75737],[-35.23481,-5.75513],[-35.23503,-5.75485],[-35.23522,-5.7546],[-35.23655,-5.75292],[-35.23522,-5.75209],[-35.23502,-5.75198],[-35.23468,-5.75179],[-35.2341,-5.75143],[-35.23319,-5.75093],[-35.23282,-5.75073],[-35.23242,-5.75051],[-35.23206,-5.75028],[-35.23167,-5.75005],[-35.23127,-5.74982],[-35.23074,-5.74952],[-35.23015,-5.74914],[-35.22836,-5.74803],[-35.22766,-5.74759],[-35.22753,-5.74752],[-35.2271,-5.74725],[-35.22672,-5.74701],[-35.22634,-5.74678],[-35.22592,-5.74651],[-35.22544,-5.74622],[-35.22435,-5.74553],[-35.22434,-5.74552],[-35.22417,-5.74543],[-35.22354,-5.74509],[-35.22305,-5.74484],[-35.22258,-5.7446],[-35.2221,-5.74446],[-35.22197,-5.74444],[-35.22184,-5.74442],[-35.22171,-5.74442],[-35.22158,-5.74442],[-35.22114,-5.74446],[-35.22051,-5.74452],[-35.21948,-5.74462],[-35.21912,-5.74468],[-35.21883,-5.74472],[-35.21872,-5.74473],[-35.21821,-5.74478],[-35.21651,-5.745],[-35.21519,-5.74521],[-35.21378,-5.74533],[-35.21361,-5.7453],[-35.21362,-5.74519],[-35.21413,-5.74487],[-35.21455,-5.7446],[-35.21504,-5.74429],[-35.21565,-5.7438],[-35.21578,-5.74371],[-35.21578,-5.74371],[-35.21682,-5.743],[-35.21734,-5.74265],[-35.21855,-5.74182],[-35.21922,-5.74137],[-35.21935,-5.74128],[-35.21961,-5.74111],[-35.22011,-5.74074],[-35.22116,-5.73997],[-35.22165,-5.73945],[-35.22302,-5.73852],[-35.22345,-5.73457],[-35.22412,-5.73385],[-35.2247,-5.73299],[-35.22509,-5.73288],[-35.22528,-5.73282],[-35.22537,-5.73262],[-35.22564,-5.73204],[-35.22573,-5.73169],[-35.22577,-5.73141],[-35.22586,-5.73092],[-35.22622,-5.73065],[-35.22658,-5.73003],[-35.2268,-5.72962],[-35.2272,-5.72944],[-35.22747,-5.72876],[-35.22743,-5.72823],[-35.22725,-5.72791],[-35.22712,-5.72756],[-35.22658,-5.72733],[-35.22662,-5.72683],[-35.22627,-5.72656],[-35.22609,-5.72656],[-35.22587,-5.72638],[-35.22562,-5.72605],[-35.22548,-5.72611]]]]}},{"type":"Feature","properties":{"nbhd_name":"Barro Vermelho","uesi_id":"BRA_R301117","nbhd_code":"BRA_R301117_34"},"geometry":{"type":"MultiPolygon","coordinates":[[[[-35.20255,-5.79958],[-35.20275,-5.80003],[-35.20288,-5.79997],[-35.20324,-5.79982],[-35.20346,-5.80044],[-35.20353,-5.80059],[-35.20387,-5.80147],[-35.20407,-5.80201],[-35.20418,-5.80229],[-35.20421,-5.80239],[-35.2045,-5.80312],[-35.20558,-5.8059],[-35.20562,-5.80599],[-35.20577,-5.80594],[-35.20605,-5.80584],[-35.20649,-5.80566],[-35.20692,-5.80548],[-35.20744,-5.80525],[-35.20755,-5.80516],[-35.20778,-5.80499],[-35.20812,-5.80463],[-35.20839,-5.80437],[-35.20857,-5.80419],[-35.20878,-5.80393],[-35.20883,-5.80387],[-35.20897,-5.8037],[-35.20932,-5.80329],[-35.20954,-5.80303],[-35.21007,-5.80237],[-35.21049,-5.80192],[-35.21099,-5.80129],[-35.21153,-5.80065],[-35.21153,-5.80043],[-35.21148,-5.80034],[-35.21156,-5.80021],[-35.21193,-5.79966],[-35.21262,-5.79807],[-35.21227,-5.79739],[-35.2121,-5.79719],[-35.21195,-5.79688],[-35.21167,-5.79635],[-35.21153,-5.79604],[-35.21131,-5.79564],[-35.21107,-5.79514],[-35.21024,-5.79365],[-35.20978,-5.79287],[-35.20952,-5.79243],[-35.20926,-5.79175],[-35.20926,-5.79175],[-35.20906,-5.79142],[-35.20899,-5.79132],[-35.20875,-5.79098],[-35.20864,-5.79092],[-35.20844,-5.79083],[-35.2084,-5.79087],[-35.20809,-5.79127],[-35.20793,-5.79147],[-35.2075,-5.79211],[-35.20742,-5.79223],[-35.20708,-5.79255],[-35.20668,-5.79294],[-35.20674,-5.79318],[-35.20676,-5.7933],[-35.20678,-5.79347],[-35.20688,-5.79392],[-35.20698,-5.79455],[-35.20716,-5.79518],[-35.20718,-5.79598],[-35.20666,-5.79618],[-35.20558,-5.79663],[-35.20551,-5.79666],[-35.20477,-5.79692],[-35.20449,-5.79705],[-35.20433,-5.79711],[-35.20391,-5.79732],[-35.20336,-5.79756],[-35.20318,-5.79764],[-35.20241,-5.79793],[-35.2021,-5.79804],[-35.20194,-5.7981],[-35.20233,-5.79904],[-35.20255,-5.79958]]]]}},{"type":"Feature","properties":{"nbhd_name":"Nossa Senhora de Nazar\u00e9","uesi_id":"BRA_R301117","nbhd_code":"BRA_R301117_35"},"geometry":{"type":"MultiPolygon","coordinates":[[[[-35.22598,-5.82161],[-35.22663,-5.8233],[-35.22751,-5.82297],[-35.22787,-5.82283],[-35.22851,-5.82259],[-35.22865,-5.82251],[-35.22941,-5.82222],[-35.23001,-5.822],[-35.23095,-5.82167],[-35.23157,-5.82143],[-35.23176,-5.82135],[-35.23211,-5.82124],[-35.23258,-5.82104],[-35.23356,-5.82066],[-35.23371,-5.82061],[-35.23389,-5.82054],[-35.23446,-5.82032],[-35.23491,-5.82016],[-35.23536,-5.81998],[-35.2364,-5.81958],[-35.23773,-5.81905],[-35.23818,-5.81888],[-35.23903,-5.81857],[-35.23924,-5.8185],[-35.23939,-5.81844],[-35.23968,-5.81834],[-35.23906,-5.8173],[-35.23894,-5.81719],[-35.2384,-5.81632],[-35.23809,-5.81584],[-35.23799,-5.81564],[-35.2376,-5.8152],[-35.2372,-5.81457],[-35.23656,-5.81354],[-35.23638,-5.81328],[-35.2361,-5.81287],[-35.23588,-5.81252],[-35.23565,-5.8121],[-35.23547,-5.81189],[-35.23515,-5.81141],[-35.23514,-5.81139],[-35.23457,-5.81055],[-35.2341,-5.8107],[-35.23385,-5.8108],[-35.23354,-5.81093],[-35.23327,-5.81103],[-35.23302,-5.81115],[-35.23235,-5.81141],[-35.23175,-5.81164],[-35.2311,-5.81187],[-35.23035,-5.81215],[-35.22985,-5.81234],[-35.22939,-5.8125],[-35.22858,-5.81279],[-35.22796,-5.81303],[-35.22733,-5.81324],[-35.22664,-5.8135],[-35.22604,-5.81372],[-35.22546,-5.81394],[-35.22504,-5.81408],[-35.22473,-5.81423],[-35.22407,-5.81446],[-35.22343,-5.81471],[-35.22372,-5.81551],[-35.22389,-5.81593],[-35.22401,-5.8163],[-35.22421,-5.81682],[-35.22431,-5.81708],[-35.22433,-5.81711],[-35.22458,-5.81775],[-35.22463,-5.81788],[-35.22503,-5.8191],[-35.22523,-5.81972],[-35.22537,-5.81997],[-35.22543,-5.82022],[-35.22548,-5.82033],[-35.22555,-5.82047],[-35.22572,-5.82092],[-35.22576,-5.82102],[-35.22598,-5.82161]]]]}},{"type":"Feature","properties":{"nbhd_name":"Planalto","uesi_id":"BRA_R301117","nbhd_code":"BRA_R301117_36"},"geometry":{"type":"MultiPolygon","coordinates":[[[[-35.2465,-5.85098],[-35.24675,-5.85183],[-35.24687,-5.85238],[-35.24689,-5.85249],[-35.24708,-5.85339],[-35.24766,-5.85583],[-35.2479,-5.85636],[-35.24812,-5.85684],[-35.24842,-5.85748],[-35.24853,-5.85828],[-35.24845,-5.85924],[-35.24854,-5.85958],[-35.24869,-5.8599],[-35.24874,-5.86],[-35.24897,-5.86054],[-35.24927,-5.86097],[-35.24967,-5.86124],[-35.25011,-5.86153],[-35.25038,-5.86164],[-35.25069,-5.86185],[-35.25096,-5.86213],[-35.25142,-5.86292],[-35.25191,-5.86368],[-35.25306,-5.86439],[-35.25406,-5.86498],[-35.25534,-5.86426],[-35.25535,-5.86425],[-35.25536,-5.86424],[-35.25536,-5.86423],[-35.25572,-5.86367],[-35.25621,-5.86333],[-35.25705,-5.86275],[-35.25763,-5.86234],[-35.25802,-5.86196],[-35.25827,-5.86172],[-35.25827,-5.86172],[-35.25936,-5.86065],[-35.25975,-5.86027],[-35.26036,-5.85967],[-35.26092,-5.85909],[-35.26188,-5.85823],[-35.26413,-5.85645],[-35.26456,-5.85629],[-35.26498,-5.85598],[-35.26498,-5.85598],[-35.26557,-5.85587],[-35.26643,-5.8557],[-35.26693,-5.85562],[-35.26774,-5.85546],[-35.2682,-5.85543],[-35.26859,-5.85542],[-35.26978,-5.85542],[-35.27004,-5.85539],[-35.27074,-5.85536],[-35.27074,-5.85536],[-35.27198,-5.85513],[-35.2726,-5.85486],[-35.27308,-5.85478],[-35.27336,-5.85472],[-35.27386,-5.85462],[-35.27386,-5.85462],[-35.27438,-5.85452],[-35.27617,-5.85416],[-35.27618,-5.85416],[-35.27422,-5.85303],[-35.27392,-5.85288],[-35.27377,-5.85281],[-35.27318,-5.8525],[-35.27264,-5.85223],[-35.27232,-5.85205],[-35.27181,-5.8518],[-35.2708,-5.8513],[-35.26941,-5.85063],[-35.26894,-5.85041],[-35.26872,-5.85029],[-35.26709,-5.84949],[-35.26672,-5.84926],[-35.26579,-5.84867],[-35.26518,-5.84832],[-35.26422,-5.84779],[-35.26346,-5.84737],[-35.26166,-5.84655],[-35.26031,-5.84584],[-35.26012,-5.84574],[-35.25932,-5.84537],[-35.25833,-5.8449],[-35.25649,-5.8439],[-35.25478,-5.843],[-35.2537,-5.84245],[-35.25285,-5.84202],[-35.24524,-5.83837],[-35.24522,-5.83845],[-35.24504,-5.8388],[-35.24469,-5.83941],[-35.24393,-5.84067],[-35.24379,-5.84092],[-35.2431,-5.84219],[-35.24295,-5.84246],[-35.24311,-5.84277],[-35.24332,-5.84327],[-35.24356,-5.84379],[-35.24378,-5.84415],[-35.24384,-5.84427],[-35.24405,-5.84477],[-35.24406,-5.84481],[-35.2441,-5.84506],[-35.24415,-5.84541],[-35.24434,-5.84599],[-35.24444,-5.84632],[-35.24465,-5.84679],[-35.24473,-5.84699],[-35.24484,-5.84732],[-35.24523,-5.84833],[-35.24527,-5.84847],[-35.24566,-5.84975],[-35.24637,-5.85077],[-35.2465,-5.85098]]]]}}]}