{"type":"FeatureCollection","name":"BRA_R298285","crs":{"type":"name","properties":{"name":"urn:ogc:def:crs:OGC:1.3:CRS84"}},"features":[{"type":"Feature","properties":{"uesi_id":"BRA_R298285","nbhd_code":"BRA_R298285_001","nbhd_name":"\u00c1gua Rasa"},"geometry":{"type":"MultiPolygon","coordinates":[[[[-46.56905,-23.55376,0.0],[-46.56545,-23.5619,0.0],[-46.5541,-23.56854,0.0],[-46.5568,-23.57428,0.0],[-46.55799,-23.58094,0.0],[-46.56329,-23.58153,0.0],[-46.57685,-23.57779,0.0],[-46.58151,-23.57307,0.0],[-46.58168,-23.56944,0.0],[-46.58966,-23.56499,0.0],[-46.5838,-23.55415,0.0],[-46.57901,-23.54937,0.0],[-46.56905,-23.55376,0.0]]]]}},{"type":"Feature","properties":{"uesi_id":"BRA_R298285","nbhd_code":"BRA_R298285_002","nbhd_name":"Alto de Pinheiros"},"geometry":{"type":"MultiPolygon","coordinates":[[[[-46.73474,-23.5458,0.0],[-46.72561,-23.5374,0.0],[-46.71946,-23.53656,0.0],[-46.71144,-23.53557,0.0],[-46.69737,-23.54085,0.0],[-46.69301,-23.54514,0.0],[-46.69746,-23.55642,0.0],[-46.70502,-23.5636,0.0],[-46.73155,-23.54863,0.0],[-46.73474,-23.5458,0.0]]]]}},{"type":"Feature","properties":{"uesi_id":"BRA_R298285","nbhd_code":"BRA_R298285_003","nbhd_name":"Anhanguera"},"geometry":{"type":"MultiPolygon","coordinates":[[[[-46.7617,-23.4319,0.0],[-46.76686,-23.44735,0.0],[-46.77025,-23.45334,0.0],[-46.77499,-23.4544,0.0],[-46.77813,-23.46509,0.0],[-46.78545,-23.46581,0.0],[-46.79197,-23.46158,0.0],[-46.79784,-23.4693,0.0],[-46.80793,-23.45353,0.0],[-46.80934,-23.4485,0.0],[-46.80942,-23.44328,0.0],[-46.82362,-23.42262,0.0],[-46.81939,-23.41735,0.0],[-46.82534,-23.41002,0.0],[-46.8247,-23.40597,0.0],[-46.82275,-23.40068,0.0],[-46.80824,-23.39952,0.0],[-46.80223,-23.39471,0.0],[-46.79968,-23.40228,0.0],[-46.79312,-23.39967,0.0],[-46.78664,-23.40475,0.0],[-46.78261,-23.40249,0.0],[-46.77628,-23.40981,0.0],[-46.77081,-23.41909,0.0],[-46.76365,-23.42011,0.0],[-46.76136,-23.43089,0.0],[-46.7617,-23.4319,0.0]]]]}},{"type":"Feature","properties":{"uesi_id":"BRA_R298285","nbhd_code":"BRA_R298285_004","nbhd_name":"Aricanduva"},"geometry":{"type":"MultiPolygon","coordinates":[[[[-46.50261,-23.5759,0.0],[-46.5071,-23.59008,0.0],[-46.52831,-23.58441,0.0],[-46.52492,-23.57831,0.0],[-46.53311,-23.57326,0.0],[-46.52971,-23.5704,0.0],[-46.5173,-23.55529,0.0],[-46.50261,-23.5759,0.0]]]]}},{"type":"Feature","properties":{"uesi_id":"BRA_R298285","nbhd_code":"BRA_R298285_005","nbhd_name":"Artur Alvim"},"geometry":{"type":"MultiPolygon","coordinates":[[[[-46.50241,-23.54954,0.0],[-46.49942,-23.54372,0.0],[-46.49366,-23.5434,0.0],[-46.50055,-23.53165,0.0],[-46.49382,-23.53543,0.0],[-46.48994,-23.5277,0.0],[-46.47512,-23.52386,0.0],[-46.47324,-23.54048,0.0],[-46.47772,-23.54851,0.0],[-46.48419,-23.55489,0.0],[-46.50241,-23.54954,0.0]]]]}},{"type":"Feature","properties":{"uesi_id":"BRA_R298285","nbhd_code":"BRA_R298285_006","nbhd_name":"Barra Funda"},"geometry":{"type":"MultiPolygon","coordinates":[[[[-46.69386,-23.50838,0.0],[-46.68982,-23.50924,0.0],[-46.67145,-23.51485,0.0],[-46.65412,-23.517,0.0],[-46.65427,-23.51789,0.0],[-46.65974,-23.5231,0.0],[-46.66357,-23.53713,0.0],[-46.68543,-23.5238,0.0],[-46.69386,-23.50838,0.0]]]]}},{"type":"Feature","properties":{"uesi_id":"BRA_R298285","nbhd_code":"BRA_R298285_007","nbhd_name":"Bela Vista"},"geometry":{"type":"MultiPolygon","coordinates":[[[[-46.63772,-23.55615,0.0],[-46.64127,-23.57339,0.0],[-46.64913,-23.56779,0.0],[-46.65909,-23.55933,0.0],[-46.64629,-23.55087,0.0],[-46.64457,-23.55452,0.0],[-46.63772,-23.55615,0.0]]]]}},{"type":"Feature","properties":{"uesi_id":"BRA_R298285","nbhd_code":"BRA_R298285_008","nbhd_name":"Bel\u00e9m"},"geometry":{"type":"MultiPolygon","coordinates":[[[[-46.57901,-23.54937,0.0],[-46.5838,-23.55415,0.0],[-46.59375,-23.54386,0.0],[-46.60459,-23.54599,0.0],[-46.6127,-23.53371,0.0],[-46.60592,-23.527,0.0],[-46.60717,-23.52321,0.0],[-46.59711,-23.52781,0.0],[-46.58519,-23.52843,0.0],[-46.57901,-23.54937,0.0]]]]}},{"type":"Feature","properties":{"uesi_id":"BRA_R298285","nbhd_code":"BRA_R298285_010","nbhd_name":"Br\u00e1s"},"geometry":{"type":"MultiPolygon","coordinates":[[[[-46.62536,-23.55342,0.0],[-46.62668,-23.53775,0.0],[-46.62529,-23.53434,0.0],[-46.6127,-23.53371,0.0],[-46.60459,-23.54599,0.0],[-46.61494,-23.54797,0.0],[-46.61052,-23.5546,0.0],[-46.62536,-23.55342,0.0]]]]}},{"type":"Feature","properties":{"uesi_id":"BRA_R298285","nbhd_code":"BRA_R298285_011","nbhd_name":"Brasil\u00e2ndia"},"geometry":{"type":"MultiPolygon","coordinates":[[[[-46.67836,-23.41461,0.0],[-46.66944,-23.42991,0.0],[-46.66366,-23.43069,0.0],[-46.67029,-23.43912,0.0],[-46.6723,-23.44497,0.0],[-46.67535,-23.45028,0.0],[-46.67442,-23.45193,0.0],[-46.67446,-23.45367,0.0],[-46.67419,-23.45909,0.0],[-46.67024,-23.47423,0.0],[-46.68529,-23.48127,0.0],[-46.69537,-23.47805,0.0],[-46.70144,-23.46296,0.0],[-46.7137,-23.46201,0.0],[-46.71442,-23.4623,0.0],[-46.71215,-23.45453,0.0],[-46.70955,-23.45304,0.0],[-46.70687,-23.45174,0.0],[-46.7071,-23.44984,0.0],[-46.70955,-23.44353,0.0],[-46.71195,-23.44123,0.0],[-46.71188,-23.44059,0.0],[-46.70618,-23.43739,0.0],[-46.70322,-23.43855,0.0],[-46.70291,-23.43391,0.0],[-46.70369,-23.42346,0.0],[-46.70082,-23.42218,0.0],[-46.70022,-23.42232,0.0],[-46.68632,-23.42639,0.0],[-46.68082,-23.41504,0.0],[-46.67836,-23.41461,0.0]]]]}},{"type":"Feature","properties":{"uesi_id":"BRA_R298285","nbhd_code":"BRA_R298285_012","nbhd_name":"Butant\u00e3"},"geometry":{"type":"MultiPolygon","coordinates":[[[[-46.75553,-23.58664,0.0],[-46.75733,-23.5866,0.0],[-46.74982,-23.58354,0.0],[-46.74909,-23.57828,0.0],[-46.73562,-23.57414,0.0],[-46.74149,-23.56949,0.0],[-46.74454,-23.55866,0.0],[-46.73365,-23.55353,0.0],[-46.73155,-23.54863,0.0],[-46.70502,-23.5636,0.0],[-46.70115,-23.57229,0.0],[-46.70619,-23.5736,0.0],[-46.71271,-23.58219,0.0],[-46.72446,-23.5867,0.0],[-46.72544,-23.5825,0.0],[-46.73566,-23.59003,0.0],[-46.73808,-23.58484,0.0],[-46.75553,-23.58664,0.0]]]]}},{"type":"Feature","properties":{"uesi_id":"BRA_R298285","nbhd_code":"BRA_R298285_013","nbhd_name":"Cachoeirinha"},"geometry":{"type":"MultiPolygon","coordinates":[[[[-46.65375,-23.43073,0.0],[-46.65117,-23.43486,0.0],[-46.65483,-23.44515,0.0],[-46.65186,-23.45118,0.0],[-46.65229,-23.45419,0.0],[-46.64619,-23.46948,0.0],[-46.65169,-23.47123,0.0],[-46.65094,-23.47912,0.0],[-46.65555,-23.48178,0.0],[-46.66293,-23.48341,0.0],[-46.67324,-23.48236,0.0],[-46.67384,-23.47971,0.0],[-46.67024,-23.47423,0.0],[-46.67419,-23.45909,0.0],[-46.67446,-23.45367,0.0],[-46.67442,-23.45193,0.0],[-46.67535,-23.45028,0.0],[-46.6723,-23.44497,0.0],[-46.67029,-23.43912,0.0],[-46.66366,-23.43069,0.0],[-46.66944,-23.42991,0.0],[-46.67836,-23.41461,0.0],[-46.66942,-23.41883,0.0],[-46.65578,-23.4311,0.0],[-46.65407,-23.4309,0.0],[-46.65375,-23.43073,0.0]]]]}},{"type":"Feature","properties":{"uesi_id":"BRA_R298285","nbhd_code":"BRA_R298285_014","nbhd_name":"Cambuci"},"geometry":{"type":"MultiPolygon","coordinates":[[[[-46.62558,-23.57838,0.0],[-46.62283,-23.56525,0.0],[-46.62722,-23.55469,0.0],[-46.62536,-23.55342,0.0],[-46.61052,-23.5546,0.0],[-46.60404,-23.56724,0.0],[-46.61226,-23.56857,0.0],[-46.61824,-23.57912,0.0],[-46.62558,-23.57838,0.0]]]]}},{"type":"Feature","properties":{"uesi_id":"BRA_R298285","nbhd_code":"BRA_R298285_015","nbhd_name":"Campo Belo"},"geometry":{"type":"MultiPolygon","coordinates":[[[[-46.67272,-23.6442,0.0],[-46.68753,-23.62654,0.0],[-46.67675,-23.60865,0.0],[-46.6618,-23.61747,0.0],[-46.64762,-23.63057,0.0],[-46.65208,-23.6398,0.0],[-46.65907,-23.64285,0.0],[-46.66259,-23.63828,0.0],[-46.67227,-23.64496,0.0],[-46.67272,-23.6442,0.0]]]]}},{"type":"Feature","properties":{"uesi_id":"BRA_R298285","nbhd_code":"BRA_R298285_016","nbhd_name":"Campo Grande"},"geometry":{"type":"MultiPolygon","coordinates":[[[[-46.67031,-23.68827,0.0],[-46.68332,-23.69549,0.0],[-46.68566,-23.70017,0.0],[-46.69579,-23.68779,0.0],[-46.71067,-23.66513,0.0],[-46.68629,-23.65133,0.0],[-46.67964,-23.65276,0.0],[-46.67823,-23.66542,0.0],[-46.66832,-23.67152,0.0],[-46.67031,-23.68827,0.0]]]]}},{"type":"Feature","properties":{"uesi_id":"BRA_R298285","nbhd_code":"BRA_R298285_017","nbhd_name":"Campo Limpo"},"geometry":{"type":"MultiPolygon","coordinates":[[[[-46.74703,-23.64047,0.0],[-46.75883,-23.64862,0.0],[-46.76634,-23.65718,0.0],[-46.77813,-23.65019,0.0],[-46.77837,-23.65266,0.0],[-46.78968,-23.6473,0.0],[-46.79203,-23.64963,0.0],[-46.7924,-23.64688,0.0],[-46.76163,-23.6176,0.0],[-46.75211,-23.60785,0.0],[-46.74997,-23.61717,0.0],[-46.74129,-23.63409,0.0],[-46.74703,-23.64047,0.0]]]]}},{"type":"Feature","properties":{"uesi_id":"BRA_R298285","nbhd_code":"BRA_R298285_018","nbhd_name":"Cangaiba"},"geometry":{"type":"MultiPolygon","coordinates":[[[[-46.49454,-23.50675,0.0],[-46.52126,-23.51433,0.0],[-46.54617,-23.51438,0.0],[-46.55134,-23.50769,0.0],[-46.54506,-23.50554,0.0],[-46.5229,-23.48455,0.0],[-46.49856,-23.47536,0.0],[-46.50083,-23.47885,0.0],[-46.49669,-23.48473,0.0],[-46.50551,-23.48845,0.0],[-46.49854,-23.49216,0.0],[-46.49403,-23.50001,0.0],[-46.49454,-23.50675,0.0]]]]}},{"type":"Feature","properties":{"uesi_id":"BRA_R298285","nbhd_code":"BRA_R298285_019","nbhd_name":"Cap\u00e3o Redondo"},"geometry":{"type":"MultiPolygon","coordinates":[[[[-46.76238,-23.66998,0.0],[-46.76857,-23.68146,0.0],[-46.77539,-23.67638,0.0],[-46.7815,-23.68859,0.0],[-46.79065,-23.68504,0.0],[-46.79091,-23.69405,0.0],[-46.79929,-23.69687,0.0],[-46.79752,-23.69294,0.0],[-46.8017,-23.68434,0.0],[-46.79203,-23.64963,0.0],[-46.78968,-23.6473,0.0],[-46.77837,-23.65266,0.0],[-46.77813,-23.65019,0.0],[-46.76634,-23.65718,0.0],[-46.75883,-23.64862,0.0],[-46.7528,-23.64917,0.0],[-46.76238,-23.66998,0.0]]]]}},{"type":"Feature","properties":{"uesi_id":"BRA_R298285","nbhd_code":"BRA_R298285_020","nbhd_name":"Carr\u00e3o"},"geometry":{"type":"MultiPolygon","coordinates":[[[[-46.5173,-23.55529,0.0],[-46.52971,-23.5704,0.0],[-46.53127,-23.56362,0.0],[-46.54341,-23.56106,0.0],[-46.54568,-23.555,0.0],[-46.55418,-23.55552,0.0],[-46.55826,-23.5371,0.0],[-46.54833,-23.53492,0.0],[-46.5173,-23.55529,0.0]]]]}},{"type":"Feature","properties":{"uesi_id":"BRA_R298285","nbhd_code":"BRA_R298285_021","nbhd_name":"Casa Verde"},"geometry":{"type":"MultiPolygon","coordinates":[[[[-46.65412,-23.517,0.0],[-46.67145,-23.51485,0.0],[-46.67062,-23.50702,0.0],[-46.66402,-23.49853,0.0],[-46.66749,-23.49175,0.0],[-46.66293,-23.48341,0.0],[-46.65555,-23.48178,0.0],[-46.65148,-23.48877,0.0],[-46.64139,-23.50483,0.0],[-46.64923,-23.50754,0.0],[-46.65002,-23.51579,0.0],[-46.65412,-23.517,0.0]]]]}},{"type":"Feature","properties":{"uesi_id":"BRA_R298285","nbhd_code":"BRA_R298285_022","nbhd_name":"Cidade Ademar"},"geometry":{"type":"MultiPolygon","coordinates":[[[[-46.67031,-23.68827,0.0],[-46.66832,-23.67152,0.0],[-46.67823,-23.66542,0.0],[-46.67964,-23.65276,0.0],[-46.67272,-23.6442,0.0],[-46.67227,-23.64496,0.0],[-46.65986,-23.66461,0.0],[-46.63383,-23.67529,0.0],[-46.63096,-23.67254,0.0],[-46.63007,-23.67184,0.0],[-46.63415,-23.69158,0.0],[-46.64385,-23.69483,0.0],[-46.65326,-23.68547,0.0],[-46.66135,-23.68991,0.0],[-46.67031,-23.68827,0.0]]]]}},{"type":"Feature","properties":{"uesi_id":"BRA_R298285","nbhd_code":"BRA_R298285_023","nbhd_name":"Cidade Dutra"},"geometry":{"type":"MultiPolygon","coordinates":[[[[-46.72887,-23.72748,0.0],[-46.72759,-23.71759,0.0],[-46.7227,-23.71106,0.0],[-46.70256,-23.70542,0.0],[-46.69579,-23.68779,0.0],[-46.68566,-23.70017,0.0],[-46.67318,-23.70394,0.0],[-46.66343,-23.71869,0.0],[-46.67054,-23.72906,0.0],[-46.68114,-23.73228,0.0],[-46.68419,-23.73671,0.0],[-46.68812,-23.73726,0.0],[-46.68889,-23.73427,0.0],[-46.69167,-23.72631,0.0],[-46.69389,-23.73252,0.0],[-46.70422,-23.74518,0.0],[-46.70644,-23.74817,0.0],[-46.70984,-23.75551,0.0],[-46.71196,-23.7646,0.0],[-46.71203,-23.76882,0.0],[-46.71701,-23.76604,0.0],[-46.72647,-23.766,0.0],[-46.7251,-23.75896,0.0],[-46.73005,-23.74079,0.0],[-46.72882,-23.73976,0.0],[-46.72887,-23.72748,0.0]]]]}},{"type":"Feature","properties":{"uesi_id":"BRA_R298285","nbhd_code":"BRA_R298285_024","nbhd_name":"Cidade Lider"},"geometry":{"type":"MultiPolygon","coordinates":[[[[-46.50261,-23.5759,0.0],[-46.5173,-23.55529,0.0],[-46.51125,-23.55054,0.0],[-46.50241,-23.54954,0.0],[-46.48419,-23.55489,0.0],[-46.47772,-23.54851,0.0],[-46.46325,-23.55082,0.0],[-46.46648,-23.55741,0.0],[-46.47452,-23.56092,0.0],[-46.47525,-23.56863,0.0],[-46.4821,-23.56909,0.0],[-46.48792,-23.58041,0.0],[-46.49115,-23.58244,0.0],[-46.50261,-23.5759,0.0]]]]}},{"type":"Feature","properties":{"uesi_id":"BRA_R298285","nbhd_code":"BRA_R298285_025","nbhd_name":"Cidade Tiradentes"},"geometry":{"type":"MultiPolygon","coordinates":[[[[-46.39511,-23.61201,0.0],[-46.3956,-23.61326,0.0],[-46.39807,-23.61618,0.0],[-46.40478,-23.60632,0.0],[-46.41288,-23.60226,0.0],[-46.41562,-23.59678,0.0],[-46.41815,-23.59277,0.0],[-46.41513,-23.58801,0.0],[-46.41538,-23.58193,0.0],[-46.41737,-23.57757,0.0],[-46.41792,-23.57701,0.0],[-46.42355,-23.57255,0.0],[-46.41972,-23.56452,0.0],[-46.41866,-23.56337,0.0],[-46.4186,-23.56284,0.0],[-46.4167,-23.56299,0.0],[-46.41184,-23.56259,0.0],[-46.40899,-23.56263,0.0],[-46.39917,-23.56879,0.0],[-46.39133,-23.57127,0.0],[-46.39023,-23.57123,0.0],[-46.38287,-23.56997,0.0],[-46.37842,-23.57591,0.0],[-46.3836,-23.57793,0.0],[-46.37999,-23.58309,0.0],[-46.37717,-23.58941,0.0],[-46.38111,-23.5892,0.0],[-46.38306,-23.59854,0.0],[-46.39088,-23.60139,0.0],[-46.39745,-23.60415,0.0],[-46.39511,-23.61201,0.0]]]]}},{"type":"Feature","properties":{"uesi_id":"BRA_R298285","nbhd_code":"BRA_R298285_026","nbhd_name":"Consola\u00e7\u00e3o"},"geometry":{"type":"MultiPolygon","coordinates":[[[[-46.64629,-23.55087,0.0],[-46.65909,-23.55933,0.0],[-46.67597,-23.55208,0.0],[-46.66622,-23.54473,0.0],[-46.66357,-23.53713,0.0],[-46.65639,-23.54148,0.0],[-46.64777,-23.54181,0.0],[-46.64629,-23.55087,0.0]]]]}},{"type":"Feature","properties":{"uesi_id":"BRA_R298285","nbhd_code":"BRA_R298285_027","nbhd_name":"Cursino"},"geometry":{"type":"MultiPolygon","coordinates":[[[[-46.61692,-23.6575,0.0],[-46.62676,-23.65988,0.0],[-46.63007,-23.67184,0.0],[-46.63096,-23.67254,0.0],[-46.63391,-23.65462,0.0],[-46.63045,-23.64928,0.0],[-46.62383,-23.6484,0.0],[-46.62748,-23.63874,0.0],[-46.63051,-23.6391,0.0],[-46.63007,-23.6293,0.0],[-46.624,-23.59981,0.0],[-46.6209,-23.59278,0.0],[-46.61635,-23.59666,0.0],[-46.61399,-23.60829,0.0],[-46.60756,-23.6123,0.0],[-46.61182,-23.62143,0.0],[-46.60925,-23.63344,0.0],[-46.61388,-23.64023,0.0],[-46.6163,-23.658,0.0],[-46.61692,-23.6575,0.0]]]]}},{"type":"Feature","properties":{"uesi_id":"BRA_R298285","nbhd_code":"BRA_R298285_028","nbhd_name":"Ermelino Matarazzo"},"geometry":{"type":"MultiPolygon","coordinates":[[[[-46.46928,-23.48035,0.0],[-46.46781,-23.49927,0.0],[-46.47821,-23.50698,0.0],[-46.49454,-23.50675,0.0],[-46.49403,-23.50001,0.0],[-46.49854,-23.49216,0.0],[-46.50551,-23.48845,0.0],[-46.49669,-23.48473,0.0],[-46.50083,-23.47885,0.0],[-46.49856,-23.47536,0.0],[-46.48765,-23.47703,0.0],[-46.47584,-23.47694,0.0],[-46.47675,-23.47898,0.0],[-46.46928,-23.48035,0.0]]]]}},{"type":"Feature","properties":{"uesi_id":"BRA_R298285","nbhd_code":"BRA_R298285_029","nbhd_name":"Freguesia do \u00d3"},"geometry":{"type":"MultiPolygon","coordinates":[[[[-46.71442,-23.4623,0.0],[-46.7137,-23.46201,0.0],[-46.70144,-23.46296,0.0],[-46.69537,-23.47805,0.0],[-46.68529,-23.48127,0.0],[-46.67024,-23.47423,0.0],[-46.67384,-23.47971,0.0],[-46.68497,-23.48988,0.0],[-46.68982,-23.50924,0.0],[-46.69386,-23.50838,0.0],[-46.70575,-23.50883,0.0],[-46.71117,-23.48617,0.0],[-46.70734,-23.47847,0.0],[-46.71442,-23.4623,0.0]]]]}},{"type":"Feature","properties":{"uesi_id":"BRA_R298285","nbhd_code":"BRA_R298285_030","nbhd_name":"Graja\u00fa"},"geometry":{"type":"MultiPolygon","coordinates":[[[[-46.61964,-23.78918,0.0],[-46.62284,-23.80136,0.0],[-46.6235,-23.81091,0.0],[-46.63002,-23.8234,0.0],[-46.63376,-23.84176,0.0],[-46.64449,-23.843,0.0],[-46.65884,-23.84994,0.0],[-46.667,-23.84815,0.0],[-46.67944,-23.84685,0.0],[-46.68963,-23.8526,0.0],[-46.69404,-23.84934,0.0],[-46.69432,-23.84757,0.0],[-46.69636,-23.84006,0.0],[-46.70135,-23.82345,0.0],[-46.70269,-23.81945,0.0],[-46.70253,-23.81372,0.0],[-46.70144,-23.80563,0.0],[-46.70939,-23.78577,0.0],[-46.71101,-23.78034,0.0],[-46.71199,-23.77615,0.0],[-46.71211,-23.77155,0.0],[-46.71203,-23.76882,0.0],[-46.71196,-23.7646,0.0],[-46.70984,-23.75551,0.0],[-46.70644,-23.74817,0.0],[-46.70422,-23.74518,0.0],[-46.69389,-23.73252,0.0],[-46.69167,-23.72631,0.0],[-46.68889,-23.73427,0.0],[-46.68812,-23.73726,0.0],[-46.68419,-23.73671,0.0],[-46.68114,-23.73228,0.0],[-46.67054,-23.72906,0.0],[-46.66343,-23.71869,0.0],[-46.65156,-23.7323,0.0],[-46.65077,-23.73672,0.0],[-46.6465,-23.75252,0.0],[-46.64445,-23.75557,0.0],[-46.64291,-23.75729,0.0],[-46.63972,-23.75991,0.0],[-46.63139,-23.76756,0.0],[-46.61964,-23.78918,0.0]]]]}},{"type":"Feature","properties":{"uesi_id":"BRA_R298285","nbhd_code":"BRA_R298285_031","nbhd_name":"Guaianases"},"geometry":{"type":"MultiPolygon","coordinates":[[[[-46.38287,-23.56997,0.0],[-46.39023,-23.57123,0.0],[-46.39133,-23.57127,0.0],[-46.39917,-23.56879,0.0],[-46.40899,-23.56263,0.0],[-46.41184,-23.56259,0.0],[-46.4167,-23.56299,0.0],[-46.4186,-23.56284,0.0],[-46.41866,-23.56337,0.0],[-46.41972,-23.56452,0.0],[-46.42434,-23.56381,0.0],[-46.42712,-23.56117,0.0],[-46.4265,-23.54724,0.0],[-46.42306,-23.53943,0.0],[-46.40131,-23.54645,0.0],[-46.39518,-23.55152,0.0],[-46.3955,-23.55098,0.0],[-46.39394,-23.55239,0.0],[-46.39389,-23.55249,0.0],[-46.39298,-23.55446,0.0],[-46.38972,-23.56074,0.0],[-46.37941,-23.56233,0.0],[-46.38287,-23.56997,0.0]]]]}},{"type":"Feature","properties":{"uesi_id":"BRA_R298285","nbhd_code":"BRA_R298285_032","nbhd_name":"Iguatemi"},"geometry":{"type":"MultiPolygon","coordinates":[[[[-46.3956,-23.61326,0.0],[-46.39768,-23.61858,0.0],[-46.40703,-23.62373,0.0],[-46.40722,-23.63213,0.0],[-46.42211,-23.64418,0.0],[-46.43017,-23.63644,0.0],[-46.43104,-23.62495,0.0],[-46.4346,-23.62259,0.0],[-46.44147,-23.61757,0.0],[-46.45129,-23.61199,0.0],[-46.45485,-23.61027,0.0],[-46.45583,-23.60788,0.0],[-46.46076,-23.59792,0.0],[-46.45936,-23.5972,0.0],[-46.45834,-23.59629,0.0],[-46.44453,-23.59287,0.0],[-46.44082,-23.59184,0.0],[-46.43438,-23.59389,0.0],[-46.43366,-23.5953,0.0],[-46.42981,-23.59496,0.0],[-46.42668,-23.59355,0.0],[-46.42345,-23.59336,0.0],[-46.41815,-23.59277,0.0],[-46.41562,-23.59678,0.0],[-46.41288,-23.60226,0.0],[-46.40478,-23.60632,0.0],[-46.39807,-23.61618,0.0],[-46.3956,-23.61326,0.0]]]]}},{"type":"Feature","properties":{"uesi_id":"BRA_R298285","nbhd_code":"BRA_R298285_033","nbhd_name":"Ipiranga"},"geometry":{"type":"MultiPolygon","coordinates":[[[[-46.57905,-23.60402,0.0],[-46.58047,-23.6121,0.0],[-46.58958,-23.60983,0.0],[-46.59869,-23.60155,0.0],[-46.60756,-23.6123,0.0],[-46.61399,-23.60829,0.0],[-46.61635,-23.59666,0.0],[-46.6209,-23.59278,0.0],[-46.61435,-23.58197,0.0],[-46.61824,-23.57912,0.0],[-46.61226,-23.56857,0.0],[-46.60404,-23.56724,0.0],[-46.59713,-23.58166,0.0],[-46.57905,-23.60402,0.0]]]]}},{"type":"Feature","properties":{"uesi_id":"BRA_R298285","nbhd_code":"BRA_R298285_034","nbhd_name":"Itaim Bibi"},"geometry":{"type":"MultiPolygon","coordinates":[[[[-46.7016,-23.62026,0.0],[-46.70136,-23.61972,0.0],[-46.69173,-23.58681,0.0],[-46.68357,-23.58049,0.0],[-46.67136,-23.577,0.0],[-46.67034,-23.58428,0.0],[-46.67675,-23.60865,0.0],[-46.68753,-23.62654,0.0],[-46.7016,-23.62026,0.0]]]]}},{"type":"Feature","properties":{"uesi_id":"BRA_R298285","nbhd_code":"BRA_R298285_035","nbhd_name":"Itaim Paulista"},"geometry":{"type":"MultiPolygon","coordinates":[[[[-46.37828,-23.51494,0.0],[-46.38287,-23.51987,0.0],[-46.39638,-23.52205,0.0],[-46.3975,-23.52506,0.0],[-46.40755,-23.50027,0.0],[-46.40567,-23.49429,0.0],[-46.39666,-23.49355,0.0],[-46.37815,-23.48163,0.0],[-46.3652,-23.50312,0.0],[-46.36586,-23.51179,0.0],[-46.37545,-23.51028,0.0],[-46.37408,-23.51349,0.0],[-46.37828,-23.51494,0.0]]]]}},{"type":"Feature","properties":{"uesi_id":"BRA_R298285","nbhd_code":"BRA_R298285_036","nbhd_name":"Itaquera"},"geometry":{"type":"MultiPolygon","coordinates":[[[[-46.46325,-23.55082,0.0],[-46.47772,-23.54851,0.0],[-46.47324,-23.54048,0.0],[-46.47512,-23.52386,0.0],[-46.47649,-23.51681,0.0],[-46.47105,-23.51947,0.0],[-46.46742,-23.516,0.0],[-46.44387,-23.51349,0.0],[-46.44569,-23.5257,0.0],[-46.43259,-23.52659,0.0],[-46.42968,-23.53349,0.0],[-46.43729,-23.53662,0.0],[-46.4393,-23.54302,0.0],[-46.44564,-23.54629,0.0],[-46.44576,-23.55683,0.0],[-46.46325,-23.55082,0.0]]]]}},{"type":"Feature","properties":{"uesi_id":"BRA_R298285","nbhd_code":"BRA_R298285_038","nbhd_name":"Ja\u00e7an\u00e3"},"geometry":{"type":"MultiPolygon","coordinates":[[[[-46.55956,-23.49057,0.0],[-46.57184,-23.47228,0.0],[-46.58356,-23.47815,0.0],[-46.59039,-23.46816,0.0],[-46.59566,-23.46682,0.0],[-46.58233,-23.45723,0.0],[-46.5849,-23.45669,0.0],[-46.58554,-23.45542,0.0],[-46.5845,-23.45462,0.0],[-46.58293,-23.45281,0.0],[-46.58254,-23.45264,0.0],[-46.57973,-23.44927,0.0],[-46.57692,-23.4477,0.0],[-46.57514,-23.44846,0.0],[-46.5681,-23.43801,0.0],[-46.56926,-23.43253,0.0],[-46.571,-23.42895,0.0],[-46.56723,-23.42999,0.0],[-46.56565,-23.42716,0.0],[-46.56689,-23.43453,0.0],[-46.56527,-23.43949,0.0],[-46.56866,-23.44951,0.0],[-46.57059,-23.457,0.0],[-46.56095,-23.47453,0.0],[-46.55956,-23.49057,0.0]]]]}},{"type":"Feature","properties":{"uesi_id":"BRA_R298285","nbhd_code":"BRA_R298285_037","nbhd_name":"Jabaquara"},"geometry":{"type":"MultiPolygon","coordinates":[[[[-46.63096,-23.67254,0.0],[-46.63383,-23.67529,0.0],[-46.65986,-23.66461,0.0],[-46.67227,-23.64496,0.0],[-46.66259,-23.63828,0.0],[-46.65907,-23.64285,0.0],[-46.65208,-23.6398,0.0],[-46.64762,-23.63057,0.0],[-46.63007,-23.6293,0.0],[-46.63051,-23.6391,0.0],[-46.62748,-23.63874,0.0],[-46.62383,-23.6484,0.0],[-46.63045,-23.64928,0.0],[-46.63391,-23.65462,0.0],[-46.63096,-23.67254,0.0]]]]}},{"type":"Feature","properties":{"uesi_id":"BRA_R298285","nbhd_code":"BRA_R298285_040","nbhd_name":"Jaguar\u00e9"},"geometry":{"type":"MultiPolygon","coordinates":[[[[-46.73155,-23.54863,0.0],[-46.73365,-23.55353,0.0],[-46.74454,-23.55866,0.0],[-46.75587,-23.55576,0.0],[-46.75912,-23.55056,0.0],[-46.75976,-23.53019,0.0],[-46.7552,-23.52444,0.0],[-46.75134,-23.52527,0.0],[-46.74817,-23.53378,0.0],[-46.73474,-23.5458,0.0],[-46.73155,-23.54863,0.0]]]]}},{"type":"Feature","properties":{"uesi_id":"BRA_R298285","nbhd_code":"BRA_R298285_039","nbhd_name":"Jaguara"},"geometry":{"type":"MultiPolygon","coordinates":[[[[-46.75568,-23.49529,0.0],[-46.75086,-23.50682,0.0],[-46.73101,-23.50924,0.0],[-46.72657,-23.5148,0.0],[-46.74714,-23.52035,0.0],[-46.7517,-23.51962,0.0],[-46.76353,-23.50731,0.0],[-46.75568,-23.49529,0.0]]]]}},{"type":"Feature","properties":{"uesi_id":"BRA_R298285","nbhd_code":"BRA_R298285_041","nbhd_name":"Jaragu\u00e1"},"geometry":{"type":"MultiPolygon","coordinates":[[[[-46.71215,-23.45453,0.0],[-46.7131,-23.45258,0.0],[-46.71527,-23.45079,0.0],[-46.71605,-23.45071,0.0],[-46.72018,-23.45458,0.0],[-46.71904,-23.4584,0.0],[-46.73833,-23.46407,0.0],[-46.74499,-23.46945,0.0],[-46.74774,-23.46577,0.0],[-46.75325,-23.46913,0.0],[-46.75334,-23.47328,0.0],[-46.76059,-23.47311,0.0],[-46.76503,-23.47605,0.0],[-46.77215,-23.47384,0.0],[-46.77512,-23.47076,0.0],[-46.77129,-23.45881,0.0],[-46.77813,-23.46509,0.0],[-46.77499,-23.4544,0.0],[-46.77025,-23.45334,0.0],[-46.76686,-23.44735,0.0],[-46.7617,-23.4319,0.0],[-46.75635,-23.43176,0.0],[-46.74895,-23.43113,0.0],[-46.74818,-23.42576,0.0],[-46.74375,-23.42244,0.0],[-46.74346,-23.42025,0.0],[-46.73558,-23.42102,0.0],[-46.72906,-23.42457,0.0],[-46.72869,-23.42209,0.0],[-46.72396,-23.42549,0.0],[-46.7228,-23.42818,0.0],[-46.71639,-23.42215,0.0],[-46.70901,-23.42156,0.0],[-46.70812,-23.41596,0.0],[-46.70702,-23.41662,0.0],[-46.70301,-23.4178,0.0],[-46.70058,-23.41942,0.0],[-46.70022,-23.42232,0.0],[-46.70082,-23.42218,0.0],[-46.70369,-23.42346,0.0],[-46.70291,-23.43391,0.0],[-46.70322,-23.43855,0.0],[-46.70618,-23.43739,0.0],[-46.71188,-23.44059,0.0],[-46.71195,-23.44123,0.0],[-46.70955,-23.44353,0.0],[-46.7071,-23.44984,0.0],[-46.70687,-23.45174,0.0],[-46.70955,-23.45304,0.0],[-46.71215,-23.45453,0.0]]]]}},{"type":"Feature","properties":{"uesi_id":"BRA_R298285","nbhd_code":"BRA_R298285_042","nbhd_name":"Jardim \u00c2ngela"},"geometry":{"type":"MultiPolygon","coordinates":[[[[-46.73005,-23.74079,0.0],[-46.74395,-23.7447,0.0],[-46.75133,-23.73947,0.0],[-46.76126,-23.73929,0.0],[-46.76322,-23.74023,0.0],[-46.76524,-23.74406,0.0],[-46.76841,-23.75527,0.0],[-46.7748,-23.75171,0.0],[-46.77752,-23.75113,0.0],[-46.78244,-23.74804,0.0],[-46.78615,-23.74615,0.0],[-46.79007,-23.7419,0.0],[-46.79425,-23.74037,0.0],[-46.79706,-23.73281,0.0],[-46.79848,-23.72942,0.0],[-46.7936,-23.72334,0.0],[-46.79221,-23.70865,0.0],[-46.79195,-23.70072,0.0],[-46.79929,-23.69687,0.0],[-46.79091,-23.69405,0.0],[-46.79065,-23.68504,0.0],[-46.7815,-23.68859,0.0],[-46.77539,-23.67638,0.0],[-46.76857,-23.68146,0.0],[-46.76238,-23.66998,0.0],[-46.75893,-23.67583,0.0],[-46.74956,-23.67631,0.0],[-46.75032,-23.67871,0.0],[-46.75043,-23.67966,0.0],[-46.74934,-23.68286,0.0],[-46.75371,-23.68681,0.0],[-46.7517,-23.69083,0.0],[-46.75655,-23.69779,0.0],[-46.74968,-23.70102,0.0],[-46.75259,-23.70914,0.0],[-46.75017,-23.71265,0.0],[-46.73888,-23.72481,0.0],[-46.72887,-23.72748,0.0],[-46.72882,-23.73976,0.0],[-46.73005,-23.74079,0.0]]]]}},{"type":"Feature","properties":{"uesi_id":"BRA_R298285","nbhd_code":"BRA_R298285_043","nbhd_name":"Jardim Helena"},"geometry":{"type":"MultiPolygon","coordinates":[[[[-46.37815,-23.48163,0.0],[-46.39666,-23.49355,0.0],[-46.40567,-23.49429,0.0],[-46.43598,-23.49133,0.0],[-46.44036,-23.47923,0.0],[-46.43397,-23.47579,0.0],[-46.43161,-23.47745,0.0],[-46.42931,-23.47276,0.0],[-46.41803,-23.47362,0.0],[-46.41092,-23.47031,0.0],[-46.40789,-23.47659,0.0],[-46.40533,-23.47606,0.0],[-46.40664,-23.48449,0.0],[-46.40165,-23.48653,0.0],[-46.40031,-23.48319,0.0],[-46.388,-23.48172,0.0],[-46.38659,-23.47446,0.0],[-46.38192,-23.47243,0.0],[-46.37815,-23.48163,0.0]]]]}},{"type":"Feature","properties":{"uesi_id":"BRA_R298285","nbhd_code":"BRA_R298285_044","nbhd_name":"Jardim Paulista"},"geometry":{"type":"MultiPolygon","coordinates":[[[[-46.67767,-23.55109,0.0],[-46.67597,-23.55208,0.0],[-46.65909,-23.55933,0.0],[-46.64913,-23.56779,0.0],[-46.65368,-23.57217,0.0],[-46.67034,-23.58428,0.0],[-46.67136,-23.577,0.0],[-46.68277,-23.5572,0.0],[-46.67767,-23.55109,0.0]]]]}},{"type":"Feature","properties":{"uesi_id":"BRA_R298285","nbhd_code":"BRA_R298285_045","nbhd_name":"Jardim S\u00e3o Lu\u00eds"},"geometry":{"type":"MultiPolygon","coordinates":[[[[-46.72011,-23.65657,0.0],[-46.72796,-23.67109,0.0],[-46.7227,-23.71106,0.0],[-46.72759,-23.71759,0.0],[-46.72887,-23.72748,0.0],[-46.73888,-23.72481,0.0],[-46.75017,-23.71265,0.0],[-46.75259,-23.70914,0.0],[-46.74968,-23.70102,0.0],[-46.75655,-23.69779,0.0],[-46.7517,-23.69083,0.0],[-46.75371,-23.68681,0.0],[-46.74934,-23.68286,0.0],[-46.75043,-23.67966,0.0],[-46.75032,-23.67871,0.0],[-46.74956,-23.67631,0.0],[-46.75893,-23.67583,0.0],[-46.76238,-23.66998,0.0],[-46.7528,-23.64917,0.0],[-46.75883,-23.64862,0.0],[-46.74703,-23.64047,0.0],[-46.72657,-23.64472,0.0],[-46.72011,-23.65657,0.0]]]]}},{"type":"Feature","properties":{"uesi_id":"BRA_R298285","nbhd_code":"BRA_R298285_046","nbhd_name":"Jos\u00e9 Bonif\u00e1cio"},"geometry":{"type":"MultiPolygon","coordinates":[[[[-46.41972,-23.56452,0.0],[-46.42355,-23.57255,0.0],[-46.41792,-23.57701,0.0],[-46.41737,-23.57757,0.0],[-46.41538,-23.58193,0.0],[-46.41513,-23.58801,0.0],[-46.41815,-23.59277,0.0],[-46.42345,-23.59336,0.0],[-46.42668,-23.59355,0.0],[-46.42981,-23.59496,0.0],[-46.43366,-23.5953,0.0],[-46.43438,-23.59389,0.0],[-46.44082,-23.59184,0.0],[-46.44453,-23.59287,0.0],[-46.44264,-23.58914,0.0],[-46.4432,-23.58605,0.0],[-46.4425,-23.58124,0.0],[-46.44758,-23.56958,0.0],[-46.44576,-23.55683,0.0],[-46.44564,-23.54629,0.0],[-46.4393,-23.54302,0.0],[-46.43729,-23.53662,0.0],[-46.42968,-23.53349,0.0],[-46.42306,-23.53943,0.0],[-46.4265,-23.54724,0.0],[-46.42712,-23.56117,0.0],[-46.42434,-23.56381,0.0],[-46.41972,-23.56452,0.0]]]]}},{"type":"Feature","properties":{"uesi_id":"BRA_R298285","nbhd_code":"BRA_R298285_047","nbhd_name":"Lajeado"},"geometry":{"type":"MultiPolygon","coordinates":[[[[-46.42306,-23.53943,0.0],[-46.42968,-23.53349,0.0],[-46.43259,-23.52659,0.0],[-46.43071,-23.52431,0.0],[-46.42945,-23.5197,0.0],[-46.42626,-23.51958,0.0],[-46.4194,-23.52027,0.0],[-46.41844,-23.52374,0.0],[-46.40682,-23.52886,0.0],[-46.3975,-23.52506,0.0],[-46.39638,-23.52205,0.0],[-46.38287,-23.51987,0.0],[-46.38703,-23.52639,0.0],[-46.39548,-23.53061,0.0],[-46.38745,-23.54544,0.0],[-46.39352,-23.54956,0.0],[-46.39387,-23.5495,0.0],[-46.3955,-23.55098,0.0],[-46.39518,-23.55152,0.0],[-46.40131,-23.54645,0.0],[-46.42306,-23.53943,0.0]]]]}},{"type":"Feature","properties":{"uesi_id":"BRA_R298285","nbhd_code":"BRA_R298285_048","nbhd_name":"Lapa"},"geometry":{"type":"MultiPolygon","coordinates":[[[[-46.71946,-23.53656,0.0],[-46.72657,-23.5148,0.0],[-46.72062,-23.50941,0.0],[-46.70575,-23.50883,0.0],[-46.69386,-23.50838,0.0],[-46.68543,-23.5238,0.0],[-46.69233,-23.53281,0.0],[-46.69809,-23.53417,0.0],[-46.69737,-23.54085,0.0],[-46.71144,-23.53557,0.0],[-46.71946,-23.53656,0.0]]]]}},{"type":"Feature","properties":{"uesi_id":"BRA_R298285","nbhd_code":"BRA_R298285_049","nbhd_name":"Liberdade"},"geometry":{"type":"MultiPolygon","coordinates":[[[[-46.62558,-23.57838,0.0],[-46.6327,-23.57867,0.0],[-46.63392,-23.57513,0.0],[-46.64127,-23.57339,0.0],[-46.63772,-23.55615,0.0],[-46.62722,-23.55469,0.0],[-46.62283,-23.56525,0.0],[-46.62558,-23.57838,0.0]]]]}},{"type":"Feature","properties":{"uesi_id":"BRA_R298285","nbhd_code":"BRA_R298285_050","nbhd_name":"Lim\u00e3o"},"geometry":{"type":"MultiPolygon","coordinates":[[[[-46.66293,-23.48341,0.0],[-46.66749,-23.49175,0.0],[-46.66402,-23.49853,0.0],[-46.67062,-23.50702,0.0],[-46.67145,-23.51485,0.0],[-46.68982,-23.50924,0.0],[-46.68497,-23.48988,0.0],[-46.67384,-23.47971,0.0],[-46.67324,-23.48236,0.0],[-46.66293,-23.48341,0.0]]]]}},{"type":"Feature","properties":{"uesi_id":"BRA_R298285","nbhd_code":"BRA_R298285_051","nbhd_name":"Mandaqui"},"geometry":{"type":"MultiPolygon","coordinates":[[[[-46.65375,-23.43073,0.0],[-46.63398,-23.42815,0.0],[-46.63151,-23.43918,0.0],[-46.6371,-23.44622,0.0],[-46.63707,-23.44803,0.0],[-46.6297,-23.46214,0.0],[-46.63059,-23.46949,0.0],[-46.61867,-23.47388,0.0],[-46.62209,-23.47958,0.0],[-46.6223,-23.48249,0.0],[-46.62643,-23.48047,0.0],[-46.65148,-23.48877,0.0],[-46.65555,-23.48178,0.0],[-46.65094,-23.47912,0.0],[-46.65169,-23.47123,0.0],[-46.64619,-23.46948,0.0],[-46.65229,-23.45419,0.0],[-46.65186,-23.45118,0.0],[-46.65483,-23.44515,0.0],[-46.65117,-23.43486,0.0],[-46.65375,-23.43073,0.0]]]]}},{"type":"Feature","properties":{"uesi_id":"BRA_R298285","nbhd_code":"BRA_R298285_052","nbhd_name":"Marsilac"},"geometry":{"type":"MultiPolygon","coordinates":[[[[-46.61151,-23.96778,0.0],[-46.618,-23.96755,0.0],[-46.63332,-23.97564,0.0],[-46.63494,-23.98133,0.0],[-46.62963,-23.9901,0.0],[-46.63639,-23.99406,0.0],[-46.64989,-24.0025,0.0],[-46.6612,-23.98866,0.0],[-46.67775,-23.98898,0.0],[-46.68171,-23.98567,0.0],[-46.68245,-23.98413,0.0],[-46.68507,-23.98203,0.0],[-46.69168,-23.98414,0.0],[-46.70037,-23.99107,0.0],[-46.71506,-23.99604,0.0],[-46.72149,-23.99298,0.0],[-46.7334,-23.99418,0.0],[-46.74326,-23.9922,0.0],[-46.76323,-24.0063,0.0],[-46.77379,-24.00703,0.0],[-46.77507,-24.00414,0.0],[-46.75465,-23.97486,0.0],[-46.76021,-23.97034,0.0],[-46.76359,-23.96294,0.0],[-46.77359,-23.95819,0.0],[-46.77525,-23.95006,0.0],[-46.77863,-23.94956,0.0],[-46.78671,-23.94096,0.0],[-46.80654,-23.93769,0.0],[-46.81079,-23.9205,0.0],[-46.81153,-23.90815,0.0],[-46.80487,-23.89377,0.0],[-46.80732,-23.88818,0.0],[-46.80675,-23.88674,0.0],[-46.80023,-23.89316,0.0],[-46.77654,-23.89283,0.0],[-46.77663,-23.86656,0.0],[-46.76345,-23.86685,0.0],[-46.75153,-23.8709,0.0],[-46.72479,-23.87862,0.0],[-46.68946,-23.88672,0.0],[-46.65187,-23.88817,0.0],[-46.65184,-23.88943,0.0],[-46.64035,-23.91142,0.0],[-46.61194,-23.90585,0.0],[-46.60852,-23.91488,0.0],[-46.60944,-23.92232,0.0],[-46.61243,-23.92976,0.0],[-46.61626,-23.93259,0.0],[-46.61121,-23.93757,0.0],[-46.6067,-23.94424,0.0],[-46.61066,-23.94928,0.0],[-46.60674,-23.95663,0.0],[-46.61151,-23.96778,0.0]]]]}},{"type":"Feature","properties":{"uesi_id":"BRA_R298285","nbhd_code":"BRA_R298285_053","nbhd_name":"Moema"},"geometry":{"type":"MultiPolygon","coordinates":[[[[-46.65097,-23.59865,0.0],[-46.65221,-23.6072,0.0],[-46.6618,-23.61747,0.0],[-46.67675,-23.60865,0.0],[-46.67034,-23.58428,0.0],[-46.65368,-23.57217,0.0],[-46.64785,-23.58462,0.0],[-46.65097,-23.59865,0.0]]]]}},{"type":"Feature","properties":{"uesi_id":"BRA_R298285","nbhd_code":"BRA_R298285_054","nbhd_name":"Mooca"},"geometry":{"type":"MultiPolygon","coordinates":[[[[-46.5838,-23.55415,0.0],[-46.58966,-23.56499,0.0],[-46.58168,-23.56944,0.0],[-46.58151,-23.57307,0.0],[-46.59025,-23.58204,0.0],[-46.59713,-23.58166,0.0],[-46.60404,-23.56724,0.0],[-46.61052,-23.5546,0.0],[-46.61494,-23.54797,0.0],[-46.60459,-23.54599,0.0],[-46.59375,-23.54386,0.0],[-46.5838,-23.55415,0.0]]]]}},{"type":"Feature","properties":{"uesi_id":"BRA_R298285","nbhd_code":"BRA_R298285_055","nbhd_name":"Morumbi"},"geometry":{"type":"MultiPolygon","coordinates":[[[[-46.69173,-23.58681,0.0],[-46.70136,-23.61972,0.0],[-46.71875,-23.61144,0.0],[-46.72807,-23.61159,0.0],[-46.72518,-23.60241,0.0],[-46.71989,-23.59834,0.0],[-46.72446,-23.5867,0.0],[-46.71271,-23.58219,0.0],[-46.70619,-23.5736,0.0],[-46.70115,-23.57229,0.0],[-46.69173,-23.58681,0.0]]]]}},{"type":"Feature","properties":{"uesi_id":"BRA_R298285","nbhd_code":"BRA_R298285_009","nbhd_name":"Bom Retiro"},"geometry":{"type":"MultiPolygon","coordinates":[[[[-46.63369,-23.53592,0.0],[-46.63934,-23.53507,0.0],[-46.6436,-23.52932,0.0],[-46.64827,-23.52893,0.0],[-46.65427,-23.51789,0.0],[-46.65412,-23.517,0.0],[-46.62535,-23.51949,0.0],[-46.62529,-23.53434,0.0],[-46.62668,-23.53775,0.0],[-46.63369,-23.53592,0.0]]]]}},{"type":"Feature","properties":{"uesi_id":"BRA_R298285","nbhd_code":"BRA_R298285_056","nbhd_name":"Parelheiros"},"geometry":{"type":"MultiPolygon","coordinates":[[[[-46.77663,-23.86656,0.0],[-46.77667,-23.85609,0.0],[-46.77879,-23.84136,0.0],[-46.76592,-23.84315,0.0],[-46.76242,-23.83531,0.0],[-46.76239,-23.82692,0.0],[-46.77327,-23.81832,0.0],[-46.79945,-23.81057,0.0],[-46.80243,-23.80809,0.0],[-46.7995,-23.80148,0.0],[-46.78954,-23.79017,0.0],[-46.78959,-23.77679,0.0],[-46.77565,-23.76629,0.0],[-46.77487,-23.76586,0.0],[-46.76841,-23.75527,0.0],[-46.76524,-23.74406,0.0],[-46.76322,-23.74023,0.0],[-46.76126,-23.73929,0.0],[-46.75133,-23.73947,0.0],[-46.74395,-23.7447,0.0],[-46.73005,-23.74079,0.0],[-46.7251,-23.75896,0.0],[-46.72647,-23.766,0.0],[-46.71701,-23.76604,0.0],[-46.71203,-23.76882,0.0],[-46.71211,-23.77155,0.0],[-46.71199,-23.77615,0.0],[-46.71101,-23.78034,0.0],[-46.70939,-23.78577,0.0],[-46.70144,-23.80563,0.0],[-46.70253,-23.81372,0.0],[-46.70269,-23.81945,0.0],[-46.70135,-23.82345,0.0],[-46.69636,-23.84006,0.0],[-46.69432,-23.84757,0.0],[-46.69404,-23.84934,0.0],[-46.68963,-23.8526,0.0],[-46.67944,-23.84685,0.0],[-46.667,-23.84815,0.0],[-46.65884,-23.84994,0.0],[-46.64449,-23.843,0.0],[-46.63376,-23.84176,0.0],[-46.63217,-23.85163,0.0],[-46.61667,-23.86229,0.0],[-46.61688,-23.88227,0.0],[-46.61194,-23.90585,0.0],[-46.64035,-23.91142,0.0],[-46.65184,-23.88943,0.0],[-46.65187,-23.88817,0.0],[-46.68946,-23.88672,0.0],[-46.72479,-23.87862,0.0],[-46.75153,-23.8709,0.0],[-46.76345,-23.86685,0.0],[-46.77663,-23.86656,0.0]]]]}},{"type":"Feature","properties":{"uesi_id":"BRA_R298285","nbhd_code":"BRA_R298285_057","nbhd_name":"Pari"},"geometry":{"type":"MultiPolygon","coordinates":[[[[-46.6127,-23.53371,0.0],[-46.62529,-23.53434,0.0],[-46.62535,-23.51949,0.0],[-46.61908,-23.51896,0.0],[-46.60717,-23.52321,0.0],[-46.60592,-23.527,0.0],[-46.6127,-23.53371,0.0]]]]}},{"type":"Feature","properties":{"uesi_id":"BRA_R298285","nbhd_code":"BRA_R298285_058","nbhd_name":"Parque do Carmo"},"geometry":{"type":"MultiPolygon","coordinates":[[[[-46.44453,-23.59287,0.0],[-46.45834,-23.59629,0.0],[-46.45936,-23.5972,0.0],[-46.46076,-23.59792,0.0],[-46.46272,-23.59412,0.0],[-46.47889,-23.59095,0.0],[-46.49115,-23.58244,0.0],[-46.48792,-23.58041,0.0],[-46.4821,-23.56909,0.0],[-46.47525,-23.56863,0.0],[-46.47452,-23.56092,0.0],[-46.46648,-23.55741,0.0],[-46.46325,-23.55082,0.0],[-46.44576,-23.55683,0.0],[-46.44758,-23.56958,0.0],[-46.4425,-23.58124,0.0],[-46.4432,-23.58605,0.0],[-46.44264,-23.58914,0.0],[-46.44453,-23.59287,0.0]]]]}},{"type":"Feature","properties":{"uesi_id":"BRA_R298285","nbhd_code":"BRA_R298285_059","nbhd_name":"Pedreira"},"geometry":{"type":"MultiPolygon","coordinates":[[[[-46.64864,-23.73009,0.0],[-46.65156,-23.7323,0.0],[-46.66343,-23.71869,0.0],[-46.67318,-23.70394,0.0],[-46.68566,-23.70017,0.0],[-46.68332,-23.69549,0.0],[-46.67031,-23.68827,0.0],[-46.66135,-23.68991,0.0],[-46.65326,-23.68547,0.0],[-46.64385,-23.69483,0.0],[-46.63415,-23.69158,0.0],[-46.62392,-23.70506,0.0],[-46.61596,-23.70884,0.0],[-46.63723,-23.72534,0.0],[-46.64864,-23.73009,0.0]]]]}},{"type":"Feature","properties":{"uesi_id":"BRA_R298285","nbhd_code":"BRA_R298285_060","nbhd_name":"Penha"},"geometry":{"type":"MultiPolygon","coordinates":[[[[-46.50055,-23.53165,0.0],[-46.50881,-23.52735,0.0],[-46.54841,-23.53469,0.0],[-46.55844,-23.52309,0.0],[-46.55465,-23.50899,0.0],[-46.55134,-23.50769,0.0],[-46.54617,-23.51438,0.0],[-46.52126,-23.51433,0.0],[-46.51285,-23.51932,0.0],[-46.49566,-23.52155,0.0],[-46.48994,-23.5277,0.0],[-46.49382,-23.53543,0.0],[-46.50055,-23.53165,0.0]]]]}},{"type":"Feature","properties":{"uesi_id":"BRA_R298285","nbhd_code":"BRA_R298285_061","nbhd_name":"Perdizes"},"geometry":{"type":"MultiPolygon","coordinates":[[[[-46.67767,-23.55109,0.0],[-46.69301,-23.54514,0.0],[-46.69737,-23.54085,0.0],[-46.69809,-23.53417,0.0],[-46.69233,-23.53281,0.0],[-46.68543,-23.5238,0.0],[-46.66357,-23.53713,0.0],[-46.66622,-23.54473,0.0],[-46.67597,-23.55208,0.0],[-46.67767,-23.55109,0.0]]]]}},{"type":"Feature","properties":{"uesi_id":"BRA_R298285","nbhd_code":"BRA_R298285_062","nbhd_name":"Perus"},"geometry":{"type":"MultiPolygon","coordinates":[[[[-46.7617,-23.4319,0.0],[-46.76136,-23.43089,0.0],[-46.76365,-23.42011,0.0],[-46.77081,-23.41909,0.0],[-46.77628,-23.40981,0.0],[-46.78261,-23.40249,0.0],[-46.78301,-23.39868,0.0],[-46.77112,-23.39719,0.0],[-46.76889,-23.38845,0.0],[-46.76479,-23.38555,0.0],[-46.76093,-23.38745,0.0],[-46.75645,-23.38656,0.0],[-46.75126,-23.39045,0.0],[-46.7354,-23.38848,0.0],[-46.72163,-23.39652,0.0],[-46.71709,-23.40194,0.0],[-46.70966,-23.40703,0.0],[-46.70812,-23.41596,0.0],[-46.70901,-23.42156,0.0],[-46.71639,-23.42215,0.0],[-46.7228,-23.42818,0.0],[-46.72396,-23.42549,0.0],[-46.72869,-23.42209,0.0],[-46.72906,-23.42457,0.0],[-46.73558,-23.42102,0.0],[-46.74346,-23.42025,0.0],[-46.74375,-23.42244,0.0],[-46.74818,-23.42576,0.0],[-46.74895,-23.43113,0.0],[-46.75635,-23.43176,0.0],[-46.7617,-23.4319,0.0]]]]}},{"type":"Feature","properties":{"uesi_id":"BRA_R298285","nbhd_code":"BRA_R298285_063","nbhd_name":"Pinheiros"},"geometry":{"type":"MultiPolygon","coordinates":[[[[-46.67767,-23.55109,0.0],[-46.68277,-23.5572,0.0],[-46.67136,-23.577,0.0],[-46.68357,-23.58049,0.0],[-46.69173,-23.58681,0.0],[-46.70115,-23.57229,0.0],[-46.70502,-23.5636,0.0],[-46.69746,-23.55642,0.0],[-46.69301,-23.54514,0.0],[-46.67767,-23.55109,0.0]]]]}},{"type":"Feature","properties":{"uesi_id":"BRA_R298285","nbhd_code":"BRA_R298285_064","nbhd_name":"Pirituba"},"geometry":{"type":"MultiPolygon","coordinates":[[[[-46.70575,-23.50883,0.0],[-46.72062,-23.50941,0.0],[-46.73736,-23.48681,0.0],[-46.75492,-23.48341,0.0],[-46.75333,-23.47932,0.0],[-46.75259,-23.4755,0.0],[-46.75334,-23.47328,0.0],[-46.75325,-23.46913,0.0],[-46.74774,-23.46577,0.0],[-46.74499,-23.46945,0.0],[-46.73833,-23.46407,0.0],[-46.71904,-23.4584,0.0],[-46.72018,-23.45458,0.0],[-46.71605,-23.45071,0.0],[-46.71527,-23.45079,0.0],[-46.7131,-23.45258,0.0],[-46.71215,-23.45453,0.0],[-46.71442,-23.4623,0.0],[-46.70734,-23.47847,0.0],[-46.71117,-23.48617,0.0],[-46.70575,-23.50883,0.0]]]]}},{"type":"Feature","properties":{"uesi_id":"BRA_R298285","nbhd_code":"BRA_R298285_065","nbhd_name":"Ponte Rasa"},"geometry":{"type":"MultiPolygon","coordinates":[[[[-46.47649,-23.51681,0.0],[-46.47512,-23.52386,0.0],[-46.48994,-23.5277,0.0],[-46.49566,-23.52155,0.0],[-46.51285,-23.51932,0.0],[-46.52126,-23.51433,0.0],[-46.49454,-23.50675,0.0],[-46.47821,-23.50698,0.0],[-46.47649,-23.51681,0.0]]]]}},{"type":"Feature","properties":{"uesi_id":"BRA_R298285","nbhd_code":"BRA_R298285_066","nbhd_name":"Raposo Tavares"},"geometry":{"type":"MultiPolygon","coordinates":[[[[-46.78259,-23.57434,0.0],[-46.77464,-23.58324,0.0],[-46.75733,-23.5866,0.0],[-46.75553,-23.58664,0.0],[-46.75393,-23.59123,0.0],[-46.76068,-23.5959,0.0],[-46.7755,-23.60285,0.0],[-46.79754,-23.6049,0.0],[-46.80479,-23.60902,0.0],[-46.80912,-23.60727,0.0],[-46.80628,-23.58359,0.0],[-46.79604,-23.58223,0.0],[-46.78259,-23.57434,0.0]]]]}},{"type":"Feature","properties":{"uesi_id":"BRA_R298285","nbhd_code":"BRA_R298285_067","nbhd_name":"Rep\u00fablica"},"geometry":{"type":"MultiPolygon","coordinates":[[[[-46.63369,-23.53592,0.0],[-46.63921,-23.54869,0.0],[-46.63772,-23.55615,0.0],[-46.64457,-23.55452,0.0],[-46.64629,-23.55087,0.0],[-46.64777,-23.54181,0.0],[-46.63934,-23.53507,0.0],[-46.63369,-23.53592,0.0]]]]}},{"type":"Feature","properties":{"uesi_id":"BRA_R298285","nbhd_code":"BRA_R298285_068","nbhd_name":"Rio Pequeno"},"geometry":{"type":"MultiPolygon","coordinates":[[[[-46.75733,-23.5866,0.0],[-46.77464,-23.58324,0.0],[-46.78259,-23.57434,0.0],[-46.76442,-23.56232,0.0],[-46.75912,-23.55056,0.0],[-46.75587,-23.55576,0.0],[-46.74454,-23.55866,0.0],[-46.74149,-23.56949,0.0],[-46.73562,-23.57414,0.0],[-46.74909,-23.57828,0.0],[-46.74982,-23.58354,0.0],[-46.75733,-23.5866,0.0]]]]}},{"type":"Feature","properties":{"uesi_id":"BRA_R298285","nbhd_code":"BRA_R298285_073","nbhd_name":"S\u00e3o Domingos"},"geometry":{"type":"MultiPolygon","coordinates":[[[[-46.72062,-23.50941,0.0],[-46.72657,-23.5148,0.0],[-46.73101,-23.50924,0.0],[-46.75086,-23.50682,0.0],[-46.75568,-23.49529,0.0],[-46.7667,-23.49105,0.0],[-46.77198,-23.48314,0.0],[-46.76924,-23.47626,0.0],[-46.77215,-23.47384,0.0],[-46.76503,-23.47605,0.0],[-46.76059,-23.47311,0.0],[-46.75334,-23.47328,0.0],[-46.75259,-23.4755,0.0],[-46.75333,-23.47932,0.0],[-46.75492,-23.48341,0.0],[-46.73736,-23.48681,0.0],[-46.72062,-23.50941,0.0]]]]}},{"type":"Feature","properties":{"uesi_id":"BRA_R298285","nbhd_code":"BRA_R298285_074","nbhd_name":"S\u00e3o Lucas"},"geometry":{"type":"MultiPolygon","coordinates":[[[[-46.56329,-23.58153,0.0],[-46.55799,-23.58094,0.0],[-46.5568,-23.57428,0.0],[-46.5346,-23.58409,0.0],[-46.53241,-23.58813,0.0],[-46.53654,-23.5969,0.0],[-46.52334,-23.60465,0.0],[-46.52292,-23.61412,0.0],[-46.53517,-23.61363,0.0],[-46.5479,-23.606,0.0],[-46.55165,-23.60681,0.0],[-46.55117,-23.59817,0.0],[-46.56278,-23.58975,0.0],[-46.56599,-23.58277,0.0],[-46.56329,-23.58153,0.0]]]]}},{"type":"Feature","properties":{"uesi_id":"BRA_R298285","nbhd_code":"BRA_R298285_075","nbhd_name":"S\u00e3o Mateus"},"geometry":{"type":"MultiPolygon","coordinates":[[[[-46.48403,-23.62402,0.0],[-46.48493,-23.60881,0.0],[-46.48754,-23.607,0.0],[-46.50014,-23.61087,0.0],[-46.49536,-23.59551,0.0],[-46.50251,-23.59624,0.0],[-46.5071,-23.59008,0.0],[-46.50261,-23.5759,0.0],[-46.49115,-23.58244,0.0],[-46.47889,-23.59095,0.0],[-46.46272,-23.59412,0.0],[-46.46076,-23.59792,0.0],[-46.45583,-23.60788,0.0],[-46.45485,-23.61027,0.0],[-46.45621,-23.61308,0.0],[-46.46302,-23.61716,0.0],[-46.47569,-23.61328,0.0],[-46.48174,-23.62453,0.0],[-46.48403,-23.62402,0.0]]]]}},{"type":"Feature","properties":{"uesi_id":"BRA_R298285","nbhd_code":"BRA_R298285_076","nbhd_name":"S\u00e3o Miguel"},"geometry":{"type":"MultiPolygon","coordinates":[[[[-46.43598,-23.49133,0.0],[-46.42987,-23.49377,0.0],[-46.42808,-23.49928,0.0],[-46.43233,-23.50887,0.0],[-46.43071,-23.52431,0.0],[-46.43259,-23.52659,0.0],[-46.44569,-23.5257,0.0],[-46.44387,-23.51349,0.0],[-46.44805,-23.49881,0.0],[-46.4569,-23.49854,0.0],[-46.45337,-23.49227,0.0],[-46.45763,-23.48175,0.0],[-46.44036,-23.47923,0.0],[-46.43598,-23.49133,0.0]]]]}},{"type":"Feature","properties":{"uesi_id":"BRA_R298285","nbhd_code":"BRA_R298285_077","nbhd_name":"S\u00e3o Rafael"},"geometry":{"type":"MultiPolygon","coordinates":[[[[-46.43017,-23.63644,0.0],[-46.43158,-23.63979,0.0],[-46.44903,-23.64284,0.0],[-46.45316,-23.64158,0.0],[-46.46334,-23.6393,0.0],[-46.46962,-23.63901,0.0],[-46.48174,-23.62453,0.0],[-46.47569,-23.61328,0.0],[-46.46302,-23.61716,0.0],[-46.45621,-23.61308,0.0],[-46.45485,-23.61027,0.0],[-46.45129,-23.61199,0.0],[-46.44147,-23.61757,0.0],[-46.4346,-23.62259,0.0],[-46.43104,-23.62495,0.0],[-46.43017,-23.63644,0.0]]]]}},{"type":"Feature","properties":{"uesi_id":"BRA_R298285","nbhd_code":"BRA_R298285_079","nbhd_name":"Sa\u00fade"},"geometry":{"type":"MultiPolygon","coordinates":[[[[-46.63007,-23.6293,0.0],[-46.64762,-23.63057,0.0],[-46.6618,-23.61747,0.0],[-46.65221,-23.6072,0.0],[-46.65097,-23.59865,0.0],[-46.624,-23.59981,0.0],[-46.63007,-23.6293,0.0]]]]}},{"type":"Feature","properties":{"uesi_id":"BRA_R298285","nbhd_code":"BRA_R298285_069","nbhd_name":"Sacoma"},"geometry":{"type":"MultiPolygon","coordinates":[[[[-46.58326,-23.64091,0.0],[-46.59409,-23.65114,0.0],[-46.61464,-23.66062,0.0],[-46.61692,-23.6575,0.0],[-46.6163,-23.658,0.0],[-46.61388,-23.64023,0.0],[-46.60925,-23.63344,0.0],[-46.61182,-23.62143,0.0],[-46.60756,-23.6123,0.0],[-46.59869,-23.60155,0.0],[-46.58958,-23.60983,0.0],[-46.58047,-23.6121,0.0],[-46.58326,-23.64091,0.0]]]]}},{"type":"Feature","properties":{"uesi_id":"BRA_R298285","nbhd_code":"BRA_R298285_070","nbhd_name":"Santa Cec\u00edlia"},"geometry":{"type":"MultiPolygon","coordinates":[[[[-46.63934,-23.53507,0.0],[-46.64777,-23.54181,0.0],[-46.65639,-23.54148,0.0],[-46.66357,-23.53713,0.0],[-46.65974,-23.5231,0.0],[-46.65427,-23.51789,0.0],[-46.64827,-23.52893,0.0],[-46.6436,-23.52932,0.0],[-46.63934,-23.53507,0.0]]]]}},{"type":"Feature","properties":{"uesi_id":"BRA_R298285","nbhd_code":"BRA_R298285_071","nbhd_name":"Santana"},"geometry":{"type":"MultiPolygon","coordinates":[[[[-46.6114,-23.49265,0.0],[-46.61567,-23.50829,0.0],[-46.62136,-23.51134,0.0],[-46.61908,-23.51896,0.0],[-46.62535,-23.51949,0.0],[-46.65412,-23.517,0.0],[-46.65002,-23.51579,0.0],[-46.64923,-23.50754,0.0],[-46.64139,-23.50483,0.0],[-46.65148,-23.48877,0.0],[-46.62643,-23.48047,0.0],[-46.6223,-23.48249,0.0],[-46.62209,-23.47958,0.0],[-46.61246,-23.48132,0.0],[-46.6156,-23.48494,0.0],[-46.60939,-23.48807,0.0],[-46.6114,-23.49265,0.0]]]]}},{"type":"Feature","properties":{"uesi_id":"BRA_R298285","nbhd_code":"BRA_R298285_072","nbhd_name":"Santo Amaro"},"geometry":{"type":"MultiPolygon","coordinates":[[[[-46.72011,-23.65657,0.0],[-46.72657,-23.64472,0.0],[-46.71185,-23.62646,0.0],[-46.7016,-23.62026,0.0],[-46.68753,-23.62654,0.0],[-46.67272,-23.6442,0.0],[-46.67964,-23.65276,0.0],[-46.68629,-23.65133,0.0],[-46.71067,-23.66513,0.0],[-46.72011,-23.65657,0.0]]]]}},{"type":"Feature","properties":{"uesi_id":"BRA_R298285","nbhd_code":"BRA_R298285_078","nbhd_name":"Sapopemba"},"geometry":{"type":"MultiPolygon","coordinates":[[[[-46.48403,-23.62402,0.0],[-46.48725,-23.62399,0.0],[-46.50463,-23.62583,0.0],[-46.52292,-23.61412,0.0],[-46.52334,-23.60465,0.0],[-46.53654,-23.5969,0.0],[-46.53241,-23.58813,0.0],[-46.5346,-23.58409,0.0],[-46.52831,-23.58441,0.0],[-46.5071,-23.59008,0.0],[-46.50251,-23.59624,0.0],[-46.49536,-23.59551,0.0],[-46.50014,-23.61087,0.0],[-46.48754,-23.607,0.0],[-46.48493,-23.60881,0.0],[-46.48403,-23.62402,0.0]]]]}},{"type":"Feature","properties":{"uesi_id":"BRA_R298285","nbhd_code":"BRA_R298285_080","nbhd_name":"Se"},"geometry":{"type":"MultiPolygon","coordinates":[[[[-46.62722,-23.55469,0.0],[-46.63772,-23.55615,0.0],[-46.63921,-23.54869,0.0],[-46.63369,-23.53592,0.0],[-46.62668,-23.53775,0.0],[-46.62536,-23.55342,0.0],[-46.62722,-23.55469,0.0]]]]}},{"type":"Feature","properties":{"uesi_id":"BRA_R298285","nbhd_code":"BRA_R298285_081","nbhd_name":"Socorro"},"geometry":{"type":"MultiPolygon","coordinates":[[[[-46.69579,-23.68779,0.0],[-46.70256,-23.70542,0.0],[-46.7227,-23.71106,0.0],[-46.72796,-23.67109,0.0],[-46.72011,-23.65657,0.0],[-46.71067,-23.66513,0.0],[-46.69579,-23.68779,0.0]]]]}},{"type":"Feature","properties":{"uesi_id":"BRA_R298285","nbhd_code":"BRA_R298285_082","nbhd_name":"Tatuape"},"geometry":{"type":"MultiPolygon","coordinates":[[[[-46.56905,-23.55376,0.0],[-46.57901,-23.54937,0.0],[-46.58519,-23.52843,0.0],[-46.55844,-23.52309,0.0],[-46.54841,-23.53469,0.0],[-46.54833,-23.53492,0.0],[-46.55826,-23.5371,0.0],[-46.55418,-23.55552,0.0],[-46.56905,-23.55376,0.0]]]]}},{"type":"Feature","properties":{"uesi_id":"BRA_R298285","nbhd_code":"BRA_R298285_083","nbhd_name":"Trememb\u00e9"},"geometry":{"type":"MultiPolygon","coordinates":[[[[-46.56565,-23.42716,0.0],[-46.56723,-23.42999,0.0],[-46.571,-23.42895,0.0],[-46.56926,-23.43253,0.0],[-46.5681,-23.43801,0.0],[-46.57514,-23.44846,0.0],[-46.57692,-23.4477,0.0],[-46.57973,-23.44927,0.0],[-46.58254,-23.45264,0.0],[-46.58293,-23.45281,0.0],[-46.5845,-23.45462,0.0],[-46.58554,-23.45542,0.0],[-46.5849,-23.45669,0.0],[-46.58233,-23.45723,0.0],[-46.59566,-23.46682,0.0],[-46.60452,-23.46263,0.0],[-46.61676,-23.46468,0.0],[-46.6297,-23.46214,0.0],[-46.63707,-23.44803,0.0],[-46.6371,-23.44622,0.0],[-46.63151,-23.43918,0.0],[-46.63398,-23.42815,0.0],[-46.6228,-23.42125,0.0],[-46.62173,-23.41795,0.0],[-46.61826,-23.42007,0.0],[-46.61254,-23.41788,0.0],[-46.6124,-23.40708,0.0],[-46.607,-23.40083,0.0],[-46.59898,-23.39438,0.0],[-46.60009,-23.39068,0.0],[-46.5799,-23.3735,0.0],[-46.57535,-23.37421,0.0],[-46.56901,-23.37563,0.0],[-46.56117,-23.36867,0.0],[-46.55622,-23.36483,0.0],[-46.54975,-23.358,0.0],[-46.54593,-23.35844,0.0],[-46.53656,-23.36303,0.0],[-46.53695,-23.36967,0.0],[-46.54483,-23.37631,0.0],[-46.54651,-23.38794,0.0],[-46.55326,-23.39311,0.0],[-46.55588,-23.39917,0.0],[-46.55632,-23.40587,0.0],[-46.55684,-23.40981,0.0],[-46.56227,-23.41235,0.0],[-46.56542,-23.41489,0.0],[-46.56612,-23.42059,0.0],[-46.56565,-23.42716,0.0]]]]}},{"type":"Feature","properties":{"uesi_id":"BRA_R298285","nbhd_code":"BRA_R298285_084","nbhd_name":"Tucuruvi"},"geometry":{"type":"MultiPolygon","coordinates":[[[[-46.58356,-23.47815,0.0],[-46.59902,-23.49204,0.0],[-46.6114,-23.49265,0.0],[-46.60939,-23.48807,0.0],[-46.6156,-23.48494,0.0],[-46.61246,-23.48132,0.0],[-46.62209,-23.47958,0.0],[-46.61867,-23.47388,0.0],[-46.63059,-23.46949,0.0],[-46.6297,-23.46214,0.0],[-46.61676,-23.46468,0.0],[-46.60452,-23.46263,0.0],[-46.59566,-23.46682,0.0],[-46.59039,-23.46816,0.0],[-46.58356,-23.47815,0.0]]]]}},{"type":"Feature","properties":{"uesi_id":"BRA_R298285","nbhd_code":"BRA_R298285_085","nbhd_name":"Vila Andrade"},"geometry":{"type":"MultiPolygon","coordinates":[[[[-46.74997,-23.61717,0.0],[-46.74541,-23.61506,0.0],[-46.73618,-23.6171,0.0],[-46.72807,-23.61159,0.0],[-46.71875,-23.61144,0.0],[-46.70136,-23.61972,0.0],[-46.7016,-23.62026,0.0],[-46.71185,-23.62646,0.0],[-46.72657,-23.64472,0.0],[-46.74703,-23.64047,0.0],[-46.74129,-23.63409,0.0],[-46.74997,-23.61717,0.0]]]]}},{"type":"Feature","properties":{"uesi_id":"BRA_R298285","nbhd_code":"BRA_R298285_086","nbhd_name":"Vila Curu\u00e7\u00e1"},"geometry":{"type":"MultiPolygon","coordinates":[[[[-46.3975,-23.52506,0.0],[-46.40682,-23.52886,0.0],[-46.41844,-23.52374,0.0],[-46.4194,-23.52027,0.0],[-46.42626,-23.51958,0.0],[-46.42945,-23.5197,0.0],[-46.43071,-23.52431,0.0],[-46.43233,-23.50887,0.0],[-46.42808,-23.49928,0.0],[-46.42987,-23.49377,0.0],[-46.43598,-23.49133,0.0],[-46.40567,-23.49429,0.0],[-46.40755,-23.50027,0.0],[-46.3975,-23.52506,0.0]]]]}},{"type":"Feature","properties":{"uesi_id":"BRA_R298285","nbhd_code":"BRA_R298285_087","nbhd_name":"Vila Formosa"},"geometry":{"type":"MultiPolygon","coordinates":[[[[-46.5346,-23.58409,0.0],[-46.5568,-23.57428,0.0],[-46.5541,-23.56854,0.0],[-46.56545,-23.5619,0.0],[-46.56905,-23.55376,0.0],[-46.55418,-23.55552,0.0],[-46.54568,-23.555,0.0],[-46.54341,-23.56106,0.0],[-46.53127,-23.56362,0.0],[-46.52971,-23.5704,0.0],[-46.53311,-23.57326,0.0],[-46.52492,-23.57831,0.0],[-46.52831,-23.58441,0.0],[-46.5346,-23.58409,0.0]]]]}},{"type":"Feature","properties":{"uesi_id":"BRA_R298285","nbhd_code":"BRA_R298285_088","nbhd_name":"Vila Guilherme"},"geometry":{"type":"MultiPolygon","coordinates":[[[[-46.60717,-23.52321,0.0],[-46.61908,-23.51896,0.0],[-46.62136,-23.51134,0.0],[-46.61567,-23.50829,0.0],[-46.6114,-23.49265,0.0],[-46.59902,-23.49204,0.0],[-46.59333,-23.50011,0.0],[-46.59702,-23.50608,0.0],[-46.59711,-23.52781,0.0],[-46.60717,-23.52321,0.0]]]]}},{"type":"Feature","properties":{"uesi_id":"BRA_R298285","nbhd_code":"BRA_R298285_089","nbhd_name":"Vila Jacu\u00ed"},"geometry":{"type":"MultiPolygon","coordinates":[[[[-46.47649,-23.51681,0.0],[-46.47821,-23.50698,0.0],[-46.46781,-23.49927,0.0],[-46.46928,-23.48035,0.0],[-46.45763,-23.48175,0.0],[-46.45337,-23.49227,0.0],[-46.4569,-23.49854,0.0],[-46.44805,-23.49881,0.0],[-46.44387,-23.51349,0.0],[-46.46742,-23.516,0.0],[-46.47105,-23.51947,0.0],[-46.47649,-23.51681,0.0]]]]}},{"type":"Feature","properties":{"uesi_id":"BRA_R298285","nbhd_code":"BRA_R298285_090","nbhd_name":"Vila Leopoldina"},"geometry":{"type":"MultiPolygon","coordinates":[[[[-46.71946,-23.53656,0.0],[-46.72561,-23.5374,0.0],[-46.73474,-23.5458,0.0],[-46.74817,-23.53378,0.0],[-46.75134,-23.52527,0.0],[-46.74714,-23.52035,0.0],[-46.72657,-23.5148,0.0],[-46.71946,-23.53656,0.0]]]]}},{"type":"Feature","properties":{"uesi_id":"BRA_R298285","nbhd_code":"BRA_R298285_091","nbhd_name":"Vila Maria"},"geometry":{"type":"MultiPolygon","coordinates":[[[[-46.59333,-23.50011,0.0],[-46.58308,-23.49484,0.0],[-46.57718,-23.49564,0.0],[-46.56849,-23.50421,0.0],[-46.56187,-23.49966,0.0],[-46.55465,-23.50899,0.0],[-46.55844,-23.52309,0.0],[-46.58519,-23.52843,0.0],[-46.59711,-23.52781,0.0],[-46.59702,-23.50608,0.0],[-46.59333,-23.50011,0.0]]]]}},{"type":"Feature","properties":{"uesi_id":"BRA_R298285","nbhd_code":"BRA_R298285_092","nbhd_name":"Vila Mariana"},"geometry":{"type":"MultiPolygon","coordinates":[[[[-46.65097,-23.59865,0.0],[-46.64785,-23.58462,0.0],[-46.65368,-23.57217,0.0],[-46.64913,-23.56779,0.0],[-46.64127,-23.57339,0.0],[-46.63392,-23.57513,0.0],[-46.6327,-23.57867,0.0],[-46.62558,-23.57838,0.0],[-46.61824,-23.57912,0.0],[-46.61435,-23.58197,0.0],[-46.6209,-23.59278,0.0],[-46.624,-23.59981,0.0],[-46.65097,-23.59865,0.0]]]]}},{"type":"Feature","properties":{"uesi_id":"BRA_R298285","nbhd_code":"BRA_R298285_093","nbhd_name":"Vila Matilde"},"geometry":{"type":"MultiPolygon","coordinates":[[[[-46.50241,-23.54954,0.0],[-46.51125,-23.55054,0.0],[-46.5173,-23.55529,0.0],[-46.54833,-23.53492,0.0],[-46.54841,-23.53469,0.0],[-46.50881,-23.52735,0.0],[-46.50055,-23.53165,0.0],[-46.49366,-23.5434,0.0],[-46.49942,-23.54372,0.0],[-46.50241,-23.54954,0.0]]]]}},{"type":"Feature","properties":{"uesi_id":"BRA_R298285","nbhd_code":"BRA_R298285_094","nbhd_name":"Vila Medeiros"},"geometry":{"type":"MultiPolygon","coordinates":[[[[-46.59333,-23.50011,0.0],[-46.59902,-23.49204,0.0],[-46.58356,-23.47815,0.0],[-46.57184,-23.47228,0.0],[-46.55956,-23.49057,0.0],[-46.56187,-23.49966,0.0],[-46.56849,-23.50421,0.0],[-46.57718,-23.49564,0.0],[-46.58308,-23.49484,0.0],[-46.59333,-23.50011,0.0]]]]}},{"type":"Feature","properties":{"uesi_id":"BRA_R298285","nbhd_code":"BRA_R298285_095","nbhd_name":"Vila Prudente"},"geometry":{"type":"MultiPolygon","coordinates":[[[[-46.56329,-23.58153,0.0],[-46.56599,-23.58277,0.0],[-46.56278,-23.58975,0.0],[-46.55117,-23.59817,0.0],[-46.55165,-23.60681,0.0],[-46.55907,-23.61045,0.0],[-46.57954,-23.59908,0.0],[-46.57905,-23.60402,0.0],[-46.59713,-23.58166,0.0],[-46.59025,-23.58204,0.0],[-46.58151,-23.57307,0.0],[-46.57685,-23.57779,0.0],[-46.56329,-23.58153,0.0]]]]}},{"type":"Feature","properties":{"uesi_id":"BRA_R298285","nbhd_code":"BRA_R298285_096","nbhd_name":"Vila S\u00f4nia"},"geometry":{"type":"MultiPolygon","coordinates":[[[[-46.72807,-23.61159,0.0],[-46.73618,-23.6171,0.0],[-46.74541,-23.61506,0.0],[-46.74997,-23.61717,0.0],[-46.75211,-23.60785,0.0],[-46.74754,-23.60082,0.0],[-46.76068,-23.5959,0.0],[-46.75393,-23.59123,0.0],[-46.75553,-23.58664,0.0],[-46.73808,-23.58484,0.0],[-46.73566,-23.59003,0.0],[-46.72544,-23.5825,0.0],[-46.72446,-23.5867,0.0],[-46.71989,-23.59834,0.0],[-46.72518,-23.60241,0.0],[-46.72807,-23.61159,0.0]]]]}}]}