{"type":"FeatureCollection","name":"CHN_R3237073","crs":{"type":"name","properties":{"name":"urn:ogc:def:crs:OGC:1.3:CRS84"}},"features":[{"type":"Feature","properties":{"uesi_id":"CHN_R3237073","nbhd_code":"CHN_R3237073_6","nbhd_name":"\u9675\u5ddd\u53bf"},"geometry":{"type":"MultiPolygon","coordinates":[[[[113.19338,35.89784,0.0],[113.19534,35.89395,0.0],[113.19759,35.88891,0.0],[113.20605,35.88821,0.0],[113.21338,35.88979,0.0],[113.22326,35.89229,0.0],[113.22947,35.89296,0.0],[113.23313,35.89227,0.0],[113.23538,35.89043,0.0],[113.24242,35.88492,0.0],[113.2441,35.88309,0.0],[113.25701,35.86704,0.0],[113.26236,35.86497,0.0],[113.27025,35.86335,0.0],[113.279,35.86584,0.0],[113.28437,35.86926,0.0],[113.29201,35.87427,0.0],[113.29879,35.87791,0.0],[113.30416,35.88087,0.0],[113.30924,35.88337,0.0],[113.31518,35.88564,0.0],[113.31998,35.88677,0.0],[113.32421,35.88744,0.0],[113.33183,35.88673,0.0],[113.33858,35.88465,0.0],[113.34393,35.88303,0.0],[113.34731,35.88142,0.0],[113.35433,35.87614,0.0],[113.35768,35.86972,0.0],[113.36075,35.86284,0.0],[113.35932,35.85896,0.0],[113.35816,35.85278,0.0],[113.35815,35.85004,0.0],[113.35926,35.84638,0.0],[113.36346,35.84178,0.0],[113.3702,35.83627,0.0],[113.37892,35.83373,0.0],[113.38625,35.8321,0.0],[113.39554,35.83138,0.0],[113.40456,35.83248,0.0],[113.41106,35.8336,0.0],[113.41729,35.83907,0.0],[113.42098,35.84478,0.0],[113.4227,35.84912,0.0],[113.42489,35.85762,0.0],[113.42959,35.85792,0.0],[113.43487,35.85859,0.0],[113.43858,35.86485,0.0],[113.44284,35.86194,0.0],[113.44871,35.86453,0.0],[113.4555,35.86455,0.0],[113.46085,35.86361,0.0],[113.46845,35.86221,0.0],[113.4707,35.86151,0.0],[113.47464,35.85989,0.0],[113.47829,35.8569,0.0],[113.48391,35.85459,0.0],[113.48981,35.8525,0.0],[113.49826,35.85086,0.0],[113.50897,35.85081,0.0],[113.51463,35.85262,0.0],[113.51998,35.85351,0.0],[113.52814,35.85027,0.0],[113.5315,35.84797,0.0],[113.53403,35.84636,0.0],[113.54215,35.83922,0.0],[113.54777,35.83645,0.0],[113.5545,35.8323,0.0],[113.55956,35.82975,0.0],[113.57027,35.82645,0.0],[113.5869,35.82395,0.0],[113.5834,35.82131,0.0],[113.58356,35.81697,0.0],[113.5889,35.81419,0.0],[113.58669,35.80953,0.0],[113.58582,35.80623,0.0],[113.58697,35.80488,0.0],[113.59361,35.80606,0.0],[113.59962,35.80204,0.0],[113.60313,35.80127,0.0],[113.60495,35.79996,0.0],[113.60456,35.7974,0.0],[113.59378,35.79741,0.0],[113.58324,35.7942,0.0],[113.58089,35.79148,0.0],[113.58312,35.78664,0.0],[113.58682,35.78652,0.0],[113.59303,35.78957,0.0],[113.59422,35.78216,0.0],[113.59592,35.779,0.0],[113.59465,35.77512,0.0],[113.59461,35.76913,0.0],[113.59104,35.76205,0.0],[113.5863,35.7547,0.0],[113.58491,35.75057,0.0],[113.58109,35.74408,0.0],[113.58334,35.73457,0.0],[113.59081,35.71848,0.0],[113.59445,35.71251,0.0],[113.59536,35.70676,0.0],[113.59319,35.70126,0.0],[113.5876,35.69612,0.0],[113.58784,35.69169,0.0],[113.60169,35.68641,0.0],[113.60937,35.6831,0.0],[113.6179,35.67259,0.0],[113.61355,35.667,0.0],[113.61364,35.66279,0.0],[113.61923,35.6543,0.0],[113.6186,35.63657,0.0],[113.61531,35.63007,0.0],[113.59606,35.63005,0.0],[113.58002,35.63313,0.0],[113.57184,35.63442,0.0],[113.5676,35.64044,0.0],[113.56788,35.64662,0.0],[113.55943,35.64494,0.0],[113.55716,35.64869,0.0],[113.554,35.66165,0.0],[113.5498,35.66183,0.0],[113.54186,35.65705,0.0],[113.54122,35.64938,0.0],[113.54794,35.63875,0.0],[113.54741,35.63052,0.0],[113.55115,35.62393,0.0],[113.55098,35.62036,0.0],[113.54031,35.61729,0.0],[113.53986,35.60916,0.0],[113.53393,35.60197,0.0],[113.53581,35.59677,0.0],[113.52745,35.59405,0.0],[113.52377,35.58819,0.0],[113.51744,35.58161,0.0],[113.50683,35.57326,0.0],[113.50034,35.56621,0.0],[113.49803,35.55816,0.0],[113.49818,35.55182,0.0],[113.50053,35.54918,0.0],[113.49216,35.53282,0.0],[113.50303,35.52345,0.0],[113.50097,35.51651,0.0],[113.48671,35.51723,0.0],[113.47935,35.52118,0.0],[113.46538,35.51627,0.0],[113.45552,35.51555,0.0],[113.43863,35.50949,0.0],[113.43022,35.50813,0.0],[113.42346,35.51375,0.0],[113.41596,35.51184,0.0],[113.41037,35.51675,0.0],[113.39576,35.50729,0.0],[113.38531,35.5069,0.0],[113.3806,35.50403,0.0],[113.37557,35.49394,0.0],[113.37408,35.49131,0.0],[113.3722,35.48957,0.0],[113.3704,35.4877,0.0],[113.36817,35.48543,0.0],[113.36394,35.48001,0.0],[113.35901,35.47926,0.0],[113.35443,35.47966,0.0],[113.35126,35.47957,0.0],[113.34881,35.47695,0.0],[113.34549,35.47186,0.0],[113.33862,35.46881,0.0],[113.31949,35.46983,0.0],[113.31595,35.47474,0.0],[113.31241,35.47898,0.0],[113.30597,35.47932,0.0],[113.29681,35.47728,0.0],[113.2862,35.47102,0.0],[113.28392,35.4678,0.0],[113.28829,35.46526,0.0],[113.30201,35.4656,0.0],[113.31449,35.46153,0.0],[113.31761,35.45306,0.0],[113.30805,35.45289,0.0],[113.30534,35.45831,0.0],[113.30181,35.46068,0.0],[113.29806,35.45323,0.0],[113.29245,35.44797,0.0],[113.2912,35.44238,0.0],[113.29161,35.43916,0.0],[113.29681,35.43425,0.0],[113.29869,35.42882,0.0],[113.29598,35.42628,0.0],[113.28849,35.42967,0.0],[113.27622,35.43527,0.0],[113.26499,35.43459,0.0],[113.25875,35.43611,0.0],[113.25604,35.44103,0.0],[113.24585,35.4417,0.0],[113.24086,35.44662,0.0],[113.23795,35.44967,0.0],[113.23527,35.4537,0.0],[113.22984,35.45381,0.0],[113.2241,35.46112,0.0],[113.2221,35.46232,0.0],[113.21735,35.46806,0.0],[113.21514,35.4795,0.0],[113.21347,35.485,0.0],[113.21236,35.48843,0.0],[113.20538,35.49829,0.0],[113.20145,35.50082,0.0],[113.19473,35.50495,0.0],[113.18885,35.5116,0.0],[113.18466,35.51801,0.0],[113.18076,35.5258,0.0],[113.17403,35.5336,0.0],[113.15271,35.5405,0.0],[113.14401,35.54395,0.0],[113.1401,35.55219,0.0],[113.13618,35.56181,0.0],[113.13171,35.56891,0.0],[113.12077,35.57534,0.0],[113.10616,35.57879,0.0],[113.09661,35.58063,0.0],[113.08819,35.58247,0.0],[113.07977,35.58752,0.0],[113.07191,35.59874,0.0],[113.06349,35.60859,0.0],[113.05508,35.61729,0.0],[113.05002,35.61913,0.0],[113.04215,35.6228,0.0],[113.03738,35.62692,0.0],[113.03457,35.63356,0.0],[113.03852,35.64156,0.0],[113.03732,35.64463,0.0],[113.03747,35.64552,0.0],[113.0385,35.64629,0.0],[113.04471,35.64659,0.0],[113.04784,35.65059,0.0],[113.05239,35.65189,0.0],[113.05659,35.65691,0.0],[113.06486,35.66125,0.0],[113.0661,35.66539,0.0],[113.07087,35.66585,0.0],[113.07138,35.66885,0.0],[113.07367,35.67494,0.0],[113.0728,35.67961,0.0],[113.07745,35.67853,0.0],[113.07919,35.67385,0.0],[113.08242,35.67161,0.0],[113.08688,35.66696,0.0],[113.09409,35.65002,0.0],[113.10386,35.65002,0.0],[113.10741,35.65828,0.0],[113.09877,35.66304,0.0],[113.09778,35.66524,0.0],[113.09716,35.66879,0.0],[113.10096,35.67248,0.0],[113.11158,35.67511,0.0],[113.11869,35.68083,0.0],[113.12326,35.68211,0.0],[113.12815,35.68326,0.0],[113.13091,35.68384,0.0],[113.13501,35.68544,0.0],[113.13469,35.68762,0.0],[113.12933,35.68967,0.0],[113.12728,35.6913,0.0],[113.12362,35.69585,0.0],[113.12413,35.69927,0.0],[113.12231,35.70363,0.0],[113.11747,35.70672,0.0],[113.11853,35.7131,0.0],[113.1267,35.71743,0.0],[113.13937,35.72062,0.0],[113.14698,35.72472,0.0],[113.15516,35.73203,0.0],[113.1563,35.73798,0.0],[113.15266,35.74462,0.0],[113.14732,35.74943,0.0],[113.1372,35.75494,0.0],[113.12679,35.76091,0.0],[113.11864,35.76618,0.0],[113.11274,35.771,0.0],[113.10937,35.77787,0.0],[113.10826,35.78748,0.0],[113.10547,35.79892,0.0],[113.10126,35.80556,0.0],[113.10042,35.81083,0.0],[113.10663,35.81471,0.0],[113.11762,35.81629,0.0],[113.1272,35.81925,0.0],[113.13314,35.8252,0.0],[113.1357,35.83343,0.0],[113.13798,35.84578,0.0],[113.13913,35.85607,0.0],[113.14112,35.86385,0.0],[113.14282,35.86842,0.0],[113.14621,35.86933,0.0],[113.14791,35.87436,0.0],[113.15188,35.88031,0.0],[113.16176,35.88464,0.0],[113.1691,35.88828,0.0],[113.17728,35.89124,0.0],[113.18265,35.89238,0.0],[113.18716,35.8942,0.0],[113.19141,35.89625,0.0],[113.19338,35.89784,0.0]]]]}},{"type":"Feature","properties":{"uesi_id":"CHN_R3237073","nbhd_code":"CHN_R3237073_7","nbhd_name":"\u57ce\u533a"},"geometry":{"type":"MultiPolygon","coordinates":[[[[112.88648,35.43004,0.0],[112.88028,35.42934,0.0],[112.87592,35.43067,0.0],[112.87633,35.43236,0.0],[112.87569,35.43303,0.0],[112.87528,35.43469,0.0],[112.87483,35.43808,0.0],[112.87288,35.43988,0.0],[112.87032,35.44231,0.0],[112.87084,35.44335,0.0],[112.86919,35.44378,0.0],[112.86705,35.44752,0.0],[112.86637,35.45032,0.0],[112.86519,35.44803,0.0],[112.86638,35.44422,0.0],[112.86356,35.44452,0.0],[112.8615,35.44727,0.0],[112.86001,35.44741,0.0],[112.85738,35.44735,0.0],[112.85453,35.44608,0.0],[112.85173,35.44768,0.0],[112.8486,35.44605,0.0],[112.84855,35.44443,0.0],[112.84642,35.44272,0.0],[112.84802,35.44057,0.0],[112.84879,35.4383,0.0],[112.85092,35.43641,0.0],[112.85116,35.43418,0.0],[112.85021,35.43348,0.0],[112.84832,35.43364,0.0],[112.84685,35.43437,0.0],[112.8461,35.43379,0.0],[112.84462,35.43356,0.0],[112.84477,35.43217,0.0],[112.843,35.42891,0.0],[112.84101,35.42786,0.0],[112.84138,35.42584,0.0],[112.84041,35.42658,0.0],[112.83759,35.42815,0.0],[112.83433,35.42953,0.0],[112.83294,35.43132,0.0],[112.83256,35.43374,0.0],[112.83185,35.4363,0.0],[112.83242,35.43838,0.0],[112.83159,35.44101,0.0],[112.83549,35.44575,0.0],[112.83734,35.44566,0.0],[112.83738,35.44709,0.0],[112.83444,35.44788,0.0],[112.83029,35.44867,0.0],[112.82745,35.44817,0.0],[112.82584,35.44921,0.0],[112.82451,35.44829,0.0],[112.82447,35.44721,0.0],[112.82276,35.44728,0.0],[112.82122,35.44904,0.0],[112.81791,35.45064,0.0],[112.81082,35.45327,0.0],[112.80811,35.45572,0.0],[112.81029,35.46271,0.0],[112.8098,35.46841,0.0],[112.81666,35.47118,0.0],[112.82738,35.47458,0.0],[112.82845,35.47643,0.0],[112.82877,35.47696,0.0],[112.82825,35.47738,0.0],[112.82849,35.47816,0.0],[112.82906,35.47915,0.0],[112.82904,35.48397,0.0],[112.82187,35.4837,0.0],[112.82184,35.48692,0.0],[112.82017,35.48694,0.0],[112.82016,35.48666,0.0],[112.8189,35.48664,0.0],[112.81828,35.48586,0.0],[112.81534,35.48513,0.0],[112.81042,35.48273,0.0],[112.80185,35.48279,0.0],[112.79827,35.48603,0.0],[112.79646,35.48922,0.0],[112.79395,35.49313,0.0],[112.79359,35.49589,0.0],[112.79219,35.4971,0.0],[112.79015,35.49964,0.0],[112.78784,35.50238,0.0],[112.78454,35.50299,0.0],[112.78214,35.50017,0.0],[112.77868,35.49802,0.0],[112.77431,35.50099,0.0],[112.76068,35.50083,0.0],[112.75428,35.50306,0.0],[112.75168,35.50588,0.0],[112.75448,35.51161,0.0],[112.75389,35.51438,0.0],[112.74972,35.5173,0.0],[112.74965,35.52085,0.0],[112.75174,35.52308,0.0],[112.75598,35.52441,0.0],[112.75676,35.52654,0.0],[112.75259,35.5277,0.0],[112.75168,35.53094,0.0],[112.75396,35.53545,0.0],[112.75853,35.53795,0.0],[112.76361,35.5388,0.0],[112.7674,35.54188,0.0],[112.77105,35.54835,0.0],[112.77053,35.55371,0.0],[112.7687,35.5578,0.0],[112.77053,35.56067,0.0],[112.77947,35.56401,0.0],[112.7826,35.56613,0.0],[112.78534,35.56629,0.0],[112.78495,35.56072,0.0],[112.79656,35.55223,0.0],[112.79754,35.54904,0.0],[112.79741,35.54543,0.0],[112.79923,35.54358,0.0],[112.8006,35.5432,0.0],[112.80112,35.54655,0.0],[112.80347,35.54857,0.0],[112.80778,35.54724,0.0],[112.81052,35.54602,0.0],[112.81182,35.54697,0.0],[112.81195,35.55201,0.0],[112.81736,35.55342,0.0],[112.82297,35.55508,0.0],[112.82871,35.55878,0.0],[112.83115,35.56248,0.0],[112.83305,35.56457,0.0],[112.83739,35.56343,0.0],[112.83749,35.56844,0.0],[112.83552,35.57482,0.0],[112.8364,35.57728,0.0],[112.83643,35.57739,0.0],[112.83646,35.5776,0.0],[112.8365,35.57785,0.0],[112.83657,35.57802,0.0],[112.83664,35.57819,0.0],[112.83681,35.57844,0.0],[112.83698,35.57871,0.0],[112.8371,35.57892,0.0],[112.83731,35.5794,0.0],[112.84157,35.58175,0.0],[112.84392,35.58087,0.0],[112.84679,35.58043,0.0],[112.85006,35.58005,0.0],[112.85297,35.58046,0.0],[112.85543,35.58087,0.0],[112.86143,35.58134,0.0],[112.86822,35.58548,0.0],[112.87085,35.58819,0.0],[112.87466,35.5903,0.0],[112.87771,35.59033,0.0],[112.88001,35.58886,0.0],[112.88313,35.58638,0.0],[112.88625,35.58309,0.0],[112.89092,35.58144,0.0],[112.89276,35.57982,0.0],[112.8964,35.57792,0.0],[112.90022,35.57674,0.0],[112.90105,35.57323,0.0],[112.89845,35.56878,0.0],[112.89957,35.56889,0.0],[112.90087,35.56703,0.0],[112.90603,35.56491,0.0],[112.90781,35.56423,0.0],[112.91146,35.56277,0.0],[112.91701,35.56076,0.0],[112.91857,35.55755,0.0],[112.91856,35.55295,0.0],[112.91725,35.54708,0.0],[112.91239,35.53943,0.0],[112.91007,35.53344,0.0],[112.90837,35.52675,0.0],[112.90732,35.52225,0.0],[112.90495,35.51867,0.0],[112.90243,35.51797,0.0],[112.89949,35.51822,0.0],[112.89182,35.52015,0.0],[112.88257,35.52253,0.0],[112.8789,35.52264,0.0],[112.87584,35.52243,0.0],[112.87483,35.52246,0.0],[112.87516,35.51739,0.0],[112.87523,35.51379,0.0],[112.87539,35.51167,0.0],[112.88192,35.51002,0.0],[112.88209,35.50877,0.0],[112.88528,35.50497,0.0],[112.88556,35.49759,0.0],[112.88619,35.49754,0.0],[112.88637,35.49364,0.0],[112.88485,35.48918,0.0],[112.88796,35.48804,0.0],[112.89158,35.4867,0.0],[112.89584,35.48433,0.0],[112.89683,35.48408,0.0],[112.89361,35.48158,0.0],[112.89411,35.478,0.0],[112.88935,35.46885,0.0],[112.8841,35.46489,0.0],[112.88554,35.46116,0.0],[112.88492,35.44284,0.0],[112.89027,35.43608,0.0],[112.88935,35.43247,0.0],[112.88648,35.43004,0.0]]]]}},{"type":"Feature","properties":{"uesi_id":"CHN_R3237073","nbhd_code":"CHN_R3237073_8","nbhd_name":"\u9ad8\u5e73\u5e02"},"geometry":{"type":"MultiPolygon","coordinates":[[[[112.77265,35.98563,0.0],[112.77915,35.98334,0.0],[112.78622,35.97992,0.0],[112.79074,35.97764,0.0],[112.79695,35.97857,0.0],[112.80344,35.98086,0.0],[112.80569,35.98178,0.0],[112.81161,35.98567,0.0],[112.81839,35.98728,0.0],[112.82291,35.98728,0.0],[112.83251,35.98546,0.0],[112.8376,35.98249,0.0],[112.84438,35.97929,0.0],[112.85398,35.97747,0.0],[112.85956,35.97626,0.0],[112.86506,35.97512,0.0],[112.8691,35.97187,0.0],[112.87234,35.96627,0.0],[112.87291,35.95895,0.0],[112.87291,35.95712,0.0],[112.87207,35.95277,0.0],[112.86982,35.94774,0.0],[112.86616,35.94179,0.0],[112.86616,35.93652,0.0],[112.87012,35.93012,0.0],[112.87435,35.92715,0.0],[112.88422,35.92441,0.0],[112.89213,35.92395,0.0],[112.90426,35.92281,0.0],[112.91526,35.92281,0.0],[112.92486,35.92305,0.0],[112.93727,35.92419,0.0],[112.94601,35.92602,0.0],[112.95278,35.92609,0.0],[112.95743,35.92697,0.0],[112.9625,35.9276,0.0],[112.96548,35.92624,0.0],[112.97169,35.92578,0.0],[112.98044,35.92647,0.0],[112.98339,35.92585,0.0],[112.9897,35.92444,0.0],[112.99761,35.92206,0.0],[113.00503,35.92046,0.0],[113.00935,35.92136,0.0],[113.01683,35.92027,0.0],[113.02501,35.91684,0.0],[113.03319,35.91477,0.0],[113.04108,35.9063,0.0],[113.04615,35.89829,0.0],[113.05235,35.89325,0.0],[113.05911,35.89096,0.0],[113.07096,35.89071,0.0],[113.08478,35.89115,0.0],[113.09776,35.89114,0.0],[113.10427,35.88992,0.0],[113.10762,35.8893,0.0],[113.11395,35.88745,0.0],[113.11551,35.887,0.0],[113.12142,35.88173,0.0],[113.1293,35.87531,0.0],[113.13409,35.87141,0.0],[113.13944,35.86912,0.0],[113.14282,35.86842,0.0],[113.14112,35.86385,0.0],[113.13913,35.85607,0.0],[113.13798,35.84578,0.0],[113.1357,35.83343,0.0],[113.13314,35.8252,0.0],[113.1272,35.81925,0.0],[113.11762,35.81629,0.0],[113.10663,35.81471,0.0],[113.10042,35.81083,0.0],[113.10126,35.80556,0.0],[113.10547,35.79892,0.0],[113.10826,35.78748,0.0],[113.10937,35.77787,0.0],[113.11274,35.771,0.0],[113.11864,35.76618,0.0],[113.12679,35.76091,0.0],[113.1372,35.75494,0.0],[113.14732,35.74943,0.0],[113.15266,35.74462,0.0],[113.1563,35.73798,0.0],[113.15516,35.73203,0.0],[113.14698,35.72472,0.0],[113.13937,35.72062,0.0],[113.1267,35.71743,0.0],[113.11853,35.7131,0.0],[113.11747,35.70672,0.0],[113.12231,35.70363,0.0],[113.12413,35.69927,0.0],[113.12362,35.69585,0.0],[113.12728,35.6913,0.0],[113.12933,35.68967,0.0],[113.13469,35.68762,0.0],[113.13501,35.68544,0.0],[113.13091,35.68384,0.0],[113.12815,35.68326,0.0],[113.12326,35.68211,0.0],[113.11869,35.68083,0.0],[113.11158,35.67511,0.0],[113.10096,35.67248,0.0],[113.09716,35.66879,0.0],[113.09778,35.66524,0.0],[113.09877,35.66304,0.0],[113.10741,35.65828,0.0],[113.10386,35.65002,0.0],[113.09409,35.65002,0.0],[113.08688,35.66696,0.0],[113.08242,35.67161,0.0],[113.07919,35.67385,0.0],[113.07745,35.67853,0.0],[113.0728,35.67961,0.0],[113.07367,35.67494,0.0],[113.07138,35.66885,0.0],[113.07087,35.66585,0.0],[113.0661,35.66539,0.0],[113.06486,35.66125,0.0],[113.05659,35.65691,0.0],[113.05454,35.65843,0.0],[113.05007,35.65895,0.0],[113.05007,35.66123,0.0],[113.04586,35.66696,0.0],[113.03883,35.67246,0.0],[113.02716,35.67462,0.0],[113.01946,35.67742,0.0],[113.0079,35.69078,0.0],[113.00313,35.69605,0.0],[112.99778,35.6972,0.0],[112.99215,35.69354,0.0],[112.98286,35.68416,0.0],[112.98061,35.67936,0.0],[112.97132,35.67501,0.0],[112.96317,35.67181,0.0],[112.95219,35.67113,0.0],[112.9446,35.67181,0.0],[112.93362,35.67433,0.0],[112.91703,35.68005,0.0],[112.90859,35.68279,0.0],[112.90043,35.68485,0.0],[112.88945,35.69011,0.0],[112.87932,35.69628,0.0],[112.87059,35.70223,0.0],[112.86721,35.70383,0.0],[112.85962,35.70383,0.0],[112.85315,35.6981,0.0],[112.84697,35.68825,0.0],[112.83966,35.68299,0.0],[112.8301,35.67977,0.0],[112.81688,35.6777,0.0],[112.80479,35.67723,0.0],[112.79044,35.67905,0.0],[112.78481,35.67996,0.0],[112.77946,35.68064,0.0],[112.7682,35.68177,0.0],[112.75751,35.68541,0.0],[112.74681,35.68837,0.0],[112.73947,35.69637,0.0],[112.73862,35.70118,0.0],[112.73636,35.70438,0.0],[112.73072,35.70917,0.0],[112.7203,35.71258,0.0],[112.71494,35.71395,0.0],[112.71972,35.71693,0.0],[112.7259,35.72404,0.0],[112.72643,35.73387,0.0],[112.72021,35.74439,0.0],[112.71202,35.7533,0.0],[112.71481,35.76246,0.0],[112.72211,35.76888,0.0],[112.72464,35.77506,0.0],[112.71615,35.78855,0.0],[112.71416,35.79678,0.0],[112.7164,35.80182,0.0],[112.72314,35.80984,0.0],[112.73326,35.81832,0.0],[112.74029,35.8252,0.0],[112.7473,35.83917,0.0],[112.75635,35.84553,0.0],[112.76136,35.85634,0.0],[112.77346,35.8662,0.0],[112.77512,35.88153,0.0],[112.77341,35.88839,0.0],[112.77028,35.90395,0.0],[112.77223,35.91447,0.0],[112.77588,35.92614,0.0],[112.77924,35.93667,0.0],[112.77978,35.95109,0.0],[112.77608,35.96916,0.0],[112.77323,35.97785,0.0],[112.77265,35.98563,0.0]]]]}},{"type":"Feature","properties":{"uesi_id":"CHN_R3237073","nbhd_code":"CHN_R3237073_9","nbhd_name":"\u6c81\u6c34\u53bf"},"geometry":{"type":"MultiPolygon","coordinates":[[[[112.77265,35.98563,0.0],[112.77323,35.97785,0.0],[112.77608,35.96916,0.0],[112.77978,35.95109,0.0],[112.77924,35.93667,0.0],[112.77588,35.92614,0.0],[112.77223,35.91447,0.0],[112.77028,35.90395,0.0],[112.77341,35.88839,0.0],[112.77512,35.88153,0.0],[112.77346,35.8662,0.0],[112.76136,35.85634,0.0],[112.75635,35.84553,0.0],[112.7473,35.83917,0.0],[112.74029,35.8252,0.0],[112.73326,35.81832,0.0],[112.72314,35.80984,0.0],[112.7164,35.80182,0.0],[112.71416,35.79678,0.0],[112.71615,35.78855,0.0],[112.72464,35.77506,0.0],[112.72211,35.76888,0.0],[112.71481,35.76246,0.0],[112.71202,35.7533,0.0],[112.72021,35.74439,0.0],[112.72643,35.73387,0.0],[112.7259,35.72404,0.0],[112.71972,35.71693,0.0],[112.71494,35.71395,0.0],[112.70229,35.71324,0.0],[112.68794,35.71001,0.0],[112.6795,35.70725,0.0],[112.66714,35.70173,0.0],[112.66322,35.69691,0.0],[112.66044,35.68661,0.0],[112.66187,35.67815,0.0],[112.65824,35.6699,0.0],[112.65179,35.66348,0.0],[112.64704,35.65683,0.0],[112.6437,35.64767,0.0],[112.64431,35.63325,0.0],[112.64517,35.62708,0.0],[112.6452,35.6209,0.0],[112.64568,35.6138,0.0],[112.65127,35.60823,0.0],[112.65313,35.60358,0.0],[112.65272,35.59674,0.0],[112.65065,35.59382,0.0],[112.6453,35.59112,0.0],[112.63512,35.59141,0.0],[112.63029,35.58795,0.0],[112.62923,35.58022,0.0],[112.62999,35.57687,0.0],[112.63073,35.57385,0.0],[112.6294,35.57101,0.0],[112.63044,35.56792,0.0],[112.63146,35.56662,0.0],[112.63136,35.56391,0.0],[112.62515,35.55957,0.0],[112.61923,35.55848,0.0],[112.61447,35.55785,0.0],[112.61149,35.55315,0.0],[112.60953,35.54232,0.0],[112.6104,35.53294,0.0],[112.60648,35.53224,0.0],[112.60143,35.53086,0.0],[112.59553,35.53084,0.0],[112.59384,35.53244,0.0],[112.59242,35.53541,0.0],[112.59134,35.53754,0.0],[112.59095,35.54085,0.0],[112.59113,35.545,0.0],[112.59237,35.54776,0.0],[112.59722,35.55398,0.0],[112.59933,35.56083,0.0],[112.59241,35.55954,0.0],[112.58337,35.5541,0.0],[112.57907,35.55876,0.0],[112.56695,35.5523,0.0],[112.56161,35.55929,0.0],[112.54933,35.5616,0.0],[112.54315,35.56112,0.0],[112.52717,35.55489,0.0],[112.52213,35.55259,0.0],[112.51454,35.55279,0.0],[112.51201,35.55416,0.0],[112.50833,35.55758,0.0],[112.50692,35.55963,0.0],[112.50043,35.56625,0.0],[112.49368,35.56805,0.0],[112.49002,35.56827,0.0],[112.48385,35.56641,0.0],[112.47937,35.56388,0.0],[112.47151,35.56157,0.0],[112.46561,35.56269,0.0],[112.46278,35.56634,0.0],[112.45769,35.57158,0.0],[112.45456,35.57821,0.0],[112.4548,35.58668,0.0],[112.45673,35.59126,0.0],[112.46065,35.59448,0.0],[112.4606,35.60226,0.0],[112.45496,35.60521,0.0],[112.4482,35.60931,0.0],[112.44504,35.61982,0.0],[112.44328,35.6324,0.0],[112.44069,35.64223,0.0],[112.43812,35.64885,0.0],[112.43413,35.65754,0.0],[112.42876,35.66232,0.0],[112.41828,35.67326,0.0],[112.41095,35.67575,0.0],[112.40137,35.67799,0.0],[112.37386,35.67738,0.0],[112.36185,35.68128,0.0],[112.35181,35.68418,0.0],[112.33662,35.68434,0.0],[112.32368,35.68428,0.0],[112.31187,35.68422,0.0],[112.30512,35.68311,0.0],[112.30175,35.68256,0.0],[112.28912,35.67861,0.0],[112.2824,35.67446,0.0],[112.27713,35.66505,0.0],[112.27188,35.65289,0.0],[112.26096,35.64642,0.0],[112.25058,35.64408,0.0],[112.24327,35.64427,0.0],[112.21534,35.65464,0.0],[112.2111,35.6569,0.0],[112.20321,35.65845,0.0],[112.1948,35.65566,0.0],[112.18921,35.65151,0.0],[112.18423,35.64187,0.0],[112.18827,35.63114,0.0],[112.19508,35.62363,0.0],[112.20049,35.61725,0.0],[112.20483,35.6024,0.0],[112.20381,35.59072,0.0],[112.20646,35.57746,0.0],[112.21244,35.56743,0.0],[112.22918,35.54876,0.0],[112.23116,35.54648,0.0],[112.23512,35.54353,0.0],[112.23629,35.5385,0.0],[112.23325,35.53185,0.0],[112.22317,35.52927,0.0],[112.21361,35.53059,0.0],[112.20742,35.5317,0.0],[112.19703,35.53118,0.0],[112.18668,35.52769,0.0],[112.18025,35.52353,0.0],[112.17276,35.51342,0.0],[112.17236,35.49625,0.0],[112.16707,35.49141,0.0],[112.1581,35.48975,0.0],[112.14854,35.49175,0.0],[112.137,35.49511,0.0],[112.12577,35.49504,0.0],[112.11652,35.49338,0.0],[112.10812,35.49195,0.0],[112.09863,35.48685,0.0],[112.08971,35.48038,0.0],[112.08475,35.47188,0.0],[112.07647,35.45809,0.0],[112.07211,35.44593,0.0],[112.06693,35.43102,0.0],[112.06539,35.41728,0.0],[112.06518,35.41109,0.0],[112.05942,35.39847,0.0],[112.05106,35.39314,0.0],[112.03765,35.38916,0.0],[112.02616,35.38839,0.0],[112.02642,35.39045,0.0],[112.02443,35.39272,0.0],[112.01935,35.39635,0.0],[112.01061,35.39994,0.0],[112.00246,35.40126,0.0],[111.99169,35.40362,0.0],[111.98809,35.40825,0.0],[111.98121,35.41652,0.0],[111.97019,35.42802,0.0],[111.9679,35.4319,0.0],[111.96448,35.43684,0.0],[111.96556,35.44012,0.0],[111.96509,35.44797,0.0],[111.96608,35.44998,0.0],[111.96558,35.45335,0.0],[111.96042,35.45501,0.0],[111.959,35.45694,0.0],[111.96143,35.46393,0.0],[111.95746,35.46636,0.0],[111.95637,35.46947,0.0],[111.95865,35.47393,0.0],[111.96,35.47592,0.0],[111.95991,35.47861,0.0],[111.96203,35.48157,0.0],[111.95898,35.48397,0.0],[111.95578,35.48813,0.0],[111.95222,35.48631,0.0],[111.94639,35.48636,0.0],[111.94133,35.49546,0.0],[111.94265,35.50113,0.0],[111.94516,35.50771,0.0],[111.94545,35.511,0.0],[111.94559,35.51503,0.0],[111.95017,35.51633,0.0],[111.9562,35.51783,0.0],[111.95787,35.52419,0.0],[111.95554,35.53146,0.0],[111.95306,35.53431,0.0],[111.95116,35.53692,0.0],[111.94877,35.54057,0.0],[111.94918,35.54324,0.0],[111.95109,35.54466,0.0],[111.9542,35.54752,0.0],[111.95504,35.55005,0.0],[111.95743,35.55695,0.0],[111.96066,35.56706,0.0],[111.95874,35.57099,0.0],[111.95629,35.57235,0.0],[111.95492,35.5741,0.0],[111.95331,35.57478,0.0],[111.95089,35.5747,0.0],[111.94793,35.5741,0.0],[111.9441,35.57413,0.0],[111.9423,35.57661,0.0],[111.94186,35.59327,0.0],[111.94057,35.60722,0.0],[111.93531,35.62297,0.0],[111.9361,35.62732,0.0],[111.94141,35.63034,0.0],[111.94782,35.6352,0.0],[111.95281,35.64119,0.0],[111.95322,35.65446,0.0],[111.95341,35.66156,0.0],[111.95786,35.66594,0.0],[111.97163,35.66788,0.0],[111.98312,35.67071,0.0],[111.98831,35.6798,0.0],[111.99803,35.68302,0.0],[112.00266,35.68527,0.0],[112.00538,35.68849,0.0],[112.01567,35.6894,0.0],[112.02105,35.7012,0.0],[112.02491,35.70786,0.0],[112.02733,35.71393,0.0],[112.02596,35.72118,0.0],[112.02694,35.72825,0.0],[112.01868,35.73711,0.0],[112.01521,35.74601,0.0],[112.01879,35.75221,0.0],[112.03006,35.75728,0.0],[112.03371,35.7616,0.0],[112.03854,35.76238,0.0],[112.04291,35.76662,0.0],[112.05066,35.7692,0.0],[112.04607,35.78238,0.0],[112.04204,35.79036,0.0],[112.03803,35.7956,0.0],[112.02921,35.80446,0.0],[112.02567,35.81532,0.0],[112.02417,35.8189,0.0],[112.02477,35.82388,0.0],[112.02728,35.82618,0.0],[112.02892,35.831,0.0],[112.02858,35.83603,0.0],[112.02763,35.84472,0.0],[112.02921,35.85594,0.0],[112.03253,35.86123,0.0],[112.03928,35.86319,0.0],[112.04749,35.85889,0.0],[112.04896,35.85143,0.0],[112.05344,35.84949,0.0],[112.05809,35.8446,0.0],[112.06716,35.84247,0.0],[112.07348,35.83845,0.0],[112.08182,35.83625,0.0],[112.09379,35.83791,0.0],[112.10242,35.83441,0.0],[112.11461,35.83487,0.0],[112.1193,35.83003,0.0],[112.12474,35.83015,0.0],[112.12756,35.8259,0.0],[112.14051,35.8224,0.0],[112.15082,35.82133,0.0],[112.16377,35.82179,0.0],[112.18966,35.81859,0.0],[112.1966,35.81981,0.0],[112.21011,35.82483,0.0],[112.21285,35.83119,0.0],[112.21161,35.83457,0.0],[112.21368,35.84111,0.0],[112.21143,35.8475,0.0],[112.1936,35.86498,0.0],[112.18422,35.8662,0.0],[112.18066,35.86742,0.0],[112.1769,35.87365,0.0],[112.17184,35.87699,0.0],[112.16715,35.87745,0.0],[112.15262,35.87009,0.0],[112.14923,35.87725,0.0],[112.14645,35.88989,0.0],[112.14543,35.89404,0.0],[112.14222,35.89651,0.0],[112.13679,35.89649,0.0],[112.13638,35.89873,0.0],[112.13459,35.90729,0.0],[112.13702,35.91054,0.0],[112.14413,35.90777,0.0],[112.15328,35.90717,0.0],[112.16148,35.90854,0.0],[112.16846,35.91013,0.0],[112.17484,35.90937,0.0],[112.17747,35.91484,0.0],[112.18157,35.91718,0.0],[112.18924,35.91542,0.0],[112.19504,35.90779,0.0],[112.20354,35.90394,0.0],[112.21336,35.89646,0.0],[112.22533,35.89262,0.0],[112.23373,35.89052,0.0],[112.24134,35.893,0.0],[112.25353,35.90037,0.0],[112.25944,35.90247,0.0],[112.27184,35.9039,0.0],[112.2823,35.90167,0.0],[112.29333,35.89761,0.0],[112.30547,35.89584,0.0],[112.32099,35.895,0.0],[112.33337,35.89987,0.0],[112.34097,35.90082,0.0],[112.35763,35.89929,0.0],[112.36836,35.89705,0.0],[112.37542,35.89571,0.0],[112.38924,35.89692,0.0],[112.40554,35.90545,0.0],[112.41732,35.91649,0.0],[112.42208,35.92131,0.0],[112.44092,35.93236,0.0],[112.45695,35.94066,0.0],[112.47582,35.94737,0.0],[112.49498,35.95522,0.0],[112.51074,35.96282,0.0],[112.5203,35.96995,0.0],[112.52396,35.97362,0.0],[112.52616,35.98506,0.0],[112.52414,35.99329,0.0],[112.52271,35.99718,0.0],[112.52265,36.00001,0.0],[112.52172,36.00752,0.0],[112.52199,36.0135,0.0],[112.52126,36.02049,0.0],[112.51931,36.02483,0.0],[112.52058,36.03003,0.0],[112.52407,36.03844,0.0],[112.53377,36.0409,0.0],[112.5422,36.04528,0.0],[112.55172,36.04334,0.0],[112.56978,36.04564,0.0],[112.57865,36.05118,0.0],[112.58601,36.05455,0.0],[112.5962,36.05152,0.0],[112.60285,36.05787,0.0],[112.6102,36.06642,0.0],[112.61746,36.06447,0.0],[112.62255,36.05992,0.0],[112.63007,36.05701,0.0],[112.63862,36.04964,0.0],[112.647,36.04773,0.0],[112.65202,36.04378,0.0],[112.65279,36.0399,0.0],[112.65693,36.0311,0.0],[112.66444,36.02288,0.0],[112.67132,36.01578,0.0],[112.6748,36.00856,0.0],[112.6815,36.00512,0.0],[112.69205,36.00915,0.0],[112.70235,36.01248,0.0],[112.70818,36.01474,0.0],[112.71549,36.01188,0.0],[112.71877,36.00772,0.0],[112.72614,36.00001,0.0],[112.7331,35.99449,0.0],[112.73536,35.99358,0.0],[112.74073,35.99198,0.0],[112.74413,35.99108,0.0],[112.75118,35.98971,0.0],[112.75542,35.98903,0.0],[112.76107,35.9879,0.0],[112.76362,35.98721,0.0],[112.77265,35.98563,0.0]]]]}},{"type":"Feature","properties":{"uesi_id":"CHN_R3237073","nbhd_code":"CHN_R3237073_10","nbhd_name":"\u9633\u57ce\u53bf"},"geometry":{"type":"MultiPolygon","coordinates":[[[[112.02616,35.38839,0.0],[112.03765,35.38916,0.0],[112.05106,35.39314,0.0],[112.05942,35.39847,0.0],[112.06518,35.41109,0.0],[112.06539,35.41728,0.0],[112.06693,35.43102,0.0],[112.07211,35.44593,0.0],[112.07647,35.45809,0.0],[112.08475,35.47188,0.0],[112.08971,35.48038,0.0],[112.09863,35.48685,0.0],[112.10812,35.49195,0.0],[112.11652,35.49338,0.0],[112.12577,35.49504,0.0],[112.137,35.49511,0.0],[112.14854,35.49175,0.0],[112.1581,35.48975,0.0],[112.16707,35.49141,0.0],[112.17236,35.49625,0.0],[112.17276,35.51342,0.0],[112.18025,35.52353,0.0],[112.18668,35.52769,0.0],[112.19703,35.53118,0.0],[112.20742,35.5317,0.0],[112.21361,35.53059,0.0],[112.22317,35.52927,0.0],[112.23325,35.53185,0.0],[112.23629,35.5385,0.0],[112.23512,35.54353,0.0],[112.23116,35.54648,0.0],[112.22918,35.54876,0.0],[112.21244,35.56743,0.0],[112.20646,35.57746,0.0],[112.20381,35.59072,0.0],[112.20483,35.6024,0.0],[112.20049,35.61725,0.0],[112.19508,35.62363,0.0],[112.18827,35.63114,0.0],[112.18423,35.64187,0.0],[112.18921,35.65151,0.0],[112.1948,35.65566,0.0],[112.20321,35.65845,0.0],[112.2111,35.6569,0.0],[112.21534,35.65464,0.0],[112.24327,35.64427,0.0],[112.25058,35.64408,0.0],[112.26096,35.64642,0.0],[112.27188,35.65289,0.0],[112.27713,35.66505,0.0],[112.2824,35.67446,0.0],[112.28912,35.67861,0.0],[112.30175,35.68256,0.0],[112.30512,35.68311,0.0],[112.31187,35.68422,0.0],[112.32368,35.68428,0.0],[112.33662,35.68434,0.0],[112.35181,35.68418,0.0],[112.36185,35.68128,0.0],[112.37386,35.67738,0.0],[112.40137,35.67799,0.0],[112.41095,35.67575,0.0],[112.41828,35.67326,0.0],[112.42876,35.66232,0.0],[112.43413,35.65754,0.0],[112.43812,35.64885,0.0],[112.44069,35.64223,0.0],[112.44328,35.6324,0.0],[112.44504,35.61982,0.0],[112.4482,35.60931,0.0],[112.45496,35.60521,0.0],[112.4606,35.60226,0.0],[112.46065,35.59448,0.0],[112.45673,35.59126,0.0],[112.4548,35.58668,0.0],[112.45456,35.57821,0.0],[112.45769,35.57158,0.0],[112.46278,35.56634,0.0],[112.46561,35.56269,0.0],[112.47151,35.56157,0.0],[112.47937,35.56388,0.0],[112.48385,35.56641,0.0],[112.49002,35.56827,0.0],[112.49368,35.56805,0.0],[112.50043,35.56625,0.0],[112.50692,35.55963,0.0],[112.50833,35.55758,0.0],[112.51201,35.55416,0.0],[112.51454,35.55279,0.0],[112.52213,35.55259,0.0],[112.52717,35.55489,0.0],[112.54315,35.56112,0.0],[112.54933,35.5616,0.0],[112.56161,35.55929,0.0],[112.56695,35.5523,0.0],[112.57907,35.55876,0.0],[112.58337,35.5541,0.0],[112.59241,35.55954,0.0],[112.59933,35.56083,0.0],[112.59722,35.55398,0.0],[112.59237,35.54776,0.0],[112.59113,35.545,0.0],[112.59095,35.54085,0.0],[112.59134,35.53754,0.0],[112.59242,35.53541,0.0],[112.59384,35.53244,0.0],[112.59553,35.53084,0.0],[112.60143,35.53086,0.0],[112.60648,35.53224,0.0],[112.6104,35.53294,0.0],[112.61044,35.52424,0.0],[112.61103,35.51646,0.0],[112.61108,35.50388,0.0],[112.60972,35.49289,0.0],[112.60639,35.4835,0.0],[112.60673,35.48118,0.0],[112.60257,35.47647,0.0],[112.60269,35.47397,0.0],[112.60088,35.46604,0.0],[112.60283,35.46493,0.0],[112.60433,35.4616,0.0],[112.60641,35.46065,0.0],[112.60842,35.458,0.0],[112.60844,35.45489,0.0],[112.61073,35.45078,0.0],[112.61695,35.44731,0.0],[112.61967,35.44401,0.0],[112.62226,35.44275,0.0],[112.62284,35.44179,0.0],[112.62106,35.43917,0.0],[112.62015,35.43621,0.0],[112.62008,35.43534,0.0],[112.61947,35.43473,0.0],[112.6183,35.43476,0.0],[112.61797,35.43539,0.0],[112.61794,35.43862,0.0],[112.61713,35.43894,0.0],[112.61456,35.43695,0.0],[112.61336,35.43648,0.0],[112.61226,35.43722,0.0],[112.61138,35.43719,0.0],[112.61096,35.437,0.0],[112.61066,35.43571,0.0],[112.60998,35.43515,0.0],[112.60878,35.43502,0.0],[112.60712,35.43592,0.0],[112.60647,35.43595,0.0],[112.60566,35.43544,0.0],[112.60469,35.43388,0.0],[112.60485,35.43282,0.0],[112.60582,35.43176,0.0],[112.60875,35.43068,0.0],[112.60907,35.43023,0.0],[112.60888,35.42981,0.0],[112.60706,35.42907,0.0],[112.60592,35.42817,0.0],[112.60569,35.42742,0.0],[112.60628,35.42697,0.0],[112.60745,35.42671,0.0],[112.60878,35.42674,0.0],[112.61147,35.42833,0.0],[112.61255,35.42835,0.0],[112.61339,35.4274,0.0],[112.61349,35.42658,0.0],[112.61251,35.42597,0.0],[112.6104,35.42528,0.0],[112.60871,35.42507,0.0],[112.60797,35.42443,0.0],[112.60751,35.42322,0.0],[112.6066,35.42218,0.0],[112.60362,35.41872,0.0],[112.60349,35.41808,0.0],[112.60394,35.4175,0.0],[112.60381,35.41705,0.0],[112.60306,35.41573,0.0],[112.60365,35.41464,0.0],[112.60358,35.41369,0.0],[112.60254,35.41149,0.0],[112.60251,35.41067,0.0],[112.60322,35.41011,0.0],[112.60423,35.41025,0.0],[112.60527,35.41075,0.0],[112.60644,35.41091,0.0],[112.60768,35.41072,0.0],[112.60881,35.41004,0.0],[112.60953,35.40908,0.0],[112.6091,35.40818,0.0],[112.60706,35.4076,0.0],[112.60644,35.40707,0.0],[112.60634,35.40659,0.0],[112.6066,35.40575,0.0],[112.60641,35.40445,0.0],[112.60638,35.40328,0.0],[112.60716,35.40188,0.0],[112.60722,35.40101,0.0],[112.60699,35.39968,0.0],[112.60413,35.3964,0.0],[112.60271,35.39632,0.0],[112.60176,35.39809,0.0],[112.60089,35.39817,0.0],[112.59884,35.39751,0.0],[112.59767,35.39754,0.0],[112.59692,35.39828,0.0],[112.59615,35.3986,0.0],[112.59439,35.39796,0.0],[112.59342,35.39852,0.0],[112.59244,35.39868,0.0],[112.5916,35.39945,0.0],[112.59069,35.39945,0.0],[112.58929,35.39847,0.0],[112.58803,35.39849,0.0],[112.58747,35.39926,0.0],[112.5875,35.40087,0.0],[112.58913,35.4023,0.0],[112.5889,35.40297,0.0],[112.58621,35.40339,0.0],[112.58296,35.40388,0.0],[112.58239,35.4034,0.0],[112.58237,35.40168,0.0],[112.5817,35.40073,0.0],[112.58005,35.40108,0.0],[112.5784,35.40181,0.0],[112.57788,35.4017,0.0],[112.57779,35.40053,0.0],[112.57592,35.40083,0.0],[112.57358,35.40303,0.0],[112.57187,35.40301,0.0],[112.57047,35.40038,0.0],[112.57009,35.39899,0.0],[112.56975,35.39509,0.0],[112.57051,35.39295,0.0],[112.57243,35.39097,0.0],[112.57311,35.38846,0.0],[112.57273,35.3871,0.0],[112.57076,35.38683,0.0],[112.56685,35.3874,0.0],[112.55916,35.38688,0.0],[112.55665,35.38733,0.0],[112.5548,35.38934,0.0],[112.55246,35.39154,0.0],[112.54868,35.39293,0.0],[112.54578,35.3927,0.0],[112.54423,35.39143,0.0],[112.544,35.38957,0.0],[112.54545,35.38775,0.0],[112.54908,35.38478,0.0],[112.55265,35.38039,0.0],[112.55544,35.37806,0.0],[112.55826,35.378,0.0],[112.56271,35.37885,0.0],[112.56599,35.37819,0.0],[112.57008,35.37468,0.0],[112.57492,35.36914,0.0],[112.57673,35.36819,0.0],[112.58028,35.36813,0.0],[112.58126,35.36893,0.0],[112.58173,35.36991,0.0],[112.58338,35.37012,0.0],[112.58496,35.3691,0.0],[112.58549,35.36753,0.0],[112.58378,35.36418,0.0],[112.58043,35.36179,0.0],[112.57865,35.35889,0.0],[112.57724,35.35152,0.0],[112.57869,35.3495,0.0],[112.58102,35.34861,0.0],[112.58392,35.34901,0.0],[112.58931,35.34856,0.0],[112.59186,35.34901,0.0],[112.5931,35.35119,0.0],[112.59184,35.35313,0.0],[112.59135,35.35587,0.0],[112.59017,35.35763,0.0],[112.5901,35.35932,0.0],[112.59194,35.36149,0.0],[112.59658,35.36426,0.0],[112.59963,35.36465,0.0],[112.60113,35.36395,0.0],[112.60173,35.3625,0.0],[112.60085,35.36036,0.0],[112.5966,35.35792,0.0],[112.59517,35.35634,0.0],[112.5948,35.35459,0.0],[112.59638,35.35287,0.0],[112.59842,35.35346,0.0],[112.60076,35.35181,0.0],[112.60159,35.34959,0.0],[112.60112,35.34751,0.0],[112.59992,35.34664,0.0],[112.59545,35.34516,0.0],[112.59302,35.3437,0.0],[112.59183,35.3417,0.0],[112.58974,35.34061,0.0],[112.59144,35.33781,0.0],[112.59067,35.3344,0.0],[112.59172,35.33275,0.0],[112.59422,35.33257,0.0],[112.59665,35.33329,0.0],[112.59831,35.33113,0.0],[112.59838,35.32959,0.0],[112.59791,35.32795,0.0],[112.59554,35.32681,0.0],[112.5939,35.32384,0.0],[112.59391,35.32272,0.0],[112.59536,35.321,0.0],[112.59625,35.32097,0.0],[112.59678,35.32056,0.0],[112.5971,35.32031,0.0],[112.5971,35.31918,0.0],[112.59742,35.31863,0.0],[112.5989,35.31738,0.0],[112.60064,35.31535,0.0],[112.60243,35.3124,0.0],[112.60479,35.31043,0.0],[112.60841,35.3095,0.0],[112.60929,35.30863,0.0],[112.61,35.30732,0.0],[112.60956,35.30651,0.0],[112.6077,35.30572,0.0],[112.60626,35.305,0.0],[112.60591,35.30374,0.0],[112.60652,35.30277,0.0],[112.60671,35.30188,0.0],[112.60728,35.301,0.0],[112.60819,35.30029,0.0],[112.61036,35.29936,0.0],[112.61236,35.29748,0.0],[112.61409,35.29554,0.0],[112.61596,35.29397,0.0],[112.61834,35.29269,0.0],[112.61929,35.29247,0.0],[112.62135,35.29276,0.0],[112.62247,35.29374,0.0],[112.62209,35.29533,0.0],[112.62325,35.2973,0.0],[112.62511,35.29853,0.0],[112.62704,35.29922,0.0],[112.62887,35.29877,0.0],[112.62954,35.29741,0.0],[112.6295,35.29578,0.0],[112.62706,35.29353,0.0],[112.62645,35.2913,0.0],[112.62665,35.28981,0.0],[112.62864,35.28871,0.0],[112.6344,35.28797,0.0],[112.63536,35.28708,0.0],[112.63525,35.28531,0.0],[112.63339,35.28414,0.0],[112.62944,35.28392,0.0],[112.62533,35.28619,0.0],[112.62072,35.28671,0.0],[112.61648,35.28943,0.0],[112.61392,35.291,0.0],[112.61126,35.291,0.0],[112.61014,35.28966,0.0],[112.60756,35.28135,0.0],[112.60507,35.28023,0.0],[112.6032,35.28159,0.0],[112.59782,35.28621,0.0],[112.59544,35.28567,0.0],[112.59387,35.28426,0.0],[112.59539,35.28118,0.0],[112.60194,35.27675,0.0],[112.60174,35.27424,0.0],[112.59719,35.2699,0.0],[112.59703,35.26848,0.0],[112.59942,35.26798,0.0],[112.6063,35.27251,0.0],[112.60976,35.27284,0.0],[112.61274,35.27119,0.0],[112.61405,35.2668,0.0],[112.6139,35.25965,0.0],[112.61294,35.2582,0.0],[112.61172,35.25745,0.0],[112.60918,35.25752,0.0],[112.6075,35.25889,0.0],[112.60643,35.25953,0.0],[112.60554,35.25904,0.0],[112.60535,35.25697,0.0],[112.60589,35.25567,0.0],[112.60762,35.25388,0.0],[112.61115,35.25208,0.0],[112.61132,35.25036,0.0],[112.61076,35.24906,0.0],[112.61171,35.24885,0.0],[112.61164,35.24803,0.0],[112.61339,35.24638,0.0],[112.61511,35.24752,0.0],[112.61583,35.24768,0.0],[112.61602,35.2467,0.0],[112.61871,35.24622,0.0],[112.61797,35.24471,0.0],[112.61904,35.24453,0.0],[112.61969,35.24421,0.0],[112.62112,35.24527,0.0],[112.62235,35.24527,0.0],[112.62413,35.24363,0.0],[112.62735,35.24288,0.0],[112.62845,35.24257,0.0],[112.62994,35.24286,0.0],[112.6327,35.2418,0.0],[112.63299,35.24296,0.0],[112.63461,35.24347,0.0],[112.6353,35.2427,0.0],[112.63461,35.24053,0.0],[112.63585,35.23859,0.0],[112.63494,35.23817,0.0],[112.63348,35.23851,0.0],[112.63098,35.23668,0.0],[112.63069,35.23565,0.0],[112.63075,35.23454,0.0],[112.63253,35.22923,0.0],[112.63112,35.22929,0.0],[112.63116,35.23115,0.0],[112.62822,35.23199,0.0],[112.62744,35.23141,0.0],[112.62835,35.22987,0.0],[112.62642,35.22933,0.0],[112.62466,35.2277,0.0],[112.62413,35.2277,0.0],[112.62372,35.22824,0.0],[112.62351,35.22879,0.0],[112.62452,35.22903,0.0],[112.62512,35.22986,0.0],[112.62341,35.23205,0.0],[112.62224,35.2328,0.0],[112.61975,35.23268,0.0],[112.62037,35.23038,0.0],[112.61984,35.22858,0.0],[112.61886,35.22619,0.0],[112.6181,35.22259,0.0],[112.61555,35.22111,0.0],[112.59793,35.22405,0.0],[112.56237,35.21941,0.0],[112.55575,35.21625,0.0],[112.54863,35.21373,0.0],[112.53457,35.22303,0.0],[112.52797,35.22461,0.0],[112.50928,35.21912,0.0],[112.477,35.22512,0.0],[112.46653,35.2302,0.0],[112.45883,35.23102,0.0],[112.44704,35.22636,0.0],[112.3997,35.24147,0.0],[112.39046,35.24246,0.0],[112.38434,35.23936,0.0],[112.3743,35.22774,0.0],[112.36944,35.22651,0.0],[112.3608,35.22022,0.0],[112.35397,35.222,0.0],[112.34583,35.22019,0.0],[112.33161,35.21981,0.0],[112.32408,35.22104,0.0],[112.31789,35.22104,0.0],[112.31321,35.21955,0.0],[112.3045,35.22104,0.0],[112.29579,35.22104,0.0],[112.28596,35.21807,0.0],[112.28048,35.21788,0.0],[112.2806,35.22082,0.0],[112.28818,35.23078,0.0],[112.29678,35.24692,0.0],[112.2974,35.25211,0.0],[112.29576,35.25307,0.0],[112.29434,35.2539,0.0],[112.28943,35.25385,0.0],[112.27947,35.2485,0.0],[112.26169,35.24864,0.0],[112.25055,35.24361,0.0],[112.23721,35.2363,0.0],[112.22348,35.23893,0.0],[112.20908,35.24077,0.0],[112.21328,35.24808,0.0],[112.20929,35.25352,0.0],[112.20356,35.25422,0.0],[112.18844,35.25718,0.0],[112.17254,35.26405,0.0],[112.14551,35.26792,0.0],[112.1298,35.27195,0.0],[112.11464,35.26554,0.0],[112.10788,35.26628,0.0],[112.1066,35.26942,0.0],[112.11153,35.2724,0.0],[112.1055,35.27449,0.0],[112.09527,35.27762,0.0],[112.08614,35.2809,0.0],[112.06919,35.27733,0.0],[112.0615,35.27845,0.0],[112.05597,35.2789,0.0],[112.05885,35.28023,0.0],[112.05925,35.28378,0.0],[112.05031,35.28688,0.0],[112.05105,35.28913,0.0],[112.05691,35.29187,0.0],[112.05871,35.29492,0.0],[112.05982,35.30191,0.0],[112.06312,35.30467,0.0],[112.0642,35.31031,0.0],[112.06271,35.31744,0.0],[112.05778,35.32312,0.0],[112.051,35.32659,0.0],[112.04825,35.33156,0.0],[112.04871,35.34143,0.0],[112.03898,35.34339,0.0],[112.02972,35.3447,0.0],[112.01965,35.3482,0.0],[112.01461,35.35436,0.0],[112.01434,35.35852,0.0],[112.01642,35.35816,0.0],[112.01815,35.35891,0.0],[112.01745,35.36167,0.0],[112.01873,35.3662,0.0],[112.02021,35.36662,0.0],[112.01991,35.37003,0.0],[112.02322,35.37486,0.0],[112.02616,35.38839,0.0]]]]}},{"type":"Feature","properties":{"uesi_id":"CHN_R3237073","nbhd_code":"CHN_R3237073_11","nbhd_name":"\u6cfd\u5dde\u53bf"},"geometry":{"type":"MultiPolygon","coordinates":[[[[112.60953,35.54232,0.0],[112.61149,35.55315,0.0],[112.61447,35.55785,0.0],[112.61923,35.55848,0.0],[112.62515,35.55957,0.0],[112.63136,35.56391,0.0],[112.63146,35.56662,0.0],[112.63044,35.56792,0.0],[112.6294,35.57101,0.0],[112.63073,35.57385,0.0],[112.62999,35.57687,0.0],[112.62923,35.58022,0.0],[112.63029,35.58795,0.0],[112.63512,35.59141,0.0],[112.6453,35.59112,0.0],[112.65065,35.59382,0.0],[112.65272,35.59674,0.0],[112.65313,35.60358,0.0],[112.65127,35.60823,0.0],[112.64568,35.6138,0.0],[112.6452,35.6209,0.0],[112.64517,35.62708,0.0],[112.64431,35.63325,0.0],[112.6437,35.64767,0.0],[112.64704,35.65683,0.0],[112.65179,35.66348,0.0],[112.65824,35.6699,0.0],[112.66187,35.67815,0.0],[112.66044,35.68661,0.0],[112.66322,35.69691,0.0],[112.66714,35.70173,0.0],[112.6795,35.70725,0.0],[112.68794,35.71001,0.0],[112.70229,35.71324,0.0],[112.71494,35.71395,0.0],[112.7203,35.71258,0.0],[112.73072,35.70917,0.0],[112.73636,35.70438,0.0],[112.73862,35.70118,0.0],[112.73947,35.69637,0.0],[112.74681,35.68837,0.0],[112.75751,35.68541,0.0],[112.7682,35.68177,0.0],[112.77946,35.68064,0.0],[112.78481,35.67996,0.0],[112.79044,35.67905,0.0],[112.80479,35.67723,0.0],[112.81688,35.6777,0.0],[112.8301,35.67977,0.0],[112.83966,35.68299,0.0],[112.84697,35.68825,0.0],[112.85315,35.6981,0.0],[112.85962,35.70383,0.0],[112.86721,35.70383,0.0],[112.87059,35.70223,0.0],[112.87932,35.69628,0.0],[112.88945,35.69011,0.0],[112.90043,35.68485,0.0],[112.90859,35.68279,0.0],[112.91703,35.68005,0.0],[112.93362,35.67433,0.0],[112.9446,35.67181,0.0],[112.95219,35.67113,0.0],[112.96317,35.67181,0.0],[112.97132,35.67501,0.0],[112.98061,35.67936,0.0],[112.98286,35.68416,0.0],[112.99215,35.69354,0.0],[112.99778,35.6972,0.0],[113.00313,35.69605,0.0],[113.0079,35.69078,0.0],[113.01946,35.67742,0.0],[113.02716,35.67462,0.0],[113.03883,35.67246,0.0],[113.04586,35.66696,0.0],[113.05007,35.66123,0.0],[113.05007,35.65895,0.0],[113.05454,35.65843,0.0],[113.05659,35.65691,0.0],[113.05239,35.65189,0.0],[113.04784,35.65059,0.0],[113.04471,35.64659,0.0],[113.0385,35.64629,0.0],[113.03747,35.64552,0.0],[113.03732,35.64463,0.0],[113.03852,35.64156,0.0],[113.03457,35.63356,0.0],[113.03738,35.62692,0.0],[113.04215,35.6228,0.0],[113.05002,35.61913,0.0],[113.05508,35.61729,0.0],[113.06349,35.60859,0.0],[113.07191,35.59874,0.0],[113.07977,35.58752,0.0],[113.08819,35.58247,0.0],[113.09661,35.58063,0.0],[113.10616,35.57879,0.0],[113.12077,35.57534,0.0],[113.13171,35.56891,0.0],[113.13618,35.56181,0.0],[113.1401,35.55219,0.0],[113.14401,35.54395,0.0],[113.15271,35.5405,0.0],[113.17403,35.5336,0.0],[113.18076,35.5258,0.0],[113.18466,35.51801,0.0],[113.18885,35.5116,0.0],[113.19473,35.50495,0.0],[113.20145,35.50082,0.0],[113.20538,35.49829,0.0],[113.21236,35.48843,0.0],[113.21347,35.485,0.0],[113.21514,35.4795,0.0],[113.21735,35.46806,0.0],[113.2221,35.46232,0.0],[113.2241,35.46112,0.0],[113.22984,35.45381,0.0],[113.22716,35.45253,0.0],[113.22423,35.45203,0.0],[113.21694,35.45342,0.0],[113.21163,35.45175,0.0],[113.20618,35.44715,0.0],[113.20196,35.44748,0.0],[113.19664,35.44881,0.0],[113.19399,35.44887,0.0],[113.19133,35.4497,0.0],[113.18561,35.4497,0.0],[113.18369,35.44922,0.0],[113.18282,35.44864,0.0],[113.18284,35.44841,0.0],[113.18185,35.4479,0.0],[113.18148,35.44765,0.0],[113.18147,35.44747,0.0],[113.1819,35.44723,0.0],[113.1829,35.44722,0.0],[113.18587,35.44798,0.0],[113.1864,35.44795,0.0],[113.18671,35.4476,0.0],[113.18649,35.44708,0.0],[113.1848,35.44586,0.0],[113.18455,35.4454,0.0],[113.18451,35.44417,0.0],[113.18422,35.44369,0.0],[113.18364,35.44335,0.0],[113.18273,35.44332,0.0],[113.18265,35.44328,0.0],[113.18264,35.44273,0.0],[113.18284,35.44206,0.0],[113.18394,35.4406,0.0],[113.18366,35.44036,0.0],[113.18308,35.44017,0.0],[113.18211,35.4404,0.0],[113.18167,35.44039,0.0],[113.18139,35.44027,0.0],[113.18144,35.43996,0.0],[113.18183,35.4393,0.0],[113.18303,35.43822,0.0],[113.18315,35.43802,0.0],[113.1829,35.43777,0.0],[113.18175,35.43789,0.0],[113.1815,35.43782,0.0],[113.18137,35.43771,0.0],[113.18155,35.43735,0.0],[113.18252,35.43682,0.0],[113.18336,35.43665,0.0],[113.18362,35.43646,0.0],[113.1844,35.43429,0.0],[113.18465,35.43407,0.0],[113.18539,35.43401,0.0],[113.18569,35.43392,0.0],[113.18608,35.43356,0.0],[113.18619,35.43303,0.0],[113.18596,35.4324,0.0],[113.18513,35.43161,0.0],[113.18471,35.43144,0.0],[113.18409,35.43154,0.0],[113.18376,35.43149,0.0],[113.18364,35.43131,0.0],[113.18384,35.43104,0.0],[113.1839,35.43065,0.0],[113.18345,35.43038,0.0],[113.18179,35.43039,0.0],[113.18119,35.43028,0.0],[113.18106,35.4301,0.0],[113.18072,35.42935,0.0],[113.18077,35.42799,0.0],[113.18121,35.42709,0.0],[113.18244,35.42578,0.0],[113.18452,35.42422,0.0],[113.18456,35.42385,0.0],[113.18414,35.42349,0.0],[113.18335,35.42341,0.0],[113.18213,35.42367,0.0],[113.18151,35.42411,0.0],[113.18055,35.42435,0.0],[113.17885,35.42549,0.0],[113.17838,35.42557,0.0],[113.17787,35.42554,0.0],[113.17753,35.4254,0.0],[113.17745,35.42516,0.0],[113.17794,35.42409,0.0],[113.17814,35.42341,0.0],[113.1776,35.42194,0.0],[113.17733,35.42085,0.0],[113.1776,35.41896,0.0],[113.17795,35.41853,0.0],[113.17858,35.41821,0.0],[113.18017,35.4177,0.0],[113.18119,35.41758,0.0],[113.18206,35.41728,0.0],[113.18224,35.41667,0.0],[113.18228,35.41625,0.0],[113.18196,35.41582,0.0],[113.18058,35.41549,0.0],[113.18004,35.41524,0.0],[113.17987,35.41496,0.0],[113.17987,35.41453,0.0],[113.18006,35.41418,0.0],[113.18109,35.4139,0.0],[113.1816,35.41376,0.0],[113.18189,35.41335,0.0],[113.18177,35.41239,0.0],[113.18122,35.41149,0.0],[113.18019,35.41079,0.0],[113.1796,35.41009,0.0],[113.17916,35.4097,0.0],[113.17853,35.40963,0.0],[113.17784,35.40997,0.0],[113.17731,35.41002,0.0],[113.17696,35.41029,0.0],[113.1768,35.41083,0.0],[113.17643,35.41191,0.0],[113.17476,35.41243,0.0],[113.17278,35.41331,0.0],[113.17155,35.41392,0.0],[113.17078,35.41469,0.0],[113.17005,35.4151,0.0],[113.1695,35.41521,0.0],[113.16909,35.4152,0.0],[113.16863,35.41494,0.0],[113.16812,35.41473,0.0],[113.16745,35.41404,0.0],[113.16626,35.41313,0.0],[113.16482,35.41209,0.0],[113.16332,35.4113,0.0],[113.16288,35.41129,0.0],[113.16261,35.41153,0.0],[113.16264,35.41227,0.0],[113.16276,35.41344,0.0],[113.1621,35.41409,0.0],[113.16064,35.41498,0.0],[113.16019,35.41547,0.0],[113.15971,35.41579,0.0],[113.15892,35.41589,0.0],[113.15871,35.41558,0.0],[113.15891,35.41327,0.0],[113.16002,35.41216,0.0],[113.16027,35.41166,0.0],[113.16035,35.41121,0.0],[113.16021,35.41087,0.0],[113.15797,35.40955,0.0],[113.15773,35.4092,0.0],[113.15779,35.40886,0.0],[113.15841,35.40866,0.0],[113.15903,35.40877,0.0],[113.15949,35.40884,0.0],[113.15999,35.40869,0.0],[113.16067,35.40817,0.0],[113.16114,35.40778,0.0],[113.16176,35.40741,0.0],[113.1621,35.40712,0.0],[113.16213,35.40678,0.0],[113.16138,35.40614,0.0],[113.16129,35.40592,0.0],[113.16175,35.40569,0.0],[113.16231,35.40534,0.0],[113.16255,35.40504,0.0],[113.16198,35.40408,0.0],[113.16199,35.40367,0.0],[113.16272,35.40328,0.0],[113.16285,35.40305,0.0],[113.16284,35.40256,0.0],[113.16233,35.40174,0.0],[113.16181,35.40151,0.0],[113.16093,35.40193,0.0],[113.16048,35.40196,0.0],[113.16016,35.40175,0.0],[113.16012,35.40132,0.0],[113.16087,35.40079,0.0],[113.16165,35.39997,0.0],[113.16286,35.39816,0.0],[113.16373,35.39783,0.0],[113.16485,35.39732,0.0],[113.16554,35.39734,0.0],[113.16613,35.39853,0.0],[113.1663,35.39909,0.0],[113.16654,35.39958,0.0],[113.16692,35.40012,0.0],[113.16755,35.40063,0.0],[113.1686,35.40093,0.0],[113.16922,35.40088,0.0],[113.16942,35.40057,0.0],[113.16926,35.39995,0.0],[113.16844,35.399,0.0],[113.16808,35.39868,0.0],[113.16822,35.39845,0.0],[113.16903,35.39831,0.0],[113.1697,35.39854,0.0],[113.17051,35.39869,0.0],[113.17078,35.39847,0.0],[113.17066,35.39725,0.0],[113.17047,35.39697,0.0],[113.17047,35.39649,0.0],[113.17025,35.3959,0.0],[113.16966,35.39553,0.0],[113.16863,35.39541,0.0],[113.16779,35.39519,0.0],[113.16712,35.39487,0.0],[113.16694,35.39453,0.0],[113.16706,35.39353,0.0],[113.16705,35.39307,0.0],[113.1665,35.39245,0.0],[113.16512,35.39099,0.0],[113.16436,35.39043,0.0],[113.16381,35.39029,0.0],[113.16299,35.39045,0.0],[113.16272,35.39047,0.0],[113.1623,35.39029,0.0],[113.16217,35.39011,0.0],[113.16226,35.38936,0.0],[113.16277,35.38876,0.0],[113.16421,35.38836,0.0],[113.16424,35.38805,0.0],[113.16381,35.38746,0.0],[113.16297,35.38688,0.0],[113.16216,35.38696,0.0],[113.16122,35.3873,0.0],[113.16083,35.38735,0.0],[113.16051,35.38719,0.0],[113.16019,35.38715,0.0],[113.15961,35.38734,0.0],[113.15933,35.38806,0.0],[113.15893,35.38815,0.0],[113.15878,35.38806,0.0],[113.15833,35.38722,0.0],[113.157,35.38608,0.0],[113.15593,35.38565,0.0],[113.15421,35.38523,0.0],[113.15377,35.38492,0.0],[113.1534,35.38393,0.0],[113.15277,35.383,0.0],[113.15274,35.38271,0.0],[113.15287,35.38223,0.0],[113.15331,35.38187,0.0],[113.15436,35.38171,0.0],[113.15464,35.38139,0.0],[113.15445,35.38067,0.0],[113.15448,35.38017,0.0],[113.15441,35.37967,0.0],[113.15396,35.37896,0.0],[113.15307,35.37821,0.0],[113.15234,35.37798,0.0],[113.15195,35.37827,0.0],[113.15179,35.37902,0.0],[113.15161,35.37938,0.0],[113.15053,35.37997,0.0],[113.1506,35.3814,0.0],[113.14995,35.38217,0.0],[113.14852,35.38196,0.0],[113.14806,35.38092,0.0],[113.14864,35.3792,0.0],[113.14798,35.37653,0.0],[113.14842,35.3747,0.0],[113.14806,35.3728,0.0],[113.1475,35.37006,0.0],[113.14571,35.37086,0.0],[113.14413,35.3712,0.0],[113.14217,35.37042,0.0],[113.14158,35.36829,0.0],[113.14013,35.36526,0.0],[113.14267,35.36414,0.0],[113.14234,35.36122,0.0],[113.14078,35.35827,0.0],[113.14225,35.35467,0.0],[113.14334,35.34983,0.0],[113.1423,35.34978,0.0],[113.14035,35.35163,0.0],[113.13812,35.35058,0.0],[113.1392,35.34893,0.0],[113.13523,35.3493,0.0],[113.13288,35.34769,0.0],[113.13195,35.34717,0.0],[113.13097,35.34779,0.0],[113.13045,35.3479,0.0],[113.12951,35.34691,0.0],[113.13049,35.3451,0.0],[113.13192,35.34467,0.0],[113.13248,35.34402,0.0],[113.133,35.3429,0.0],[113.13186,35.34152,0.0],[113.13317,35.339,0.0],[113.1319,35.33815,0.0],[113.13187,35.33709,0.0],[113.12825,35.3339,0.0],[113.12484,35.33457,0.0],[113.1226,35.33277,0.0],[113.12121,35.33181,0.0],[113.12022,35.33009,0.0],[113.12073,35.32867,0.0],[113.12071,35.32782,0.0],[113.12035,35.32778,0.0],[113.11909,35.32765,0.0],[113.11842,35.32782,0.0],[113.11815,35.32779,0.0],[113.11836,35.32721,0.0],[113.11827,35.32664,0.0],[113.11797,35.32628,0.0],[113.11708,35.32634,0.0],[113.11647,35.32594,0.0],[113.11643,35.32522,0.0],[113.11625,35.32508,0.0],[113.11566,35.32503,0.0],[113.11522,35.32539,0.0],[113.11461,35.3268,0.0],[113.11459,35.32738,0.0],[113.11489,35.32831,0.0],[113.11447,35.3295,0.0],[113.09944,35.33712,0.0],[113.09564,35.33785,0.0],[113.08536,35.33772,0.0],[113.07657,35.34179,0.0],[113.06414,35.35325,0.0],[113.05997,35.35278,0.0],[113.05701,35.35084,0.0],[113.04854,35.3534,0.0],[113.0307,35.36099,0.0],[113.02488,35.35843,0.0],[113.02149,35.35809,0.0],[113.01953,35.3565,0.0],[113.01357,35.35591,0.0],[113.00594,35.3589,0.0],[113.00182,35.35858,0.0],[112.99606,35.36193,0.0],[112.99348,35.3627,0.0],[112.99149,35.36313,0.0],[112.99014,35.36272,0.0],[112.98892,35.3588,0.0],[112.98584,35.35768,0.0],[112.98467,35.35578,0.0],[112.98796,35.34841,0.0],[112.98804,35.34659,0.0],[112.97923,35.33956,0.0],[112.98027,35.32145,0.0],[112.98041,35.31675,0.0],[112.97905,35.3128,0.0],[112.97949,35.31155,0.0],[112.98089,35.31161,0.0],[112.98589,35.30388,0.0],[112.98683,35.29996,0.0],[112.98445,35.29145,0.0],[112.97869,35.28927,0.0],[112.96905,35.29176,0.0],[112.96102,35.29569,0.0],[112.95412,35.29372,0.0],[112.94768,35.2874,0.0],[112.94035,35.28629,0.0],[112.93528,35.28655,0.0],[112.92966,35.28496,0.0],[112.92923,35.28061,0.0],[112.93148,35.27537,0.0],[112.92971,35.26436,0.0],[112.92387,35.2576,0.0],[112.91646,35.25327,0.0],[112.91554,35.25052,0.0],[112.90787,35.24915,0.0],[112.89949,35.24506,0.0],[112.89594,35.24802,0.0],[112.89097,35.24951,0.0],[112.88422,35.24773,0.0],[112.87929,35.24561,0.0],[112.86195,35.24574,0.0],[112.85055,35.25046,0.0],[112.84878,35.25636,0.0],[112.84477,35.25426,0.0],[112.83577,35.25702,0.0],[112.83031,35.25754,0.0],[112.81602,35.25964,0.0],[112.81192,35.25962,0.0],[112.81024,35.25859,0.0],[112.80831,35.25164,0.0],[112.79258,35.24063,0.0],[112.78343,35.23958,0.0],[112.7795,35.23675,0.0],[112.77893,35.23302,0.0],[112.78134,35.22908,0.0],[112.78021,35.22489,0.0],[112.77475,35.22305,0.0],[112.77347,35.21728,0.0],[112.76865,35.21006,0.0],[112.76104,35.20484,0.0],[112.75339,35.20584,0.0],[112.72984,35.21253,0.0],[112.72035,35.21241,0.0],[112.71216,35.20255,0.0],[112.709,35.18903,0.0],[112.70511,35.18939,0.0],[112.69735,35.211,0.0],[112.70315,35.21959,0.0],[112.69203,35.22017,0.0],[112.68018,35.22737,0.0],[112.67812,35.23546,0.0],[112.66759,35.23555,0.0],[112.6627,35.23896,0.0],[112.65494,35.24048,0.0],[112.6535,35.24588,0.0],[112.64904,35.24365,0.0],[112.64947,35.24788,0.0],[112.64861,35.25199,0.0],[112.6489,35.25551,0.0],[112.64602,35.26086,0.0],[112.64317,35.26161,0.0],[112.63697,35.26069,0.0],[112.63311,35.25845,0.0],[112.63067,35.26144,0.0],[112.63119,35.26562,0.0],[112.62965,35.26836,0.0],[112.62463,35.27342,0.0],[112.62347,35.2739,0.0],[112.62178,35.27233,0.0],[112.6206,35.27005,0.0],[112.62219,35.26812,0.0],[112.62253,35.26661,0.0],[112.61949,35.26411,0.0],[112.6174,35.26402,0.0],[112.61669,35.26129,0.0],[112.61329,35.25664,0.0],[112.61141,35.2556,0.0],[112.60762,35.25388,0.0],[112.60589,35.25567,0.0],[112.60535,35.25697,0.0],[112.60554,35.25904,0.0],[112.60643,35.25953,0.0],[112.6075,35.25889,0.0],[112.60918,35.25752,0.0],[112.61172,35.25745,0.0],[112.61294,35.2582,0.0],[112.6139,35.25965,0.0],[112.61405,35.2668,0.0],[112.61274,35.27119,0.0],[112.60976,35.27284,0.0],[112.6063,35.27251,0.0],[112.59942,35.26798,0.0],[112.59703,35.26848,0.0],[112.59719,35.2699,0.0],[112.60174,35.27424,0.0],[112.60194,35.27675,0.0],[112.59539,35.28118,0.0],[112.59387,35.28426,0.0],[112.59544,35.28567,0.0],[112.59782,35.28621,0.0],[112.6032,35.28159,0.0],[112.60507,35.28023,0.0],[112.60756,35.28135,0.0],[112.61014,35.28966,0.0],[112.61126,35.291,0.0],[112.61392,35.291,0.0],[112.61648,35.28943,0.0],[112.62072,35.28671,0.0],[112.62533,35.28619,0.0],[112.62944,35.28392,0.0],[112.63339,35.28414,0.0],[112.63525,35.28531,0.0],[112.63536,35.28708,0.0],[112.6344,35.28797,0.0],[112.62864,35.28871,0.0],[112.62665,35.28981,0.0],[112.62645,35.2913,0.0],[112.62706,35.29353,0.0],[112.6295,35.29578,0.0],[112.62954,35.29741,0.0],[112.62887,35.29877,0.0],[112.62704,35.29922,0.0],[112.62511,35.29853,0.0],[112.62325,35.2973,0.0],[112.62209,35.29533,0.0],[112.62247,35.29374,0.0],[112.62135,35.29276,0.0],[112.61929,35.29247,0.0],[112.61834,35.29269,0.0],[112.61596,35.29397,0.0],[112.61409,35.29554,0.0],[112.61236,35.29748,0.0],[112.61036,35.29936,0.0],[112.60819,35.30029,0.0],[112.60728,35.301,0.0],[112.60671,35.30188,0.0],[112.60652,35.30277,0.0],[112.60591,35.30374,0.0],[112.60626,35.305,0.0],[112.6077,35.30572,0.0],[112.60956,35.30651,0.0],[112.61,35.30732,0.0],[112.60929,35.30863,0.0],[112.60841,35.3095,0.0],[112.60479,35.31043,0.0],[112.60243,35.3124,0.0],[112.60064,35.31535,0.0],[112.5989,35.31738,0.0],[112.59742,35.31863,0.0],[112.5971,35.31918,0.0],[112.5971,35.32031,0.0],[112.59678,35.32056,0.0],[112.59625,35.32097,0.0],[112.59536,35.321,0.0],[112.59391,35.32272,0.0],[112.5939,35.32384,0.0],[112.59554,35.32681,0.0],[112.59791,35.32795,0.0],[112.59838,35.32959,0.0],[112.59831,35.33113,0.0],[112.59665,35.33329,0.0],[112.59422,35.33257,0.0],[112.59172,35.33275,0.0],[112.59067,35.3344,0.0],[112.59144,35.33781,0.0],[112.58974,35.34061,0.0],[112.59183,35.3417,0.0],[112.59302,35.3437,0.0],[112.59545,35.34516,0.0],[112.59992,35.34664,0.0],[112.60112,35.34751,0.0],[112.60159,35.34959,0.0],[112.60076,35.35181,0.0],[112.59842,35.35346,0.0],[112.59638,35.35287,0.0],[112.5948,35.35459,0.0],[112.59517,35.35634,0.0],[112.5966,35.35792,0.0],[112.60085,35.36036,0.0],[112.60173,35.3625,0.0],[112.60113,35.36395,0.0],[112.59963,35.36465,0.0],[112.59658,35.36426,0.0],[112.59194,35.36149,0.0],[112.5901,35.35932,0.0],[112.59017,35.35763,0.0],[112.59135,35.35587,0.0],[112.59184,35.35313,0.0],[112.5931,35.35119,0.0],[112.59186,35.34901,0.0],[112.58931,35.34856,0.0],[112.58392,35.34901,0.0],[112.58102,35.34861,0.0],[112.57869,35.3495,0.0],[112.57724,35.35152,0.0],[112.57865,35.35889,0.0],[112.58043,35.36179,0.0],[112.58378,35.36418,0.0],[112.58549,35.36753,0.0],[112.58496,35.3691,0.0],[112.58338,35.37012,0.0],[112.58173,35.36991,0.0],[112.58126,35.36893,0.0],[112.58028,35.36813,0.0],[112.57673,35.36819,0.0],[112.57492,35.36914,0.0],[112.57008,35.37468,0.0],[112.56599,35.37819,0.0],[112.56271,35.37885,0.0],[112.55826,35.378,0.0],[112.55544,35.37806,0.0],[112.55265,35.38039,0.0],[112.54908,35.38478,0.0],[112.54545,35.38775,0.0],[112.544,35.38957,0.0],[112.54423,35.39143,0.0],[112.54578,35.3927,0.0],[112.54868,35.39293,0.0],[112.55246,35.39154,0.0],[112.5548,35.38934,0.0],[112.55665,35.38733,0.0],[112.55916,35.38688,0.0],[112.56685,35.3874,0.0],[112.57076,35.38683,0.0],[112.57273,35.3871,0.0],[112.57311,35.38846,0.0],[112.57243,35.39097,0.0],[112.57051,35.39295,0.0],[112.56975,35.39509,0.0],[112.57009,35.39899,0.0],[112.57047,35.40038,0.0],[112.57187,35.40301,0.0],[112.57358,35.40303,0.0],[112.57592,35.40083,0.0],[112.57779,35.40053,0.0],[112.57788,35.4017,0.0],[112.5784,35.40181,0.0],[112.58005,35.40108,0.0],[112.5817,35.40073,0.0],[112.58237,35.40168,0.0],[112.58239,35.4034,0.0],[112.58296,35.40388,0.0],[112.58621,35.40339,0.0],[112.5889,35.40297,0.0],[112.58913,35.4023,0.0],[112.5875,35.40087,0.0],[112.58747,35.39926,0.0],[112.58803,35.39849,0.0],[112.58929,35.39847,0.0],[112.59069,35.39945,0.0],[112.5916,35.39945,0.0],[112.59244,35.39868,0.0],[112.59342,35.39852,0.0],[112.59439,35.39796,0.0],[112.59615,35.3986,0.0],[112.59692,35.39828,0.0],[112.59767,35.39754,0.0],[112.59884,35.39751,0.0],[112.60089,35.39817,0.0],[112.60176,35.39809,0.0],[112.60271,35.39632,0.0],[112.60413,35.3964,0.0],[112.60699,35.39968,0.0],[112.60722,35.40101,0.0],[112.60716,35.40188,0.0],[112.60638,35.40328,0.0],[112.60641,35.40445,0.0],[112.6066,35.40575,0.0],[112.60634,35.40659,0.0],[112.60644,35.40707,0.0],[112.60706,35.4076,0.0],[112.6091,35.40818,0.0],[112.60953,35.40908,0.0],[112.60881,35.41004,0.0],[112.60768,35.41072,0.0],[112.60644,35.41091,0.0],[112.60527,35.41075,0.0],[112.60423,35.41025,0.0],[112.60322,35.41011,0.0],[112.60251,35.41067,0.0],[112.60254,35.41149,0.0],[112.60358,35.41369,0.0],[112.60365,35.41464,0.0],[112.60306,35.41573,0.0],[112.60381,35.41705,0.0],[112.60394,35.4175,0.0],[112.60349,35.41808,0.0],[112.60362,35.41872,0.0],[112.6066,35.42218,0.0],[112.60751,35.42322,0.0],[112.60797,35.42443,0.0],[112.60871,35.42507,0.0],[112.6104,35.42528,0.0],[112.61251,35.42597,0.0],[112.61349,35.42658,0.0],[112.61339,35.4274,0.0],[112.61255,35.42835,0.0],[112.61147,35.42833,0.0],[112.60878,35.42674,0.0],[112.60745,35.42671,0.0],[112.60628,35.42697,0.0],[112.60569,35.42742,0.0],[112.60592,35.42817,0.0],[112.60706,35.42907,0.0],[112.60888,35.42981,0.0],[112.60907,35.43023,0.0],[112.60875,35.43068,0.0],[112.60582,35.43176,0.0],[112.60485,35.43282,0.0],[112.60469,35.43388,0.0],[112.60566,35.43544,0.0],[112.60647,35.43595,0.0],[112.60712,35.43592,0.0],[112.60878,35.43502,0.0],[112.60998,35.43515,0.0],[112.61066,35.43571,0.0],[112.61096,35.437,0.0],[112.61138,35.43719,0.0],[112.61226,35.43722,0.0],[112.61336,35.43648,0.0],[112.61456,35.43695,0.0],[112.61713,35.43894,0.0],[112.61794,35.43862,0.0],[112.61797,35.43539,0.0],[112.6183,35.43476,0.0],[112.61947,35.43473,0.0],[112.62008,35.43534,0.0],[112.62015,35.43621,0.0],[112.62106,35.43917,0.0],[112.62284,35.44179,0.0],[112.62226,35.44275,0.0],[112.61967,35.44401,0.0],[112.61695,35.44731,0.0],[112.61073,35.45078,0.0],[112.60844,35.45489,0.0],[112.60842,35.458,0.0],[112.60641,35.46065,0.0],[112.60433,35.4616,0.0],[112.60283,35.46493,0.0],[112.60088,35.46604,0.0],[112.60269,35.47397,0.0],[112.60257,35.47647,0.0],[112.60673,35.48118,0.0],[112.60639,35.4835,0.0],[112.60972,35.49289,0.0],[112.61108,35.50388,0.0],[112.61103,35.51646,0.0],[112.61044,35.52424,0.0],[112.6104,35.53294,0.0],[112.60953,35.54232,0.0]],[[112.88935,35.43247,0.0],[112.89027,35.43608,0.0],[112.88492,35.44284,0.0],[112.88554,35.46116,0.0],[112.8841,35.46489,0.0],[112.88935,35.46885,0.0],[112.89411,35.478,0.0],[112.89361,35.48158,0.0],[112.89683,35.48408,0.0],[112.89584,35.48433,0.0],[112.89158,35.4867,0.0],[112.88796,35.48804,0.0],[112.88485,35.48918,0.0],[112.88637,35.49364,0.0],[112.88619,35.49754,0.0],[112.88556,35.49759,0.0],[112.88528,35.50497,0.0],[112.88209,35.50877,0.0],[112.88192,35.51002,0.0],[112.87539,35.51167,0.0],[112.87523,35.51379,0.0],[112.87516,35.51739,0.0],[112.87483,35.52246,0.0],[112.87584,35.52243,0.0],[112.8789,35.52264,0.0],[112.88257,35.52253,0.0],[112.89182,35.52015,0.0],[112.89949,35.51822,0.0],[112.90243,35.51797,0.0],[112.90495,35.51867,0.0],[112.90732,35.52225,0.0],[112.90837,35.52675,0.0],[112.91007,35.53344,0.0],[112.91239,35.53943,0.0],[112.91725,35.54708,0.0],[112.91856,35.55295,0.0],[112.91857,35.55755,0.0],[112.91701,35.56076,0.0],[112.91146,35.56277,0.0],[112.90781,35.56423,0.0],[112.90603,35.56491,0.0],[112.90087,35.56703,0.0],[112.89957,35.56889,0.0],[112.89845,35.56878,0.0],[112.90105,35.57323,0.0],[112.90022,35.57674,0.0],[112.8964,35.57792,0.0],[112.89276,35.57982,0.0],[112.89092,35.58144,0.0],[112.88625,35.58309,0.0],[112.88313,35.58638,0.0],[112.88001,35.58886,0.0],[112.87771,35.59033,0.0],[112.87466,35.5903,0.0],[112.87085,35.58819,0.0],[112.86822,35.58548,0.0],[112.86143,35.58134,0.0],[112.85543,35.58087,0.0],[112.85297,35.58046,0.0],[112.85006,35.58005,0.0],[112.84679,35.58043,0.0],[112.84392,35.58087,0.0],[112.84157,35.58175,0.0],[112.83731,35.5794,0.0],[112.8371,35.57892,0.0],[112.83698,35.57871,0.0],[112.83681,35.57844,0.0],[112.83664,35.57819,0.0],[112.83657,35.57802,0.0],[112.8365,35.57785,0.0],[112.83646,35.5776,0.0],[112.83643,35.57739,0.0],[112.8364,35.57728,0.0],[112.83552,35.57482,0.0],[112.83749,35.56844,0.0],[112.83739,35.56343,0.0],[112.83305,35.56457,0.0],[112.83115,35.56248,0.0],[112.82871,35.55878,0.0],[112.82297,35.55508,0.0],[112.81736,35.55342,0.0],[112.81195,35.55201,0.0],[112.81182,35.54697,0.0],[112.81052,35.54602,0.0],[112.80778,35.54724,0.0],[112.80347,35.54857,0.0],[112.80112,35.54655,0.0],[112.8006,35.5432,0.0],[112.79923,35.54358,0.0],[112.79741,35.54543,0.0],[112.79754,35.54904,0.0],[112.79656,35.55223,0.0],[112.78495,35.56072,0.0],[112.78534,35.56629,0.0],[112.7826,35.56613,0.0],[112.77947,35.56401,0.0],[112.77053,35.56067,0.0],[112.7687,35.5578,0.0],[112.77053,35.55371,0.0],[112.77105,35.54835,0.0],[112.7674,35.54188,0.0],[112.76361,35.5388,0.0],[112.75853,35.53795,0.0],[112.75396,35.53545,0.0],[112.75168,35.53094,0.0],[112.75259,35.5277,0.0],[112.75676,35.52654,0.0],[112.75598,35.52441,0.0],[112.75174,35.52308,0.0],[112.74965,35.52085,0.0],[112.74972,35.5173,0.0],[112.75389,35.51438,0.0],[112.75448,35.51161,0.0],[112.75168,35.50588,0.0],[112.75428,35.50306,0.0],[112.76068,35.50083,0.0],[112.77431,35.50099,0.0],[112.77868,35.49802,0.0],[112.78214,35.50017,0.0],[112.78454,35.50299,0.0],[112.78784,35.50238,0.0],[112.79015,35.49964,0.0],[112.79219,35.4971,0.0],[112.79359,35.49589,0.0],[112.79395,35.49313,0.0],[112.79646,35.48922,0.0],[112.79827,35.48603,0.0],[112.80185,35.48279,0.0],[112.81042,35.48273,0.0],[112.81534,35.48513,0.0],[112.81828,35.48586,0.0],[112.8189,35.48664,0.0],[112.82016,35.48666,0.0],[112.82017,35.48694,0.0],[112.82184,35.48692,0.0],[112.82187,35.4837,0.0],[112.82904,35.48397,0.0],[112.82906,35.47915,0.0],[112.82849,35.47816,0.0],[112.82825,35.47738,0.0],[112.82877,35.47696,0.0],[112.82845,35.47643,0.0],[112.82738,35.47458,0.0],[112.81666,35.47118,0.0],[112.8098,35.46841,0.0],[112.81029,35.46271,0.0],[112.80811,35.45572,0.0],[112.81082,35.45327,0.0],[112.81791,35.45064,0.0],[112.82122,35.44904,0.0],[112.82276,35.44728,0.0],[112.82447,35.44721,0.0],[112.82451,35.44829,0.0],[112.82584,35.44921,0.0],[112.82745,35.44817,0.0],[112.83029,35.44867,0.0],[112.83444,35.44788,0.0],[112.83738,35.44709,0.0],[112.83734,35.44566,0.0],[112.83549,35.44575,0.0],[112.83159,35.44101,0.0],[112.83242,35.43838,0.0],[112.83185,35.4363,0.0],[112.83256,35.43374,0.0],[112.83294,35.43132,0.0],[112.83433,35.42953,0.0],[112.83759,35.42815,0.0],[112.84041,35.42658,0.0],[112.84138,35.42584,0.0],[112.84101,35.42786,0.0],[112.843,35.42891,0.0],[112.84477,35.43217,0.0],[112.84462,35.43356,0.0],[112.8461,35.43379,0.0],[112.84685,35.43437,0.0],[112.84832,35.43364,0.0],[112.85021,35.43348,0.0],[112.85116,35.43418,0.0],[112.85092,35.43641,0.0],[112.84879,35.4383,0.0],[112.84802,35.44057,0.0],[112.84642,35.44272,0.0],[112.84855,35.44443,0.0],[112.8486,35.44605,0.0],[112.85173,35.44768,0.0],[112.85453,35.44608,0.0],[112.85738,35.44735,0.0],[112.86001,35.44741,0.0],[112.8615,35.44727,0.0],[112.86356,35.44452,0.0],[112.86638,35.44422,0.0],[112.86519,35.44803,0.0],[112.86637,35.45032,0.0],[112.86705,35.44752,0.0],[112.86919,35.44378,0.0],[112.87084,35.44335,0.0],[112.87032,35.44231,0.0],[112.87288,35.43988,0.0],[112.87483,35.43808,0.0],[112.87528,35.43469,0.0],[112.87569,35.43303,0.0],[112.87633,35.43236,0.0],[112.87592,35.43067,0.0],[112.88028,35.42934,0.0],[112.88648,35.43004,0.0],[112.88935,35.43247,0.0]]]]}}]}