{"type":"FeatureCollection","name":"COL_R13473965","crs":{"type":"name","properties":{"name":"urn:ogc:def:crs:OGC:1.3:CRS84"}},"features":[{"type":"Feature","properties":{"uesi_id":"COL_R13473965","nbhd_code":"COL_R13473965_3","nbhd_name":"Comuna 11 - Ferias"},"geometry":{"type":"MultiPolygon","coordinates":[[[[-75.23502,4.43614,0.0],[-75.2341,4.43582,0.0],[-75.23397,4.43578,0.0],[-75.23367,4.43554,0.0],[-75.23287,4.43496,0.0],[-75.23214,4.4344,0.0],[-75.23106,4.43382,0.0],[-75.23008,4.43325,0.0],[-75.22897,4.4326,0.0],[-75.22807,4.43203,0.0],[-75.22709,4.43137,0.0],[-75.22636,4.43089,0.0],[-75.22475,4.42983,0.0],[-75.22464,4.42977,0.0],[-75.22446,4.43024,0.0],[-75.22415,4.43063,0.0],[-75.22373,4.43036,0.0],[-75.22354,4.43027,0.0],[-75.2233,4.43053,0.0],[-75.22316,4.43071,0.0],[-75.22301,4.43062,0.0],[-75.22284,4.43062,0.0],[-75.22263,4.43065,0.0],[-75.22242,4.43056,0.0],[-75.2222,4.43039,0.0],[-75.2219,4.43008,0.0],[-75.22179,4.42996,0.0],[-75.22147,4.42962,0.0],[-75.2214,4.42937,0.0],[-75.22135,4.42927,0.0],[-75.22107,4.42906,0.0],[-75.2208,4.42886,0.0],[-75.2207,4.4288,0.0],[-75.22047,4.42875,0.0],[-75.2203,4.42871,0.0],[-75.22018,4.42868,0.0],[-75.22006,4.42868,0.0],[-75.22,4.42872,0.0],[-75.21983,4.42903,0.0],[-75.21979,4.42909,0.0],[-75.21974,4.42915,0.0],[-75.21964,4.42923,0.0],[-75.21953,4.42928,0.0],[-75.21936,4.42929,0.0],[-75.21922,4.42924,0.0],[-75.21891,4.42902,0.0],[-75.21867,4.42885,0.0],[-75.21856,4.42872,0.0],[-75.21836,4.42857,0.0],[-75.21819,4.42851,0.0],[-75.21804,4.42847,0.0],[-75.2179,4.42847,0.0],[-75.21776,4.42849,0.0],[-75.2176,4.42855,0.0],[-75.21747,4.42861,0.0],[-75.21733,4.42874,0.0],[-75.21721,4.42889,0.0],[-75.21713,4.42903,0.0],[-75.21708,4.42918,0.0],[-75.21706,4.4294,0.0],[-75.21702,4.42972,0.0],[-75.21697,4.42978,0.0],[-75.21691,4.42985,0.0],[-75.21677,4.42995,0.0],[-75.21657,4.43002,0.0],[-75.21614,4.43014,0.0],[-75.21589,4.42917,0.0],[-75.21542,4.42918,0.0],[-75.21526,4.42906,0.0],[-75.21515,4.42893,0.0],[-75.21511,4.42886,0.0],[-75.21507,4.42866,0.0],[-75.21505,4.4286,0.0],[-75.21509,4.42843,0.0],[-75.21531,4.4283,0.0],[-75.21573,4.42811,0.0],[-75.21599,4.42786,0.0],[-75.21628,4.42756,0.0],[-75.21646,4.42722,0.0],[-75.21648,4.42691,0.0],[-75.21645,4.42626,0.0],[-75.21636,4.4259,0.0],[-75.21604,4.42522,0.0],[-75.21564,4.42431,0.0],[-75.21587,4.42423,0.0],[-75.21626,4.42412,0.0],[-75.21673,4.4241,0.0],[-75.21698,4.4241,0.0],[-75.21715,4.42408,0.0],[-75.21746,4.42399,0.0],[-75.21781,4.42389,0.0],[-75.21819,4.42381,0.0],[-75.21843,4.4238,0.0],[-75.21885,4.42383,0.0],[-75.21899,4.42387,0.0],[-75.21914,4.42393,0.0],[-75.2192,4.42399,0.0],[-75.21923,4.42417,0.0],[-75.21926,4.42447,0.0],[-75.21931,4.42486,0.0],[-75.21935,4.42502,0.0],[-75.2194,4.42513,0.0],[-75.21956,4.42531,0.0],[-75.21972,4.42544,0.0],[-75.22,4.42561,0.0],[-75.22025,4.42573,0.0],[-75.22047,4.42579,0.0],[-75.22069,4.42584,0.0],[-75.22096,4.42586,0.0],[-75.22125,4.42578,0.0],[-75.22151,4.42562,0.0],[-75.22188,4.42535,0.0],[-75.22198,4.42528,0.0],[-75.22218,4.42521,0.0],[-75.22236,4.4252,0.0],[-75.22251,4.42519,0.0],[-75.22278,4.42524,0.0],[-75.22332,4.42539,0.0],[-75.22358,4.42545,0.0],[-75.22383,4.4255,0.0],[-75.22407,4.42548,0.0],[-75.22426,4.42544,0.0],[-75.22442,4.42545,0.0],[-75.22463,4.42553,0.0],[-75.2249,4.42568,0.0],[-75.22513,4.42582,0.0],[-75.22531,4.42587,0.0],[-75.22569,4.42591,0.0],[-75.22621,4.42589,0.0],[-75.22662,4.42582,0.0],[-75.22688,4.42573,0.0],[-75.22705,4.42561,0.0],[-75.22711,4.42545,0.0],[-75.22714,4.42521,0.0],[-75.22713,4.4249,0.0],[-75.22712,4.42463,0.0],[-75.22716,4.42411,0.0],[-75.22725,4.42374,0.0],[-75.22739,4.42355,0.0],[-75.22748,4.42347,0.0],[-75.22762,4.42341,0.0],[-75.22775,4.42339,0.0],[-75.22789,4.4234,0.0],[-75.22821,4.42354,0.0],[-75.22858,4.42372,0.0],[-75.22904,4.42392,0.0],[-75.22934,4.42406,0.0],[-75.22963,4.42425,0.0],[-75.22979,4.42441,0.0],[-75.23002,4.42467,0.0],[-75.23012,4.42472,0.0],[-75.23028,4.42472,0.0],[-75.23043,4.42467,0.0],[-75.23058,4.42457,0.0],[-75.23098,4.42423,0.0],[-75.23118,4.42412,0.0],[-75.23147,4.424,0.0],[-75.23165,4.424,0.0],[-75.23183,4.42406,0.0],[-75.23201,4.42416,0.0],[-75.23216,4.42426,0.0],[-75.23225,4.42442,0.0],[-75.23247,4.42479,0.0],[-75.23262,4.42502,0.0],[-75.23271,4.4251,0.0],[-75.23306,4.42526,0.0],[-75.2338,4.42556,0.0],[-75.234,4.42569,0.0],[-75.23409,4.42578,0.0],[-75.23423,4.42588,0.0],[-75.23432,4.42601,0.0],[-75.23442,4.42626,0.0],[-75.23449,4.42638,0.0],[-75.23463,4.42662,0.0],[-75.23482,4.42693,0.0],[-75.23488,4.42706,0.0],[-75.23493,4.42715,0.0],[-75.235,4.42739,0.0],[-75.23504,4.42768,0.0],[-75.23504,4.42819,0.0],[-75.23499,4.42862,0.0],[-75.23491,4.42896,0.0],[-75.23478,4.4294,0.0],[-75.23479,4.42952,0.0],[-75.23483,4.4297,0.0],[-75.23497,4.42994,0.0],[-75.23517,4.43014,0.0],[-75.23576,4.4306,0.0],[-75.23656,4.43122,0.0],[-75.23703,4.43155,0.0],[-75.23717,4.43182,0.0],[-75.23719,4.43194,0.0],[-75.23713,4.43213,0.0],[-75.23698,4.43276,0.0],[-75.23711,4.4334,0.0],[-75.23726,4.43361,0.0],[-75.23713,4.43377,0.0],[-75.23692,4.43399,0.0],[-75.23675,4.43425,0.0],[-75.23653,4.43433,0.0],[-75.23641,4.43438,0.0],[-75.2363,4.43447,0.0],[-75.23634,4.43463,0.0],[-75.23631,4.43489,0.0],[-75.23607,4.43499,0.0],[-75.23567,4.43477,0.0],[-75.23555,4.43493,0.0],[-75.23555,4.43498,0.0],[-75.23545,4.4352,0.0],[-75.23502,4.43614,0.0]]]]}},{"type":"Feature","properties":{"uesi_id":"COL_R13473965","nbhd_code":"COL_R13473965_4","nbhd_name":"Comuna 1 - Centro"},"geometry":{"type":"MultiPolygon","coordinates":[[[[-75.24989,4.45594,0.0],[-75.24997,4.45514,0.0],[-75.24987,4.45454,0.0],[-75.24954,4.45402,0.0],[-75.24906,4.45341,0.0],[-75.24866,4.45239,0.0],[-75.24835,4.45176,0.0],[-75.248,4.45134,0.0],[-75.24789,4.45094,0.0],[-75.24765,4.45065,0.0],[-75.24724,4.45054,0.0],[-75.2469,4.45044,0.0],[-75.2468,4.45053,0.0],[-75.24668,4.45058,0.0],[-75.24651,4.45051,0.0],[-75.24615,4.45036,0.0],[-75.24597,4.45028,0.0],[-75.2455,4.45039,0.0],[-75.24528,4.45032,0.0],[-75.24508,4.45008,0.0],[-75.24489,4.44978,0.0],[-75.24435,4.44956,0.0],[-75.24396,4.44936,0.0],[-75.24366,4.4489,0.0],[-75.24357,4.4487,0.0],[-75.24329,4.4485,0.0],[-75.24308,4.44825,0.0],[-75.24299,4.448,0.0],[-75.24293,4.4478,0.0],[-75.24285,4.4476,0.0],[-75.24264,4.44738,0.0],[-75.24247,4.44725,0.0],[-75.24228,4.44715,0.0],[-75.24215,4.44696,0.0],[-75.24205,4.44685,0.0],[-75.2417,4.4468,0.0],[-75.2415,4.44671,0.0],[-75.24104,4.4465,0.0],[-75.24078,4.44654,0.0],[-75.24035,4.44662,0.0],[-75.23999,4.44661,0.0],[-75.23984,4.44672,0.0],[-75.23972,4.44679,0.0],[-75.23955,4.4468,0.0],[-75.23938,4.44679,0.0],[-75.23919,4.4468,0.0],[-75.23889,4.44688,0.0],[-75.2386,4.44705,0.0],[-75.23828,4.44724,0.0],[-75.23755,4.44696,0.0],[-75.23653,4.44644,0.0],[-75.236,4.44632,0.0],[-75.23439,4.44603,0.0],[-75.23344,4.44588,0.0],[-75.23271,4.44576,0.0],[-75.2325,4.44571,0.0],[-75.23219,4.44565,0.0],[-75.23229,4.44531,0.0],[-75.23246,4.44466,0.0],[-75.23287,4.44355,0.0],[-75.23313,4.44289,0.0],[-75.2334,4.44231,0.0],[-75.23347,4.44216,0.0],[-75.23235,4.4416,0.0],[-75.23151,4.44129,0.0],[-75.23036,4.44094,0.0],[-75.22927,4.44062,0.0],[-75.22824,4.44037,0.0],[-75.2274,4.44032,0.0],[-75.22766,4.43931,0.0],[-75.22789,4.43866,0.0],[-75.22795,4.43851,0.0],[-75.22802,4.43834,0.0],[-75.22821,4.43803,0.0],[-75.22884,4.43717,0.0],[-75.22955,4.4361,0.0],[-75.23008,4.43525,0.0],[-75.23055,4.43458,0.0],[-75.23106,4.43382,0.0],[-75.23214,4.4344,0.0],[-75.23287,4.43496,0.0],[-75.23367,4.43554,0.0],[-75.23397,4.43578,0.0],[-75.2341,4.43582,0.0],[-75.23502,4.43614,0.0],[-75.23586,4.43647,0.0],[-75.23579,4.43663,0.0],[-75.23578,4.43679,0.0],[-75.2358,4.43694,0.0],[-75.23582,4.437,0.0],[-75.23586,4.43706,0.0],[-75.23632,4.4374,0.0],[-75.2372,4.43802,0.0],[-75.23754,4.43837,0.0],[-75.23788,4.43874,0.0],[-75.23814,4.43903,0.0],[-75.23868,4.43968,0.0],[-75.23939,4.44071,0.0],[-75.23949,4.44074,0.0],[-75.23994,4.4401,0.0],[-75.24012,4.43992,0.0],[-75.24032,4.43987,0.0],[-75.24064,4.44015,0.0],[-75.24081,4.44051,0.0],[-75.24099,4.44057,0.0],[-75.2414,4.44072,0.0],[-75.24162,4.44079,0.0],[-75.24195,4.44102,0.0],[-75.24215,4.44119,0.0],[-75.24224,4.4412,0.0],[-75.24251,4.44086,0.0],[-75.24282,4.44048,0.0],[-75.24334,4.43991,0.0],[-75.24347,4.43976,0.0],[-75.24377,4.44014,0.0],[-75.24427,4.4404,0.0],[-75.24451,4.44074,0.0],[-75.24462,4.44116,0.0],[-75.24469,4.44142,0.0],[-75.24497,4.44189,0.0],[-75.24518,4.44209,0.0],[-75.24583,4.44239,0.0],[-75.24605,4.44246,0.0],[-75.24643,4.44266,0.0],[-75.24679,4.44307,0.0],[-75.24729,4.44387,0.0],[-75.24786,4.44413,0.0],[-75.24842,4.44413,0.0],[-75.24889,4.44431,0.0],[-75.24902,4.44446,0.0],[-75.24926,4.44473,0.0],[-75.24947,4.4455,0.0],[-75.24976,4.44576,0.0],[-75.25033,4.44658,0.0],[-75.25051,4.44701,0.0],[-75.25045,4.44728,0.0],[-75.25008,4.44804,0.0],[-75.24999,4.4483,0.0],[-75.24997,4.44871,0.0],[-75.25038,4.44887,0.0],[-75.25064,4.44912,0.0],[-75.25081,4.44942,0.0],[-75.25075,4.45003,0.0],[-75.25062,4.45069,0.0],[-75.25071,4.45116,0.0],[-75.25092,4.45146,0.0],[-75.25131,4.45165,0.0],[-75.25189,4.45233,0.0],[-75.2523,4.45289,0.0],[-75.25269,4.45317,0.0],[-75.25234,4.45429,0.0],[-75.25249,4.45465,0.0],[-75.25254,4.45508,0.0],[-75.25288,4.4555,0.0],[-75.25314,4.45595,0.0],[-75.25313,4.4565,0.0],[-75.2533,4.45702,0.0],[-75.2538,4.45733,0.0],[-75.25397,4.45795,0.0],[-75.25394,4.45822,0.0],[-75.25381,4.45841,0.0],[-75.25377,4.45816,0.0],[-75.25369,4.45803,0.0],[-75.25334,4.45772,0.0],[-75.25321,4.45793,0.0],[-75.25308,4.458,0.0],[-75.25286,4.45797,0.0],[-75.25267,4.45802,0.0],[-75.25275,4.45781,0.0],[-75.25289,4.4576,0.0],[-75.25301,4.45748,0.0],[-75.25292,4.45731,0.0],[-75.25276,4.45718,0.0],[-75.25268,4.45675,0.0],[-75.25213,4.45583,0.0],[-75.25188,4.45578,0.0],[-75.25167,4.45564,0.0],[-75.25131,4.45525,0.0],[-75.25096,4.45525,0.0],[-75.25062,4.45546,0.0],[-75.25062,4.45582,0.0],[-75.25047,4.4558,0.0],[-75.25021,4.4558,0.0],[-75.25004,4.45591,0.0],[-75.24989,4.45594,0.0]]]]}},{"type":"Feature","properties":{"uesi_id":"COL_R13473965","nbhd_code":"COL_R13473965_5","nbhd_name":"Comuna 2 - Calambeo"},"geometry":{"type":"MultiPolygon","coordinates":[[[[-75.23219,4.44565,0.0],[-75.2325,4.44571,0.0],[-75.23271,4.44576,0.0],[-75.23344,4.44588,0.0],[-75.23439,4.44603,0.0],[-75.236,4.44632,0.0],[-75.23653,4.44644,0.0],[-75.23755,4.44696,0.0],[-75.23828,4.44724,0.0],[-75.2386,4.44705,0.0],[-75.23889,4.44688,0.0],[-75.23919,4.4468,0.0],[-75.23938,4.44679,0.0],[-75.23955,4.4468,0.0],[-75.23972,4.44679,0.0],[-75.23984,4.44672,0.0],[-75.23999,4.44661,0.0],[-75.24035,4.44662,0.0],[-75.24078,4.44654,0.0],[-75.24104,4.4465,0.0],[-75.2415,4.44671,0.0],[-75.2417,4.4468,0.0],[-75.24205,4.44685,0.0],[-75.24215,4.44696,0.0],[-75.24228,4.44715,0.0],[-75.24247,4.44725,0.0],[-75.24264,4.44738,0.0],[-75.24285,4.4476,0.0],[-75.24293,4.4478,0.0],[-75.24299,4.448,0.0],[-75.24308,4.44825,0.0],[-75.24329,4.4485,0.0],[-75.24357,4.4487,0.0],[-75.24366,4.4489,0.0],[-75.24396,4.44936,0.0],[-75.24435,4.44956,0.0],[-75.24489,4.44978,0.0],[-75.24508,4.45008,0.0],[-75.24528,4.45032,0.0],[-75.2455,4.45039,0.0],[-75.24597,4.45028,0.0],[-75.24615,4.45036,0.0],[-75.24651,4.45051,0.0],[-75.24668,4.45058,0.0],[-75.2468,4.45053,0.0],[-75.2469,4.45044,0.0],[-75.24724,4.45054,0.0],[-75.24765,4.45065,0.0],[-75.24789,4.45094,0.0],[-75.248,4.45134,0.0],[-75.24835,4.45176,0.0],[-75.24866,4.45239,0.0],[-75.24906,4.45341,0.0],[-75.24954,4.45402,0.0],[-75.24987,4.45454,0.0],[-75.24997,4.45514,0.0],[-75.24989,4.45594,0.0],[-75.24964,4.45573,0.0],[-75.24946,4.45538,0.0],[-75.24941,4.45495,0.0],[-75.24916,4.45487,0.0],[-75.24896,4.45463,0.0],[-75.24877,4.45435,0.0],[-75.24867,4.45404,0.0],[-75.2484,4.4539,0.0],[-75.24806,4.45412,0.0],[-75.24783,4.45432,0.0],[-75.24758,4.45449,0.0],[-75.24757,4.45465,0.0],[-75.24755,4.45503,0.0],[-75.24749,4.45528,0.0],[-75.24728,4.4555,0.0],[-75.24721,4.45577,0.0],[-75.24698,4.45583,0.0],[-75.24676,4.45606,0.0],[-75.24648,4.4561,0.0],[-75.24663,4.45669,0.0],[-75.24676,4.45687,0.0],[-75.24688,4.45705,0.0],[-75.24688,4.45732,0.0],[-75.24707,4.45748,0.0],[-75.24705,4.45766,0.0],[-75.24677,4.45772,0.0],[-75.24659,4.45743,0.0],[-75.2463,4.45704,0.0],[-75.24624,4.45715,0.0],[-75.24626,4.45736,0.0],[-75.24623,4.45749,0.0],[-75.24614,4.45767,0.0],[-75.24593,4.45753,0.0],[-75.24577,4.45728,0.0],[-75.24547,4.45666,0.0],[-75.24487,4.45702,0.0],[-75.24441,4.45715,0.0],[-75.2442,4.45742,0.0],[-75.24421,4.45781,0.0],[-75.24416,4.45823,0.0],[-75.24379,4.45837,0.0],[-75.24337,4.45834,0.0],[-75.24327,4.45815,0.0],[-75.24323,4.45765,0.0],[-75.24287,4.45719,0.0],[-75.24217,4.45664,0.0],[-75.24138,4.45653,0.0],[-75.2408,4.45639,0.0],[-75.24035,4.45615,0.0],[-75.23957,4.45601,0.0],[-75.23841,4.45623,0.0],[-75.237,4.45653,0.0],[-75.23663,4.45672,0.0],[-75.23662,4.45687,0.0],[-75.23687,4.45707,0.0],[-75.237,4.45739,0.0],[-75.23704,4.4577,0.0],[-75.23738,4.45808,0.0],[-75.23765,4.4582,0.0],[-75.23769,4.4584,0.0],[-75.23755,4.45849,0.0],[-75.23723,4.45865,0.0],[-75.23703,4.45875,0.0],[-75.23706,4.45901,0.0],[-75.23693,4.45915,0.0],[-75.23649,4.45914,0.0],[-75.23594,4.45918,0.0],[-75.2356,4.45908,0.0],[-75.23572,4.45946,0.0],[-75.23563,4.45963,0.0],[-75.23533,4.45963,0.0],[-75.23517,4.4594,0.0],[-75.235,4.45898,0.0],[-75.23481,4.45844,0.0],[-75.23465,4.4582,0.0],[-75.23425,4.45786,0.0],[-75.2341,4.45761,0.0],[-75.23397,4.45726,0.0],[-75.23397,4.45698,0.0],[-75.23389,4.45674,0.0],[-75.23368,4.45645,0.0],[-75.23355,4.45615,0.0],[-75.23349,4.45577,0.0],[-75.23342,4.45537,0.0],[-75.23326,4.45493,0.0],[-75.23315,4.45458,0.0],[-75.2329,4.45426,0.0],[-75.23288,4.45384,0.0],[-75.23293,4.45354,0.0],[-75.2329,4.45331,0.0],[-75.23126,4.45331,0.0],[-75.22992,4.45331,0.0],[-75.22966,4.45323,0.0],[-75.22956,4.45307,0.0],[-75.22958,4.45284,0.0],[-75.22971,4.45273,0.0],[-75.2282,4.4519,0.0],[-75.22817,4.45159,0.0],[-75.22808,4.45105,0.0],[-75.22801,4.45069,0.0],[-75.22808,4.45031,0.0],[-75.2285,4.44976,0.0],[-75.22967,4.44847,0.0],[-75.23053,4.44755,0.0],[-75.23127,4.44669,0.0],[-75.23219,4.44565,0.0]]]]}},{"type":"Feature","properties":{"uesi_id":"COL_R13473965","nbhd_code":"COL_R13473965_6","nbhd_name":"Comuna 3 - San Sim\u00f3n"},"geometry":{"type":"MultiPolygon","coordinates":[[[[-75.23126,4.45331,0.0],[-75.23083,4.45401,0.0],[-75.23033,4.45444,0.0],[-75.23032,4.45576,0.0],[-75.22853,4.45586,0.0],[-75.2283,4.45662,0.0],[-75.22809,4.45759,0.0],[-75.22764,4.45823,0.0],[-75.22699,4.45895,0.0],[-75.22658,4.45912,0.0],[-75.2261,4.45965,0.0],[-75.22544,4.46091,0.0],[-75.22331,4.4609,0.0],[-75.22316,4.4608,0.0],[-75.22308,4.46059,0.0],[-75.2231,4.46039,0.0],[-75.2232,4.46023,0.0],[-75.22334,4.46016,0.0],[-75.22364,4.45997,0.0],[-75.22373,4.45983,0.0],[-75.22369,4.45962,0.0],[-75.22346,4.45935,0.0],[-75.22328,4.45912,0.0],[-75.22321,4.45879,0.0],[-75.22323,4.45829,0.0],[-75.22335,4.4576,0.0],[-75.22356,4.45742,0.0],[-75.22369,4.45708,0.0],[-75.22397,4.45682,0.0],[-75.22443,4.45677,0.0],[-75.22468,4.45657,0.0],[-75.22489,4.45621,0.0],[-75.22502,4.45573,0.0],[-75.22493,4.45541,0.0],[-75.22455,4.45505,0.0],[-75.22436,4.4548,0.0],[-75.22423,4.45455,0.0],[-75.22432,4.45397,0.0],[-75.2244,4.45387,0.0],[-75.22441,4.45345,0.0],[-75.22418,4.45271,0.0],[-75.22388,4.45157,0.0],[-75.2239,4.45099,0.0],[-75.22404,4.45026,0.0],[-75.22435,4.44981,0.0],[-75.22378,4.44945,0.0],[-75.22299,4.44935,0.0],[-75.22209,4.44907,0.0],[-75.22159,4.44917,0.0],[-75.22136,4.4492,0.0],[-75.22107,4.44914,0.0],[-75.21958,4.44944,0.0],[-75.21897,4.44959,0.0],[-75.21831,4.44936,0.0],[-75.21766,4.44933,0.0],[-75.21673,4.44843,0.0],[-75.21646,4.44813,0.0],[-75.21606,4.44808,0.0],[-75.21531,4.44785,0.0],[-75.21503,4.44785,0.0],[-75.21462,4.44783,0.0],[-75.21432,4.44793,0.0],[-75.21419,4.44787,0.0],[-75.21412,4.44747,0.0],[-75.21421,4.44686,0.0],[-75.21422,4.44667,0.0],[-75.21442,4.44604,0.0],[-75.21483,4.44501,0.0],[-75.21535,4.44373,0.0],[-75.21588,4.44244,0.0],[-75.21604,4.44204,0.0],[-75.21625,4.4414,0.0],[-75.21664,4.44008,0.0],[-75.21696,4.43935,0.0],[-75.21724,4.43869,0.0],[-75.2174,4.43828,0.0],[-75.21743,4.43816,0.0],[-75.21851,4.43847,0.0],[-75.21941,4.43873,0.0],[-75.21981,4.43885,0.0],[-75.22073,4.4392,0.0],[-75.22117,4.43938,0.0],[-75.2215,4.43954,0.0],[-75.22255,4.43975,0.0],[-75.22342,4.43984,0.0],[-75.22433,4.43991,0.0],[-75.22539,4.44008,0.0],[-75.22602,4.44021,0.0],[-75.22639,4.44027,0.0],[-75.2274,4.44032,0.0],[-75.22824,4.44037,0.0],[-75.22927,4.44062,0.0],[-75.23036,4.44094,0.0],[-75.23151,4.44129,0.0],[-75.23235,4.4416,0.0],[-75.23347,4.44216,0.0],[-75.2334,4.44231,0.0],[-75.23313,4.44289,0.0],[-75.23287,4.44355,0.0],[-75.23246,4.44466,0.0],[-75.23229,4.44531,0.0],[-75.23219,4.44565,0.0],[-75.23127,4.44669,0.0],[-75.23053,4.44755,0.0],[-75.22967,4.44847,0.0],[-75.2285,4.44976,0.0],[-75.22808,4.45031,0.0],[-75.22801,4.45069,0.0],[-75.22808,4.45105,0.0],[-75.22817,4.45159,0.0],[-75.2282,4.4519,0.0],[-75.22971,4.45273,0.0],[-75.22958,4.45284,0.0],[-75.22956,4.45307,0.0],[-75.22966,4.45323,0.0],[-75.22992,4.45331,0.0],[-75.23126,4.45331,0.0]]]]}},{"type":"Feature","properties":{"uesi_id":"COL_R13473965","nbhd_code":"COL_R13473965_7","nbhd_name":"Comuna 4 - Piedrapintada"},"geometry":{"type":"MultiPolygon","coordinates":[[[[-75.21419,4.44787,0.0],[-75.21376,4.44799,0.0],[-75.21347,4.44816,0.0],[-75.21316,4.44855,0.0],[-75.21288,4.44895,0.0],[-75.21277,4.44938,0.0],[-75.21297,4.44966,0.0],[-75.21296,4.44984,0.0],[-75.21302,4.45005,0.0],[-75.21298,4.45019,0.0],[-75.21274,4.45011,0.0],[-75.21245,4.4501,0.0],[-75.21216,4.45021,0.0],[-75.21187,4.45039,0.0],[-75.21188,4.45027,0.0],[-75.21182,4.45001,0.0],[-75.21146,4.45001,0.0],[-75.21138,4.44979,0.0],[-75.21128,4.44966,0.0],[-75.21099,4.44952,0.0],[-75.21074,4.44922,0.0],[-75.21017,4.44893,0.0],[-75.20981,4.4492,0.0],[-75.20959,4.44954,0.0],[-75.20935,4.44917,0.0],[-75.20912,4.44896,0.0],[-75.20883,4.44919,0.0],[-75.20862,4.44946,0.0],[-75.20869,4.44954,0.0],[-75.20902,4.44965,0.0],[-75.20906,4.44976,0.0],[-75.20896,4.44989,0.0],[-75.20886,4.45005,0.0],[-75.20875,4.45016,0.0],[-75.20875,4.45025,0.0],[-75.20899,4.4504,0.0],[-75.20929,4.45053,0.0],[-75.20952,4.45076,0.0],[-75.20961,4.45098,0.0],[-75.20964,4.45109,0.0],[-75.2094,4.45123,0.0],[-75.20922,4.4513,0.0],[-75.209,4.45144,0.0],[-75.20874,4.45148,0.0],[-75.20831,4.45136,0.0],[-75.208,4.45145,0.0],[-75.2077,4.45136,0.0],[-75.20745,4.45138,0.0],[-75.20724,4.45152,0.0],[-75.20737,4.45162,0.0],[-75.20751,4.45168,0.0],[-75.20766,4.45181,0.0],[-75.20793,4.45184,0.0],[-75.20831,4.45175,0.0],[-75.20838,4.45184,0.0],[-75.20867,4.45183,0.0],[-75.20897,4.45184,0.0],[-75.2091,4.45189,0.0],[-75.20895,4.45199,0.0],[-75.20908,4.45209,0.0],[-75.20907,4.4522,0.0],[-75.20892,4.45229,0.0],[-75.2093,4.4523,0.0],[-75.20938,4.45238,0.0],[-75.20927,4.4525,0.0],[-75.20933,4.45266,0.0],[-75.2094,4.45281,0.0],[-75.20929,4.45288,0.0],[-75.20891,4.45279,0.0],[-75.20874,4.45282,0.0],[-75.20819,4.45264,0.0],[-75.20788,4.45255,0.0],[-75.20751,4.45253,0.0],[-75.20738,4.45253,0.0],[-75.20702,4.45244,0.0],[-75.20672,4.45249,0.0],[-75.20651,4.45213,0.0],[-75.20618,4.4517,0.0],[-75.20613,4.45157,0.0],[-75.2064,4.45141,0.0],[-75.20649,4.45121,0.0],[-75.20652,4.45107,0.0],[-75.20677,4.45074,0.0],[-75.20626,4.45039,0.0],[-75.20635,4.4493,0.0],[-75.20648,4.44894,0.0],[-75.2064,4.4488,0.0],[-75.20639,4.44871,0.0],[-75.20636,4.44847,0.0],[-75.20637,4.44829,0.0],[-75.20641,4.44807,0.0],[-75.20646,4.44792,0.0],[-75.20642,4.44777,0.0],[-75.20632,4.44768,0.0],[-75.20628,4.44765,0.0],[-75.20636,4.44668,0.0],[-75.20626,4.44645,0.0],[-75.20568,4.44545,0.0],[-75.20553,4.44518,0.0],[-75.20519,4.44459,0.0],[-75.20516,4.44451,0.0],[-75.20508,4.44418,0.0],[-75.2049,4.44352,0.0],[-75.20484,4.4432,0.0],[-75.20463,4.44241,0.0],[-75.2044,4.44151,0.0],[-75.20418,4.44069,0.0],[-75.20382,4.43929,0.0],[-75.20341,4.43749,0.0],[-75.20314,4.43652,0.0],[-75.20296,4.43591,0.0],[-75.20289,4.43573,0.0],[-75.20334,4.4356,0.0],[-75.20389,4.43546,0.0],[-75.20414,4.43538,0.0],[-75.20435,4.43528,0.0],[-75.20453,4.43515,0.0],[-75.20479,4.43495,0.0],[-75.20501,4.43476,0.0],[-75.20515,4.4346,0.0],[-75.20523,4.43446,0.0],[-75.2053,4.43425,0.0],[-75.20539,4.43395,0.0],[-75.20546,4.43376,0.0],[-75.20557,4.43355,0.0],[-75.20569,4.43344,0.0],[-75.20616,4.43309,0.0],[-75.20642,4.43297,0.0],[-75.20664,4.43285,0.0],[-75.20675,4.43277,0.0],[-75.20693,4.43255,0.0],[-75.20702,4.43237,0.0],[-75.2071,4.43213,0.0],[-75.20714,4.43197,0.0],[-75.20723,4.4316,0.0],[-75.20727,4.43145,0.0],[-75.20735,4.43129,0.0],[-75.20746,4.43116,0.0],[-75.20762,4.43102,0.0],[-75.20776,4.43095,0.0],[-75.2079,4.43089,0.0],[-75.20801,4.43087,0.0],[-75.20822,4.43085,0.0],[-75.20838,4.43086,0.0],[-75.20864,4.43089,0.0],[-75.20883,4.43094,0.0],[-75.20901,4.43102,0.0],[-75.20919,4.43111,0.0],[-75.20937,4.43124,0.0],[-75.20955,4.4315,0.0],[-75.20977,4.43196,0.0],[-75.2099,4.43222,0.0],[-75.2104,4.4333,0.0],[-75.21054,4.43355,0.0],[-75.21058,4.43364,0.0],[-75.21058,4.43367,0.0],[-75.2106,4.43371,0.0],[-75.21063,4.43374,0.0],[-75.21067,4.43377,0.0],[-75.21071,4.43377,0.0],[-75.21075,4.43377,0.0],[-75.21094,4.43425,0.0],[-75.21117,4.43448,0.0],[-75.21166,4.43495,0.0],[-75.21235,4.43551,0.0],[-75.21371,4.43626,0.0],[-75.21535,4.43716,0.0],[-75.21629,4.43768,0.0],[-75.21699,4.43802,0.0],[-75.21743,4.43816,0.0],[-75.2174,4.43828,0.0],[-75.21724,4.43869,0.0],[-75.21696,4.43935,0.0],[-75.21664,4.44008,0.0],[-75.21625,4.4414,0.0],[-75.21604,4.44204,0.0],[-75.21588,4.44244,0.0],[-75.21535,4.44373,0.0],[-75.21483,4.44501,0.0],[-75.21442,4.44604,0.0],[-75.21422,4.44667,0.0],[-75.21421,4.44686,0.0],[-75.21412,4.44747,0.0],[-75.21419,4.44787,0.0]]]]}},{"type":"Feature","properties":{"uesi_id":"COL_R13473965","nbhd_code":"COL_R13473965_8","nbhd_name":"Comuna 5 - Jord\u00e1n"},"geometry":{"type":"MultiPolygon","coordinates":[[[[-75.20628,4.44765,0.0],[-75.20601,4.44768,0.0],[-75.20573,4.44787,0.0],[-75.20527,4.44781,0.0],[-75.20499,4.44766,0.0],[-75.20461,4.44757,0.0],[-75.20397,4.44749,0.0],[-75.20361,4.44744,0.0],[-75.20337,4.44735,0.0],[-75.20324,4.44726,0.0],[-75.20315,4.44718,0.0],[-75.20306,4.44704,0.0],[-75.203,4.44693,0.0],[-75.20303,4.4467,0.0],[-75.203,4.44659,0.0],[-75.20285,4.44654,0.0],[-75.2027,4.44643,0.0],[-75.20224,4.44646,0.0],[-75.20194,4.44652,0.0],[-75.20177,4.44669,0.0],[-75.20144,4.44692,0.0],[-75.20121,4.44695,0.0],[-75.20109,4.44687,0.0],[-75.20101,4.44674,0.0],[-75.20101,4.44654,0.0],[-75.2009,4.44633,0.0],[-75.20072,4.44627,0.0],[-75.20066,4.44625,0.0],[-75.20048,4.44629,0.0],[-75.20037,4.44632,0.0],[-75.20027,4.44636,0.0],[-75.20017,4.44639,0.0],[-75.20004,4.4465,0.0],[-75.1999,4.44656,0.0],[-75.19964,4.44658,0.0],[-75.19953,4.44659,0.0],[-75.19941,4.44653,0.0],[-75.19933,4.44642,0.0],[-75.19933,4.44627,0.0],[-75.19954,4.44594,0.0],[-75.19983,4.44578,0.0],[-75.19994,4.44569,0.0],[-75.19995,4.44557,0.0],[-75.19992,4.44542,0.0],[-75.19984,4.44531,0.0],[-75.19943,4.44516,0.0],[-75.19915,4.44503,0.0],[-75.199,4.44492,0.0],[-75.19888,4.44481,0.0],[-75.19879,4.44457,0.0],[-75.19874,4.44442,0.0],[-75.19861,4.44438,0.0],[-75.19824,4.44424,0.0],[-75.19786,4.44405,0.0],[-75.19763,4.44405,0.0],[-75.19749,4.44415,0.0],[-75.19741,4.44451,0.0],[-75.1973,4.4449,0.0],[-75.19718,4.4451,0.0],[-75.19704,4.44519,0.0],[-75.19663,4.44523,0.0],[-75.19638,4.44516,0.0],[-75.19597,4.4449,0.0],[-75.19564,4.44467,0.0],[-75.19545,4.44458,0.0],[-75.19535,4.44457,0.0],[-75.19529,4.44463,0.0],[-75.19522,4.44487,0.0],[-75.19514,4.44534,0.0],[-75.19497,4.44546,0.0],[-75.19475,4.44554,0.0],[-75.19436,4.44561,0.0],[-75.19406,4.44559,0.0],[-75.19395,4.44543,0.0],[-75.19383,4.44524,0.0],[-75.19374,4.44508,0.0],[-75.19323,4.44508,0.0],[-75.19289,4.4449,0.0],[-75.19249,4.44488,0.0],[-75.19215,4.4449,0.0],[-75.19174,4.44482,0.0],[-75.19165,4.44459,0.0],[-75.19144,4.44411,0.0],[-75.19107,4.44398,0.0],[-75.19084,4.44389,0.0],[-75.19058,4.44394,0.0],[-75.19022,4.44389,0.0],[-75.1899,4.44389,0.0],[-75.1894,4.44407,0.0],[-75.18922,4.44378,0.0],[-75.18905,4.4436,0.0],[-75.1889,4.44344,0.0],[-75.18865,4.44317,0.0],[-75.18801,4.44289,0.0],[-75.18777,4.44294,0.0],[-75.18751,4.44323,0.0],[-75.18711,4.44355,0.0],[-75.18705,4.44374,0.0],[-75.18659,4.44389,0.0],[-75.18646,4.44391,0.0],[-75.18634,4.44424,0.0],[-75.18579,4.44424,0.0],[-75.18562,4.44398,0.0],[-75.18562,4.44353,0.0],[-75.18542,4.44323,0.0],[-75.18494,4.44334,0.0],[-75.18453,4.44323,0.0],[-75.18422,4.44294,0.0],[-75.18382,4.44276,0.0],[-75.18348,4.44302,0.0],[-75.18299,4.44285,0.0],[-75.18279,4.44248,0.0],[-75.18234,4.44236,0.0],[-75.18231,4.44227,0.0],[-75.18226,4.44208,0.0],[-75.18231,4.44182,0.0],[-75.18251,4.44159,0.0],[-75.1827,4.44132,0.0],[-75.18312,4.44066,0.0],[-75.18436,4.44035,0.0],[-75.18615,4.43991,0.0],[-75.18674,4.43976,0.0],[-75.1873,4.43961,0.0],[-75.18847,4.43932,0.0],[-75.19003,4.43893,0.0],[-75.1908,4.43874,0.0],[-75.19198,4.43845,0.0],[-75.19293,4.43821,0.0],[-75.19501,4.43769,0.0],[-75.19766,4.43703,0.0],[-75.1999,4.43647,0.0],[-75.20105,4.43619,0.0],[-75.20289,4.43573,0.0],[-75.20296,4.43591,0.0],[-75.20314,4.43652,0.0],[-75.20341,4.43749,0.0],[-75.20382,4.43929,0.0],[-75.20418,4.44069,0.0],[-75.2044,4.44151,0.0],[-75.20463,4.44241,0.0],[-75.20484,4.4432,0.0],[-75.2049,4.44352,0.0],[-75.20508,4.44418,0.0],[-75.20516,4.44451,0.0],[-75.20519,4.44459,0.0],[-75.20553,4.44518,0.0],[-75.20568,4.44545,0.0],[-75.20626,4.44645,0.0],[-75.20636,4.44668,0.0],[-75.20628,4.44765,0.0]]]]}},{"type":"Feature","properties":{"uesi_id":"COL_R13473965","nbhd_code":"COL_R13473965_9","nbhd_name":"Comuna 6 - Vergel"},"geometry":{"type":"MultiPolygon","coordinates":[[[[-75.20672,4.45249,0.0],[-75.20676,4.45268,0.0],[-75.20672,4.45299,0.0],[-75.20666,4.45337,0.0],[-75.2068,4.45412,0.0],[-75.20697,4.45402,0.0],[-75.20711,4.45379,0.0],[-75.20731,4.45362,0.0],[-75.20756,4.4536,0.0],[-75.20757,4.45379,0.0],[-75.20745,4.45392,0.0],[-75.20733,4.45422,0.0],[-75.20714,4.45456,0.0],[-75.20704,4.45493,0.0],[-75.20712,4.45565,0.0],[-75.20701,4.45597,0.0],[-75.20686,4.45599,0.0],[-75.20686,4.45568,0.0],[-75.20666,4.45523,0.0],[-75.20656,4.45486,0.0],[-75.20636,4.45441,0.0],[-75.20635,4.45408,0.0],[-75.20624,4.45381,0.0],[-75.20586,4.45366,0.0],[-75.20557,4.45397,0.0],[-75.20554,4.45455,0.0],[-75.20556,4.45538,0.0],[-75.20583,4.45638,0.0],[-75.20593,4.45734,0.0],[-75.206,4.45812,0.0],[-75.207,4.45892,0.0],[-75.20702,4.46013,0.0],[-75.20691,4.46076,0.0],[-75.20719,4.46153,0.0],[-75.20697,4.46218,0.0],[-75.20688,4.46254,0.0],[-75.2071,4.4637,0.0],[-75.20798,4.4645,0.0],[-75.20866,4.46503,0.0],[-75.20865,4.46534,0.0],[-75.20889,4.46551,0.0],[-75.20831,4.46555,0.0],[-75.20643,4.46465,0.0],[-75.20543,4.46506,0.0],[-75.20543,4.46472,0.0],[-75.20516,4.46441,0.0],[-75.20497,4.46439,0.0],[-75.20468,4.46445,0.0],[-75.20449,4.46436,0.0],[-75.20449,4.4641,0.0],[-75.20441,4.46401,0.0],[-75.2043,4.4639,0.0],[-75.20401,4.46362,0.0],[-75.20384,4.46346,0.0],[-75.20333,4.4634,0.0],[-75.20299,4.46304,0.0],[-75.20295,4.46281,0.0],[-75.20236,4.46303,0.0],[-75.20222,4.46336,0.0],[-75.20216,4.46375,0.0],[-75.20185,4.46392,0.0],[-75.2015,4.46396,0.0],[-75.2014,4.46364,0.0],[-75.20143,4.46342,0.0],[-75.20123,4.46326,0.0],[-75.20093,4.46324,0.0],[-75.20059,4.4632,0.0],[-75.20029,4.46336,0.0],[-75.19992,4.46318,0.0],[-75.19983,4.46282,0.0],[-75.19996,4.46241,0.0],[-75.1999,4.46199,0.0],[-75.19983,4.46146,0.0],[-75.19993,4.46107,0.0],[-75.19985,4.46079,0.0],[-75.1997,4.46052,0.0],[-75.19962,4.4603,0.0],[-75.19941,4.46009,0.0],[-75.19937,4.45981,0.0],[-75.19934,4.45957,0.0],[-75.19959,4.4591,0.0],[-75.19993,4.45875,0.0],[-75.2,4.45821,0.0],[-75.2003,4.45723,0.0],[-75.20022,4.45712,0.0],[-75.20024,4.457,0.0],[-75.2004,4.45683,0.0],[-75.20045,4.45671,0.0],[-75.20056,4.45651,0.0],[-75.20056,4.45632,0.0],[-75.20044,4.45628,0.0],[-75.20034,4.45623,0.0],[-75.19998,4.4562,0.0],[-75.19986,4.45604,0.0],[-75.19998,4.45587,0.0],[-75.20008,4.45575,0.0],[-75.20026,4.45565,0.0],[-75.20035,4.4555,0.0],[-75.20046,4.4554,0.0],[-75.20051,4.45512,0.0],[-75.20067,4.45486,0.0],[-75.20068,4.45464,0.0],[-75.20049,4.45424,0.0],[-75.20005,4.45398,0.0],[-75.19977,4.45385,0.0],[-75.19962,4.45367,0.0],[-75.19955,4.45341,0.0],[-75.1995,4.45308,0.0],[-75.19958,4.45284,0.0],[-75.19962,4.45259,0.0],[-75.19962,4.45242,0.0],[-75.19938,4.45224,0.0],[-75.19898,4.45223,0.0],[-75.19842,4.45245,0.0],[-75.19799,4.45292,0.0],[-75.19734,4.4535,0.0],[-75.19726,4.45383,0.0],[-75.19711,4.45448,0.0],[-75.19692,4.45519,0.0],[-75.1964,4.45587,0.0],[-75.1944,4.45694,0.0],[-75.19213,4.4583,0.0],[-75.19138,4.45906,0.0],[-75.19089,4.45852,0.0],[-75.1907,4.45835,0.0],[-75.19045,4.45797,0.0],[-75.19029,4.45773,0.0],[-75.19024,4.45712,0.0],[-75.19024,4.45638,0.0],[-75.19029,4.45564,0.0],[-75.19029,4.45515,0.0],[-75.19022,4.45458,0.0],[-75.18998,4.45439,0.0],[-75.18994,4.45421,0.0],[-75.18992,4.4538,0.0],[-75.18975,4.45339,0.0],[-75.18945,4.45294,0.0],[-75.18913,4.45236,0.0],[-75.18911,4.45202,0.0],[-75.18878,4.45167,0.0],[-75.18834,4.4517,0.0],[-75.18775,4.45147,0.0],[-75.1871,4.45266,0.0],[-75.18628,4.45252,0.0],[-75.18595,4.45235,0.0],[-75.18567,4.45213,0.0],[-75.18531,4.45171,0.0],[-75.18518,4.45129,0.0],[-75.18504,4.45102,0.0],[-75.18479,4.45071,0.0],[-75.18451,4.45024,0.0],[-75.18435,4.45008,0.0],[-75.18412,4.45005,0.0],[-75.18394,4.45007,0.0],[-75.18372,4.45026,0.0],[-75.18348,4.45005,0.0],[-75.18328,4.44977,0.0],[-75.18326,4.44949,0.0],[-75.18323,4.44916,0.0],[-75.18315,4.44896,0.0],[-75.18294,4.44875,0.0],[-75.1823,4.44892,0.0],[-75.18193,4.44902,0.0],[-75.18157,4.44901,0.0],[-75.18159,4.44915,0.0],[-75.18166,4.44961,0.0],[-75.18145,4.44991,0.0],[-75.18153,4.45005,0.0],[-75.18162,4.45012,0.0],[-75.18182,4.45023,0.0],[-75.18202,4.45035,0.0],[-75.18225,4.4507,0.0],[-75.18231,4.45109,0.0],[-75.1823,4.45134,0.0],[-75.18186,4.45158,0.0],[-75.18135,4.45182,0.0],[-75.18128,4.45226,0.0],[-75.18143,4.45253,0.0],[-75.18161,4.45298,0.0],[-75.18182,4.45339,0.0],[-75.18197,4.4538,0.0],[-75.18213,4.45416,0.0],[-75.18228,4.45453,0.0],[-75.18233,4.45504,0.0],[-75.18233,4.45561,0.0],[-75.18233,4.45589,0.0],[-75.18242,4.45599,0.0],[-75.18255,4.4561,0.0],[-75.18261,4.45635,0.0],[-75.18252,4.45667,0.0],[-75.18251,4.45697,0.0],[-75.1825,4.45726,0.0],[-75.18253,4.45766,0.0],[-75.18259,4.45794,0.0],[-75.18256,4.45835,0.0],[-75.1827,4.45852,0.0],[-75.18273,4.45872,0.0],[-75.18265,4.45885,0.0],[-75.18252,4.45882,0.0],[-75.18231,4.45867,0.0],[-75.18217,4.45864,0.0],[-75.18207,4.45879,0.0],[-75.18196,4.45895,0.0],[-75.1818,4.45923,0.0],[-75.18166,4.45943,0.0],[-75.18154,4.45952,0.0],[-75.18131,4.45945,0.0],[-75.18131,4.45917,0.0],[-75.18129,4.45893,0.0],[-75.18126,4.45865,0.0],[-75.18139,4.45844,0.0],[-75.18144,4.45827,0.0],[-75.18135,4.45801,0.0],[-75.181,4.45787,0.0],[-75.18088,4.45767,0.0],[-75.18084,4.45755,0.0],[-75.1809,4.45718,0.0],[-75.18093,4.45675,0.0],[-75.18069,4.45629,0.0],[-75.18052,4.45619,0.0],[-75.18022,4.45601,0.0],[-75.18005,4.45592,0.0],[-75.1799,4.45573,0.0],[-75.17983,4.45554,0.0],[-75.17978,4.45535,0.0],[-75.17969,4.45517,0.0],[-75.17945,4.45492,0.0],[-75.17928,4.45471,0.0],[-75.17908,4.45451,0.0],[-75.17907,4.45434,0.0],[-75.17915,4.45416,0.0],[-75.17919,4.45404,0.0],[-75.17918,4.45394,0.0],[-75.17919,4.45375,0.0],[-75.17927,4.45368,0.0],[-75.17934,4.45353,0.0],[-75.17937,4.45334,0.0],[-75.17933,4.45304,0.0],[-75.17923,4.45269,0.0],[-75.17921,4.45237,0.0],[-75.17905,4.4522,0.0],[-75.17882,4.45212,0.0],[-75.17866,4.45207,0.0],[-75.17833,4.45192,0.0],[-75.17826,4.45177,0.0],[-75.1782,4.45154,0.0],[-75.17818,4.45147,0.0],[-75.17785,4.45124,0.0],[-75.17773,4.45118,0.0],[-75.17749,4.45101,0.0],[-75.17695,4.45101,0.0],[-75.17641,4.45094,0.0],[-75.17602,4.45081,0.0],[-75.17559,4.45064,0.0],[-75.17556,4.4502,0.0],[-75.17539,4.44989,0.0],[-75.17543,4.44961,0.0],[-75.17541,4.44936,0.0],[-75.17548,4.44889,0.0],[-75.17554,4.4486,0.0],[-75.17551,4.44793,0.0],[-75.17531,4.44792,0.0],[-75.17497,4.44783,0.0],[-75.17477,4.44771,0.0],[-75.17464,4.44762,0.0],[-75.17432,4.44731,0.0],[-75.17418,4.44724,0.0],[-75.17398,4.4468,0.0],[-75.17382,4.44671,0.0],[-75.17362,4.44649,0.0],[-75.17361,4.44627,0.0],[-75.17364,4.44619,0.0],[-75.17352,4.44596,0.0],[-75.17342,4.44578,0.0],[-75.17339,4.44567,0.0],[-75.17392,4.4455,0.0],[-75.17401,4.44541,0.0],[-75.17448,4.44496,0.0],[-75.17464,4.44481,0.0],[-75.17512,4.44458,0.0],[-75.17558,4.44454,0.0],[-75.17591,4.44448,0.0],[-75.17625,4.44465,0.0],[-75.1767,4.44449,0.0],[-75.1769,4.44402,0.0],[-75.17718,4.44379,0.0],[-75.17752,4.44365,0.0],[-75.17795,4.44374,0.0],[-75.1784,4.44372,0.0],[-75.17887,4.44345,0.0],[-75.17932,4.44368,0.0],[-75.17967,4.44396,0.0],[-75.18037,4.44377,0.0],[-75.18071,4.44321,0.0],[-75.18087,4.44302,0.0],[-75.18116,4.44265,0.0],[-75.18157,4.44252,0.0],[-75.18196,4.44248,0.0],[-75.18217,4.44257,0.0],[-75.18234,4.44236,0.0],[-75.18279,4.44248,0.0],[-75.18299,4.44285,0.0],[-75.18348,4.44302,0.0],[-75.18382,4.44276,0.0],[-75.18422,4.44294,0.0],[-75.18453,4.44323,0.0],[-75.18494,4.44334,0.0],[-75.18542,4.44323,0.0],[-75.18562,4.44353,0.0],[-75.18562,4.44398,0.0],[-75.18579,4.44424,0.0],[-75.18634,4.44424,0.0],[-75.18646,4.44391,0.0],[-75.18659,4.44389,0.0],[-75.18705,4.44374,0.0],[-75.18711,4.44355,0.0],[-75.18751,4.44323,0.0],[-75.18777,4.44294,0.0],[-75.18801,4.44289,0.0],[-75.18865,4.44317,0.0],[-75.1889,4.44344,0.0],[-75.18905,4.4436,0.0],[-75.18922,4.44378,0.0],[-75.1894,4.44407,0.0],[-75.1899,4.44389,0.0],[-75.19022,4.44389,0.0],[-75.19058,4.44394,0.0],[-75.19084,4.44389,0.0],[-75.19107,4.44398,0.0],[-75.19144,4.44411,0.0],[-75.19165,4.44459,0.0],[-75.19174,4.44482,0.0],[-75.19215,4.4449,0.0],[-75.19249,4.44488,0.0],[-75.19289,4.4449,0.0],[-75.19323,4.44508,0.0],[-75.19374,4.44508,0.0],[-75.19383,4.44524,0.0],[-75.19395,4.44543,0.0],[-75.19406,4.44559,0.0],[-75.19436,4.44561,0.0],[-75.19475,4.44554,0.0],[-75.19497,4.44546,0.0],[-75.19514,4.44534,0.0],[-75.19522,4.44487,0.0],[-75.19529,4.44463,0.0],[-75.19535,4.44457,0.0],[-75.19545,4.44458,0.0],[-75.19564,4.44467,0.0],[-75.19597,4.4449,0.0],[-75.19638,4.44516,0.0],[-75.19663,4.44523,0.0],[-75.19704,4.44519,0.0],[-75.19718,4.4451,0.0],[-75.1973,4.4449,0.0],[-75.19741,4.44451,0.0],[-75.19749,4.44415,0.0],[-75.19763,4.44405,0.0],[-75.19786,4.44405,0.0],[-75.19824,4.44424,0.0],[-75.19861,4.44438,0.0],[-75.19874,4.44442,0.0],[-75.19879,4.44457,0.0],[-75.19888,4.44481,0.0],[-75.199,4.44492,0.0],[-75.19915,4.44503,0.0],[-75.19943,4.44516,0.0],[-75.19984,4.44531,0.0],[-75.19992,4.44542,0.0],[-75.19995,4.44557,0.0],[-75.19994,4.44569,0.0],[-75.19983,4.44578,0.0],[-75.19954,4.44594,0.0],[-75.19933,4.44627,0.0],[-75.19933,4.44642,0.0],[-75.19941,4.44653,0.0],[-75.19953,4.44659,0.0],[-75.19964,4.44658,0.0],[-75.1999,4.44656,0.0],[-75.20004,4.4465,0.0],[-75.20017,4.44639,0.0],[-75.20027,4.44636,0.0],[-75.20037,4.44632,0.0],[-75.20048,4.44629,0.0],[-75.20066,4.44625,0.0],[-75.20072,4.44627,0.0],[-75.2009,4.44633,0.0],[-75.20101,4.44654,0.0],[-75.20101,4.44674,0.0],[-75.20109,4.44687,0.0],[-75.20121,4.44695,0.0],[-75.20144,4.44692,0.0],[-75.20177,4.44669,0.0],[-75.20194,4.44652,0.0],[-75.20224,4.44646,0.0],[-75.2027,4.44643,0.0],[-75.20285,4.44654,0.0],[-75.203,4.44659,0.0],[-75.20303,4.4467,0.0],[-75.203,4.44693,0.0],[-75.20306,4.44704,0.0],[-75.20315,4.44718,0.0],[-75.20324,4.44726,0.0],[-75.20337,4.44735,0.0],[-75.20361,4.44744,0.0],[-75.20397,4.44749,0.0],[-75.20461,4.44757,0.0],[-75.20499,4.44766,0.0],[-75.20527,4.44781,0.0],[-75.20573,4.44787,0.0],[-75.20601,4.44768,0.0],[-75.20628,4.44765,0.0],[-75.20632,4.44768,0.0],[-75.20642,4.44777,0.0],[-75.20646,4.44792,0.0],[-75.20641,4.44807,0.0],[-75.20637,4.44829,0.0],[-75.20636,4.44847,0.0],[-75.20639,4.44871,0.0],[-75.2064,4.4488,0.0],[-75.20648,4.44894,0.0],[-75.20635,4.4493,0.0],[-75.20626,4.45039,0.0],[-75.20677,4.45074,0.0],[-75.20652,4.45107,0.0],[-75.20649,4.45121,0.0],[-75.2064,4.45141,0.0],[-75.20613,4.45157,0.0],[-75.20618,4.4517,0.0],[-75.20651,4.45213,0.0],[-75.20672,4.45249,0.0]]]]}},{"type":"Feature","properties":{"uesi_id":"COL_R13473965","nbhd_code":"COL_R13473965_10","nbhd_name":"Comuna 7 - Salado"},"geometry":{"type":"MultiPolygon","coordinates":[[[[-75.17559,4.45064,0.0],[-75.17502,4.45066,0.0],[-75.17476,4.45075,0.0],[-75.17449,4.45078,0.0],[-75.17437,4.45035,0.0],[-75.17415,4.44998,0.0],[-75.17418,4.4494,0.0],[-75.1741,4.44914,0.0],[-75.17344,4.44896,0.0],[-75.17241,4.44867,0.0],[-75.17142,4.44859,0.0],[-75.17022,4.44863,0.0],[-75.16978,4.44855,0.0],[-75.16922,4.44838,0.0],[-75.1689,4.44844,0.0],[-75.16842,4.44864,0.0],[-75.16811,4.44879,0.0],[-75.16786,4.44897,0.0],[-75.16763,4.4491,0.0],[-75.16756,4.4493,0.0],[-75.16755,4.44954,0.0],[-75.1674,4.44966,0.0],[-75.16709,4.44981,0.0],[-75.16653,4.45001,0.0],[-75.16618,4.44998,0.0],[-75.16561,4.45027,0.0],[-75.16532,4.45092,0.0],[-75.16537,4.45141,0.0],[-75.16552,4.45164,0.0],[-75.16595,4.4518,0.0],[-75.16616,4.45198,0.0],[-75.16638,4.45252,0.0],[-75.16651,4.45276,0.0],[-75.16679,4.45334,0.0],[-75.16692,4.45363,0.0],[-75.16714,4.45398,0.0],[-75.16722,4.4542,0.0],[-75.16724,4.45456,0.0],[-75.1673,4.45496,0.0],[-75.16732,4.45516,0.0],[-75.16714,4.45542,0.0],[-75.16688,4.45547,0.0],[-75.16666,4.45546,0.0],[-75.16652,4.4553,0.0],[-75.16626,4.45484,0.0],[-75.16589,4.45426,0.0],[-75.16561,4.45433,0.0],[-75.16501,4.4542,0.0],[-75.16457,4.45384,0.0],[-75.16424,4.45303,0.0],[-75.16389,4.45228,0.0],[-75.16378,4.45204,0.0],[-75.16345,4.45174,0.0],[-75.16319,4.45171,0.0],[-75.16311,4.45175,0.0],[-75.16271,4.45186,0.0],[-75.16226,4.45181,0.0],[-75.1617,4.45179,0.0],[-75.16138,4.45172,0.0],[-75.1612,4.45145,0.0],[-75.16104,4.45121,0.0],[-75.16063,4.45131,0.0],[-75.16032,4.45156,0.0],[-75.15971,4.45165,0.0],[-75.15923,4.45173,0.0],[-75.15878,4.45184,0.0],[-75.15859,4.4519,0.0],[-75.15837,4.45182,0.0],[-75.15821,4.45171,0.0],[-75.15811,4.45168,0.0],[-75.15788,4.45165,0.0],[-75.15745,4.45171,0.0],[-75.15715,4.45182,0.0],[-75.15687,4.452,0.0],[-75.1564,4.45209,0.0],[-75.15622,4.45212,0.0],[-75.15518,4.45221,0.0],[-75.15476,4.45209,0.0],[-75.1544,4.45195,0.0],[-75.15436,4.45155,0.0],[-75.15413,4.45112,0.0],[-75.15358,4.45094,0.0],[-75.15296,4.45071,0.0],[-75.15257,4.45064,0.0],[-75.15214,4.45066,0.0],[-75.15201,4.4508,0.0],[-75.15189,4.45103,0.0],[-75.1518,4.45136,0.0],[-75.15168,4.45166,0.0],[-75.15154,4.45196,0.0],[-75.1513,4.4522,0.0],[-75.15113,4.45227,0.0],[-75.15081,4.45224,0.0],[-75.15065,4.45221,0.0],[-75.15021,4.45212,0.0],[-75.14967,4.45218,0.0],[-75.14925,4.45228,0.0],[-75.14915,4.45251,0.0],[-75.14892,4.45299,0.0],[-75.14864,4.45331,0.0],[-75.14837,4.45376,0.0],[-75.14874,4.45392,0.0],[-75.1491,4.45427,0.0],[-75.14949,4.45448,0.0],[-75.14967,4.45464,0.0],[-75.14994,4.45498,0.0],[-75.14979,4.45525,0.0],[-75.14969,4.45545,0.0],[-75.14943,4.45534,0.0],[-75.14924,4.45514,0.0],[-75.14908,4.45494,0.0],[-75.14884,4.45481,0.0],[-75.14848,4.45464,0.0],[-75.14807,4.45451,0.0],[-75.14753,4.4544,0.0],[-75.14708,4.45425,0.0],[-75.14637,4.45373,0.0],[-75.14623,4.45378,0.0],[-75.14605,4.45377,0.0],[-75.14594,4.45372,0.0],[-75.14563,4.45348,0.0],[-75.14526,4.45322,0.0],[-75.1448,4.45313,0.0],[-75.14448,4.45313,0.0],[-75.14329,4.45338,0.0],[-75.1428,4.45341,0.0],[-75.14245,4.45348,0.0],[-75.14212,4.45348,0.0],[-75.14187,4.45338,0.0],[-75.14176,4.45334,0.0],[-75.14144,4.45336,0.0],[-75.14119,4.45359,0.0],[-75.14068,4.4539,0.0],[-75.14036,4.4541,0.0],[-75.13993,4.45427,0.0],[-75.13942,4.45457,0.0],[-75.13838,4.45532,0.0],[-75.13796,4.4556,0.0],[-75.13766,4.4558,0.0],[-75.13761,4.45582,0.0],[-75.1373,4.45587,0.0],[-75.13694,4.45592,0.0],[-75.13683,4.45587,0.0],[-75.1367,4.45578,0.0],[-75.13654,4.45565,0.0],[-75.1364,4.45561,0.0],[-75.1363,4.45562,0.0],[-75.13615,4.45573,0.0],[-75.13599,4.45591,0.0],[-75.13579,4.45608,0.0],[-75.13551,4.45626,0.0],[-75.1352,4.45641,0.0],[-75.13502,4.4565,0.0],[-75.13469,4.45656,0.0],[-75.13438,4.45661,0.0],[-75.13404,4.45664,0.0],[-75.13389,4.45659,0.0],[-75.1337,4.45653,0.0],[-75.13345,4.45641,0.0],[-75.13327,4.45631,0.0],[-75.13317,4.4563,0.0],[-75.13303,4.4563,0.0],[-75.13292,4.45638,0.0],[-75.13283,4.4565,0.0],[-75.13284,4.4566,0.0],[-75.13286,4.45673,0.0],[-75.13292,4.45691,0.0],[-75.13294,4.45706,0.0],[-75.13291,4.45714,0.0],[-75.13285,4.45719,0.0],[-75.13276,4.45724,0.0],[-75.1327,4.45727,0.0],[-75.13263,4.45729,0.0],[-75.13252,4.45728,0.0],[-75.13239,4.45726,0.0],[-75.13224,4.45721,0.0],[-75.13218,4.45718,0.0],[-75.13208,4.45717,0.0],[-75.13198,4.4572,0.0],[-75.13172,4.4573,0.0],[-75.13135,4.45739,0.0],[-75.13103,4.45747,0.0],[-75.13083,4.45745,0.0],[-75.13055,4.45733,0.0],[-75.13023,4.45704,0.0],[-75.1296,4.45671,0.0],[-75.1293,4.45666,0.0],[-75.12905,4.45671,0.0],[-75.12885,4.45683,0.0],[-75.12871,4.45703,0.0],[-75.12835,4.45735,0.0],[-75.12808,4.45757,0.0],[-75.12782,4.45761,0.0],[-75.12726,4.45759,0.0],[-75.12703,4.45767,0.0],[-75.1263,4.45773,0.0],[-75.1261,4.45771,0.0],[-75.12583,4.45765,0.0],[-75.12561,4.45746,0.0],[-75.1256,4.45735,0.0],[-75.12562,4.45725,0.0],[-75.12564,4.45718,0.0],[-75.12574,4.45707,0.0],[-75.12655,4.45655,0.0],[-75.1282,4.45541,0.0],[-75.12894,4.45493,0.0],[-75.12865,4.45448,0.0],[-75.12861,4.45443,0.0],[-75.12856,4.45442,0.0],[-75.12846,4.4544,0.0],[-75.12806,4.45424,0.0],[-75.12785,4.45418,0.0],[-75.12737,4.4543,0.0],[-75.12691,4.45441,0.0],[-75.1267,4.45373,0.0],[-75.12661,4.45351,0.0],[-75.12652,4.45333,0.0],[-75.12623,4.45244,0.0],[-75.12619,4.45211,0.0],[-75.1307,4.44996,0.0],[-75.13049,4.44879,0.0],[-75.13099,4.44862,0.0],[-75.13119,4.44833,0.0],[-75.13161,4.44802,0.0],[-75.13313,4.44757,0.0],[-75.13428,4.44796,0.0],[-75.14092,4.44613,0.0],[-75.1407,4.44517,0.0],[-75.14211,4.44457,0.0],[-75.14254,4.44438,0.0],[-75.14289,4.44418,0.0],[-75.14314,4.44384,0.0],[-75.14364,4.44333,0.0],[-75.14416,4.4431,0.0],[-75.14457,4.44283,0.0],[-75.14491,4.44252,0.0],[-75.14538,4.44218,0.0],[-75.14585,4.44174,0.0],[-75.14652,4.44105,0.0],[-75.14793,4.43987,0.0],[-75.1482,4.43996,0.0],[-75.14836,4.43985,0.0],[-75.14846,4.43957,0.0],[-75.1486,4.43926,0.0],[-75.149,4.43903,0.0],[-75.14946,4.43895,0.0],[-75.15007,4.439,0.0],[-75.15029,4.439,0.0],[-75.15049,4.43923,0.0],[-75.15069,4.43949,0.0],[-75.15097,4.43953,0.0],[-75.15121,4.43919,0.0],[-75.15146,4.43897,0.0],[-75.15162,4.43893,0.0],[-75.15157,4.43945,0.0],[-75.15152,4.43992,0.0],[-75.15149,4.44017,0.0],[-75.15179,4.44045,0.0],[-75.152,4.44017,0.0],[-75.15241,4.44028,0.0],[-75.15282,4.44045,0.0],[-75.15316,4.44051,0.0],[-75.15351,4.44034,0.0],[-75.15395,4.44011,0.0],[-75.15426,4.44039,0.0],[-75.15472,4.44074,0.0],[-75.15498,4.44117,0.0],[-75.15497,4.4415,0.0],[-75.15512,4.44186,0.0],[-75.1555,4.44148,0.0],[-75.15582,4.44111,0.0],[-75.15617,4.44094,0.0],[-75.15642,4.4408,0.0],[-75.15641,4.44099,0.0],[-75.15675,4.44107,0.0],[-75.15704,4.44109,0.0],[-75.15733,4.44097,0.0],[-75.15754,4.44116,0.0],[-75.1573,4.44133,0.0],[-75.15737,4.44148,0.0],[-75.15781,4.4416,0.0],[-75.15823,4.44154,0.0],[-75.15857,4.44143,0.0],[-75.15883,4.44117,0.0],[-75.1593,4.44109,0.0],[-75.1597,4.44081,0.0],[-75.16005,4.44094,0.0],[-75.1605,4.44086,0.0],[-75.1605,4.44099,0.0],[-75.16035,4.4412,0.0],[-75.16018,4.44128,0.0],[-75.15979,4.44134,0.0],[-75.1599,4.44167,0.0],[-75.16012,4.44186,0.0],[-75.16056,4.44186,0.0],[-75.16087,4.4418,0.0],[-75.16132,4.44184,0.0],[-75.16153,4.44189,0.0],[-75.16164,4.44191,0.0],[-75.16185,4.44197,0.0],[-75.16202,4.44194,0.0],[-75.16228,4.4421,0.0],[-75.16245,4.44227,0.0],[-75.16286,4.44217,0.0],[-75.16325,4.44223,0.0],[-75.16372,4.44244,0.0],[-75.16389,4.44231,0.0],[-75.16408,4.44194,0.0],[-75.16445,4.44186,0.0],[-75.16505,4.44203,0.0],[-75.16531,4.442,0.0],[-75.16568,4.44217,0.0],[-75.16597,4.44194,0.0],[-75.1664,4.4422,0.0],[-75.16651,4.44242,0.0],[-75.16685,4.44251,0.0],[-75.16689,4.44235,0.0],[-75.1675,4.44235,0.0],[-75.1675,4.44259,0.0],[-75.16734,4.44276,0.0],[-75.16745,4.4428,0.0],[-75.16734,4.44304,0.0],[-75.16714,4.44317,0.0],[-75.16698,4.44342,0.0],[-75.16698,4.44362,0.0],[-75.16715,4.44381,0.0],[-75.16731,4.44381,0.0],[-75.16763,4.44381,0.0],[-75.1681,4.44381,0.0],[-75.16854,4.44385,0.0],[-75.16883,4.44398,0.0],[-75.1693,4.44417,0.0],[-75.16952,4.44436,0.0],[-75.16962,4.44445,0.0],[-75.16981,4.44445,0.0],[-75.17024,4.44477,0.0],[-75.17063,4.44513,0.0],[-75.17097,4.44516,0.0],[-75.17129,4.44496,0.0],[-75.17177,4.44496,0.0],[-75.17222,4.44509,0.0],[-75.17246,4.44531,0.0],[-75.17305,4.44553,0.0],[-75.17339,4.44567,0.0],[-75.17342,4.44578,0.0],[-75.17352,4.44596,0.0],[-75.17364,4.44619,0.0],[-75.17361,4.44627,0.0],[-75.17362,4.44649,0.0],[-75.17382,4.44671,0.0],[-75.17398,4.4468,0.0],[-75.17418,4.44724,0.0],[-75.17432,4.44731,0.0],[-75.17464,4.44762,0.0],[-75.17477,4.44771,0.0],[-75.17497,4.44783,0.0],[-75.17531,4.44792,0.0],[-75.17551,4.44793,0.0],[-75.17554,4.4486,0.0],[-75.17548,4.44889,0.0],[-75.17541,4.44936,0.0],[-75.17543,4.44961,0.0],[-75.17539,4.44989,0.0],[-75.17556,4.4502,0.0],[-75.17559,4.45064,0.0]]]]}},{"type":"Feature","properties":{"uesi_id":"COL_R13473965","nbhd_code":"COL_R13473965_11","nbhd_name":"Comuna 8 - Sim\u00f3n Bol\u00edvar"},"geometry":{"type":"MultiPolygon","coordinates":[[[[-75.1711,4.43116,0.0],[-75.16862,4.43167,0.0],[-75.16884,4.4299,0.0],[-75.16956,4.4267,0.0],[-75.17423,4.42617,0.0],[-75.17411,4.42696,0.0],[-75.17406,4.42736,0.0],[-75.17405,4.42746,0.0],[-75.17401,4.42753,0.0],[-75.17387,4.42777,0.0],[-75.17381,4.42795,0.0],[-75.1734,4.43129,0.0],[-75.1711,4.43116,0.0]]],[[[-75.15396,4.43888,0.0],[-75.15401,4.43733,0.0],[-75.1539,4.43544,0.0],[-75.15416,4.43545,0.0],[-75.15476,4.43534,0.0],[-75.15515,4.43526,0.0],[-75.15551,4.43506,0.0],[-75.15594,4.43491,0.0],[-75.15675,4.43511,0.0],[-75.1577,4.43506,0.0],[-75.15818,4.43499,0.0],[-75.15863,4.43505,0.0],[-75.15884,4.43525,0.0],[-75.15907,4.43532,0.0],[-75.1592,4.43528,0.0],[-75.15944,4.43497,0.0],[-75.15961,4.43484,0.0],[-75.15986,4.43481,0.0],[-75.16065,4.43496,0.0],[-75.16126,4.43489,0.0],[-75.16155,4.43501,0.0],[-75.16173,4.43525,0.0],[-75.16205,4.43566,0.0],[-75.16224,4.4358,0.0],[-75.16248,4.4358,0.0],[-75.16279,4.43577,0.0],[-75.16322,4.43598,0.0],[-75.16343,4.43598,0.0],[-75.16381,4.43568,0.0],[-75.16431,4.4355,0.0],[-75.16452,4.43557,0.0],[-75.16482,4.43555,0.0],[-75.16498,4.4354,0.0],[-75.16523,4.43499,0.0],[-75.16545,4.43474,0.0],[-75.16611,4.43477,0.0],[-75.16672,4.43461,0.0],[-75.16698,4.43424,0.0],[-75.16725,4.43425,0.0],[-75.16747,4.43419,0.0],[-75.16774,4.43405,0.0],[-75.16817,4.43385,0.0],[-75.1683,4.43376,0.0],[-75.1684,4.43365,0.0],[-75.16869,4.43362,0.0],[-75.1693,4.43348,0.0],[-75.17039,4.43288,0.0],[-75.17132,4.43283,0.0],[-75.17203,4.43291,0.0],[-75.17258,4.43274,0.0],[-75.17276,4.43235,0.0],[-75.17312,4.43238,0.0],[-75.17413,4.43291,0.0],[-75.17472,4.43281,0.0],[-75.17531,4.43288,0.0],[-75.17591,4.43294,0.0],[-75.17638,4.43319,0.0],[-75.17681,4.43308,0.0],[-75.17701,4.43303,0.0],[-75.1772,4.43316,0.0],[-75.1774,4.43342,0.0],[-75.17749,4.43368,0.0],[-75.17779,4.4339,0.0],[-75.17824,4.43395,0.0],[-75.17854,4.43385,0.0],[-75.17883,4.43356,0.0],[-75.17889,4.43317,0.0],[-75.17915,4.433,0.0],[-75.17974,4.43308,0.0],[-75.18021,4.43287,0.0],[-75.18089,4.43232,0.0],[-75.18124,4.43223,0.0],[-75.18155,4.43207,0.0],[-75.18175,4.43183,0.0],[-75.18205,4.43182,0.0],[-75.18233,4.43177,0.0],[-75.18276,4.43196,0.0],[-75.18387,4.43227,0.0],[-75.18426,4.43232,0.0],[-75.18465,4.43211,0.0],[-75.18469,4.43057,0.0],[-75.18375,4.43057,0.0],[-75.18329,4.43055,0.0],[-75.18313,4.43057,0.0],[-75.181,4.43117,0.0],[-75.18059,4.42994,0.0],[-75.17926,4.43046,0.0],[-75.17896,4.43058,0.0],[-75.17881,4.43077,0.0],[-75.17858,4.43074,0.0],[-75.17823,4.43064,0.0],[-75.17842,4.43026,0.0],[-75.17852,4.42982,0.0],[-75.17856,4.42887,0.0],[-75.17869,4.42875,0.0],[-75.17909,4.42871,0.0],[-75.17953,4.42881,0.0],[-75.17999,4.42876,0.0],[-75.18022,4.42857,0.0],[-75.18036,4.42818,0.0],[-75.18045,4.42515,0.0],[-75.18215,4.42485,0.0],[-75.18249,4.4248,0.0],[-75.18292,4.42475,0.0],[-75.18452,4.425,0.0],[-75.1861,4.42524,0.0],[-75.18617,4.42621,0.0],[-75.18635,4.42884,0.0],[-75.18646,4.43039,0.0],[-75.18661,4.43211,0.0],[-75.18673,4.43421,0.0],[-75.18675,4.43496,0.0],[-75.18675,4.43625,0.0],[-75.18674,4.43788,0.0],[-75.18673,4.43912,0.0],[-75.18674,4.43976,0.0],[-75.18615,4.43991,0.0],[-75.18436,4.44035,0.0],[-75.18312,4.44066,0.0],[-75.1827,4.44132,0.0],[-75.18251,4.44159,0.0],[-75.18231,4.44182,0.0],[-75.18226,4.44208,0.0],[-75.18231,4.44227,0.0],[-75.18234,4.44236,0.0],[-75.18217,4.44257,0.0],[-75.18196,4.44248,0.0],[-75.18157,4.44252,0.0],[-75.18116,4.44265,0.0],[-75.18087,4.44302,0.0],[-75.18071,4.44321,0.0],[-75.18037,4.44377,0.0],[-75.17967,4.44396,0.0],[-75.17932,4.44368,0.0],[-75.17887,4.44345,0.0],[-75.1784,4.44372,0.0],[-75.17795,4.44374,0.0],[-75.17752,4.44365,0.0],[-75.17718,4.44379,0.0],[-75.1769,4.44402,0.0],[-75.1767,4.44449,0.0],[-75.17625,4.44465,0.0],[-75.17591,4.44448,0.0],[-75.17558,4.44454,0.0],[-75.17512,4.44458,0.0],[-75.17464,4.44481,0.0],[-75.17448,4.44496,0.0],[-75.17401,4.44541,0.0],[-75.17392,4.4455,0.0],[-75.17339,4.44567,0.0],[-75.17305,4.44553,0.0],[-75.17246,4.44531,0.0],[-75.17222,4.44509,0.0],[-75.17177,4.44496,0.0],[-75.17129,4.44496,0.0],[-75.17097,4.44516,0.0],[-75.17063,4.44513,0.0],[-75.17024,4.44477,0.0],[-75.16981,4.44445,0.0],[-75.16962,4.44445,0.0],[-75.16952,4.44436,0.0],[-75.1693,4.44417,0.0],[-75.16883,4.44398,0.0],[-75.16854,4.44385,0.0],[-75.1681,4.44381,0.0],[-75.16763,4.44381,0.0],[-75.16731,4.44381,0.0],[-75.16715,4.44381,0.0],[-75.16698,4.44362,0.0],[-75.16698,4.44342,0.0],[-75.16714,4.44317,0.0],[-75.16734,4.44304,0.0],[-75.16745,4.4428,0.0],[-75.16734,4.44276,0.0],[-75.1675,4.44259,0.0],[-75.1675,4.44235,0.0],[-75.16689,4.44235,0.0],[-75.16685,4.44251,0.0],[-75.16651,4.44242,0.0],[-75.1664,4.4422,0.0],[-75.16597,4.44194,0.0],[-75.16568,4.44217,0.0],[-75.16531,4.442,0.0],[-75.16505,4.44203,0.0],[-75.16445,4.44186,0.0],[-75.16408,4.44194,0.0],[-75.16389,4.44231,0.0],[-75.16372,4.44244,0.0],[-75.16325,4.44223,0.0],[-75.16286,4.44217,0.0],[-75.16245,4.44227,0.0],[-75.16228,4.4421,0.0],[-75.16202,4.44194,0.0],[-75.16185,4.44197,0.0],[-75.16164,4.44191,0.0],[-75.16153,4.44189,0.0],[-75.16132,4.44184,0.0],[-75.16087,4.4418,0.0],[-75.16056,4.44186,0.0],[-75.16012,4.44186,0.0],[-75.1599,4.44167,0.0],[-75.15979,4.44134,0.0],[-75.16018,4.44128,0.0],[-75.16035,4.4412,0.0],[-75.1605,4.44099,0.0],[-75.1605,4.44086,0.0],[-75.16005,4.44094,0.0],[-75.1597,4.44081,0.0],[-75.1593,4.44109,0.0],[-75.15883,4.44117,0.0],[-75.15857,4.44143,0.0],[-75.15823,4.44154,0.0],[-75.15781,4.4416,0.0],[-75.15737,4.44148,0.0],[-75.1573,4.44133,0.0],[-75.15754,4.44116,0.0],[-75.15733,4.44097,0.0],[-75.15704,4.44109,0.0],[-75.15675,4.44107,0.0],[-75.15641,4.44099,0.0],[-75.15642,4.4408,0.0],[-75.15617,4.44094,0.0],[-75.15582,4.44111,0.0],[-75.1555,4.44148,0.0],[-75.15512,4.44186,0.0],[-75.15497,4.4415,0.0],[-75.15498,4.44117,0.0],[-75.15472,4.44074,0.0],[-75.15426,4.44039,0.0],[-75.15395,4.44011,0.0],[-75.15396,4.43888,0.0]]]]}},{"type":"Feature","properties":{"uesi_id":"COL_R13473965","nbhd_code":"COL_R13473965_12","nbhd_name":"Comuna 9 - Picale\u00f1a"},"geometry":{"type":"MultiPolygon","coordinates":[[[[-75.1861,4.42524,0.0],[-75.18607,4.42478,0.0],[-75.18583,4.42455,0.0],[-75.18382,4.4233,0.0],[-75.18198,4.4221,0.0],[-75.18082,4.42135,0.0],[-75.1776,4.41922,0.0],[-75.1751,4.41758,0.0],[-75.1734,4.41619,0.0],[-75.17197,4.41491,0.0],[-75.17127,4.41428,0.0],[-75.17075,4.41383,0.0],[-75.17028,4.41361,0.0],[-75.16958,4.41344,0.0],[-75.16909,4.41332,0.0],[-75.16848,4.41281,0.0],[-75.16758,4.41221,0.0],[-75.16654,4.41137,0.0],[-75.16526,4.41082,0.0],[-75.16352,4.41057,0.0],[-75.16233,4.41041,0.0],[-75.16066,4.41029,0.0],[-75.15978,4.41025,0.0],[-75.15828,4.41024,0.0],[-75.15658,4.41037,0.0],[-75.15533,4.41061,0.0],[-75.15367,4.4105,0.0],[-75.15264,4.41013,0.0],[-75.15154,4.41001,0.0],[-75.1506,4.40993,0.0],[-75.14947,4.40992,0.0],[-75.14851,4.4102,0.0],[-75.14785,4.41041,0.0],[-75.1475,4.4102,0.0],[-75.14708,4.41033,0.0],[-75.14601,4.41066,0.0],[-75.14534,4.41064,0.0],[-75.14418,4.41043,0.0],[-75.14311,4.41051,0.0],[-75.14213,4.41025,0.0],[-75.14132,4.41017,0.0],[-75.1406,4.41014,0.0],[-75.13961,4.41002,0.0],[-75.13921,4.40997,0.0],[-75.1393,4.40989,0.0],[-75.13966,4.40975,0.0],[-75.13999,4.40957,0.0],[-75.14005,4.4095,0.0],[-75.14013,4.40932,0.0],[-75.14031,4.40861,0.0],[-75.14074,4.40707,0.0],[-75.14122,4.40509,0.0],[-75.14209,4.40198,0.0],[-75.1346,4.397,0.0],[-75.13026,4.39282,0.0],[-75.13597,4.38749,0.0],[-75.14239,4.39291,0.0],[-75.14854,4.39602,0.0],[-75.15053,4.39717,0.0],[-75.15146,4.39745,0.0],[-75.15285,4.39779,0.0],[-75.15422,4.39732,0.0],[-75.15596,4.39653,0.0],[-75.15806,4.39616,0.0],[-75.15944,4.39567,0.0],[-75.16021,4.39503,0.0],[-75.16105,4.39402,0.0],[-75.16123,4.39395,0.0],[-75.16302,4.39443,0.0],[-75.16359,4.39426,0.0],[-75.16695,4.39801,0.0],[-75.16565,4.39944,0.0],[-75.16582,4.40061,0.0],[-75.16662,4.40125,0.0],[-75.16589,4.40236,0.0],[-75.16607,4.40277,0.0],[-75.16629,4.40327,0.0],[-75.16679,4.40368,0.0],[-75.16738,4.40405,0.0],[-75.16771,4.40451,0.0],[-75.16787,4.40471,0.0],[-75.1683,4.40484,0.0],[-75.16867,4.40502,0.0],[-75.16926,4.40545,0.0],[-75.16992,4.40656,0.0],[-75.17048,4.40648,0.0],[-75.17089,4.40645,0.0],[-75.1714,4.40659,0.0],[-75.17196,4.40714,0.0],[-75.1726,4.40776,0.0],[-75.17323,4.40844,0.0],[-75.17369,4.40886,0.0],[-75.174,4.40939,0.0],[-75.17428,4.41017,0.0],[-75.17477,4.41033,0.0],[-75.1751,4.41058,0.0],[-75.17563,4.41075,0.0],[-75.17606,4.4109,0.0],[-75.17661,4.41146,0.0],[-75.18526,4.41522,0.0],[-75.18547,4.41554,0.0],[-75.18567,4.41641,0.0],[-75.18567,4.4168,0.0],[-75.18588,4.41716,0.0],[-75.18616,4.41751,0.0],[-75.18645,4.41763,0.0],[-75.18656,4.41796,0.0],[-75.18648,4.41834,0.0],[-75.18638,4.41857,0.0],[-75.1861,4.41905,0.0],[-75.18621,4.41931,0.0],[-75.1864,4.41963,0.0],[-75.18638,4.41983,0.0],[-75.18637,4.42006,0.0],[-75.18655,4.42027,0.0],[-75.18673,4.4204,0.0],[-75.18713,4.42048,0.0],[-75.18756,4.42061,0.0],[-75.18791,4.42073,0.0],[-75.1883,4.42083,0.0],[-75.18851,4.42114,0.0],[-75.18868,4.42157,0.0],[-75.1891,4.4221,0.0],[-75.1893,4.42233,0.0],[-75.18957,4.42241,0.0],[-75.18984,4.42243,0.0],[-75.19002,4.4226,0.0],[-75.19006,4.4229,0.0],[-75.19034,4.42307,0.0],[-75.19054,4.42322,0.0],[-75.19057,4.4234,0.0],[-75.1905,4.42366,0.0],[-75.19025,4.42385,0.0],[-75.1903,4.42405,0.0],[-75.19035,4.42449,0.0],[-75.1904,4.42476,0.0],[-75.19071,4.42501,0.0],[-75.19134,4.42457,0.0],[-75.1919,4.42403,0.0],[-75.19217,4.42354,0.0],[-75.19255,4.42361,0.0],[-75.19306,4.42352,0.0],[-75.19343,4.42324,0.0],[-75.19369,4.42303,0.0],[-75.19392,4.42294,0.0],[-75.19418,4.42307,0.0],[-75.19474,4.42321,0.0],[-75.19553,4.42324,0.0],[-75.19592,4.42328,0.0],[-75.19609,4.42354,0.0],[-75.19605,4.42387,0.0],[-75.19596,4.42416,0.0],[-75.19579,4.42465,0.0],[-75.19583,4.4251,0.0],[-75.19641,4.42595,0.0],[-75.1968,4.42624,0.0],[-75.19706,4.42633,0.0],[-75.19723,4.42633,0.0],[-75.19746,4.42627,0.0],[-75.19772,4.42615,0.0],[-75.1984,4.42575,0.0],[-75.1989,4.42531,0.0],[-75.19946,4.4244,0.0],[-75.19978,4.42406,0.0],[-75.20004,4.42393,0.0],[-75.2003,4.42388,0.0],[-75.20061,4.42389,0.0],[-75.2007,4.4239,0.0],[-75.20076,4.42394,0.0],[-75.2009,4.42415,0.0],[-75.20096,4.42423,0.0],[-75.2011,4.42427,0.0],[-75.20121,4.42427,0.0],[-75.20205,4.42399,0.0],[-75.20215,4.42396,0.0],[-75.20241,4.42391,0.0],[-75.20272,4.42391,0.0],[-75.20302,4.42397,0.0],[-75.20347,4.42407,0.0],[-75.20423,4.42427,0.0],[-75.20434,4.42429,0.0],[-75.2049,4.42434,0.0],[-75.20523,4.42433,0.0],[-75.20565,4.42427,0.0],[-75.20602,4.42416,0.0],[-75.20653,4.42394,0.0],[-75.20689,4.42382,0.0],[-75.20726,4.42377,0.0],[-75.20728,4.42431,0.0],[-75.20728,4.42467,0.0],[-75.20727,4.42513,0.0],[-75.20729,4.42546,0.0],[-75.20731,4.42576,0.0],[-75.20731,4.42695,0.0],[-75.20733,4.42744,0.0],[-75.2074,4.42784,0.0],[-75.20753,4.42845,0.0],[-75.20765,4.42866,0.0],[-75.20797,4.42875,0.0],[-75.20827,4.42926,0.0],[-75.20864,4.42986,0.0],[-75.20884,4.43037,0.0],[-75.20903,4.43076,0.0],[-75.20904,4.43088,0.0],[-75.20901,4.43102,0.0],[-75.20883,4.43094,0.0],[-75.20864,4.43089,0.0],[-75.20838,4.43086,0.0],[-75.20822,4.43085,0.0],[-75.20801,4.43087,0.0],[-75.2079,4.43089,0.0],[-75.20776,4.43095,0.0],[-75.20762,4.43102,0.0],[-75.20746,4.43116,0.0],[-75.20735,4.43129,0.0],[-75.20727,4.43145,0.0],[-75.20723,4.4316,0.0],[-75.20714,4.43197,0.0],[-75.2071,4.43213,0.0],[-75.20702,4.43237,0.0],[-75.20693,4.43255,0.0],[-75.20675,4.43277,0.0],[-75.20664,4.43285,0.0],[-75.20642,4.43297,0.0],[-75.20616,4.43309,0.0],[-75.20569,4.43344,0.0],[-75.20557,4.43355,0.0],[-75.20546,4.43376,0.0],[-75.20539,4.43395,0.0],[-75.2053,4.43425,0.0],[-75.20523,4.43446,0.0],[-75.20515,4.4346,0.0],[-75.20501,4.43476,0.0],[-75.20479,4.43495,0.0],[-75.20453,4.43515,0.0],[-75.20435,4.43528,0.0],[-75.20414,4.43538,0.0],[-75.20389,4.43546,0.0],[-75.20334,4.4356,0.0],[-75.20289,4.43573,0.0],[-75.20105,4.43619,0.0],[-75.1999,4.43647,0.0],[-75.19766,4.43703,0.0],[-75.19501,4.43769,0.0],[-75.19293,4.43821,0.0],[-75.19198,4.43845,0.0],[-75.1908,4.43874,0.0],[-75.19003,4.43893,0.0],[-75.18847,4.43932,0.0],[-75.1873,4.43961,0.0],[-75.18674,4.43976,0.0],[-75.18673,4.43912,0.0],[-75.18674,4.43788,0.0],[-75.18675,4.43625,0.0],[-75.18675,4.43496,0.0],[-75.18673,4.43421,0.0],[-75.18661,4.43211,0.0],[-75.18646,4.43039,0.0],[-75.18635,4.42884,0.0],[-75.18617,4.42621,0.0],[-75.1861,4.42524,0.0]]]]}},{"type":"Feature","properties":{"uesi_id":"COL_R13473965","nbhd_code":"COL_R13473965_13","nbhd_name":"Comuna 10 - Estadio"},"geometry":{"type":"MultiPolygon","coordinates":[[[[-75.20726,4.42377,0.0],[-75.20733,4.42376,0.0],[-75.2074,4.42377,0.0],[-75.20889,4.42403,0.0],[-75.20927,4.42409,0.0],[-75.2096,4.42419,0.0],[-75.21006,4.42444,0.0],[-75.21031,4.42451,0.0],[-75.21071,4.42454,0.0],[-75.21102,4.42452,0.0],[-75.21128,4.42447,0.0],[-75.21147,4.42441,0.0],[-75.21162,4.42442,0.0],[-75.21178,4.42446,0.0],[-75.21295,4.42513,0.0],[-75.21323,4.42523,0.0],[-75.21351,4.42527,0.0],[-75.21373,4.42526,0.0],[-75.21395,4.42522,0.0],[-75.21419,4.42511,0.0],[-75.21454,4.42488,0.0],[-75.21497,4.42459,0.0],[-75.2153,4.42443,0.0],[-75.21564,4.42431,0.0],[-75.21604,4.42522,0.0],[-75.21636,4.4259,0.0],[-75.21645,4.42626,0.0],[-75.21648,4.42691,0.0],[-75.21646,4.42722,0.0],[-75.21628,4.42756,0.0],[-75.21599,4.42786,0.0],[-75.21573,4.42811,0.0],[-75.21531,4.4283,0.0],[-75.21509,4.42843,0.0],[-75.21505,4.4286,0.0],[-75.21507,4.42866,0.0],[-75.21511,4.42886,0.0],[-75.21515,4.42893,0.0],[-75.21526,4.42906,0.0],[-75.21542,4.42918,0.0],[-75.21589,4.42917,0.0],[-75.21614,4.43014,0.0],[-75.21657,4.43002,0.0],[-75.21677,4.42995,0.0],[-75.21691,4.42985,0.0],[-75.21697,4.42978,0.0],[-75.21702,4.42972,0.0],[-75.21706,4.4294,0.0],[-75.21708,4.42918,0.0],[-75.21713,4.42903,0.0],[-75.21721,4.42889,0.0],[-75.21733,4.42874,0.0],[-75.21747,4.42861,0.0],[-75.2176,4.42855,0.0],[-75.21776,4.42849,0.0],[-75.2179,4.42847,0.0],[-75.21804,4.42847,0.0],[-75.21819,4.42851,0.0],[-75.21836,4.42857,0.0],[-75.21856,4.42872,0.0],[-75.21867,4.42885,0.0],[-75.21891,4.42902,0.0],[-75.21922,4.42924,0.0],[-75.21936,4.42929,0.0],[-75.21953,4.42928,0.0],[-75.21964,4.42923,0.0],[-75.21974,4.42915,0.0],[-75.21979,4.42909,0.0],[-75.21983,4.42903,0.0],[-75.22,4.42872,0.0],[-75.22006,4.42868,0.0],[-75.22018,4.42868,0.0],[-75.2203,4.42871,0.0],[-75.22047,4.42875,0.0],[-75.2207,4.4288,0.0],[-75.2208,4.42886,0.0],[-75.22107,4.42906,0.0],[-75.22135,4.42927,0.0],[-75.2214,4.42937,0.0],[-75.22147,4.42962,0.0],[-75.22179,4.42996,0.0],[-75.2219,4.43008,0.0],[-75.2222,4.43039,0.0],[-75.22242,4.43056,0.0],[-75.22263,4.43065,0.0],[-75.22284,4.43062,0.0],[-75.22301,4.43062,0.0],[-75.22316,4.43071,0.0],[-75.2233,4.43053,0.0],[-75.22354,4.43027,0.0],[-75.22373,4.43036,0.0],[-75.22415,4.43063,0.0],[-75.22446,4.43024,0.0],[-75.22464,4.42977,0.0],[-75.22475,4.42983,0.0],[-75.22636,4.43089,0.0],[-75.22709,4.43137,0.0],[-75.22807,4.43203,0.0],[-75.22897,4.4326,0.0],[-75.23008,4.43325,0.0],[-75.23106,4.43382,0.0],[-75.23055,4.43458,0.0],[-75.23008,4.43525,0.0],[-75.22955,4.4361,0.0],[-75.22884,4.43717,0.0],[-75.22821,4.43803,0.0],[-75.22802,4.43834,0.0],[-75.22795,4.43851,0.0],[-75.22789,4.43866,0.0],[-75.22766,4.43931,0.0],[-75.2274,4.44032,0.0],[-75.22639,4.44027,0.0],[-75.22602,4.44021,0.0],[-75.22539,4.44008,0.0],[-75.22433,4.43991,0.0],[-75.22342,4.43984,0.0],[-75.22255,4.43975,0.0],[-75.2215,4.43954,0.0],[-75.22117,4.43938,0.0],[-75.22073,4.4392,0.0],[-75.21981,4.43885,0.0],[-75.21941,4.43873,0.0],[-75.21851,4.43847,0.0],[-75.21743,4.43816,0.0],[-75.21699,4.43802,0.0],[-75.21629,4.43768,0.0],[-75.21535,4.43716,0.0],[-75.21371,4.43626,0.0],[-75.21235,4.43551,0.0],[-75.21166,4.43495,0.0],[-75.21117,4.43448,0.0],[-75.21094,4.43425,0.0],[-75.21075,4.43377,0.0],[-75.21071,4.43377,0.0],[-75.21067,4.43377,0.0],[-75.21063,4.43374,0.0],[-75.2106,4.43371,0.0],[-75.21058,4.43367,0.0],[-75.21058,4.43364,0.0],[-75.21054,4.43355,0.0],[-75.2104,4.4333,0.0],[-75.2099,4.43222,0.0],[-75.20977,4.43196,0.0],[-75.20955,4.4315,0.0],[-75.20937,4.43124,0.0],[-75.20919,4.43111,0.0],[-75.20901,4.43102,0.0],[-75.20904,4.43088,0.0],[-75.20903,4.43076,0.0],[-75.20884,4.43037,0.0],[-75.20864,4.42986,0.0],[-75.20827,4.42926,0.0],[-75.20797,4.42875,0.0],[-75.20765,4.42866,0.0],[-75.20753,4.42845,0.0],[-75.2074,4.42784,0.0],[-75.20733,4.42744,0.0],[-75.20731,4.42695,0.0],[-75.20731,4.42576,0.0],[-75.20729,4.42546,0.0],[-75.20727,4.42513,0.0],[-75.20728,4.42467,0.0],[-75.20728,4.42431,0.0],[-75.20726,4.42377,0.0]]]]}},{"type":"Feature","properties":{"uesi_id":"COL_R13473965","nbhd_code":"COL_R13473965_14","nbhd_name":"Comuna 12 - Ricaurte"},"geometry":{"type":"MultiPolygon","coordinates":[[[[-75.24347,4.43976,0.0],[-75.24334,4.43991,0.0],[-75.24282,4.44048,0.0],[-75.24251,4.44086,0.0],[-75.24224,4.4412,0.0],[-75.24215,4.44119,0.0],[-75.24195,4.44102,0.0],[-75.24162,4.44079,0.0],[-75.2414,4.44072,0.0],[-75.24099,4.44057,0.0],[-75.24081,4.44051,0.0],[-75.24064,4.44015,0.0],[-75.24032,4.43987,0.0],[-75.24012,4.43992,0.0],[-75.23994,4.4401,0.0],[-75.23949,4.44074,0.0],[-75.23939,4.44071,0.0],[-75.23868,4.43968,0.0],[-75.23814,4.43903,0.0],[-75.23788,4.43874,0.0],[-75.23754,4.43837,0.0],[-75.2372,4.43802,0.0],[-75.23632,4.4374,0.0],[-75.23586,4.43706,0.0],[-75.23582,4.437,0.0],[-75.2358,4.43694,0.0],[-75.23578,4.43679,0.0],[-75.23579,4.43663,0.0],[-75.23586,4.43647,0.0],[-75.23502,4.43614,0.0],[-75.23545,4.4352,0.0],[-75.23555,4.43498,0.0],[-75.23555,4.43493,0.0],[-75.23567,4.43477,0.0],[-75.23607,4.43499,0.0],[-75.23631,4.43489,0.0],[-75.23634,4.43463,0.0],[-75.2363,4.43447,0.0],[-75.23641,4.43438,0.0],[-75.23653,4.43433,0.0],[-75.23675,4.43425,0.0],[-75.23692,4.43399,0.0],[-75.23713,4.43377,0.0],[-75.23726,4.43361,0.0],[-75.23711,4.4334,0.0],[-75.23698,4.43276,0.0],[-75.23713,4.43213,0.0],[-75.23719,4.43194,0.0],[-75.23717,4.43182,0.0],[-75.23703,4.43155,0.0],[-75.23656,4.43122,0.0],[-75.23576,4.4306,0.0],[-75.23517,4.43014,0.0],[-75.23497,4.42994,0.0],[-75.23483,4.4297,0.0],[-75.23479,4.42952,0.0],[-75.23478,4.4294,0.0],[-75.23491,4.42896,0.0],[-75.23499,4.42862,0.0],[-75.23504,4.42819,0.0],[-75.23504,4.42768,0.0],[-75.235,4.42739,0.0],[-75.23493,4.42715,0.0],[-75.23488,4.42706,0.0],[-75.23482,4.42693,0.0],[-75.23463,4.42662,0.0],[-75.23449,4.42638,0.0],[-75.23442,4.42626,0.0],[-75.23432,4.42601,0.0],[-75.23423,4.42588,0.0],[-75.23409,4.42578,0.0],[-75.234,4.42569,0.0],[-75.2338,4.42556,0.0],[-75.23392,4.42546,0.0],[-75.23416,4.42542,0.0],[-75.23426,4.42542,0.0],[-75.23464,4.42518,0.0],[-75.23486,4.42492,0.0],[-75.23531,4.42471,0.0],[-75.2358,4.42469,0.0],[-75.23641,4.4247,0.0],[-75.23682,4.42472,0.0],[-75.23722,4.42458,0.0],[-75.23748,4.42437,0.0],[-75.23775,4.42429,0.0],[-75.23804,4.42428,0.0],[-75.23879,4.42427,0.0],[-75.23895,4.42435,0.0],[-75.23924,4.42431,0.0],[-75.23946,4.42404,0.0],[-75.2397,4.42359,0.0],[-75.23999,4.42314,0.0],[-75.24028,4.42274,0.0],[-75.24064,4.4225,0.0],[-75.24097,4.42239,0.0],[-75.24128,4.42259,0.0],[-75.24134,4.42293,0.0],[-75.24143,4.4231,0.0],[-75.24155,4.42333,0.0],[-75.24161,4.42361,0.0],[-75.24161,4.42372,0.0],[-75.2416,4.42401,0.0],[-75.24151,4.42432,0.0],[-75.24176,4.42453,0.0],[-75.24204,4.42448,0.0],[-75.2423,4.42457,0.0],[-75.24265,4.42501,0.0],[-75.24331,4.42545,0.0],[-75.24336,4.42589,0.0],[-75.24313,4.42619,0.0],[-75.24315,4.42638,0.0],[-75.24315,4.42643,0.0],[-75.24319,4.42645,0.0],[-75.24322,4.42646,0.0],[-75.24323,4.42647,0.0],[-75.24325,4.42652,0.0],[-75.24329,4.42652,0.0],[-75.24343,4.4265,0.0],[-75.24369,4.42643,0.0],[-75.24382,4.4264,0.0],[-75.24385,4.42638,0.0],[-75.24388,4.42634,0.0],[-75.24406,4.42622,0.0],[-75.2441,4.42605,0.0],[-75.24421,4.42589,0.0],[-75.24434,4.42582,0.0],[-75.24458,4.42582,0.0],[-75.24486,4.42589,0.0],[-75.24511,4.42608,0.0],[-75.24524,4.42618,0.0],[-75.24527,4.42621,0.0],[-75.24559,4.42643,0.0],[-75.24591,4.42662,0.0],[-75.24632,4.42676,0.0],[-75.2468,4.42687,0.0],[-75.24718,4.42695,0.0],[-75.24724,4.42697,0.0],[-75.24756,4.4271,0.0],[-75.24772,4.42708,0.0],[-75.24789,4.42711,0.0],[-75.24802,4.4271,0.0],[-75.24811,4.42709,0.0],[-75.2482,4.42705,0.0],[-75.24827,4.427,0.0],[-75.24838,4.42703,0.0],[-75.2485,4.42709,0.0],[-75.24878,4.42725,0.0],[-75.24885,4.42726,0.0],[-75.24923,4.42802,0.0],[-75.24999,4.42812,0.0],[-75.25021,4.42846,0.0],[-75.25059,4.42882,0.0],[-75.25099,4.42936,0.0],[-75.25156,4.43046,0.0],[-75.25167,4.43106,0.0],[-75.25131,4.43093,0.0],[-75.25097,4.43105,0.0],[-75.25066,4.43132,0.0],[-75.25059,4.43042,0.0],[-75.25015,4.43058,0.0],[-75.24947,4.43056,0.0],[-75.24909,4.43026,0.0],[-75.24866,4.43021,0.0],[-75.24767,4.42996,0.0],[-75.24722,4.4295,0.0],[-75.24701,4.42951,0.0],[-75.24699,4.43007,0.0],[-75.24743,4.43059,0.0],[-75.24808,4.4306,0.0],[-75.24863,4.43091,0.0],[-75.24871,4.43132,0.0],[-75.24862,4.43152,0.0],[-75.24837,4.43175,0.0],[-75.2484,4.43222,0.0],[-75.24796,4.43242,0.0],[-75.24736,4.43201,0.0],[-75.24669,4.43201,0.0],[-75.24659,4.43249,0.0],[-75.24633,4.43256,0.0],[-75.24613,4.43255,0.0],[-75.24606,4.43295,0.0],[-75.24592,4.43346,0.0],[-75.24586,4.43367,0.0],[-75.24594,4.43372,0.0],[-75.24606,4.43377,0.0],[-75.24613,4.43384,0.0],[-75.24625,4.4341,0.0],[-75.24634,4.43417,0.0],[-75.24667,4.43442,0.0],[-75.2467,4.43445,0.0],[-75.24735,4.43526,0.0],[-75.24742,4.43532,0.0],[-75.24772,4.43528,0.0],[-75.24817,4.43575,0.0],[-75.24788,4.43612,0.0],[-75.24751,4.43615,0.0],[-75.24744,4.4362,0.0],[-75.24737,4.43642,0.0],[-75.24733,4.43697,0.0],[-75.24757,4.43721,0.0],[-75.24761,4.43755,0.0],[-75.24747,4.43753,0.0],[-75.24739,4.43738,0.0],[-75.24714,4.43721,0.0],[-75.24708,4.43712,0.0],[-75.24708,4.43678,0.0],[-75.24701,4.43642,0.0],[-75.24684,4.4364,0.0],[-75.24664,4.43661,0.0],[-75.24637,4.43698,0.0],[-75.24626,4.43706,0.0],[-75.2462,4.43703,0.0],[-75.24614,4.43663,0.0],[-75.24602,4.43631,0.0],[-75.24597,4.43619,0.0],[-75.24517,4.43744,0.0],[-75.24511,4.43753,0.0],[-75.24504,4.43763,0.0],[-75.24462,4.43828,0.0],[-75.24363,4.43951,0.0],[-75.24347,4.43976,0.0]]]]}},{"type":"Feature","properties":{"uesi_id":"COL_R13473965","nbhd_code":"COL_R13473965_15","nbhd_name":"Comuna 13 - Boquer\u00f3n"},"geometry":{"type":"MultiPolygon","coordinates":[[[[-75.25156,4.43046,0.0],[-75.25099,4.42936,0.0],[-75.25059,4.42882,0.0],[-75.25021,4.42846,0.0],[-75.24999,4.42812,0.0],[-75.24923,4.42802,0.0],[-75.24885,4.42726,0.0],[-75.24878,4.42725,0.0],[-75.2485,4.42709,0.0],[-75.24838,4.42703,0.0],[-75.24827,4.427,0.0],[-75.2482,4.42705,0.0],[-75.24811,4.42709,0.0],[-75.24802,4.4271,0.0],[-75.24789,4.42711,0.0],[-75.24772,4.42708,0.0],[-75.24756,4.4271,0.0],[-75.24724,4.42697,0.0],[-75.24718,4.42695,0.0],[-75.2468,4.42687,0.0],[-75.24632,4.42676,0.0],[-75.24591,4.42662,0.0],[-75.24559,4.42643,0.0],[-75.24527,4.42621,0.0],[-75.24524,4.42618,0.0],[-75.24511,4.42608,0.0],[-75.24486,4.42589,0.0],[-75.24458,4.42582,0.0],[-75.24434,4.42582,0.0],[-75.24421,4.42589,0.0],[-75.2441,4.42605,0.0],[-75.24406,4.42622,0.0],[-75.24388,4.42634,0.0],[-75.24385,4.42638,0.0],[-75.24382,4.4264,0.0],[-75.24369,4.42643,0.0],[-75.24343,4.4265,0.0],[-75.24329,4.42652,0.0],[-75.24325,4.42652,0.0],[-75.24323,4.42647,0.0],[-75.24322,4.42646,0.0],[-75.24319,4.42645,0.0],[-75.24315,4.42643,0.0],[-75.24315,4.42638,0.0],[-75.24313,4.42619,0.0],[-75.24336,4.42589,0.0],[-75.24331,4.42545,0.0],[-75.24265,4.42501,0.0],[-75.2423,4.42457,0.0],[-75.24204,4.42448,0.0],[-75.24176,4.42453,0.0],[-75.24151,4.42432,0.0],[-75.2416,4.42401,0.0],[-75.24161,4.42372,0.0],[-75.24161,4.42361,0.0],[-75.24155,4.42333,0.0],[-75.24143,4.4231,0.0],[-75.24134,4.42293,0.0],[-75.24128,4.42259,0.0],[-75.24188,4.42264,0.0],[-75.24247,4.42266,0.0],[-75.24278,4.42266,0.0],[-75.24326,4.42251,0.0],[-75.24379,4.42246,0.0],[-75.24408,4.42225,0.0],[-75.24469,4.42171,0.0],[-75.24505,4.42136,0.0],[-75.24507,4.42097,0.0],[-75.24542,4.42071,0.0],[-75.24586,4.42044,0.0],[-75.24623,4.42012,0.0],[-75.24656,4.41973,0.0],[-75.24708,4.41955,0.0],[-75.24777,4.419,0.0],[-75.24784,4.41868,0.0],[-75.24804,4.41823,0.0],[-75.2484,4.41803,0.0],[-75.24855,4.4179,0.0],[-75.24875,4.41766,0.0],[-75.2491,4.41754,0.0],[-75.24937,4.4172,0.0],[-75.24959,4.41692,0.0],[-75.25,4.41678,0.0],[-75.25033,4.41668,0.0],[-75.25055,4.41651,0.0],[-75.25053,4.41628,0.0],[-75.25038,4.4161,0.0],[-75.25023,4.41578,0.0],[-75.25025,4.41555,0.0],[-75.25034,4.41509,0.0],[-75.25063,4.41456,0.0],[-75.25111,4.41421,0.0],[-75.25114,4.41388,0.0],[-75.2512,4.41372,0.0],[-75.2514,4.41357,0.0],[-75.25163,4.41362,0.0],[-75.25172,4.41386,0.0],[-75.25172,4.41408,0.0],[-75.25185,4.41431,0.0],[-75.25216,4.41437,0.0],[-75.25249,4.41432,0.0],[-75.25291,4.41392,0.0],[-75.25341,4.41355,0.0],[-75.25369,4.41339,0.0],[-75.25378,4.41318,0.0],[-75.25408,4.4133,0.0],[-75.25436,4.4134,0.0],[-75.25466,4.41327,0.0],[-75.2548,4.41339,0.0],[-75.25491,4.41343,0.0],[-75.25498,4.41361,0.0],[-75.25477,4.41366,0.0],[-75.25456,4.41377,0.0],[-75.25446,4.41396,0.0],[-75.25453,4.41422,0.0],[-75.25447,4.41453,0.0],[-75.25438,4.41494,0.0],[-75.25438,4.41517,0.0],[-75.25445,4.41536,0.0],[-75.25467,4.41562,0.0],[-75.25487,4.41572,0.0],[-75.25503,4.41576,0.0],[-75.25514,4.41576,0.0],[-75.25544,4.41561,0.0],[-75.2558,4.41542,0.0],[-75.2562,4.41537,0.0],[-75.25635,4.41539,0.0],[-75.25656,4.41542,0.0],[-75.2567,4.41547,0.0],[-75.25688,4.41544,0.0],[-75.2572,4.41532,0.0],[-75.25748,4.4151,0.0],[-75.25777,4.41475,0.0],[-75.25809,4.41441,0.0],[-75.25873,4.41412,0.0],[-75.25958,4.41366,0.0],[-75.25984,4.41358,0.0],[-75.25999,4.41358,0.0],[-75.26034,4.41332,0.0],[-75.26042,4.41318,0.0],[-75.26054,4.41275,0.0],[-75.26095,4.41244,0.0],[-75.26139,4.41211,0.0],[-75.26188,4.41176,0.0],[-75.26217,4.41134,0.0],[-75.26248,4.41076,0.0],[-75.2628,4.41044,0.0],[-75.26334,4.41019,0.0],[-75.26372,4.40989,0.0],[-75.26401,4.40953,0.0],[-75.26436,4.40936,0.0],[-75.26472,4.4093,0.0],[-75.26479,4.409,0.0],[-75.26476,4.4087,0.0],[-75.26482,4.40855,0.0],[-75.26484,4.40828,0.0],[-75.265,4.40818,0.0],[-75.2651,4.40824,0.0],[-75.26519,4.40876,0.0],[-75.26524,4.40904,0.0],[-75.26515,4.40931,0.0],[-75.2651,4.40949,0.0],[-75.26524,4.40956,0.0],[-75.26535,4.40939,0.0],[-75.26559,4.40928,0.0],[-75.26585,4.40933,0.0],[-75.26612,4.40926,0.0],[-75.26632,4.40916,0.0],[-75.26643,4.41354,0.0],[-75.26612,4.41412,0.0],[-75.26598,4.41466,0.0],[-75.26627,4.41509,0.0],[-75.2664,4.41561,0.0],[-75.26648,4.41606,0.0],[-75.26648,4.41641,0.0],[-75.2663,4.41675,0.0],[-75.26582,4.41608,0.0],[-75.26573,4.41563,0.0],[-75.26545,4.41526,0.0],[-75.26501,4.416,0.0],[-75.26466,4.41619,0.0],[-75.26435,4.41648,0.0],[-75.26398,4.41667,0.0],[-75.26367,4.41665,0.0],[-75.26304,4.41686,0.0],[-75.26287,4.41707,0.0],[-75.26242,4.4175,0.0],[-75.26242,4.41791,0.0],[-75.26245,4.41838,0.0],[-75.26222,4.41905,0.0],[-75.26201,4.41971,0.0],[-75.2617,4.41994,0.0],[-75.26157,4.42014,0.0],[-75.26137,4.42022,0.0],[-75.26105,4.42034,0.0],[-75.26073,4.42046,0.0],[-75.26074,4.42074,0.0],[-75.26069,4.42084,0.0],[-75.26054,4.42107,0.0],[-75.26027,4.42125,0.0],[-75.26026,4.42131,0.0],[-75.26034,4.42137,0.0],[-75.26057,4.42134,0.0],[-75.261,4.42137,0.0],[-75.26102,4.42145,0.0],[-75.26095,4.42153,0.0],[-75.26093,4.42173,0.0],[-75.26049,4.42174,0.0],[-75.26038,4.4218,0.0],[-75.26032,4.42194,0.0],[-75.26037,4.42246,0.0],[-75.26032,4.42253,0.0],[-75.26023,4.42253,0.0],[-75.25998,4.42241,0.0],[-75.25977,4.42259,0.0],[-75.25933,4.42244,0.0],[-75.25921,4.42249,0.0],[-75.25901,4.42249,0.0],[-75.25892,4.42255,0.0],[-75.25893,4.42274,0.0],[-75.25935,4.42323,0.0],[-75.25925,4.42331,0.0],[-75.2589,4.42334,0.0],[-75.25864,4.42345,0.0],[-75.25858,4.42346,0.0],[-75.25832,4.42321,0.0],[-75.25801,4.42309,0.0],[-75.25763,4.42281,0.0],[-75.25753,4.42268,0.0],[-75.2574,4.42226,0.0],[-75.25726,4.4222,0.0],[-75.25713,4.4223,0.0],[-75.25711,4.4225,0.0],[-75.25737,4.42333,0.0],[-75.25755,4.42342,0.0],[-75.25794,4.4234,0.0],[-75.25799,4.42361,0.0],[-75.25815,4.42368,0.0],[-75.2582,4.42377,0.0],[-75.25819,4.42384,0.0],[-75.25802,4.42402,0.0],[-75.25809,4.42434,0.0],[-75.25816,4.42437,0.0],[-75.25823,4.42433,0.0],[-75.25836,4.42411,0.0],[-75.25857,4.42414,0.0],[-75.25868,4.42412,0.0],[-75.25888,4.42395,0.0],[-75.25897,4.42392,0.0],[-75.25915,4.42404,0.0],[-75.25924,4.42404,0.0],[-75.25952,4.42399,0.0],[-75.25977,4.42404,0.0],[-75.26001,4.42392,0.0],[-75.26009,4.42399,0.0],[-75.26012,4.42421,0.0],[-75.26001,4.42466,0.0],[-75.2605,4.42479,0.0],[-75.26042,4.42486,0.0],[-75.26012,4.42486,0.0],[-75.25965,4.4246,0.0],[-75.25951,4.4246,0.0],[-75.25921,4.42474,0.0],[-75.25902,4.42489,0.0],[-75.25871,4.42493,0.0],[-75.25844,4.42534,0.0],[-75.25796,4.42575,0.0],[-75.25772,4.42625,0.0],[-75.25747,4.42664,0.0],[-75.25691,4.4273,0.0],[-75.25662,4.4274,0.0],[-75.25652,4.42743,0.0],[-75.25646,4.42746,0.0],[-75.25641,4.42748,0.0],[-75.25635,4.42752,0.0],[-75.25632,4.42755,0.0],[-75.25635,4.42761,0.0],[-75.25654,4.42769,0.0],[-75.25738,4.4277,0.0],[-75.25755,4.42776,0.0],[-75.25775,4.42791,0.0],[-75.25794,4.42815,0.0],[-75.25838,4.42834,0.0],[-75.25968,4.42822,0.0],[-75.25968,4.42848,0.0],[-75.26086,4.4286,0.0],[-75.26094,4.42892,0.0],[-75.26113,4.42915,0.0],[-75.26105,4.42921,0.0],[-75.26086,4.42916,0.0],[-75.26045,4.4289,0.0],[-75.26039,4.42892,0.0],[-75.26033,4.42953,0.0],[-75.25972,4.42951,0.0],[-75.25865,4.42966,0.0],[-75.25822,4.42961,0.0],[-75.25782,4.42937,0.0],[-75.25743,4.42905,0.0],[-75.25726,4.42902,0.0],[-75.25708,4.42905,0.0],[-75.25656,4.42896,0.0],[-75.25633,4.42884,0.0],[-75.25587,4.42826,0.0],[-75.25503,4.42775,0.0],[-75.25428,4.42761,0.0],[-75.25399,4.42895,0.0],[-75.254,4.43003,0.0],[-75.25397,4.43033,0.0],[-75.25377,4.43043,0.0],[-75.25349,4.43045,0.0],[-75.2524,4.43037,0.0],[-75.25156,4.43046,0.0]]]]}}]}