{"type":"FeatureCollection","name":"CRI_R4069041","crs":{"type":"name","properties":{"name":"urn:ogc:def:crs:OGC:1.3:CRS84"}},"features":[{"type":"Feature","properties":{"uesi_id":"CRI_R4069041","nbhd_code":"CRI_R4069041_123","nbhd_name":"ZAPOTE"},"geometry":{"type":"MultiPolygon","coordinates":[[[[-84.0465,9.9253,0.0],[-84.0505,9.9193,0.0],[-84.05068,9.91884,0.0],[-84.05087,9.91764,0.0],[-84.05094,9.91702,0.0],[-84.04951,9.91572,0.0],[-84.05002,9.91567,0.0],[-84.05065,9.91565,0.0],[-84.05093,9.91572,0.0],[-84.05122,9.91585,0.0],[-84.05136,9.91585,0.0],[-84.05156,9.91577,0.0],[-84.05164,9.91563,0.0],[-84.05162,9.91546,0.0],[-84.05161,9.91524,0.0],[-84.05165,9.91515,0.0],[-84.05231,9.91477,0.0],[-84.05252,9.91458,0.0],[-84.05253,9.91446,0.0],[-84.05245,9.91439,0.0],[-84.05229,9.91436,0.0],[-84.05214,9.91425,0.0],[-84.05201,9.91406,0.0],[-84.05203,9.9139,0.0],[-84.05216,9.91376,0.0],[-84.05235,9.91369,0.0],[-84.05266,9.91353,0.0],[-84.05281,9.91347,0.0],[-84.05295,9.91349,0.0],[-84.05327,9.91378,0.0],[-84.05351,9.91392,0.0],[-84.05381,9.91393,0.0],[-84.05395,9.91393,0.0],[-84.05405,9.91391,0.0],[-84.05406,9.91377,0.0],[-84.05402,9.91354,0.0],[-84.05398,9.91331,0.0],[-84.05404,9.91314,0.0],[-84.05421,9.91305,0.0],[-84.05435,9.91305,0.0],[-84.05455,9.91316,0.0],[-84.05466,9.91328,0.0],[-84.05467,9.91341,0.0],[-84.05461,9.91355,0.0],[-84.05447,9.91367,0.0],[-84.05453,9.91375,0.0],[-84.05464,9.91375,0.0],[-84.05477,9.91371,0.0],[-84.05499,9.91363,0.0],[-84.05516,9.9137,0.0],[-84.05518,9.91385,0.0],[-84.05511,9.91408,0.0],[-84.05513,9.91421,0.0],[-84.05521,9.91427,0.0],[-84.0553,9.91427,0.0],[-84.05546,9.91422,0.0],[-84.05575,9.91383,0.0],[-84.05584,9.91373,0.0],[-84.05598,9.91372,0.0],[-84.05623,9.91383,0.0],[-84.05644,9.91387,0.0],[-84.05658,9.91386,0.0],[-84.05671,9.91379,0.0],[-84.05699,9.91333,0.0],[-84.05717,9.91333,0.0],[-84.0575,9.91337,0.0],[-84.0576,9.91342,0.0],[-84.05763,9.91355,0.0],[-84.0576,9.91368,0.0],[-84.05746,9.91381,0.0],[-84.05742,9.91387,0.0],[-84.05753,9.91396,0.0],[-84.058,9.91428,0.0],[-84.05807,9.9143,0.0],[-84.05813,9.91429,0.0],[-84.0582,9.91424,0.0],[-84.05828,9.9141,0.0],[-84.05835,9.91399,0.0],[-84.05846,9.91393,0.0],[-84.05866,9.91387,0.0],[-84.0588,9.91377,0.0],[-84.05892,9.91372,0.0],[-84.05904,9.91372,0.0],[-84.05919,9.91383,0.0],[-84.05927,9.91389,0.0],[-84.05935,9.91389,0.0],[-84.0594,9.91387,0.0],[-84.05953,9.91373,0.0],[-84.05967,9.9133,0.0],[-84.05977,9.91312,0.0],[-84.05985,9.913,0.0],[-84.05994,9.91299,0.0],[-84.06006,9.91303,0.0],[-84.06024,9.91317,0.0],[-84.0605,9.91346,0.0],[-84.06068,9.91375,0.0],[-84.06082,9.91395,0.0],[-84.06119,9.91428,0.0],[-84.06164,9.91469,0.0],[-84.06194,9.91491,0.0],[-84.06207,9.91505,0.0],[-84.06219,9.91507,0.0],[-84.06229,9.91511,0.0],[-84.06242,9.91522,0.0],[-84.06257,9.9153,0.0],[-84.06269,9.9153,0.0],[-84.06287,9.91524,0.0],[-84.06316,9.91506,0.0],[-84.06338,9.91495,0.0],[-84.06351,9.91485,0.0],[-84.06368,9.91456,0.0],[-84.06385,9.91447,0.0],[-84.06407,9.91444,0.0],[-84.06427,9.91446,0.0],[-84.06444,9.91455,0.0],[-84.06456,9.91473,0.0],[-84.06466,9.9151,0.0],[-84.06473,9.9152,0.0],[-84.06479,9.91522,0.0],[-84.06496,9.91522,0.0],[-84.06515,9.91519,0.0],[-84.06538,9.91519,0.0],[-84.06556,9.91523,0.0],[-84.06569,9.91535,0.0],[-84.06579,9.91554,0.0],[-84.06586,9.91577,0.0],[-84.06598,9.91595,0.0],[-84.06613,9.91606,0.0],[-84.06631,9.9161,0.0],[-84.06656,9.91606,0.0],[-84.0668,9.91587,0.0],[-84.06704,9.9156,0.0],[-84.06717,9.91551,0.0],[-84.06728,9.91553,0.0],[-84.06738,9.91566,0.0],[-84.06748,9.91595,0.0],[-84.06761,9.91621,0.0],[-84.06775,9.91636,0.0],[-84.06789,9.9164,0.0],[-84.06804,9.91639,0.0],[-84.0682,9.91624,0.0],[-84.06835,9.91605,0.0],[-84.06853,9.91589,0.0],[-84.06873,9.91581,0.0],[-84.06895,9.91578,0.0],[-84.06917,9.91578,0.0],[-84.06932,9.91577,0.0],[-84.07121,9.91945,0.0],[-84.07153,9.92005,0.0],[-84.06592,9.92758,0.0],[-84.06572,9.92761,0.0],[-84.06557,9.9276,0.0],[-84.06542,9.92752,0.0],[-84.06525,9.92738,0.0],[-84.06509,9.92733,0.0],[-84.06487,9.92731,0.0],[-84.06461,9.92725,0.0],[-84.06434,9.92711,0.0],[-84.06402,9.92704,0.0],[-84.06359,9.92709,0.0],[-84.06333,9.92715,0.0],[-84.06289,9.92738,0.0],[-84.06272,9.92746,0.0],[-84.06255,9.92746,0.0],[-84.06238,9.92738,0.0],[-84.06223,9.92729,0.0],[-84.06211,9.92727,0.0],[-84.06194,9.92736,0.0],[-84.06143,9.92767,0.0],[-84.06114,9.92776,0.0],[-84.06077,9.92782,0.0],[-84.06043,9.92773,0.0],[-84.06011,9.92773,0.0],[-84.05963,9.92773,0.0],[-84.05932,9.9277,0.0],[-84.05924,9.92766,0.0],[-84.05911,9.92757,0.0],[-84.05906,9.92753,0.0],[-84.05888,9.92755,0.0],[-84.05871,9.92757,0.0],[-84.05858,9.92753,0.0],[-84.0584,9.92735,0.0],[-84.05828,9.92715,0.0],[-84.05814,9.92702,0.0],[-84.05784,9.92682,0.0],[-84.05735,9.92655,0.0],[-84.05701,9.92637,0.0],[-84.05675,9.92629,0.0],[-84.0565,9.92629,0.0],[-84.05629,9.92632,0.0],[-84.056,9.92647,0.0],[-84.05578,9.92686,0.0],[-84.05569,9.9269,0.0],[-84.05559,9.92689,0.0],[-84.05542,9.92675,0.0],[-84.05523,9.9266,0.0],[-84.05499,9.9265,0.0],[-84.05465,9.92645,0.0],[-84.05416,9.92625,0.0],[-84.05375,9.92617,0.0],[-84.05355,9.92606,0.0],[-84.05304,9.92594,0.0],[-84.05272,9.92581,0.0],[-84.05228,9.92567,0.0],[-84.05202,9.92552,0.0],[-84.05187,9.92548,0.0],[-84.05155,9.92527,0.0],[-84.05149,9.92515,0.0],[-84.05151,9.92477,0.0],[-84.05152,9.92424,0.0],[-84.05165,9.92395,0.0],[-84.05173,9.92369,0.0],[-84.05175,9.92349,0.0],[-84.05173,9.9232,0.0],[-84.05172,9.92294,0.0],[-84.05164,9.92267,0.0],[-84.0515,9.9225,0.0],[-84.05141,9.92243,0.0],[-84.05124,9.92241,0.0],[-84.05108,9.92246,0.0],[-84.05096,9.9225,0.0],[-84.05075,9.92266,0.0],[-84.05061,9.92277,0.0],[-84.05052,9.92287,0.0],[-84.05034,9.92283,0.0],[-84.05002,9.92285,0.0],[-84.04977,9.92297,0.0],[-84.04933,9.92335,0.0],[-84.04902,9.92375,0.0],[-84.04893,9.92393,0.0],[-84.04858,9.92407,0.0],[-84.04815,9.92432,0.0],[-84.0476,9.92459,0.0],[-84.04735,9.92478,0.0],[-84.04704,9.92501,0.0],[-84.0465,9.9253,0.0]]]]}},{"type":"Feature","properties":{"uesi_id":"CRI_R4069041","nbhd_code":"CRI_R4069041_124","nbhd_name":"MATA REDONDA"},"geometry":{"type":"MultiPolygon","coordinates":[[[[-84.09807,9.93589,0.0],[-84.09805,9.93472,0.0],[-84.098,9.9334,0.0],[-84.09805,9.93271,0.0],[-84.09819,9.93195,0.0],[-84.09837,9.93101,0.0],[-84.09848,9.93042,0.0],[-84.09852,9.92987,0.0],[-84.09867,9.92859,0.0],[-84.09876,9.92748,0.0],[-84.09882,9.92678,0.0],[-84.09886,9.92569,0.0],[-84.09913,9.92565,0.0],[-84.0996,9.92541,0.0],[-84.09986,9.92532,0.0],[-84.10014,9.92528,0.0],[-84.10036,9.92527,0.0],[-84.10051,9.9253,0.0],[-84.10083,9.92553,0.0],[-84.10101,9.92568,0.0],[-84.10113,9.92568,0.0],[-84.10131,9.92562,0.0],[-84.10151,9.9254,0.0],[-84.10163,9.9253,0.0],[-84.10186,9.9253,0.0],[-84.10204,9.92514,0.0],[-84.10226,9.92493,0.0],[-84.10244,9.92486,0.0],[-84.10264,9.92493,0.0],[-84.10278,9.92505,0.0],[-84.10292,9.92546,0.0],[-84.10304,9.92583,0.0],[-84.10322,9.92606,0.0],[-84.10344,9.92621,0.0],[-84.10359,9.92625,0.0],[-84.10384,9.92613,0.0],[-84.10421,9.92585,0.0],[-84.10446,9.92573,0.0],[-84.1048,9.92574,0.0],[-84.10517,9.92597,0.0],[-84.10544,9.92629,0.0],[-84.10566,9.92666,0.0],[-84.10584,9.92693,0.0],[-84.10608,9.92711,0.0],[-84.10627,9.92713,0.0],[-84.10646,9.9271,0.0],[-84.10674,9.9268,0.0],[-84.10696,9.92658,0.0],[-84.1071,9.92654,0.0],[-84.10725,9.92656,0.0],[-84.10738,9.92668,0.0],[-84.10741,9.9269,0.0],[-84.10737,9.92729,0.0],[-84.10733,9.92769,0.0],[-84.1074,9.92776,0.0],[-84.10753,9.92783,0.0],[-84.10772,9.92783,0.0],[-84.10792,9.92789,0.0],[-84.10818,9.92808,0.0],[-84.10837,9.92819,0.0],[-84.10854,9.92821,0.0],[-84.10869,9.92816,0.0],[-84.10879,9.92803,0.0],[-84.10879,9.92766,0.0],[-84.10881,9.92715,0.0],[-84.10888,9.92698,0.0],[-84.10897,9.9269,0.0],[-84.1091,9.9269,0.0],[-84.1093,9.92715,0.0],[-84.10958,9.92752,0.0],[-84.10975,9.92767,0.0],[-84.10985,9.92787,0.0],[-84.10998,9.92817,0.0],[-84.11007,9.92829,0.0],[-84.11038,9.92832,0.0],[-84.11147,9.92851,0.0],[-84.11214,9.92868,0.0],[-84.11258,9.92892,0.0],[-84.11277,9.92917,0.0],[-84.11282,9.92956,0.0],[-84.11286,9.92982,0.0],[-84.11299,9.93002,0.0],[-84.11319,9.93013,0.0],[-84.11366,9.93015,0.0],[-84.11384,9.93018,0.0],[-84.11397,9.93035,0.0],[-84.11413,9.93064,0.0],[-84.11427,9.93086,0.0],[-84.11436,9.9313,0.0],[-84.11451,9.93177,0.0],[-84.1146,9.93195,0.0],[-84.11472,9.93205,0.0],[-84.11481,9.93205,0.0],[-84.11499,9.93201,0.0],[-84.11518,9.93186,0.0],[-84.11534,9.93156,0.0],[-84.11544,9.93117,0.0],[-84.11549,9.9308,0.0],[-84.11557,9.93064,0.0],[-84.11573,9.93058,0.0],[-84.11593,9.93058,0.0],[-84.11628,9.93063,0.0],[-84.11647,9.93071,0.0],[-84.11693,9.93073,0.0],[-84.11737,9.93075,0.0],[-84.11763,9.93073,0.0],[-84.11787,9.93059,0.0],[-84.11808,9.93038,0.0],[-84.11836,9.93024,0.0],[-84.11846,9.93019,0.0],[-84.11855,9.9303,0.0],[-84.11886,9.93077,0.0],[-84.11892,9.93099,0.0],[-84.1189,9.93136,0.0],[-84.11896,9.93154,0.0],[-84.11907,9.93165,0.0],[-84.11922,9.93168,0.0],[-84.11941,9.93161,0.0],[-84.11958,9.93144,0.0],[-84.11989,9.93106,0.0],[-84.12042,9.93045,0.0],[-84.12095,9.92999,0.0],[-84.12118,9.92998,0.0],[-84.12132,9.93007,0.0],[-84.12151,9.93031,0.0],[-84.12174,9.93053,0.0],[-84.12203,9.93067,0.0],[-84.12223,9.93087,0.0],[-84.12232,9.93105,0.0],[-84.1223,9.93122,0.0],[-84.12221,9.93154,0.0],[-84.122,9.93234,0.0],[-84.12192,9.93264,0.0],[-84.12192,9.93306,0.0],[-84.12192,9.93361,0.0],[-84.12186,9.93382,0.0],[-84.12179,9.93404,0.0],[-84.12182,9.93436,0.0],[-84.12185,9.93452,0.0],[-84.12201,9.93471,0.0],[-84.12222,9.93477,0.0],[-84.12247,9.93471,0.0],[-84.12269,9.93452,0.0],[-84.1228,9.93446,0.0],[-84.1229,9.93448,0.0],[-84.12299,9.93453,0.0],[-84.12307,9.93464,0.0],[-84.12316,9.9349,0.0],[-84.12317,9.93526,0.0],[-84.12323,9.93558,0.0],[-84.12215,9.93558,0.0],[-84.1208,9.93556,0.0],[-84.11955,9.93564,0.0],[-84.11772,9.93597,0.0],[-84.11708,9.93614,0.0],[-84.11648,9.93622,0.0],[-84.11524,9.93624,0.0],[-84.11499,9.93624,0.0],[-84.11486,9.93624,0.0],[-84.11477,9.93788,0.0],[-84.1145,9.9382,0.0],[-84.11338,9.93982,0.0],[-84.11292,9.94045,0.0],[-84.11222,9.94152,0.0],[-84.11136,9.94269,0.0],[-84.11083,9.9434,0.0],[-84.11023,9.94398,0.0],[-84.11016,9.94383,0.0],[-84.10994,9.94374,0.0],[-84.10971,9.94375,0.0],[-84.1092,9.94394,0.0],[-84.10873,9.94411,0.0],[-84.10857,9.94415,0.0],[-84.10838,9.94412,0.0],[-84.10825,9.94402,0.0],[-84.10817,9.94377,0.0],[-84.10808,9.94365,0.0],[-84.10794,9.94363,0.0],[-84.10781,9.94368,0.0],[-84.1075,9.944,0.0],[-84.1073,9.94412,0.0],[-84.10705,9.94416,0.0],[-84.10681,9.94401,0.0],[-84.10659,9.9438,0.0],[-84.10641,9.94375,0.0],[-84.10618,9.94381,0.0],[-84.10582,9.94405,0.0],[-84.10542,9.9444,0.0],[-84.10531,9.94452,0.0],[-84.1052,9.94453,0.0],[-84.105,9.94438,0.0],[-84.10458,9.94405,0.0],[-84.1043,9.94396,0.0],[-84.10358,9.94386,0.0],[-84.10323,9.94386,0.0],[-84.10287,9.94392,0.0],[-84.10259,9.94409,0.0],[-84.10242,9.94428,0.0],[-84.10234,9.94449,0.0],[-84.10234,9.94479,0.0],[-84.10229,9.94495,0.0],[-84.10218,9.94511,0.0],[-84.10201,9.94515,0.0],[-84.10181,9.94518,0.0],[-84.10156,9.94509,0.0],[-84.10141,9.94497,0.0],[-84.1014,9.9448,0.0],[-84.10145,9.94432,0.0],[-84.1014,9.94407,0.0],[-84.10122,9.94387,0.0],[-84.10102,9.94376,0.0],[-84.10086,9.9438,0.0],[-84.10065,9.94394,0.0],[-84.1005,9.94414,0.0],[-84.10045,9.94444,0.0],[-84.10059,9.9448,0.0],[-84.10072,9.94508,0.0],[-84.10075,9.94525,0.0],[-84.10069,9.9454,0.0],[-84.10049,9.94556,0.0],[-84.10023,9.94581,0.0],[-84.10001,9.946,0.0],[-84.09982,9.94604,0.0],[-84.09963,9.94593,0.0],[-84.09955,9.9457,0.0],[-84.09968,9.94507,0.0],[-84.09969,9.94486,0.0],[-84.0996,9.94438,0.0],[-84.09954,9.94391,0.0],[-84.09947,9.9437,0.0],[-84.09927,9.94357,0.0],[-84.09903,9.94364,0.0],[-84.09876,9.94401,0.0],[-84.09852,9.94435,0.0],[-84.09835,9.94457,0.0],[-84.0982,9.94465,0.0],[-84.09827,9.94064,0.0],[-84.09815,9.93846,0.0],[-84.09811,9.93698,0.0],[-84.09807,9.93589,0.0]]]]}},{"type":"Feature","properties":{"uesi_id":"CRI_R4069041","nbhd_code":"CRI_R4069041_125","nbhd_name":"PAVAS"},"geometry":{"type":"MultiPolygon","coordinates":[[[[-84.11023,9.94398,0.0],[-84.11083,9.9434,0.0],[-84.11136,9.94269,0.0],[-84.11222,9.94152,0.0],[-84.11292,9.94045,0.0],[-84.11338,9.93982,0.0],[-84.1145,9.9382,0.0],[-84.11477,9.93788,0.0],[-84.11486,9.93624,0.0],[-84.11499,9.93624,0.0],[-84.11524,9.93624,0.0],[-84.11648,9.93622,0.0],[-84.11708,9.93614,0.0],[-84.11772,9.93597,0.0],[-84.11955,9.93564,0.0],[-84.1208,9.93556,0.0],[-84.12215,9.93558,0.0],[-84.12323,9.93558,0.0],[-84.12326,9.93579,0.0],[-84.12338,9.93599,0.0],[-84.12349,9.9361,0.0],[-84.12371,9.93621,0.0],[-84.12466,9.93624,0.0],[-84.12501,9.93633,0.0],[-84.12528,9.9364,0.0],[-84.12556,9.93654,0.0],[-84.12572,9.93671,0.0],[-84.1257,9.937,0.0],[-84.12571,9.93721,0.0],[-84.12586,9.93736,0.0],[-84.12605,9.93741,0.0],[-84.12642,9.93744,0.0],[-84.127,9.93749,0.0],[-84.12738,9.9375,0.0],[-84.12759,9.9376,0.0],[-84.12808,9.93785,0.0],[-84.12843,9.93804,0.0],[-84.1287,9.93808,0.0],[-84.12911,9.93807,0.0],[-84.13058,9.93806,0.0],[-84.13121,9.93807,0.0],[-84.13177,9.93823,0.0],[-84.13217,9.93827,0.0],[-84.13269,9.93825,0.0],[-84.13314,9.93828,0.0],[-84.13348,9.93839,0.0],[-84.13393,9.93857,0.0],[-84.13425,9.9387,0.0],[-84.13453,9.93877,0.0],[-84.13506,9.93897,0.0],[-84.13564,9.93908,0.0],[-84.13616,9.9391,0.0],[-84.13704,9.93905,0.0],[-84.13746,9.93903,0.0],[-84.13788,9.93911,0.0],[-84.13817,9.9392,0.0],[-84.13845,9.93942,0.0],[-84.13886,9.93971,0.0],[-84.13921,9.93989,0.0],[-84.13971,9.93998,0.0],[-84.14022,9.9403,0.0],[-84.1409,9.94067,0.0],[-84.14154,9.94104,0.0],[-84.14224,9.94142,0.0],[-84.14245,9.94147,0.0],[-84.1428,9.94156,0.0],[-84.14314,9.94169,0.0],[-84.14341,9.94181,0.0],[-84.14364,9.94199,0.0],[-84.14398,9.94236,0.0],[-84.14414,9.9427,0.0],[-84.14435,9.943,0.0],[-84.14464,9.94328,0.0],[-84.14486,9.94347,0.0],[-84.14491,9.9436,0.0],[-84.14491,9.94367,0.0],[-84.14489,9.94377,0.0],[-84.14473,9.94388,0.0],[-84.14451,9.94402,0.0],[-84.14434,9.94429,0.0],[-84.14432,9.94449,0.0],[-84.14439,9.9447,0.0],[-84.14455,9.94488,0.0],[-84.14473,9.94497,0.0],[-84.14506,9.94497,0.0],[-84.14539,9.94488,0.0],[-84.14562,9.94489,0.0],[-84.14602,9.94509,0.0],[-84.14634,9.94518,0.0],[-84.14684,9.9452,0.0],[-84.14703,9.94534,0.0],[-84.14721,9.94552,0.0],[-84.14725,9.94597,0.0],[-84.14734,9.94635,0.0],[-84.14742,9.94662,0.0],[-84.14763,9.9468,0.0],[-84.1479,9.94702,0.0],[-84.14827,9.94714,0.0],[-84.14885,9.94721,0.0],[-84.14968,9.94727,0.0],[-84.15002,9.94742,0.0],[-84.15045,9.9477,0.0],[-84.1508,9.94807,0.0],[-84.15103,9.94842,0.0],[-84.15122,9.9489,0.0],[-84.15132,9.94939,0.0],[-84.15138,9.95009,0.0],[-84.15145,9.95066,0.0],[-84.15159,9.95088,0.0],[-84.15191,9.95119,0.0],[-84.15238,9.95144,0.0],[-84.15304,9.95165,0.0],[-84.15351,9.95169,0.0],[-84.154,9.95174,0.0],[-84.15443,9.95182,0.0],[-84.1549,9.95203,0.0],[-84.15526,9.95225,0.0],[-84.15554,9.95265,0.0],[-84.15578,9.95307,0.0],[-84.15592,9.95334,0.0],[-84.15613,9.95361,0.0],[-84.15649,9.95391,0.0],[-84.15693,9.95418,0.0],[-84.15713,9.95431,0.0],[-84.1573,9.95451,0.0],[-84.15757,9.95495,0.0],[-84.15789,9.95529,0.0],[-84.15852,9.95568,0.0],[-84.15917,9.95593,0.0],[-84.15963,9.95594,0.0],[-84.1603,9.95584,0.0],[-84.16086,9.95583,0.0],[-84.16122,9.95588,0.0],[-84.16164,9.9561,0.0],[-84.16218,9.95644,0.0],[-84.1627,9.95685,0.0],[-84.16307,9.95704,0.0],[-84.16331,9.95709,0.0],[-84.16363,9.95707,0.0],[-84.16396,9.95694,0.0],[-84.16416,9.95688,0.0],[-84.16441,9.95692,0.0],[-84.1646,9.95697,0.0],[-84.16479,9.95709,0.0],[-84.16501,9.9573,0.0],[-84.16527,9.95768,0.0],[-84.16563,9.95825,0.0],[-84.16608,9.95909,0.0],[-84.16644,9.95983,0.0],[-84.16666,9.96037,0.0],[-84.16686,9.96079,0.0],[-84.16743,9.96152,0.0],[-84.16776,9.96222,0.0],[-84.168,9.96251,0.0],[-84.16835,9.96303,0.0],[-84.16846,9.9634,0.0],[-84.16851,9.96366,0.0],[-84.16818,9.96359,0.0],[-84.16765,9.96347,0.0],[-84.16723,9.96326,0.0],[-84.1663,9.96311,0.0],[-84.16529,9.96301,0.0],[-84.16436,9.96301,0.0],[-84.16379,9.96315,0.0],[-84.16288,9.96342,0.0],[-84.16243,9.96359,0.0],[-84.16199,9.96368,0.0],[-84.16159,9.96379,0.0],[-84.16107,9.96372,0.0],[-84.1605,9.96358,0.0],[-84.15975,9.96349,0.0],[-84.15919,9.96346,0.0],[-84.15884,9.96348,0.0],[-84.15853,9.96361,0.0],[-84.15818,9.96369,0.0],[-84.1579,9.96366,0.0],[-84.1573,9.96343,0.0],[-84.15687,9.96333,0.0],[-84.15643,9.96322,0.0],[-84.15597,9.96291,0.0],[-84.15546,9.9623,0.0],[-84.15499,9.9616,0.0],[-84.1547,9.96119,0.0],[-84.15447,9.96086,0.0],[-84.15418,9.96045,0.0],[-84.1536,9.95999,0.0],[-84.15314,9.95966,0.0],[-84.1527,9.95948,0.0],[-84.15195,9.95938,0.0],[-84.15141,9.95933,0.0],[-84.15113,9.9592,0.0],[-84.15069,9.95887,0.0],[-84.15024,9.9585,0.0],[-84.14984,9.9583,0.0],[-84.14948,9.95818,0.0],[-84.14919,9.95814,0.0],[-84.14868,9.95825,0.0],[-84.14825,9.95852,0.0],[-84.14762,9.95921,0.0],[-84.14687,9.95981,0.0],[-84.14632,9.96014,0.0],[-84.14599,9.96026,0.0],[-84.14533,9.96034,0.0],[-84.14467,9.96033,0.0],[-84.14413,9.9604,0.0],[-84.1435,9.96045,0.0],[-84.14289,9.96041,0.0],[-84.14226,9.96033,0.0],[-84.14154,9.96033,0.0],[-84.14111,9.96031,0.0],[-84.14087,9.96026,0.0],[-84.14062,9.96026,0.0],[-84.14019,9.96041,0.0],[-84.13928,9.96068,0.0],[-84.13856,9.96085,0.0],[-84.13797,9.96101,0.0],[-84.1376,9.96106,0.0],[-84.13725,9.96098,0.0],[-84.13615,9.96059,0.0],[-84.13572,9.96044,0.0],[-84.13488,9.96042,0.0],[-84.13403,9.96041,0.0],[-84.13333,9.96034,0.0],[-84.13269,9.9602,0.0],[-84.13131,9.95965,0.0],[-84.13058,9.95934,0.0],[-84.13026,9.95925,0.0],[-84.12969,9.95917,0.0],[-84.12922,9.95899,0.0],[-84.1281,9.95847,0.0],[-84.12732,9.95807,0.0],[-84.12694,9.95777,0.0],[-84.12626,9.95724,0.0],[-84.12591,9.95691,0.0],[-84.12542,9.95657,0.0],[-84.12504,9.95634,0.0],[-84.12431,9.95605,0.0],[-84.12385,9.95577,0.0],[-84.12341,9.95551,0.0],[-84.12292,9.95521,0.0],[-84.12225,9.95492,0.0],[-84.12188,9.95476,0.0],[-84.12164,9.95451,0.0],[-84.12137,9.95395,0.0],[-84.12117,9.95341,0.0],[-84.12112,9.95314,0.0],[-84.12115,9.95267,0.0],[-84.12122,9.95204,0.0],[-84.12139,9.95145,0.0],[-84.12152,9.95115,0.0],[-84.12159,9.95091,0.0],[-84.1216,9.95054,0.0],[-84.12157,9.95023,0.0],[-84.12146,9.94999,0.0],[-84.12105,9.94956,0.0],[-84.12067,9.94925,0.0],[-84.12055,9.94917,0.0],[-84.12047,9.94902,0.0],[-84.12047,9.94877,0.0],[-84.12044,9.94855,0.0],[-84.12032,9.94841,0.0],[-84.12008,9.94818,0.0],[-84.11983,9.94794,0.0],[-84.11963,9.94782,0.0],[-84.11929,9.94765,0.0],[-84.11894,9.94739,0.0],[-84.11871,9.94713,0.0],[-84.11839,9.94691,0.0],[-84.11802,9.94675,0.0],[-84.11766,9.94665,0.0],[-84.11736,9.94662,0.0],[-84.11693,9.94677,0.0],[-84.11659,9.9469,0.0],[-84.11612,9.94698,0.0],[-84.11578,9.94688,0.0],[-84.11552,9.94666,0.0],[-84.11528,9.94651,0.0],[-84.11506,9.94626,0.0],[-84.11485,9.94608,0.0],[-84.11459,9.94598,0.0],[-84.11419,9.94585,0.0],[-84.1139,9.94557,0.0],[-84.11367,9.94521,0.0],[-84.1135,9.94494,0.0],[-84.11334,9.94477,0.0],[-84.11321,9.94471,0.0],[-84.11299,9.94471,0.0],[-84.11279,9.94485,0.0],[-84.1126,9.94503,0.0],[-84.11242,9.94509,0.0],[-84.11216,9.94505,0.0],[-84.11176,9.94495,0.0],[-84.11137,9.9449,0.0],[-84.11102,9.94491,0.0],[-84.11065,9.94504,0.0],[-84.11044,9.94509,0.0],[-84.11021,9.94501,0.0],[-84.11013,9.94482,0.0],[-84.11013,9.94461,0.0],[-84.11017,9.94433,0.0],[-84.11019,9.94419,0.0],[-84.11023,9.94398,0.0]]]]}},{"type":"Feature","properties":{"uesi_id":"CRI_R4069041","nbhd_code":"CRI_R4069041_126","nbhd_name":"URUCA"},"geometry":{"type":"MultiPolygon","coordinates":[[[[-84.08859,9.94949,0.0],[-84.08869,9.94911,0.0],[-84.08873,9.94871,0.0],[-84.08879,9.94775,0.0],[-84.0888,9.94737,0.0],[-84.0888,9.94707,0.0],[-84.0889,9.94663,0.0],[-84.08895,9.94644,0.0],[-84.08845,9.9461,0.0],[-84.08767,9.94556,0.0],[-84.0871,9.94526,0.0],[-84.0866,9.94506,0.0],[-84.08625,9.94492,0.0],[-84.08589,9.94482,0.0],[-84.08552,9.9445,0.0],[-84.08525,9.94422,0.0],[-84.08537,9.94401,0.0],[-84.08557,9.94385,0.0],[-84.08574,9.94383,0.0],[-84.08596,9.94392,0.0],[-84.08631,9.94412,0.0],[-84.08661,9.94439,0.0],[-84.08687,9.9444,0.0],[-84.08718,9.94439,0.0],[-84.08761,9.9444,0.0],[-84.08799,9.94439,0.0],[-84.08816,9.94444,0.0],[-84.08822,9.94455,0.0],[-84.08826,9.94473,0.0],[-84.08838,9.94476,0.0],[-84.08851,9.94473,0.0],[-84.08876,9.94461,0.0],[-84.0889,9.94464,0.0],[-84.08918,9.94484,0.0],[-84.08948,9.94506,0.0],[-84.08977,9.94511,0.0],[-84.09018,9.94507,0.0],[-84.09056,9.94494,0.0],[-84.09114,9.94463,0.0],[-84.09149,9.94453,0.0],[-84.0916,9.94453,0.0],[-84.09168,9.94456,0.0],[-84.09174,9.9446,0.0],[-84.09178,9.94472,0.0],[-84.09179,9.9451,0.0],[-84.09179,9.94548,0.0],[-84.0919,9.94569,0.0],[-84.092,9.94579,0.0],[-84.09222,9.94579,0.0],[-84.09252,9.9456,0.0],[-84.09266,9.94531,0.0],[-84.09285,9.94494,0.0],[-84.09306,9.94469,0.0],[-84.09315,9.94459,0.0],[-84.09316,9.94431,0.0],[-84.0932,9.9442,0.0],[-84.09336,9.94414,0.0],[-84.09351,9.94414,0.0],[-84.09362,9.94417,0.0],[-84.09371,9.94445,0.0],[-84.09384,9.94452,0.0],[-84.09405,9.9445,0.0],[-84.09449,9.94438,0.0],[-84.09488,9.94426,0.0],[-84.09499,9.94414,0.0],[-84.09506,9.94394,0.0],[-84.09511,9.94352,0.0],[-84.09519,9.94334,0.0],[-84.09531,9.94324,0.0],[-84.09552,9.94323,0.0],[-84.09574,9.94327,0.0],[-84.09605,9.94352,0.0],[-84.09635,9.94388,0.0],[-84.09664,9.94425,0.0],[-84.09685,9.94432,0.0],[-84.09707,9.94432,0.0],[-84.09725,9.94426,0.0],[-84.0975,9.944,0.0],[-84.09766,9.94388,0.0],[-84.09774,9.94388,0.0],[-84.09784,9.94392,0.0],[-84.09789,9.94403,0.0],[-84.09789,9.94424,0.0],[-84.09787,9.9445,0.0],[-84.09799,9.94467,0.0],[-84.0982,9.94465,0.0],[-84.09835,9.94457,0.0],[-84.09852,9.94435,0.0],[-84.09876,9.94401,0.0],[-84.09903,9.94364,0.0],[-84.09927,9.94357,0.0],[-84.09947,9.9437,0.0],[-84.09954,9.94391,0.0],[-84.0996,9.94438,0.0],[-84.09969,9.94486,0.0],[-84.09968,9.94507,0.0],[-84.09955,9.9457,0.0],[-84.09963,9.94593,0.0],[-84.09982,9.94604,0.0],[-84.10001,9.946,0.0],[-84.10023,9.94581,0.0],[-84.10049,9.94556,0.0],[-84.10069,9.9454,0.0],[-84.10075,9.94525,0.0],[-84.10072,9.94508,0.0],[-84.10059,9.9448,0.0],[-84.10045,9.94444,0.0],[-84.1005,9.94414,0.0],[-84.10065,9.94394,0.0],[-84.10086,9.9438,0.0],[-84.10102,9.94376,0.0],[-84.10122,9.94387,0.0],[-84.1014,9.94407,0.0],[-84.10145,9.94432,0.0],[-84.1014,9.9448,0.0],[-84.10141,9.94497,0.0],[-84.10156,9.94509,0.0],[-84.10181,9.94518,0.0],[-84.10201,9.94515,0.0],[-84.10218,9.94511,0.0],[-84.10229,9.94495,0.0],[-84.10234,9.94479,0.0],[-84.10234,9.94449,0.0],[-84.10242,9.94428,0.0],[-84.10259,9.94409,0.0],[-84.10287,9.94392,0.0],[-84.10323,9.94386,0.0],[-84.10358,9.94386,0.0],[-84.1043,9.94396,0.0],[-84.10458,9.94405,0.0],[-84.105,9.94438,0.0],[-84.1052,9.94453,0.0],[-84.10531,9.94452,0.0],[-84.10542,9.9444,0.0],[-84.10582,9.94405,0.0],[-84.10618,9.94381,0.0],[-84.10641,9.94375,0.0],[-84.10659,9.9438,0.0],[-84.10681,9.94401,0.0],[-84.10705,9.94416,0.0],[-84.1073,9.94412,0.0],[-84.1075,9.944,0.0],[-84.10781,9.94368,0.0],[-84.10794,9.94363,0.0],[-84.10808,9.94365,0.0],[-84.10817,9.94377,0.0],[-84.10825,9.94402,0.0],[-84.10838,9.94412,0.0],[-84.10857,9.94415,0.0],[-84.10873,9.94411,0.0],[-84.1092,9.94394,0.0],[-84.10971,9.94375,0.0],[-84.10994,9.94374,0.0],[-84.11016,9.94383,0.0],[-84.11023,9.94398,0.0],[-84.11019,9.94419,0.0],[-84.11017,9.94433,0.0],[-84.11013,9.94461,0.0],[-84.11013,9.94482,0.0],[-84.11021,9.94501,0.0],[-84.11044,9.94509,0.0],[-84.11065,9.94504,0.0],[-84.11102,9.94491,0.0],[-84.11137,9.9449,0.0],[-84.11176,9.94495,0.0],[-84.11216,9.94505,0.0],[-84.11242,9.94509,0.0],[-84.1126,9.94503,0.0],[-84.11279,9.94485,0.0],[-84.11299,9.94471,0.0],[-84.11321,9.94471,0.0],[-84.11334,9.94477,0.0],[-84.1135,9.94494,0.0],[-84.11367,9.94521,0.0],[-84.1139,9.94557,0.0],[-84.11419,9.94585,0.0],[-84.11459,9.94598,0.0],[-84.11485,9.94608,0.0],[-84.11506,9.94626,0.0],[-84.11528,9.94651,0.0],[-84.11552,9.94666,0.0],[-84.11578,9.94688,0.0],[-84.11612,9.94698,0.0],[-84.11659,9.9469,0.0],[-84.11693,9.94677,0.0],[-84.11736,9.94662,0.0],[-84.11766,9.94665,0.0],[-84.11802,9.94675,0.0],[-84.11839,9.94691,0.0],[-84.11871,9.94713,0.0],[-84.11894,9.94739,0.0],[-84.11929,9.94765,0.0],[-84.11963,9.94782,0.0],[-84.11983,9.94794,0.0],[-84.12008,9.94818,0.0],[-84.12032,9.94841,0.0],[-84.12044,9.94855,0.0],[-84.12047,9.94877,0.0],[-84.12047,9.94902,0.0],[-84.12055,9.94917,0.0],[-84.12067,9.94925,0.0],[-84.12105,9.94956,0.0],[-84.12146,9.94999,0.0],[-84.12157,9.95023,0.0],[-84.1216,9.95054,0.0],[-84.12159,9.95091,0.0],[-84.12152,9.95115,0.0],[-84.12139,9.95145,0.0],[-84.12122,9.95204,0.0],[-84.12115,9.95267,0.0],[-84.12112,9.95314,0.0],[-84.12117,9.95341,0.0],[-84.12137,9.95395,0.0],[-84.12164,9.95451,0.0],[-84.12188,9.95476,0.0],[-84.12225,9.95492,0.0],[-84.12292,9.95521,0.0],[-84.12341,9.95551,0.0],[-84.12385,9.95577,0.0],[-84.12431,9.95605,0.0],[-84.12504,9.95634,0.0],[-84.12542,9.95657,0.0],[-84.12591,9.95691,0.0],[-84.12626,9.95724,0.0],[-84.12694,9.95777,0.0],[-84.12732,9.95807,0.0],[-84.1281,9.95847,0.0],[-84.12922,9.95899,0.0],[-84.12969,9.95917,0.0],[-84.13026,9.95925,0.0],[-84.13058,9.95934,0.0],[-84.13131,9.95965,0.0],[-84.13269,9.9602,0.0],[-84.13333,9.96034,0.0],[-84.13403,9.96041,0.0],[-84.13488,9.96042,0.0],[-84.13572,9.96044,0.0],[-84.13615,9.96059,0.0],[-84.13725,9.96098,0.0],[-84.1376,9.96106,0.0],[-84.13797,9.96101,0.0],[-84.13856,9.96085,0.0],[-84.13928,9.96068,0.0],[-84.14019,9.96041,0.0],[-84.14062,9.96026,0.0],[-84.14087,9.96026,0.0],[-84.14111,9.96031,0.0],[-84.14154,9.96033,0.0],[-84.14226,9.96033,0.0],[-84.14289,9.96041,0.0],[-84.1435,9.96045,0.0],[-84.14413,9.9604,0.0],[-84.14467,9.96033,0.0],[-84.14533,9.96034,0.0],[-84.14599,9.96026,0.0],[-84.14632,9.96014,0.0],[-84.14687,9.95981,0.0],[-84.14762,9.95921,0.0],[-84.14825,9.95852,0.0],[-84.14868,9.95825,0.0],[-84.14919,9.95814,0.0],[-84.14948,9.95818,0.0],[-84.14984,9.9583,0.0],[-84.15024,9.9585,0.0],[-84.15069,9.95887,0.0],[-84.15113,9.9592,0.0],[-84.15141,9.95933,0.0],[-84.15195,9.95938,0.0],[-84.1527,9.95948,0.0],[-84.15314,9.95966,0.0],[-84.1536,9.95999,0.0],[-84.15418,9.96045,0.0],[-84.15447,9.96086,0.0],[-84.1547,9.96119,0.0],[-84.15499,9.9616,0.0],[-84.15546,9.9623,0.0],[-84.15597,9.96291,0.0],[-84.15643,9.96322,0.0],[-84.15687,9.96333,0.0],[-84.1573,9.96343,0.0],[-84.1579,9.96366,0.0],[-84.15818,9.96369,0.0],[-84.15853,9.96361,0.0],[-84.15884,9.96348,0.0],[-84.15919,9.96346,0.0],[-84.15975,9.96349,0.0],[-84.1605,9.96358,0.0],[-84.16107,9.96372,0.0],[-84.16159,9.96379,0.0],[-84.16199,9.96368,0.0],[-84.16243,9.96359,0.0],[-84.16288,9.96342,0.0],[-84.16379,9.96315,0.0],[-84.16436,9.96301,0.0],[-84.16529,9.96301,0.0],[-84.1663,9.96311,0.0],[-84.16723,9.96326,0.0],[-84.16765,9.96347,0.0],[-84.16818,9.96359,0.0],[-84.16851,9.96366,0.0],[-84.16868,9.96386,0.0],[-84.169,9.96423,0.0],[-84.16949,9.96471,0.0],[-84.16993,9.96499,0.0],[-84.17038,9.96517,0.0],[-84.17087,9.96527,0.0],[-84.1715,9.96537,0.0],[-84.17182,9.96553,0.0],[-84.17222,9.96577,0.0],[-84.17256,9.96604,0.0],[-84.17307,9.96655,0.0],[-84.17349,9.96702,0.0],[-84.17438,9.96774,0.0],[-84.17497,9.96815,0.0],[-84.17522,9.96823,0.0],[-84.17545,9.96826,0.0],[-84.17601,9.96821,0.0],[-84.17663,9.96815,0.0],[-84.17725,9.96814,0.0],[-84.17778,9.9682,0.0],[-84.17827,9.96836,0.0],[-84.17888,9.96853,0.0],[-84.17936,9.96865,0.0],[-84.18033,9.96882,0.0],[-84.18008,9.96929,0.0],[-84.17979,9.9697,0.0],[-84.17949,9.97002,0.0],[-84.17917,9.97015,0.0],[-84.17878,9.97024,0.0],[-84.17851,9.97035,0.0],[-84.178,9.9707,0.0],[-84.17762,9.97109,0.0],[-84.17716,9.97147,0.0],[-84.17674,9.9717,0.0],[-84.17638,9.97183,0.0],[-84.17622,9.97188,0.0],[-84.17568,9.97199,0.0],[-84.17485,9.97199,0.0],[-84.17428,9.97195,0.0],[-84.17393,9.97195,0.0],[-84.1736,9.9718,0.0],[-84.17318,9.97134,0.0],[-84.17278,9.97073,0.0],[-84.17254,9.97052,0.0],[-84.17196,9.97004,0.0],[-84.1714,9.96953,0.0],[-84.17106,9.96909,0.0],[-84.1708,9.96856,0.0],[-84.17046,9.9679,0.0],[-84.17008,9.96727,0.0],[-84.16978,9.96668,0.0],[-84.16957,9.96634,0.0],[-84.16933,9.96604,0.0],[-84.16906,9.96581,0.0],[-84.16886,9.96575,0.0],[-84.16866,9.96578,0.0],[-84.16844,9.96589,0.0],[-84.16801,9.96643,0.0],[-84.16783,9.96664,0.0],[-84.16762,9.96671,0.0],[-84.16705,9.9667,0.0],[-84.16623,9.96662,0.0],[-84.16556,9.96654,0.0],[-84.16523,9.96643,0.0],[-84.16494,9.9663,0.0],[-84.16477,9.96624,0.0],[-84.16459,9.96627,0.0],[-84.16394,9.96654,0.0],[-84.1636,9.96661,0.0],[-84.16325,9.96657,0.0],[-84.16292,9.96625,0.0],[-84.16266,9.96612,0.0],[-84.16211,9.96625,0.0],[-84.16133,9.96663,0.0],[-84.16097,9.96675,0.0],[-84.1604,9.96679,0.0],[-84.15976,9.96687,0.0],[-84.15932,9.967,0.0],[-84.1588,9.96733,0.0],[-84.15821,9.96786,0.0],[-84.15776,9.96814,0.0],[-84.157,9.96855,0.0],[-84.15653,9.96879,0.0],[-84.15588,9.96891,0.0],[-84.15548,9.96885,0.0],[-84.15525,9.96868,0.0],[-84.15503,9.9682,0.0],[-84.15485,9.9677,0.0],[-84.15465,9.96727,0.0],[-84.15435,9.96684,0.0],[-84.15386,9.96644,0.0],[-84.15328,9.96612,0.0],[-84.15262,9.96571,0.0],[-84.15225,9.96552,0.0],[-84.15185,9.96544,0.0],[-84.15139,9.96536,0.0],[-84.15071,9.96514,0.0],[-84.14998,9.96482,0.0],[-84.14963,9.96465,0.0],[-84.14917,9.96443,0.0],[-84.14855,9.96422,0.0],[-84.14802,9.96419,0.0],[-84.14735,9.96426,0.0],[-84.14692,9.96419,0.0],[-84.14656,9.96384,0.0],[-84.14632,9.96342,0.0],[-84.14625,9.96305,0.0],[-84.14609,9.96272,0.0],[-84.14595,9.9625,0.0],[-84.14579,9.96231,0.0],[-84.14563,9.96226,0.0],[-84.14543,9.96226,0.0],[-84.14527,9.96229,0.0],[-84.14514,9.96242,0.0],[-84.14491,9.96272,0.0],[-84.14474,9.96306,0.0],[-84.14458,9.96326,0.0],[-84.14434,9.96335,0.0],[-84.14402,9.96335,0.0],[-84.14365,9.96332,0.0],[-84.14328,9.96322,0.0],[-84.14312,9.96318,0.0],[-84.14288,9.96319,0.0],[-84.1425,9.96321,0.0],[-84.14198,9.9634,0.0],[-84.14125,9.96373,0.0],[-84.14058,9.96418,0.0],[-84.14026,9.96438,0.0],[-84.14004,9.9644,0.0],[-84.13971,9.96436,0.0],[-84.13921,9.96424,0.0],[-84.13876,9.96405,0.0],[-84.13843,9.9639,0.0],[-84.13819,9.96387,0.0],[-84.13794,9.96396,0.0],[-84.13725,9.96467,0.0],[-84.13652,9.96548,0.0],[-84.13588,9.96608,0.0],[-84.13542,9.96642,0.0],[-84.1346,9.96699,0.0],[-84.13422,9.96727,0.0],[-84.13371,9.96751,0.0],[-84.13328,9.96751,0.0],[-84.13288,9.96741,0.0],[-84.13246,9.96725,0.0],[-84.13186,9.96685,0.0],[-84.13136,9.96643,0.0],[-84.13101,9.9662,0.0],[-84.13069,9.96604,0.0],[-84.13028,9.96602,0.0],[-84.12952,9.96613,0.0],[-84.12877,9.96631,0.0],[-84.12821,9.96632,0.0],[-84.12776,9.96616,0.0],[-84.1273,9.96582,0.0],[-84.12697,9.96548,0.0],[-84.12664,9.96521,0.0],[-84.12627,9.96515,0.0],[-84.12594,9.96518,0.0],[-84.12544,9.96511,0.0],[-84.12478,9.96494,0.0],[-84.12411,9.96454,0.0],[-84.1236,9.96412,0.0],[-84.12322,9.96385,0.0],[-84.1229,9.96367,0.0],[-84.12245,9.96367,0.0],[-84.12165,9.96365,0.0],[-84.12097,9.96357,0.0],[-84.12046,9.96342,0.0],[-84.12006,9.96319,0.0],[-84.11969,9.9629,0.0],[-84.1194,9.96272,0.0],[-84.11888,9.96262,0.0],[-84.11829,9.96244,0.0],[-84.11797,9.9623,0.0],[-84.11778,9.96219,0.0],[-84.11756,9.96219,0.0],[-84.11698,9.9623,0.0],[-84.11674,9.96229,0.0],[-84.11643,9.96219,0.0],[-84.1161,9.96217,0.0],[-84.11585,9.96215,0.0],[-84.11552,9.96201,0.0],[-84.11528,9.96181,0.0],[-84.11486,9.96125,0.0],[-84.11449,9.96064,0.0],[-84.11425,9.96012,0.0],[-84.11407,9.95984,0.0],[-84.1138,9.95966,0.0],[-84.11346,9.95962,0.0],[-84.11291,9.96001,0.0],[-84.11257,9.96021,0.0],[-84.11214,9.96064,0.0],[-84.11174,9.96089,0.0],[-84.11134,9.96102,0.0],[-84.11088,9.96098,0.0],[-84.11035,9.96097,0.0],[-84.10998,9.96106,0.0],[-84.10969,9.9613,0.0],[-84.10952,9.96154,0.0],[-84.10927,9.96189,0.0],[-84.10913,9.96212,0.0],[-84.10894,9.96219,0.0],[-84.10876,9.96215,0.0],[-84.10851,9.96194,0.0],[-84.10816,9.96144,0.0],[-84.1079,9.96097,0.0],[-84.10763,9.96068,0.0],[-84.10721,9.96034,0.0],[-84.10687,9.96012,0.0],[-84.10638,9.95984,0.0],[-84.10599,9.95947,0.0],[-84.10578,9.95912,0.0],[-84.10554,9.95846,0.0],[-84.10534,9.95788,0.0],[-84.10511,9.95747,0.0],[-84.10494,9.95723,0.0],[-84.10474,9.95709,0.0],[-84.10444,9.95706,0.0],[-84.1038,9.95723,0.0],[-84.10294,9.95742,0.0],[-84.10206,9.95772,0.0],[-84.10159,9.95789,0.0],[-84.10121,9.95795,0.0],[-84.10088,9.95795,0.0],[-84.10034,9.95783,0.0],[-84.09995,9.95769,0.0],[-84.09962,9.95747,0.0],[-84.09941,9.95733,0.0],[-84.09881,9.95722,0.0],[-84.09848,9.95705,0.0],[-84.09813,9.95686,0.0],[-84.09794,9.95667,0.0],[-84.09768,9.95645,0.0],[-84.09758,9.95627,0.0],[-84.09757,9.95604,0.0],[-84.09744,9.95576,0.0],[-84.09732,9.95562,0.0],[-84.09732,9.95528,0.0],[-84.09737,9.95503,0.0],[-84.09738,9.95479,0.0],[-84.09741,9.95466,0.0],[-84.09754,9.95454,0.0],[-84.09763,9.95437,0.0],[-84.09761,9.95419,0.0],[-84.09743,9.95405,0.0],[-84.09726,9.95393,0.0],[-84.09706,9.95362,0.0],[-84.09689,9.95329,0.0],[-84.09682,9.95313,0.0],[-84.09685,9.95282,0.0],[-84.097,9.95245,0.0],[-84.09706,9.9523,0.0],[-84.09709,9.95214,0.0],[-84.09706,9.95197,0.0],[-84.09682,9.95182,0.0],[-84.09641,9.9517,0.0],[-84.09606,9.95165,0.0],[-84.09573,9.95151,0.0],[-84.0955,9.95136,0.0],[-84.09533,9.95133,0.0],[-84.09512,9.95142,0.0],[-84.09492,9.95163,0.0],[-84.09475,9.95171,0.0],[-84.09459,9.9517,0.0],[-84.09443,9.95164,0.0],[-84.09422,9.95168,0.0],[-84.09402,9.95172,0.0],[-84.09384,9.9517,0.0],[-84.09358,9.95145,0.0],[-84.09321,9.95102,0.0],[-84.09305,9.95073,0.0],[-84.09292,9.95068,0.0],[-84.09276,9.95068,0.0],[-84.09264,9.95072,0.0],[-84.09256,9.95078,0.0],[-84.09242,9.95074,0.0],[-84.09227,9.95057,0.0],[-84.0921,9.95029,0.0],[-84.09191,9.95016,0.0],[-84.09174,9.95009,0.0],[-84.09156,9.95009,0.0],[-84.09142,9.95013,0.0],[-84.09131,9.95024,0.0],[-84.09123,9.95025,0.0],[-84.0911,9.95021,0.0],[-84.09098,9.95014,0.0],[-84.09063,9.95012,0.0],[-84.09026,9.94991,0.0],[-84.0899,9.94962,0.0],[-84.08959,9.94957,0.0],[-84.08883,9.94952,0.0],[-84.08859,9.94949,0.0]]]]}},{"type":"Feature","properties":{"uesi_id":"CRI_R4069041","nbhd_code":"CRI_R4069041_127","nbhd_name":"CATEDRAL"},"geometry":{"type":"MultiPolygon","coordinates":[[[[-84.06149,9.93199,0.0],[-84.06592,9.92758,0.0],[-84.07153,9.92005,0.0],[-84.07121,9.91945,0.0],[-84.06932,9.91577,0.0],[-84.0695,9.91564,0.0],[-84.06958,9.91548,0.0],[-84.06964,9.91533,0.0],[-84.06979,9.91526,0.0],[-84.06997,9.91526,0.0],[-84.07019,9.91531,0.0],[-84.0704,9.91529,0.0],[-84.07057,9.9152,0.0],[-84.07075,9.91519,0.0],[-84.07096,9.9153,0.0],[-84.07125,9.91549,0.0],[-84.07142,9.91559,0.0],[-84.07154,9.91559,0.0],[-84.07177,9.9155,0.0],[-84.07197,9.91521,0.0],[-84.07213,9.91504,0.0],[-84.07225,9.91498,0.0],[-84.07242,9.91498,0.0],[-84.07264,9.91512,0.0],[-84.07279,9.91538,0.0],[-84.07283,9.91566,0.0],[-84.07294,9.91576,0.0],[-84.07308,9.91582,0.0],[-84.07329,9.91582,0.0],[-84.07342,9.9159,0.0],[-84.07358,9.91605,0.0],[-84.07375,9.91611,0.0],[-84.07393,9.91613,0.0],[-84.07407,9.91624,0.0],[-84.07433,9.91626,0.0],[-84.07454,9.91626,0.0],[-84.07466,9.9162,0.0],[-84.07479,9.91613,0.0],[-84.07493,9.91612,0.0],[-84.07503,9.91618,0.0],[-84.07515,9.91643,0.0],[-84.07524,9.91675,0.0],[-84.07531,9.91718,0.0],[-84.07535,9.91762,0.0],[-84.07544,9.91813,0.0],[-84.07555,9.91845,0.0],[-84.0757,9.91877,0.0],[-84.07575,9.91897,0.0],[-84.07579,9.91931,0.0],[-84.07588,9.91956,0.0],[-84.07609,9.9198,0.0],[-84.07624,9.91985,0.0],[-84.07634,9.91983,0.0],[-84.07643,9.91978,0.0],[-84.07655,9.91961,0.0],[-84.07664,9.91957,0.0],[-84.07671,9.91955,0.0],[-84.07679,9.91963,0.0],[-84.07697,9.91987,0.0],[-84.07711,9.92003,0.0],[-84.07724,9.92012,0.0],[-84.07735,9.92012,0.0],[-84.07769,9.92004,0.0],[-84.07791,9.92004,0.0],[-84.07812,9.92012,0.0],[-84.07847,9.9203,0.0],[-84.07871,9.92036,0.0],[-84.07909,9.92032,0.0],[-84.07934,9.92036,0.0],[-84.0795,9.92042,0.0],[-84.07963,9.92041,0.0],[-84.07984,9.92043,0.0],[-84.08005,9.92043,0.0],[-84.08046,9.92068,0.0],[-84.08057,9.921,0.0],[-84.0807,9.92132,0.0],[-84.08051,9.92209,0.0],[-84.08037,9.92289,0.0],[-84.08006,9.9237,0.0],[-84.0798,9.9249,0.0],[-84.07966,9.92551,0.0],[-84.07959,9.92625,0.0],[-84.0795,9.92702,0.0],[-84.07944,9.92808,0.0],[-84.07922,9.93066,0.0],[-84.07914,9.93149,0.0],[-84.07898,9.93373,0.0],[-84.07895,9.93407,0.0],[-84.07812,9.93404,0.0],[-84.07724,9.93396,0.0],[-84.07643,9.93385,0.0],[-84.07465,9.93368,0.0],[-84.0738,9.93362,0.0],[-84.07257,9.9335,0.0],[-84.07169,9.93341,0.0],[-84.07084,9.93336,0.0],[-84.06993,9.93327,0.0],[-84.06903,9.93322,0.0],[-84.06885,9.93311,0.0],[-84.06833,9.9327,0.0],[-84.06763,9.93222,0.0],[-84.06716,9.93215,0.0],[-84.06648,9.93212,0.0],[-84.06544,9.93212,0.0],[-84.06467,9.93201,0.0],[-84.06397,9.93189,0.0],[-84.06329,9.93184,0.0],[-84.06245,9.93189,0.0],[-84.06149,9.93199,0.0]]]]}},{"type":"Feature","properties":{"uesi_id":"CRI_R4069041","nbhd_code":"CRI_R4069041_128","nbhd_name":"MERCED"},"geometry":{"type":"MultiPolygon","coordinates":[[[[-84.07836,9.94145,0.0],[-84.07853,9.94031,0.0],[-84.07859,9.93957,0.0],[-84.07869,9.93816,0.0],[-84.0788,9.93658,0.0],[-84.07888,9.93523,0.0],[-84.07895,9.93407,0.0],[-84.08041,9.93421,0.0],[-84.08224,9.93438,0.0],[-84.08471,9.93462,0.0],[-84.08765,9.9349,0.0],[-84.08899,9.93504,0.0],[-84.09241,9.93537,0.0],[-84.09328,9.93546,0.0],[-84.09647,9.93578,0.0],[-84.09807,9.93589,0.0],[-84.09811,9.93698,0.0],[-84.09815,9.93846,0.0],[-84.09827,9.94064,0.0],[-84.0982,9.94465,0.0],[-84.09799,9.94467,0.0],[-84.09787,9.9445,0.0],[-84.09789,9.94424,0.0],[-84.09789,9.94403,0.0],[-84.09784,9.94392,0.0],[-84.09774,9.94388,0.0],[-84.09766,9.94388,0.0],[-84.0975,9.944,0.0],[-84.09725,9.94426,0.0],[-84.09707,9.94432,0.0],[-84.09685,9.94432,0.0],[-84.09664,9.94425,0.0],[-84.09635,9.94388,0.0],[-84.09605,9.94352,0.0],[-84.09574,9.94327,0.0],[-84.09552,9.94323,0.0],[-84.09531,9.94324,0.0],[-84.09519,9.94334,0.0],[-84.09511,9.94352,0.0],[-84.09506,9.94394,0.0],[-84.09499,9.94414,0.0],[-84.09488,9.94426,0.0],[-84.09449,9.94438,0.0],[-84.09405,9.9445,0.0],[-84.09384,9.94452,0.0],[-84.09371,9.94445,0.0],[-84.09362,9.94417,0.0],[-84.09351,9.94414,0.0],[-84.09336,9.94414,0.0],[-84.0932,9.9442,0.0],[-84.09316,9.94431,0.0],[-84.09315,9.94459,0.0],[-84.09306,9.94469,0.0],[-84.09285,9.94494,0.0],[-84.09266,9.94531,0.0],[-84.09252,9.9456,0.0],[-84.09222,9.94579,0.0],[-84.092,9.94579,0.0],[-84.0919,9.94569,0.0],[-84.09179,9.94548,0.0],[-84.09179,9.9451,0.0],[-84.09178,9.94472,0.0],[-84.09174,9.9446,0.0],[-84.09168,9.94456,0.0],[-84.0916,9.94453,0.0],[-84.09149,9.94453,0.0],[-84.09114,9.94463,0.0],[-84.09056,9.94494,0.0],[-84.09018,9.94507,0.0],[-84.08977,9.94511,0.0],[-84.08948,9.94506,0.0],[-84.08918,9.94484,0.0],[-84.0889,9.94464,0.0],[-84.08876,9.94461,0.0],[-84.08851,9.94473,0.0],[-84.08838,9.94476,0.0],[-84.08826,9.94473,0.0],[-84.08822,9.94455,0.0],[-84.08816,9.94444,0.0],[-84.08799,9.94439,0.0],[-84.08761,9.9444,0.0],[-84.08718,9.94439,0.0],[-84.08687,9.9444,0.0],[-84.08661,9.94439,0.0],[-84.08631,9.94412,0.0],[-84.08596,9.94392,0.0],[-84.08574,9.94383,0.0],[-84.08557,9.94385,0.0],[-84.08537,9.94401,0.0],[-84.08525,9.94422,0.0],[-84.08519,9.94433,0.0],[-84.08519,9.94455,0.0],[-84.08516,9.94487,0.0],[-84.08502,9.94507,0.0],[-84.08484,9.94524,0.0],[-84.08472,9.94551,0.0],[-84.08467,9.94576,0.0],[-84.08451,9.94587,0.0],[-84.08438,9.94583,0.0],[-84.08422,9.94562,0.0],[-84.0841,9.94549,0.0],[-84.08392,9.94552,0.0],[-84.08368,9.94557,0.0],[-84.08353,9.94562,0.0],[-84.08333,9.94562,0.0],[-84.08318,9.94568,0.0],[-84.08303,9.94573,0.0],[-84.08276,9.94578,0.0],[-84.08257,9.94573,0.0],[-84.08242,9.94556,0.0],[-84.08235,9.94526,0.0],[-84.08231,9.94482,0.0],[-84.08222,9.94451,0.0],[-84.08208,9.94434,0.0],[-84.08193,9.94423,0.0],[-84.08175,9.94421,0.0],[-84.08165,9.94433,0.0],[-84.08153,9.94455,0.0],[-84.08137,9.94468,0.0],[-84.08119,9.94466,0.0],[-84.08104,9.94451,0.0],[-84.08104,9.94426,0.0],[-84.08101,9.9441,0.0],[-84.08095,9.94387,0.0],[-84.08087,9.94367,0.0],[-84.08084,9.94324,0.0],[-84.0809,9.94299,0.0],[-84.0811,9.94281,0.0],[-84.08124,9.94277,0.0],[-84.08158,9.94294,0.0],[-84.08191,9.94319,0.0],[-84.08208,9.94329,0.0],[-84.08221,9.94328,0.0],[-84.08236,9.94326,0.0],[-84.08247,9.94318,0.0],[-84.08261,9.94293,0.0],[-84.08263,9.9427,0.0],[-84.08262,9.94257,0.0],[-84.08253,9.94249,0.0],[-84.08226,9.94247,0.0],[-84.08206,9.94245,0.0],[-84.08188,9.94235,0.0],[-84.08183,9.94224,0.0],[-84.08182,9.94212,0.0],[-84.0819,9.94198,0.0],[-84.08212,9.94187,0.0],[-84.0822,9.94177,0.0],[-84.08226,9.94166,0.0],[-84.08222,9.94151,0.0],[-84.08202,9.94134,0.0],[-84.08197,9.94124,0.0],[-84.08005,9.94185,0.0],[-84.07973,9.94173,0.0],[-84.0793,9.94157,0.0],[-84.07899,9.94147,0.0],[-84.07874,9.94145,0.0],[-84.07836,9.94145,0.0]]]]}},{"type":"Feature","properties":{"uesi_id":"CRI_R4069041","nbhd_code":"CRI_R4069041_129","nbhd_name":"HATILLO"},"geometry":{"type":"MultiPolygon","coordinates":[[[[-84.09886,9.92569,0.0],[-84.09852,9.92562,0.0],[-84.0982,9.92553,0.0],[-84.09799,9.92536,0.0],[-84.09791,9.92509,0.0],[-84.09796,9.92475,0.0],[-84.09817,9.92425,0.0],[-84.09831,9.92389,0.0],[-84.09834,9.92372,0.0],[-84.09821,9.92361,0.0],[-84.09804,9.92359,0.0],[-84.0978,9.92363,0.0],[-84.09752,9.92376,0.0],[-84.09725,9.92402,0.0],[-84.09698,9.92443,0.0],[-84.09675,9.92453,0.0],[-84.09656,9.92456,0.0],[-84.09632,9.92449,0.0],[-84.09609,9.92449,0.0],[-84.0957,9.92449,0.0],[-84.0956,9.92439,0.0],[-84.09556,9.92424,0.0],[-84.0956,9.92405,0.0],[-84.09568,9.92389,0.0],[-84.09595,9.92365,0.0],[-84.0962,9.92344,0.0],[-84.09625,9.92325,0.0],[-84.09625,9.92309,0.0],[-84.09612,9.92286,0.0],[-84.09581,9.92267,0.0],[-84.09554,9.9226,0.0],[-84.0953,9.92255,0.0],[-84.0952,9.92246,0.0],[-84.09512,9.92231,0.0],[-84.09499,9.92195,0.0],[-84.09485,9.92168,0.0],[-84.09469,9.92164,0.0],[-84.09437,9.92162,0.0],[-84.09415,9.92148,0.0],[-84.09384,9.92122,0.0],[-84.09348,9.92094,0.0],[-84.09323,9.92083,0.0],[-84.09282,9.92079,0.0],[-84.09213,9.92076,0.0],[-84.0919,9.92043,0.0],[-84.09129,9.91975,0.0],[-84.0908,9.91937,0.0],[-84.09054,9.9193,0.0],[-84.09033,9.9193,0.0],[-84.09023,9.91941,0.0],[-84.09014,9.91967,0.0],[-84.09001,9.92004,0.0],[-84.08986,9.92012,0.0],[-84.08971,9.92013,0.0],[-84.08957,9.92008,0.0],[-84.08948,9.91984,0.0],[-84.08954,9.91958,0.0],[-84.08954,9.9194,0.0],[-84.08944,9.91929,0.0],[-84.08926,9.91929,0.0],[-84.08885,9.91929,0.0],[-84.08847,9.91925,0.0],[-84.08815,9.91914,0.0],[-84.08824,9.91878,0.0],[-84.08831,9.91841,0.0],[-84.08854,9.91736,0.0],[-84.08991,9.91418,0.0],[-84.09054,9.91454,0.0],[-84.09093,9.91479,0.0],[-84.0914,9.9135,0.0],[-84.09144,9.91311,0.0],[-84.09164,9.91225,0.0],[-84.09152,9.9122,0.0],[-84.09125,9.91208,0.0],[-84.09124,9.91193,0.0],[-84.09123,9.91182,0.0],[-84.0913,9.91096,0.0],[-84.09135,9.91004,0.0],[-84.09236,9.91004,0.0],[-84.09248,9.90895,0.0],[-84.0925,9.90892,0.0],[-84.09264,9.90871,0.0],[-84.09308,9.90834,0.0],[-84.09372,9.90834,0.0],[-84.09548,9.90719,0.0],[-84.09604,9.9067,0.0],[-84.09633,9.90617,0.0],[-84.09655,9.90617,0.0],[-84.09696,9.90604,0.0],[-84.0977,9.9056,0.0],[-84.09798,9.90557,0.0],[-84.0982,9.90559,0.0],[-84.09834,9.90566,0.0],[-84.09853,9.90583,0.0],[-84.09863,9.90605,0.0],[-84.09867,9.90631,0.0],[-84.09867,9.9067,0.0],[-84.09859,9.9069,0.0],[-84.09847,9.90723,0.0],[-84.09847,9.90752,0.0],[-84.09858,9.90771,0.0],[-84.09878,9.90785,0.0],[-84.09905,9.90795,0.0],[-84.09941,9.90803,0.0],[-84.0996,9.90805,0.0],[-84.09976,9.90811,0.0],[-84.09987,9.90827,0.0],[-84.09994,9.90868,0.0],[-84.10006,9.90907,0.0],[-84.10032,9.90932,0.0],[-84.10082,9.90947,0.0],[-84.10129,9.90947,0.0],[-84.10172,9.90934,0.0],[-84.10229,9.90889,0.0],[-84.10251,9.90883,0.0],[-84.10292,9.90888,0.0],[-84.10338,9.90897,0.0],[-84.10379,9.90906,0.0],[-84.10402,9.90922,0.0],[-84.10413,9.9094,0.0],[-84.10423,9.90969,0.0],[-84.10438,9.90986,0.0],[-84.10459,9.90995,0.0],[-84.10497,9.91001,0.0],[-84.10538,9.91006,0.0],[-84.10564,9.91017,0.0],[-84.10577,9.91024,0.0],[-84.10585,9.91038,0.0],[-84.10584,9.91053,0.0],[-84.10583,9.911,0.0],[-84.10585,9.91145,0.0],[-84.10597,9.91179,0.0],[-84.10622,9.91209,0.0],[-84.10653,9.91224,0.0],[-84.10696,9.91232,0.0],[-84.10743,9.91232,0.0],[-84.10791,9.91238,0.0],[-84.10816,9.91249,0.0],[-84.1084,9.91264,0.0],[-84.10851,9.91298,0.0],[-84.10864,9.91341,0.0],[-84.10879,9.91374,0.0],[-84.10896,9.91396,0.0],[-84.10926,9.91411,0.0],[-84.10957,9.91422,0.0],[-84.11011,9.91438,0.0],[-84.11031,9.9145,0.0],[-84.11046,9.91464,0.0],[-84.11053,9.91478,0.0],[-84.11056,9.91498,0.0],[-84.1106,9.91576,0.0],[-84.11067,9.91612,0.0],[-84.11084,9.91652,0.0],[-84.11102,9.91696,0.0],[-84.11129,9.91734,0.0],[-84.11164,9.91768,0.0],[-84.11208,9.918,0.0],[-84.11243,9.91833,0.0],[-84.11268,9.91859,0.0],[-84.11285,9.91893,0.0],[-84.11305,9.91945,0.0],[-84.11324,9.91997,0.0],[-84.11325,9.92022,0.0],[-84.11327,9.92076,0.0],[-84.11336,9.92095,0.0],[-84.11341,9.9212,0.0],[-84.1135,9.92145,0.0],[-84.11365,9.92177,0.0],[-84.11393,9.92223,0.0],[-84.11409,9.92257,0.0],[-84.11415,9.92286,0.0],[-84.11417,9.92324,0.0],[-84.1142,9.92379,0.0],[-84.11429,9.92412,0.0],[-84.11446,9.92443,0.0],[-84.11473,9.92482,0.0],[-84.11508,9.92533,0.0],[-84.11528,9.92571,0.0],[-84.11542,9.92613,0.0],[-84.11558,9.92645,0.0],[-84.11587,9.92678,0.0],[-84.11611,9.92702,0.0],[-84.1162,9.92719,0.0],[-84.11624,9.9274,0.0],[-84.11634,9.92757,0.0],[-84.11665,9.9279,0.0],[-84.1169,9.92822,0.0],[-84.11748,9.92909,0.0],[-84.11791,9.9297,0.0],[-84.11833,9.93004,0.0],[-84.11846,9.93019,0.0],[-84.11836,9.93024,0.0],[-84.11808,9.93038,0.0],[-84.11787,9.93059,0.0],[-84.11763,9.93073,0.0],[-84.11737,9.93075,0.0],[-84.11693,9.93073,0.0],[-84.11647,9.93071,0.0],[-84.11628,9.93063,0.0],[-84.11593,9.93058,0.0],[-84.11573,9.93058,0.0],[-84.11557,9.93064,0.0],[-84.11549,9.9308,0.0],[-84.11544,9.93117,0.0],[-84.11534,9.93156,0.0],[-84.11518,9.93186,0.0],[-84.11499,9.93201,0.0],[-84.11481,9.93205,0.0],[-84.11472,9.93205,0.0],[-84.1146,9.93195,0.0],[-84.11451,9.93177,0.0],[-84.11436,9.9313,0.0],[-84.11427,9.93086,0.0],[-84.11413,9.93064,0.0],[-84.11397,9.93035,0.0],[-84.11384,9.93018,0.0],[-84.11366,9.93015,0.0],[-84.11319,9.93013,0.0],[-84.11299,9.93002,0.0],[-84.11286,9.92982,0.0],[-84.11282,9.92956,0.0],[-84.11277,9.92917,0.0],[-84.11258,9.92892,0.0],[-84.11214,9.92868,0.0],[-84.11147,9.92851,0.0],[-84.11038,9.92832,0.0],[-84.11007,9.92829,0.0],[-84.10998,9.92817,0.0],[-84.10985,9.92787,0.0],[-84.10975,9.92767,0.0],[-84.10958,9.92752,0.0],[-84.1093,9.92715,0.0],[-84.1091,9.9269,0.0],[-84.10897,9.9269,0.0],[-84.10888,9.92698,0.0],[-84.10881,9.92715,0.0],[-84.10879,9.92766,0.0],[-84.10879,9.92803,0.0],[-84.10869,9.92816,0.0],[-84.10854,9.92821,0.0],[-84.10837,9.92819,0.0],[-84.10818,9.92808,0.0],[-84.10792,9.92789,0.0],[-84.10772,9.92783,0.0],[-84.10753,9.92783,0.0],[-84.1074,9.92776,0.0],[-84.10733,9.92769,0.0],[-84.10737,9.92729,0.0],[-84.10741,9.9269,0.0],[-84.10738,9.92668,0.0],[-84.10725,9.92656,0.0],[-84.1071,9.92654,0.0],[-84.10696,9.92658,0.0],[-84.10674,9.9268,0.0],[-84.10646,9.9271,0.0],[-84.10627,9.92713,0.0],[-84.10608,9.92711,0.0],[-84.10584,9.92693,0.0],[-84.10566,9.92666,0.0],[-84.10544,9.92629,0.0],[-84.10517,9.92597,0.0],[-84.1048,9.92574,0.0],[-84.10446,9.92573,0.0],[-84.10421,9.92585,0.0],[-84.10384,9.92613,0.0],[-84.10359,9.92625,0.0],[-84.10344,9.92621,0.0],[-84.10322,9.92606,0.0],[-84.10304,9.92583,0.0],[-84.10292,9.92546,0.0],[-84.10278,9.92505,0.0],[-84.10264,9.92493,0.0],[-84.10244,9.92486,0.0],[-84.10226,9.92493,0.0],[-84.10204,9.92514,0.0],[-84.10186,9.9253,0.0],[-84.10163,9.9253,0.0],[-84.10151,9.9254,0.0],[-84.10131,9.92562,0.0],[-84.10113,9.92568,0.0],[-84.10101,9.92568,0.0],[-84.10083,9.92553,0.0],[-84.10051,9.9253,0.0],[-84.10036,9.92527,0.0],[-84.10014,9.92528,0.0],[-84.09986,9.92532,0.0],[-84.0996,9.92541,0.0],[-84.09913,9.92565,0.0],[-84.09886,9.92569,0.0]]]]}},{"type":"Feature","properties":{"uesi_id":"CRI_R4069041","nbhd_code":"CRI_R4069041_130","nbhd_name":"SAN SEBASTIAN"},"geometry":{"type":"MultiPolygon","coordinates":[[[[-84.0807,9.92132,0.0],[-84.08057,9.921,0.0],[-84.08046,9.92068,0.0],[-84.08005,9.92043,0.0],[-84.07984,9.92043,0.0],[-84.07963,9.92041,0.0],[-84.0795,9.92042,0.0],[-84.07934,9.92036,0.0],[-84.07909,9.92032,0.0],[-84.07871,9.92036,0.0],[-84.07847,9.9203,0.0],[-84.07812,9.92012,0.0],[-84.07791,9.92004,0.0],[-84.07769,9.92004,0.0],[-84.07735,9.92012,0.0],[-84.07724,9.92012,0.0],[-84.07711,9.92003,0.0],[-84.07697,9.91987,0.0],[-84.07679,9.91963,0.0],[-84.07671,9.91955,0.0],[-84.07664,9.91957,0.0],[-84.07655,9.91961,0.0],[-84.07643,9.91978,0.0],[-84.07634,9.91983,0.0],[-84.07624,9.91985,0.0],[-84.07609,9.9198,0.0],[-84.07588,9.91956,0.0],[-84.07579,9.91931,0.0],[-84.07575,9.91897,0.0],[-84.0757,9.91877,0.0],[-84.07555,9.91845,0.0],[-84.07544,9.91813,0.0],[-84.07535,9.91762,0.0],[-84.07531,9.91718,0.0],[-84.07524,9.91675,0.0],[-84.07515,9.91643,0.0],[-84.07503,9.91618,0.0],[-84.07493,9.91612,0.0],[-84.07479,9.91613,0.0],[-84.07466,9.9162,0.0],[-84.07454,9.91626,0.0],[-84.07433,9.91626,0.0],[-84.07407,9.91624,0.0],[-84.07393,9.91613,0.0],[-84.07375,9.91611,0.0],[-84.07358,9.91605,0.0],[-84.07342,9.9159,0.0],[-84.07329,9.91582,0.0],[-84.07308,9.91582,0.0],[-84.07294,9.91576,0.0],[-84.07283,9.91566,0.0],[-84.07279,9.91538,0.0],[-84.07264,9.91512,0.0],[-84.07242,9.91498,0.0],[-84.07225,9.91498,0.0],[-84.07213,9.91504,0.0],[-84.07197,9.91521,0.0],[-84.07177,9.9155,0.0],[-84.07154,9.91559,0.0],[-84.07142,9.91559,0.0],[-84.07125,9.91549,0.0],[-84.07096,9.9153,0.0],[-84.07075,9.91519,0.0],[-84.07057,9.9152,0.0],[-84.0704,9.91529,0.0],[-84.07019,9.91531,0.0],[-84.06997,9.91526,0.0],[-84.06979,9.91526,0.0],[-84.06964,9.91533,0.0],[-84.06958,9.91548,0.0],[-84.0695,9.91564,0.0],[-84.06932,9.91577,0.0],[-84.06909,9.91529,0.0],[-84.06894,9.91482,0.0],[-84.06886,9.91364,0.0],[-84.06881,9.91275,0.0],[-84.06877,9.9121,0.0],[-84.06867,9.91102,0.0],[-84.06856,9.90989,0.0],[-84.06844,9.90819,0.0],[-84.06835,9.90722,0.0],[-84.06837,9.90654,0.0],[-84.06878,9.90668,0.0],[-84.06926,9.9067,0.0],[-84.06951,9.90668,0.0],[-84.06986,9.90653,0.0],[-84.07025,9.90636,0.0],[-84.07038,9.90636,0.0],[-84.07049,9.90645,0.0],[-84.07072,9.90648,0.0],[-84.07092,9.90642,0.0],[-84.07112,9.90632,0.0],[-84.07128,9.90619,0.0],[-84.07151,9.90613,0.0],[-84.07175,9.90594,0.0],[-84.07188,9.90593,0.0],[-84.07197,9.90596,0.0],[-84.07199,9.90608,0.0],[-84.07197,9.90626,0.0],[-84.0719,9.90662,0.0],[-84.07181,9.9069,0.0],[-84.07165,9.90719,0.0],[-84.07134,9.90757,0.0],[-84.07106,9.90788,0.0],[-84.07098,9.90807,0.0],[-84.071,9.90827,0.0],[-84.07111,9.90843,0.0],[-84.07128,9.90857,0.0],[-84.07151,9.90873,0.0],[-84.07173,9.9088,0.0],[-84.07184,9.90875,0.0],[-84.07199,9.90859,0.0],[-84.07215,9.90825,0.0],[-84.07226,9.90805,0.0],[-84.07243,9.90793,0.0],[-84.0726,9.90785,0.0],[-84.07278,9.90783,0.0],[-84.07298,9.90787,0.0],[-84.0732,9.90801,0.0],[-84.07346,9.90821,0.0],[-84.07372,9.90839,0.0],[-84.07385,9.90841,0.0],[-84.07399,9.90834,0.0],[-84.0741,9.90822,0.0],[-84.07431,9.90778,0.0],[-84.07447,9.90713,0.0],[-84.0746,9.90685,0.0],[-84.07476,9.90666,0.0],[-84.07488,9.90663,0.0],[-84.07517,9.90668,0.0],[-84.07549,9.90677,0.0],[-84.07591,9.90685,0.0],[-84.07621,9.90685,0.0],[-84.07653,9.90676,0.0],[-84.07687,9.9066,0.0],[-84.07735,9.90644,0.0],[-84.07767,9.90634,0.0],[-84.07791,9.90611,0.0],[-84.07811,9.90582,0.0],[-84.07837,9.90551,0.0],[-84.0785,9.90524,0.0],[-84.07855,9.90485,0.0],[-84.07848,9.90469,0.0],[-84.07826,9.90449,0.0],[-84.07799,9.90421,0.0],[-84.07799,9.90397,0.0],[-84.07811,9.90375,0.0],[-84.07845,9.90348,0.0],[-84.07866,9.90336,0.0],[-84.07905,9.90305,0.0],[-84.07932,9.90298,0.0],[-84.07952,9.90304,0.0],[-84.07965,9.90319,0.0],[-84.07966,9.90336,0.0],[-84.07974,9.90354,0.0],[-84.07994,9.90376,0.0],[-84.08026,9.90402,0.0],[-84.0806,9.90424,0.0],[-84.0808,9.90426,0.0],[-84.08097,9.90418,0.0],[-84.08108,9.90392,0.0],[-84.08113,9.90385,0.0],[-84.08119,9.90376,0.0],[-84.08135,9.9037,0.0],[-84.08138,9.90369,0.0],[-84.08172,9.90373,0.0],[-84.08198,9.90384,0.0],[-84.08265,9.904,0.0],[-84.08292,9.90402,0.0],[-84.08312,9.90396,0.0],[-84.08317,9.90385,0.0],[-84.08318,9.90381,0.0],[-84.08319,9.90368,0.0],[-84.08298,9.90326,0.0],[-84.0829,9.90302,0.0],[-84.08294,9.90286,0.0],[-84.08304,9.90271,0.0],[-84.08316,9.90267,0.0],[-84.0833,9.90274,0.0],[-84.08356,9.90286,0.0],[-84.08392,9.9032,0.0],[-84.08417,9.90358,0.0],[-84.08438,9.90367,0.0],[-84.08456,9.90364,0.0],[-84.08473,9.90357,0.0],[-84.08487,9.9034,0.0],[-84.08496,9.90323,0.0],[-84.08493,9.90306,0.0],[-84.08493,9.90305,0.0],[-84.08482,9.90281,0.0],[-84.08481,9.90259,0.0],[-84.0849,9.90243,0.0],[-84.08505,9.90232,0.0],[-84.08533,9.90228,0.0],[-84.08576,9.90224,0.0],[-84.08607,9.9021,0.0],[-84.08672,9.90155,0.0],[-84.08698,9.90147,0.0],[-84.08712,9.90149,0.0],[-84.08721,9.90158,0.0],[-84.08727,9.90174,0.0],[-84.08727,9.90225,0.0],[-84.08733,9.90252,0.0],[-84.0874,9.9026,0.0],[-84.08759,9.90268,0.0],[-84.08782,9.90265,0.0],[-84.08811,9.90247,0.0],[-84.08856,9.90191,0.0],[-84.08898,9.90115,0.0],[-84.08919,9.90099,0.0],[-84.08936,9.90097,0.0],[-84.08964,9.90098,0.0],[-84.09004,9.90093,0.0],[-84.09025,9.90075,0.0],[-84.09035,9.90043,0.0],[-84.09037,9.90001,0.0],[-84.09042,9.89994,0.0],[-84.09053,9.89994,0.0],[-84.09068,9.90004,0.0],[-84.09083,9.90025,0.0],[-84.09106,9.90073,0.0],[-84.09127,9.90111,0.0],[-84.09133,9.90129,0.0],[-84.09145,9.90142,0.0],[-84.09171,9.90159,0.0],[-84.09207,9.90171,0.0],[-84.09234,9.90182,0.0],[-84.09268,9.90198,0.0],[-84.093,9.90203,0.0],[-84.09363,9.90203,0.0],[-84.09405,9.90208,0.0],[-84.0943,9.90216,0.0],[-84.09447,9.90232,0.0],[-84.09479,9.90259,0.0],[-84.09509,9.90292,0.0],[-84.09532,9.90322,0.0],[-84.09535,9.90326,0.0],[-84.09537,9.90345,0.0],[-84.09537,9.90377,0.0],[-84.09534,9.90457,0.0],[-84.09538,9.90481,0.0],[-84.09561,9.90524,0.0],[-84.09588,9.90571,0.0],[-84.09615,9.9061,0.0],[-84.09633,9.90617,0.0],[-84.09604,9.9067,0.0],[-84.09548,9.90719,0.0],[-84.09372,9.90834,0.0],[-84.09308,9.90834,0.0],[-84.09264,9.90871,0.0],[-84.0925,9.90892,0.0],[-84.09248,9.90895,0.0],[-84.09236,9.91004,0.0],[-84.09135,9.91004,0.0],[-84.0913,9.91096,0.0],[-84.09123,9.91182,0.0],[-84.09124,9.91193,0.0],[-84.09125,9.91208,0.0],[-84.09152,9.9122,0.0],[-84.09164,9.91225,0.0],[-84.09144,9.91311,0.0],[-84.0914,9.9135,0.0],[-84.09093,9.91479,0.0],[-84.09054,9.91454,0.0],[-84.08991,9.91418,0.0],[-84.08854,9.91736,0.0],[-84.08831,9.91841,0.0],[-84.08824,9.91878,0.0],[-84.08815,9.91914,0.0],[-84.08794,9.91913,0.0],[-84.08775,9.91915,0.0],[-84.08759,9.9193,0.0],[-84.0875,9.91943,0.0],[-84.08751,9.91963,0.0],[-84.08759,9.91984,0.0],[-84.08775,9.92012,0.0],[-84.08802,9.92048,0.0],[-84.0881,9.92062,0.0],[-84.08806,9.92079,0.0],[-84.08801,9.92091,0.0],[-84.08788,9.92099,0.0],[-84.08771,9.92101,0.0],[-84.08756,9.92098,0.0],[-84.08737,9.92086,0.0],[-84.08732,9.92082,0.0],[-84.08714,9.92052,0.0],[-84.08687,9.92009,0.0],[-84.08669,9.91979,0.0],[-84.08652,9.91957,0.0],[-84.08644,9.91947,0.0],[-84.08634,9.91934,0.0],[-84.08629,9.91921,0.0],[-84.08627,9.91914,0.0],[-84.08616,9.9188,0.0],[-84.08605,9.91853,0.0],[-84.08578,9.91828,0.0],[-84.08565,9.91808,0.0],[-84.0855,9.91771,0.0],[-84.08545,9.9175,0.0],[-84.08528,9.91731,0.0],[-84.08507,9.91716,0.0],[-84.08486,9.91709,0.0],[-84.08452,9.91709,0.0],[-84.08422,9.91716,0.0],[-84.08403,9.91732,0.0],[-84.0838,9.91753,0.0],[-84.08358,9.91765,0.0],[-84.08343,9.91782,0.0],[-84.08339,9.91806,0.0],[-84.08342,9.91831,0.0],[-84.08357,9.91862,0.0],[-84.08359,9.91869,0.0],[-84.08363,9.91879,0.0],[-84.08356,9.91899,0.0],[-84.08345,9.91915,0.0],[-84.08318,9.91945,0.0],[-84.0827,9.91998,0.0],[-84.08262,9.92001,0.0],[-84.08254,9.92003,0.0],[-84.08226,9.91999,0.0],[-84.082,9.92001,0.0],[-84.08186,9.92006,0.0],[-84.08179,9.92016,0.0],[-84.08172,9.92028,0.0],[-84.08166,9.92049,0.0],[-84.08161,9.92069,0.0],[-84.08143,9.92107,0.0],[-84.08126,9.9214,0.0],[-84.08108,9.92151,0.0],[-84.08092,9.92151,0.0],[-84.0807,9.92132,0.0]]]]}},{"type":"Feature","properties":{"uesi_id":"CRI_R4069041","nbhd_code":"CRI_R4069041_131","nbhd_name":"HOSPITAL"},"geometry":{"type":"MultiPolygon","coordinates":[[[[-84.07895,9.93407,0.0],[-84.07898,9.93373,0.0],[-84.07914,9.93149,0.0],[-84.07922,9.93066,0.0],[-84.07944,9.92808,0.0],[-84.0795,9.92702,0.0],[-84.07959,9.92625,0.0],[-84.07966,9.92551,0.0],[-84.0798,9.9249,0.0],[-84.08006,9.9237,0.0],[-84.08037,9.92289,0.0],[-84.08051,9.92209,0.0],[-84.0807,9.92132,0.0],[-84.08092,9.92151,0.0],[-84.08108,9.92151,0.0],[-84.08126,9.9214,0.0],[-84.08143,9.92107,0.0],[-84.08161,9.92069,0.0],[-84.08166,9.92049,0.0],[-84.08172,9.92028,0.0],[-84.08179,9.92016,0.0],[-84.08186,9.92006,0.0],[-84.082,9.92001,0.0],[-84.08226,9.91999,0.0],[-84.08254,9.92003,0.0],[-84.08262,9.92001,0.0],[-84.0827,9.91998,0.0],[-84.08318,9.91945,0.0],[-84.08345,9.91915,0.0],[-84.08356,9.91899,0.0],[-84.08363,9.91879,0.0],[-84.08359,9.91869,0.0],[-84.08357,9.91862,0.0],[-84.08342,9.91831,0.0],[-84.08339,9.91806,0.0],[-84.08343,9.91782,0.0],[-84.08358,9.91765,0.0],[-84.0838,9.91753,0.0],[-84.08403,9.91732,0.0],[-84.08422,9.91716,0.0],[-84.08452,9.91709,0.0],[-84.08486,9.91709,0.0],[-84.08507,9.91716,0.0],[-84.08528,9.91731,0.0],[-84.08545,9.9175,0.0],[-84.0855,9.91771,0.0],[-84.08565,9.91808,0.0],[-84.08578,9.91828,0.0],[-84.08605,9.91853,0.0],[-84.08616,9.9188,0.0],[-84.08627,9.91914,0.0],[-84.08629,9.91921,0.0],[-84.08634,9.91934,0.0],[-84.08644,9.91947,0.0],[-84.08652,9.91957,0.0],[-84.08669,9.91979,0.0],[-84.08687,9.92009,0.0],[-84.08714,9.92052,0.0],[-84.08732,9.92082,0.0],[-84.08737,9.92086,0.0],[-84.08756,9.92098,0.0],[-84.08771,9.92101,0.0],[-84.08788,9.92099,0.0],[-84.08801,9.92091,0.0],[-84.08806,9.92079,0.0],[-84.0881,9.92062,0.0],[-84.08802,9.92048,0.0],[-84.08775,9.92012,0.0],[-84.08759,9.91984,0.0],[-84.08751,9.91963,0.0],[-84.0875,9.91943,0.0],[-84.08759,9.9193,0.0],[-84.08775,9.91915,0.0],[-84.08794,9.91913,0.0],[-84.08815,9.91914,0.0],[-84.08847,9.91925,0.0],[-84.08885,9.91929,0.0],[-84.08926,9.91929,0.0],[-84.08944,9.91929,0.0],[-84.08954,9.9194,0.0],[-84.08954,9.91958,0.0],[-84.08948,9.91984,0.0],[-84.08957,9.92008,0.0],[-84.08971,9.92013,0.0],[-84.08986,9.92012,0.0],[-84.09001,9.92004,0.0],[-84.09014,9.91967,0.0],[-84.09023,9.91941,0.0],[-84.09033,9.9193,0.0],[-84.09054,9.9193,0.0],[-84.0908,9.91937,0.0],[-84.09129,9.91975,0.0],[-84.0919,9.92043,0.0],[-84.09213,9.92076,0.0],[-84.09282,9.92079,0.0],[-84.09323,9.92083,0.0],[-84.09348,9.92094,0.0],[-84.09384,9.92122,0.0],[-84.09415,9.92148,0.0],[-84.09437,9.92162,0.0],[-84.09469,9.92164,0.0],[-84.09485,9.92168,0.0],[-84.09499,9.92195,0.0],[-84.09512,9.92231,0.0],[-84.0952,9.92246,0.0],[-84.0953,9.92255,0.0],[-84.09554,9.9226,0.0],[-84.09581,9.92267,0.0],[-84.09612,9.92286,0.0],[-84.09625,9.92309,0.0],[-84.09625,9.92325,0.0],[-84.0962,9.92344,0.0],[-84.09595,9.92365,0.0],[-84.09568,9.92389,0.0],[-84.0956,9.92405,0.0],[-84.09556,9.92424,0.0],[-84.0956,9.92439,0.0],[-84.0957,9.92449,0.0],[-84.09609,9.92449,0.0],[-84.09632,9.92449,0.0],[-84.09656,9.92456,0.0],[-84.09675,9.92453,0.0],[-84.09698,9.92443,0.0],[-84.09725,9.92402,0.0],[-84.09752,9.92376,0.0],[-84.0978,9.92363,0.0],[-84.09804,9.92359,0.0],[-84.09821,9.92361,0.0],[-84.09834,9.92372,0.0],[-84.09831,9.92389,0.0],[-84.09817,9.92425,0.0],[-84.09796,9.92475,0.0],[-84.09791,9.92509,0.0],[-84.09799,9.92536,0.0],[-84.0982,9.92553,0.0],[-84.09852,9.92562,0.0],[-84.09886,9.92569,0.0],[-84.09882,9.92678,0.0],[-84.09876,9.92748,0.0],[-84.09867,9.92859,0.0],[-84.09852,9.92987,0.0],[-84.09848,9.93042,0.0],[-84.09837,9.93101,0.0],[-84.09819,9.93195,0.0],[-84.09805,9.93271,0.0],[-84.098,9.9334,0.0],[-84.09805,9.93472,0.0],[-84.09807,9.93589,0.0],[-84.09647,9.93578,0.0],[-84.09328,9.93546,0.0],[-84.09241,9.93537,0.0],[-84.08899,9.93504,0.0],[-84.08765,9.9349,0.0],[-84.08471,9.93462,0.0],[-84.08224,9.93438,0.0],[-84.08041,9.93421,0.0],[-84.07895,9.93407,0.0]]]]}},{"type":"Feature","properties":{"uesi_id":"CRI_R4069041","nbhd_code":"CRI_R4069041_132","nbhd_name":"EL CARMEN"},"geometry":{"type":"MultiPolygon","coordinates":[[[[-84.0657,9.93961,0.0],[-84.06545,9.93943,0.0],[-84.06527,9.9394,0.0],[-84.06479,9.93947,0.0],[-84.06466,9.93947,0.0],[-84.06446,9.9394,0.0],[-84.06407,9.93913,0.0],[-84.06382,9.93892,0.0],[-84.06358,9.93892,0.0],[-84.06353,9.93899,0.0],[-84.06349,9.93956,0.0],[-84.06339,9.93992,0.0],[-84.06317,9.94025,0.0],[-84.06289,9.94042,0.0],[-84.06256,9.94042,0.0],[-84.06233,9.94032,0.0],[-84.06218,9.94009,0.0],[-84.06218,9.93972,0.0],[-84.06212,9.93952,0.0],[-84.06184,9.93944,0.0],[-84.06149,9.93942,0.0],[-84.06118,9.93942,0.0],[-84.06094,9.93952,0.0],[-84.06083,9.93966,0.0],[-84.06079,9.94,0.0],[-84.06077,9.94031,0.0],[-84.06069,9.94047,0.0],[-84.06057,9.94047,0.0],[-84.06074,9.93901,0.0],[-84.06093,9.93721,0.0],[-84.06101,9.93647,0.0],[-84.06115,9.93519,0.0],[-84.06149,9.93199,0.0],[-84.06245,9.93189,0.0],[-84.06329,9.93184,0.0],[-84.06397,9.93189,0.0],[-84.06467,9.93201,0.0],[-84.06544,9.93212,0.0],[-84.06648,9.93212,0.0],[-84.06716,9.93215,0.0],[-84.06763,9.93222,0.0],[-84.06833,9.9327,0.0],[-84.06885,9.93311,0.0],[-84.06903,9.93322,0.0],[-84.06993,9.93327,0.0],[-84.07084,9.93336,0.0],[-84.07169,9.93341,0.0],[-84.07257,9.9335,0.0],[-84.0738,9.93362,0.0],[-84.07465,9.93368,0.0],[-84.07643,9.93385,0.0],[-84.07724,9.93396,0.0],[-84.07812,9.93404,0.0],[-84.07895,9.93407,0.0],[-84.07888,9.93523,0.0],[-84.0788,9.93658,0.0],[-84.07869,9.93816,0.0],[-84.07859,9.93957,0.0],[-84.07853,9.94031,0.0],[-84.07828,9.94032,0.0],[-84.07804,9.9402,0.0],[-84.07785,9.94004,0.0],[-84.07765,9.94,0.0],[-84.07748,9.94007,0.0],[-84.07727,9.94015,0.0],[-84.07703,9.94011,0.0],[-84.07692,9.93994,0.0],[-84.07686,9.93984,0.0],[-84.0767,9.93968,0.0],[-84.07652,9.93962,0.0],[-84.07632,9.9396,0.0],[-84.0761,9.93968,0.0],[-84.07592,9.93969,0.0],[-84.07571,9.93963,0.0],[-84.07539,9.93938,0.0],[-84.0752,9.93932,0.0],[-84.07505,9.93935,0.0],[-84.0748,9.93948,0.0],[-84.07457,9.93951,0.0],[-84.0744,9.93948,0.0],[-84.07424,9.93935,0.0],[-84.07411,9.93904,0.0],[-84.07393,9.93884,0.0],[-84.07372,9.93869,0.0],[-84.07364,9.93854,0.0],[-84.07355,9.93849,0.0],[-84.07337,9.93843,0.0],[-84.07319,9.93843,0.0],[-84.07312,9.93848,0.0],[-84.07314,9.93862,0.0],[-84.07329,9.93893,0.0],[-84.07339,9.9392,0.0],[-84.07342,9.93951,0.0],[-84.07333,9.93962,0.0],[-84.07323,9.93968,0.0],[-84.07311,9.93963,0.0],[-84.07301,9.93953,0.0],[-84.07281,9.93951,0.0],[-84.07242,9.93953,0.0],[-84.07206,9.93972,0.0],[-84.07184,9.93989,0.0],[-84.07165,9.93997,0.0],[-84.0714,9.93995,0.0],[-84.07111,9.93978,0.0],[-84.07085,9.93966,0.0],[-84.07062,9.93965,0.0],[-84.07034,9.93978,0.0],[-84.07015,9.9399,0.0],[-84.07004,9.94006,0.0],[-84.06993,9.94033,0.0],[-84.06985,9.94068,0.0],[-84.06975,9.94086,0.0],[-84.06958,9.9409,0.0],[-84.06932,9.94085,0.0],[-84.06907,9.9408,0.0],[-84.06887,9.94069,0.0],[-84.06869,9.94054,0.0],[-84.06857,9.94054,0.0],[-84.06829,9.94059,0.0],[-84.06808,9.9406,0.0],[-84.06786,9.94053,0.0],[-84.06764,9.94032,0.0],[-84.06742,9.94019,0.0],[-84.06727,9.94016,0.0],[-84.06699,9.94024,0.0],[-84.06675,9.94028,0.0],[-84.06645,9.94025,0.0],[-84.06612,9.94013,0.0],[-84.06589,9.9399,0.0],[-84.0657,9.93961,0.0]]]]}},{"type":"Feature","properties":{"uesi_id":"CRI_R4069041","nbhd_code":"CRI_R4069041_133","nbhd_name":"SAN FRANCISCO DE DOS RIOS"},"geometry":{"type":"MultiPolygon","coordinates":[[[[-84.05235,9.91369,0.0],[-84.05229,9.91234,0.0],[-84.05181,9.91101,0.0],[-84.05158,9.91034,0.0],[-84.0514,9.9101,0.0],[-84.05117,9.90998,0.0],[-84.05092,9.90992,0.0],[-84.05079,9.90981,0.0],[-84.05072,9.90965,0.0],[-84.05075,9.90939,0.0],[-84.05079,9.90899,0.0],[-84.05072,9.9085,0.0],[-84.05072,9.90839,0.0],[-84.05048,9.90796,0.0],[-84.04982,9.90677,0.0],[-84.04957,9.90608,0.0],[-84.0494,9.90522,0.0],[-84.04927,9.90495,0.0],[-84.04904,9.90477,0.0],[-84.04869,9.90453,0.0],[-84.04835,9.90433,0.0],[-84.04815,9.90424,0.0],[-84.04737,9.9042,0.0],[-84.0475,9.90381,0.0],[-84.04762,9.90323,0.0],[-84.04768,9.90305,0.0],[-84.04775,9.90299,0.0],[-84.04788,9.90287,0.0],[-84.04799,9.90284,0.0],[-84.04804,9.90284,0.0],[-84.04815,9.90296,0.0],[-84.04834,9.90321,0.0],[-84.0485,9.90332,0.0],[-84.04871,9.90339,0.0],[-84.04897,9.90337,0.0],[-84.04915,9.90321,0.0],[-84.04916,9.90307,0.0],[-84.04912,9.90289,0.0],[-84.04891,9.90261,0.0],[-84.04872,9.90221,0.0],[-84.04861,9.90185,0.0],[-84.04864,9.9017,0.0],[-84.04872,9.90158,0.0],[-84.04887,9.90153,0.0],[-84.04894,9.90154,0.0],[-84.04906,9.90163,0.0],[-84.04928,9.90177,0.0],[-84.04945,9.9018,0.0],[-84.04964,9.90172,0.0],[-84.04982,9.90148,0.0],[-84.05017,9.90093,0.0],[-84.05039,9.9007,0.0],[-84.05059,9.9006,0.0],[-84.05076,9.90058,0.0],[-84.05092,9.90058,0.0],[-84.05102,9.9006,0.0],[-84.05114,9.90085,0.0],[-84.05136,9.90114,0.0],[-84.05155,9.90133,0.0],[-84.05173,9.90144,0.0],[-84.05191,9.90149,0.0],[-84.05227,9.90151,0.0],[-84.05253,9.90154,0.0],[-84.05269,9.90158,0.0],[-84.0528,9.90172,0.0],[-84.05291,9.9019,0.0],[-84.053,9.90211,0.0],[-84.05319,9.90228,0.0],[-84.05332,9.90227,0.0],[-84.0534,9.90221,0.0],[-84.0535,9.90199,0.0],[-84.05355,9.90167,0.0],[-84.05364,9.90152,0.0],[-84.05374,9.90148,0.0],[-84.05386,9.90148,0.0],[-84.05394,9.90155,0.0],[-84.05397,9.90166,0.0],[-84.05405,9.90195,0.0],[-84.05411,9.90222,0.0],[-84.05418,9.90241,0.0],[-84.05435,9.90258,0.0],[-84.05454,9.90272,0.0],[-84.05471,9.90277,0.0],[-84.05486,9.90275,0.0],[-84.05497,9.90264,0.0],[-84.05512,9.90241,0.0],[-84.05527,9.90221,0.0],[-84.05545,9.90205,0.0],[-84.05566,9.90177,0.0],[-84.05568,9.90164,0.0],[-84.05562,9.90148,0.0],[-84.05557,9.90131,0.0],[-84.05562,9.9012,0.0],[-84.05573,9.90115,0.0],[-84.05587,9.90115,0.0],[-84.0561,9.90122,0.0],[-84.05635,9.90126,0.0],[-84.05657,9.90121,0.0],[-84.05678,9.90118,0.0],[-84.05695,9.90126,0.0],[-84.05713,9.90123,0.0],[-84.05718,9.90109,0.0],[-84.05718,9.90083,0.0],[-84.05731,9.90065,0.0],[-84.05766,9.90044,0.0],[-84.05798,9.90038,0.0],[-84.05806,9.9004,0.0],[-84.05816,9.9005,0.0],[-84.05816,9.90062,0.0],[-84.05809,9.90076,0.0],[-84.05795,9.90092,0.0],[-84.05784,9.90104,0.0],[-84.05782,9.90127,0.0],[-84.05797,9.90148,0.0],[-84.05826,9.90161,0.0],[-84.0585,9.90166,0.0],[-84.05883,9.90168,0.0],[-84.05907,9.90168,0.0],[-84.05954,9.90176,0.0],[-84.05986,9.90188,0.0],[-84.06017,9.90212,0.0],[-84.06078,9.90246,0.0],[-84.06103,9.90258,0.0],[-84.06131,9.90257,0.0],[-84.06165,9.90251,0.0],[-84.06194,9.90249,0.0],[-84.06217,9.90252,0.0],[-84.06274,9.90271,0.0],[-84.0635,9.90285,0.0],[-84.06387,9.90314,0.0],[-84.06431,9.90343,0.0],[-84.06474,9.90372,0.0],[-84.06512,9.90383,0.0],[-84.0656,9.9039,0.0],[-84.06595,9.9038,0.0],[-84.06616,9.90379,0.0],[-84.06629,9.90385,0.0],[-84.06633,9.90397,0.0],[-84.06634,9.90408,0.0],[-84.06622,9.90418,0.0],[-84.06595,9.90437,0.0],[-84.06584,9.90467,0.0],[-84.06588,9.90481,0.0],[-84.06603,9.90489,0.0],[-84.06627,9.90488,0.0],[-84.06666,9.90473,0.0],[-84.06713,9.90446,0.0],[-84.06724,9.90444,0.0],[-84.06735,9.9045,0.0],[-84.06746,9.90469,0.0],[-84.06757,9.905,0.0],[-84.06759,9.90516,0.0],[-84.06763,9.90578,0.0],[-84.06772,9.90623,0.0],[-84.06793,9.90642,0.0],[-84.06837,9.90654,0.0],[-84.06835,9.90722,0.0],[-84.06844,9.90819,0.0],[-84.06856,9.90989,0.0],[-84.06867,9.91102,0.0],[-84.06877,9.9121,0.0],[-84.06881,9.91275,0.0],[-84.06886,9.91364,0.0],[-84.06894,9.91482,0.0],[-84.06909,9.91529,0.0],[-84.06932,9.91577,0.0],[-84.06917,9.91578,0.0],[-84.06895,9.91578,0.0],[-84.06873,9.91581,0.0],[-84.06853,9.91589,0.0],[-84.06835,9.91605,0.0],[-84.0682,9.91624,0.0],[-84.06804,9.91639,0.0],[-84.06789,9.9164,0.0],[-84.06775,9.91636,0.0],[-84.06761,9.91621,0.0],[-84.06748,9.91595,0.0],[-84.06738,9.91566,0.0],[-84.06728,9.91553,0.0],[-84.06717,9.91551,0.0],[-84.06704,9.9156,0.0],[-84.0668,9.91587,0.0],[-84.06656,9.91606,0.0],[-84.06631,9.9161,0.0],[-84.06613,9.91606,0.0],[-84.06598,9.91595,0.0],[-84.06586,9.91577,0.0],[-84.06579,9.91554,0.0],[-84.06569,9.91535,0.0],[-84.06556,9.91523,0.0],[-84.06538,9.91519,0.0],[-84.06515,9.91519,0.0],[-84.06496,9.91522,0.0],[-84.06479,9.91522,0.0],[-84.06473,9.9152,0.0],[-84.06466,9.9151,0.0],[-84.06456,9.91473,0.0],[-84.06444,9.91455,0.0],[-84.06427,9.91446,0.0],[-84.06407,9.91444,0.0],[-84.06385,9.91447,0.0],[-84.06368,9.91456,0.0],[-84.06351,9.91485,0.0],[-84.06338,9.91495,0.0],[-84.06316,9.91506,0.0],[-84.06287,9.91524,0.0],[-84.06269,9.9153,0.0],[-84.06257,9.9153,0.0],[-84.06242,9.91522,0.0],[-84.06229,9.91511,0.0],[-84.06219,9.91507,0.0],[-84.06207,9.91505,0.0],[-84.06194,9.91491,0.0],[-84.06164,9.91469,0.0],[-84.06119,9.91428,0.0],[-84.06082,9.91395,0.0],[-84.06068,9.91375,0.0],[-84.0605,9.91346,0.0],[-84.06024,9.91317,0.0],[-84.06006,9.91303,0.0],[-84.05994,9.91299,0.0],[-84.05985,9.913,0.0],[-84.05977,9.91312,0.0],[-84.05967,9.9133,0.0],[-84.05953,9.91373,0.0],[-84.0594,9.91387,0.0],[-84.05935,9.91389,0.0],[-84.05927,9.91389,0.0],[-84.05919,9.91383,0.0],[-84.05904,9.91372,0.0],[-84.05892,9.91372,0.0],[-84.0588,9.91377,0.0],[-84.05866,9.91387,0.0],[-84.05846,9.91393,0.0],[-84.05835,9.91399,0.0],[-84.05828,9.9141,0.0],[-84.0582,9.91424,0.0],[-84.05813,9.91429,0.0],[-84.05807,9.9143,0.0],[-84.058,9.91428,0.0],[-84.05753,9.91396,0.0],[-84.05742,9.91387,0.0],[-84.05746,9.91381,0.0],[-84.0576,9.91368,0.0],[-84.05763,9.91355,0.0],[-84.0576,9.91342,0.0],[-84.0575,9.91337,0.0],[-84.05717,9.91333,0.0],[-84.05699,9.91333,0.0],[-84.05671,9.91379,0.0],[-84.05658,9.91386,0.0],[-84.05644,9.91387,0.0],[-84.05623,9.91383,0.0],[-84.05598,9.91372,0.0],[-84.05584,9.91373,0.0],[-84.05575,9.91383,0.0],[-84.05546,9.91422,0.0],[-84.0553,9.91427,0.0],[-84.05521,9.91427,0.0],[-84.05513,9.91421,0.0],[-84.05511,9.91408,0.0],[-84.05518,9.91385,0.0],[-84.05516,9.9137,0.0],[-84.05499,9.91363,0.0],[-84.05477,9.91371,0.0],[-84.05464,9.91375,0.0],[-84.05453,9.91375,0.0],[-84.05447,9.91367,0.0],[-84.05461,9.91355,0.0],[-84.05467,9.91341,0.0],[-84.05466,9.91328,0.0],[-84.05455,9.91316,0.0],[-84.05435,9.91305,0.0],[-84.05421,9.91305,0.0],[-84.05404,9.91314,0.0],[-84.05398,9.91331,0.0],[-84.05402,9.91354,0.0],[-84.05406,9.91377,0.0],[-84.05405,9.91391,0.0],[-84.05395,9.91393,0.0],[-84.05381,9.91393,0.0],[-84.05351,9.91392,0.0],[-84.05327,9.91378,0.0],[-84.05295,9.91349,0.0],[-84.05281,9.91347,0.0],[-84.05266,9.91353,0.0],[-84.05235,9.91369,0.0]]]]}}]}