{"type":"FeatureCollection","name":"ECU_R3693133","crs":{"type":"name","properties":{"name":"urn:ogc:def:crs:OGC:1.3:CRS84"}},"features":[{"type":"Feature","properties":{"uesi_id":"ECU_R3693133","nbhd_code":"ECU_R3693133_1","nbhd_name":"Hermano Miguel"},"geometry":{"type":"MultiPolygon","coordinates":[[[[-78.9931,-2.87675,0.0],[-78.99349,-2.87657,0.0],[-78.9938,-2.87649,0.0],[-78.99387,-2.87626,0.0],[-78.99381,-2.87608,0.0],[-78.99391,-2.8757,0.0],[-78.99397,-2.87547,0.0],[-78.9943,-2.87553,0.0],[-78.99447,-2.87546,0.0],[-78.99438,-2.87526,0.0],[-78.99448,-2.87502,0.0],[-78.99476,-2.87497,0.0],[-78.99492,-2.87488,0.0],[-78.99518,-2.87484,0.0],[-78.99528,-2.87442,0.0],[-78.99536,-2.87415,0.0],[-78.99563,-2.8737,0.0],[-78.99585,-2.87366,0.0],[-78.99605,-2.87348,0.0],[-78.99629,-2.87343,0.0],[-78.99624,-2.87324,0.0],[-78.99603,-2.87317,0.0],[-78.99607,-2.87301,0.0],[-78.99645,-2.87293,0.0],[-78.99648,-2.87265,0.0],[-78.99634,-2.87248,0.0],[-78.99649,-2.8723,0.0],[-78.99657,-2.87216,0.0],[-78.99665,-2.872,0.0],[-78.99677,-2.87187,0.0],[-78.99676,-2.87156,0.0],[-78.99674,-2.87134,0.0],[-78.99674,-2.8711,0.0],[-78.99676,-2.87099,0.0],[-78.99694,-2.87087,0.0],[-78.99685,-2.86937,0.0],[-78.99696,-2.86843,0.0],[-78.99778,-2.86603,0.0],[-78.99784,-2.86447,0.0],[-78.99814,-2.86265,0.0],[-78.99878,-2.86181,0.0],[-79.00016,-2.86079,0.0],[-79.00519,-2.85862,0.0],[-79.00266,-2.85618,0.0],[-79.00138,-2.85648,0.0],[-79.00043,-2.85655,0.0],[-78.99953,-2.85636,0.0],[-78.99823,-2.85552,0.0],[-78.99618,-2.85531,0.0],[-78.99598,-2.85529,0.0],[-78.99584,-2.85382,0.0],[-78.99582,-2.8537,0.0],[-78.99575,-2.85329,0.0],[-78.99556,-2.85222,0.0],[-78.99471,-2.85118,0.0],[-78.99444,-2.85103,0.0],[-78.99429,-2.85073,0.0],[-78.9941,-2.85048,0.0],[-78.99435,-2.85,0.0],[-78.99434,-2.84981,0.0],[-78.99429,-2.84971,0.0],[-78.99192,-2.849,0.0],[-78.98941,-2.84904,0.0],[-78.98916,-2.85113,0.0],[-78.9884,-2.85256,0.0],[-78.98637,-2.85494,0.0],[-78.98353,-2.85684,0.0],[-78.98324,-2.85712,0.0],[-78.9827,-2.8574,0.0],[-78.98239,-2.85792,0.0],[-78.98226,-2.85852,0.0],[-78.98174,-2.85923,0.0],[-78.98158,-2.85986,0.0],[-78.98162,-2.86045,0.0],[-78.98111,-2.86107,0.0],[-78.98104,-2.86191,0.0],[-78.98102,-2.86225,0.0],[-78.98077,-2.86287,0.0],[-78.98021,-2.8633,0.0],[-78.97987,-2.86385,0.0],[-78.97966,-2.86458,0.0],[-78.97952,-2.86498,0.0],[-78.9794,-2.86559,0.0],[-78.97927,-2.86645,0.0],[-78.97883,-2.86719,0.0],[-78.97862,-2.86765,0.0],[-78.97844,-2.86803,0.0],[-78.97768,-2.86851,0.0],[-78.97744,-2.86877,0.0],[-78.97695,-2.86963,0.0],[-78.97691,-2.86984,0.0],[-78.97688,-2.87007,0.0],[-78.97681,-2.87028,0.0],[-78.97665,-2.87041,0.0],[-78.97644,-2.87058,0.0],[-78.97597,-2.87076,0.0],[-78.97553,-2.871,0.0],[-78.97548,-2.87108,0.0],[-78.97543,-2.87113,0.0],[-78.97537,-2.87131,0.0],[-78.97537,-2.87136,0.0],[-78.97536,-2.87176,0.0],[-78.97532,-2.87242,0.0],[-78.97521,-2.87271,0.0],[-78.97468,-2.87331,0.0],[-78.97449,-2.87354,0.0],[-78.97437,-2.87389,0.0],[-78.97442,-2.87432,0.0],[-78.97459,-2.87475,0.0],[-78.97461,-2.87495,0.0],[-78.9746,-2.87514,0.0],[-78.97456,-2.87521,0.0],[-78.97451,-2.87536,0.0],[-78.97425,-2.87545,0.0],[-78.97409,-2.87545,0.0],[-78.97395,-2.87554,0.0],[-78.97383,-2.87566,0.0],[-78.97337,-2.8766,0.0],[-78.97309,-2.87707,0.0],[-78.97272,-2.87761,0.0],[-78.97244,-2.87795,0.0],[-78.9721,-2.87824,0.0],[-78.97164,-2.87887,0.0],[-78.9715,-2.87939,0.0],[-78.97144,-2.87966,0.0],[-78.97121,-2.88017,0.0],[-78.97097,-2.8805,0.0],[-78.97071,-2.88092,0.0],[-78.97056,-2.88119,0.0],[-78.97041,-2.88126,0.0],[-78.96976,-2.88147,0.0],[-78.96952,-2.88157,0.0],[-78.96875,-2.88188,0.0],[-78.96864,-2.88221,0.0],[-78.96832,-2.88226,0.0],[-78.96807,-2.88212,0.0],[-78.96805,-2.88229,0.0],[-78.96804,-2.8824,0.0],[-78.96809,-2.88253,0.0],[-78.9681,-2.88256,0.0],[-78.96832,-2.88268,0.0],[-78.96871,-2.88272,0.0],[-78.97159,-2.88251,0.0],[-78.97428,-2.88228,0.0],[-78.97516,-2.88146,0.0],[-78.97727,-2.88017,0.0],[-78.97867,-2.87936,0.0],[-78.98019,-2.87895,0.0],[-78.98069,-2.87893,0.0],[-78.98081,-2.87897,0.0],[-78.98103,-2.87902,0.0],[-78.98145,-2.87922,0.0],[-78.98257,-2.88007,0.0],[-78.98266,-2.87989,0.0],[-78.98286,-2.87966,0.0],[-78.98321,-2.87934,0.0],[-78.98345,-2.87912,0.0],[-78.98367,-2.87901,0.0],[-78.98373,-2.87888,0.0],[-78.98372,-2.87878,0.0],[-78.98348,-2.87845,0.0],[-78.98347,-2.87826,0.0],[-78.98363,-2.87802,0.0],[-78.98378,-2.87797,0.0],[-78.98392,-2.8783,0.0],[-78.98399,-2.87839,0.0],[-78.98413,-2.87839,0.0],[-78.98426,-2.8783,0.0],[-78.98443,-2.87804,0.0],[-78.98453,-2.87789,0.0],[-78.98476,-2.87784,0.0],[-78.98486,-2.8778,0.0],[-78.98506,-2.87787,0.0],[-78.98532,-2.8778,0.0],[-78.98544,-2.87772,0.0],[-78.98556,-2.87785,0.0],[-78.98559,-2.87808,0.0],[-78.98557,-2.8782,0.0],[-78.98554,-2.87832,0.0],[-78.98556,-2.87839,0.0],[-78.98562,-2.87844,0.0],[-78.98578,-2.87845,0.0],[-78.98594,-2.87842,0.0],[-78.98634,-2.87829,0.0],[-78.9865,-2.87816,0.0],[-78.98655,-2.87807,0.0],[-78.98667,-2.87798,0.0],[-78.98674,-2.87796,0.0],[-78.98692,-2.87794,0.0],[-78.98698,-2.87795,0.0],[-78.98712,-2.87791,0.0],[-78.98729,-2.8778,0.0],[-78.98737,-2.8777,0.0],[-78.98742,-2.87756,0.0],[-78.98745,-2.87736,0.0],[-78.98752,-2.87718,0.0],[-78.98777,-2.87699,0.0],[-78.98824,-2.87696,0.0],[-78.98854,-2.87701,0.0],[-78.98871,-2.87717,0.0],[-78.98879,-2.87739,0.0],[-78.98915,-2.87738,0.0],[-78.98939,-2.87738,0.0],[-78.98966,-2.87728,0.0],[-78.98987,-2.87725,0.0],[-78.99018,-2.87711,0.0],[-78.99033,-2.87705,0.0],[-78.99036,-2.87689,0.0],[-78.99026,-2.8767,0.0],[-78.99035,-2.87621,0.0],[-78.99063,-2.876,0.0],[-78.99114,-2.87607,0.0],[-78.99151,-2.87633,0.0],[-78.99173,-2.87658,0.0],[-78.99205,-2.87665,0.0],[-78.99223,-2.87659,0.0],[-78.99241,-2.87667,0.0],[-78.99251,-2.87674,0.0],[-78.99283,-2.87675,0.0],[-78.9931,-2.87675,0.0]]]]}},{"type":"Feature","properties":{"uesi_id":"ECU_R3693133","nbhd_code":"ECU_R3693133_2","nbhd_name":"Mach\u00e1ngara"},"geometry":{"type":"MultiPolygon","coordinates":[[[[-78.97757,-2.88257,0.0],[-78.97753,-2.88241,0.0],[-78.97747,-2.88222,0.0],[-78.97746,-2.88219,0.0],[-78.97746,-2.88213,0.0],[-78.97743,-2.88209,0.0],[-78.9774,-2.88204,0.0],[-78.97737,-2.88195,0.0],[-78.97722,-2.88184,0.0],[-78.97711,-2.88182,0.0],[-78.97706,-2.88181,0.0],[-78.97687,-2.88182,0.0],[-78.9768,-2.88183,0.0],[-78.97586,-2.88211,0.0],[-78.97576,-2.88213,0.0],[-78.97428,-2.88228,0.0],[-78.97159,-2.88251,0.0],[-78.96871,-2.88272,0.0],[-78.96832,-2.88268,0.0],[-78.9681,-2.88256,0.0],[-78.96809,-2.88253,0.0],[-78.96804,-2.8824,0.0],[-78.96805,-2.88229,0.0],[-78.96807,-2.88212,0.0],[-78.96832,-2.88226,0.0],[-78.96864,-2.88221,0.0],[-78.96875,-2.88188,0.0],[-78.96952,-2.88157,0.0],[-78.96976,-2.88147,0.0],[-78.97041,-2.88126,0.0],[-78.97056,-2.88119,0.0],[-78.97071,-2.88092,0.0],[-78.97097,-2.8805,0.0],[-78.97121,-2.88017,0.0],[-78.97144,-2.87966,0.0],[-78.9715,-2.87939,0.0],[-78.97164,-2.87887,0.0],[-78.9721,-2.87824,0.0],[-78.97244,-2.87795,0.0],[-78.97272,-2.87761,0.0],[-78.97309,-2.87707,0.0],[-78.97337,-2.8766,0.0],[-78.97383,-2.87566,0.0],[-78.97395,-2.87554,0.0],[-78.97409,-2.87545,0.0],[-78.97425,-2.87545,0.0],[-78.97451,-2.87536,0.0],[-78.97456,-2.87521,0.0],[-78.9746,-2.87514,0.0],[-78.97461,-2.87495,0.0],[-78.97459,-2.87475,0.0],[-78.97442,-2.87432,0.0],[-78.97437,-2.87389,0.0],[-78.97449,-2.87354,0.0],[-78.97468,-2.87331,0.0],[-78.97521,-2.87271,0.0],[-78.97532,-2.87242,0.0],[-78.97536,-2.87176,0.0],[-78.97537,-2.87136,0.0],[-78.97537,-2.87131,0.0],[-78.97543,-2.87113,0.0],[-78.97548,-2.87108,0.0],[-78.97553,-2.871,0.0],[-78.97597,-2.87076,0.0],[-78.97644,-2.87058,0.0],[-78.97665,-2.87041,0.0],[-78.97681,-2.87028,0.0],[-78.97688,-2.87007,0.0],[-78.97691,-2.86984,0.0],[-78.97695,-2.86963,0.0],[-78.97744,-2.86877,0.0],[-78.97768,-2.86851,0.0],[-78.97844,-2.86803,0.0],[-78.97862,-2.86765,0.0],[-78.97883,-2.86719,0.0],[-78.97927,-2.86645,0.0],[-78.9794,-2.86559,0.0],[-78.97952,-2.86498,0.0],[-78.97966,-2.86458,0.0],[-78.97987,-2.86385,0.0],[-78.98021,-2.8633,0.0],[-78.98077,-2.86287,0.0],[-78.98102,-2.86225,0.0],[-78.98104,-2.86191,0.0],[-78.98111,-2.86107,0.0],[-78.98162,-2.86045,0.0],[-78.98158,-2.85986,0.0],[-78.98174,-2.85923,0.0],[-78.98226,-2.85852,0.0],[-78.98239,-2.85792,0.0],[-78.9827,-2.8574,0.0],[-78.98324,-2.85712,0.0],[-78.98353,-2.85684,0.0],[-78.98637,-2.85494,0.0],[-78.98581,-2.85273,0.0],[-78.98578,-2.85192,0.0],[-78.98663,-2.84913,0.0],[-78.98701,-2.84213,0.0],[-78.98691,-2.83989,0.0],[-78.98737,-2.83909,0.0],[-78.98742,-2.83845,0.0],[-78.98718,-2.83769,0.0],[-78.98682,-2.83706,0.0],[-78.98639,-2.83653,0.0],[-78.98592,-2.83482,0.0],[-78.98601,-2.83363,0.0],[-78.9856,-2.83313,0.0],[-78.98572,-2.83239,0.0],[-78.98621,-2.83083,0.0],[-78.98629,-2.82971,0.0],[-78.98645,-2.82881,0.0],[-78.98645,-2.8267,0.0],[-78.98636,-2.82648,0.0],[-78.98484,-2.82514,0.0],[-78.98377,-2.82466,0.0],[-78.98289,-2.82493,0.0],[-78.98213,-2.82603,0.0],[-78.98185,-2.82718,0.0],[-78.98161,-2.82901,0.0],[-78.9821,-2.83071,0.0],[-78.9846,-2.83376,0.0],[-78.98449,-2.83483,0.0],[-78.98377,-2.83659,0.0],[-78.98195,-2.83883,0.0],[-78.98183,-2.83942,0.0],[-78.98162,-2.84039,0.0],[-78.9822,-2.84198,0.0],[-78.9817,-2.84522,0.0],[-78.98134,-2.85058,0.0],[-78.97975,-2.85531,0.0],[-78.97914,-2.85978,0.0],[-78.97723,-2.86327,0.0],[-78.97429,-2.87036,0.0],[-78.97335,-2.87198,0.0],[-78.96895,-2.87537,0.0],[-78.96628,-2.87685,0.0],[-78.96627,-2.87679,0.0],[-78.96609,-2.87536,0.0],[-78.96494,-2.8755,0.0],[-78.96382,-2.87067,0.0],[-78.96181,-2.86888,0.0],[-78.9619,-2.8711,0.0],[-78.96079,-2.87159,0.0],[-78.95868,-2.87307,0.0],[-78.95621,-2.87514,0.0],[-78.95502,-2.87636,0.0],[-78.95363,-2.8772,0.0],[-78.95245,-2.87719,0.0],[-78.95008,-2.87699,0.0],[-78.94783,-2.87401,0.0],[-78.94428,-2.86973,0.0],[-78.94285,-2.86756,0.0],[-78.94167,-2.86588,0.0],[-78.94112,-2.86456,0.0],[-78.9392,-2.86299,0.0],[-78.93701,-2.86149,0.0],[-78.93864,-2.86035,0.0],[-78.93827,-2.86001,0.0],[-78.93791,-2.8597,0.0],[-78.9375,-2.85984,0.0],[-78.9352,-2.85875,0.0],[-78.93182,-2.85667,0.0],[-78.93126,-2.85725,0.0],[-78.92945,-2.85593,0.0],[-78.92811,-2.85446,0.0],[-78.92575,-2.85294,0.0],[-78.92308,-2.85204,0.0],[-78.92046,-2.85043,0.0],[-78.91912,-2.85009,0.0],[-78.91601,-2.84704,0.0],[-78.91521,-2.84661,0.0],[-78.91215,-2.84577,0.0],[-78.91177,-2.84724,0.0],[-78.9112,-2.84857,0.0],[-78.91206,-2.84883,0.0],[-78.91243,-2.84881,0.0],[-78.91304,-2.84873,0.0],[-78.91378,-2.84871,0.0],[-78.91457,-2.84894,0.0],[-78.91499,-2.84911,0.0],[-78.91547,-2.84957,0.0],[-78.91599,-2.84981,0.0],[-78.91642,-2.84995,0.0],[-78.91698,-2.85018,0.0],[-78.91733,-2.85038,0.0],[-78.91762,-2.85073,0.0],[-78.91789,-2.85114,0.0],[-78.91818,-2.85163,0.0],[-78.91872,-2.85217,0.0],[-78.91924,-2.85245,0.0],[-78.91978,-2.85262,0.0],[-78.92032,-2.85281,0.0],[-78.92082,-2.85306,0.0],[-78.92156,-2.8534,0.0],[-78.92179,-2.85356,0.0],[-78.92221,-2.85389,0.0],[-78.92246,-2.85406,0.0],[-78.92271,-2.85447,0.0],[-78.92347,-2.85506,0.0],[-78.92407,-2.85555,0.0],[-78.92493,-2.85645,0.0],[-78.92558,-2.8573,0.0],[-78.92601,-2.85802,0.0],[-78.92715,-2.8593,0.0],[-78.92767,-2.85977,0.0],[-78.9279,-2.86019,0.0],[-78.92791,-2.86022,0.0],[-78.92827,-2.86086,0.0],[-78.92851,-2.86146,0.0],[-78.92879,-2.86186,0.0],[-78.92923,-2.86214,0.0],[-78.93089,-2.86299,0.0],[-78.93124,-2.86329,0.0],[-78.93147,-2.86354,0.0],[-78.93171,-2.86414,0.0],[-78.93207,-2.86457,0.0],[-78.93273,-2.86549,0.0],[-78.93336,-2.86599,0.0],[-78.93362,-2.86614,0.0],[-78.93384,-2.86617,0.0],[-78.9343,-2.86621,0.0],[-78.93499,-2.86697,0.0],[-78.93529,-2.86728,0.0],[-78.93561,-2.86767,0.0],[-78.93577,-2.8679,0.0],[-78.93616,-2.86848,0.0],[-78.937,-2.86991,0.0],[-78.93841,-2.8723,0.0],[-78.94015,-2.87524,0.0],[-78.94066,-2.87607,0.0],[-78.94093,-2.87642,0.0],[-78.94111,-2.8766,0.0],[-78.94138,-2.87688,0.0],[-78.94181,-2.87724,0.0],[-78.94231,-2.87763,0.0],[-78.94259,-2.87786,0.0],[-78.94313,-2.87836,0.0],[-78.94344,-2.87869,0.0],[-78.94361,-2.87892,0.0],[-78.94374,-2.87905,0.0],[-78.94515,-2.88082,0.0],[-78.94648,-2.88253,0.0],[-78.94692,-2.88311,0.0],[-78.94751,-2.88431,0.0],[-78.94806,-2.88526,0.0],[-78.94869,-2.88593,0.0],[-78.95201,-2.88783,0.0],[-78.95255,-2.88815,0.0],[-78.95292,-2.88839,0.0],[-78.95337,-2.88871,0.0],[-78.95369,-2.88891,0.0],[-78.95454,-2.88952,0.0],[-78.95509,-2.88993,0.0],[-78.95569,-2.89036,0.0],[-78.95627,-2.89079,0.0],[-78.95645,-2.89093,0.0],[-78.95695,-2.89132,0.0],[-78.95777,-2.89196,0.0],[-78.95868,-2.89267,0.0],[-78.95919,-2.89303,0.0],[-78.95987,-2.89366,0.0],[-78.96083,-2.89445,0.0],[-78.96087,-2.89448,0.0],[-78.96107,-2.89466,0.0],[-78.96173,-2.89351,0.0],[-78.96252,-2.89218,0.0],[-78.96304,-2.89268,0.0],[-78.96344,-2.89297,0.0],[-78.96423,-2.89301,0.0],[-78.96425,-2.89291,0.0],[-78.96428,-2.89274,0.0],[-78.96432,-2.89267,0.0],[-78.96436,-2.8926,0.0],[-78.96465,-2.89182,0.0],[-78.96489,-2.89154,0.0],[-78.96504,-2.89122,0.0],[-78.96515,-2.89109,0.0],[-78.96531,-2.89097,0.0],[-78.96566,-2.89104,0.0],[-78.96603,-2.89104,0.0],[-78.96634,-2.8909,0.0],[-78.9664,-2.89083,0.0],[-78.9665,-2.89063,0.0],[-78.96655,-2.89037,0.0],[-78.96653,-2.88953,0.0],[-78.9666,-2.88927,0.0],[-78.96681,-2.88897,0.0],[-78.96703,-2.88885,0.0],[-78.96737,-2.88853,0.0],[-78.96759,-2.88854,0.0],[-78.96785,-2.88857,0.0],[-78.96793,-2.88849,0.0],[-78.96798,-2.88823,0.0],[-78.9681,-2.88799,0.0],[-78.96853,-2.88754,0.0],[-78.96899,-2.88734,0.0],[-78.96945,-2.88699,0.0],[-78.96966,-2.88693,0.0],[-78.96987,-2.88698,0.0],[-78.96997,-2.88708,0.0],[-78.97013,-2.88736,0.0],[-78.97042,-2.88732,0.0],[-78.97058,-2.88724,0.0],[-78.97066,-2.88694,0.0],[-78.97091,-2.88638,0.0],[-78.97117,-2.88603,0.0],[-78.97145,-2.88586,0.0],[-78.97169,-2.88578,0.0],[-78.97212,-2.88573,0.0],[-78.97237,-2.88561,0.0],[-78.97255,-2.88564,0.0],[-78.97269,-2.88573,0.0],[-78.97292,-2.88567,0.0],[-78.97307,-2.88549,0.0],[-78.97313,-2.88527,0.0],[-78.97314,-2.88428,0.0],[-78.97303,-2.88411,0.0],[-78.97352,-2.88361,0.0],[-78.97393,-2.88334,0.0],[-78.97403,-2.88339,0.0],[-78.97432,-2.88368,0.0],[-78.97439,-2.88383,0.0],[-78.97452,-2.88384,0.0],[-78.97487,-2.88358,0.0],[-78.97511,-2.88327,0.0],[-78.97548,-2.88296,0.0],[-78.97614,-2.88261,0.0],[-78.97665,-2.88257,0.0],[-78.977,-2.88269,0.0],[-78.97716,-2.88269,0.0],[-78.97732,-2.88264,0.0],[-78.97757,-2.88257,0.0]]]]}},{"type":"Feature","properties":{"uesi_id":"ECU_R3693133","nbhd_code":"ECU_R3693133_3","nbhd_name":"El Vecino"},"geometry":{"type":"MultiPolygon","coordinates":[[[[-79.00739,-2.86861,0.0],[-79.00598,-2.86707,0.0],[-79.00573,-2.86695,0.0],[-79.00496,-2.86649,0.0],[-79.00473,-2.86646,0.0],[-79.00409,-2.86658,0.0],[-79.00403,-2.86656,0.0],[-79.00384,-2.86666,0.0],[-79.00354,-2.86689,0.0],[-79.00351,-2.86723,0.0],[-79.00353,-2.86738,0.0],[-79.00364,-2.86759,0.0],[-79.00427,-2.86793,0.0],[-79.00444,-2.86824,0.0],[-79.00419,-2.86854,0.0],[-79.0039,-2.86882,0.0],[-79.00331,-2.86897,0.0],[-79.00238,-2.86909,0.0],[-79.00212,-2.86929,0.0],[-79.00206,-2.86971,0.0],[-79.00231,-2.87073,0.0],[-79.00232,-2.87108,0.0],[-79.00228,-2.87122,0.0],[-79.00209,-2.87135,0.0],[-79.00195,-2.87137,0.0],[-79.0017,-2.87127,0.0],[-79.00138,-2.871,0.0],[-79.0011,-2.87066,0.0],[-79.00062,-2.87044,0.0],[-79.00009,-2.87035,0.0],[-78.99948,-2.87044,0.0],[-78.99893,-2.87072,0.0],[-78.99813,-2.87076,0.0],[-78.99768,-2.87086,0.0],[-78.99744,-2.87089,0.0],[-78.99694,-2.87087,0.0],[-78.99676,-2.87099,0.0],[-78.99674,-2.8711,0.0],[-78.99674,-2.87134,0.0],[-78.99676,-2.87156,0.0],[-78.99677,-2.87187,0.0],[-78.99665,-2.872,0.0],[-78.99657,-2.87216,0.0],[-78.99649,-2.8723,0.0],[-78.99634,-2.87248,0.0],[-78.99648,-2.87265,0.0],[-78.99645,-2.87293,0.0],[-78.99607,-2.87301,0.0],[-78.99603,-2.87317,0.0],[-78.99624,-2.87324,0.0],[-78.99629,-2.87343,0.0],[-78.99605,-2.87348,0.0],[-78.99585,-2.87366,0.0],[-78.99563,-2.8737,0.0],[-78.99536,-2.87415,0.0],[-78.99528,-2.87442,0.0],[-78.99518,-2.87484,0.0],[-78.99492,-2.87488,0.0],[-78.99476,-2.87497,0.0],[-78.99448,-2.87502,0.0],[-78.99438,-2.87526,0.0],[-78.99447,-2.87546,0.0],[-78.9943,-2.87553,0.0],[-78.99397,-2.87547,0.0],[-78.99391,-2.8757,0.0],[-78.99381,-2.87608,0.0],[-78.99387,-2.87626,0.0],[-78.9938,-2.87649,0.0],[-78.99349,-2.87657,0.0],[-78.9931,-2.87675,0.0],[-78.99283,-2.87675,0.0],[-78.99251,-2.87674,0.0],[-78.99241,-2.87667,0.0],[-78.99223,-2.87659,0.0],[-78.99205,-2.87665,0.0],[-78.99173,-2.87658,0.0],[-78.99151,-2.87633,0.0],[-78.99114,-2.87607,0.0],[-78.99063,-2.876,0.0],[-78.99035,-2.87621,0.0],[-78.99026,-2.8767,0.0],[-78.99036,-2.87689,0.0],[-78.99033,-2.87705,0.0],[-78.99018,-2.87711,0.0],[-78.98987,-2.87725,0.0],[-78.98966,-2.87728,0.0],[-78.98939,-2.87738,0.0],[-78.98915,-2.87738,0.0],[-78.98879,-2.87739,0.0],[-78.98871,-2.87717,0.0],[-78.98854,-2.87701,0.0],[-78.98824,-2.87696,0.0],[-78.98777,-2.87699,0.0],[-78.98752,-2.87718,0.0],[-78.98745,-2.87736,0.0],[-78.98742,-2.87756,0.0],[-78.98737,-2.8777,0.0],[-78.98729,-2.8778,0.0],[-78.98712,-2.87791,0.0],[-78.98698,-2.87795,0.0],[-78.98692,-2.87794,0.0],[-78.98674,-2.87796,0.0],[-78.98667,-2.87798,0.0],[-78.98655,-2.87807,0.0],[-78.9865,-2.87816,0.0],[-78.98634,-2.87829,0.0],[-78.98594,-2.87842,0.0],[-78.98578,-2.87845,0.0],[-78.98562,-2.87844,0.0],[-78.98556,-2.87839,0.0],[-78.98554,-2.87832,0.0],[-78.98557,-2.8782,0.0],[-78.98559,-2.87808,0.0],[-78.98556,-2.87785,0.0],[-78.98544,-2.87772,0.0],[-78.98532,-2.8778,0.0],[-78.98506,-2.87787,0.0],[-78.98486,-2.8778,0.0],[-78.98476,-2.87784,0.0],[-78.98453,-2.87789,0.0],[-78.98443,-2.87804,0.0],[-78.98426,-2.8783,0.0],[-78.98413,-2.87839,0.0],[-78.98399,-2.87839,0.0],[-78.98392,-2.8783,0.0],[-78.98378,-2.87797,0.0],[-78.98363,-2.87802,0.0],[-78.98347,-2.87826,0.0],[-78.98348,-2.87845,0.0],[-78.98372,-2.87878,0.0],[-78.98373,-2.87888,0.0],[-78.98367,-2.87901,0.0],[-78.98345,-2.87912,0.0],[-78.98321,-2.87934,0.0],[-78.98286,-2.87966,0.0],[-78.98266,-2.87989,0.0],[-78.98257,-2.88007,0.0],[-78.98145,-2.87922,0.0],[-78.98103,-2.87902,0.0],[-78.98081,-2.87897,0.0],[-78.98069,-2.87893,0.0],[-78.98019,-2.87895,0.0],[-78.97867,-2.87936,0.0],[-78.97727,-2.88017,0.0],[-78.97516,-2.88146,0.0],[-78.97428,-2.88228,0.0],[-78.97576,-2.88213,0.0],[-78.97586,-2.88211,0.0],[-78.9768,-2.88183,0.0],[-78.97687,-2.88182,0.0],[-78.97706,-2.88181,0.0],[-78.97711,-2.88182,0.0],[-78.97722,-2.88184,0.0],[-78.97737,-2.88195,0.0],[-78.9774,-2.88204,0.0],[-78.97743,-2.88209,0.0],[-78.97746,-2.88213,0.0],[-78.97746,-2.88219,0.0],[-78.97747,-2.88222,0.0],[-78.97753,-2.88241,0.0],[-78.97757,-2.88257,0.0],[-78.97762,-2.88268,0.0],[-78.97764,-2.88272,0.0],[-78.97769,-2.88287,0.0],[-78.97773,-2.88295,0.0],[-78.97782,-2.88311,0.0],[-78.97785,-2.88316,0.0],[-78.97793,-2.88328,0.0],[-78.97802,-2.88335,0.0],[-78.97833,-2.88349,0.0],[-78.97871,-2.88356,0.0],[-78.9789,-2.88353,0.0],[-78.97899,-2.88352,0.0],[-78.97938,-2.88346,0.0],[-78.97956,-2.88343,0.0],[-78.97987,-2.88339,0.0],[-78.98004,-2.8834,0.0],[-78.98036,-2.8835,0.0],[-78.98096,-2.88393,0.0],[-78.98102,-2.88398,0.0],[-78.98107,-2.884,0.0],[-78.9812,-2.884,0.0],[-78.98123,-2.884,0.0],[-78.98155,-2.88401,0.0],[-78.98169,-2.884,0.0],[-78.98184,-2.88399,0.0],[-78.98188,-2.88399,0.0],[-78.98199,-2.88401,0.0],[-78.98209,-2.88402,0.0],[-78.98218,-2.88405,0.0],[-78.98231,-2.8841,0.0],[-78.9825,-2.88417,0.0],[-78.98359,-2.88494,0.0],[-78.98364,-2.88498,0.0],[-78.98411,-2.88533,0.0],[-78.98768,-2.88819,0.0],[-78.98776,-2.88825,0.0],[-78.99056,-2.89055,0.0],[-78.99083,-2.89062,0.0],[-78.99396,-2.89146,0.0],[-78.99509,-2.89178,0.0],[-78.99523,-2.89181,0.0],[-78.9954,-2.89187,0.0],[-78.9955,-2.8919,0.0],[-78.99633,-2.89208,0.0],[-78.99635,-2.89211,0.0],[-78.99635,-2.89221,0.0],[-78.99635,-2.89224,0.0],[-78.99636,-2.89231,0.0],[-78.99638,-2.89257,0.0],[-78.99641,-2.89313,0.0],[-78.99642,-2.89343,0.0],[-78.99648,-2.89441,0.0],[-78.99829,-2.89409,0.0],[-79.00027,-2.89371,0.0],[-79.00028,-2.89371,0.0],[-78.9999,-2.89153,0.0],[-78.99975,-2.89064,0.0],[-78.99957,-2.88953,0.0],[-78.99949,-2.88904,0.0],[-78.99946,-2.88889,0.0],[-78.99945,-2.88881,0.0],[-78.99944,-2.88876,0.0],[-78.99939,-2.88843,0.0],[-78.99924,-2.88762,0.0],[-78.99922,-2.88747,0.0],[-78.99916,-2.88712,0.0],[-78.99914,-2.88695,0.0],[-78.99909,-2.88667,0.0],[-78.99891,-2.88557,0.0],[-78.99831,-2.88571,0.0],[-78.99834,-2.88514,0.0],[-78.99836,-2.88474,0.0],[-78.99838,-2.88454,0.0],[-78.99885,-2.88295,0.0],[-78.9989,-2.88284,0.0],[-78.99893,-2.88269,0.0],[-78.99821,-2.88172,0.0],[-78.99828,-2.8804,0.0],[-78.99834,-2.87981,0.0],[-78.99842,-2.87976,0.0],[-78.9985,-2.87957,0.0],[-78.99854,-2.87946,0.0],[-78.99865,-2.87934,0.0],[-78.99969,-2.87884,0.0],[-79.00005,-2.87891,0.0],[-79.00029,-2.8788,0.0],[-79.00042,-2.87866,0.0],[-79.00049,-2.87848,0.0],[-79.00047,-2.87831,0.0],[-79.00011,-2.87806,0.0],[-78.99991,-2.87795,0.0],[-78.99988,-2.87749,0.0],[-78.99988,-2.87709,0.0],[-78.99829,-2.87606,0.0],[-78.99797,-2.8753,0.0],[-78.99779,-2.8748,0.0],[-78.99877,-2.87463,0.0],[-78.99958,-2.8748,0.0],[-79.00036,-2.87471,0.0],[-79.00137,-2.87439,0.0],[-79.0021,-2.87418,0.0],[-79.00234,-2.87427,0.0],[-79.00281,-2.87419,0.0],[-79.00341,-2.87392,0.0],[-79.00407,-2.87328,0.0],[-79.00437,-2.87302,0.0],[-79.00498,-2.87307,0.0],[-79.00651,-2.87028,0.0],[-79.00685,-2.87025,0.0],[-79.00715,-2.86916,0.0],[-79.00735,-2.86889,0.0],[-79.00739,-2.86861,0.0]]]]}},{"type":"Feature","properties":{"uesi_id":"ECU_R3693133","nbhd_code":"ECU_R3693133_4","nbhd_name":"Ca\u00f1aribamba"},"geometry":{"type":"MultiPolygon","coordinates":[[[[-78.98476,-2.9084,0.0],[-78.98497,-2.90834,0.0],[-78.98511,-2.90831,0.0],[-78.98649,-2.90798,0.0],[-78.98761,-2.90834,0.0],[-78.98985,-2.90852,0.0],[-78.99085,-2.90876,0.0],[-78.99187,-2.9093,0.0],[-78.9931,-2.90996,0.0],[-78.99416,-2.90985,0.0],[-78.99433,-2.90987,0.0],[-78.99541,-2.91024,0.0],[-78.99562,-2.91025,0.0],[-78.99567,-2.91025,0.0],[-78.9957,-2.9101,0.0],[-78.9957,-2.91001,0.0],[-78.99569,-2.90994,0.0],[-78.99583,-2.90926,0.0],[-78.9964,-2.90583,0.0],[-78.9954,-2.90607,0.0],[-78.99496,-2.90517,0.0],[-78.99494,-2.90512,0.0],[-78.99473,-2.9047,0.0],[-78.99455,-2.90426,0.0],[-78.99421,-2.90343,0.0],[-78.99401,-2.90358,0.0],[-78.99394,-2.90352,0.0],[-78.99252,-2.90204,0.0],[-78.99245,-2.90198,0.0],[-78.99197,-2.9012,0.0],[-78.99163,-2.90065,0.0],[-78.99074,-2.89922,0.0],[-78.9907,-2.89915,0.0],[-78.99054,-2.89902,0.0],[-78.98807,-2.89993,0.0],[-78.98782,-2.90002,0.0],[-78.9875,-2.90013,0.0],[-78.98724,-2.90014,0.0],[-78.98692,-2.90003,0.0],[-78.98686,-2.9,0.0],[-78.98596,-2.89964,0.0],[-78.98582,-2.89959,0.0],[-78.98471,-2.89927,0.0],[-78.98454,-2.89922,0.0],[-78.98462,-2.89994,0.0],[-78.98457,-2.90077,0.0],[-78.98443,-2.9027,0.0],[-78.98436,-2.90353,0.0],[-78.98408,-2.9047,0.0],[-78.98373,-2.90596,0.0],[-78.9837,-2.90608,0.0],[-78.98363,-2.90623,0.0],[-78.98355,-2.90643,0.0],[-78.9834,-2.90677,0.0],[-78.98418,-2.90755,0.0],[-78.98476,-2.9084,0.0]]]]}},{"type":"Feature","properties":{"uesi_id":"ECU_R3693133","nbhd_code":"ECU_R3693133_5","nbhd_name":"Monay"},"geometry":{"type":"MultiPolygon","coordinates":[[[[-78.98476,-2.9084,0.0],[-78.98418,-2.90755,0.0],[-78.9834,-2.90677,0.0],[-78.98355,-2.90643,0.0],[-78.98363,-2.90623,0.0],[-78.9837,-2.90608,0.0],[-78.98373,-2.90596,0.0],[-78.98408,-2.9047,0.0],[-78.98436,-2.90353,0.0],[-78.98443,-2.9027,0.0],[-78.98457,-2.90077,0.0],[-78.98462,-2.89994,0.0],[-78.98454,-2.89922,0.0],[-78.98436,-2.89916,0.0],[-78.98432,-2.89915,0.0],[-78.98052,-2.89778,0.0],[-78.97993,-2.89757,0.0],[-78.97943,-2.89738,0.0],[-78.97934,-2.89735,0.0],[-78.97924,-2.89731,0.0],[-78.97918,-2.8973,0.0],[-78.979,-2.89727,0.0],[-78.97886,-2.89724,0.0],[-78.97868,-2.89721,0.0],[-78.97825,-2.89717,0.0],[-78.97713,-2.89705,0.0],[-78.97702,-2.89703,0.0],[-78.97618,-2.89684,0.0],[-78.97568,-2.89683,0.0],[-78.97537,-2.89683,0.0],[-78.97519,-2.89682,0.0],[-78.97508,-2.89681,0.0],[-78.97498,-2.89679,0.0],[-78.97493,-2.89678,0.0],[-78.97483,-2.89676,0.0],[-78.97483,-2.89674,0.0],[-78.97482,-2.89661,0.0],[-78.97483,-2.89657,0.0],[-78.97485,-2.89652,0.0],[-78.97492,-2.8962,0.0],[-78.97507,-2.89568,0.0],[-78.97521,-2.89494,0.0],[-78.97536,-2.89441,0.0],[-78.97557,-2.89372,0.0],[-78.97574,-2.89322,0.0],[-78.97576,-2.89313,0.0],[-78.97634,-2.89149,0.0],[-78.97634,-2.89147,0.0],[-78.97532,-2.89089,0.0],[-78.97353,-2.88984,0.0],[-78.97328,-2.88968,0.0],[-78.97322,-2.88964,0.0],[-78.97294,-2.88946,0.0],[-78.97259,-2.88927,0.0],[-78.97182,-2.88884,0.0],[-78.97172,-2.88878,0.0],[-78.97126,-2.88852,0.0],[-78.97106,-2.88836,0.0],[-78.97062,-2.88789,0.0],[-78.97013,-2.88736,0.0],[-78.96997,-2.88708,0.0],[-78.96987,-2.88698,0.0],[-78.96966,-2.88693,0.0],[-78.96945,-2.88699,0.0],[-78.96899,-2.88734,0.0],[-78.96853,-2.88754,0.0],[-78.9681,-2.88799,0.0],[-78.96798,-2.88823,0.0],[-78.96793,-2.88849,0.0],[-78.96785,-2.88857,0.0],[-78.96759,-2.88854,0.0],[-78.96737,-2.88853,0.0],[-78.96703,-2.88885,0.0],[-78.96681,-2.88897,0.0],[-78.9666,-2.88927,0.0],[-78.96653,-2.88953,0.0],[-78.96655,-2.89037,0.0],[-78.9665,-2.89063,0.0],[-78.9664,-2.89083,0.0],[-78.96634,-2.8909,0.0],[-78.96603,-2.89104,0.0],[-78.96566,-2.89104,0.0],[-78.96531,-2.89097,0.0],[-78.96515,-2.89109,0.0],[-78.96504,-2.89122,0.0],[-78.96489,-2.89154,0.0],[-78.96465,-2.89182,0.0],[-78.96436,-2.8926,0.0],[-78.96432,-2.89267,0.0],[-78.96428,-2.89274,0.0],[-78.96425,-2.89291,0.0],[-78.96423,-2.89301,0.0],[-78.96344,-2.89297,0.0],[-78.96304,-2.89268,0.0],[-78.96252,-2.89218,0.0],[-78.96173,-2.89351,0.0],[-78.96107,-2.89466,0.0],[-78.96123,-2.89477,0.0],[-78.9613,-2.89482,0.0],[-78.96174,-2.89522,0.0],[-78.96217,-2.89558,0.0],[-78.96288,-2.8962,0.0],[-78.96302,-2.89637,0.0],[-78.96346,-2.89683,0.0],[-78.96376,-2.8972,0.0],[-78.96408,-2.8975,0.0],[-78.96409,-2.89766,0.0],[-78.9641,-2.89774,0.0],[-78.96414,-2.89899,0.0],[-78.96375,-2.90076,0.0],[-78.96108,-2.90326,0.0],[-78.96058,-2.90373,0.0],[-78.96253,-2.90391,0.0],[-78.9635,-2.90599,0.0],[-78.96458,-2.90741,0.0],[-78.96551,-2.90831,0.0],[-78.96633,-2.90956,0.0],[-78.96689,-2.91049,0.0],[-78.96753,-2.91107,0.0],[-78.96921,-2.91127,0.0],[-78.97088,-2.91219,0.0],[-78.97164,-2.91294,0.0],[-78.97431,-2.91352,0.0],[-78.97852,-2.91433,0.0],[-78.98305,-2.91094,0.0],[-78.98455,-2.91238,0.0],[-78.98525,-2.91312,0.0],[-78.98561,-2.9135,0.0],[-78.98575,-2.91336,0.0],[-78.98608,-2.91305,0.0],[-78.98625,-2.9129,0.0],[-78.98626,-2.91289,0.0],[-78.98642,-2.91276,0.0],[-78.98673,-2.91267,0.0],[-78.98683,-2.91266,0.0],[-78.98705,-2.91262,0.0],[-78.98783,-2.91193,0.0],[-78.98815,-2.91165,0.0],[-78.9869,-2.91121,0.0],[-78.98615,-2.91034,0.0],[-78.98603,-2.9095,0.0],[-78.98476,-2.9084,0.0]]]]}},{"type":"Feature","properties":{"uesi_id":"ECU_R3693133","nbhd_code":"ECU_R3693133_6","nbhd_name":"San Blas"},"geometry":{"type":"MultiPolygon","coordinates":[[[[-78.99523,-2.89181,0.0],[-78.99516,-2.89211,0.0],[-78.99233,-2.89464,0.0],[-78.99196,-2.89514,0.0],[-78.99159,-2.89519,0.0],[-78.98979,-2.89546,0.0],[-78.98982,-2.89614,0.0],[-78.98983,-2.89646,0.0],[-78.9898,-2.89739,0.0],[-78.99012,-2.8982,0.0],[-78.99054,-2.89902,0.0],[-78.9907,-2.89915,0.0],[-78.99074,-2.89922,0.0],[-78.99163,-2.90065,0.0],[-78.99197,-2.9012,0.0],[-78.99245,-2.90198,0.0],[-78.99252,-2.90204,0.0],[-78.99394,-2.90352,0.0],[-78.99401,-2.90358,0.0],[-78.99421,-2.90343,0.0],[-78.99455,-2.90426,0.0],[-78.99473,-2.9047,0.0],[-78.99494,-2.90512,0.0],[-78.99496,-2.90517,0.0],[-78.9954,-2.90607,0.0],[-78.9964,-2.90583,0.0],[-78.99583,-2.90926,0.0],[-78.99569,-2.90994,0.0],[-78.9957,-2.91001,0.0],[-78.9957,-2.9101,0.0],[-78.99567,-2.91025,0.0],[-78.99599,-2.91023,0.0],[-78.9965,-2.9098,0.0],[-78.99761,-2.90882,0.0],[-78.9992,-2.90671,0.0],[-79.00018,-2.90578,0.0],[-78.9999,-2.90537,0.0],[-79.00035,-2.90471,0.0],[-78.99896,-2.89833,0.0],[-78.99884,-2.8973,0.0],[-78.99884,-2.89728,0.0],[-78.99847,-2.89513,0.0],[-78.99829,-2.89409,0.0],[-78.99648,-2.89441,0.0],[-78.99642,-2.89343,0.0],[-78.99641,-2.89313,0.0],[-78.99638,-2.89257,0.0],[-78.99636,-2.89231,0.0],[-78.99635,-2.89224,0.0],[-78.99635,-2.89221,0.0],[-78.99635,-2.89211,0.0],[-78.99633,-2.89208,0.0],[-78.9955,-2.8919,0.0],[-78.9954,-2.89187,0.0],[-78.99523,-2.89181,0.0]]]]}},{"type":"Feature","properties":{"uesi_id":"ECU_R3693133","nbhd_code":"ECU_R3693133_7","nbhd_name":"Totoracocha"},"geometry":{"type":"MultiPolygon","coordinates":[[[[-78.99523,-2.89181,0.0],[-78.99509,-2.89178,0.0],[-78.99396,-2.89146,0.0],[-78.99083,-2.89062,0.0],[-78.99056,-2.89055,0.0],[-78.98776,-2.88825,0.0],[-78.98768,-2.88819,0.0],[-78.98411,-2.88533,0.0],[-78.98364,-2.88498,0.0],[-78.98359,-2.88494,0.0],[-78.9825,-2.88417,0.0],[-78.98231,-2.8841,0.0],[-78.98218,-2.88405,0.0],[-78.98209,-2.88402,0.0],[-78.98199,-2.88401,0.0],[-78.98188,-2.88399,0.0],[-78.98184,-2.88399,0.0],[-78.98169,-2.884,0.0],[-78.98155,-2.88401,0.0],[-78.98123,-2.884,0.0],[-78.9812,-2.884,0.0],[-78.98107,-2.884,0.0],[-78.98102,-2.88398,0.0],[-78.98096,-2.88393,0.0],[-78.98036,-2.8835,0.0],[-78.98004,-2.8834,0.0],[-78.97987,-2.88339,0.0],[-78.97956,-2.88343,0.0],[-78.97938,-2.88346,0.0],[-78.97899,-2.88352,0.0],[-78.9789,-2.88353,0.0],[-78.97871,-2.88356,0.0],[-78.97833,-2.88349,0.0],[-78.97802,-2.88335,0.0],[-78.97793,-2.88328,0.0],[-78.97785,-2.88316,0.0],[-78.97782,-2.88311,0.0],[-78.97773,-2.88295,0.0],[-78.97769,-2.88287,0.0],[-78.97764,-2.88272,0.0],[-78.97762,-2.88268,0.0],[-78.97757,-2.88257,0.0],[-78.97732,-2.88264,0.0],[-78.97716,-2.88269,0.0],[-78.977,-2.88269,0.0],[-78.97665,-2.88257,0.0],[-78.97614,-2.88261,0.0],[-78.97548,-2.88296,0.0],[-78.97511,-2.88327,0.0],[-78.97487,-2.88358,0.0],[-78.97452,-2.88384,0.0],[-78.97439,-2.88383,0.0],[-78.97432,-2.88368,0.0],[-78.97403,-2.88339,0.0],[-78.97393,-2.88334,0.0],[-78.97352,-2.88361,0.0],[-78.97303,-2.88411,0.0],[-78.97314,-2.88428,0.0],[-78.97313,-2.88527,0.0],[-78.97307,-2.88549,0.0],[-78.97292,-2.88567,0.0],[-78.97269,-2.88573,0.0],[-78.97255,-2.88564,0.0],[-78.97237,-2.88561,0.0],[-78.97212,-2.88573,0.0],[-78.97169,-2.88578,0.0],[-78.97145,-2.88586,0.0],[-78.97117,-2.88603,0.0],[-78.97091,-2.88638,0.0],[-78.97066,-2.88694,0.0],[-78.97058,-2.88724,0.0],[-78.97042,-2.88732,0.0],[-78.97013,-2.88736,0.0],[-78.97062,-2.88789,0.0],[-78.97106,-2.88836,0.0],[-78.97126,-2.88852,0.0],[-78.97172,-2.88878,0.0],[-78.97182,-2.88884,0.0],[-78.97259,-2.88927,0.0],[-78.97294,-2.88946,0.0],[-78.97322,-2.88964,0.0],[-78.97328,-2.88968,0.0],[-78.97353,-2.88984,0.0],[-78.97532,-2.89089,0.0],[-78.97634,-2.89147,0.0],[-78.97634,-2.89149,0.0],[-78.97576,-2.89313,0.0],[-78.97574,-2.89322,0.0],[-78.97557,-2.89372,0.0],[-78.97536,-2.89441,0.0],[-78.97521,-2.89494,0.0],[-78.97507,-2.89568,0.0],[-78.97492,-2.8962,0.0],[-78.97485,-2.89652,0.0],[-78.97483,-2.89657,0.0],[-78.97482,-2.89661,0.0],[-78.97483,-2.89674,0.0],[-78.97483,-2.89676,0.0],[-78.97493,-2.89678,0.0],[-78.97498,-2.89679,0.0],[-78.97508,-2.89681,0.0],[-78.97519,-2.89682,0.0],[-78.97537,-2.89683,0.0],[-78.97568,-2.89683,0.0],[-78.97618,-2.89684,0.0],[-78.97702,-2.89703,0.0],[-78.97713,-2.89705,0.0],[-78.97825,-2.89717,0.0],[-78.97868,-2.89721,0.0],[-78.97886,-2.89724,0.0],[-78.979,-2.89727,0.0],[-78.97918,-2.8973,0.0],[-78.97924,-2.89731,0.0],[-78.97934,-2.89735,0.0],[-78.97943,-2.89738,0.0],[-78.97993,-2.89757,0.0],[-78.98052,-2.89778,0.0],[-78.98432,-2.89915,0.0],[-78.98436,-2.89916,0.0],[-78.98454,-2.89922,0.0],[-78.98471,-2.89927,0.0],[-78.98582,-2.89959,0.0],[-78.98596,-2.89964,0.0],[-78.98686,-2.9,0.0],[-78.98692,-2.90003,0.0],[-78.98724,-2.90014,0.0],[-78.9875,-2.90013,0.0],[-78.98782,-2.90002,0.0],[-78.98807,-2.89993,0.0],[-78.99054,-2.89902,0.0],[-78.99012,-2.8982,0.0],[-78.9898,-2.89739,0.0],[-78.98983,-2.89646,0.0],[-78.98982,-2.89614,0.0],[-78.98979,-2.89546,0.0],[-78.99159,-2.89519,0.0],[-78.99196,-2.89514,0.0],[-78.99233,-2.89464,0.0],[-78.99516,-2.89211,0.0],[-78.99523,-2.89181,0.0]]]]}},{"type":"Feature","properties":{"uesi_id":"ECU_R3693133","nbhd_code":"ECU_R3693133_8","nbhd_name":"El Sagrario"},"geometry":{"type":"MultiPolygon","coordinates":[[[[-79.00018,-2.90578,0.0],[-79.00038,-2.90559,0.0],[-79.00124,-2.90455,0.0],[-79.0036,-2.90291,0.0],[-79.00543,-2.90194,0.0],[-79.00602,-2.90172,0.0],[-79.00555,-2.90097,0.0],[-79.00522,-2.89905,0.0],[-79.00465,-2.89583,0.0],[-79.00464,-2.89581,0.0],[-79.00434,-2.89447,0.0],[-79.00422,-2.89381,0.0],[-79.00404,-2.8928,0.0],[-79.00028,-2.89371,0.0],[-79.00027,-2.89371,0.0],[-78.99829,-2.89409,0.0],[-78.99847,-2.89513,0.0],[-78.99884,-2.89728,0.0],[-78.99884,-2.8973,0.0],[-78.99896,-2.89833,0.0],[-79.00035,-2.90471,0.0],[-78.9999,-2.90537,0.0],[-79.00018,-2.90578,0.0]]]]}},{"type":"Feature","properties":{"uesi_id":"ECU_R3693133","nbhd_code":"ECU_R3693133_9","nbhd_name":"Gil Ram\u00edrez D\u00e1valos"},"geometry":{"type":"MultiPolygon","coordinates":[[[[-79.00404,-2.8928,0.0],[-79.00422,-2.89381,0.0],[-79.00434,-2.89447,0.0],[-79.00464,-2.89581,0.0],[-79.00465,-2.89583,0.0],[-79.00522,-2.89905,0.0],[-79.00555,-2.90097,0.0],[-79.00602,-2.90172,0.0],[-79.00712,-2.90128,0.0],[-79.00854,-2.89998,0.0],[-79.00913,-2.89954,0.0],[-79.0102,-2.89875,0.0],[-79.01169,-2.89839,0.0],[-79.0112,-2.8972,0.0],[-79.01077,-2.89523,0.0],[-79.01017,-2.89215,0.0],[-79.01,-2.89127,0.0],[-79.00813,-2.89174,0.0],[-79.00703,-2.89201,0.0],[-79.00404,-2.8928,0.0]]]]}},{"type":"Feature","properties":{"uesi_id":"ECU_R3693133","nbhd_code":"ECU_R3693133_10","nbhd_name":"Bellavista"},"geometry":{"type":"MultiPolygon","coordinates":[[[[-79.00437,-2.87302,0.0],[-79.00407,-2.87328,0.0],[-79.00341,-2.87392,0.0],[-79.00281,-2.87419,0.0],[-79.00234,-2.87427,0.0],[-79.0021,-2.87418,0.0],[-79.00137,-2.87439,0.0],[-79.00036,-2.87471,0.0],[-78.99958,-2.8748,0.0],[-78.99877,-2.87463,0.0],[-78.99779,-2.8748,0.0],[-78.99797,-2.8753,0.0],[-78.99829,-2.87606,0.0],[-78.99988,-2.87709,0.0],[-78.99988,-2.87749,0.0],[-78.99991,-2.87795,0.0],[-79.00011,-2.87806,0.0],[-79.00047,-2.87831,0.0],[-79.00049,-2.87848,0.0],[-79.00042,-2.87866,0.0],[-79.00029,-2.8788,0.0],[-79.00005,-2.87891,0.0],[-78.99969,-2.87884,0.0],[-78.99865,-2.87934,0.0],[-78.99854,-2.87946,0.0],[-78.9985,-2.87957,0.0],[-78.99842,-2.87976,0.0],[-78.99834,-2.87981,0.0],[-78.99828,-2.8804,0.0],[-78.99821,-2.88172,0.0],[-78.99893,-2.88269,0.0],[-78.9989,-2.88284,0.0],[-78.99885,-2.88295,0.0],[-78.99838,-2.88454,0.0],[-78.99836,-2.88474,0.0],[-78.99834,-2.88514,0.0],[-78.99831,-2.88571,0.0],[-78.99891,-2.88557,0.0],[-78.99909,-2.88667,0.0],[-78.99914,-2.88695,0.0],[-78.99916,-2.88712,0.0],[-78.99922,-2.88747,0.0],[-78.99924,-2.88762,0.0],[-78.99939,-2.88843,0.0],[-78.99944,-2.88876,0.0],[-78.99945,-2.88881,0.0],[-78.99946,-2.88889,0.0],[-78.99949,-2.88904,0.0],[-78.99957,-2.88953,0.0],[-78.99975,-2.89064,0.0],[-78.9999,-2.89153,0.0],[-79.00028,-2.89371,0.0],[-79.00404,-2.8928,0.0],[-79.00703,-2.89201,0.0],[-79.00813,-2.89174,0.0],[-79.01,-2.89127,0.0],[-79.0116,-2.89089,0.0],[-79.01203,-2.89079,0.0],[-79.013,-2.89058,0.0],[-79.01423,-2.89028,0.0],[-79.01406,-2.88792,0.0],[-79.01476,-2.88765,0.0],[-79.01493,-2.88756,0.0],[-79.01498,-2.88748,0.0],[-79.015,-2.88743,0.0],[-79.01506,-2.88723,0.0],[-79.01512,-2.88695,0.0],[-79.01515,-2.88673,0.0],[-79.01519,-2.88629,0.0],[-79.0152,-2.88619,0.0],[-79.01521,-2.88613,0.0],[-79.01527,-2.88593,0.0],[-79.01537,-2.88571,0.0],[-79.01579,-2.88461,0.0],[-79.01587,-2.88445,0.0],[-79.01589,-2.88439,0.0],[-79.01601,-2.88421,0.0],[-79.0161,-2.88408,0.0],[-79.0162,-2.88405,0.0],[-79.01655,-2.8839,0.0],[-79.01682,-2.88378,0.0],[-79.01698,-2.8837,0.0],[-79.017,-2.88369,0.0],[-79.01713,-2.88363,0.0],[-79.01748,-2.88344,0.0],[-79.01762,-2.88332,0.0],[-79.01771,-2.88319,0.0],[-79.01786,-2.88288,0.0],[-79.01791,-2.88279,0.0],[-79.01803,-2.88253,0.0],[-79.01829,-2.88213,0.0],[-79.01844,-2.88201,0.0],[-79.01888,-2.88165,0.0],[-79.01908,-2.88146,0.0],[-79.01921,-2.88135,0.0],[-79.01923,-2.88129,0.0],[-79.0197,-2.88135,0.0],[-79.02167,-2.88196,0.0],[-79.0224,-2.88207,0.0],[-79.02439,-2.88203,0.0],[-79.02507,-2.8818,0.0],[-79.02569,-2.88115,0.0],[-79.02577,-2.88105,0.0],[-79.02589,-2.88098,0.0],[-79.02734,-2.88007,0.0],[-79.02808,-2.87898,0.0],[-79.02816,-2.87892,0.0],[-79.02889,-2.87802,0.0],[-79.02972,-2.87737,0.0],[-79.0302,-2.87706,0.0],[-79.03033,-2.87698,0.0],[-79.03094,-2.87671,0.0],[-79.03159,-2.87651,0.0],[-79.03189,-2.8764,0.0],[-79.032,-2.87636,0.0],[-79.03259,-2.87598,0.0],[-79.03396,-2.87425,0.0],[-79.03502,-2.87307,0.0],[-79.03465,-2.87254,0.0],[-79.03358,-2.87284,0.0],[-79.03084,-2.87554,0.0],[-79.02879,-2.87611,0.0],[-79.02861,-2.87616,0.0],[-79.02835,-2.87642,0.0],[-79.02812,-2.87665,0.0],[-79.028,-2.87671,0.0],[-79.02765,-2.87688,0.0],[-79.02753,-2.877,0.0],[-79.0273,-2.87723,0.0],[-79.02699,-2.87743,0.0],[-79.02645,-2.87777,0.0],[-79.02557,-2.87832,0.0],[-79.02534,-2.87848,0.0],[-79.02509,-2.87885,0.0],[-79.02458,-2.87918,0.0],[-79.02431,-2.87921,0.0],[-79.024,-2.8792,0.0],[-79.0239,-2.8792,0.0],[-79.02348,-2.87924,0.0],[-79.02272,-2.87909,0.0],[-79.02236,-2.87911,0.0],[-79.02209,-2.87885,0.0],[-79.02191,-2.87878,0.0],[-79.02172,-2.87872,0.0],[-79.02154,-2.87884,0.0],[-79.02141,-2.87908,0.0],[-79.02127,-2.8792,0.0],[-79.02103,-2.8791,0.0],[-79.02082,-2.87883,0.0],[-79.02071,-2.87878,0.0],[-79.02039,-2.87872,0.0],[-79.02014,-2.87862,0.0],[-79.01982,-2.87847,0.0],[-79.01945,-2.87836,0.0],[-79.01919,-2.87818,0.0],[-79.01883,-2.87803,0.0],[-79.01871,-2.87777,0.0],[-79.01859,-2.87758,0.0],[-79.0184,-2.87755,0.0],[-79.01832,-2.87764,0.0],[-79.01834,-2.87783,0.0],[-79.01836,-2.87801,0.0],[-79.01829,-2.87809,0.0],[-79.01746,-2.87782,0.0],[-79.0172,-2.878,0.0],[-79.01691,-2.8778,0.0],[-79.01675,-2.87774,0.0],[-79.01633,-2.87785,0.0],[-79.01615,-2.87812,0.0],[-79.01593,-2.8783,0.0],[-79.01575,-2.87832,0.0],[-79.01558,-2.87829,0.0],[-79.01545,-2.87822,0.0],[-79.01515,-2.87826,0.0],[-79.01506,-2.87815,0.0],[-79.01489,-2.87805,0.0],[-79.0146,-2.87832,0.0],[-79.01427,-2.87838,0.0],[-79.01397,-2.87801,0.0],[-79.01371,-2.87813,0.0],[-79.01357,-2.87828,0.0],[-79.01351,-2.87852,0.0],[-79.01342,-2.87872,0.0],[-79.01334,-2.87877,0.0],[-79.01314,-2.87886,0.0],[-79.01301,-2.87881,0.0],[-79.01286,-2.87864,0.0],[-79.01271,-2.87849,0.0],[-79.01259,-2.87836,0.0],[-79.0125,-2.87833,0.0],[-79.01246,-2.87837,0.0],[-79.01249,-2.87867,0.0],[-79.0125,-2.87879,0.0],[-79.01241,-2.87886,0.0],[-79.01208,-2.87862,0.0],[-79.01198,-2.87858,0.0],[-79.0119,-2.87866,0.0],[-79.01192,-2.87879,0.0],[-79.01198,-2.87891,0.0],[-79.01194,-2.879,0.0],[-79.01182,-2.87899,0.0],[-79.01165,-2.87887,0.0],[-79.01152,-2.87876,0.0],[-79.01142,-2.87872,0.0],[-79.01134,-2.87876,0.0],[-79.01136,-2.87885,0.0],[-79.01138,-2.87895,0.0],[-79.01144,-2.87904,0.0],[-79.01148,-2.87925,0.0],[-79.0115,-2.8794,0.0],[-79.01141,-2.87942,0.0],[-79.01128,-2.8793,0.0],[-79.01095,-2.87953,0.0],[-79.01043,-2.87976,0.0],[-79.01027,-2.87993,0.0],[-79.00986,-2.88012,0.0],[-79.00953,-2.88012,0.0],[-79.0092,-2.88021,0.0],[-79.00896,-2.88027,0.0],[-79.00879,-2.88027,0.0],[-79.00873,-2.88024,0.0],[-79.00868,-2.8802,0.0],[-79.00858,-2.88011,0.0],[-79.00851,-2.8801,0.0],[-79.00843,-2.88012,0.0],[-79.00833,-2.88015,0.0],[-79.00828,-2.88019,0.0],[-79.00826,-2.88023,0.0],[-79.00823,-2.88032,0.0],[-79.0082,-2.88041,0.0],[-79.00814,-2.88045,0.0],[-79.0081,-2.88044,0.0],[-79.00805,-2.88041,0.0],[-79.00797,-2.88037,0.0],[-79.00788,-2.88034,0.0],[-79.00779,-2.88031,0.0],[-79.00771,-2.8803,0.0],[-79.00766,-2.88027,0.0],[-79.00756,-2.88027,0.0],[-79.0075,-2.88028,0.0],[-79.00746,-2.8803,0.0],[-79.00743,-2.88036,0.0],[-79.00746,-2.88043,0.0],[-79.00755,-2.88049,0.0],[-79.00762,-2.88057,0.0],[-79.0076,-2.88063,0.0],[-79.00756,-2.88066,0.0],[-79.00751,-2.88075,0.0],[-79.00746,-2.88076,0.0],[-79.00717,-2.88077,0.0],[-79.00695,-2.88062,0.0],[-79.00687,-2.88034,0.0],[-79.00682,-2.88026,0.0],[-79.00679,-2.88018,0.0],[-79.00669,-2.88016,0.0],[-79.00662,-2.8802,0.0],[-79.00646,-2.88033,0.0],[-79.00639,-2.88051,0.0],[-79.00628,-2.88077,0.0],[-79.00616,-2.88082,0.0],[-79.00607,-2.88074,0.0],[-79.00587,-2.88042,0.0],[-79.00583,-2.88032,0.0],[-79.00579,-2.88022,0.0],[-79.00582,-2.88015,0.0],[-79.00594,-2.88004,0.0],[-79.00596,-2.87998,0.0],[-79.0059,-2.87999,0.0],[-79.00585,-2.88002,0.0],[-79.00576,-2.88014,0.0],[-79.00564,-2.88027,0.0],[-79.00553,-2.8803,0.0],[-79.00538,-2.88025,0.0],[-79.00522,-2.88016,0.0],[-79.00514,-2.88,0.0],[-79.00507,-2.87976,0.0],[-79.00476,-2.87953,0.0],[-79.00465,-2.87936,0.0],[-79.00498,-2.87935,0.0],[-79.00511,-2.87886,0.0],[-79.00548,-2.87827,0.0],[-79.00551,-2.87823,0.0],[-79.00559,-2.87816,0.0],[-79.00567,-2.87805,0.0],[-79.00573,-2.87796,0.0],[-79.00527,-2.87773,0.0],[-79.00507,-2.87732,0.0],[-79.00476,-2.87716,0.0],[-79.00467,-2.87692,0.0],[-79.00473,-2.87636,0.0],[-79.00521,-2.87627,0.0],[-79.00573,-2.87603,0.0],[-79.00582,-2.87573,0.0],[-79.0061,-2.87544,0.0],[-79.00532,-2.87463,0.0],[-79.0052,-2.87487,0.0],[-79.00505,-2.87487,0.0],[-79.00488,-2.87458,0.0],[-79.00451,-2.8746,0.0],[-79.00434,-2.87424,0.0],[-79.00437,-2.87302,0.0]]]]}},{"type":"Feature","properties":{"uesi_id":"ECU_R3693133","nbhd_code":"ECU_R3693133_11","nbhd_name":"San Sebasti\u00e1n"},"geometry":{"type":"MultiPolygon","coordinates":[[[[-79.01,-2.89127,0.0],[-79.01017,-2.89215,0.0],[-79.01077,-2.89523,0.0],[-79.0112,-2.8972,0.0],[-79.01169,-2.89839,0.0],[-79.01248,-2.89787,0.0],[-79.01351,-2.89675,0.0],[-79.01454,-2.89649,0.0],[-79.01513,-2.89598,0.0],[-79.01676,-2.89452,0.0],[-79.0175,-2.89432,0.0],[-79.01783,-2.89392,0.0],[-79.01811,-2.89334,0.0],[-79.01851,-2.89308,0.0],[-79.01868,-2.89296,0.0],[-79.01886,-2.89294,0.0],[-79.01909,-2.89291,0.0],[-79.01973,-2.89296,0.0],[-79.02028,-2.89286,0.0],[-79.02083,-2.8925,0.0],[-79.02118,-2.89245,0.0],[-79.02162,-2.89262,0.0],[-79.02214,-2.89315,0.0],[-79.02304,-2.89377,0.0],[-79.02469,-2.89407,0.0],[-79.02579,-2.89416,0.0],[-79.02646,-2.89387,0.0],[-79.0272,-2.89281,0.0],[-79.02809,-2.89201,0.0],[-79.02858,-2.89169,0.0],[-79.02888,-2.8916,0.0],[-79.02945,-2.89153,0.0],[-79.02991,-2.89134,0.0],[-79.03039,-2.89092,0.0],[-79.03082,-2.89055,0.0],[-79.03114,-2.89047,0.0],[-79.03182,-2.89053,0.0],[-79.03225,-2.89049,0.0],[-79.03329,-2.89009,0.0],[-79.03459,-2.89032,0.0],[-79.03496,-2.89033,0.0],[-79.03564,-2.89005,0.0],[-79.03611,-2.88998,0.0],[-79.03666,-2.88999,0.0],[-79.0371,-2.8899,0.0],[-79.03848,-2.88933,0.0],[-79.0393,-2.88934,0.0],[-79.03966,-2.88925,0.0],[-79.04046,-2.88867,0.0],[-79.04188,-2.88862,0.0],[-79.04232,-2.88841,0.0],[-79.04273,-2.88788,0.0],[-79.04315,-2.88738,0.0],[-79.04381,-2.88709,0.0],[-79.04479,-2.88722,0.0],[-79.04527,-2.88716,0.0],[-79.04668,-2.88677,0.0],[-79.04763,-2.88694,0.0],[-79.0487,-2.88686,0.0],[-79.04948,-2.88722,0.0],[-79.05016,-2.88738,0.0],[-79.0511,-2.88706,0.0],[-79.05208,-2.8867,0.0],[-79.05336,-2.88665,0.0],[-79.05445,-2.88619,0.0],[-79.05513,-2.88623,0.0],[-79.05578,-2.88598,0.0],[-79.05617,-2.88557,0.0],[-79.05699,-2.88544,0.0],[-79.05767,-2.88548,0.0],[-79.0581,-2.88511,0.0],[-79.0586,-2.88428,0.0],[-79.05868,-2.88394,0.0],[-79.05886,-2.88366,0.0],[-79.06067,-2.88339,0.0],[-79.06101,-2.88317,0.0],[-79.06123,-2.88301,0.0],[-79.06253,-2.88175,0.0],[-79.0631,-2.88162,0.0],[-79.06406,-2.88231,0.0],[-79.06446,-2.88225,0.0],[-79.06524,-2.88155,0.0],[-79.06644,-2.88129,0.0],[-79.0668,-2.88098,0.0],[-79.06767,-2.87986,0.0],[-79.06892,-2.87893,0.0],[-79.06946,-2.87844,0.0],[-79.07033,-2.87839,0.0],[-79.0706,-2.87834,0.0],[-79.07086,-2.87823,0.0],[-79.07121,-2.87803,0.0],[-79.07077,-2.87683,0.0],[-79.07033,-2.87689,0.0],[-79.06921,-2.87712,0.0],[-79.06819,-2.8776,0.0],[-79.06769,-2.87633,0.0],[-79.06709,-2.87603,0.0],[-79.06677,-2.87658,0.0],[-79.06484,-2.87638,0.0],[-79.06454,-2.87725,0.0],[-79.06408,-2.87715,0.0],[-79.06369,-2.8773,0.0],[-79.06332,-2.87715,0.0],[-79.06259,-2.87677,0.0],[-79.06236,-2.87671,0.0],[-79.06201,-2.8767,0.0],[-79.06173,-2.8768,0.0],[-79.06142,-2.87692,0.0],[-79.06103,-2.87708,0.0],[-79.06058,-2.87738,0.0],[-79.05829,-2.8781,0.0],[-79.05775,-2.87807,0.0],[-79.05739,-2.87796,0.0],[-79.05706,-2.87761,0.0],[-79.05635,-2.87773,0.0],[-79.05567,-2.87776,0.0],[-79.05589,-2.87693,0.0],[-79.05544,-2.87688,0.0],[-79.05261,-2.87704,0.0],[-79.05226,-2.87569,0.0],[-79.05238,-2.87496,0.0],[-79.05185,-2.87384,0.0],[-79.05165,-2.87329,0.0],[-79.05165,-2.87234,0.0],[-79.05138,-2.87204,0.0],[-79.05154,-2.87171,0.0],[-79.05148,-2.87125,0.0],[-79.05143,-2.87047,0.0],[-79.0515,-2.87003,0.0],[-79.05197,-2.86963,0.0],[-79.05185,-2.86883,0.0],[-79.05212,-2.86837,0.0],[-79.05224,-2.86735,0.0],[-79.05222,-2.86687,0.0],[-79.05264,-2.86613,0.0],[-79.05317,-2.86578,0.0],[-79.05382,-2.86555,0.0],[-79.05481,-2.86527,0.0],[-79.05521,-2.86495,0.0],[-79.05545,-2.86446,0.0],[-79.05579,-2.86349,0.0],[-79.05543,-2.86186,0.0],[-79.0544,-2.8588,0.0],[-79.05163,-2.85571,0.0],[-79.04054,-2.84394,0.0],[-79.04,-2.84445,0.0],[-79.03923,-2.8455,0.0],[-79.03927,-2.84658,0.0],[-79.04011,-2.84775,0.0],[-79.03986,-2.84867,0.0],[-79.0397,-2.85006,0.0],[-79.03886,-2.8517,0.0],[-79.03756,-2.8538,0.0],[-79.03655,-2.85466,0.0],[-79.03625,-2.85647,0.0],[-79.03608,-2.857,0.0],[-79.03571,-2.85765,0.0],[-79.03542,-2.85783,0.0],[-79.03521,-2.85785,0.0],[-79.03477,-2.85832,0.0],[-79.03456,-2.85857,0.0],[-79.03444,-2.85905,0.0],[-79.03369,-2.85969,0.0],[-79.03367,-2.86042,0.0],[-79.03319,-2.86148,0.0],[-79.03293,-2.86199,0.0],[-79.03292,-2.8624,0.0],[-79.03278,-2.86263,0.0],[-79.03227,-2.86318,0.0],[-79.03156,-2.86421,0.0],[-79.03133,-2.86463,0.0],[-79.03125,-2.86542,0.0],[-79.03112,-2.86589,0.0],[-79.03073,-2.86653,0.0],[-79.0306,-2.8669,0.0],[-79.03049,-2.8672,0.0],[-79.03056,-2.86769,0.0],[-79.03044,-2.86815,0.0],[-79.03033,-2.86861,0.0],[-79.03024,-2.86898,0.0],[-79.03008,-2.86915,0.0],[-79.02987,-2.86941,0.0],[-79.02978,-2.86981,0.0],[-79.02922,-2.87024,0.0],[-79.02894,-2.87056,0.0],[-79.02884,-2.87156,0.0],[-79.02884,-2.87159,0.0],[-79.02882,-2.87223,0.0],[-79.02876,-2.87252,0.0],[-79.02873,-2.87293,0.0],[-79.0287,-2.87324,0.0],[-79.02866,-2.87334,0.0],[-79.02868,-2.87367,0.0],[-79.02873,-2.87394,0.0],[-79.0288,-2.8743,0.0],[-79.02868,-2.87465,0.0],[-79.02865,-2.87492,0.0],[-79.02876,-2.87518,0.0],[-79.02865,-2.87537,0.0],[-79.02848,-2.87584,0.0],[-79.02855,-2.87602,0.0],[-79.02861,-2.87616,0.0],[-79.02879,-2.87611,0.0],[-79.03084,-2.87554,0.0],[-79.03358,-2.87284,0.0],[-79.03465,-2.87254,0.0],[-79.03502,-2.87307,0.0],[-79.03396,-2.87425,0.0],[-79.03259,-2.87598,0.0],[-79.032,-2.87636,0.0],[-79.03189,-2.8764,0.0],[-79.03159,-2.87651,0.0],[-79.03094,-2.87671,0.0],[-79.03033,-2.87698,0.0],[-79.0302,-2.87706,0.0],[-79.02972,-2.87737,0.0],[-79.02889,-2.87802,0.0],[-79.02816,-2.87892,0.0],[-79.02808,-2.87898,0.0],[-79.02734,-2.88007,0.0],[-79.02589,-2.88098,0.0],[-79.02577,-2.88105,0.0],[-79.02569,-2.88115,0.0],[-79.02507,-2.8818,0.0],[-79.02439,-2.88203,0.0],[-79.0224,-2.88207,0.0],[-79.02167,-2.88196,0.0],[-79.0197,-2.88135,0.0],[-79.01923,-2.88129,0.0],[-79.01921,-2.88135,0.0],[-79.01908,-2.88146,0.0],[-79.01888,-2.88165,0.0],[-79.01844,-2.88201,0.0],[-79.01829,-2.88213,0.0],[-79.01803,-2.88253,0.0],[-79.01791,-2.88279,0.0],[-79.01786,-2.88288,0.0],[-79.01771,-2.88319,0.0],[-79.01762,-2.88332,0.0],[-79.01748,-2.88344,0.0],[-79.01713,-2.88363,0.0],[-79.017,-2.88369,0.0],[-79.01698,-2.8837,0.0],[-79.01682,-2.88378,0.0],[-79.01655,-2.8839,0.0],[-79.0162,-2.88405,0.0],[-79.0161,-2.88408,0.0],[-79.01601,-2.88421,0.0],[-79.01589,-2.88439,0.0],[-79.01587,-2.88445,0.0],[-79.01579,-2.88461,0.0],[-79.01537,-2.88571,0.0],[-79.01527,-2.88593,0.0],[-79.01521,-2.88613,0.0],[-79.0152,-2.88619,0.0],[-79.01519,-2.88629,0.0],[-79.01515,-2.88673,0.0],[-79.01512,-2.88695,0.0],[-79.01506,-2.88723,0.0],[-79.015,-2.88743,0.0],[-79.01498,-2.88748,0.0],[-79.01493,-2.88756,0.0],[-79.01476,-2.88765,0.0],[-79.01406,-2.88792,0.0],[-79.01423,-2.89028,0.0],[-79.013,-2.89058,0.0],[-79.01203,-2.89079,0.0],[-79.0116,-2.89089,0.0],[-79.01,-2.89127,0.0]]]]}},{"type":"Feature","properties":{"uesi_id":"ECU_R3693133","nbhd_code":"ECU_R3693133_12","nbhd_name":"El Bat\u00e1n"},"geometry":{"type":"MultiPolygon","coordinates":[[[[-79.02634,-2.90622,0.0],[-79.02683,-2.90633,0.0],[-79.02819,-2.90689,0.0],[-79.02934,-2.90709,0.0],[-79.03007,-2.90763,0.0],[-79.03106,-2.90775,0.0],[-79.03148,-2.9076,0.0],[-79.03392,-2.9063,0.0],[-79.03488,-2.90598,0.0],[-79.03567,-2.90589,0.0],[-79.03674,-2.90605,0.0],[-79.03723,-2.90602,0.0],[-79.03817,-2.90517,0.0],[-79.0391,-2.90464,0.0],[-79.03994,-2.90468,0.0],[-79.04088,-2.90453,0.0],[-79.04129,-2.9042,0.0],[-79.04066,-2.90319,0.0],[-79.04029,-2.90317,0.0],[-79.04022,-2.90238,0.0],[-79.04003,-2.90243,0.0],[-79.03991,-2.90175,0.0],[-79.04032,-2.90167,0.0],[-79.04066,-2.90011,0.0],[-79.04061,-2.89926,0.0],[-79.04059,-2.89919,0.0],[-79.04035,-2.89861,0.0],[-79.04035,-2.89844,0.0],[-79.0407,-2.89815,0.0],[-79.04075,-2.89812,0.0],[-79.04117,-2.8978,0.0],[-79.04141,-2.8977,0.0],[-79.04164,-2.89762,0.0],[-79.04206,-2.89745,0.0],[-79.04224,-2.89738,0.0],[-79.04247,-2.89723,0.0],[-79.04106,-2.89546,0.0],[-79.04152,-2.89492,0.0],[-79.04146,-2.8948,0.0],[-79.04186,-2.89453,0.0],[-79.04186,-2.89447,0.0],[-79.04228,-2.89422,0.0],[-79.04221,-2.89405,0.0],[-79.04224,-2.89404,0.0],[-79.04215,-2.89392,0.0],[-79.04204,-2.8936,0.0],[-79.04205,-2.89352,0.0],[-79.04203,-2.89342,0.0],[-79.04197,-2.8933,0.0],[-79.04195,-2.89319,0.0],[-79.04171,-2.89257,0.0],[-79.0412,-2.89277,0.0],[-79.04092,-2.8929,0.0],[-79.04062,-2.89307,0.0],[-79.04052,-2.89313,0.0],[-79.04028,-2.89325,0.0],[-79.03996,-2.89338,0.0],[-79.0401,-2.89328,0.0],[-79.04012,-2.89325,0.0],[-79.04014,-2.89321,0.0],[-79.04013,-2.89318,0.0],[-79.04005,-2.89305,0.0],[-79.03995,-2.89292,0.0],[-79.03992,-2.89289,0.0],[-79.03991,-2.89285,0.0],[-79.03991,-2.89278,0.0],[-79.0412,-2.88982,0.0],[-79.04139,-2.88972,0.0],[-79.04147,-2.8897,0.0],[-79.04168,-2.88963,0.0],[-79.04204,-2.88955,0.0],[-79.04508,-2.88857,0.0],[-79.0459,-2.89112,0.0],[-79.04642,-2.89169,0.0],[-79.048,-2.8909,0.0],[-79.04854,-2.89029,0.0],[-79.0486,-2.89021,0.0],[-79.05204,-2.89009,0.0],[-79.05329,-2.88983,0.0],[-79.05405,-2.88993,0.0],[-79.05671,-2.88893,0.0],[-79.05858,-2.88955,0.0],[-79.06136,-2.88814,0.0],[-79.06324,-2.88845,0.0],[-79.06467,-2.88807,0.0],[-79.0659,-2.88743,0.0],[-79.06709,-2.88632,0.0],[-79.06878,-2.88396,0.0],[-79.07057,-2.88273,0.0],[-79.0709,-2.88164,0.0],[-79.07102,-2.88047,0.0],[-79.07061,-2.88016,0.0],[-79.07047,-2.87971,0.0],[-79.07033,-2.87839,0.0],[-79.06946,-2.87844,0.0],[-79.06892,-2.87893,0.0],[-79.06767,-2.87986,0.0],[-79.0668,-2.88098,0.0],[-79.06644,-2.88129,0.0],[-79.06524,-2.88155,0.0],[-79.06446,-2.88225,0.0],[-79.06406,-2.88231,0.0],[-79.0631,-2.88162,0.0],[-79.06253,-2.88175,0.0],[-79.06123,-2.88301,0.0],[-79.06101,-2.88317,0.0],[-79.06067,-2.88339,0.0],[-79.05886,-2.88366,0.0],[-79.05868,-2.88394,0.0],[-79.0586,-2.88428,0.0],[-79.0581,-2.88511,0.0],[-79.05767,-2.88548,0.0],[-79.05699,-2.88544,0.0],[-79.05617,-2.88557,0.0],[-79.05578,-2.88598,0.0],[-79.05513,-2.88623,0.0],[-79.05445,-2.88619,0.0],[-79.05336,-2.88665,0.0],[-79.05208,-2.8867,0.0],[-79.0511,-2.88706,0.0],[-79.05016,-2.88738,0.0],[-79.04948,-2.88722,0.0],[-79.0487,-2.88686,0.0],[-79.04763,-2.88694,0.0],[-79.04668,-2.88677,0.0],[-79.04527,-2.88716,0.0],[-79.04479,-2.88722,0.0],[-79.04381,-2.88709,0.0],[-79.04315,-2.88738,0.0],[-79.04273,-2.88788,0.0],[-79.04232,-2.88841,0.0],[-79.04188,-2.88862,0.0],[-79.04046,-2.88867,0.0],[-79.03966,-2.88925,0.0],[-79.0393,-2.88934,0.0],[-79.03848,-2.88933,0.0],[-79.0371,-2.8899,0.0],[-79.03666,-2.88999,0.0],[-79.03611,-2.88998,0.0],[-79.03564,-2.89005,0.0],[-79.03496,-2.89033,0.0],[-79.03459,-2.89032,0.0],[-79.03329,-2.89009,0.0],[-79.03225,-2.89049,0.0],[-79.03182,-2.89053,0.0],[-79.03114,-2.89047,0.0],[-79.03082,-2.89055,0.0],[-79.03039,-2.89092,0.0],[-79.02991,-2.89134,0.0],[-79.02945,-2.89153,0.0],[-79.02888,-2.8916,0.0],[-79.02858,-2.89169,0.0],[-79.02809,-2.89201,0.0],[-79.0272,-2.89281,0.0],[-79.02646,-2.89387,0.0],[-79.02579,-2.89416,0.0],[-79.02469,-2.89407,0.0],[-79.02304,-2.89377,0.0],[-79.02214,-2.89315,0.0],[-79.02162,-2.89262,0.0],[-79.02118,-2.89245,0.0],[-79.02083,-2.8925,0.0],[-79.02028,-2.89286,0.0],[-79.01973,-2.89296,0.0],[-79.01909,-2.89291,0.0],[-79.01886,-2.89294,0.0],[-79.01894,-2.89435,0.0],[-79.01983,-2.8979,0.0],[-79.02084,-2.90082,0.0],[-79.02145,-2.90134,0.0],[-79.02165,-2.9015,0.0],[-79.02205,-2.90179,0.0],[-79.02238,-2.90204,0.0],[-79.0227,-2.90226,0.0],[-79.02412,-2.90332,0.0],[-79.02444,-2.9036,0.0],[-79.025,-2.90406,0.0],[-79.02504,-2.90425,0.0],[-79.02501,-2.90465,0.0],[-79.02539,-2.90481,0.0],[-79.02576,-2.90499,0.0],[-79.02599,-2.90524,0.0],[-79.02628,-2.90564,0.0],[-79.02634,-2.90571,0.0],[-79.02643,-2.90584,0.0],[-79.02634,-2.90622,0.0]]]]}},{"type":"Feature","properties":{"uesi_id":"ECU_R3693133","nbhd_code":"ECU_R3693133_13","nbhd_name":"Sucre"},"geometry":{"type":"MultiPolygon","coordinates":[[[[-79.01169,-2.89839,0.0],[-79.0102,-2.89875,0.0],[-79.00913,-2.89954,0.0],[-79.00854,-2.89998,0.0],[-79.00712,-2.90128,0.0],[-79.00602,-2.90172,0.0],[-79.00696,-2.90519,0.0],[-79.00966,-2.91522,0.0],[-79.01077,-2.91489,0.0],[-79.01099,-2.91471,0.0],[-79.01117,-2.91438,0.0],[-79.01147,-2.91359,0.0],[-79.0119,-2.91323,0.0],[-79.01231,-2.91301,0.0],[-79.01309,-2.91276,0.0],[-79.01348,-2.91239,0.0],[-79.01368,-2.91179,0.0],[-79.01385,-2.91087,0.0],[-79.01416,-2.9106,0.0],[-79.01454,-2.91047,0.0],[-79.01563,-2.91047,0.0],[-79.016,-2.9103,0.0],[-79.01661,-2.9099,0.0],[-79.01722,-2.90935,0.0],[-79.01758,-2.90923,0.0],[-79.0179,-2.90925,0.0],[-79.01846,-2.90937,0.0],[-79.01878,-2.90935,0.0],[-79.01936,-2.90897,0.0],[-79.01999,-2.90854,0.0],[-79.0208,-2.90808,0.0],[-79.02233,-2.90743,0.0],[-79.02303,-2.90717,0.0],[-79.02409,-2.90689,0.0],[-79.02527,-2.90652,0.0],[-79.02586,-2.90634,0.0],[-79.02634,-2.90622,0.0],[-79.02643,-2.90584,0.0],[-79.02634,-2.90571,0.0],[-79.02628,-2.90564,0.0],[-79.02599,-2.90524,0.0],[-79.02576,-2.90499,0.0],[-79.02539,-2.90481,0.0],[-79.02501,-2.90465,0.0],[-79.02504,-2.90425,0.0],[-79.025,-2.90406,0.0],[-79.02444,-2.9036,0.0],[-79.02412,-2.90332,0.0],[-79.0227,-2.90226,0.0],[-79.02238,-2.90204,0.0],[-79.02205,-2.90179,0.0],[-79.02165,-2.9015,0.0],[-79.02145,-2.90134,0.0],[-79.02084,-2.90082,0.0],[-79.01983,-2.8979,0.0],[-79.01894,-2.89435,0.0],[-79.01886,-2.89294,0.0],[-79.01868,-2.89296,0.0],[-79.01851,-2.89308,0.0],[-79.01811,-2.89334,0.0],[-79.01783,-2.89392,0.0],[-79.0175,-2.89432,0.0],[-79.01676,-2.89452,0.0],[-79.01513,-2.89598,0.0],[-79.01454,-2.89649,0.0],[-79.01351,-2.89675,0.0],[-79.01248,-2.89787,0.0],[-79.01169,-2.89839,0.0]]]]}},{"type":"Feature","properties":{"uesi_id":"ECU_R3693133","nbhd_code":"ECU_R3693133_14","nbhd_name":"Huayna C\u00e1pac"},"geometry":{"type":"MultiPolygon","coordinates":[[[[-79.0113,-2.91994,0.0],[-79.01292,-2.91956,0.0],[-79.01228,-2.91909,0.0],[-79.01167,-2.91924,0.0],[-79.01158,-2.91927,0.0],[-79.01145,-2.91927,0.0],[-79.01102,-2.91895,0.0],[-79.01029,-2.91744,0.0],[-79.00983,-2.91601,0.0],[-79.00966,-2.91522,0.0],[-79.00696,-2.90519,0.0],[-79.00602,-2.90172,0.0],[-79.00543,-2.90194,0.0],[-79.0036,-2.90291,0.0],[-79.00124,-2.90455,0.0],[-79.00038,-2.90559,0.0],[-79.00018,-2.90578,0.0],[-78.9992,-2.90671,0.0],[-78.99761,-2.90882,0.0],[-78.9965,-2.9098,0.0],[-78.99599,-2.91023,0.0],[-78.99567,-2.91025,0.0],[-78.99562,-2.91025,0.0],[-78.99541,-2.91024,0.0],[-78.99433,-2.90987,0.0],[-78.99416,-2.90985,0.0],[-78.9931,-2.90996,0.0],[-78.99187,-2.9093,0.0],[-78.99085,-2.90876,0.0],[-78.98985,-2.90852,0.0],[-78.98761,-2.90834,0.0],[-78.98649,-2.90798,0.0],[-78.98511,-2.90831,0.0],[-78.98497,-2.90834,0.0],[-78.98476,-2.9084,0.0],[-78.98603,-2.9095,0.0],[-78.98615,-2.91034,0.0],[-78.9869,-2.91121,0.0],[-78.98815,-2.91165,0.0],[-78.98783,-2.91193,0.0],[-78.98705,-2.91262,0.0],[-78.98683,-2.91266,0.0],[-78.98673,-2.91267,0.0],[-78.98642,-2.91276,0.0],[-78.98626,-2.91289,0.0],[-78.98625,-2.9129,0.0],[-78.98608,-2.91305,0.0],[-78.98575,-2.91336,0.0],[-78.98561,-2.9135,0.0],[-78.98747,-2.91545,0.0],[-78.98755,-2.91553,0.0],[-78.98797,-2.91571,0.0],[-78.98829,-2.91592,0.0],[-78.98863,-2.91609,0.0],[-78.98876,-2.91615,0.0],[-78.9898,-2.91653,0.0],[-78.99123,-2.91691,0.0],[-78.99134,-2.91696,0.0],[-78.99189,-2.91724,0.0],[-78.99234,-2.91746,0.0],[-78.99051,-2.91918,0.0],[-78.99028,-2.91982,0.0],[-78.99213,-2.92234,0.0],[-78.99313,-2.92318,0.0],[-78.99521,-2.92329,0.0],[-78.998,-2.92098,0.0],[-78.99941,-2.92138,0.0],[-79.00014,-2.92158,0.0],[-79.00037,-2.92156,0.0],[-79.00126,-2.9215,0.0],[-79.00276,-2.92345,0.0],[-79.00448,-2.92348,0.0],[-79.00477,-2.92348,0.0],[-79.00527,-2.92261,0.0],[-79.00544,-2.922,0.0],[-79.00582,-2.92163,0.0],[-79.00618,-2.92161,0.0],[-79.0069,-2.92185,0.0],[-79.0089,-2.9213,0.0],[-79.00997,-2.92072,0.0],[-79.01123,-2.92032,0.0],[-79.0113,-2.91994,0.0]]]]}},{"type":"Feature","properties":{"uesi_id":"ECU_R3693133","nbhd_code":"ECU_R3693133_15","nbhd_name":"Yanuncay"},"geometry":{"type":"MultiPolygon","coordinates":[[[[-79.039,-2.92789,0.0],[-79.03907,-2.92807,0.0],[-79.03907,-2.92829,0.0],[-79.03886,-2.9288,0.0],[-79.03873,-2.92913,0.0],[-79.03868,-2.92967,0.0],[-79.03863,-2.93039,0.0],[-79.03858,-2.9306,0.0],[-79.03859,-2.93094,0.0],[-79.03866,-2.93117,0.0],[-79.03899,-2.9316,0.0],[-79.03918,-2.93169,0.0],[-79.03974,-2.93177,0.0],[-79.03984,-2.93181,0.0],[-79.03996,-2.93198,0.0],[-79.04001,-2.93231,0.0],[-79.03994,-2.93284,0.0],[-79.03974,-2.93324,0.0],[-79.03964,-2.93346,0.0],[-79.03953,-2.93368,0.0],[-79.03954,-2.93385,0.0],[-79.03982,-2.9347,0.0],[-79.03985,-2.93521,0.0],[-79.03986,-2.93537,0.0],[-79.0399,-2.93545,0.0],[-79.03992,-2.93557,0.0],[-79.04,-2.93567,0.0],[-79.04008,-2.93579,0.0],[-79.04018,-2.93586,0.0],[-79.0403,-2.9359,0.0],[-79.04048,-2.936,0.0],[-79.04058,-2.93614,0.0],[-79.04064,-2.93616,0.0],[-79.04072,-2.93614,0.0],[-79.0408,-2.93608,0.0],[-79.04096,-2.93605,0.0],[-79.04101,-2.93598,0.0],[-79.04105,-2.93585,0.0],[-79.04118,-2.93567,0.0],[-79.04127,-2.93554,0.0],[-79.04133,-2.93547,0.0],[-79.04142,-2.93539,0.0],[-79.04154,-2.9353,0.0],[-79.04168,-2.93524,0.0],[-79.04188,-2.93501,0.0],[-79.04288,-2.93441,0.0],[-79.04448,-2.93329,0.0],[-79.04537,-2.93513,0.0],[-79.04578,-2.93508,0.0],[-79.04807,-2.93529,0.0],[-79.04925,-2.93472,0.0],[-79.05065,-2.93302,0.0],[-79.05205,-2.93282,0.0],[-79.05272,-2.93077,0.0],[-79.05387,-2.93016,0.0],[-79.05511,-2.92867,0.0],[-79.05519,-2.9284,0.0],[-79.05621,-2.92717,0.0],[-79.05752,-2.92634,0.0],[-79.05663,-2.92563,0.0],[-79.05668,-2.92429,0.0],[-79.05631,-2.92138,0.0],[-79.05746,-2.92033,0.0],[-79.05586,-2.91834,0.0],[-79.05573,-2.91814,0.0],[-79.05517,-2.91655,0.0],[-79.05194,-2.91639,0.0],[-79.05017,-2.91638,0.0],[-79.04975,-2.91619,0.0],[-79.05012,-2.91441,0.0],[-79.04952,-2.91446,0.0],[-79.04942,-2.91203,0.0],[-79.04939,-2.9113,0.0],[-79.04882,-2.90974,0.0],[-79.04842,-2.90921,0.0],[-79.04913,-2.90875,0.0],[-79.04971,-2.90827,0.0],[-79.04948,-2.90762,0.0],[-79.04996,-2.90745,0.0],[-79.05045,-2.90695,0.0],[-79.05101,-2.90691,0.0],[-79.05217,-2.90664,0.0],[-79.0522,-2.90605,0.0],[-79.0508,-2.90412,0.0],[-79.05071,-2.90356,0.0],[-79.05034,-2.90262,0.0],[-79.05026,-2.90219,0.0],[-79.05019,-2.9019,0.0],[-79.05005,-2.90162,0.0],[-79.04992,-2.90134,0.0],[-79.04978,-2.90109,0.0],[-79.04976,-2.90104,0.0],[-79.0497,-2.90092,0.0],[-79.04969,-2.90088,0.0],[-79.04966,-2.90084,0.0],[-79.04961,-2.90072,0.0],[-79.04954,-2.9005,0.0],[-79.04905,-2.90058,0.0],[-79.04861,-2.90055,0.0],[-79.04797,-2.90042,0.0],[-79.04778,-2.90042,0.0],[-79.04743,-2.90071,0.0],[-79.04733,-2.90109,0.0],[-79.04722,-2.9012,0.0],[-79.04545,-2.90233,0.0],[-79.04501,-2.90266,0.0],[-79.04457,-2.90285,0.0],[-79.04333,-2.90304,0.0],[-79.04301,-2.90319,0.0],[-79.04244,-2.90373,0.0],[-79.04195,-2.90384,0.0],[-79.04146,-2.90409,0.0],[-79.04129,-2.9042,0.0],[-79.04088,-2.90453,0.0],[-79.03994,-2.90468,0.0],[-79.0391,-2.90464,0.0],[-79.03817,-2.90517,0.0],[-79.03723,-2.90602,0.0],[-79.03674,-2.90605,0.0],[-79.03567,-2.90589,0.0],[-79.03488,-2.90598,0.0],[-79.03392,-2.9063,0.0],[-79.03148,-2.9076,0.0],[-79.03106,-2.90775,0.0],[-79.03007,-2.90763,0.0],[-79.02934,-2.90709,0.0],[-79.02819,-2.90689,0.0],[-79.02683,-2.90633,0.0],[-79.02634,-2.90622,0.0],[-79.02586,-2.90634,0.0],[-79.02527,-2.90652,0.0],[-79.02409,-2.90689,0.0],[-79.02303,-2.90717,0.0],[-79.02233,-2.90743,0.0],[-79.0208,-2.90808,0.0],[-79.01999,-2.90854,0.0],[-79.01936,-2.90897,0.0],[-79.01878,-2.90935,0.0],[-79.01846,-2.90937,0.0],[-79.0179,-2.90925,0.0],[-79.01758,-2.90923,0.0],[-79.01722,-2.90935,0.0],[-79.01661,-2.9099,0.0],[-79.016,-2.9103,0.0],[-79.01563,-2.91047,0.0],[-79.01454,-2.91047,0.0],[-79.01416,-2.9106,0.0],[-79.01385,-2.91087,0.0],[-79.01368,-2.91179,0.0],[-79.01348,-2.91239,0.0],[-79.01309,-2.91276,0.0],[-79.01231,-2.91301,0.0],[-79.0119,-2.91323,0.0],[-79.01147,-2.91359,0.0],[-79.01117,-2.91438,0.0],[-79.01099,-2.91471,0.0],[-79.01077,-2.91489,0.0],[-79.00966,-2.91522,0.0],[-79.00983,-2.91601,0.0],[-79.01029,-2.91744,0.0],[-79.01102,-2.91895,0.0],[-79.01145,-2.91927,0.0],[-79.01158,-2.91927,0.0],[-79.01167,-2.91924,0.0],[-79.01228,-2.91909,0.0],[-79.01292,-2.91956,0.0],[-79.0113,-2.91994,0.0],[-79.0124,-2.92015,0.0],[-79.01605,-2.92074,0.0],[-79.01741,-2.92092,0.0],[-79.01871,-2.92099,0.0],[-79.02065,-2.92098,0.0],[-79.02197,-2.92099,0.0],[-79.02236,-2.92099,0.0],[-79.02308,-2.92111,0.0],[-79.02333,-2.92115,0.0],[-79.02368,-2.92125,0.0],[-79.02728,-2.92241,0.0],[-79.02787,-2.92259,0.0],[-79.02951,-2.92313,0.0],[-79.03054,-2.92225,0.0],[-79.03092,-2.92246,0.0],[-79.03109,-2.9226,0.0],[-79.03122,-2.92281,0.0],[-79.03131,-2.92286,0.0],[-79.0314,-2.92285,0.0],[-79.0315,-2.92281,0.0],[-79.03158,-2.92273,0.0],[-79.03181,-2.92251,0.0],[-79.032,-2.92239,0.0],[-79.03279,-2.92233,0.0],[-79.03302,-2.92223,0.0],[-79.03326,-2.92203,0.0],[-79.03342,-2.92163,0.0],[-79.03362,-2.92134,0.0],[-79.03381,-2.92123,0.0],[-79.03404,-2.92127,0.0],[-79.03494,-2.92184,0.0],[-79.03535,-2.92241,0.0],[-79.0355,-2.92259,0.0],[-79.03624,-2.92303,0.0],[-79.03704,-2.9232,0.0],[-79.03718,-2.92329,0.0],[-79.0374,-2.92354,0.0],[-79.03749,-2.92387,0.0],[-79.03745,-2.92408,0.0],[-79.03727,-2.92448,0.0],[-79.03724,-2.92485,0.0],[-79.03769,-2.9255,0.0],[-79.03821,-2.92602,0.0],[-79.03875,-2.92688,0.0],[-79.039,-2.92789,0.0]]]]}}]}