{"type":"FeatureCollection","name":"ESP_R339549","crs":{"type":"name","properties":{"name":"urn:ogc:def:crs:OGC:1.3:CRS84"}},"features":[{"type":"Feature","properties":{"nbhd_name":"Abando 1","uesi_id":"ESP_R339549","nbhd_code":"ESP_R339549_2"},"geometry":{"type":"MultiPolygon","coordinates":[[[[-2.93677,43.25866],[-2.93618,43.26004],[-2.93583,43.26098],[-2.93501,43.26298],[-2.93642,43.26331],[-2.93723,43.2635],[-2.93772,43.26359],[-2.93753,43.26408],[-2.93708,43.2652],[-2.93698,43.26548],[-2.93698,43.2656],[-2.937,43.26573],[-2.93722,43.26599],[-2.93746,43.26621],[-2.9377,43.26639],[-2.93862,43.26692],[-2.93912,43.26723],[-2.93951,43.26758],[-2.9398,43.26798],[-2.94013,43.2686],[-2.94063,43.2695],[-2.93986,43.26967],[-2.93932,43.26974],[-2.93882,43.26979],[-2.93864,43.26981],[-2.93801,43.26986],[-2.93754,43.26987],[-2.93622,43.26991],[-2.93359,43.26979],[-2.93272,43.26965],[-2.93232,43.26954],[-2.93193,43.26941],[-2.9318,43.26935],[-2.93152,43.26923],[-2.93124,43.26908],[-2.93013,43.26822],[-2.92849,43.26695],[-2.92842,43.2669],[-2.92576,43.26485],[-2.924,43.26349],[-2.92388,43.26335],[-2.92383,43.26324],[-2.92373,43.26303],[-2.92368,43.26272],[-2.92367,43.26245],[-2.9237,43.26219],[-2.9238,43.26201],[-2.92393,43.26176],[-2.92411,43.26149],[-2.92427,43.26122],[-2.92444,43.26098],[-2.92479,43.26057],[-2.92508,43.26024],[-2.92564,43.26049],[-2.92645,43.25966],[-2.92792,43.25853],[-2.92955,43.25735],[-2.93172,43.25729],[-2.93195,43.25704],[-2.93325,43.25569],[-2.9333,43.25621],[-2.93338,43.25641],[-2.93349,43.25659],[-2.93365,43.25677],[-2.93382,43.25693],[-2.93394,43.25701],[-2.93426,43.25718],[-2.93575,43.25729],[-2.9355,43.25788],[-2.93677,43.25866]]]]}},{"type":"Feature","properties":{"nbhd_name":"Ibaiondo 1","uesi_id":"ESP_R339549","nbhd_code":"ESP_R339549_3"},"geometry":{"type":"MultiPolygon","coordinates":[[[[-2.91913,43.25092],[-2.92051,43.25135],[-2.92155,43.25072],[-2.92161,43.25089],[-2.92175,43.25105],[-2.92204,43.25123],[-2.92238,43.25148],[-2.92251,43.25166],[-2.92259,43.25182],[-2.92259,43.25196],[-2.92258,43.25214],[-2.92239,43.25315],[-2.92233,43.25349],[-2.92231,43.25375],[-2.92238,43.25402],[-2.92247,43.25424],[-2.92272,43.25445],[-2.92308,43.25466],[-2.92338,43.25477],[-2.92383,43.25495],[-2.92413,43.2551],[-2.92464,43.25532],[-2.92505,43.25555],[-2.92535,43.2558],[-2.92564,43.25604],[-2.92585,43.25627],[-2.92624,43.25671],[-2.92669,43.25714],[-2.92703,43.25753],[-2.92709,43.25766],[-2.92713,43.25775],[-2.9272,43.25805],[-2.92719,43.25827],[-2.92721,43.25843],[-2.92695,43.25874],[-2.92674,43.25895],[-2.92508,43.26024],[-2.92479,43.26057],[-2.92444,43.26098],[-2.92427,43.26122],[-2.92411,43.26149],[-2.92393,43.26176],[-2.9238,43.26201],[-2.9237,43.26219],[-2.92367,43.26245],[-2.92368,43.26272],[-2.92373,43.26303],[-2.92383,43.26324],[-2.92315,43.26365],[-2.92299,43.2638],[-2.92286,43.264],[-2.92276,43.2642],[-2.92275,43.26442],[-2.92273,43.26468],[-2.92266,43.26481],[-2.92252,43.26494],[-2.92235,43.26506],[-2.9222,43.26513],[-2.92148,43.26538],[-2.92106,43.26552],[-2.92096,43.26552],[-2.92084,43.26545],[-2.92079,43.26536],[-2.92084,43.26525],[-2.92163,43.26495],[-2.92193,43.26485],[-2.92205,43.26474],[-2.92206,43.26457],[-2.92193,43.26444],[-2.92167,43.26442],[-2.92152,43.2645],[-2.92111,43.26481],[-2.92084,43.26492],[-2.92029,43.26494],[-2.91959,43.26495],[-2.91907,43.26495],[-2.91843,43.26496],[-2.91811,43.26494],[-2.9178,43.26488],[-2.91766,43.26484],[-2.91732,43.26468],[-2.91696,43.26429],[-2.917,43.26401],[-2.91704,43.26374],[-2.91703,43.26349],[-2.91695,43.26322],[-2.9163,43.26241],[-2.91575,43.26182],[-2.91592,43.26167],[-2.91636,43.26091],[-2.91676,43.2609],[-2.91716,43.26086],[-2.91745,43.26086],[-2.91787,43.26081],[-2.91818,43.26075],[-2.91848,43.26069],[-2.91876,43.2606],[-2.91908,43.26046],[-2.91933,43.26034],[-2.91954,43.26022],[-2.91881,43.25956],[-2.91849,43.2596],[-2.9176,43.25922],[-2.91759,43.25907],[-2.91758,43.25876],[-2.91755,43.25857],[-2.91737,43.25832],[-2.91724,43.25817],[-2.91711,43.25805],[-2.91691,43.25789],[-2.91675,43.25773],[-2.91657,43.25759],[-2.91636,43.25745],[-2.91614,43.25735],[-2.91581,43.25732],[-2.91553,43.25734],[-2.91527,43.25744],[-2.91494,43.25758],[-2.91473,43.25768],[-2.91438,43.25751],[-2.9141,43.25742],[-2.91406,43.25735],[-2.91403,43.2572],[-2.91418,43.2571],[-2.91417,43.25693],[-2.91417,43.25676],[-2.91413,43.25656],[-2.91409,43.25636],[-2.91404,43.25606],[-2.91416,43.25562],[-2.91405,43.25545],[-2.91376,43.25514],[-2.91461,43.25468],[-2.91479,43.2546],[-2.91701,43.25507],[-2.91718,43.25481],[-2.91758,43.25515],[-2.91876,43.2553],[-2.91872,43.25496],[-2.91798,43.25428],[-2.91774,43.25401],[-2.91755,43.25376],[-2.91708,43.25315],[-2.91727,43.25306],[-2.91738,43.25296],[-2.91749,43.25278],[-2.91758,43.2526],[-2.91764,43.25241],[-2.9177,43.25229],[-2.91771,43.25227],[-2.9178,43.25213],[-2.91795,43.25199],[-2.91807,43.2518],[-2.91814,43.25161],[-2.91811,43.2514],[-2.91806,43.25128],[-2.91884,43.251],[-2.91913,43.25092]]]]}},{"type":"Feature","properties":{"nbhd_name":"Ibaiondo 2","uesi_id":"ESP_R339549","nbhd_code":"ESP_R339549_4"},"geometry":{"type":"MultiPolygon","coordinates":[[[[-2.93183,43.24547],[-2.932,43.24569],[-2.93217,43.24591],[-2.93233,43.2461],[-2.93258,43.2464],[-2.93289,43.24668],[-2.93331,43.24695],[-2.93384,43.24728],[-2.93433,43.24752],[-2.9347,43.24768],[-2.93496,43.24779],[-2.93523,43.24792],[-2.93555,43.24815],[-2.9357,43.24842],[-2.93574,43.24864],[-2.9357,43.24894],[-2.93547,43.24928],[-2.93522,43.24958],[-2.93497,43.24991],[-2.93493,43.24998],[-2.93475,43.25035],[-2.93461,43.25073],[-2.93456,43.25107],[-2.93457,43.25133],[-2.93458,43.2516],[-2.93458,43.25203],[-2.93455,43.25237],[-2.93444,43.25271],[-2.9343,43.2531],[-2.93325,43.25569],[-2.93195,43.25704],[-2.93172,43.25729],[-2.92955,43.25735],[-2.92792,43.25853],[-2.92645,43.25966],[-2.92564,43.26049],[-2.92508,43.26024],[-2.92674,43.25895],[-2.92695,43.25874],[-2.92721,43.25843],[-2.92719,43.25827],[-2.9272,43.25805],[-2.92713,43.25775],[-2.92709,43.25766],[-2.92703,43.25753],[-2.92669,43.25714],[-2.92624,43.25671],[-2.92585,43.25627],[-2.92564,43.25604],[-2.92535,43.2558],[-2.92505,43.25555],[-2.92464,43.25532],[-2.92413,43.2551],[-2.92383,43.25495],[-2.92338,43.25477],[-2.92308,43.25466],[-2.92272,43.25445],[-2.92247,43.25424],[-2.92238,43.25402],[-2.92231,43.25375],[-2.92233,43.25349],[-2.92239,43.25315],[-2.92258,43.25214],[-2.92259,43.25196],[-2.92259,43.25182],[-2.92251,43.25166],[-2.92238,43.25148],[-2.92204,43.25123],[-2.92175,43.25105],[-2.92161,43.25089],[-2.92155,43.25072],[-2.92153,43.25065],[-2.92145,43.25036],[-2.92144,43.25013],[-2.9214,43.24995],[-2.92089,43.24796],[-2.92085,43.24778],[-2.92075,43.24751],[-2.92074,43.2472],[-2.92073,43.24697],[-2.92076,43.24667],[-2.92081,43.24643],[-2.9209,43.24619],[-2.92113,43.24593],[-2.92137,43.24572],[-2.92179,43.24548],[-2.92215,43.24531],[-2.9224,43.24515],[-2.92265,43.24499],[-2.92279,43.24486],[-2.92351,43.24475],[-2.92402,43.2446],[-2.92428,43.24447],[-2.92451,43.24428],[-2.9247,43.24406],[-2.92472,43.24374],[-2.92473,43.24355],[-2.92466,43.24339],[-2.92452,43.24313],[-2.92437,43.24287],[-2.9242,43.2427],[-2.92404,43.24254],[-2.92384,43.24237],[-2.92368,43.24226],[-2.92336,43.24208],[-2.9231,43.24195],[-2.92281,43.24184],[-2.92238,43.24174],[-2.92185,43.24173],[-2.92133,43.2418],[-2.92094,43.2419],[-2.92065,43.24192],[-2.92013,43.24106],[-2.92013,43.24105],[-2.91999,43.24081],[-2.91997,43.24074],[-2.92043,43.24024],[-2.92047,43.24017],[-2.92049,43.24008],[-2.92045,43.24],[-2.9204,43.23994],[-2.92033,43.23988],[-2.91993,43.23966],[-2.91986,43.2395],[-2.91985,43.23947],[-2.91992,43.23933],[-2.91844,43.23773],[-2.91822,43.2375],[-2.91803,43.23732],[-2.91759,43.23688],[-2.91722,43.23651],[-2.91635,43.23568],[-2.91531,43.23459],[-2.91291,43.23346],[-2.91307,43.23313],[-2.91307,43.23263],[-2.91308,43.23247],[-2.91314,43.23235],[-2.91318,43.23226],[-2.9132,43.23215],[-2.9132,43.23208],[-2.91319,43.232],[-2.91314,43.23193],[-2.91307,43.23183],[-2.91298,43.23175],[-2.91288,43.23165],[-2.91275,43.23153],[-2.91264,43.23144],[-2.91249,43.23136],[-2.91231,43.23126],[-2.91211,43.23118],[-2.91191,43.23111],[-2.91178,43.23106],[-2.91163,43.23101],[-2.91149,43.23097],[-2.91136,43.23091],[-2.91124,43.23086],[-2.91114,43.23078],[-2.91103,43.23072],[-2.91086,43.23058],[-2.9108,43.23052],[-2.91072,43.23043],[-2.91066,43.23036],[-2.91059,43.23025],[-2.91051,43.23011],[-2.91038,43.22987],[-2.91024,43.22963],[-2.91001,43.22923],[-2.91,43.22922],[-2.90975,43.22872],[-2.9087,43.22783],[-2.90786,43.22727],[-2.90642,43.22612],[-2.90876,43.22116],[-2.90955,43.21947],[-2.90959,43.21938],[-2.91104,43.21892],[-2.91334,43.21837],[-2.91538,43.21766],[-2.91881,43.21667],[-2.92652,43.21443],[-2.92886,43.21366],[-2.92917,43.21439],[-2.92978,43.2143],[-2.93114,43.21492],[-2.93754,43.21658],[-2.93831,43.21672],[-2.93881,43.21677],[-2.93965,43.21685],[-2.94195,43.21742],[-2.94307,43.21728],[-2.94488,43.21771],[-2.94561,43.2176],[-2.9462,43.21752],[-2.94628,43.2184],[-2.94729,43.21912],[-2.94705,43.2193],[-2.94683,43.2195],[-2.9466,43.21965],[-2.9465,43.2197],[-2.9464,43.21984],[-2.94625,43.22003],[-2.94607,43.22016],[-2.94582,43.2204],[-2.9458,43.22056],[-2.94584,43.22067],[-2.94599,43.22099],[-2.946,43.22113],[-2.94571,43.22167],[-2.94565,43.22195],[-2.94561,43.22251],[-2.94566,43.22303],[-2.94556,43.22364],[-2.94551,43.22437],[-2.94546,43.22498],[-2.94543,43.22579],[-2.94529,43.22582],[-2.94512,43.2258],[-2.94481,43.22579],[-2.94435,43.22579],[-2.94406,43.2257],[-2.94395,43.22563],[-2.94385,43.22552],[-2.94376,43.22556],[-2.94373,43.22563],[-2.94374,43.22579],[-2.94398,43.22621],[-2.94396,43.22626],[-2.94392,43.22632],[-2.94399,43.22641],[-2.94446,43.22672],[-2.94474,43.22694],[-2.94519,43.22719],[-2.9457,43.22747],[-2.94569,43.22758],[-2.94556,43.22771],[-2.9454,43.22781],[-2.94522,43.2279],[-2.94499,43.22803],[-2.94464,43.22821],[-2.94404,43.22834],[-2.94348,43.22853],[-2.94309,43.22874],[-2.94283,43.22883],[-2.94262,43.22906],[-2.94242,43.22922],[-2.94238,43.22925],[-2.94238,43.22935],[-2.94239,43.22947],[-2.9424,43.22961],[-2.94239,43.22973],[-2.94233,43.22983],[-2.94228,43.22986],[-2.9422,43.22989],[-2.94214,43.22991],[-2.94204,43.22991],[-2.94185,43.22992],[-2.94163,43.22991],[-2.94142,43.22993],[-2.94133,43.22999],[-2.94126,43.23009],[-2.9412,43.23018],[-2.94112,43.23031],[-2.94109,43.23042],[-2.94105,43.23059],[-2.94101,43.23075],[-2.94101,43.23088],[-2.94102,43.23102],[-2.94103,43.23121],[-2.94103,43.23134],[-2.94101,43.23139],[-2.94092,43.23157],[-2.9408,43.23185],[-2.94067,43.23211],[-2.9406,43.23244],[-2.94051,43.23276],[-2.94044,43.23295],[-2.94036,43.23322],[-2.94024,43.23349],[-2.94023,43.23358],[-2.94019,43.23381],[-2.94021,43.234],[-2.94021,43.23428],[-2.94024,43.2348],[-2.9402,43.23501],[-2.94016,43.23518],[-2.94012,43.23527],[-2.94004,43.23539],[-2.93992,43.23553],[-2.9398,43.23562],[-2.93952,43.23579],[-2.93948,43.23585],[-2.9395,43.23595],[-2.93967,43.23629],[-2.93979,43.23659],[-2.93982,43.23681],[-2.93984,43.23696],[-2.93994,43.23726],[-2.94001,43.23747],[-2.94004,43.23767],[-2.94008,43.23791],[-2.94012,43.23813],[-2.94012,43.2383],[-2.9401,43.23846],[-2.94007,43.23871],[-2.94003,43.23885],[-2.93998,43.23904],[-2.93985,43.23935],[-2.93976,43.23953],[-2.93968,43.23967],[-2.93936,43.24021],[-2.93917,43.24056],[-2.93914,43.24065],[-2.93913,43.24079],[-2.93917,43.24087],[-2.93922,43.24094],[-2.93931,43.24101],[-2.93938,43.24106],[-2.93949,43.24109],[-2.93964,43.24112],[-2.93978,43.24111],[-2.93991,43.24107],[-2.94004,43.241],[-2.94016,43.24092],[-2.94024,43.24085],[-2.94033,43.24073],[-2.9404,43.24061],[-2.94047,43.24043],[-2.94048,43.24024],[-2.94054,43.23989],[-2.94061,43.23977],[-2.94069,43.23972],[-2.94078,43.23969],[-2.94088,43.23968],[-2.94098,43.23971],[-2.94109,43.23978],[-2.94115,43.23985],[-2.94121,43.23994],[-2.94127,43.24009],[-2.9413,43.2403],[-2.9413,43.24063],[-2.94131,43.24102],[-2.9413,43.2412],[-2.94126,43.2414],[-2.94121,43.24151],[-2.94109,43.24167],[-2.94096,43.24183],[-2.94078,43.24196],[-2.94059,43.24212],[-2.94047,43.24216],[-2.94015,43.24227],[-2.94,43.24232],[-2.93885,43.24268],[-2.93804,43.24294],[-2.9378,43.243],[-2.93754,43.24301],[-2.93728,43.24299],[-2.93707,43.24293],[-2.93669,43.2428],[-2.93523,43.2422],[-2.93483,43.24204],[-2.93442,43.24194],[-2.93412,43.24189],[-2.93381,43.24189],[-2.93353,43.2419],[-2.93319,43.24198],[-2.93286,43.24209],[-2.93251,43.24229],[-2.93238,43.24241],[-2.93224,43.24261],[-2.93213,43.24279],[-2.93205,43.24299],[-2.93197,43.24319],[-2.93186,43.24338],[-2.93172,43.24379],[-2.93178,43.24404],[-2.93198,43.24434],[-2.93208,43.24455],[-2.93208,43.24474],[-2.93195,43.24492],[-2.93162,43.24524],[-2.93183,43.24547]]]]}},{"type":"Feature","properties":{"nbhd_name":"Otxarkoaga-Txurdinaga","uesi_id":"ESP_R339549","nbhd_code":"ESP_R339549_5"},"geometry":{"type":"MultiPolygon","coordinates":[[[[-2.90518,43.24959],[-2.90542,43.2497],[-2.90561,43.24984],[-2.90584,43.25005],[-2.90722,43.25166],[-2.90723,43.25166],[-2.90773,43.25228],[-2.90794,43.25252],[-2.90826,43.25289],[-2.90912,43.25385],[-2.90998,43.25481],[-2.91018,43.25505],[-2.91074,43.25568],[-2.91112,43.2561],[-2.91136,43.25635],[-2.91164,43.25664],[-2.91246,43.2575],[-2.91262,43.25776],[-2.9128,43.25835],[-2.91296,43.25874],[-2.91289,43.25884],[-2.9127,43.25888],[-2.91237,43.25861],[-2.91218,43.25849],[-2.91206,43.25846],[-2.91192,43.25847],[-2.91201,43.25856],[-2.9122,43.2588],[-2.91233,43.25912],[-2.91232,43.25945],[-2.91231,43.25962],[-2.91227,43.25977],[-2.91218,43.25991],[-2.91206,43.26013],[-2.91155,43.26097],[-2.9114,43.26104],[-2.90974,43.26177],[-2.90861,43.2623],[-2.90839,43.26242],[-2.90823,43.26261],[-2.90816,43.26273],[-2.9081,43.26279],[-2.90798,43.26285],[-2.90785,43.26287],[-2.90754,43.2629],[-2.90742,43.26295],[-2.90731,43.263],[-2.90725,43.26306],[-2.90717,43.26318],[-2.90719,43.26354],[-2.90709,43.26372],[-2.90697,43.26385],[-2.90681,43.26411],[-2.90616,43.2646],[-2.90601,43.26472],[-2.90582,43.26479],[-2.90578,43.26486],[-2.90582,43.26491],[-2.90587,43.26495],[-2.90597,43.26493],[-2.90609,43.26486],[-2.90639,43.26466],[-2.90666,43.26452],[-2.90699,43.26447],[-2.90759,43.26426],[-2.90766,43.26424],[-2.90779,43.26427],[-2.9079,43.26433],[-2.90814,43.26488],[-2.90821,43.26499],[-2.90835,43.2653],[-2.90838,43.26555],[-2.90834,43.26568],[-2.9083,43.26574],[-2.90817,43.26581],[-2.90805,43.26584],[-2.90788,43.26597],[-2.90764,43.26616],[-2.90742,43.26633],[-2.90736,43.26638],[-2.90733,43.26645],[-2.90726,43.26659],[-2.90725,43.26672],[-2.90726,43.26689],[-2.90732,43.26705],[-2.90739,43.26718],[-2.90746,43.26736],[-2.9075,43.26765],[-2.90744,43.26786],[-2.90729,43.26811],[-2.90717,43.26831],[-2.90709,43.26848],[-2.90706,43.2686],[-2.90707,43.26875],[-2.90713,43.26906],[-2.90711,43.26921],[-2.90706,43.26933],[-2.907,43.26944],[-2.90692,43.26953],[-2.90677,43.26966],[-2.9065,43.26983],[-2.9052,43.27011],[-2.90288,43.27062],[-2.90168,43.27087],[-2.90075,43.27078],[-2.90067,43.27073],[-2.89845,43.2704],[-2.89736,43.27026],[-2.89568,43.27006],[-2.89434,43.26991],[-2.89336,43.2698],[-2.89282,43.26963],[-2.89233,43.26948],[-2.89184,43.26929],[-2.8912,43.26906],[-2.89037,43.26874],[-2.88961,43.26847],[-2.88928,43.26835],[-2.88885,43.2682],[-2.88853,43.2681],[-2.8883,43.268],[-2.88812,43.26791],[-2.88803,43.26787],[-2.88791,43.26784],[-2.88771,43.26779],[-2.88744,43.26771],[-2.88724,43.26763],[-2.88703,43.26753],[-2.88689,43.26744],[-2.88672,43.26735],[-2.88645,43.26722],[-2.88626,43.26713],[-2.886,43.26702],[-2.88588,43.26696],[-2.88572,43.26689],[-2.88555,43.26683],[-2.88518,43.26666],[-2.88493,43.26652],[-2.88428,43.2662],[-2.88382,43.26596],[-2.8835,43.26581],[-2.88329,43.26575],[-2.88311,43.26571],[-2.88292,43.26568],[-2.88266,43.26564],[-2.88241,43.26556],[-2.88156,43.26544],[-2.88052,43.2653],[-2.88026,43.26523],[-2.8795,43.26481],[-2.87894,43.26449],[-2.87853,43.26426],[-2.87807,43.26401],[-2.87695,43.26338],[-2.87666,43.26322],[-2.87692,43.26329],[-2.87738,43.26344],[-2.87791,43.2636],[-2.87864,43.26381],[-2.87957,43.26408],[-2.87983,43.26245],[-2.88134,43.26133],[-2.88225,43.26066],[-2.88234,43.26043],[-2.88256,43.25981],[-2.88282,43.25965],[-2.88288,43.25957],[-2.88294,43.25949],[-2.88302,43.25943],[-2.88309,43.2594],[-2.88317,43.25933],[-2.88326,43.25926],[-2.88336,43.2592],[-2.88344,43.25915],[-2.88479,43.25913],[-2.88477,43.25906],[-2.88477,43.25897],[-2.88478,43.25885],[-2.88473,43.25871],[-2.8847,43.25857],[-2.8847,43.25637],[-2.88494,43.25609],[-2.88507,43.25602],[-2.88548,43.25586],[-2.88574,43.25579],[-2.88591,43.25575],[-2.88607,43.25571],[-2.8862,43.25568],[-2.88631,43.25563],[-2.88643,43.25555],[-2.88658,43.25547],[-2.88673,43.25539],[-2.88683,43.25534],[-2.88692,43.25527],[-2.88703,43.25517],[-2.88717,43.25505],[-2.88729,43.25493],[-2.88739,43.25484],[-2.88752,43.25473],[-2.88764,43.25463],[-2.88776,43.25456],[-2.88788,43.25451],[-2.88802,43.25444],[-2.88818,43.25435],[-2.88836,43.25424],[-2.88854,43.25411],[-2.8888,43.25394],[-2.88972,43.25331],[-2.88981,43.25348],[-2.89014,43.25372],[-2.89039,43.25386],[-2.89065,43.25398],[-2.89091,43.2541],[-2.89111,43.25417],[-2.89129,43.25422],[-2.89148,43.25428],[-2.89183,43.25437],[-2.89207,43.25442],[-2.8923,43.25446],[-2.89253,43.25448],[-2.8928,43.2545],[-2.89307,43.25449],[-2.89325,43.25448],[-2.8934,43.25445],[-2.89342,43.25444],[-2.89359,43.2544],[-2.89378,43.25434],[-2.89453,43.25409],[-2.89586,43.25362],[-2.89696,43.25325],[-2.89729,43.25311],[-2.89737,43.25307],[-2.89781,43.25283],[-2.89884,43.25219],[-2.8998,43.25162],[-2.90056,43.25114],[-2.90095,43.25087],[-2.90224,43.25009],[-2.90248,43.24995],[-2.90277,43.24977],[-2.90323,43.24954],[-2.90355,43.24945],[-2.90393,43.24939],[-2.90406,43.24937],[-2.9042,43.24937],[-2.90442,43.24939],[-2.9047,43.24943],[-2.90496,43.24951],[-2.90518,43.24959]]]]}},{"type":"Feature","properties":{"nbhd_name":"Bego\u00f1a 1","uesi_id":"ESP_R339549","nbhd_code":"ESP_R339549_6"},"geometry":{"type":"MultiPolygon","coordinates":[[[[-2.91381,43.24575],[-2.91403,43.24572],[-2.91425,43.24567],[-2.91445,43.24561],[-2.91461,43.24558],[-2.91497,43.24546],[-2.91512,43.24538],[-2.91526,43.2453],[-2.9155,43.24513],[-2.91559,43.24511],[-2.91566,43.245],[-2.91577,43.24491],[-2.91586,43.24481],[-2.91591,43.2447],[-2.916,43.2446],[-2.91612,43.24446],[-2.91626,43.24435],[-2.91637,43.24426],[-2.91649,43.24415],[-2.91662,43.24404],[-2.91694,43.24382],[-2.91734,43.2436],[-2.91756,43.24347],[-2.91778,43.24336],[-2.92067,43.24195],[-2.92065,43.24192],[-2.92094,43.2419],[-2.92133,43.2418],[-2.92185,43.24173],[-2.92238,43.24174],[-2.92281,43.24184],[-2.9231,43.24195],[-2.92336,43.24208],[-2.92368,43.24226],[-2.92384,43.24237],[-2.92404,43.24254],[-2.9242,43.2427],[-2.92437,43.24287],[-2.92452,43.24313],[-2.92466,43.24339],[-2.92473,43.24355],[-2.92472,43.24374],[-2.9247,43.24406],[-2.92451,43.24428],[-2.92428,43.24447],[-2.92402,43.2446],[-2.92351,43.24475],[-2.92279,43.24486],[-2.92265,43.24499],[-2.9224,43.24515],[-2.92215,43.24531],[-2.92179,43.24548],[-2.92137,43.24572],[-2.92113,43.24593],[-2.9209,43.24619],[-2.92081,43.24643],[-2.92076,43.24667],[-2.92073,43.24697],[-2.92074,43.2472],[-2.92075,43.24751],[-2.92085,43.24778],[-2.92089,43.24796],[-2.9214,43.24995],[-2.92144,43.25013],[-2.92145,43.25036],[-2.92153,43.25065],[-2.92155,43.25072],[-2.92051,43.25135],[-2.91913,43.25092],[-2.91884,43.251],[-2.91806,43.25128],[-2.91811,43.2514],[-2.91814,43.25161],[-2.91807,43.2518],[-2.91795,43.25199],[-2.9178,43.25213],[-2.91771,43.25227],[-2.9177,43.25229],[-2.91764,43.25241],[-2.91758,43.2526],[-2.91749,43.25278],[-2.91738,43.25296],[-2.91727,43.25306],[-2.91708,43.25315],[-2.91755,43.25376],[-2.91774,43.25401],[-2.91798,43.25428],[-2.91872,43.25496],[-2.91876,43.2553],[-2.91758,43.25515],[-2.91718,43.25481],[-2.91701,43.25507],[-2.91479,43.2546],[-2.91461,43.25468],[-2.91376,43.25514],[-2.91272,43.25568],[-2.91136,43.25635],[-2.91112,43.2561],[-2.91074,43.25568],[-2.91018,43.25505],[-2.90998,43.25481],[-2.90912,43.25385],[-2.90826,43.25289],[-2.90794,43.25252],[-2.90773,43.25228],[-2.90723,43.25166],[-2.90722,43.25166],[-2.90584,43.25005],[-2.90561,43.24984],[-2.90542,43.2497],[-2.90518,43.24959],[-2.90496,43.24951],[-2.9047,43.24943],[-2.90442,43.24939],[-2.9042,43.24937],[-2.90406,43.24937],[-2.90393,43.24939],[-2.90355,43.24945],[-2.90323,43.24954],[-2.90277,43.24977],[-2.90248,43.24995],[-2.90224,43.25009],[-2.90095,43.25087],[-2.90056,43.25114],[-2.8998,43.25162],[-2.89884,43.25219],[-2.89781,43.25283],[-2.89737,43.25307],[-2.89729,43.25311],[-2.89696,43.25325],[-2.89586,43.25362],[-2.89453,43.25409],[-2.89378,43.25434],[-2.89359,43.2544],[-2.89342,43.25444],[-2.8934,43.25445],[-2.89325,43.25448],[-2.89307,43.25449],[-2.8928,43.2545],[-2.89253,43.25448],[-2.8923,43.25446],[-2.89207,43.25442],[-2.89183,43.25437],[-2.89148,43.25428],[-2.89129,43.25422],[-2.89111,43.25417],[-2.89091,43.2541],[-2.89065,43.25398],[-2.89039,43.25386],[-2.89014,43.25372],[-2.88981,43.25348],[-2.88972,43.25331],[-2.89046,43.25281],[-2.89092,43.25331],[-2.89094,43.25333],[-2.89101,43.25337],[-2.89114,43.25343],[-2.89135,43.25351],[-2.89149,43.25356],[-2.89164,43.25359],[-2.89184,43.25362],[-2.89202,43.25365],[-2.89222,43.25367],[-2.89244,43.25369],[-2.89267,43.25371],[-2.89288,43.25372],[-2.89313,43.25373],[-2.89341,43.25373],[-2.8936,43.25374],[-2.89372,43.25372],[-2.89385,43.25371],[-2.89401,43.25366],[-2.89426,43.25358],[-2.89452,43.2535],[-2.89475,43.25341],[-2.895,43.25331],[-2.8952,43.25322],[-2.8954,43.25312],[-2.89551,43.25305],[-2.89567,43.25295],[-2.89587,43.2528],[-2.89603,43.25273],[-2.8962,43.2526],[-2.89637,43.25247],[-2.89661,43.25227],[-2.89674,43.25217],[-2.89699,43.25198],[-2.8971,43.25187],[-2.89722,43.25176],[-2.89744,43.25155],[-2.89755,43.25143],[-2.89764,43.25131],[-2.89773,43.25118],[-2.89784,43.25104],[-2.89793,43.25094],[-2.89811,43.25068],[-2.89819,43.25055],[-2.89826,43.25043],[-2.89835,43.25031],[-2.89854,43.25006],[-2.8999,43.24865],[-2.9002,43.24836],[-2.9004,43.24818],[-2.90055,43.24806],[-2.90071,43.24795],[-2.90091,43.24783],[-2.90112,43.24771],[-2.90129,43.24761],[-2.90154,43.24741],[-2.90163,43.24734],[-2.90174,43.24725],[-2.90199,43.24703],[-2.90207,43.24695],[-2.90221,43.24684],[-2.90236,43.24673],[-2.90256,43.24659],[-2.90278,43.24644],[-2.90292,43.24636],[-2.90316,43.2462],[-2.90337,43.24607],[-2.9036,43.24591],[-2.90382,43.24578],[-2.90397,43.2457],[-2.90411,43.24562],[-2.90425,43.24557],[-2.90437,43.24551],[-2.90448,43.24548],[-2.90463,43.24544],[-2.90481,43.24542],[-2.90501,43.2454],[-2.90519,43.24539],[-2.90537,43.24538],[-2.90554,43.24538],[-2.90584,43.24536],[-2.90624,43.24531],[-2.90639,43.24528],[-2.90658,43.24526],[-2.90688,43.24525],[-2.90724,43.24527],[-2.90772,43.24526],[-2.90804,43.24528],[-2.90837,43.24529],[-2.90864,43.24531],[-2.90894,43.24537],[-2.90924,43.24542],[-2.90969,43.24549],[-2.91011,43.24556],[-2.91051,43.24562],[-2.91091,43.24568],[-2.91122,43.24575],[-2.91148,43.24577],[-2.91174,43.24579],[-2.91197,43.24581],[-2.91222,43.24583],[-2.91246,43.24584],[-2.91268,43.24583],[-2.91282,43.24583],[-2.91302,43.24583],[-2.9133,43.24582],[-2.91356,43.24579],[-2.91381,43.24575]]]]}},{"type":"Feature","properties":{"nbhd_name":"Uribarri 1","uesi_id":"ESP_R339549","nbhd_code":"ESP_R339549_7"},"geometry":{"type":"MultiPolygon","coordinates":[[[[-2.92383,43.26324],[-2.92388,43.26335],[-2.924,43.26349],[-2.92576,43.26485],[-2.92842,43.2669],[-2.92849,43.26695],[-2.93013,43.26822],[-2.93124,43.26908],[-2.93152,43.26923],[-2.9318,43.26935],[-2.93193,43.26941],[-2.93232,43.26954],[-2.93272,43.26965],[-2.93359,43.26979],[-2.93622,43.26991],[-2.93618,43.27031],[-2.93616,43.27063],[-2.93616,43.27092],[-2.93596,43.27154],[-2.9358,43.27204],[-2.93578,43.27217],[-2.9357,43.27236],[-2.9356,43.27255],[-2.93551,43.27268],[-2.93549,43.27275],[-2.93547,43.27283],[-2.93539,43.27295],[-2.93536,43.27302],[-2.93532,43.27308],[-2.93525,43.27317],[-2.93516,43.27329],[-2.93509,43.27335],[-2.93501,43.27338],[-2.9349,43.27347],[-2.93482,43.27358],[-2.93475,43.27367],[-2.93458,43.27389],[-2.93445,43.27403],[-2.93436,43.27415],[-2.93425,43.27429],[-2.93418,43.27442],[-2.93409,43.27464],[-2.93414,43.27477],[-2.93417,43.27499],[-2.93415,43.27523],[-2.93412,43.27548],[-2.93408,43.27567],[-2.93401,43.27593],[-2.9339,43.27624],[-2.93382,43.27651],[-2.93376,43.27684],[-2.93352,43.27751],[-2.93334,43.27816],[-2.93325,43.27815],[-2.92979,43.27822],[-2.92886,43.27767],[-2.9288,43.27764],[-2.92873,43.27759],[-2.92865,43.27757],[-2.92859,43.27758],[-2.92852,43.27761],[-2.92846,43.27765],[-2.92841,43.27769],[-2.92837,43.27771],[-2.92829,43.27765],[-2.92815,43.27756],[-2.92807,43.27752],[-2.92794,43.27744],[-2.92782,43.27737],[-2.92771,43.27732],[-2.92758,43.27727],[-2.92742,43.27723],[-2.92733,43.2772],[-2.92721,43.27716],[-2.92709,43.27712],[-2.92487,43.27631],[-2.9247,43.27626],[-2.92453,43.27605],[-2.92432,43.27573],[-2.92416,43.27549],[-2.92399,43.27523],[-2.92391,43.27514],[-2.92367,43.27494],[-2.92333,43.27469],[-2.92259,43.2741],[-2.92224,43.27387],[-2.92211,43.2738],[-2.92194,43.27373],[-2.92171,43.27368],[-2.92111,43.27366],[-2.92069,43.27364],[-2.92052,43.27365],[-2.92207,43.27183],[-2.92193,43.27182],[-2.92184,43.27179],[-2.92176,43.27176],[-2.92168,43.27173],[-2.92159,43.27168],[-2.92149,43.27163],[-2.92137,43.27153],[-2.92123,43.27142],[-2.92106,43.27129],[-2.92088,43.27113],[-2.92074,43.27101],[-2.92065,43.27094],[-2.92047,43.27078],[-2.92031,43.27066],[-2.92007,43.2704],[-2.91967,43.26991],[-2.91947,43.26966],[-2.91923,43.26951],[-2.91862,43.26934],[-2.91771,43.26925],[-2.91712,43.26913],[-2.91689,43.26904],[-2.91639,43.26871],[-2.9159,43.26823],[-2.91557,43.2679],[-2.91511,43.26745],[-2.91544,43.26733],[-2.91566,43.26722],[-2.91607,43.26698],[-2.91618,43.26688],[-2.91642,43.26641],[-2.91652,43.26634],[-2.91675,43.26633],[-2.91673,43.26621],[-2.91672,43.26603],[-2.91689,43.26508],[-2.91688,43.2645],[-2.91696,43.26429],[-2.91732,43.26468],[-2.91766,43.26484],[-2.9178,43.26488],[-2.91811,43.26494],[-2.91843,43.26496],[-2.91907,43.26495],[-2.91959,43.26495],[-2.92029,43.26494],[-2.92084,43.26492],[-2.92111,43.26481],[-2.92152,43.2645],[-2.92167,43.26442],[-2.92193,43.26444],[-2.92206,43.26457],[-2.92205,43.26474],[-2.92193,43.26485],[-2.92163,43.26495],[-2.92084,43.26525],[-2.92079,43.26536],[-2.92084,43.26545],[-2.92096,43.26552],[-2.92106,43.26552],[-2.92148,43.26538],[-2.9222,43.26513],[-2.92235,43.26506],[-2.92252,43.26494],[-2.92266,43.26481],[-2.92273,43.26468],[-2.92275,43.26442],[-2.92276,43.2642],[-2.92286,43.264],[-2.92299,43.2638],[-2.92315,43.26365],[-2.92383,43.26324]]]]}},{"type":"Feature","properties":{"nbhd_name":"Uribarri 2","uesi_id":"ESP_R339549","nbhd_code":"ESP_R339549_8"},"geometry":{"type":"MultiPolygon","coordinates":[[[[-2.91376,43.25514],[-2.91405,43.25545],[-2.91416,43.25562],[-2.91404,43.25606],[-2.91409,43.25636],[-2.91413,43.25656],[-2.91417,43.25676],[-2.91417,43.25693],[-2.91418,43.2571],[-2.91403,43.2572],[-2.91406,43.25735],[-2.9141,43.25742],[-2.91438,43.25751],[-2.91473,43.25768],[-2.91494,43.25758],[-2.91527,43.25744],[-2.91553,43.25734],[-2.91581,43.25732],[-2.91614,43.25735],[-2.91636,43.25745],[-2.91657,43.25759],[-2.91675,43.25773],[-2.91691,43.25789],[-2.91711,43.25805],[-2.91724,43.25817],[-2.91737,43.25832],[-2.91755,43.25857],[-2.91758,43.25876],[-2.91759,43.25907],[-2.9176,43.25922],[-2.91849,43.2596],[-2.91881,43.25956],[-2.91954,43.26022],[-2.91933,43.26034],[-2.91908,43.26046],[-2.91876,43.2606],[-2.91848,43.26069],[-2.91818,43.26075],[-2.91787,43.26081],[-2.91745,43.26086],[-2.91716,43.26086],[-2.91676,43.2609],[-2.91636,43.26091],[-2.91592,43.26167],[-2.91575,43.26182],[-2.9163,43.26241],[-2.91695,43.26322],[-2.91703,43.26349],[-2.91704,43.26374],[-2.917,43.26401],[-2.91696,43.26429],[-2.91688,43.2645],[-2.91689,43.26508],[-2.91672,43.26603],[-2.91673,43.26621],[-2.91675,43.26633],[-2.91652,43.26634],[-2.91642,43.26641],[-2.91618,43.26688],[-2.91607,43.26698],[-2.91566,43.26722],[-2.91544,43.26733],[-2.91511,43.26745],[-2.91557,43.2679],[-2.9159,43.26823],[-2.91639,43.26871],[-2.91689,43.26904],[-2.91712,43.26913],[-2.91771,43.26925],[-2.91862,43.26934],[-2.91923,43.26951],[-2.91947,43.26966],[-2.91967,43.26991],[-2.92007,43.2704],[-2.92031,43.27066],[-2.92047,43.27078],[-2.92065,43.27094],[-2.92074,43.27101],[-2.92088,43.27113],[-2.92106,43.27129],[-2.92123,43.27142],[-2.92137,43.27153],[-2.92149,43.27163],[-2.92159,43.27168],[-2.92168,43.27173],[-2.92176,43.27176],[-2.92184,43.27179],[-2.92193,43.27182],[-2.92207,43.27183],[-2.92052,43.27365],[-2.92069,43.27364],[-2.92111,43.27366],[-2.92171,43.27368],[-2.92194,43.27373],[-2.92211,43.2738],[-2.92224,43.27387],[-2.92259,43.2741],[-2.92333,43.27469],[-2.92367,43.27494],[-2.92391,43.27514],[-2.92399,43.27523],[-2.92416,43.27549],[-2.92432,43.27573],[-2.92453,43.27605],[-2.9247,43.27626],[-2.92433,43.27612],[-2.92395,43.27601],[-2.92376,43.27592],[-2.92353,43.27582],[-2.92331,43.27567],[-2.92258,43.27533],[-2.92228,43.27522],[-2.92001,43.27451],[-2.91924,43.27424],[-2.91857,43.27403],[-2.91793,43.27381],[-2.91746,43.27484],[-2.91735,43.27512],[-2.91707,43.27583],[-2.91698,43.27603],[-2.9167,43.27678],[-2.91582,43.27868],[-2.91518,43.27945],[-2.91514,43.27954],[-2.91517,43.27962],[-2.9153,43.27983],[-2.9153,43.27999],[-2.91501,43.28032],[-2.91497,43.28053],[-2.91506,43.28082],[-2.91653,43.28258],[-2.91656,43.28262],[-2.91659,43.2827],[-2.91654,43.28278],[-2.91646,43.28287],[-2.91639,43.28295],[-2.91602,43.28334],[-2.91596,43.28339],[-2.91591,43.28344],[-2.91581,43.28351],[-2.91572,43.28353],[-2.9156,43.28358],[-2.91552,43.28362],[-2.91543,43.28366],[-2.91533,43.28369],[-2.91521,43.28377],[-2.91511,43.28381],[-2.91503,43.28386],[-2.91488,43.28396],[-2.91475,43.28405],[-2.91465,43.28411],[-2.91456,43.28416],[-2.91435,43.28424],[-2.91411,43.2843],[-2.91388,43.28438],[-2.91368,43.28445],[-2.91345,43.28453],[-2.91309,43.28468],[-2.91301,43.28471],[-2.91289,43.28476],[-2.9128,43.28481],[-2.91276,43.28486],[-2.91283,43.28492],[-2.91288,43.28495],[-2.91293,43.28499],[-2.913,43.28503],[-2.91306,43.28506],[-2.91315,43.28509],[-2.91323,43.28511],[-2.91328,43.28513],[-2.91339,43.28514],[-2.91347,43.28516],[-2.91355,43.28519],[-2.91365,43.28519],[-2.91377,43.28519],[-2.91392,43.2852],[-2.91401,43.28522],[-2.91412,43.28522],[-2.91427,43.28524],[-2.91437,43.28525],[-2.91449,43.28525],[-2.9147,43.28527],[-2.91477,43.28527],[-2.91487,43.28528],[-2.91496,43.28527],[-2.91506,43.28526],[-2.91514,43.28526],[-2.91524,43.28523],[-2.91536,43.28521],[-2.91537,43.28524],[-2.91537,43.28527],[-2.91537,43.28533],[-2.91537,43.28535],[-2.91537,43.28539],[-2.91537,43.28542],[-2.91536,43.28545],[-2.91537,43.28548],[-2.91538,43.28551],[-2.91538,43.28553],[-2.9154,43.28555],[-2.91541,43.28558],[-2.91544,43.28563],[-2.91545,43.28565],[-2.91545,43.28567],[-2.91544,43.28569],[-2.91543,43.28572],[-2.91543,43.28574],[-2.91543,43.28576],[-2.91542,43.28578],[-2.91541,43.2858],[-2.91541,43.28583],[-2.9154,43.28587],[-2.91539,43.2859],[-2.91537,43.28594],[-2.91535,43.28597],[-2.91535,43.286],[-2.91535,43.28603],[-2.91532,43.28606],[-2.91529,43.28609],[-2.91529,43.28611],[-2.91526,43.28615],[-2.91523,43.28618],[-2.91521,43.28622],[-2.91518,43.28625],[-2.91516,43.28629],[-2.91515,43.28632],[-2.91516,43.28636],[-2.91518,43.28638],[-2.91518,43.28643],[-2.91516,43.28647],[-2.91517,43.28652],[-2.91517,43.28661],[-2.91457,43.28645],[-2.91418,43.2863],[-2.91389,43.28618],[-2.91358,43.28606],[-2.9132,43.28593],[-2.913,43.28581],[-2.91255,43.28553],[-2.9122,43.2857],[-2.91204,43.2858],[-2.91177,43.28599],[-2.91155,43.28598],[-2.91141,43.28597],[-2.91096,43.28589],[-2.91078,43.28584],[-2.91061,43.28577],[-2.91046,43.2857],[-2.91028,43.28564],[-2.91011,43.28557],[-2.90991,43.28551],[-2.90968,43.28545],[-2.9097,43.28542],[-2.90882,43.28462],[-2.90901,43.2845],[-2.90916,43.28438],[-2.90929,43.28419],[-2.90938,43.28405],[-2.90941,43.2839],[-2.90938,43.28372],[-2.90934,43.2836],[-2.90942,43.28356],[-2.90954,43.28347],[-2.90965,43.2834],[-2.90979,43.28324],[-2.90984,43.28312],[-2.90985,43.283],[-2.90985,43.28285],[-2.90983,43.28274],[-2.90979,43.28261],[-2.90885,43.28297],[-2.90861,43.28269],[-2.9082,43.28288],[-2.90817,43.28282],[-2.90809,43.28272],[-2.90798,43.28265],[-2.90789,43.28258],[-2.90781,43.28251],[-2.90771,43.28243],[-2.9076,43.28238],[-2.90752,43.2823],[-2.90742,43.28223],[-2.90734,43.28217],[-2.9072,43.2821],[-2.90704,43.28208],[-2.90684,43.28207],[-2.90662,43.28204],[-2.90637,43.28203],[-2.90625,43.28202],[-2.90611,43.28203],[-2.906,43.28202],[-2.90592,43.282],[-2.90586,43.28198],[-2.90586,43.28197],[-2.90587,43.28185],[-2.90589,43.28171],[-2.9059,43.28166],[-2.90582,43.28169],[-2.905,43.28135],[-2.90479,43.28124],[-2.90473,43.28121],[-2.90469,43.28117],[-2.90462,43.28111],[-2.90459,43.28105],[-2.90455,43.28097],[-2.90453,43.2809],[-2.90454,43.28083],[-2.90342,43.28048],[-2.90324,43.28056],[-2.90337,43.28043],[-2.90334,43.28037],[-2.90327,43.28031],[-2.90319,43.28023],[-2.90314,43.28015],[-2.90313,43.2801],[-2.90307,43.28003],[-2.903,43.27999],[-2.90287,43.27994],[-2.90274,43.27989],[-2.9025,43.2798],[-2.90235,43.27973],[-2.90223,43.27967],[-2.90213,43.27959],[-2.90204,43.27949],[-2.90192,43.27938],[-2.9017,43.2792],[-2.90144,43.279],[-2.90125,43.27884],[-2.9011,43.27876],[-2.90092,43.27868],[-2.90064,43.27854],[-2.90033,43.27838],[-2.9001,43.27831],[-2.89932,43.27788],[-2.89915,43.27778],[-2.89875,43.27754],[-2.89871,43.2775],[-2.89879,43.27724],[-2.89898,43.27708],[-2.89913,43.27694],[-2.89937,43.27675],[-2.89958,43.27657],[-2.89964,43.2765],[-2.89976,43.27634],[-2.89991,43.27618],[-2.90014,43.27582],[-2.9004,43.27545],[-2.90066,43.27507],[-2.9008,43.27484],[-2.90087,43.27471],[-2.9013,43.27372],[-2.90177,43.27229],[-2.90209,43.271],[-2.90207,43.27098],[-2.90193,43.2709],[-2.90168,43.27087],[-2.90288,43.27062],[-2.9052,43.27011],[-2.9065,43.26983],[-2.90677,43.26966],[-2.90692,43.26953],[-2.907,43.26944],[-2.90706,43.26933],[-2.90711,43.26921],[-2.90713,43.26906],[-2.90707,43.26875],[-2.90706,43.2686],[-2.90709,43.26848],[-2.90717,43.26831],[-2.90729,43.26811],[-2.90744,43.26786],[-2.9075,43.26765],[-2.90746,43.26736],[-2.90739,43.26718],[-2.90732,43.26705],[-2.90726,43.26689],[-2.90725,43.26672],[-2.90726,43.26659],[-2.90733,43.26645],[-2.90736,43.26638],[-2.90742,43.26633],[-2.90764,43.26616],[-2.90788,43.26597],[-2.90805,43.26584],[-2.90817,43.26581],[-2.9083,43.26574],[-2.90834,43.26568],[-2.90838,43.26555],[-2.90835,43.2653],[-2.90821,43.26499],[-2.90814,43.26488],[-2.9079,43.26433],[-2.90779,43.26427],[-2.90766,43.26424],[-2.90759,43.26426],[-2.90699,43.26447],[-2.90666,43.26452],[-2.90639,43.26466],[-2.90609,43.26486],[-2.90597,43.26493],[-2.90587,43.26495],[-2.90582,43.26491],[-2.90578,43.26486],[-2.90582,43.26479],[-2.90601,43.26472],[-2.90616,43.2646],[-2.90681,43.26411],[-2.90697,43.26385],[-2.90709,43.26372],[-2.90719,43.26354],[-2.90717,43.26318],[-2.90725,43.26306],[-2.90731,43.263],[-2.90742,43.26295],[-2.90754,43.2629],[-2.90785,43.26287],[-2.90798,43.26285],[-2.9081,43.26279],[-2.90816,43.26273],[-2.90823,43.26261],[-2.90839,43.26242],[-2.90861,43.2623],[-2.90974,43.26177],[-2.9114,43.26104],[-2.91155,43.26097],[-2.91206,43.26013],[-2.91218,43.25991],[-2.91227,43.25977],[-2.91231,43.25962],[-2.91232,43.25945],[-2.91233,43.25912],[-2.9122,43.2588],[-2.91201,43.25856],[-2.91192,43.25847],[-2.91206,43.25846],[-2.91218,43.25849],[-2.91237,43.25861],[-2.9127,43.25888],[-2.91289,43.25884],[-2.91296,43.25874],[-2.9128,43.25835],[-2.91262,43.25776],[-2.91246,43.2575],[-2.91164,43.25664],[-2.91136,43.25635],[-2.91272,43.25568],[-2.91376,43.25514]],[[-2.9095,43.28219],[-2.90937,43.28218],[-2.90924,43.28216],[-2.90913,43.28214],[-2.90907,43.28211],[-2.90903,43.28205],[-2.90819,43.2819],[-2.90815,43.28198],[-2.9081,43.28205],[-2.90809,43.28211],[-2.90812,43.28223],[-2.90949,43.28239],[-2.9095,43.28219]]]]}},{"type":"Feature","properties":{"nbhd_name":"Deustu 1","uesi_id":"ESP_R339549","nbhd_code":"ESP_R339549_9"},"geometry":{"type":"MultiPolygon","coordinates":[[[[-2.96505,43.27806],[-2.96641,43.28063],[-2.96794,43.28348],[-2.96788,43.28371],[-2.96786,43.28378],[-2.96778,43.28406],[-2.96776,43.28444],[-2.96776,43.2847],[-2.96775,43.28495],[-2.96778,43.28517],[-2.96785,43.28547],[-2.96793,43.28567],[-2.96801,43.28589],[-2.96811,43.28606],[-2.9682,43.28622],[-2.96834,43.28639],[-2.9685,43.2866],[-2.96869,43.2868],[-2.96897,43.28713],[-2.97136,43.28999],[-2.97137,43.29003],[-2.97113,43.29009],[-2.97089,43.2901],[-2.97066,43.29009],[-2.97048,43.29008],[-2.97028,43.29006],[-2.97007,43.29002],[-2.96989,43.28997],[-2.96973,43.28991],[-2.96959,43.28986],[-2.96945,43.28981],[-2.96934,43.28975],[-2.96919,43.28968],[-2.96904,43.2896],[-2.9689,43.28951],[-2.96875,43.28944],[-2.9686,43.28937],[-2.96846,43.2893],[-2.9683,43.28923],[-2.96812,43.28915],[-2.96762,43.28892],[-2.96727,43.28877],[-2.96692,43.28862],[-2.96653,43.28847],[-2.96612,43.2883],[-2.96566,43.28814],[-2.96508,43.28787],[-2.96479,43.28776],[-2.96451,43.28761],[-2.96434,43.28749],[-2.96414,43.28736],[-2.96393,43.28722],[-2.96371,43.28709],[-2.96353,43.28693],[-2.96338,43.28678],[-2.96318,43.28664],[-2.96294,43.28649],[-2.96262,43.28632],[-2.96212,43.28613],[-2.96158,43.28593],[-2.96096,43.28569],[-2.9606,43.28556],[-2.96034,43.28549],[-2.96014,43.28545],[-2.95948,43.28558],[-2.95889,43.2857],[-2.9586,43.28574],[-2.95856,43.28523],[-2.95854,43.28496],[-2.95848,43.28472],[-2.95838,43.28446],[-2.95808,43.28408],[-2.95776,43.28371],[-2.95747,43.28338],[-2.95713,43.28304],[-2.95696,43.28276],[-2.95685,43.2825],[-2.9568,43.28223],[-2.95672,43.28176],[-2.95659,43.2811],[-2.95652,43.28059],[-2.95631,43.27993],[-2.9562,43.27956],[-2.95605,43.27921],[-2.95592,43.27893],[-2.95583,43.27878],[-2.9557,43.27861],[-2.9555,43.27834],[-2.95521,43.27781],[-2.95489,43.27719],[-2.95466,43.27674],[-2.95442,43.27618],[-2.95435,43.276],[-2.95428,43.27584],[-2.95415,43.27547],[-2.95401,43.27513],[-2.95381,43.27461],[-2.95361,43.27424],[-2.95331,43.27395],[-2.9533,43.27393],[-2.95331,43.27393],[-2.95381,43.27392],[-2.95396,43.27387],[-2.95416,43.274],[-2.95455,43.27393],[-2.95469,43.27377],[-2.9549,43.27358],[-2.95516,43.27334],[-2.95538,43.27313],[-2.95552,43.27298],[-2.95578,43.27292],[-2.95698,43.27226],[-2.95733,43.27211],[-2.95747,43.27197],[-2.95793,43.27142],[-2.95808,43.27139],[-2.95887,43.27132],[-2.9596,43.27125],[-2.95981,43.27121],[-2.96032,43.27107],[-2.96098,43.27089],[-2.9611,43.27103],[-2.9613,43.27126],[-2.96148,43.27149],[-2.96163,43.2717],[-2.96176,43.27194],[-2.96198,43.27236],[-2.96361,43.2754],[-2.96505,43.27806]]]]}},{"type":"Feature","properties":{"nbhd_name":"Deustu 2","uesi_id":"ESP_R339549","nbhd_code":"ESP_R339549_10"},"geometry":{"type":"MultiPolygon","coordinates":[[[[-2.95981,43.27121],[-2.9596,43.27125],[-2.95887,43.27132],[-2.95808,43.27139],[-2.95793,43.27142],[-2.95747,43.27197],[-2.95733,43.27211],[-2.95698,43.27226],[-2.95578,43.27292],[-2.95552,43.27298],[-2.95538,43.27313],[-2.95516,43.27334],[-2.9549,43.27358],[-2.95469,43.27377],[-2.95455,43.27393],[-2.95416,43.274],[-2.95396,43.27387],[-2.95381,43.27392],[-2.95331,43.27393],[-2.9533,43.27393],[-2.95331,43.27395],[-2.95361,43.27424],[-2.95381,43.27461],[-2.95401,43.27513],[-2.95415,43.27547],[-2.95428,43.27584],[-2.95435,43.276],[-2.95442,43.27618],[-2.95466,43.27674],[-2.95489,43.27719],[-2.95521,43.27781],[-2.9555,43.27834],[-2.9557,43.27861],[-2.95583,43.27878],[-2.95592,43.27893],[-2.95605,43.27921],[-2.9562,43.27956],[-2.95631,43.27993],[-2.95652,43.28059],[-2.95659,43.2811],[-2.95672,43.28176],[-2.9568,43.28223],[-2.95685,43.2825],[-2.95696,43.28276],[-2.95713,43.28304],[-2.95747,43.28338],[-2.95776,43.28371],[-2.95808,43.28408],[-2.95838,43.28446],[-2.95848,43.28472],[-2.95854,43.28496],[-2.95856,43.28523],[-2.9586,43.28574],[-2.95849,43.28575],[-2.95772,43.28585],[-2.95706,43.28592],[-2.95626,43.28603],[-2.9554,43.28615],[-2.95461,43.28625],[-2.95384,43.28635],[-2.95331,43.28646],[-2.95327,43.28652],[-2.95196,43.2878],[-2.95131,43.28845],[-2.95101,43.28875],[-2.95078,43.28898],[-2.95032,43.28943],[-2.94991,43.2891],[-2.94952,43.28881],[-2.94904,43.28847],[-2.9486,43.2882],[-2.94821,43.28803],[-2.94792,43.28793],[-2.94781,43.28791],[-2.94742,43.28781],[-2.947,43.28767],[-2.94703,43.28762],[-2.94707,43.28756],[-2.94709,43.28751],[-2.94715,43.28742],[-2.94721,43.28729],[-2.94727,43.28717],[-2.94734,43.28704],[-2.94742,43.28688],[-2.94752,43.28675],[-2.94769,43.28649],[-2.94781,43.28634],[-2.94792,43.28621],[-2.94798,43.28611],[-2.94805,43.28602],[-2.94812,43.28592],[-2.94818,43.28583],[-2.94823,43.28574],[-2.94829,43.28563],[-2.94837,43.28548],[-2.94844,43.28532],[-2.94878,43.28449],[-2.94888,43.28428],[-2.94893,43.28414],[-2.94897,43.28402],[-2.94899,43.28388],[-2.94903,43.28375],[-2.94903,43.28364],[-2.94903,43.28356],[-2.94902,43.28349],[-2.94795,43.28252],[-2.94731,43.28196],[-2.94671,43.28145],[-2.94651,43.28133],[-2.9464,43.28127],[-2.94626,43.28118],[-2.94618,43.28112],[-2.94613,43.28106],[-2.94608,43.281],[-2.94602,43.28095],[-2.94597,43.28089],[-2.94592,43.28084],[-2.94584,43.28075],[-2.9458,43.28071],[-2.9457,43.28059],[-2.94563,43.28052],[-2.94558,43.28047],[-2.94553,43.28043],[-2.94545,43.28039],[-2.9454,43.28037],[-2.94534,43.28033],[-2.94531,43.2803],[-2.94527,43.28026],[-2.94525,43.28022],[-2.94522,43.28017],[-2.9452,43.28012],[-2.94495,43.28022],[-2.94488,43.28023],[-2.94482,43.28025],[-2.94478,43.28024],[-2.94469,43.28021],[-2.9446,43.28018],[-2.94452,43.28015],[-2.94444,43.28013],[-2.94434,43.2801],[-2.94428,43.28007],[-2.94422,43.28004],[-2.94412,43.28],[-2.94404,43.27996],[-2.94397,43.27992],[-2.94394,43.27991],[-2.94388,43.27987],[-2.9437,43.2799],[-2.94346,43.27989],[-2.94307,43.27987],[-2.94261,43.27982],[-2.94,43.27966],[-2.93984,43.27964],[-2.93969,43.2796],[-2.93949,43.27954],[-2.93928,43.27947],[-2.93909,43.27944],[-2.9389,43.27941],[-2.93874,43.27935],[-2.93838,43.27927],[-2.93755,43.27908],[-2.93714,43.279],[-2.93509,43.27829],[-2.93334,43.27816],[-2.93352,43.27751],[-2.93376,43.27684],[-2.93382,43.27651],[-2.9339,43.27624],[-2.93401,43.27593],[-2.93408,43.27567],[-2.93412,43.27548],[-2.93415,43.27523],[-2.93417,43.27499],[-2.93414,43.27477],[-2.93409,43.27464],[-2.93418,43.27442],[-2.93425,43.27429],[-2.93436,43.27415],[-2.93445,43.27403],[-2.93458,43.27389],[-2.93475,43.27367],[-2.93482,43.27358],[-2.9349,43.27347],[-2.93501,43.27338],[-2.93509,43.27335],[-2.93516,43.27329],[-2.93525,43.27317],[-2.93532,43.27308],[-2.93536,43.27302],[-2.93539,43.27295],[-2.93547,43.27283],[-2.93549,43.27275],[-2.93551,43.27268],[-2.9356,43.27255],[-2.9357,43.27236],[-2.93578,43.27217],[-2.9358,43.27204],[-2.93596,43.27154],[-2.93616,43.27092],[-2.93616,43.27063],[-2.93618,43.27031],[-2.93622,43.26991],[-2.93754,43.26987],[-2.93801,43.26986],[-2.93864,43.26981],[-2.93882,43.26979],[-2.93932,43.26974],[-2.93986,43.26967],[-2.94063,43.2695],[-2.94083,43.26943],[-2.9411,43.26935],[-2.94154,43.26921],[-2.942,43.26905],[-2.94275,43.2688],[-2.94343,43.26857],[-2.94401,43.26837],[-2.94459,43.26818],[-2.94469,43.26814],[-2.94513,43.26799],[-2.94605,43.26766],[-2.95012,43.26628],[-2.95081,43.26605],[-2.95306,43.26568],[-2.95467,43.26543],[-2.95543,43.26534],[-2.95601,43.2653],[-2.95663,43.26528],[-2.957,43.26531],[-2.95745,43.26532],[-2.95794,43.26538],[-2.95838,43.26546],[-2.95874,43.26561],[-2.95911,43.26574],[-2.95944,43.26591],[-2.9599,43.26624],[-2.96028,43.26654],[-2.96074,43.26685],[-2.96124,43.26725],[-2.96187,43.26774],[-2.96231,43.26808],[-2.96288,43.26855],[-2.96343,43.26903],[-2.96381,43.26941],[-2.96417,43.26976],[-2.96444,43.27003],[-2.96454,43.27013],[-2.96478,43.27047],[-2.96498,43.27077],[-2.96512,43.27099],[-2.96522,43.27116],[-2.96537,43.27142],[-2.96554,43.27174],[-2.96576,43.27211],[-2.96592,43.27245],[-2.96614,43.27271],[-2.9664,43.27298],[-2.96674,43.27334],[-2.96698,43.27363],[-2.96739,43.27406],[-2.96768,43.27431],[-2.96776,43.27442],[-2.96808,43.27484],[-2.9684,43.27534],[-2.96865,43.27576],[-2.96889,43.2762],[-2.96894,43.27632],[-2.96906,43.27661],[-2.96915,43.27692],[-2.9692,43.27719],[-2.96923,43.27746],[-2.9692,43.2778],[-2.96919,43.27806],[-2.96916,43.27837],[-2.96912,43.2787],[-2.9691,43.27905],[-2.96906,43.27943],[-2.96901,43.27976],[-2.96893,43.28023],[-2.96894,43.28053],[-2.96886,43.28086],[-2.96877,43.2812],[-2.96867,43.28149],[-2.96853,43.28191],[-2.96841,43.28229],[-2.96826,43.28269],[-2.96812,43.28305],[-2.96794,43.28348],[-2.96641,43.28063],[-2.96505,43.27806],[-2.96361,43.2754],[-2.96198,43.27236],[-2.96176,43.27194],[-2.96163,43.2717],[-2.96148,43.27149],[-2.9613,43.27126],[-2.9611,43.27103],[-2.96098,43.27089],[-2.96032,43.27107],[-2.95981,43.27121]]]]}},{"type":"Feature","properties":{"nbhd_name":"Abando 2","uesi_id":"ESP_R339549","nbhd_code":"ESP_R339549_11"},"geometry":{"type":"MultiPolygon","coordinates":[[[[-2.94624,43.25893],[-2.94629,43.25919],[-2.94633,43.25936],[-2.94642,43.25967],[-2.94657,43.25996],[-2.94671,43.26016],[-2.94684,43.26033],[-2.94708,43.26053],[-2.94683,43.2611],[-2.9464,43.26231],[-2.94603,43.26319],[-2.94565,43.26416],[-2.9452,43.26525],[-2.94733,43.26583],[-2.94765,43.26577],[-2.94817,43.26569],[-2.94854,43.26563],[-2.9488,43.26559],[-2.94917,43.26552],[-2.94952,43.26546],[-2.94973,43.26542],[-2.94991,43.26539],[-2.95012,43.26534],[-2.95035,43.26529],[-2.95081,43.26605],[-2.95012,43.26628],[-2.94605,43.26766],[-2.94513,43.26799],[-2.94469,43.26814],[-2.94459,43.26818],[-2.94401,43.26837],[-2.94343,43.26857],[-2.94275,43.2688],[-2.942,43.26905],[-2.94154,43.26921],[-2.9411,43.26935],[-2.94083,43.26943],[-2.94063,43.2695],[-2.94013,43.2686],[-2.9398,43.26798],[-2.93951,43.26758],[-2.93912,43.26723],[-2.93862,43.26692],[-2.9377,43.26639],[-2.93746,43.26621],[-2.93722,43.26599],[-2.937,43.26573],[-2.93698,43.2656],[-2.93698,43.26548],[-2.93708,43.2652],[-2.93753,43.26408],[-2.93772,43.26359],[-2.93723,43.2635],[-2.93642,43.26331],[-2.93501,43.26298],[-2.93583,43.26098],[-2.93618,43.26004],[-2.93677,43.25866],[-2.9355,43.25788],[-2.93575,43.25729],[-2.93708,43.25736],[-2.93767,43.25741],[-2.93888,43.25747],[-2.94001,43.25753],[-2.94151,43.25759],[-2.9436,43.25769],[-2.94391,43.25772],[-2.94459,43.25776],[-2.94584,43.25781],[-2.94608,43.25781],[-2.94624,43.25893]]]]}},{"type":"Feature","properties":{"nbhd_name":"Errekalde 1","uesi_id":"ESP_R339549","nbhd_code":"ESP_R339549_12"},"geometry":{"type":"MultiPolygon","coordinates":[[[[-2.93881,43.24934],[-2.93917,43.25006],[-2.93968,43.2502],[-2.9396,43.25023],[-2.93954,43.25032],[-2.93927,43.25048],[-2.93922,43.25052],[-2.9393,43.25076],[-2.93934,43.25084],[-2.93939,43.25095],[-2.93942,43.25103],[-2.93948,43.25113],[-2.93961,43.2513],[-2.93976,43.25144],[-2.9399,43.25158],[-2.94005,43.2517],[-2.94029,43.25184],[-2.94052,43.25195],[-2.9407,43.25201],[-2.94087,43.25206],[-2.94109,43.25212],[-2.94143,43.25224],[-2.94167,43.25228],[-2.94153,43.25273],[-2.94128,43.25356],[-2.94153,43.25366],[-2.9418,43.25374],[-2.94203,43.2538],[-2.94236,43.25388],[-2.94259,43.25396],[-2.94279,43.25403],[-2.94331,43.25425],[-2.94354,43.25435],[-2.94383,43.25447],[-2.94403,43.2546],[-2.94417,43.25469],[-2.9444,43.25481],[-2.94421,43.25497],[-2.94392,43.25524],[-2.9442,43.25532],[-2.94459,43.25546],[-2.94494,43.25566],[-2.9454,43.25596],[-2.94566,43.2561],[-2.94574,43.25624],[-2.94584,43.25648],[-2.94594,43.25673],[-2.94597,43.25689],[-2.94602,43.25731],[-2.94609,43.2577],[-2.94608,43.25781],[-2.94584,43.25781],[-2.94459,43.25776],[-2.94391,43.25772],[-2.9436,43.25769],[-2.94151,43.25759],[-2.94001,43.25753],[-2.93888,43.25747],[-2.93767,43.25741],[-2.93708,43.25736],[-2.93575,43.25729],[-2.93426,43.25718],[-2.93394,43.25701],[-2.93382,43.25693],[-2.93365,43.25677],[-2.93349,43.25659],[-2.93338,43.25641],[-2.9333,43.25621],[-2.93325,43.25569],[-2.9343,43.2531],[-2.93444,43.25271],[-2.93455,43.25237],[-2.93458,43.25203],[-2.93458,43.2516],[-2.93457,43.25133],[-2.93456,43.25107],[-2.93461,43.25073],[-2.93475,43.25035],[-2.93493,43.24998],[-2.93497,43.24991],[-2.93522,43.24958],[-2.93547,43.24928],[-2.9357,43.24894],[-2.93574,43.24864],[-2.9357,43.24842],[-2.93555,43.24815],[-2.93523,43.24792],[-2.93496,43.24779],[-2.93533,43.24776],[-2.93573,43.24786],[-2.93609,43.24793],[-2.9365,43.24798],[-2.93701,43.24798],[-2.93756,43.24793],[-2.93864,43.24771],[-2.93878,43.24904],[-2.93881,43.24934]]]]}},{"type":"Feature","properties":{"nbhd_name":"Errekalde 2","uesi_id":"ESP_R339549","nbhd_code":"ESP_R339549_13"},"geometry":{"type":"MultiPolygon","coordinates":[[[[-2.93982,43.23681],[-2.93979,43.23659],[-2.93967,43.23629],[-2.9395,43.23595],[-2.93948,43.23585],[-2.93952,43.23579],[-2.9398,43.23562],[-2.93992,43.23553],[-2.94004,43.23539],[-2.94012,43.23527],[-2.94016,43.23518],[-2.9402,43.23501],[-2.94024,43.2348],[-2.94021,43.23428],[-2.94021,43.234],[-2.94019,43.23381],[-2.94023,43.23358],[-2.94024,43.23349],[-2.94036,43.23322],[-2.94044,43.23295],[-2.94051,43.23276],[-2.9406,43.23244],[-2.94067,43.23211],[-2.9408,43.23185],[-2.94092,43.23157],[-2.94101,43.23139],[-2.94103,43.23134],[-2.94103,43.23121],[-2.94102,43.23102],[-2.94101,43.23088],[-2.94101,43.23075],[-2.94105,43.23059],[-2.94109,43.23042],[-2.94112,43.23031],[-2.9412,43.23018],[-2.94126,43.23009],[-2.94133,43.22999],[-2.94142,43.22993],[-2.94163,43.22991],[-2.94185,43.22992],[-2.94204,43.22991],[-2.94214,43.22991],[-2.9422,43.22989],[-2.94228,43.22986],[-2.94233,43.22983],[-2.94239,43.22973],[-2.9424,43.22961],[-2.94239,43.22947],[-2.94238,43.22935],[-2.94238,43.22925],[-2.94242,43.22922],[-2.94262,43.22906],[-2.94283,43.22883],[-2.94309,43.22874],[-2.94348,43.22853],[-2.94404,43.22834],[-2.94464,43.22821],[-2.94499,43.22803],[-2.94522,43.2279],[-2.9454,43.22781],[-2.94556,43.22771],[-2.94569,43.22758],[-2.9457,43.22747],[-2.94519,43.22719],[-2.94474,43.22694],[-2.94446,43.22672],[-2.94399,43.22641],[-2.94392,43.22632],[-2.94396,43.22626],[-2.94398,43.22621],[-2.94374,43.22579],[-2.94373,43.22563],[-2.94376,43.22556],[-2.94385,43.22552],[-2.94395,43.22563],[-2.94406,43.2257],[-2.94435,43.22579],[-2.94481,43.22579],[-2.94512,43.2258],[-2.94529,43.22582],[-2.94543,43.22579],[-2.94546,43.22498],[-2.94551,43.22437],[-2.94556,43.22364],[-2.94566,43.22303],[-2.94561,43.22251],[-2.94565,43.22195],[-2.94571,43.22167],[-2.946,43.22113],[-2.94599,43.22099],[-2.94584,43.22067],[-2.9458,43.22056],[-2.94582,43.2204],[-2.94607,43.22016],[-2.94625,43.22003],[-2.9464,43.21984],[-2.9465,43.2197],[-2.9466,43.21965],[-2.94683,43.2195],[-2.94705,43.2193],[-2.94729,43.21912],[-2.94752,43.21928],[-2.94765,43.22062],[-2.94769,43.22117],[-2.9477,43.22227],[-2.94769,43.22278],[-2.94769,43.22337],[-2.94768,43.22343],[-2.94771,43.2235],[-2.94774,43.22357],[-2.94778,43.22365],[-2.94786,43.22376],[-2.94794,43.22386],[-2.94804,43.22395],[-2.94817,43.22408],[-2.94827,43.22416],[-2.94836,43.22422],[-2.94853,43.22433],[-2.94874,43.22445],[-2.9489,43.2245],[-2.94905,43.22457],[-2.94921,43.22469],[-2.94934,43.22477],[-2.94945,43.22483],[-2.94959,43.22494],[-2.9497,43.22499],[-2.94972,43.225],[-2.94975,43.22503],[-2.94986,43.2252],[-2.94997,43.22528],[-2.95011,43.22541],[-2.95028,43.22552],[-2.95044,43.22565],[-2.95065,43.22576],[-2.95078,43.22584],[-2.95095,43.22592],[-2.95114,43.22597],[-2.95132,43.22602],[-2.9515,43.22608],[-2.95166,43.22611],[-2.95182,43.22612],[-2.95192,43.22613],[-2.95204,43.22615],[-2.95229,43.22617],[-2.95233,43.22617],[-2.95244,43.2262],[-2.9526,43.22622],[-2.95278,43.22626],[-2.95294,43.22628],[-2.95312,43.22631],[-2.95325,43.22633],[-2.95341,43.22639],[-2.95357,43.22642],[-2.9537,43.22645],[-2.95389,43.22653],[-2.95402,43.22655],[-2.95408,43.22657],[-2.95417,43.22659],[-2.95438,43.22671],[-2.95457,43.22673],[-2.95473,43.22679],[-2.95487,43.22685],[-2.95498,43.22689],[-2.95508,43.22693],[-2.9552,43.22698],[-2.95533,43.22702],[-2.95545,43.22708],[-2.95556,43.22712],[-2.9557,43.22719],[-2.95584,43.22724],[-2.95597,43.2273],[-2.95602,43.22732],[-2.95626,43.22744],[-2.95631,43.22746],[-2.9564,43.22749],[-2.95648,43.22753],[-2.95661,43.22756],[-2.95676,43.2276],[-2.95684,43.22762],[-2.95698,43.22766],[-2.95712,43.2277],[-2.95726,43.22774],[-2.95746,43.22779],[-2.95762,43.22784],[-2.95777,43.22792],[-2.95793,43.22795],[-2.95806,43.22799],[-2.95818,43.22804],[-2.95831,43.22808],[-2.95841,43.22813],[-2.95851,43.22816],[-2.95858,43.22819],[-2.95869,43.22822],[-2.95879,43.22827],[-2.9589,43.22831],[-2.95901,43.22837],[-2.95912,43.22842],[-2.95926,43.22849],[-2.9594,43.22855],[-2.95952,43.22863],[-2.9596,43.22865],[-2.95968,43.22873],[-2.95976,43.22877],[-2.95984,43.22882],[-2.95989,43.22887],[-2.95993,43.22891],[-2.95998,43.22898],[-2.96002,43.22903],[-2.96006,43.2291],[-2.9601,43.22918],[-2.96011,43.22919],[-2.96012,43.22921],[-2.96017,43.22925],[-2.96035,43.22965],[-2.96049,43.22981],[-2.96072,43.23004],[-2.96108,43.23058],[-2.96302,43.23127],[-2.96324,43.23133],[-2.96343,43.23137],[-2.96403,43.2314],[-2.96469,43.23158],[-2.96492,43.23164],[-2.9651,43.23168],[-2.96544,43.2317],[-2.96556,43.2317],[-2.9657,43.23168],[-2.96586,43.23166],[-2.96606,43.23162],[-2.96621,43.23161],[-2.96652,43.23165],[-2.96715,43.23188],[-2.96743,43.23198],[-2.96761,43.23203],[-2.96777,43.23208],[-2.96791,43.2321],[-2.96813,43.23214],[-2.96853,43.23215],[-2.96868,43.23218],[-2.96886,43.23224],[-2.96525,43.23954],[-2.96177,43.24657],[-2.96121,43.24772],[-2.96044,43.24879],[-2.95936,43.25006],[-2.95547,43.25006],[-2.95532,43.24992],[-2.95519,43.24975],[-2.95371,43.24994],[-2.95271,43.25006],[-2.95251,43.2502],[-2.95018,43.25184],[-2.9502,43.25217],[-2.95045,43.2556],[-2.95048,43.25611],[-2.9505,43.25617],[-2.95039,43.25609],[-2.95003,43.25589],[-2.94944,43.25576],[-2.94894,43.25564],[-2.94858,43.25552],[-2.94835,43.25544],[-2.94794,43.25531],[-2.94772,43.25524],[-2.94743,43.25518],[-2.94713,43.25513],[-2.94687,43.25509],[-2.94655,43.25505],[-2.94637,43.25503],[-2.94617,43.25501],[-2.94596,43.25499],[-2.94563,43.25499],[-2.94504,43.25498],[-2.9447,43.25498],[-2.94421,43.25497],[-2.9444,43.25481],[-2.94417,43.25469],[-2.94403,43.2546],[-2.94383,43.25447],[-2.94354,43.25435],[-2.94331,43.25425],[-2.94279,43.25403],[-2.94259,43.25396],[-2.94236,43.25388],[-2.94203,43.2538],[-2.9418,43.25374],[-2.94153,43.25366],[-2.94128,43.25356],[-2.94153,43.25273],[-2.94167,43.25228],[-2.94143,43.25224],[-2.94109,43.25212],[-2.94087,43.25206],[-2.9407,43.25201],[-2.94052,43.25195],[-2.94029,43.25184],[-2.94005,43.2517],[-2.9399,43.25158],[-2.93976,43.25144],[-2.93961,43.2513],[-2.93948,43.25113],[-2.93942,43.25103],[-2.93939,43.25095],[-2.93934,43.25084],[-2.9393,43.25076],[-2.93922,43.25052],[-2.93927,43.25048],[-2.93954,43.25032],[-2.9396,43.25023],[-2.93968,43.2502],[-2.93917,43.25006],[-2.93881,43.24934],[-2.93878,43.24904],[-2.93864,43.24771],[-2.93756,43.24793],[-2.93701,43.24798],[-2.9365,43.24798],[-2.93609,43.24793],[-2.93573,43.24786],[-2.93533,43.24776],[-2.93496,43.24779],[-2.9347,43.24768],[-2.93433,43.24752],[-2.93384,43.24728],[-2.93331,43.24695],[-2.93289,43.24668],[-2.93258,43.2464],[-2.93233,43.2461],[-2.93217,43.24591],[-2.932,43.24569],[-2.93183,43.24547],[-2.93162,43.24524],[-2.93195,43.24492],[-2.93208,43.24474],[-2.93208,43.24455],[-2.93198,43.24434],[-2.93178,43.24404],[-2.93172,43.24379],[-2.93186,43.24338],[-2.93197,43.24319],[-2.93205,43.24299],[-2.93213,43.24279],[-2.93224,43.24261],[-2.93238,43.24241],[-2.93251,43.24229],[-2.93286,43.24209],[-2.93319,43.24198],[-2.93353,43.2419],[-2.93381,43.24189],[-2.93412,43.24189],[-2.93442,43.24194],[-2.93483,43.24204],[-2.93523,43.2422],[-2.93669,43.2428],[-2.93707,43.24293],[-2.93728,43.24299],[-2.93754,43.24301],[-2.9378,43.243],[-2.93804,43.24294],[-2.93885,43.24268],[-2.94,43.24232],[-2.94015,43.24227],[-2.94047,43.24216],[-2.94059,43.24212],[-2.94078,43.24196],[-2.94096,43.24183],[-2.94109,43.24167],[-2.94121,43.24151],[-2.94126,43.2414],[-2.9413,43.2412],[-2.94131,43.24102],[-2.9413,43.24063],[-2.9413,43.2403],[-2.94127,43.24009],[-2.94121,43.23994],[-2.94115,43.23985],[-2.94109,43.23978],[-2.94098,43.23971],[-2.94088,43.23968],[-2.94078,43.23969],[-2.94069,43.23972],[-2.94061,43.23977],[-2.94054,43.23989],[-2.94048,43.24024],[-2.94047,43.24043],[-2.9404,43.24061],[-2.94033,43.24073],[-2.94024,43.24085],[-2.94016,43.24092],[-2.94004,43.241],[-2.93991,43.24107],[-2.93978,43.24111],[-2.93964,43.24112],[-2.93949,43.24109],[-2.93938,43.24106],[-2.93931,43.24101],[-2.93922,43.24094],[-2.93917,43.24087],[-2.93913,43.24079],[-2.93914,43.24065],[-2.93917,43.24056],[-2.93936,43.24021],[-2.93968,43.23967],[-2.93976,43.23953],[-2.93985,43.23935],[-2.93998,43.23904],[-2.94003,43.23885],[-2.94007,43.23871],[-2.9401,43.23846],[-2.94012,43.2383],[-2.94012,43.23813],[-2.94008,43.23791],[-2.94004,43.23767],[-2.94001,43.23747],[-2.93994,43.23726],[-2.93984,43.23696],[-2.93982,43.23681]]]]}},{"type":"Feature","properties":{"nbhd_name":"Basartu-Zorrotza","uesi_id":"ESP_R339549","nbhd_code":"ESP_R339549_14"},"geometry":{"type":"MultiPolygon","coordinates":[[[[-2.95048,43.25611],[-2.95045,43.2556],[-2.9502,43.25217],[-2.95018,43.25184],[-2.95251,43.2502],[-2.95271,43.25006],[-2.95371,43.24994],[-2.95519,43.24975],[-2.95532,43.24992],[-2.95547,43.25006],[-2.95936,43.25006],[-2.96044,43.24879],[-2.96121,43.24772],[-2.96177,43.24657],[-2.96525,43.23954],[-2.96886,43.23224],[-2.96898,43.23228],[-2.9692,43.23236],[-2.96941,43.23246],[-2.96955,43.23254],[-2.96972,43.23264],[-2.96985,43.23275],[-2.97001,43.23292],[-2.97024,43.23323],[-2.97038,43.23335],[-2.97053,43.23343],[-2.97075,43.23355],[-2.97093,43.23364],[-2.97115,43.23373],[-2.97142,43.23386],[-2.9716,43.23395],[-2.9724,43.23431],[-2.97304,43.23464],[-2.97375,43.23496],[-2.97511,43.23564],[-2.97531,43.23574],[-2.97549,43.23586],[-2.9758,43.23609],[-2.97591,43.23619],[-2.97599,43.23626],[-2.97604,43.23634],[-2.97611,43.23646],[-2.97619,43.23657],[-2.97632,43.2368],[-2.97646,43.23706],[-2.97659,43.23734],[-2.9767,43.23755],[-2.97678,43.2377],[-2.97693,43.23788],[-2.97705,43.23803],[-2.97716,43.23818],[-2.97726,43.23827],[-2.97738,43.23838],[-2.9775,43.23853],[-2.9777,43.23868],[-2.97907,43.23999],[-2.97927,43.24011],[-2.98355,43.24178],[-2.98463,43.24295],[-2.98491,43.24335],[-2.98558,43.24485],[-2.98582,43.2461],[-2.98509,43.24593],[-2.98469,43.24589],[-2.98444,43.24594],[-2.98411,43.2461],[-2.98361,43.24646],[-2.98341,43.24666],[-2.98274,43.24755],[-2.98232,43.24786],[-2.98169,43.24815],[-2.98114,43.24828],[-2.9792,43.24815],[-2.97886,43.24814],[-2.97852,43.24815],[-2.97816,43.24829],[-2.97803,43.2484],[-2.97791,43.24852],[-2.97785,43.24862],[-2.97782,43.24866],[-2.97783,43.24886],[-2.97783,43.24896],[-2.97783,43.24906],[-2.97784,43.24917],[-2.97783,43.24925],[-2.97783,43.24938],[-2.9778,43.24942],[-2.97777,43.24946],[-2.97774,43.24949],[-2.97767,43.24955],[-2.97757,43.24959],[-2.97736,43.24967],[-2.97713,43.24975],[-2.97677,43.24988],[-2.97653,43.25],[-2.9764,43.25005],[-2.97608,43.25035],[-2.97537,43.25071],[-2.97453,43.25124],[-2.97421,43.25148],[-2.97415,43.25156],[-2.97404,43.2518],[-2.97408,43.25201],[-2.97428,43.2523],[-2.97441,43.25255],[-2.97465,43.25286],[-2.97477,43.25318],[-2.97474,43.25335],[-2.97459,43.2536],[-2.97422,43.25436],[-2.97399,43.25466],[-2.97395,43.25468],[-2.97383,43.25476],[-2.97367,43.25486],[-2.97315,43.25527],[-2.97231,43.25589],[-2.97204,43.25642],[-2.97201,43.2565],[-2.97189,43.25693],[-2.97155,43.25771],[-2.9706,43.25848],[-2.97047,43.25886],[-2.97058,43.25922],[-2.97087,43.25963],[-2.97195,43.26047],[-2.97201,43.26054],[-2.97229,43.26078],[-2.97253,43.26098],[-2.9728,43.26118],[-2.97302,43.26134],[-2.97321,43.26148],[-2.97353,43.26169],[-2.97395,43.26193],[-2.97455,43.26229],[-2.97473,43.26242],[-2.97499,43.2626],[-2.97512,43.26269],[-2.9753,43.26285],[-2.97543,43.26296],[-2.97555,43.26306],[-2.97566,43.26318],[-2.97578,43.2633],[-2.97588,43.26343],[-2.97596,43.26354],[-2.97601,43.26363],[-2.97606,43.26373],[-2.97609,43.26383],[-2.97612,43.26392],[-2.97614,43.26403],[-2.97616,43.26413],[-2.97616,43.26423],[-2.97614,43.26434],[-2.97612,43.26443],[-2.97608,43.26453],[-2.97603,43.26463],[-2.97598,43.26472],[-2.97593,43.26479],[-2.97587,43.26485],[-2.97579,43.26494],[-2.9757,43.26503],[-2.97559,43.2651],[-2.97503,43.26543],[-2.97462,43.26568],[-2.97351,43.26636],[-2.97339,43.26669],[-2.97345,43.26689],[-2.97346,43.26692],[-2.97365,43.26756],[-2.97465,43.26976],[-2.97532,43.27089],[-2.97535,43.27092],[-2.97649,43.27215],[-2.97704,43.27268],[-2.97732,43.27302],[-2.97735,43.27309],[-2.97737,43.27314],[-2.97737,43.27317],[-2.97732,43.27383],[-2.97718,43.27431],[-2.97629,43.2761],[-2.97648,43.27678],[-2.97705,43.27757],[-2.97722,43.27806],[-2.97717,43.2782],[-2.97662,43.27986],[-2.97559,43.28076],[-2.97464,43.28131],[-2.97303,43.28212],[-2.97205,43.28267],[-2.97189,43.2828],[-2.97165,43.28311],[-2.97156,43.28334],[-2.9715,43.28385],[-2.97151,43.28423],[-2.97157,43.28651],[-2.97102,43.28816],[-2.97098,43.28847],[-2.97098,43.28854],[-2.97136,43.28999],[-2.96897,43.28713],[-2.96869,43.2868],[-2.9685,43.2866],[-2.96834,43.28639],[-2.9682,43.28622],[-2.96811,43.28606],[-2.96801,43.28589],[-2.96793,43.28567],[-2.96785,43.28547],[-2.96778,43.28517],[-2.96775,43.28495],[-2.96776,43.2847],[-2.96776,43.28444],[-2.96778,43.28406],[-2.96786,43.28378],[-2.96788,43.28371],[-2.96794,43.28348],[-2.96812,43.28305],[-2.96826,43.28269],[-2.96841,43.28229],[-2.96853,43.28191],[-2.96867,43.28149],[-2.96877,43.2812],[-2.96886,43.28086],[-2.96894,43.28053],[-2.96893,43.28023],[-2.96901,43.27976],[-2.96906,43.27943],[-2.9691,43.27905],[-2.96912,43.2787],[-2.96916,43.27837],[-2.96919,43.27806],[-2.9692,43.2778],[-2.96923,43.27746],[-2.9692,43.27719],[-2.96915,43.27692],[-2.96906,43.27661],[-2.96894,43.27632],[-2.96889,43.2762],[-2.96865,43.27576],[-2.9684,43.27534],[-2.96808,43.27484],[-2.96776,43.27442],[-2.96768,43.27431],[-2.96739,43.27406],[-2.96698,43.27363],[-2.96674,43.27334],[-2.9664,43.27298],[-2.96614,43.27271],[-2.96592,43.27245],[-2.96576,43.27211],[-2.96554,43.27174],[-2.96537,43.27142],[-2.96522,43.27116],[-2.96512,43.27099],[-2.96498,43.27077],[-2.96478,43.27047],[-2.96454,43.27013],[-2.96444,43.27003],[-2.96417,43.26976],[-2.96381,43.26941],[-2.96343,43.26903],[-2.96288,43.26855],[-2.96231,43.26808],[-2.96187,43.26774],[-2.96124,43.26725],[-2.96074,43.26685],[-2.96028,43.26654],[-2.9599,43.26624],[-2.95944,43.26591],[-2.95911,43.26574],[-2.95874,43.26561],[-2.95838,43.26546],[-2.95794,43.26538],[-2.95745,43.26532],[-2.957,43.26531],[-2.95663,43.26528],[-2.95601,43.2653],[-2.95543,43.26534],[-2.95467,43.26543],[-2.95306,43.26568],[-2.95081,43.26605],[-2.95035,43.26529],[-2.95012,43.26534],[-2.94991,43.26539],[-2.94973,43.26542],[-2.94952,43.26546],[-2.94917,43.26552],[-2.9488,43.26559],[-2.94854,43.26563],[-2.94817,43.26569],[-2.94765,43.26577],[-2.94733,43.26583],[-2.9452,43.26525],[-2.94565,43.26416],[-2.94603,43.26319],[-2.9464,43.26231],[-2.94683,43.2611],[-2.94708,43.26053],[-2.94684,43.26033],[-2.94671,43.26016],[-2.94657,43.25996],[-2.94642,43.25967],[-2.94633,43.25936],[-2.94629,43.25919],[-2.94624,43.25893],[-2.94608,43.25781],[-2.94609,43.2577],[-2.94602,43.25731],[-2.94597,43.25689],[-2.94594,43.25673],[-2.94584,43.25648],[-2.94574,43.25624],[-2.94566,43.2561],[-2.9454,43.25596],[-2.94494,43.25566],[-2.94459,43.25546],[-2.9442,43.25532],[-2.94392,43.25524],[-2.94421,43.25497],[-2.9447,43.25498],[-2.94504,43.25498],[-2.94563,43.25499],[-2.94596,43.25499],[-2.94617,43.25501],[-2.94637,43.25503],[-2.94655,43.25505],[-2.94687,43.25509],[-2.94713,43.25513],[-2.94743,43.25518],[-2.94772,43.25524],[-2.94794,43.25531],[-2.94835,43.25544],[-2.94858,43.25552],[-2.94894,43.25564],[-2.94944,43.25576],[-2.95003,43.25589],[-2.95039,43.25609],[-2.9505,43.25617],[-2.95048,43.25611]]]]}}]}