{"type":"FeatureCollection","name":"ESP_R345401","crs":{"type":"name","properties":{"name":"urn:ogc:def:crs:OGC:1.3:CRS84"}},"features":[{"type":"Feature","properties":{"nbhd_name":"Sanfeliu","uesi_id":"ESP_R345401","nbhd_code":"ESP_R345401_2"},"geometry":{"type":"MultiPolygon","coordinates":[[[[2.09618,41.36321],[2.09531,41.36297],[2.09297,41.36231],[2.09051,41.36161],[2.09049,41.36162],[2.09038,41.3617],[2.09029,41.3618],[2.09016,41.36193],[2.08998,41.36213],[2.0896,41.36256],[2.08948,41.36268],[2.08929,41.3629],[2.08889,41.36303],[2.0889,41.36307],[2.08893,41.36317],[2.08895,41.36322],[2.08901,41.36329],[2.08912,41.36338],[2.08914,41.36342],[2.08914,41.36348],[2.08915,41.36353],[2.08912,41.36359],[2.08878,41.36354],[2.08869,41.36361],[2.08868,41.36361],[2.08857,41.36369],[2.08852,41.36373],[2.08847,41.36378],[2.08842,41.36387],[2.08837,41.36392],[2.08833,41.36398],[2.08816,41.36411],[2.0881,41.36416],[2.08769,41.36397],[2.08766,41.36401],[2.08756,41.36425],[2.08716,41.36505],[2.08716,41.36505],[2.08694,41.3655],[2.08689,41.36559],[2.08689,41.36559],[2.08686,41.36565],[2.08668,41.36601],[2.08666,41.36605],[2.08655,41.36627],[2.08651,41.36636],[2.08638,41.36662],[2.08671,41.36669],[2.08689,41.36673],[2.08693,41.36674],[2.08702,41.36676],[2.08705,41.36679],[2.0872,41.36684],[2.08723,41.36689],[2.08729,41.36697],[2.08722,41.36713],[2.08691,41.3678],[2.08703,41.36788],[2.08703,41.36788],[2.08683,41.36824],[2.08689,41.3683],[2.08731,41.36879],[2.08735,41.36885],[2.08742,41.36893],[2.08753,41.36894],[2.08754,41.36894],[2.08882,41.3691],[2.09012,41.36926],[2.09033,41.36929],[2.09053,41.36931],[2.09057,41.36931],[2.09064,41.36928],[2.09071,41.36924],[2.09076,41.36922],[2.09093,41.36913],[2.09099,41.36909],[2.09105,41.36906],[2.09113,41.36902],[2.09136,41.3689],[2.0918,41.36889],[2.09253,41.36889],[2.09276,41.36792],[2.0944,41.36698],[2.09544,41.3675],[2.09553,41.36742],[2.09561,41.36732],[2.09564,41.36729],[2.09561,41.36727],[2.09593,41.36689],[2.09611,41.36668],[2.09657,41.36613],[2.09714,41.36544],[2.09778,41.36467],[2.0981,41.36429],[2.09813,41.36425],[2.09842,41.3639],[2.09858,41.36392],[2.09786,41.36359],[2.09782,41.36363],[2.09741,41.36352],[2.09628,41.36324],[2.09618,41.36321]]]]}},{"type":"Feature","properties":{"nbhd_name":"Sant Josep","uesi_id":"ESP_R345401","nbhd_code":"ESP_R345401_3"},"geometry":{"type":"MultiPolygon","coordinates":[[[[2.10689,41.36024],[2.10663,41.3606],[2.10631,41.36108],[2.10681,41.36141],[2.10614,41.36152],[2.10605,41.3617],[2.10583,41.3621],[2.10517,41.36326],[2.10493,41.36361],[2.10464,41.36394],[2.1046,41.36405],[2.10433,41.36478],[2.10621,41.36523],[2.10629,41.36513],[2.10654,41.36518],[2.10812,41.36546],[2.10843,41.36556],[2.10972,41.36592],[2.11021,41.36607],[2.11082,41.36626],[2.11167,41.36656],[2.11281,41.36696],[2.11317,41.3671],[2.11415,41.36746],[2.11418,41.36747],[2.11447,41.36754],[2.11553,41.36785],[2.11675,41.36792],[2.11803,41.36786],[2.11896,41.36765],[2.11896,41.36765],[2.11765,41.36683],[2.11713,41.36629],[2.11693,41.36602],[2.11687,41.36604],[2.11648,41.3649],[2.1165,41.3649],[2.1164,41.36293],[2.11618,41.36287],[2.11567,41.36272],[2.11567,41.36262],[2.11413,41.36207],[2.11378,41.36196],[2.11333,41.36182],[2.11314,41.36175],[2.11292,41.36167],[2.11268,41.36158],[2.11214,41.36138],[2.11109,41.361],[2.11044,41.36077],[2.10965,41.36047],[2.10939,41.36037],[2.10892,41.36021],[2.10818,41.35995],[2.10728,41.35965],[2.10712,41.35982],[2.10689,41.36024]]]]}},{"type":"Feature","properties":{"nbhd_name":"Centre","uesi_id":"ESP_R345401","nbhd_code":"ESP_R345401_4"},"geometry":{"type":"MultiPolygon","coordinates":[[[[2.09701,41.35675],[2.09702,41.35678],[2.09682,41.35712],[2.09671,41.35732],[2.09635,41.3579],[2.09625,41.35806],[2.09616,41.35821],[2.0961,41.35819],[2.09608,41.35823],[2.09606,41.35826],[2.09611,41.35828],[2.09607,41.35835],[2.09601,41.35834],[2.09599,41.35837],[2.09597,41.35841],[2.09595,41.35845],[2.09593,41.35848],[2.09591,41.35852],[2.09588,41.35856],[2.09586,41.3586],[2.09584,41.35864],[2.09581,41.35868],[2.09579,41.35873],[2.09582,41.35873],[2.09568,41.35895],[2.09569,41.35897],[2.09562,41.35908],[2.09562,41.35909],[2.0956,41.35912],[2.09552,41.3591],[2.09368,41.35858],[2.09363,41.35863],[2.09334,41.35907],[2.09317,41.35935],[2.09316,41.35936],[2.09299,41.3595],[2.09273,41.35975],[2.09225,41.36025],[2.09181,41.36059],[2.09153,41.36081],[2.09095,41.36122],[2.09088,41.36125],[2.09077,41.36131],[2.09066,41.36138],[2.09054,41.36152],[2.09055,41.36154],[2.09056,41.36155],[2.09056,41.36156],[2.09056,41.36156],[2.09051,41.36161],[2.09297,41.36231],[2.09312,41.36235],[2.09531,41.36297],[2.09618,41.36321],[2.09628,41.36324],[2.09741,41.36352],[2.09782,41.36363],[2.09786,41.36359],[2.09858,41.36392],[2.09978,41.36408],[2.10003,41.36411],[2.10147,41.36431],[2.10168,41.36433],[2.1023,41.36447],[2.10253,41.36447],[2.10433,41.36478],[2.1046,41.36405],[2.10464,41.36394],[2.10493,41.36361],[2.10517,41.36326],[2.10583,41.3621],[2.10605,41.3617],[2.10614,41.36152],[2.10681,41.36141],[2.10631,41.36108],[2.10663,41.3606],[2.10689,41.36024],[2.10712,41.35982],[2.10728,41.35965],[2.10818,41.35995],[2.10892,41.36021],[2.10939,41.36037],[2.10965,41.36047],[2.11044,41.36077],[2.11109,41.361],[2.11214,41.36138],[2.11268,41.36158],[2.11292,41.36167],[2.11314,41.36175],[2.11333,41.36182],[2.11378,41.36196],[2.11413,41.36207],[2.11567,41.36262],[2.11567,41.36272],[2.11618,41.36287],[2.11598,41.35948],[2.11562,41.3594],[2.11561,41.35932],[2.11514,41.3591],[2.11495,41.35883],[2.11467,41.35865],[2.11425,41.35835],[2.11365,41.35795],[2.11289,41.35735],[2.11277,41.35725],[2.11216,41.35678],[2.11142,41.35622],[2.11141,41.35621],[2.11086,41.35581],[2.10997,41.35513],[2.10994,41.3551],[2.10993,41.3551],[2.10976,41.35497],[2.10958,41.35485],[2.10875,41.35426],[2.1084,41.354],[2.10827,41.35391],[2.10769,41.35342],[2.10731,41.35308],[2.10728,41.35306],[2.10689,41.3527],[2.10645,41.35237],[2.10547,41.3517],[2.10434,41.35093],[2.10361,41.35042],[2.10283,41.3499],[2.10235,41.34959],[2.09989,41.34814],[2.09967,41.34804],[2.09939,41.34789],[2.09816,41.34729],[2.09714,41.34679],[2.09512,41.34968],[2.0953,41.34978],[2.09669,41.3505],[2.09736,41.35084],[2.09749,41.35091],[2.0987,41.35145],[2.09979,41.35193],[2.09987,41.35197],[2.09942,41.35264],[2.09841,41.35413],[2.0984,41.35414],[2.09791,41.35488],[2.09769,41.35521],[2.0974,41.35564],[2.09736,41.35571],[2.09692,41.35635],[2.09701,41.35675]]]]}},{"type":"Feature","properties":{"nbhd_name":"Les Planes","uesi_id":"ESP_R345401","nbhd_code":"ESP_R345401_5"},"geometry":{"type":"MultiPolygon","coordinates":[[[[2.10972,41.36592],[2.10843,41.36556],[2.10812,41.36546],[2.10654,41.36518],[2.10629,41.36513],[2.10621,41.36523],[2.10433,41.36478],[2.10415,41.36545],[2.10396,41.36619],[2.10364,41.3673],[2.10342,41.3682],[2.10341,41.36826],[2.10337,41.36843],[2.10322,41.36904],[2.10321,41.36909],[2.10316,41.36926],[2.1036,41.3702],[2.10393,41.37058],[2.10399,41.37064],[2.10401,41.37066],[2.10403,41.37069],[2.10441,41.37106],[2.10485,41.37113],[2.1054,41.37083],[2.10566,41.3707],[2.1066,41.37019],[2.10687,41.37],[2.10713,41.36982],[2.10795,41.36959],[2.10805,41.36957],[2.10809,41.36956],[2.10903,41.36944],[2.10979,41.36929],[2.11094,41.36918],[2.1115,41.36917],[2.11244,41.36922],[2.11346,41.36925],[2.11424,41.36927],[2.11504,41.36932],[2.11587,41.36933],[2.11634,41.36937],[2.11665,41.36917],[2.11671,41.36851],[2.11669,41.3685],[2.1167,41.36832],[2.11673,41.36812],[2.11675,41.36792],[2.11553,41.36785],[2.11447,41.36754],[2.11418,41.36747],[2.11415,41.36746],[2.11317,41.3671],[2.11281,41.36696],[2.11167,41.36656],[2.11082,41.36626],[2.11021,41.36607],[2.10972,41.36592]]]]}},{"type":"Feature","properties":{"nbhd_name":"La Florida","uesi_id":"ESP_R345401","nbhd_code":"ESP_R345401_6"},"geometry":{"type":"MultiPolygon","coordinates":[[[[2.10805,41.36957],[2.10795,41.36959],[2.10713,41.36982],[2.10687,41.37],[2.1066,41.37019],[2.10566,41.3707],[2.1054,41.37083],[2.10485,41.37113],[2.10472,41.37149],[2.10502,41.37182],[2.10526,41.37214],[2.10554,41.37246],[2.10575,41.3727],[2.10608,41.37296],[2.10612,41.37287],[2.10627,41.3729],[2.10631,41.37296],[2.10634,41.37319],[2.10652,41.37335],[2.10776,41.37407],[2.10798,41.37419],[2.10799,41.37419],[2.10863,41.37448],[2.10869,41.37452],[2.10954,41.37466],[2.10954,41.37465],[2.11012,41.37468],[2.11135,41.37447],[2.11176,41.37447],[2.11169,41.37415],[2.11169,41.37413],[2.1119,41.37391],[2.11213,41.3737],[2.11228,41.37356],[2.11267,41.37321],[2.11273,41.37314],[2.11286,41.37301],[2.11313,41.37276],[2.11329,41.37259],[2.11343,41.37246],[2.1138,41.3721],[2.11389,41.37201],[2.114,41.37188],[2.11424,41.37166],[2.1146,41.37135],[2.11492,41.37093],[2.11503,41.37078],[2.11524,41.37057],[2.11524,41.37057],[2.11663,41.36936],[2.11665,41.36917],[2.11634,41.36937],[2.11587,41.36933],[2.11504,41.36932],[2.11424,41.36927],[2.11346,41.36925],[2.11244,41.36922],[2.1115,41.36917],[2.11094,41.36918],[2.10979,41.36929],[2.10903,41.36944],[2.10809,41.36956],[2.10805,41.36957]]]]}},{"type":"Feature","properties":{"nbhd_name":"Pubilla Casas","uesi_id":"ESP_R345401","nbhd_code":"ESP_R345401_7"},"geometry":{"type":"MultiPolygon","coordinates":[[[[2.09974,41.36865],[2.0994,41.36864],[2.09923,41.36864],[2.09903,41.36863],[2.09908,41.36868],[2.09908,41.36874],[2.09913,41.36877],[2.09922,41.36883],[2.09891,41.36951],[2.09884,41.36965],[2.09864,41.3701],[2.09903,41.37065],[2.09944,41.37123],[2.09947,41.37127],[2.0996,41.37146],[2.09967,41.37156],[2.09969,41.37159],[2.09973,41.37164],[2.09983,41.37179],[2.10027,41.37243],[2.10043,41.37266],[2.10049,41.37275],[2.1006,41.37292],[2.10117,41.37376],[2.10128,41.37391],[2.10129,41.37395],[2.10129,41.37397],[2.10132,41.3742],[2.10119,41.37445],[2.10078,41.37525],[2.1007,41.37541],[2.10066,41.37546],[2.10063,41.37552],[2.10057,41.37561],[2.10046,41.37562],[2.09995,41.37647],[2.10002,41.37647],[2.10024,41.37646],[2.10037,41.37646],[2.10041,41.37652],[2.10041,41.37652],[2.10066,41.37692],[2.10081,41.377],[2.10106,41.37742],[2.1011,41.37748],[2.10124,41.37742],[2.10126,41.37742],[2.1013,41.37742],[2.10196,41.37761],[2.10201,41.37762],[2.10224,41.37769],[2.10204,41.37806],[2.10195,41.37821],[2.10188,41.37835],[2.10177,41.37883],[2.10175,41.37922],[2.10167,41.37948],[2.10177,41.37967],[2.10178,41.37968],[2.10193,41.37976],[2.10211,41.37986],[2.10219,41.37993],[2.10238,41.3801],[2.10298,41.3804],[2.10298,41.3804],[2.10317,41.38029],[2.10323,41.38028],[2.10329,41.38027],[2.10335,41.38026],[2.10337,41.38026],[2.10344,41.38024],[2.10345,41.38024],[2.10353,41.38022],[2.10361,41.38019],[2.10368,41.38016],[2.10376,41.38013],[2.10382,41.3801],[2.10388,41.38006],[2.10394,41.38003],[2.10401,41.37998],[2.10439,41.3797],[2.10476,41.37943],[2.10493,41.37944],[2.10493,41.37944],[2.10493,41.37944],[2.10506,41.37945],[2.10515,41.37945],[2.10539,41.37945],[2.10546,41.37945],[2.10555,41.37945],[2.10566,41.37945],[2.10566,41.37945],[2.10572,41.37942],[2.10579,41.37936],[2.1058,41.37934],[2.10585,41.37928],[2.10585,41.37928],[2.106,41.37916],[2.106,41.37916],[2.10604,41.37911],[2.1062,41.3791],[2.10628,41.37897],[2.10639,41.37889],[2.10651,41.37884],[2.10664,41.37888],[2.10685,41.37882],[2.10692,41.37877],[2.10693,41.37876],[2.10715,41.3785],[2.10751,41.37842],[2.10763,41.37833],[2.10779,41.37815],[2.10779,41.37816],[2.10828,41.37804],[2.10829,41.37803],[2.10831,41.378],[2.10835,41.37798],[2.10835,41.37798],[2.10835,41.37798],[2.10841,41.37797],[2.10843,41.37797],[2.10846,41.37797],[2.10846,41.37797],[2.10852,41.37797],[2.10858,41.37797],[2.10858,41.37797],[2.10858,41.37797],[2.10861,41.37796],[2.10865,41.37795],[2.10865,41.37795],[2.10865,41.37795],[2.10876,41.37783],[2.10926,41.37712],[2.10929,41.37653],[2.10929,41.37645],[2.10927,41.37598],[2.1096,41.37598],[2.10958,41.37596],[2.1095,41.37587],[2.1095,41.37581],[2.10952,41.37524],[2.10954,41.37466],[2.10869,41.37452],[2.10863,41.37448],[2.10799,41.37419],[2.10798,41.37419],[2.10776,41.37407],[2.10652,41.37335],[2.10634,41.37319],[2.10631,41.37296],[2.10627,41.3729],[2.10612,41.37287],[2.10608,41.37296],[2.10575,41.3727],[2.10554,41.37246],[2.10526,41.37214],[2.10502,41.37182],[2.10472,41.37149],[2.10485,41.37113],[2.10441,41.37106],[2.10403,41.37069],[2.10401,41.37066],[2.10399,41.37064],[2.10393,41.37058],[2.1036,41.3702],[2.10316,41.36926],[2.10321,41.36909],[2.10322,41.36904],[2.10247,41.36896],[2.10098,41.36881],[2.10096,41.36882],[2.10035,41.36877],[2.09974,41.36865]]]]}},{"type":"Feature","properties":{"nbhd_name":"Gornal","uesi_id":"ESP_R345401","nbhd_code":"ESP_R345401_8"},"geometry":{"type":"MultiPolygon","coordinates":[[[[2.11544,41.35085],[2.11527,41.35085],[2.11531,41.35212],[2.11534,41.35212],[2.11548,41.35352],[2.11549,41.35364],[2.11553,41.35364],[2.11558,41.35406],[2.11561,41.35434],[2.11569,41.35502],[2.11573,41.35532],[2.11588,41.35656],[2.11594,41.3567],[2.11591,41.35669],[2.11594,41.35727],[2.11615,41.35952],[2.11599,41.35949],[2.11811,41.36077],[2.11867,41.35994],[2.11907,41.35991],[2.12007,41.36018],[2.12014,41.36019],[2.12085,41.36038],[2.12141,41.35954],[2.11932,41.35872],[2.12192,41.35489],[2.11893,41.35278],[2.11898,41.35273],[2.11766,41.35182],[2.11533,41.3502],[2.11544,41.35085]]]]}},{"type":"Feature","properties":{"nbhd_name":"Bellvitge","uesi_id":"ESP_R345401","nbhd_code":"ESP_R345401_9"},"geometry":{"type":"MultiPolygon","coordinates":[[[[2.11404,41.34731],[2.1139,41.34645],[2.11397,41.3446],[2.11418,41.34247],[2.11546,41.34129],[2.11125,41.33989],[2.10793,41.33873],[2.10755,41.33866],[2.10585,41.33806],[2.10352,41.33721],[2.10261,41.33695],[2.10147,41.33642],[2.10153,41.33639],[2.101,41.33612],[2.09238,41.34075],[2.0931,41.3412],[2.09329,41.34132],[2.09343,41.34141],[2.09389,41.3417],[2.09426,41.34199],[2.09494,41.34254],[2.09099,41.34463],[2.0891,41.34563],[2.08859,41.3459],[2.08874,41.34593],[2.08896,41.34598],[2.08952,41.34614],[2.08997,41.34638],[2.09043,41.3468],[2.09068,41.34703],[2.09086,41.3472],[2.09157,41.34775],[2.09216,41.34805],[2.09222,41.34808],[2.09416,41.34913],[2.09497,41.34961],[2.09512,41.34968],[2.09714,41.34679],[2.09816,41.34729],[2.09939,41.34789],[2.09967,41.34804],[2.09989,41.34814],[2.10235,41.34959],[2.10283,41.3499],[2.10361,41.35042],[2.10434,41.35093],[2.10547,41.3517],[2.10645,41.35237],[2.10689,41.3527],[2.10728,41.35306],[2.10731,41.35308],[2.10769,41.35342],[2.10827,41.35391],[2.1084,41.354],[2.10875,41.35426],[2.10958,41.35485],[2.10976,41.35497],[2.10993,41.3551],[2.10994,41.3551],[2.10997,41.35513],[2.11086,41.35581],[2.11141,41.35621],[2.11142,41.35622],[2.11216,41.35678],[2.11277,41.35725],[2.11289,41.35735],[2.11365,41.35795],[2.11425,41.35835],[2.11467,41.35865],[2.11495,41.35883],[2.11514,41.3591],[2.11561,41.35932],[2.11562,41.3594],[2.11598,41.35948],[2.11599,41.35949],[2.11615,41.35952],[2.11594,41.35727],[2.11591,41.35669],[2.11594,41.3567],[2.11588,41.35656],[2.11573,41.35532],[2.11569,41.35502],[2.11561,41.35434],[2.11558,41.35406],[2.11553,41.35364],[2.11549,41.35364],[2.11548,41.35352],[2.11534,41.35212],[2.11531,41.35212],[2.11527,41.35085],[2.11544,41.35085],[2.11533,41.3502],[2.11518,41.34931],[2.11514,41.34928],[2.11503,41.34919],[2.11494,41.34907],[2.11404,41.34731]]]]}},{"type":"Feature","properties":{"nbhd_name":"Can Serra","uesi_id":"ESP_R345401","nbhd_code":"ESP_R345401_10"},"geometry":{"type":"MultiPolygon","coordinates":[[[[2.09858,41.36392],[2.09842,41.3639],[2.09813,41.36425],[2.0981,41.36429],[2.09778,41.36467],[2.09714,41.36544],[2.09657,41.36613],[2.09611,41.36668],[2.09593,41.36689],[2.09561,41.36727],[2.09564,41.36729],[2.09561,41.36732],[2.09553,41.36742],[2.09544,41.3675],[2.09549,41.36753],[2.09581,41.36753],[2.09593,41.36756],[2.0963,41.36759],[2.09666,41.36769],[2.09684,41.36806],[2.0974,41.36821],[2.09756,41.36825],[2.09769,41.36827],[2.09769,41.36827],[2.09782,41.36829],[2.09792,41.3683],[2.09793,41.3683],[2.09822,41.36831],[2.09822,41.36833],[2.09822,41.36835],[2.0983,41.36836],[2.09842,41.36836],[2.09848,41.36837],[2.09855,41.36837],[2.09865,41.36839],[2.09872,41.36839],[2.09875,41.36839],[2.09882,41.3684],[2.09887,41.3684],[2.09887,41.36841],[2.09893,41.36842],[2.09902,41.36843],[2.09901,41.36848],[2.099,41.36851],[2.09898,41.36859],[2.09903,41.36863],[2.09923,41.36864],[2.0994,41.36864],[2.09974,41.36865],[2.10035,41.36877],[2.10096,41.36882],[2.10098,41.36881],[2.10247,41.36896],[2.10322,41.36904],[2.10337,41.36843],[2.10341,41.36826],[2.10342,41.3682],[2.10364,41.3673],[2.10396,41.36619],[2.10415,41.36545],[2.10433,41.36478],[2.10253,41.36447],[2.1023,41.36447],[2.10168,41.36433],[2.10147,41.36431],[2.10003,41.36411],[2.09978,41.36408],[2.09858,41.36392]]]]}},{"type":"Feature","properties":{"nbhd_name":"Santa Eulalia 1","uesi_id":"ESP_R345401","nbhd_code":"ESP_R345401_11"},"geometry":{"type":"MultiPolygon","coordinates":[[[[2.12141,41.35954],[2.12085,41.36038],[2.12014,41.36019],[2.12007,41.36018],[2.11907,41.35991],[2.11867,41.35994],[2.11811,41.36077],[2.11599,41.35949],[2.11598,41.35948],[2.11618,41.36287],[2.1164,41.36293],[2.1165,41.3649],[2.11648,41.3649],[2.11687,41.36604],[2.11693,41.36602],[2.11713,41.36629],[2.11765,41.36683],[2.11896,41.36765],[2.11896,41.36765],[2.11971,41.36816],[2.12016,41.36815],[2.12029,41.36815],[2.12241,41.36807],[2.1226,41.36807],[2.12299,41.3681],[2.12327,41.36809],[2.1234,41.36809],[2.12361,41.36809],[2.12376,41.36809],[2.12387,41.3681],[2.12397,41.3681],[2.12428,41.36813],[2.12472,41.36816],[2.12484,41.36817],[2.12493,41.36819],[2.12511,41.36821],[2.12539,41.36827],[2.12539,41.36826],[2.12616,41.36826],[2.12622,41.36825],[2.12678,41.36844],[2.12688,41.36802],[2.12822,41.36813],[2.12942,41.36873],[2.1294,41.36876],[2.13069,41.36937],[2.13076,41.36928],[2.13102,41.36895],[2.13129,41.36852],[2.13137,41.36852],[2.13145,41.36822],[2.13146,41.3682],[2.13147,41.36817],[2.13148,41.36815],[2.13168,41.36779],[2.13206,41.36672],[2.13231,41.36636],[2.13267,41.36583],[2.13269,41.36566],[2.13273,41.36551],[2.13073,41.36506],[2.13073,41.36505],[2.13038,41.36475],[2.12933,41.36413],[2.12931,41.36412],[2.12941,41.36403],[2.12923,41.36396],[2.12852,41.36362],[2.1283,41.36349],[2.12784,41.36322],[2.12732,41.36285],[2.1273,41.36283],[2.12704,41.36262],[2.12673,41.3625],[2.12673,41.36251],[2.12668,41.36249],[2.12608,41.36221],[2.12578,41.36207],[2.12579,41.36205],[2.12551,41.36192],[2.1255,41.36191],[2.12536,41.36185],[2.12524,41.36181],[2.12519,41.36179],[2.12483,41.36167],[2.12458,41.36159],[2.12448,41.36155],[2.12412,41.36143],[2.12408,41.36142],[2.12405,41.36141],[2.12544,41.35914],[2.12618,41.35947],[2.12685,41.35838],[2.1252,41.3573],[2.12517,41.35733],[2.12197,41.35483],[2.12192,41.35489],[2.11932,41.35872],[2.12141,41.35954]],[[2.12285,41.36101],[2.12283,41.361],[2.12294,41.36104],[2.12285,41.36101]],[[2.12146,41.36471],[2.12085,41.36445],[2.12096,41.3645],[2.12146,41.36471]]]]}},{"type":"Feature","properties":{"nbhd_name":"Santa Eulalia 2","uesi_id":"ESP_R345401","nbhd_code":"ESP_R345401_12"},"geometry":{"type":"MultiPolygon","coordinates":[[[[2.13336,41.35994],[2.13336,41.35993],[2.1333,41.35974],[2.13328,41.35959],[2.13326,41.3593],[2.13323,41.35906],[2.13321,41.35873],[2.1332,41.35867],[2.13319,41.35849],[2.13319,41.35842],[2.13319,41.35836],[2.1332,41.3583],[2.1332,41.35824],[2.1332,41.35819],[2.1332,41.35812],[2.1332,41.35805],[2.1332,41.358],[2.1332,41.35799],[2.1332,41.35792],[2.1332,41.35787],[2.1332,41.35783],[2.1332,41.35782],[2.13321,41.35778],[2.13321,41.35778],[2.13321,41.35773],[2.1332,41.35768],[2.13321,41.35762],[2.1332,41.35757],[2.1332,41.3575],[2.13314,41.35705],[2.13313,41.357],[2.13303,41.35662],[2.13284,41.35606],[2.13273,41.35591],[2.13258,41.3558],[2.1323,41.3557],[2.13201,41.35561],[2.13269,41.35473],[2.13306,41.35426],[2.13323,41.35404],[2.13332,41.35391],[2.13343,41.35369],[2.13354,41.35347],[2.13365,41.35324],[2.13375,41.35309],[2.13398,41.35319],[2.13418,41.35292],[2.13419,41.35291],[2.13419,41.35291],[2.13424,41.35283],[2.13419,41.35281],[2.13413,41.35278],[2.13412,41.35278],[2.13402,41.35274],[2.13401,41.35273],[2.13403,41.35271],[2.13406,41.35272],[2.13408,41.35269],[2.13412,41.35263],[2.13418,41.35256],[2.13428,41.35244],[2.13433,41.35238],[2.13439,41.35231],[2.13458,41.35237],[2.13462,41.35232],[2.13468,41.35224],[2.13479,41.35209],[2.13485,41.35201],[2.1349,41.35194],[2.13497,41.35185],[2.13513,41.35163],[2.13517,41.35163],[2.13553,41.35132],[2.13553,41.35131],[2.13555,41.35129],[2.13577,41.35101],[2.13576,41.35101],[2.13566,41.35099],[2.13567,41.35097],[2.13595,41.35067],[2.13602,41.35059],[2.13607,41.35054],[2.13611,41.35049],[2.13618,41.35041],[2.13622,41.35036],[2.13626,41.35033],[2.1363,41.35028],[2.13636,41.35031],[2.13645,41.35022],[2.13649,41.35024],[2.13656,41.35018],[2.13652,41.35015],[2.13691,41.34978],[2.13695,41.34981],[2.13709,41.34968],[2.13713,41.34964],[2.13721,41.34957],[2.13723,41.34954],[2.13736,41.34942],[2.13715,41.34935],[2.13716,41.34932],[2.13734,41.34915],[2.13735,41.34915],[2.1375,41.349],[2.13735,41.34895],[2.13615,41.34852],[2.13603,41.34848],[2.13561,41.34877],[2.13523,41.3486],[2.13485,41.34909],[2.13466,41.34901],[2.13371,41.3486],[2.13374,41.34856],[2.13363,41.34832],[2.13348,41.34794],[2.13345,41.34786],[2.13313,41.34771],[2.13282,41.34786],[2.13258,41.34783],[2.13226,41.34758],[2.13202,41.34738],[2.13125,41.34697],[2.13123,41.34694],[2.13082,41.34672],[2.13062,41.34657],[2.13052,41.34649],[2.13041,41.34641],[2.13033,41.34651],[2.12995,41.34638],[2.12984,41.34651],[2.12954,41.3464],[2.12958,41.34636],[2.12926,41.34625],[2.12903,41.34617],[2.12893,41.34613],[2.12886,41.34621],[2.12869,41.34614],[2.12827,41.34667],[2.12728,41.3461],[2.12691,41.34588],[2.12693,41.34585],[2.12726,41.34536],[2.12639,41.34493],[2.12617,41.34485],[2.11546,41.34129],[2.11418,41.34247],[2.11397,41.3446],[2.1139,41.34645],[2.11404,41.34731],[2.11494,41.34907],[2.11503,41.34919],[2.11514,41.34928],[2.11518,41.34931],[2.11533,41.3502],[2.11766,41.35182],[2.11898,41.35273],[2.11893,41.35278],[2.12192,41.35489],[2.12197,41.35483],[2.12517,41.35733],[2.1252,41.3573],[2.12685,41.35838],[2.12618,41.35947],[2.12544,41.35914],[2.12405,41.36141],[2.12408,41.36142],[2.12412,41.36143],[2.12448,41.36155],[2.12458,41.36159],[2.12483,41.36167],[2.12519,41.36179],[2.12524,41.36181],[2.12536,41.36185],[2.1255,41.36191],[2.12551,41.36192],[2.12579,41.36205],[2.12578,41.36207],[2.12608,41.36221],[2.12668,41.36249],[2.12673,41.36251],[2.12673,41.3625],[2.12704,41.36262],[2.1273,41.36283],[2.12732,41.36285],[2.12784,41.36322],[2.1283,41.36349],[2.12852,41.36362],[2.12923,41.36396],[2.12941,41.36403],[2.12931,41.36412],[2.12933,41.36413],[2.13038,41.36475],[2.13073,41.36505],[2.13073,41.36506],[2.13273,41.36551],[2.13284,41.36553],[2.13286,41.36549],[2.13287,41.36549],[2.13292,41.36528],[2.13291,41.36528],[2.13292,41.36526],[2.13312,41.36484],[2.13313,41.36483],[2.13316,41.36476],[2.13333,41.3644],[2.13344,41.36416],[2.1336,41.36383],[2.13366,41.3637],[2.13369,41.36372],[2.13389,41.36357],[2.13392,41.36354],[2.13382,41.36347],[2.13385,41.36345],[2.13555,41.36215],[2.13583,41.36194],[2.13536,41.36153],[2.13515,41.3614],[2.13461,41.361],[2.13451,41.36093],[2.13428,41.36076],[2.13417,41.36069],[2.1341,41.36064],[2.13371,41.36032],[2.1336,41.36022],[2.13351,41.36014],[2.13346,41.36009],[2.13336,41.35994]]]]}},{"type":"Feature","properties":{"nbhd_name":"Collblanc","uesi_id":"ESP_R345401","nbhd_code":"ESP_R345401_13"},"geometry":{"type":"MultiPolygon","coordinates":[[[[2.11671,41.36952],[2.11664,41.36934],[2.11663,41.36936],[2.11524,41.37057],[2.11524,41.37057],[2.11503,41.37078],[2.11492,41.37093],[2.1146,41.37135],[2.11424,41.37166],[2.114,41.37188],[2.11389,41.37201],[2.1138,41.3721],[2.11343,41.37246],[2.11329,41.37259],[2.11313,41.37276],[2.11286,41.37301],[2.11273,41.37314],[2.11267,41.37321],[2.11228,41.37356],[2.11213,41.3737],[2.1119,41.37391],[2.11169,41.37413],[2.11169,41.37415],[2.11176,41.37447],[2.11135,41.37447],[2.11012,41.37468],[2.10954,41.37465],[2.10954,41.37466],[2.10952,41.37524],[2.1095,41.37581],[2.1095,41.37587],[2.10958,41.37596],[2.1096,41.37598],[2.11238,41.37592],[2.1132,41.37592],[2.11424,41.3759],[2.11501,41.37588],[2.11637,41.37585],[2.1169,41.37584],[2.11735,41.37582],[2.11785,41.37583],[2.11801,41.37592],[2.11805,41.37595],[2.11882,41.37641],[2.1197,41.37695],[2.12144,41.37797],[2.12145,41.37797],[2.12145,41.37797],[2.12164,41.37738],[2.12164,41.3766],[2.12163,41.37648],[2.12163,41.37648],[2.12162,41.37647],[2.12162,41.37646],[2.12162,41.37646],[2.12162,41.37645],[2.12162,41.37611],[2.12175,41.3757],[2.12176,41.3757],[2.12175,41.37569],[2.12175,41.37569],[2.12176,41.37569],[2.12175,41.37569],[2.12179,41.3756],[2.12184,41.37553],[2.12201,41.37543],[2.12227,41.3753],[2.12332,41.3748],[2.12346,41.37472],[2.12379,41.37441],[2.12374,41.37437],[2.12386,41.37421],[2.1232,41.37375],[2.12266,41.37339],[2.12222,41.37308],[2.12205,41.37294],[2.12205,41.37293],[2.12168,41.37268],[2.12129,41.37242],[2.1209,41.37217],[2.1204,41.37183],[2.11998,41.37157],[2.11926,41.37107],[2.11886,41.3708],[2.11851,41.37058],[2.11744,41.36988],[2.11742,41.36986],[2.11686,41.36951],[2.11671,41.36952]]]]}},{"type":"Feature","properties":{"nbhd_name":"La Torrassa","uesi_id":"ESP_R345401","nbhd_code":"ESP_R345401_14"},"geometry":{"type":"MultiPolygon","coordinates":[[[[2.11675,41.36792],[2.11673,41.36812],[2.1167,41.36832],[2.11669,41.3685],[2.11671,41.36851],[2.11665,41.36917],[2.11663,41.36936],[2.11664,41.36934],[2.11671,41.36952],[2.11686,41.36951],[2.11742,41.36986],[2.11744,41.36988],[2.11851,41.37058],[2.11886,41.3708],[2.11926,41.37107],[2.11998,41.37157],[2.1204,41.37183],[2.1209,41.37217],[2.12129,41.37242],[2.12168,41.37268],[2.12205,41.37293],[2.12205,41.37294],[2.12222,41.37308],[2.12266,41.37339],[2.1232,41.37375],[2.12386,41.37421],[2.12395,41.37408],[2.12403,41.37405],[2.12427,41.37361],[2.12435,41.37357],[2.12497,41.37323],[2.12501,41.37321],[2.12506,41.37319],[2.12538,41.373],[2.1258,41.3727],[2.12618,41.37244],[2.12633,41.37233],[2.12642,41.37225],[2.12649,41.37226],[2.12658,41.3722],[2.1268,41.37204],[2.12715,41.3718],[2.1271,41.37177],[2.12738,41.37163],[2.12758,41.37154],[2.12807,41.37127],[2.1281,41.37125],[2.12855,41.37109],[2.12888,41.37098],[2.12886,41.37094],[2.12904,41.37083],[2.1291,41.37085],[2.12937,41.37067],[2.12945,41.37061],[2.12957,41.37052],[2.12951,41.37048],[2.12996,41.37011],[2.12998,41.3701],[2.13025,41.36987],[2.13064,41.36946],[2.13069,41.36937],[2.1294,41.36876],[2.12942,41.36873],[2.12822,41.36813],[2.12688,41.36802],[2.12678,41.36844],[2.12622,41.36825],[2.12616,41.36826],[2.12539,41.36826],[2.12539,41.36827],[2.12511,41.36821],[2.12493,41.36819],[2.12484,41.36817],[2.12472,41.36816],[2.12428,41.36813],[2.12397,41.3681],[2.12387,41.3681],[2.12376,41.36809],[2.12361,41.36809],[2.1234,41.36809],[2.12327,41.36809],[2.12299,41.3681],[2.1226,41.36807],[2.12241,41.36807],[2.12029,41.36815],[2.12016,41.36815],[2.11971,41.36816],[2.11896,41.36765],[2.11803,41.36786],[2.11675,41.36792]]]]}}]}