{"type":"FeatureCollection","name":"ESP_R342563","crs":{"type":"name","properties":{"name":"urn:ogc:def:crs:OGC:1.3:CRS84"}},"features":[{"type":"Feature","properties":{"nbhd_name":"Sevilla sub-city dist. No. 3-B","uesi_id":"ESP_R342563","nbhd_code":"ESP_R342563_2"},"geometry":{"type":"MultiPolygon","coordinates":[[[[-5.97353,37.37673],[-5.97305,37.37703],[-5.97296,37.37711],[-5.97295,37.37716],[-5.97295,37.37722],[-5.973,37.37732],[-5.97316,37.37753],[-5.97302,37.37761],[-5.97327,37.37778],[-5.9733,37.37782],[-5.9733,37.37786],[-5.97326,37.37791],[-5.97289,37.37812],[-5.97271,37.3779],[-5.97257,37.37785],[-5.97165,37.37837],[-5.97223,37.379],[-5.9713,37.37953],[-5.97004,37.38023],[-5.96998,37.38029],[-5.96993,37.38038],[-5.96973,37.3822],[-5.97147,37.38252],[-5.97323,37.38285],[-5.97471,37.38313],[-5.97423,37.38508],[-5.97369,37.38725],[-5.9729,37.3873],[-5.97244,37.38731],[-5.97228,37.3873],[-5.97141,37.38736],[-5.96909,37.38748],[-5.96778,37.38754],[-5.96668,37.38751],[-5.96647,37.38752],[-5.96584,37.38755],[-5.9651,37.38754],[-5.9619,37.38749],[-5.9607,37.38746],[-5.95945,37.38742],[-5.95947,37.38702],[-5.95952,37.38661],[-5.95891,37.3865],[-5.95914,37.38443],[-5.95917,37.38443],[-5.95929,37.38351],[-5.95941,37.38249],[-5.95955,37.38143],[-5.95959,37.38104],[-5.96021,37.38109],[-5.96021,37.38104],[-5.96036,37.37998],[-5.96071,37.37751],[-5.96078,37.37727],[-5.96102,37.37693],[-5.9611,37.37684],[-5.9608,37.37678],[-5.96151,37.37646],[-5.96231,37.37565],[-5.96231,37.37565],[-5.96462,37.3735],[-5.96639,37.37463],[-5.9665,37.37468],[-5.96741,37.37494],[-5.96821,37.37518],[-5.97026,37.37579],[-5.97154,37.37616],[-5.97353,37.37673]]]]}},{"type":"Feature","properties":{"nbhd_name":"Sevilla sub-city dist. No. 3-A","uesi_id":"ESP_R342563","nbhd_code":"ESP_R342563_3"},"geometry":{"type":"MultiPolygon","coordinates":[[[[-5.98126,37.37921],[-5.98183,37.37935],[-5.98305,37.37968],[-5.98463,37.38011],[-5.98851,37.38114],[-5.98765,37.38262],[-5.98755,37.38286],[-5.98713,37.38366],[-5.98706,37.38379],[-5.98634,37.38519],[-5.9861,37.38564],[-5.98577,37.38626],[-5.98542,37.3869],[-5.9851,37.38764],[-5.98498,37.38801],[-5.98475,37.38851],[-5.98448,37.38919],[-5.98422,37.38982],[-5.98412,37.39048],[-5.98409,37.39089],[-5.98408,37.39275],[-5.984,37.39307],[-5.9836,37.39297],[-5.98312,37.39289],[-5.98235,37.39276],[-5.98222,37.39271],[-5.98106,37.39217],[-5.97895,37.3912],[-5.97852,37.39154],[-5.9783,37.39176],[-5.9783,37.39176],[-5.97818,37.39176],[-5.9781,37.39176],[-5.97799,37.39162],[-5.97678,37.3909],[-5.97539,37.39011],[-5.97538,37.39012],[-5.97495,37.38997],[-5.97493,37.38997],[-5.97404,37.38926],[-5.97398,37.38921],[-5.97396,37.38919],[-5.97364,37.38894],[-5.97281,37.38828],[-5.97262,37.38808],[-5.97244,37.38731],[-5.9729,37.3873],[-5.97369,37.38725],[-5.97423,37.38508],[-5.97471,37.38313],[-5.97323,37.38285],[-5.97147,37.38252],[-5.96973,37.3822],[-5.96993,37.38038],[-5.96998,37.38029],[-5.97004,37.38023],[-5.9713,37.37953],[-5.97223,37.379],[-5.97165,37.37837],[-5.97257,37.37785],[-5.97271,37.3779],[-5.97289,37.37812],[-5.97326,37.37791],[-5.9733,37.37786],[-5.9733,37.37782],[-5.97327,37.37778],[-5.97302,37.37761],[-5.97316,37.37753],[-5.973,37.37732],[-5.97295,37.37722],[-5.97295,37.37716],[-5.97296,37.37711],[-5.97305,37.37703],[-5.97353,37.37673],[-5.97509,37.37718],[-5.97593,37.37742],[-5.97736,37.37801],[-5.9788,37.37853],[-5.97881,37.37854],[-5.97916,37.37863],[-5.97986,37.37886],[-5.98126,37.37921]]]]}},{"type":"Feature","properties":{"nbhd_name":"Sevilla sub-city dist. No. 9-D","uesi_id":"ESP_R342563","nbhd_code":"ESP_R342563_4"},"geometry":{"type":"MultiPolygon","coordinates":[[[[-5.92728,37.39766],[-5.92701,37.39791],[-5.92676,37.39867],[-5.92679,37.3987],[-5.92814,37.40053],[-5.92712,37.40031],[-5.92706,37.40043],[-5.92695,37.40057],[-5.92681,37.40069],[-5.92667,37.40078],[-5.92623,37.40098],[-5.92813,37.4036],[-5.92802,37.40365],[-5.92702,37.40413],[-5.9256,37.40478],[-5.92428,37.40527],[-5.92339,37.40561],[-5.92317,37.40569],[-5.92071,37.40663],[-5.92015,37.40684],[-5.91928,37.40717],[-5.91774,37.40503],[-5.91716,37.40424],[-5.91801,37.40382],[-5.91803,37.40381],[-5.91703,37.40249],[-5.91703,37.40249],[-5.91385,37.4039],[-5.91265,37.40223],[-5.91394,37.40106],[-5.91487,37.4004],[-5.91541,37.40014],[-5.91852,37.39877],[-5.91852,37.39877],[-5.92039,37.39792],[-5.922,37.39719],[-5.92202,37.39718],[-5.92209,37.39715],[-5.92315,37.39667],[-5.92423,37.39617],[-5.928,37.39443],[-5.92956,37.39665],[-5.92728,37.39766]]]]}},{"type":"Feature","properties":{"nbhd_name":"Sevilla sub-city dist. No. 9-E","uesi_id":"ESP_R342563","nbhd_code":"ESP_R342563_5"},"geometry":{"type":"MultiPolygon","coordinates":[[[[-5.91445,37.3894],[-5.91463,37.38918],[-5.91558,37.38826],[-5.91623,37.38758],[-5.91675,37.38709],[-5.91668,37.38704],[-5.91665,37.38698],[-5.91666,37.38686],[-5.91669,37.38678],[-5.91674,37.3867],[-5.91682,37.38662],[-5.9169,37.38657],[-5.91675,37.38638],[-5.91662,37.38626],[-5.9164,37.38614],[-5.91618,37.38607],[-5.91438,37.38592],[-5.91389,37.38585],[-5.9138,37.38579],[-5.91375,37.38574],[-5.91373,37.38567],[-5.91374,37.38553],[-5.91378,37.38544],[-5.91389,37.38536],[-5.91399,37.38534],[-5.91422,37.38542],[-5.91451,37.38551],[-5.91482,37.3856],[-5.91527,37.3857],[-5.91572,37.38576],[-5.91666,37.38581],[-5.91917,37.3859],[-5.92054,37.38595],[-5.9203,37.38972],[-5.92113,37.38979],[-5.92113,37.38977],[-5.92124,37.38836],[-5.92242,37.38841],[-5.92243,37.3882],[-5.9242,37.38829],[-5.92412,37.39006],[-5.92411,37.39008],[-5.92421,37.39011],[-5.92511,37.39039],[-5.9256,37.39042],[-5.9261,37.39203],[-5.92631,37.39219],[-5.92653,37.3924],[-5.92802,37.39443],[-5.928,37.39443],[-5.92423,37.39617],[-5.92315,37.39667],[-5.92209,37.39715],[-5.92202,37.39718],[-5.922,37.39719],[-5.92039,37.39792],[-5.91852,37.39877],[-5.91852,37.39877],[-5.91541,37.40014],[-5.91487,37.4004],[-5.91394,37.40106],[-5.91265,37.40223],[-5.91385,37.4039],[-5.91703,37.40249],[-5.91703,37.40249],[-5.91803,37.40381],[-5.91801,37.40382],[-5.91716,37.40424],[-5.91774,37.40503],[-5.91928,37.40717],[-5.91692,37.40806],[-5.91663,37.40817],[-5.91624,37.40832],[-5.91609,37.40837],[-5.91565,37.40853],[-5.91514,37.40867],[-5.9146,37.40877],[-5.91442,37.4088],[-5.91382,37.40889],[-5.91345,37.40891],[-5.91367,37.40926],[-5.91411,37.40971],[-5.91447,37.41],[-5.91493,37.41027],[-5.91544,37.41052],[-5.91592,37.4107],[-5.91864,37.41162],[-5.91911,37.41178],[-5.9228,37.41302],[-5.92327,37.41311],[-5.92495,37.41323],[-5.92867,37.41348],[-5.93118,37.41365],[-5.93179,37.41369],[-5.93078,37.41411],[-5.92781,37.41533],[-5.92734,37.4155],[-5.92691,37.41565],[-5.92548,37.41604],[-5.9224,37.4168],[-5.91922,37.4178],[-5.91807,37.4182],[-5.91756,37.4184],[-5.91665,37.4188],[-5.91493,37.41962],[-5.90556,37.42413],[-5.90239,37.42563],[-5.90066,37.42642],[-5.89728,37.42801],[-5.89091,37.43107],[-5.88863,37.42891],[-5.88768,37.42804],[-5.88716,37.42716],[-5.887,37.42694],[-5.88522,37.42468],[-5.8843,37.42314],[-5.88399,37.42265],[-5.88326,37.42166],[-5.88309,37.42144],[-5.88132,37.41989],[-5.87918,37.41786],[-5.87866,37.41729],[-5.87834,37.41703],[-5.87799,37.41676],[-5.87639,37.41526],[-5.87612,37.41503],[-5.87539,37.41391],[-5.87499,37.41298],[-5.8748,37.4124],[-5.87578,37.41172],[-5.88461,37.40577],[-5.88897,37.40285],[-5.89322,37.39992],[-5.8948,37.39888],[-5.89997,37.3954],[-5.9022,37.39386],[-5.90356,37.39295],[-5.90462,37.39221],[-5.90528,37.39153],[-5.90614,37.39066],[-5.90606,37.39062],[-5.90652,37.39012],[-5.90737,37.39013],[-5.90865,37.39011],[-5.90912,37.39012],[-5.91108,37.3895],[-5.91111,37.38949],[-5.91256,37.38904],[-5.91304,37.38892],[-5.91349,37.3897],[-5.91402,37.38951],[-5.91431,37.38961],[-5.91445,37.3894]]]]}},{"type":"Feature","properties":{"nbhd_name":"Sevilla sub-city dist. No. 9-B","uesi_id":"ESP_R342563","nbhd_code":"ESP_R342563_6"},"geometry":{"type":"MultiPolygon","coordinates":[[[[-5.92339,37.40561],[-5.92428,37.40527],[-5.92682,37.40618],[-5.92878,37.40685],[-5.92801,37.40826],[-5.92796,37.40832],[-5.9279,37.40836],[-5.92771,37.40842],[-5.92755,37.4086],[-5.92698,37.40962],[-5.93006,37.41071],[-5.93236,37.41152],[-5.9329,37.41059],[-5.93327,37.41004],[-5.93327,37.41004],[-5.9344,37.4105],[-5.93459,37.41102],[-5.93501,37.41178],[-5.93545,37.41219],[-5.9325,37.41337],[-5.93118,37.41365],[-5.92867,37.41348],[-5.92495,37.41323],[-5.92327,37.41311],[-5.9228,37.41302],[-5.91911,37.41178],[-5.91864,37.41162],[-5.91592,37.4107],[-5.91544,37.41052],[-5.91493,37.41027],[-5.91447,37.41],[-5.91411,37.40971],[-5.91367,37.40926],[-5.91345,37.40891],[-5.91382,37.40889],[-5.91442,37.4088],[-5.9146,37.40877],[-5.91514,37.40867],[-5.91565,37.40853],[-5.91609,37.40837],[-5.91624,37.40832],[-5.91663,37.40817],[-5.91692,37.40806],[-5.91928,37.40717],[-5.92015,37.40684],[-5.92071,37.40663],[-5.92317,37.40569],[-5.92339,37.40561]]]]}},{"type":"Feature","properties":{"nbhd_name":"Sevilla sub-city dist. No. 9-C","uesi_id":"ESP_R342563","nbhd_code":"ESP_R342563_7"},"geometry":{"type":"MultiPolygon","coordinates":[[[[-5.94519,37.39897],[-5.94523,37.39913],[-5.94533,37.3995],[-5.94542,37.3998],[-5.94563,37.40021],[-5.94603,37.40069],[-5.94672,37.40159],[-5.9469,37.40192],[-5.94732,37.40293],[-5.94772,37.40393],[-5.94795,37.40448],[-5.94809,37.40473],[-5.94878,37.40644],[-5.94911,37.40709],[-5.94931,37.40736],[-5.94942,37.40747],[-5.94997,37.40788],[-5.94905,37.40811],[-5.94848,37.40829],[-5.94656,37.40877],[-5.94526,37.40905],[-5.94247,37.40961],[-5.94224,37.40965],[-5.94151,37.40987],[-5.94076,37.41013],[-5.94007,37.41039],[-5.93705,37.41153],[-5.93545,37.41219],[-5.93545,37.41219],[-5.93501,37.41178],[-5.93459,37.41102],[-5.9344,37.4105],[-5.93327,37.41004],[-5.93327,37.41004],[-5.9329,37.41059],[-5.93236,37.41152],[-5.93006,37.41071],[-5.92698,37.40962],[-5.92755,37.4086],[-5.92771,37.40842],[-5.9279,37.40836],[-5.92796,37.40832],[-5.92801,37.40826],[-5.92878,37.40685],[-5.92682,37.40618],[-5.92428,37.40527],[-5.9256,37.40478],[-5.92702,37.40413],[-5.92802,37.40365],[-5.92813,37.4036],[-5.92623,37.40098],[-5.92667,37.40078],[-5.92681,37.40069],[-5.92695,37.40057],[-5.92706,37.40043],[-5.92712,37.40031],[-5.92814,37.40053],[-5.92679,37.3987],[-5.92676,37.39867],[-5.92701,37.39791],[-5.92728,37.39766],[-5.92956,37.39665],[-5.928,37.39443],[-5.92802,37.39443],[-5.92653,37.3924],[-5.92631,37.39219],[-5.9261,37.39203],[-5.9256,37.39042],[-5.92511,37.39039],[-5.92421,37.39011],[-5.92411,37.39008],[-5.92412,37.39006],[-5.9242,37.38829],[-5.92243,37.3882],[-5.92242,37.38841],[-5.92124,37.38836],[-5.92113,37.38977],[-5.92113,37.38979],[-5.9203,37.38972],[-5.92054,37.38595],[-5.92135,37.38598],[-5.92232,37.38602],[-5.92341,37.38608],[-5.92423,37.38608],[-5.9257,37.38598],[-5.92667,37.38597],[-5.93283,37.38614],[-5.93391,37.38618],[-5.93452,37.3862],[-5.93472,37.3862],[-5.93716,37.38626],[-5.9408,37.38641],[-5.94082,37.38675],[-5.94086,37.38696],[-5.94113,37.38776],[-5.94458,37.39633],[-5.94513,37.39734],[-5.94511,37.39745],[-5.9452,37.39817],[-5.9452,37.39845],[-5.94519,37.39897]]]]}},{"type":"Feature","properties":{"nbhd_name":"Sevilla sub-city dist. No. 9-A","uesi_id":"ESP_R342563","nbhd_code":"ESP_R342563_8"},"geometry":{"type":"MultiPolygon","coordinates":[[[[-5.8993,37.37983],[-5.89981,37.37965],[-5.90013,37.37954],[-5.90051,37.37941],[-5.90057,37.37939],[-5.90077,37.37929],[-5.90101,37.37917],[-5.90117,37.37909],[-5.90135,37.37899],[-5.90148,37.37893],[-5.9016,37.37885],[-5.90202,37.37856],[-5.90254,37.37818],[-5.903,37.37786],[-5.90322,37.3777],[-5.90341,37.37757],[-5.90398,37.37732],[-5.9041,37.37727],[-5.90427,37.3772],[-5.90429,37.37719],[-5.90437,37.37715],[-5.90467,37.37701],[-5.90595,37.3769],[-5.90628,37.37686],[-5.90668,37.37688],[-5.9068,37.37689],[-5.90719,37.37697],[-5.90753,37.37705],[-5.90775,37.37711],[-5.90779,37.37714],[-5.90784,37.37719],[-5.90792,37.37725],[-5.90804,37.37728],[-5.90817,37.37731],[-5.90834,37.37736],[-5.9085,37.3774],[-5.90868,37.37743],[-5.90889,37.37745],[-5.90898,37.37744],[-5.90901,37.37742],[-5.90904,37.37733],[-5.90925,37.37678],[-5.90954,37.37621],[-5.90975,37.37596],[-5.90979,37.37589],[-5.91067,37.37571],[-5.91168,37.37549],[-5.91193,37.37543],[-5.9125,37.37529],[-5.91344,37.37506],[-5.91387,37.37495],[-5.91409,37.3749],[-5.91459,37.3748],[-5.91474,37.38175],[-5.91918,37.38176],[-5.91919,37.38218],[-5.91917,37.38337],[-5.91917,37.3859],[-5.91666,37.38581],[-5.91572,37.38576],[-5.91527,37.3857],[-5.91482,37.3856],[-5.91451,37.38551],[-5.91422,37.38542],[-5.91399,37.38534],[-5.91389,37.38536],[-5.91378,37.38544],[-5.91374,37.38553],[-5.91373,37.38567],[-5.91375,37.38574],[-5.9138,37.38579],[-5.91389,37.38585],[-5.91438,37.38592],[-5.91618,37.38607],[-5.9164,37.38614],[-5.91662,37.38626],[-5.91675,37.38638],[-5.9169,37.38657],[-5.91682,37.38662],[-5.91674,37.3867],[-5.91669,37.38678],[-5.91666,37.38686],[-5.91665,37.38698],[-5.91668,37.38704],[-5.91675,37.38709],[-5.91623,37.38758],[-5.91558,37.38826],[-5.91463,37.38918],[-5.91445,37.3894],[-5.91431,37.38961],[-5.91402,37.38951],[-5.91349,37.3897],[-5.91304,37.38892],[-5.91256,37.38904],[-5.91111,37.38949],[-5.91108,37.3895],[-5.90912,37.39012],[-5.90865,37.39011],[-5.90737,37.39013],[-5.90652,37.39012],[-5.90606,37.39062],[-5.90614,37.39066],[-5.90528,37.39153],[-5.90462,37.39221],[-5.90356,37.39295],[-5.9022,37.39386],[-5.89997,37.3954],[-5.8948,37.39888],[-5.89322,37.39992],[-5.88897,37.40285],[-5.88461,37.40577],[-5.87578,37.41172],[-5.8748,37.4124],[-5.87477,37.41233],[-5.87462,37.41193],[-5.87362,37.40971],[-5.87247,37.4076],[-5.87205,37.40703],[-5.86993,37.40519],[-5.86831,37.40367],[-5.86648,37.40248],[-5.86504,37.40171],[-5.86365,37.40118],[-5.86203,37.4008],[-5.86123,37.40055],[-5.85975,37.40017],[-5.85903,37.40005],[-5.85839,37.40006],[-5.85573,37.39991],[-5.85433,37.39996],[-5.85306,37.39981],[-5.85283,37.39963],[-5.85248,37.39911],[-5.85203,37.39863],[-5.8515,37.39821],[-5.8506,37.39777],[-5.84945,37.39753],[-5.84843,37.3974],[-5.8479,37.39728],[-5.84609,37.3966],[-5.84464,37.39641],[-5.84378,37.39624],[-5.84235,37.39584],[-5.84079,37.39549],[-5.84035,37.39543],[-5.83975,37.39542],[-5.83915,37.39547],[-5.83588,37.39643],[-5.83512,37.39656],[-5.83328,37.3967],[-5.83174,37.39695],[-5.8307,37.39707],[-5.82985,37.39704],[-5.82784,37.39689],[-5.82702,37.39696],[-5.82648,37.39706],[-5.8248,37.39792],[-5.82455,37.39795],[-5.82429,37.39791],[-5.82368,37.39772],[-5.82314,37.39764],[-5.82188,37.39775],[-5.82034,37.39796],[-5.81952,37.39812],[-5.81924,37.39708],[-5.81916,37.39601],[-5.81917,37.39415],[-5.81917,37.39352],[-5.81929,37.39036],[-5.82055,37.39033],[-5.82209,37.39019],[-5.82435,37.39],[-5.82815,37.38953],[-5.83121,37.38915],[-5.83391,37.38878],[-5.83573,37.38848],[-5.83753,37.38809],[-5.83961,37.38747],[-5.84146,37.38717],[-5.84223,37.38711],[-5.84279,37.38714],[-5.84539,37.38775],[-5.84665,37.388],[-5.8475,37.38808],[-5.84887,37.38797],[-5.84966,37.38783],[-5.84986,37.3878],[-5.85307,37.38764],[-5.85433,37.38778],[-5.85542,37.38785],[-5.85758,37.38789],[-5.86476,37.38733],[-5.86569,37.38736],[-5.87035,37.38772],[-5.87267,37.3878],[-5.87396,37.38779],[-5.87669,37.38767],[-5.88501,37.38742],[-5.88599,37.38739],[-5.88679,37.38728],[-5.88757,37.38709],[-5.88837,37.38681],[-5.88969,37.3862],[-5.88999,37.38606],[-5.89354,37.38393],[-5.89349,37.38374],[-5.89405,37.38341],[-5.89446,37.38315],[-5.89481,37.38293],[-5.89502,37.3828],[-5.89508,37.38277],[-5.89513,37.38274],[-5.89514,37.38273],[-5.89515,37.38273],[-5.89522,37.38268],[-5.89522,37.38268],[-5.89525,37.38266],[-5.89531,37.38262],[-5.89537,37.38258],[-5.89545,37.38253],[-5.89551,37.38249],[-5.89554,37.38247],[-5.89593,37.38218],[-5.89598,37.38215],[-5.89599,37.38214],[-5.89631,37.38189],[-5.89667,37.3816],[-5.89707,37.38129],[-5.8973,37.38109],[-5.89754,37.38093],[-5.89793,37.38063],[-5.89829,37.38034],[-5.89869,37.38005],[-5.89887,37.37998],[-5.8993,37.37983]]]]}},{"type":"Feature","properties":{"nbhd_name":"Sevilla sub-city dist. No. 2-C","uesi_id":"ESP_R342563","nbhd_code":"ESP_R342563_9"},"geometry":{"type":"MultiPolygon","coordinates":[[[[-5.97935,37.3988],[-5.97967,37.39854],[-5.9798,37.39844],[-5.98121,37.39758],[-5.98145,37.39744],[-5.98145,37.39758],[-5.9815,37.39788],[-5.98161,37.39844],[-5.98174,37.39868],[-5.98192,37.39886],[-5.98211,37.399],[-5.98241,37.39917],[-5.98288,37.39936],[-5.98339,37.39955],[-5.9841,37.39988],[-5.98443,37.40005],[-5.98468,37.40029],[-5.98518,37.40078],[-5.98568,37.40163],[-5.98587,37.40192],[-5.98603,37.40205],[-5.98739,37.40284],[-5.98784,37.40307],[-5.9876,37.4034],[-5.98699,37.40453],[-5.98646,37.40559],[-5.98633,37.4057],[-5.98614,37.406],[-5.98583,37.4059],[-5.98491,37.40567],[-5.983,37.40517],[-5.98292,37.40558],[-5.9816,37.40558],[-5.98155,37.40517],[-5.98125,37.40518],[-5.98053,37.40517],[-5.98039,37.40515],[-5.98017,37.40509],[-5.98022,37.40507],[-5.98098,37.40352],[-5.98105,37.40329],[-5.98106,37.40321],[-5.98104,37.40318],[-5.98058,37.40226],[-5.97955,37.40402],[-5.97868,37.40376],[-5.97813,37.40362],[-5.97826,37.40348],[-5.97735,37.40293],[-5.97639,37.40393],[-5.97638,37.40395],[-5.97616,37.40418],[-5.97555,37.40484],[-5.97527,37.4051],[-5.97505,37.40535],[-5.97493,37.40529],[-5.97348,37.40632],[-5.97289,37.4048],[-5.97355,37.40454],[-5.97353,37.40455],[-5.97317,37.40436],[-5.9721,37.40378],[-5.9721,37.40377],[-5.97227,37.40355],[-5.97297,37.40333],[-5.97315,37.40325],[-5.97343,37.4034],[-5.97354,37.40327],[-5.97329,37.40206],[-5.97327,37.40184],[-5.97323,37.4017],[-5.9742,37.40146],[-5.97495,37.40117],[-5.97577,37.40074],[-5.97621,37.40052],[-5.97746,37.39984],[-5.97748,37.39983],[-5.97935,37.3988]]]]}},{"type":"Feature","properties":{"nbhd_name":"Sevilla sub-city dist. No. 2-D","uesi_id":"ESP_R342563","nbhd_code":"ESP_R342563_10"},"geometry":{"type":"MultiPolygon","coordinates":[[[[-5.97813,37.40362],[-5.97868,37.40376],[-5.97955,37.40402],[-5.98058,37.40226],[-5.98104,37.40318],[-5.98106,37.40321],[-5.98105,37.40329],[-5.98098,37.40352],[-5.98022,37.40507],[-5.98017,37.40509],[-5.97929,37.40678],[-5.97909,37.40716],[-5.97893,37.40739],[-5.97887,37.40755],[-5.97859,37.40804],[-5.97641,37.40687],[-5.97538,37.40808],[-5.97502,37.40896],[-5.97501,37.40896],[-5.97474,37.40979],[-5.97466,37.40986],[-5.97459,37.40994],[-5.97439,37.41045],[-5.97411,37.41128],[-5.974,37.41157],[-5.97412,37.4118],[-5.97425,37.41193],[-5.97449,37.41243],[-5.97436,37.41247],[-5.97425,37.41249],[-5.97304,37.41286],[-5.97299,37.4129],[-5.97279,37.41296],[-5.97184,37.41102],[-5.97173,37.41079],[-5.97174,37.41054],[-5.97167,37.41066],[-5.97152,37.41084],[-5.97123,37.41024],[-5.97094,37.40961],[-5.97062,37.40894],[-5.9705,37.40877],[-5.97047,37.40882],[-5.96897,37.40582],[-5.96883,37.40554],[-5.96846,37.40479],[-5.96878,37.40494],[-5.96874,37.40441],[-5.96891,37.40369],[-5.96903,37.40299],[-5.9691,37.40298],[-5.97093,37.40235],[-5.97164,37.40212],[-5.97228,37.40193],[-5.97323,37.4017],[-5.97327,37.40184],[-5.97329,37.40206],[-5.97354,37.40327],[-5.97343,37.4034],[-5.97315,37.40325],[-5.97297,37.40333],[-5.97227,37.40355],[-5.9721,37.40377],[-5.9721,37.40378],[-5.97317,37.40436],[-5.97353,37.40455],[-5.97355,37.40454],[-5.97289,37.4048],[-5.97348,37.40632],[-5.97493,37.40529],[-5.97505,37.40535],[-5.97527,37.4051],[-5.97555,37.40484],[-5.97616,37.40418],[-5.97638,37.40395],[-5.97639,37.40393],[-5.97735,37.40293],[-5.97826,37.40348],[-5.97813,37.40362]]]]}},{"type":"Feature","properties":{"nbhd_name":"Sevilla sub-city dist. No. 2-A","uesi_id":"ESP_R342563","nbhd_code":"ESP_R342563_11"},"geometry":{"type":"MultiPolygon","coordinates":[[[[-5.98596,37.40631],[-5.98614,37.406],[-5.98633,37.4057],[-5.98646,37.40559],[-5.98699,37.40453],[-5.9876,37.4034],[-5.98784,37.40307],[-5.98795,37.4031],[-5.98821,37.4031],[-5.98927,37.40305],[-5.98973,37.40303],[-5.99177,37.40331],[-5.99303,37.40348],[-5.99373,37.40358],[-5.9943,37.40364],[-5.99548,37.40384],[-5.99582,37.40352],[-5.99732,37.40437],[-5.99496,37.40704],[-5.99439,37.40769],[-5.99324,37.409],[-5.99271,37.40979],[-5.99136,37.41182],[-5.99093,37.41248],[-5.9907,37.41282],[-5.99036,37.41334],[-5.98904,37.41332],[-5.9889,37.41353],[-5.98867,37.41366],[-5.98854,37.41366],[-5.98845,37.41369],[-5.98831,37.41368],[-5.98821,37.41366],[-5.9881,37.41361],[-5.98794,37.41348],[-5.98788,37.41333],[-5.9863,37.41337],[-5.9863,37.41337],[-5.98388,37.41347],[-5.98386,37.41353],[-5.98381,37.41358],[-5.98361,37.41368],[-5.98353,37.41369],[-5.98349,37.41368],[-5.98334,37.41361],[-5.98329,37.41355],[-5.98324,37.4135],[-5.98349,37.41327],[-5.98365,37.41269],[-5.98365,37.41269],[-5.98385,37.4119],[-5.9842,37.41086],[-5.98458,37.40984],[-5.9849,37.40896],[-5.98507,37.40849],[-5.98525,37.40799],[-5.98546,37.40742],[-5.98583,37.40657],[-5.98596,37.40631]]]]}},{"type":"Feature","properties":{"nbhd_name":"Sevilla sub-city dist. No. 2-B","uesi_id":"ESP_R342563","nbhd_code":"ESP_R342563_12"},"geometry":{"type":"MultiPolygon","coordinates":[[[[-5.98125,37.40518],[-5.98155,37.40517],[-5.9816,37.40558],[-5.98292,37.40558],[-5.983,37.40517],[-5.98491,37.40567],[-5.98583,37.4059],[-5.98614,37.406],[-5.98596,37.40631],[-5.98583,37.40657],[-5.98546,37.40742],[-5.98525,37.40799],[-5.98507,37.40849],[-5.9849,37.40896],[-5.98458,37.40984],[-5.9842,37.41086],[-5.98385,37.4119],[-5.98365,37.41269],[-5.98365,37.41269],[-5.98349,37.41327],[-5.98324,37.4135],[-5.98329,37.41355],[-5.98334,37.41361],[-5.98349,37.41368],[-5.98325,37.41527],[-5.98203,37.41556],[-5.98096,37.416],[-5.98082,37.41609],[-5.98013,37.41704],[-5.9798,37.41747],[-5.97926,37.41826],[-5.97778,37.42037],[-5.9775,37.42067],[-5.97732,37.42081],[-5.97712,37.42094],[-5.97696,37.421],[-5.97678,37.42043],[-5.97672,37.42032],[-5.9744,37.41604],[-5.97432,37.41588],[-5.97418,37.41591],[-5.97406,37.41554],[-5.97325,37.41392],[-5.97283,37.41304],[-5.97279,37.41296],[-5.97299,37.4129],[-5.97304,37.41286],[-5.97425,37.41249],[-5.97436,37.41247],[-5.97449,37.41243],[-5.97425,37.41193],[-5.97412,37.4118],[-5.974,37.41157],[-5.97411,37.41128],[-5.97439,37.41045],[-5.97459,37.40994],[-5.97466,37.40986],[-5.97474,37.40979],[-5.97501,37.40896],[-5.97502,37.40896],[-5.97538,37.40808],[-5.97641,37.40687],[-5.97859,37.40804],[-5.97887,37.40755],[-5.97893,37.40739],[-5.97909,37.40716],[-5.97929,37.40678],[-5.98017,37.40509],[-5.98039,37.40515],[-5.98053,37.40517],[-5.98125,37.40518]]]]}},{"type":"Feature","properties":{"nbhd_name":"Sevilla sub-city dist. No. 8-C","uesi_id":"ESP_R342563","nbhd_code":"ESP_R342563_13"},"geometry":{"type":"MultiPolygon","coordinates":[[[[-5.96588,37.39659],[-5.96533,37.39613],[-5.96511,37.39595],[-5.96571,37.39597],[-5.96589,37.39567],[-5.9656,37.39555],[-5.96581,37.39511],[-5.96587,37.39513],[-5.96587,37.39513],[-5.9659,37.39514],[-5.96673,37.3954],[-5.96663,37.39561],[-5.96694,37.39571],[-5.9668,37.39606],[-5.96705,37.39628],[-5.96941,37.39438],[-5.97092,37.39317],[-5.97335,37.3951],[-5.97335,37.3951],[-5.9737,37.39538],[-5.97286,37.39611],[-5.9734,37.39703],[-5.97285,37.39722],[-5.97328,37.39802],[-5.97374,37.39788],[-5.974,37.39837],[-5.97341,37.39857],[-5.97358,37.39876],[-5.97386,37.39925],[-5.97393,37.39942],[-5.97462,37.40066],[-5.97495,37.40117],[-5.9742,37.40146],[-5.97323,37.4017],[-5.97228,37.40193],[-5.97164,37.40212],[-5.97093,37.40235],[-5.9691,37.40298],[-5.96903,37.40299],[-5.96715,37.40312],[-5.96656,37.40315],[-5.96506,37.40303],[-5.96473,37.40298],[-5.96473,37.40298],[-5.96425,37.40292],[-5.96387,37.40288],[-5.96296,37.40279],[-5.96247,37.40277],[-5.96208,37.40277],[-5.9609,37.40286],[-5.95961,37.40293],[-5.95939,37.40291],[-5.9592,37.40288],[-5.95903,37.40281],[-5.95896,37.40277],[-5.95897,37.40275],[-5.95937,37.40243],[-5.96107,37.40106],[-5.96166,37.40059],[-5.96252,37.3999],[-5.96414,37.3986],[-5.96513,37.39782],[-5.96617,37.39698],[-5.96617,37.39698],[-5.96588,37.39659]]]]}},{"type":"Feature","properties":{"nbhd_name":"Sevilla sub-city dist. No. 8-D","uesi_id":"ESP_R342563","nbhd_code":"ESP_R342563_14"},"geometry":{"type":"MultiPolygon","coordinates":[[[[-5.98222,37.39271],[-5.98235,37.39276],[-5.98312,37.39289],[-5.9836,37.39297],[-5.984,37.39307],[-5.98382,37.39373],[-5.98364,37.39422],[-5.9818,37.39676],[-5.98153,37.39715],[-5.98146,37.3973],[-5.98145,37.39744],[-5.98121,37.39758],[-5.9798,37.39844],[-5.97967,37.39854],[-5.97935,37.3988],[-5.97748,37.39983],[-5.97746,37.39984],[-5.97621,37.40052],[-5.97577,37.40074],[-5.97495,37.40117],[-5.97462,37.40066],[-5.97393,37.39942],[-5.97386,37.39925],[-5.97358,37.39876],[-5.97341,37.39857],[-5.974,37.39837],[-5.97374,37.39788],[-5.97328,37.39802],[-5.97285,37.39722],[-5.9734,37.39703],[-5.97286,37.39611],[-5.9737,37.39538],[-5.97335,37.3951],[-5.97335,37.3951],[-5.97092,37.39317],[-5.97025,37.39263],[-5.97024,37.39262],[-5.97011,37.39252],[-5.96879,37.39144],[-5.96879,37.39144],[-5.96683,37.38996],[-5.96678,37.38991],[-5.96624,37.38912],[-5.96516,37.38765],[-5.9651,37.38754],[-5.96584,37.38755],[-5.96647,37.38752],[-5.96668,37.38751],[-5.96778,37.38754],[-5.96909,37.38748],[-5.97141,37.38736],[-5.97228,37.3873],[-5.97244,37.38731],[-5.97262,37.38808],[-5.97281,37.38828],[-5.97364,37.38894],[-5.97396,37.38919],[-5.97398,37.38921],[-5.97404,37.38926],[-5.97493,37.38997],[-5.97495,37.38997],[-5.97538,37.39012],[-5.97539,37.39011],[-5.97678,37.3909],[-5.97799,37.39162],[-5.9781,37.39176],[-5.97818,37.39176],[-5.9783,37.39176],[-5.9783,37.39176],[-5.97852,37.39154],[-5.97895,37.3912],[-5.98106,37.39217],[-5.98222,37.39271]]]]}},{"type":"Feature","properties":{"nbhd_name":"Sevilla sub-city dist. No. 8-A","uesi_id":"ESP_R342563","nbhd_code":"ESP_R342563_15"},"geometry":{"type":"MultiPolygon","coordinates":[[[[-5.97011,37.39252],[-5.97024,37.39262],[-5.97025,37.39263],[-5.97092,37.39317],[-5.96941,37.39438],[-5.96705,37.39628],[-5.9668,37.39606],[-5.96694,37.39571],[-5.96663,37.39561],[-5.96673,37.3954],[-5.9659,37.39514],[-5.96587,37.39513],[-5.96587,37.39513],[-5.96581,37.39511],[-5.9656,37.39555],[-5.96589,37.39567],[-5.96571,37.39597],[-5.96511,37.39595],[-5.96533,37.39613],[-5.96588,37.39659],[-5.96617,37.39698],[-5.96617,37.39698],[-5.96513,37.39782],[-5.96414,37.3986],[-5.96252,37.3999],[-5.96166,37.40059],[-5.96107,37.40106],[-5.95937,37.40243],[-5.95897,37.40275],[-5.95845,37.40285],[-5.95619,37.40216],[-5.9562,37.40203],[-5.95629,37.40153],[-5.95637,37.40011],[-5.95642,37.39925],[-5.9564,37.39892],[-5.95636,37.39863],[-5.95609,37.39698],[-5.95761,37.39658],[-5.95783,37.39651],[-5.95805,37.39642],[-5.95829,37.39629],[-5.95876,37.39599],[-5.95812,37.39549],[-5.95789,37.39524],[-5.95769,37.39497],[-5.95763,37.39483],[-5.95751,37.39446],[-5.95747,37.39425],[-5.95747,37.39395],[-5.95754,37.3936],[-5.95799,37.39239],[-5.95833,37.39154],[-5.95838,37.39122],[-5.95843,37.39067],[-5.95894,37.39035],[-5.95913,37.39052],[-5.95963,37.3912],[-5.9599,37.39158],[-5.96026,37.39188],[-5.96172,37.39305],[-5.96238,37.39357],[-5.96246,37.39365],[-5.96278,37.39407],[-5.96288,37.39417],[-5.96309,37.39377],[-5.96359,37.39259],[-5.96374,37.39242],[-5.96432,37.39197],[-5.96553,37.391],[-5.96557,37.39097],[-5.96683,37.38996],[-5.96879,37.39144],[-5.96879,37.39144],[-5.97011,37.39252]]]]}},{"type":"Feature","properties":{"nbhd_name":"Sevilla sub-city dist. No. 8-B","uesi_id":"ESP_R342563","nbhd_code":"ESP_R342563_16"},"geometry":{"type":"MultiPolygon","coordinates":[[[[-5.9452,37.39845],[-5.9452,37.39817],[-5.94511,37.39745],[-5.94513,37.39734],[-5.94458,37.39633],[-5.94113,37.38776],[-5.94086,37.38696],[-5.94082,37.38675],[-5.9408,37.38641],[-5.94541,37.38663],[-5.94644,37.38668],[-5.95046,37.38692],[-5.95361,37.38712],[-5.95945,37.38742],[-5.9607,37.38746],[-5.9619,37.38749],[-5.9651,37.38754],[-5.96516,37.38765],[-5.96624,37.38912],[-5.96678,37.38991],[-5.96683,37.38996],[-5.96557,37.39097],[-5.96553,37.391],[-5.96432,37.39197],[-5.96374,37.39242],[-5.96359,37.39259],[-5.96309,37.39377],[-5.96288,37.39417],[-5.96278,37.39407],[-5.96246,37.39365],[-5.96238,37.39357],[-5.96172,37.39305],[-5.96026,37.39188],[-5.9599,37.39158],[-5.95963,37.3912],[-5.95913,37.39052],[-5.95894,37.39035],[-5.95843,37.39067],[-5.95838,37.39122],[-5.95833,37.39154],[-5.95799,37.39239],[-5.95754,37.3936],[-5.95747,37.39395],[-5.95747,37.39425],[-5.95751,37.39446],[-5.95763,37.39483],[-5.95769,37.39497],[-5.95789,37.39524],[-5.95812,37.39549],[-5.95876,37.39599],[-5.95829,37.39629],[-5.95805,37.39642],[-5.95783,37.39651],[-5.95761,37.39658],[-5.95609,37.39698],[-5.95636,37.39863],[-5.9564,37.39892],[-5.95642,37.39925],[-5.95637,37.40011],[-5.95629,37.40153],[-5.9562,37.40203],[-5.95619,37.40216],[-5.95845,37.40285],[-5.95897,37.40275],[-5.95896,37.40277],[-5.95492,37.40596],[-5.95448,37.40626],[-5.95448,37.40626],[-5.95447,37.40635],[-5.95413,37.40655],[-5.95378,37.40673],[-5.95333,37.40693],[-5.95292,37.40708],[-5.95238,37.40725],[-5.95107,37.40761],[-5.94997,37.40788],[-5.94942,37.40747],[-5.94931,37.40736],[-5.94911,37.40709],[-5.94878,37.40644],[-5.94809,37.40473],[-5.94795,37.40448],[-5.94772,37.40393],[-5.94732,37.40293],[-5.9469,37.40192],[-5.94672,37.40159],[-5.94603,37.40069],[-5.94563,37.40021],[-5.94542,37.3998],[-5.94533,37.3995],[-5.94523,37.39913],[-5.94519,37.39897],[-5.9452,37.39845]]]]}},{"type":"Feature","properties":{"nbhd_name":"Sevilla sub-city dist. No. 1-A","uesi_id":"ESP_R342563","nbhd_code":"ESP_R342563_17"},"geometry":{"type":"MultiPolygon","coordinates":[[[[-5.98706,37.38379],[-5.98713,37.38366],[-5.98755,37.38286],[-5.98765,37.38262],[-5.98851,37.38114],[-5.98877,37.3812],[-5.98961,37.37912],[-5.99059,37.37742],[-5.99164,37.37548],[-5.99196,37.37533],[-5.99304,37.37525],[-5.99352,37.37653],[-5.99445,37.3783],[-5.99507,37.3792],[-5.99535,37.37953],[-5.99631,37.38068],[-5.99637,37.38075],[-5.99757,37.38211],[-5.99787,37.38245],[-5.99792,37.38251],[-5.99822,37.38284],[-5.99873,37.38325],[-6.00129,37.38529],[-6.00245,37.38625],[-6.00245,37.38625],[-6.00145,37.38737],[-6.00112,37.38716],[-6.00007,37.38813],[-5.99965,37.38846],[-5.99927,37.38878],[-5.9995,37.38906],[-5.99964,37.38915],[-5.99943,37.38936],[-5.99903,37.38909],[-5.99865,37.38934],[-5.99811,37.38955],[-5.99771,37.3898],[-5.99751,37.38991],[-5.99789,37.39046],[-5.99782,37.3905],[-5.99796,37.39063],[-5.99805,37.39069],[-5.99849,37.39093],[-5.99858,37.39095],[-5.99829,37.39113],[-5.99795,37.39132],[-5.99819,37.39167],[-5.99831,37.39198],[-5.9983,37.39232],[-5.99817,37.39229],[-5.99751,37.39223],[-5.9973,37.39222],[-5.99692,37.39223],[-5.99692,37.3928],[-5.99847,37.39296],[-5.99922,37.39302],[-5.99973,37.3931],[-5.99956,37.39423],[-5.9984,37.39411],[-5.99829,37.39451],[-5.99817,37.39523],[-5.99719,37.39511],[-5.9972,37.39506],[-5.99672,37.39498],[-5.99661,37.39494],[-5.99657,37.39496],[-5.99642,37.39512],[-5.99577,37.39502],[-5.9957,37.39536],[-5.99544,37.39639],[-5.9954,37.39669],[-5.99458,37.39649],[-5.9948,37.39607],[-5.99429,37.39602],[-5.99423,37.39611],[-5.99403,37.39605],[-5.99396,37.39621],[-5.99378,37.39617],[-5.99314,37.39617],[-5.99316,37.39605],[-5.9931,37.39602],[-5.99275,37.39608],[-5.99268,37.39601],[-5.99255,37.39592],[-5.99236,37.39581],[-5.99219,37.39566],[-5.99181,37.39551],[-5.99179,37.39549],[-5.99177,37.39547],[-5.99144,37.39538],[-5.99135,37.39533],[-5.99108,37.39523],[-5.99041,37.39494],[-5.9901,37.39486],[-5.98946,37.39474],[-5.98916,37.39466],[-5.98891,37.39462],[-5.98849,37.39487],[-5.98799,37.39483],[-5.98809,37.39463],[-5.9882,37.39417],[-5.98824,37.39379],[-5.98821,37.39359],[-5.98819,37.39355],[-5.98822,37.39338],[-5.98825,37.39333],[-5.98819,37.39328],[-5.98794,37.39331],[-5.98782,37.39298],[-5.98676,37.39325],[-5.98673,37.39327],[-5.98661,37.39314],[-5.98646,37.39304],[-5.98626,37.39295],[-5.98587,37.39306],[-5.98547,37.3932],[-5.98497,37.39333],[-5.984,37.39307],[-5.98408,37.39275],[-5.98409,37.39089],[-5.98412,37.39048],[-5.98422,37.38982],[-5.98448,37.38919],[-5.98475,37.38851],[-5.98498,37.38801],[-5.9851,37.38764],[-5.98542,37.3869],[-5.98577,37.38626],[-5.9861,37.38564],[-5.98634,37.38519],[-5.98706,37.38379]]]]}},{"type":"Feature","properties":{"nbhd_name":"Sevilla sub-city dist. No. 1-B","uesi_id":"ESP_R342563","nbhd_code":"ESP_R342563_18"},"geometry":{"type":"MultiPolygon","coordinates":[[[[-5.98849,37.39487],[-5.98891,37.39462],[-5.98916,37.39466],[-5.98946,37.39474],[-5.9901,37.39486],[-5.99041,37.39494],[-5.99108,37.39523],[-5.99135,37.39533],[-5.99144,37.39538],[-5.99177,37.39547],[-5.99179,37.39549],[-5.99181,37.39551],[-5.99219,37.39566],[-5.99236,37.39581],[-5.99255,37.39592],[-5.99268,37.39601],[-5.99275,37.39608],[-5.9931,37.39602],[-5.99316,37.39605],[-5.99314,37.39617],[-5.99378,37.39617],[-5.99396,37.39621],[-5.99403,37.39605],[-5.99423,37.39611],[-5.99429,37.39602],[-5.9948,37.39607],[-5.99458,37.39649],[-5.99428,37.39703],[-5.99397,37.39879],[-5.99369,37.40043],[-5.99371,37.40045],[-5.99374,37.40046],[-5.99396,37.40045],[-5.99537,37.40091],[-5.99624,37.40117],[-5.99659,37.40122],[-5.99626,37.40194],[-5.99602,37.40186],[-5.99594,37.40205],[-5.99528,37.40192],[-5.99474,37.40262],[-5.99473,37.4026],[-5.99491,37.40293],[-5.9943,37.40364],[-5.99373,37.40358],[-5.99303,37.40348],[-5.99177,37.40331],[-5.98973,37.40303],[-5.98927,37.40305],[-5.98821,37.4031],[-5.98795,37.4031],[-5.98784,37.40307],[-5.98739,37.40284],[-5.98603,37.40205],[-5.98587,37.40192],[-5.98568,37.40163],[-5.98518,37.40078],[-5.98468,37.40029],[-5.98443,37.40005],[-5.9841,37.39988],[-5.98339,37.39955],[-5.98288,37.39936],[-5.98241,37.39917],[-5.98211,37.399],[-5.98192,37.39886],[-5.98174,37.39868],[-5.98161,37.39844],[-5.9815,37.39788],[-5.98145,37.39758],[-5.98145,37.39744],[-5.98146,37.3973],[-5.98153,37.39715],[-5.9818,37.39676],[-5.98364,37.39422],[-5.98382,37.39373],[-5.984,37.39307],[-5.98497,37.39333],[-5.98547,37.3932],[-5.98587,37.39306],[-5.98626,37.39295],[-5.98646,37.39304],[-5.98661,37.39314],[-5.98673,37.39327],[-5.98676,37.39325],[-5.98782,37.39298],[-5.98794,37.39331],[-5.98819,37.39328],[-5.98825,37.39333],[-5.98822,37.39338],[-5.98819,37.39355],[-5.98821,37.39359],[-5.98824,37.39379],[-5.9882,37.39417],[-5.98809,37.39463],[-5.98799,37.39483],[-5.98849,37.39487]]]]}},{"type":"Feature","properties":{"nbhd_name":"Sevilla sub-city dist. No. 1-C","uesi_id":"ESP_R342563","nbhd_code":"ESP_R342563_19"},"geometry":{"type":"MultiPolygon","coordinates":[[[[-6.0046,37.38776],[-6.00599,37.38909],[-6.00634,37.38989],[-6.00642,37.39036],[-6.00666,37.3918],[-6.0066,37.39288],[-6.00659,37.39299],[-6.00649,37.39364],[-6.00609,37.39461],[-6.0059,37.39489],[-6.00534,37.39572],[-6.00326,37.39797],[-6.00323,37.39795],[-6.0031,37.39809],[-6.00198,37.39928],[-5.99911,37.40232],[-5.99732,37.40437],[-5.99582,37.40352],[-5.99548,37.40384],[-5.9943,37.40364],[-5.99491,37.40293],[-5.99473,37.4026],[-5.99474,37.40262],[-5.99528,37.40192],[-5.99594,37.40205],[-5.99602,37.40186],[-5.99626,37.40194],[-5.99659,37.40122],[-5.99624,37.40117],[-5.99537,37.40091],[-5.99396,37.40045],[-5.99374,37.40046],[-5.99371,37.40045],[-5.99369,37.40043],[-5.99397,37.39879],[-5.99428,37.39703],[-5.99458,37.39649],[-5.9954,37.39669],[-5.99544,37.39639],[-5.9957,37.39536],[-5.99577,37.39502],[-5.99642,37.39512],[-5.99657,37.39496],[-5.99661,37.39494],[-5.99672,37.39498],[-5.9972,37.39506],[-5.99719,37.39511],[-5.99817,37.39523],[-5.99829,37.39451],[-5.9984,37.39411],[-5.99956,37.39423],[-5.99973,37.3931],[-5.99922,37.39302],[-5.99847,37.39296],[-5.99692,37.3928],[-5.99692,37.39223],[-5.9973,37.39222],[-5.99751,37.39223],[-5.99817,37.39229],[-5.9983,37.39232],[-5.99831,37.39198],[-5.99819,37.39167],[-5.99795,37.39132],[-5.99829,37.39113],[-5.99858,37.39095],[-5.99849,37.39093],[-5.99805,37.39069],[-5.99796,37.39063],[-5.99782,37.3905],[-5.99789,37.39046],[-5.99751,37.38991],[-5.99771,37.3898],[-5.99811,37.38955],[-5.99865,37.38934],[-5.99903,37.38909],[-5.99943,37.38936],[-5.99964,37.38915],[-5.9995,37.38906],[-5.99927,37.38878],[-5.99965,37.38846],[-6.00007,37.38813],[-6.00112,37.38716],[-6.00145,37.38737],[-6.00245,37.38625],[-6.00415,37.38745],[-6.0046,37.38776]]]]}},{"type":"Feature","properties":{"nbhd_name":"Sevilla sub-city dist. No. 7-D","uesi_id":"ESP_R342563","nbhd_code":"ESP_R342563_20"},"geometry":{"type":"MultiPolygon","coordinates":[[[[-5.96473,37.40298],[-5.96506,37.40303],[-5.96656,37.40315],[-5.96715,37.40312],[-5.96903,37.40299],[-5.96891,37.40369],[-5.96874,37.40441],[-5.96878,37.40494],[-5.96846,37.40479],[-5.96883,37.40554],[-5.96897,37.40582],[-5.97047,37.40882],[-5.97041,37.4089],[-5.96968,37.40951],[-5.96828,37.41063],[-5.96728,37.41146],[-5.96702,37.4116],[-5.96682,37.41167],[-5.96667,37.41174],[-5.96499,37.4128],[-5.9643,37.41325],[-5.96333,37.41386],[-5.96327,37.4139],[-5.96248,37.41619],[-5.9619,37.41778],[-5.96262,37.41781],[-5.96532,37.41749],[-5.96512,37.41761],[-5.96503,37.41769],[-5.96481,37.41783],[-5.96443,37.41806],[-5.96305,37.41885],[-5.96283,37.41897],[-5.96221,37.41925],[-5.96185,37.41943],[-5.96131,37.42011],[-5.96118,37.42025],[-5.96051,37.42097],[-5.96021,37.42127],[-5.95985,37.42167],[-5.95971,37.42186],[-5.95947,37.42214],[-5.95865,37.42323],[-5.95791,37.42427],[-5.95893,37.42434],[-5.95941,37.42438],[-5.9599,37.42447],[-5.9603,37.42459],[-5.96097,37.42486],[-5.96169,37.4252],[-5.9621,37.42541],[-5.96256,37.4257],[-5.96287,37.42592],[-5.96319,37.42618],[-5.96339,37.42637],[-5.96378,37.42677],[-5.96396,37.42698],[-5.96436,37.42754],[-5.96455,37.42784],[-5.96487,37.42856],[-5.96507,37.42923],[-5.96514,37.4298],[-5.96517,37.43006],[-5.96541,37.43199],[-5.96546,37.43228],[-5.96555,37.43262],[-5.9657,37.433],[-5.96594,37.43344],[-5.96627,37.43387],[-5.96649,37.43408],[-5.9665,37.43406],[-5.96684,37.43434],[-5.96704,37.43449],[-5.96743,37.43474],[-5.96784,37.43495],[-5.96821,37.4351],[-5.96868,37.43525],[-5.96902,37.43532],[-5.97036,37.43555],[-5.97152,37.43572],[-5.97252,37.43578],[-5.97333,37.43576],[-5.96302,37.45158],[-5.9629,37.45159],[-5.96169,37.45169],[-5.9596,37.45192],[-5.95858,37.45202],[-5.95403,37.45253],[-5.951,37.45285],[-5.95008,37.45296],[-5.94885,37.45287],[-5.94807,37.45277],[-5.94416,37.45205],[-5.94275,37.45181],[-5.93727,37.4501],[-5.93616,37.44975],[-5.93557,37.44965],[-5.93058,37.44883],[-5.92992,37.4486],[-5.92956,37.44856],[-5.92638,37.44869],[-5.92119,37.44834],[-5.91929,37.44816],[-5.91813,37.448],[-5.91745,37.44783],[-5.91675,37.44757],[-5.91607,37.44713],[-5.91552,37.44673],[-5.9149,37.44648],[-5.91184,37.44558],[-5.91164,37.44552],[-5.9084,37.44468],[-5.90786,37.44467],[-5.90696,37.44438],[-5.90484,37.44313],[-5.90452,37.44283],[-5.90404,37.44211],[-5.9019,37.44015],[-5.90128,37.43959],[-5.89831,37.43689],[-5.89179,37.43177],[-5.89102,37.43117],[-5.89091,37.43107],[-5.89728,37.42801],[-5.90066,37.42642],[-5.90239,37.42563],[-5.90556,37.42413],[-5.91493,37.41962],[-5.91665,37.4188],[-5.91756,37.4184],[-5.91807,37.4182],[-5.91922,37.4178],[-5.9224,37.4168],[-5.92548,37.41604],[-5.92691,37.41565],[-5.92734,37.4155],[-5.92781,37.41533],[-5.93078,37.41411],[-5.93179,37.41369],[-5.93118,37.41365],[-5.9325,37.41337],[-5.93545,37.41219],[-5.93545,37.41219],[-5.93705,37.41153],[-5.94007,37.41039],[-5.94076,37.41013],[-5.94151,37.40987],[-5.94224,37.40965],[-5.94247,37.40961],[-5.94526,37.40905],[-5.94656,37.40877],[-5.94848,37.40829],[-5.94905,37.40811],[-5.94997,37.40788],[-5.95107,37.40761],[-5.95238,37.40725],[-5.95292,37.40708],[-5.95333,37.40693],[-5.95378,37.40673],[-5.95413,37.40655],[-5.95447,37.40635],[-5.95448,37.40626],[-5.95448,37.40626],[-5.95492,37.40596],[-5.95896,37.40277],[-5.95903,37.40281],[-5.9592,37.40288],[-5.95939,37.40291],[-5.95961,37.40293],[-5.9609,37.40286],[-5.96208,37.40277],[-5.96247,37.40277],[-5.96296,37.40279],[-5.96387,37.40288],[-5.96425,37.40292],[-5.96473,37.40298],[-5.96473,37.40298]]]]}},{"type":"Feature","properties":{"nbhd_name":"Sevilla sub-city dist. No. 7-B","uesi_id":"ESP_R342563","nbhd_code":"ESP_R342563_21"},"geometry":{"type":"MultiPolygon","coordinates":[[[[-5.96667,37.41174],[-5.96682,37.41167],[-5.96702,37.4116],[-5.96728,37.41146],[-5.96828,37.41063],[-5.96968,37.40951],[-5.97041,37.4089],[-5.97047,37.40882],[-5.9705,37.40877],[-5.97062,37.40894],[-5.97094,37.40961],[-5.97123,37.41024],[-5.97152,37.41084],[-5.97167,37.41066],[-5.97174,37.41054],[-5.97173,37.41079],[-5.97184,37.41102],[-5.97279,37.41296],[-5.97283,37.41304],[-5.97144,37.41498],[-5.97143,37.41497],[-5.97101,37.41549],[-5.97142,37.41554],[-5.97168,37.41649],[-5.9707,37.4167],[-5.9707,37.41671],[-5.96994,37.41682],[-5.96963,37.41737],[-5.96942,37.4173],[-5.96929,37.41752],[-5.96948,37.41759],[-5.96943,37.41767],[-5.96941,37.41766],[-5.96892,37.41861],[-5.96814,37.42014],[-5.96787,37.42063],[-5.96641,37.42015],[-5.96616,37.42006],[-5.96462,37.41956],[-5.96283,37.41897],[-5.96305,37.41885],[-5.96443,37.41806],[-5.96481,37.41783],[-5.96503,37.41769],[-5.96512,37.41761],[-5.96532,37.41749],[-5.96262,37.41781],[-5.9619,37.41778],[-5.96248,37.41619],[-5.96327,37.4139],[-5.96333,37.41386],[-5.9643,37.41325],[-5.96499,37.4128],[-5.96667,37.41174]]]]}},{"type":"Feature","properties":{"nbhd_name":"Sevilla sub-city dist. No. 7-C","uesi_id":"ESP_R342563","nbhd_code":"ESP_R342563_22"},"geometry":{"type":"MultiPolygon","coordinates":[[[[-5.98831,37.41368],[-5.98845,37.41369],[-5.98854,37.41366],[-5.98867,37.41366],[-5.9889,37.41353],[-5.98904,37.41332],[-5.99036,37.41334],[-5.99055,37.41334],[-5.99049,37.41342],[-5.99021,37.41395],[-5.98992,37.41454],[-5.98955,37.41542],[-5.98932,37.41608],[-5.98901,37.41671],[-5.98881,37.41764],[-5.98867,37.41845],[-5.98859,37.41927],[-5.9886,37.41996],[-5.98867,37.42063],[-5.98886,37.42122],[-5.98893,37.42157],[-5.98899,37.42185],[-5.98943,37.42266],[-5.98943,37.42266],[-5.98998,37.4235],[-5.99023,37.42384],[-5.9921,37.4239],[-5.99128,37.42422],[-5.99088,37.42437],[-5.99123,37.42468],[-5.99234,37.4254],[-5.99742,37.42766],[-6.00083,37.429],[-6.00354,37.43044],[-6.00447,37.43107],[-6.00527,37.43172],[-6.00619,37.43261],[-6.00744,37.43401],[-6.00785,37.4346],[-6.00892,37.4368],[-6.00909,37.43731],[-6.00932,37.4392],[-6.00981,37.442],[-6.01001,37.44237],[-6.01033,37.44269],[-6.01082,37.44296],[-6.01133,37.44304],[-6.01156,37.44298],[-6.01236,37.44259],[-6.01295,37.44205],[-6.01342,37.4415],[-6.01372,37.441],[-6.01407,37.43964],[-6.01408,37.43855],[-6.01369,37.43481],[-6.0133,37.43361],[-6.01314,37.43294],[-6.01301,37.4319],[-6.01202,37.42485],[-6.01202,37.42339],[-6.0122,37.42239],[-6.01237,37.42183],[-6.01262,37.42129],[-6.01328,37.4206],[-6.01382,37.42026],[-6.01525,37.41982],[-6.01639,37.41956],[-6.01722,37.4195],[-6.01799,37.41958],[-6.01954,37.41989],[-6.0201,37.42014],[-6.02049,37.42044],[-6.02101,37.42094],[-6.02156,37.42126],[-6.022,37.42169],[-6.02236,37.42223],[-6.02276,37.42341],[-6.02289,37.42448],[-6.02313,37.42508],[-6.02325,37.42556],[-6.02322,37.42657],[-6.02335,37.42795],[-6.02394,37.42972],[-6.02385,37.43025],[-6.02384,37.43074],[-6.02404,37.43167],[-6.02434,37.43237],[-6.02505,37.43375],[-6.02577,37.43446],[-6.02638,37.43539],[-6.02665,37.43572],[-6.02791,37.43697],[-6.02812,37.43729],[-6.02826,37.43765],[-6.02834,37.44026],[-6.02874,37.44263],[-6.02806,37.44267],[-6.02774,37.4428],[-6.02753,37.44311],[-6.02691,37.44441],[-6.02662,37.44471],[-6.02613,37.44496],[-6.0256,37.44536],[-6.02498,37.44574],[-6.02365,37.44615],[-6.02324,37.44617],[-6.02269,37.44608],[-6.02233,37.44596],[-6.02152,37.44552],[-6.021,37.44516],[-6.02053,37.44468],[-6.02019,37.44448],[-6.01985,37.44438],[-6.01796,37.44409],[-6.01507,37.44377],[-6.01128,37.44334],[-6.01019,37.44322],[-6.00965,37.44319],[-6.00862,37.44299],[-6.00745,37.44379],[-6.00722,37.44395],[-6.00496,37.44586],[-6.004,37.44654],[-6.0025,37.4472],[-6.001,37.44812],[-6.00049,37.44834],[-5.99916,37.4485],[-5.99862,37.44847],[-5.99801,37.44835],[-5.99714,37.4481],[-5.99374,37.44738],[-5.99304,37.44733],[-5.99201,37.44737],[-5.98982,37.44766],[-5.98923,37.44788],[-5.98853,37.44829],[-5.98713,37.44922],[-5.98596,37.44971],[-5.9852,37.44983],[-5.97998,37.44968],[-5.97874,37.4498],[-5.97768,37.4501],[-5.97698,37.45019],[-5.9764,37.45022],[-5.97314,37.45036],[-5.97072,37.45046],[-5.97002,37.45045],[-5.96579,37.45129],[-5.96465,37.45146],[-5.96302,37.45158],[-5.97333,37.43576],[-5.97252,37.43578],[-5.97152,37.43572],[-5.97036,37.43555],[-5.96902,37.43532],[-5.96868,37.43525],[-5.96821,37.4351],[-5.96784,37.43495],[-5.96743,37.43474],[-5.96704,37.43449],[-5.96684,37.43434],[-5.9665,37.43406],[-5.9673,37.43236],[-5.96746,37.43209],[-5.96772,37.43172],[-5.96968,37.42925],[-5.97253,37.42564],[-5.9743,37.42339],[-5.97459,37.42305],[-5.97473,37.42291],[-5.97473,37.4229],[-5.97672,37.42032],[-5.97678,37.42043],[-5.97696,37.421],[-5.97712,37.42094],[-5.97732,37.42081],[-5.9775,37.42067],[-5.97778,37.42037],[-5.97926,37.41826],[-5.9798,37.41747],[-5.98013,37.41704],[-5.98082,37.41609],[-5.98096,37.416],[-5.98203,37.41556],[-5.98325,37.41527],[-5.98349,37.41368],[-5.98353,37.41369],[-5.98361,37.41368],[-5.98381,37.41358],[-5.98386,37.41353],[-5.98388,37.41347],[-5.9863,37.41337],[-5.9863,37.41337],[-5.98788,37.41333],[-5.98794,37.41348],[-5.9881,37.41361],[-5.98821,37.41366],[-5.98831,37.41368]]]]}},{"type":"Feature","properties":{"nbhd_name":"Sevilla sub-city dist. No. 7-A","uesi_id":"ESP_R342563","nbhd_code":"ESP_R342563_23"},"geometry":{"type":"MultiPolygon","coordinates":[[[[-5.96963,37.41737],[-5.96994,37.41682],[-5.9707,37.41671],[-5.9707,37.4167],[-5.97168,37.41649],[-5.97142,37.41554],[-5.97101,37.41549],[-5.97143,37.41497],[-5.97144,37.41498],[-5.97283,37.41304],[-5.97325,37.41392],[-5.97406,37.41554],[-5.97418,37.41591],[-5.97432,37.41588],[-5.9744,37.41604],[-5.97672,37.42032],[-5.97473,37.4229],[-5.97473,37.42291],[-5.97459,37.42305],[-5.9743,37.42339],[-5.97253,37.42564],[-5.96968,37.42925],[-5.96772,37.43172],[-5.96746,37.43209],[-5.9673,37.43236],[-5.9665,37.43406],[-5.96649,37.43408],[-5.96627,37.43387],[-5.96594,37.43344],[-5.9657,37.433],[-5.96555,37.43262],[-5.96546,37.43228],[-5.96541,37.43199],[-5.96517,37.43006],[-5.96514,37.4298],[-5.96507,37.42923],[-5.96487,37.42856],[-5.96455,37.42784],[-5.96436,37.42754],[-5.96396,37.42698],[-5.96378,37.42677],[-5.96339,37.42637],[-5.96319,37.42618],[-5.96287,37.42592],[-5.96256,37.4257],[-5.9621,37.42541],[-5.96169,37.4252],[-5.96097,37.42486],[-5.9603,37.42459],[-5.9599,37.42447],[-5.95941,37.42438],[-5.95893,37.42434],[-5.95791,37.42427],[-5.95865,37.42323],[-5.95947,37.42214],[-5.95971,37.42186],[-5.95985,37.42167],[-5.96021,37.42127],[-5.96051,37.42097],[-5.96118,37.42025],[-5.96131,37.42011],[-5.96185,37.41943],[-5.96221,37.41925],[-5.96283,37.41897],[-5.96462,37.41956],[-5.96616,37.42006],[-5.96641,37.42015],[-5.96787,37.42063],[-5.96814,37.42014],[-5.96892,37.41861],[-5.96941,37.41766],[-5.96943,37.41767],[-5.96948,37.41759],[-5.96929,37.41752],[-5.96942,37.4173],[-5.96963,37.41737]]]]}},{"type":"Feature","properties":{"nbhd_name":"Sevilla sub-city dist. No. 6-C","uesi_id":"ESP_R342563","nbhd_code":"ESP_R342563_24"},"geometry":{"type":"MultiPolygon","coordinates":[[[[-6.00688,37.3776],[-6.00787,37.37885],[-6.00915,37.38044],[-6.00911,37.38048],[-6.0091,37.38058],[-6.00918,37.38106],[-6.00874,37.38132],[-6.00854,37.38144],[-6.00743,37.38217],[-6.00587,37.38322],[-6.00513,37.38372],[-6.00563,37.38432],[-6.00584,37.3846],[-6.00631,37.38503],[-6.00659,37.38525],[-6.00778,37.38598],[-6.00781,37.38684],[-6.00778,37.38735],[-6.00778,37.38794],[-6.00836,37.38816],[-6.00812,37.38867],[-6.00775,37.38858],[-6.00774,37.38865],[-6.00783,37.38921],[-6.00802,37.39019],[-6.00642,37.39036],[-6.00634,37.38989],[-6.00599,37.38909],[-6.0046,37.38776],[-6.00415,37.38745],[-6.00245,37.38625],[-6.00245,37.38625],[-6.00129,37.38529],[-5.99873,37.38325],[-5.99822,37.38284],[-5.99792,37.38251],[-5.99787,37.38245],[-5.99757,37.38211],[-5.99637,37.38075],[-5.99631,37.38068],[-5.99894,37.37943],[-5.99894,37.37943],[-5.99991,37.37894],[-6.00089,37.37842],[-6.00237,37.37765],[-6.00239,37.37763],[-6.00368,37.37699],[-6.00556,37.37602],[-6.00596,37.37648],[-6.00688,37.3776]]]]}},{"type":"Feature","properties":{"nbhd_name":"Sevilla sub-city dist. No. 6-A","uesi_id":"ESP_R342563","nbhd_code":"ESP_R342563_25"},"geometry":{"type":"MultiPolygon","coordinates":[[[[-6.00874,37.38132],[-6.00918,37.38106],[-6.0092,37.38111],[-6.00926,37.38113],[-6.0115,37.38106],[-6.01216,37.38107],[-6.0141,37.38116],[-6.01422,37.38115],[-6.01434,37.3811],[-6.01438,37.38074],[-6.01447,37.37932],[-6.0145,37.37889],[-6.01459,37.37767],[-6.01468,37.37653],[-6.01474,37.3762],[-6.0148,37.37602],[-6.01486,37.37589],[-6.01495,37.37551],[-6.01501,37.37443],[-6.01499,37.37399],[-6.01495,37.37369],[-6.01487,37.37338],[-6.01475,37.37305],[-6.01459,37.37273],[-6.0142,37.37204],[-6.01552,37.37169],[-6.0153,37.36904],[-6.01542,37.36868],[-6.01587,37.36881],[-6.01626,37.36882],[-6.0184,37.36848],[-6.02121,37.36798],[-6.02183,37.36797],[-6.0218,37.36806],[-6.02167,37.36844],[-6.0216,37.36863],[-6.02141,37.36905],[-6.021,37.36949],[-6.0195,37.37099],[-6.01945,37.3712],[-6.01958,37.37151],[-6.02044,37.37245],[-6.02063,37.37259],[-6.02101,37.37273],[-6.02125,37.37287],[-6.02125,37.37323],[-6.02129,37.37338],[-6.02151,37.37352],[-6.02156,37.37384],[-6.0217,37.37398],[-6.02199,37.37414],[-6.02195,37.37436],[-6.02172,37.37479],[-6.02232,37.37508],[-6.0224,37.37539],[-6.02164,37.37611],[-6.02154,37.37639],[-6.02163,37.37683],[-6.02218,37.37764],[-6.02203,37.37829],[-6.02181,37.37894],[-6.02179,37.37944],[-6.02184,37.37995],[-6.02206,37.38065],[-6.02239,37.38109],[-6.02298,37.38169],[-6.0239,37.38382],[-6.02454,37.3853],[-6.02464,37.38568],[-6.02495,37.38808],[-6.02495,37.3881],[-6.02491,37.38872],[-6.02483,37.38998],[-6.02482,37.39013],[-6.02481,37.3919],[-6.02471,37.39222],[-6.02442,37.39266],[-6.02382,37.39337],[-6.02338,37.39378],[-6.02319,37.39396],[-6.02289,37.39417],[-6.02238,37.39455],[-6.02196,37.39502],[-6.021,37.39577],[-6.01969,37.39656],[-6.0195,37.39666],[-6.0192,37.39695],[-6.01873,37.39789],[-6.01809,37.39983],[-6.01788,37.40001],[-6.01734,37.40023],[-6.01598,37.4006],[-6.01568,37.40079],[-6.01552,37.40129],[-6.01544,37.40275],[-6.01568,37.40441],[-6.01564,37.40526],[-6.01535,37.40606],[-6.01504,37.40764],[-6.01441,37.40911],[-6.01375,37.41018],[-6.0133,37.41178],[-6.01269,37.41322],[-6.0124,37.41407],[-6.01311,37.41467],[-6.01231,37.41578],[-6.01011,37.41592],[-6.00678,37.41633],[-6.00517,37.41675],[-6.00414,37.41711],[-6.00283,37.41784],[-6.00131,37.41905],[-6.00001,37.41979],[-5.99898,37.42005],[-5.99781,37.42018],[-5.99601,37.42013],[-5.99585,37.4206],[-5.9959,37.42139],[-5.99576,37.42188],[-5.99525,37.42252],[-5.99469,37.42291],[-5.9921,37.4239],[-5.99023,37.42384],[-5.98998,37.4235],[-5.98943,37.42266],[-5.98943,37.42266],[-5.98899,37.42185],[-5.98893,37.42157],[-5.98886,37.42122],[-5.98867,37.42063],[-5.9886,37.41996],[-5.98859,37.41927],[-5.98867,37.41845],[-5.98881,37.41764],[-5.98901,37.41671],[-5.98932,37.41608],[-5.98955,37.41542],[-5.98992,37.41454],[-5.99021,37.41395],[-5.99049,37.41342],[-5.99055,37.41334],[-5.99036,37.41334],[-5.9907,37.41282],[-5.99093,37.41248],[-5.99136,37.41182],[-5.99271,37.40979],[-5.99324,37.409],[-5.99439,37.40769],[-5.99496,37.40704],[-5.99732,37.40437],[-5.99911,37.40232],[-6.00198,37.39928],[-6.0031,37.39809],[-6.00323,37.39795],[-6.00326,37.39797],[-6.00534,37.39572],[-6.0059,37.39489],[-6.00609,37.39461],[-6.00649,37.39364],[-6.00659,37.39299],[-6.0066,37.39288],[-6.00666,37.3918],[-6.00642,37.39036],[-6.00802,37.39019],[-6.00783,37.38921],[-6.00774,37.38865],[-6.00775,37.38858],[-6.00812,37.38867],[-6.00836,37.38816],[-6.00778,37.38794],[-6.00778,37.38735],[-6.00781,37.38684],[-6.00778,37.38598],[-6.00659,37.38525],[-6.00631,37.38503],[-6.00584,37.3846],[-6.00563,37.38432],[-6.00513,37.38372],[-6.00587,37.38322],[-6.00743,37.38217],[-6.00854,37.38144],[-6.00874,37.38132]]]]}},{"type":"Feature","properties":{"nbhd_name":"Sevilla sub-city dist. No. 6-B","uesi_id":"ESP_R342563","nbhd_code":"ESP_R342563_26"},"geometry":{"type":"MultiPolygon","coordinates":[[[[-6.00943,37.37397],[-6.01104,37.37315],[-6.01186,37.37278],[-6.0142,37.37204],[-6.01459,37.37273],[-6.01475,37.37305],[-6.01487,37.37338],[-6.01495,37.37369],[-6.01499,37.37399],[-6.01501,37.37443],[-6.01495,37.37551],[-6.01486,37.37589],[-6.0148,37.37602],[-6.01474,37.3762],[-6.01468,37.37653],[-6.01459,37.37767],[-6.0145,37.37889],[-6.01447,37.37932],[-6.01438,37.38074],[-6.01434,37.3811],[-6.01422,37.38115],[-6.0141,37.38116],[-6.01216,37.38107],[-6.0115,37.38106],[-6.00926,37.38113],[-6.0092,37.38111],[-6.00918,37.38106],[-6.0091,37.38058],[-6.00911,37.38048],[-6.00915,37.38044],[-6.00787,37.37885],[-6.00688,37.3776],[-6.00596,37.37648],[-6.00556,37.37602],[-6.0064,37.37559],[-6.00898,37.3743],[-6.00943,37.37397],[-6.00943,37.37397]]]]}},{"type":"Feature","properties":{"nbhd_name":"Sevilla sub-city dist. No. 11","uesi_id":"ESP_R342563","nbhd_code":"ESP_R342563_27"},"geometry":{"type":"MultiPolygon","coordinates":[[[[-6.03252,37.30445],[-6.03175,37.30945],[-6.03126,37.30973],[-6.03085,37.30996],[-6.03007,37.31033],[-6.02909,37.31096],[-6.02807,37.31178],[-6.02731,37.31233],[-6.02695,37.31268],[-6.02603,37.31342],[-6.02362,37.31514],[-6.02265,37.316],[-6.02197,37.31672],[-6.0212,37.3168],[-6.021,37.31685],[-6.01824,37.31753],[-6.01682,37.3165],[-6.01649,37.31626],[-6.01572,37.31563],[-6.01494,37.31511],[-6.014,37.31486],[-6.01457,37.3145],[-6.01642,37.31354],[-6.01738,37.313],[-6.01792,37.31265],[-6.01859,37.31209],[-6.02098,37.30975],[-6.02182,37.30905],[-6.02224,37.30859],[-6.02277,37.30786],[-6.02359,37.30661],[-6.02462,37.30518],[-6.0257,37.30406],[-6.02687,37.30294],[-6.02849,37.3018],[-6.03009,37.30087],[-6.03175,37.30033],[-6.0327,37.3002],[-6.03289,37.3005],[-6.03292,37.30187],[-6.03292,37.3021],[-6.03252,37.30445]]],[[[-5.99248,37.36765],[-5.99273,37.36363],[-5.99289,37.36103],[-5.99333,37.35403],[-5.9934,37.35028],[-5.99345,37.34816],[-5.99446,37.33621],[-5.99276,37.33223],[-5.99191,37.3304],[-5.99168,37.32984],[-5.99148,37.32929],[-5.99131,37.32872],[-5.99115,37.32815],[-5.99098,37.32729],[-5.99083,37.32625],[-5.9908,37.32555],[-5.99081,37.3252],[-5.99084,37.32467],[-5.99091,37.32415],[-5.99098,37.32381],[-5.99129,37.32262],[-5.99161,37.3216],[-5.99197,37.32058],[-5.99219,37.32007],[-5.99242,37.31956],[-5.99281,37.31881],[-5.99304,37.31842],[-5.99326,37.31809],[-5.99392,37.31828],[-5.99662,37.31883],[-5.99781,37.31908],[-5.99948,37.31933],[-6.0004,37.31957],[-6.00174,37.31993],[-6.00309,37.3203],[-6.00315,37.32075],[-6.0031,37.32123],[-6.00372,37.32288],[-6.0048,37.32444],[-6.00549,37.32509],[-6.00779,37.32652],[-6.00979,37.3279],[-6.01163,37.32909],[-6.01306,37.33009],[-6.01638,37.33341],[-6.02101,37.33675],[-6.02142,37.33716],[-6.02158,37.33754],[-6.0218,37.33873],[-6.0221,37.34031],[-6.02245,37.34137],[-6.02253,37.34371],[-6.02266,37.34481],[-6.02264,37.34677],[-6.02262,37.34828],[-6.02252,37.34979],[-6.02242,37.35035],[-6.02225,37.35161],[-6.02227,37.35239],[-6.02251,37.3545],[-6.02246,37.35521],[-6.02215,37.35674],[-6.02203,37.35829],[-6.02205,37.3591],[-6.0224,37.36205],[-6.02241,37.36213],[-6.02204,37.36735],[-6.02183,37.36797],[-6.02121,37.36798],[-6.0184,37.36848],[-6.01626,37.36882],[-6.01587,37.36881],[-6.01542,37.36868],[-6.0153,37.36904],[-6.01552,37.37169],[-6.0142,37.37204],[-6.01186,37.37278],[-6.01104,37.37315],[-6.00943,37.37397],[-6.00943,37.37397],[-6.00898,37.3743],[-6.0064,37.37559],[-6.00556,37.37602],[-6.00368,37.37699],[-6.00239,37.37763],[-6.00237,37.37765],[-6.00089,37.37842],[-5.99991,37.37894],[-5.99894,37.37943],[-5.99894,37.37943],[-5.99631,37.38068],[-5.99535,37.37953],[-5.99507,37.3792],[-5.99445,37.3783],[-5.99352,37.37653],[-5.99304,37.37525],[-5.99299,37.37511],[-5.99251,37.36871],[-5.99254,37.36869],[-5.99248,37.36765]]]]}},{"type":"Feature","properties":{"nbhd_name":"Sevilla sub-city dist. No. 5-D","uesi_id":"ESP_R342563","nbhd_code":"ESP_R342563_28"},"geometry":{"type":"MultiPolygon","coordinates":[[[[-5.97207,37.36783],[-5.97224,37.36757],[-5.9725,37.36707],[-5.97339,37.36695],[-5.97347,37.36703],[-5.97349,37.36697],[-5.97338,37.36641],[-5.97524,37.36617],[-5.97621,37.36597],[-5.97707,37.3658],[-5.97709,37.3658],[-5.97738,37.36667],[-5.97748,37.36699],[-5.97797,37.36948],[-5.97803,37.36953],[-5.97806,37.36976],[-5.97815,37.3703],[-5.97821,37.37067],[-5.97848,37.37208],[-5.97846,37.37216],[-5.97929,37.37652],[-5.97933,37.37664],[-5.97935,37.3767],[-5.97936,37.3767],[-5.97881,37.37854],[-5.9788,37.37853],[-5.97867,37.37839],[-5.97818,37.37812],[-5.97774,37.37784],[-5.97748,37.37759],[-5.97553,37.37594],[-5.97496,37.37546],[-5.97476,37.37526],[-5.97441,37.37499],[-5.97275,37.37363],[-5.97263,37.37341],[-5.97242,37.37344],[-5.97074,37.37202],[-5.96895,37.37053],[-5.96839,37.37006],[-5.96905,37.36929],[-5.96944,37.36963],[-5.96977,37.36987],[-5.97063,37.36921],[-5.97104,37.36889],[-5.97141,37.36858],[-5.97178,37.3682],[-5.97207,37.36783]]]]}},{"type":"Feature","properties":{"nbhd_name":"Sevilla sub-city dist. No. 5-E","uesi_id":"ESP_R342563","nbhd_code":"ESP_R342563_29"},"geometry":{"type":"MultiPolygon","coordinates":[[[[-5.98517,37.36751],[-5.98526,37.36772],[-5.98535,37.368],[-5.98537,37.36813],[-5.98555,37.36896],[-5.98555,37.36914],[-5.98548,37.3696],[-5.98717,37.36928],[-5.98719,37.36923],[-5.98721,37.36921],[-5.98741,37.36916],[-5.98755,37.36904],[-5.98765,37.36902],[-5.98772,37.36903],[-5.98807,37.36924],[-5.98817,37.36929],[-5.98849,37.36932],[-5.98854,37.36936],[-5.98908,37.36935],[-5.98936,37.36931],[-5.99045,37.36926],[-5.99046,37.36939],[-5.99052,37.3697],[-5.99052,37.36973],[-5.99049,37.3698],[-5.9907,37.36965],[-5.99134,37.36928],[-5.99251,37.36871],[-5.99299,37.37511],[-5.99304,37.37525],[-5.99196,37.37533],[-5.99164,37.37548],[-5.99059,37.37742],[-5.98961,37.37912],[-5.98877,37.3812],[-5.98851,37.38114],[-5.98463,37.38011],[-5.98305,37.37968],[-5.98183,37.37935],[-5.98126,37.37921],[-5.97986,37.37886],[-5.97916,37.37863],[-5.97881,37.37854],[-5.97936,37.3767],[-5.97935,37.3767],[-5.97933,37.37664],[-5.97929,37.37652],[-5.97846,37.37216],[-5.97848,37.37208],[-5.97821,37.37067],[-5.97815,37.3703],[-5.97806,37.36976],[-5.97803,37.36953],[-5.97797,37.36948],[-5.97748,37.36699],[-5.97738,37.36667],[-5.97709,37.3658],[-5.97707,37.3658],[-5.97677,37.36508],[-5.97568,37.36244],[-5.97428,37.35901],[-5.97469,37.35892],[-5.97591,37.3586],[-5.97595,37.35868],[-5.97771,37.35806],[-5.97806,37.35867],[-5.97986,37.35803],[-5.97952,37.35734],[-5.97938,37.35699],[-5.98019,37.35684],[-5.98028,37.35704],[-5.98035,37.35713],[-5.98049,37.35722],[-5.98056,37.35724],[-5.98063,37.35723],[-5.981,37.35785],[-5.98142,37.35856],[-5.9803,37.35897],[-5.98117,37.36053],[-5.98312,37.36396],[-5.98429,37.366],[-5.98517,37.36751]]]]}},{"type":"Feature","properties":{"nbhd_name":"Sevilla sub-city dist. No. 5-B","uesi_id":"ESP_R342563","nbhd_code":"ESP_R342563_30"},"geometry":{"type":"MultiPolygon","coordinates":[[[[-5.95964,37.36123],[-5.96072,37.36067],[-5.96176,37.36153],[-5.96202,37.36133],[-5.96379,37.36279],[-5.96551,37.36421],[-5.96518,37.36446],[-5.96552,37.36472],[-5.96554,37.36471],[-5.96623,37.36533],[-5.96649,37.36514],[-5.96726,37.36578],[-5.96642,37.36681],[-5.9692,37.36912],[-5.96905,37.36929],[-5.96905,37.36929],[-5.96839,37.37006],[-5.96895,37.37053],[-5.97074,37.37202],[-5.97242,37.37344],[-5.97263,37.37341],[-5.97275,37.37363],[-5.97441,37.37499],[-5.97476,37.37526],[-5.97496,37.37546],[-5.97553,37.37594],[-5.97748,37.37759],[-5.97774,37.37784],[-5.97818,37.37812],[-5.97867,37.37839],[-5.9788,37.37853],[-5.97736,37.37801],[-5.97593,37.37742],[-5.97509,37.37718],[-5.97353,37.37673],[-5.97154,37.37616],[-5.97026,37.37579],[-5.96821,37.37518],[-5.96741,37.37494],[-5.9665,37.37468],[-5.96639,37.37463],[-5.96462,37.3735],[-5.96426,37.37327],[-5.96425,37.37328],[-5.96293,37.37239],[-5.9633,37.372],[-5.96479,37.37047],[-5.96252,37.36899],[-5.96059,37.37093],[-5.95935,37.37014],[-5.95785,37.36917],[-5.95731,37.36889],[-5.95523,37.368],[-5.95409,37.36749],[-5.95839,37.3619],[-5.95906,37.36103],[-5.95945,37.36132],[-5.95964,37.36123]]]]}},{"type":"Feature","properties":{"nbhd_name":"Sevilla sub-city dist. No. 5-C","uesi_id":"ESP_R342563","nbhd_code":"ESP_R342563_31"},"geometry":{"type":"MultiPolygon","coordinates":[[[[-5.96072,37.36067],[-5.96285,37.35956],[-5.96316,37.35983],[-5.96355,37.36014],[-5.96357,37.36026],[-5.96355,37.36032],[-5.96351,37.36037],[-5.96358,37.36041],[-5.96376,37.36057],[-5.96462,37.36128],[-5.96391,37.36182],[-5.96446,37.36228],[-5.96598,37.36352],[-5.966,37.36351],[-5.96641,37.3639],[-5.96741,37.3632],[-5.96858,37.36414],[-5.96903,37.3636],[-5.96914,37.36344],[-5.96923,37.36315],[-5.96931,37.36284],[-5.96937,37.36272],[-5.96944,37.36265],[-5.9696,37.36256],[-5.96975,37.36253],[-5.97026,37.36245],[-5.97062,37.36236],[-5.97104,37.36236],[-5.97151,37.3624],[-5.9718,37.36244],[-5.97202,37.36251],[-5.97205,37.36252],[-5.97231,37.36264],[-5.97253,37.36275],[-5.97289,37.363],[-5.97318,37.36345],[-5.97325,37.36361],[-5.97333,37.36406],[-5.97226,37.36538],[-5.97187,37.36584],[-5.97058,37.36743],[-5.9692,37.36912],[-5.96642,37.36681],[-5.96726,37.36578],[-5.96649,37.36514],[-5.96623,37.36533],[-5.96554,37.36471],[-5.96552,37.36472],[-5.96518,37.36446],[-5.96551,37.36421],[-5.96379,37.36279],[-5.96202,37.36133],[-5.96176,37.36153],[-5.96072,37.36067]]]]}},{"type":"Feature","properties":{"nbhd_name":"Sevilla sub-city dist. No. 5-A","uesi_id":"ESP_R342563","nbhd_code":"ESP_R342563_32"},"geometry":{"type":"MultiPolygon","coordinates":[[[[-5.97393,37.35811],[-5.97392,37.35811],[-5.97428,37.35901],[-5.97568,37.36244],[-5.97677,37.36508],[-5.97707,37.3658],[-5.97621,37.36597],[-5.97524,37.36617],[-5.97338,37.36641],[-5.97349,37.36697],[-5.97347,37.36703],[-5.97339,37.36695],[-5.9725,37.36707],[-5.97224,37.36757],[-5.97207,37.36783],[-5.97178,37.3682],[-5.97141,37.36858],[-5.97104,37.36889],[-5.97063,37.36921],[-5.96977,37.36987],[-5.96944,37.36963],[-5.96905,37.36929],[-5.96905,37.36929],[-5.9692,37.36912],[-5.97058,37.36743],[-5.97187,37.36584],[-5.97226,37.36538],[-5.97333,37.36406],[-5.97325,37.36361],[-5.97318,37.36345],[-5.97289,37.363],[-5.97253,37.36275],[-5.97231,37.36264],[-5.97205,37.36252],[-5.97202,37.36251],[-5.9718,37.36244],[-5.97151,37.3624],[-5.97104,37.36236],[-5.97062,37.36236],[-5.97026,37.36245],[-5.96975,37.36253],[-5.9696,37.36256],[-5.96944,37.36265],[-5.96937,37.36272],[-5.96931,37.36284],[-5.96923,37.36315],[-5.96914,37.36344],[-5.96903,37.3636],[-5.96858,37.36414],[-5.96741,37.3632],[-5.96641,37.3639],[-5.966,37.36351],[-5.96598,37.36352],[-5.96446,37.36228],[-5.96391,37.36182],[-5.96462,37.36128],[-5.96376,37.36057],[-5.96358,37.36041],[-5.96351,37.36037],[-5.96355,37.36032],[-5.96357,37.36026],[-5.96355,37.36014],[-5.96316,37.35983],[-5.96285,37.35956],[-5.96072,37.36067],[-5.95964,37.36123],[-5.95945,37.36132],[-5.95906,37.36103],[-5.95839,37.3619],[-5.95409,37.36749],[-5.95368,37.36736],[-5.95239,37.3668],[-5.95199,37.36663],[-5.9519,37.36659],[-5.95051,37.36605],[-5.9503,37.36599],[-5.95015,37.36595],[-5.94986,37.36598],[-5.94971,37.36598],[-5.94937,37.36591],[-5.94913,37.3659],[-5.94893,37.36595],[-5.94877,37.36602],[-5.94829,37.36621],[-5.94814,37.3663],[-5.94803,37.36616],[-5.94784,37.36623],[-5.94808,37.36613],[-5.94834,37.36595],[-5.94842,37.36573],[-5.94842,37.36553],[-5.94823,37.36539],[-5.94533,37.36498],[-5.94121,37.36443],[-5.94049,37.3642],[-5.93986,37.36379],[-5.93956,37.36333],[-5.93907,37.36262],[-5.93898,37.36249],[-5.93859,37.36208],[-5.93902,37.36071],[-5.94034,37.35725],[-5.94163,37.35514],[-5.94298,37.35317],[-5.94321,37.35283],[-5.94387,37.35324],[-5.95371,37.35822],[-5.95484,37.35719],[-5.95746,37.35466],[-5.95835,37.35531],[-5.9584,37.35522],[-5.95872,37.35575],[-5.95884,37.35588],[-5.95961,37.35601],[-5.96036,37.35607],[-5.96059,37.35597],[-5.96169,37.35537],[-5.96338,37.3547],[-5.96454,37.3544],[-5.96502,37.35445],[-5.96634,37.35451],[-5.96784,37.35449],[-5.96927,37.35383],[-5.97102,37.35325],[-5.97192,37.35317],[-5.97295,37.3557],[-5.97393,37.35811]]]]}},{"type":"Feature","properties":{"nbhd_name":"Sevilla sub-city dist. No. 10-B","uesi_id":"ESP_R342563","nbhd_code":"ESP_R342563_33"},"geometry":{"type":"MultiPolygon","coordinates":[[[[-5.96997,37.31328],[-5.97185,37.3136],[-5.97194,37.31362],[-5.97319,37.31391],[-5.97346,37.31398],[-5.97598,37.31459],[-5.97795,37.3149],[-5.97908,37.31502],[-5.97988,37.31527],[-5.98281,37.31603],[-5.98412,37.31625],[-5.98555,37.31659],[-5.98774,37.31693],[-5.98853,37.31715],[-5.99119,37.3177],[-5.99281,37.31795],[-5.99326,37.31809],[-5.99304,37.31842],[-5.99281,37.31881],[-5.99242,37.31956],[-5.99219,37.32007],[-5.99197,37.32058],[-5.99161,37.3216],[-5.99129,37.32262],[-5.99098,37.32381],[-5.99091,37.32415],[-5.99084,37.32467],[-5.99081,37.3252],[-5.9908,37.32555],[-5.99083,37.32625],[-5.99098,37.32729],[-5.99115,37.32815],[-5.99131,37.32872],[-5.99148,37.32929],[-5.99168,37.32984],[-5.99191,37.3304],[-5.99276,37.33223],[-5.99446,37.33621],[-5.99345,37.34816],[-5.9934,37.35028],[-5.99233,37.35024],[-5.99027,37.35019],[-5.99019,37.35024],[-5.99003,37.35046],[-5.9887,37.3517],[-5.9887,37.35171],[-5.98872,37.35187],[-5.98842,37.35162],[-5.98817,37.35158],[-5.98663,37.35208],[-5.98657,37.35215],[-5.98472,37.35265],[-5.98399,37.35294],[-5.98397,37.35294],[-5.98257,37.35308],[-5.98166,37.35323],[-5.98166,37.35322],[-5.98161,37.35323],[-5.98162,37.35326],[-5.98117,37.35334],[-5.98113,37.35318],[-5.97864,37.35345],[-5.97838,37.35327],[-5.97828,37.35328],[-5.97827,37.35327],[-5.97612,37.35316],[-5.97367,37.35295],[-5.97242,37.35292],[-5.97191,37.35314],[-5.97192,37.35317],[-5.97102,37.35325],[-5.96927,37.35383],[-5.96784,37.35449],[-5.96634,37.35451],[-5.96502,37.35445],[-5.96454,37.3544],[-5.96338,37.3547],[-5.96169,37.35537],[-5.96059,37.35597],[-5.96036,37.35607],[-5.95961,37.35601],[-5.95884,37.35588],[-5.95872,37.35575],[-5.9584,37.35522],[-5.95835,37.35531],[-5.95746,37.35466],[-5.95484,37.35719],[-5.95371,37.35822],[-5.94387,37.35324],[-5.94321,37.35283],[-5.94335,37.35263],[-5.94352,37.35238],[-5.94907,37.34588],[-5.94928,37.34563],[-5.95017,37.34406],[-5.95047,37.34351],[-5.95322,37.33937],[-5.95516,37.33674],[-5.95541,37.33666],[-5.95582,37.33633],[-5.95717,37.33487],[-5.95735,37.33424],[-5.95737,37.33348],[-5.95741,37.33285],[-5.95764,37.33183],[-5.95834,37.32957],[-5.95869,37.32882],[-5.95891,37.32846],[-5.96059,37.32623],[-5.96334,37.32393],[-5.96384,37.32413],[-5.96421,37.32409],[-5.96425,37.32348],[-5.96422,37.32341],[-5.96422,37.32323],[-5.96421,37.32315],[-5.96422,37.32313],[-5.96423,37.32277],[-5.96422,37.32256],[-5.96424,37.32243],[-5.96426,37.32209],[-5.96443,37.3221],[-5.96466,37.32055],[-5.96494,37.31969],[-5.96495,37.31967],[-5.96501,37.31948],[-5.9656,37.3183],[-5.96598,37.31771],[-5.966,37.31769],[-5.96664,37.31672],[-5.96748,37.31523],[-5.96903,37.313],[-5.96921,37.31305],[-5.96971,37.3132],[-5.96997,37.31328]]]]}},{"type":"Feature","properties":{"nbhd_name":"Sevilla sub-city dist. No. 10-A","uesi_id":"ESP_R342563","nbhd_code":"ESP_R342563_34"},"geometry":{"type":"MultiPolygon","coordinates":[[[[-5.98113,37.35318],[-5.98117,37.35334],[-5.98162,37.35326],[-5.98161,37.35323],[-5.98166,37.35322],[-5.98166,37.35323],[-5.98257,37.35308],[-5.98397,37.35294],[-5.98399,37.35294],[-5.98472,37.35265],[-5.98657,37.35215],[-5.98663,37.35208],[-5.98817,37.35158],[-5.98842,37.35162],[-5.98872,37.35187],[-5.9887,37.35171],[-5.9887,37.3517],[-5.99003,37.35046],[-5.99019,37.35024],[-5.99027,37.35019],[-5.99233,37.35024],[-5.9934,37.35028],[-5.99333,37.35403],[-5.99289,37.36103],[-5.99273,37.36363],[-5.99248,37.36765],[-5.99254,37.36869],[-5.99251,37.36871],[-5.99134,37.36928],[-5.9907,37.36965],[-5.99049,37.3698],[-5.99052,37.36973],[-5.99052,37.3697],[-5.99046,37.36939],[-5.99045,37.36926],[-5.98936,37.36931],[-5.98908,37.36935],[-5.98854,37.36936],[-5.98849,37.36932],[-5.98817,37.36929],[-5.98807,37.36924],[-5.98772,37.36903],[-5.98765,37.36902],[-5.98755,37.36904],[-5.98741,37.36916],[-5.98721,37.36921],[-5.98719,37.36923],[-5.98717,37.36928],[-5.98548,37.3696],[-5.98555,37.36914],[-5.98555,37.36896],[-5.98537,37.36813],[-5.98535,37.368],[-5.98526,37.36772],[-5.98517,37.36751],[-5.98429,37.366],[-5.98312,37.36396],[-5.98117,37.36053],[-5.9803,37.35897],[-5.98142,37.35856],[-5.981,37.35785],[-5.98063,37.35723],[-5.98056,37.35724],[-5.98049,37.35722],[-5.98035,37.35713],[-5.98028,37.35704],[-5.98019,37.35684],[-5.97938,37.35699],[-5.97952,37.35734],[-5.97986,37.35803],[-5.97806,37.35867],[-5.97771,37.35806],[-5.97595,37.35868],[-5.97591,37.3586],[-5.97469,37.35892],[-5.97428,37.35901],[-5.97392,37.35811],[-5.97393,37.35811],[-5.97295,37.3557],[-5.97192,37.35317],[-5.97191,37.35314],[-5.97242,37.35292],[-5.97367,37.35295],[-5.97612,37.35316],[-5.97827,37.35327],[-5.97828,37.35328],[-5.97838,37.35327],[-5.97864,37.35345],[-5.98113,37.35318]]]]}},{"type":"Feature","properties":{"nbhd_name":"Sevilla sub-city dist. No. 4-E","uesi_id":"ESP_R342563","nbhd_code":"ESP_R342563_35"},"geometry":{"type":"MultiPolygon","coordinates":[[[[-5.96072,37.37677],[-5.96079,37.37678],[-5.9608,37.37678],[-5.9611,37.37684],[-5.96102,37.37693],[-5.96078,37.37727],[-5.96071,37.37751],[-5.96036,37.37998],[-5.96021,37.38104],[-5.96021,37.38109],[-5.95959,37.38104],[-5.95955,37.38143],[-5.95941,37.38249],[-5.95929,37.38351],[-5.95917,37.38443],[-5.95914,37.38443],[-5.95891,37.3865],[-5.95952,37.38661],[-5.95947,37.38702],[-5.95945,37.38742],[-5.95361,37.38712],[-5.95369,37.38655],[-5.95324,37.38653],[-5.95332,37.38586],[-5.95342,37.38587],[-5.95353,37.38585],[-5.95346,37.38568],[-5.95344,37.3855],[-5.95381,37.38265],[-5.95394,37.38167],[-5.95407,37.38085],[-5.95418,37.38082],[-5.95423,37.38079],[-5.95427,37.38074],[-5.9543,37.38062],[-5.95436,37.3801],[-5.95388,37.37981],[-5.95334,37.37942],[-5.95424,37.37881],[-5.95469,37.378],[-5.95473,37.37787],[-5.95511,37.37689],[-5.95511,37.37677],[-5.95539,37.37596],[-5.95547,37.37598],[-5.95721,37.37625],[-5.96002,37.3767],[-5.96031,37.37674],[-5.96032,37.37672],[-5.96072,37.37677]]]]}},{"type":"Feature","properties":{"nbhd_name":"Sevilla sub-city dist. No. 4-C","uesi_id":"ESP_R342563","nbhd_code":"ESP_R342563_36"},"geometry":{"type":"MultiPolygon","coordinates":[[[[-5.94102,37.38523],[-5.94246,37.38119],[-5.94249,37.38112],[-5.94288,37.38004],[-5.9435,37.3783],[-5.9448,37.37861],[-5.94531,37.3787],[-5.9458,37.37874],[-5.94785,37.37857],[-5.95143,37.37827],[-5.95165,37.37817],[-5.95334,37.37942],[-5.95388,37.37981],[-5.95436,37.3801],[-5.9543,37.38062],[-5.95427,37.38074],[-5.95423,37.38079],[-5.95418,37.38082],[-5.95407,37.38085],[-5.95394,37.38167],[-5.95381,37.38265],[-5.95344,37.3855],[-5.95346,37.38568],[-5.95353,37.38585],[-5.95342,37.38587],[-5.95332,37.38586],[-5.95324,37.38653],[-5.95369,37.38655],[-5.95361,37.38712],[-5.95046,37.38692],[-5.94644,37.38668],[-5.94541,37.38663],[-5.9408,37.38641],[-5.94081,37.38612],[-5.94085,37.38586],[-5.94102,37.38523]]]]}},{"type":"Feature","properties":{"nbhd_name":"Sevilla sub-city dist. No. 4-D","uesi_id":"ESP_R342563","nbhd_code":"ESP_R342563_37"},"geometry":{"type":"MultiPolygon","coordinates":[[[[-5.95414,37.3721],[-5.95429,37.37195],[-5.95486,37.37136],[-5.95603,37.3721],[-5.956,37.37214],[-5.95641,37.3724],[-5.95644,37.37237],[-5.95718,37.37283],[-5.95683,37.37319],[-5.95704,37.37331],[-5.95685,37.3735],[-5.95617,37.37309],[-5.95613,37.37306],[-5.95585,37.37321],[-5.95597,37.37334],[-5.95556,37.37351],[-5.95548,37.37369],[-5.95546,37.37382],[-5.95614,37.37425],[-5.95596,37.37467],[-5.95547,37.37598],[-5.95539,37.37596],[-5.95511,37.37677],[-5.95511,37.37689],[-5.95473,37.37787],[-5.95469,37.378],[-5.95424,37.37881],[-5.95334,37.37942],[-5.95165,37.37817],[-5.95143,37.37827],[-5.94785,37.37857],[-5.9458,37.37874],[-5.94531,37.3787],[-5.9448,37.37861],[-5.9435,37.3783],[-5.94395,37.37699],[-5.94408,37.37652],[-5.94418,37.37602],[-5.94421,37.376],[-5.9449,37.37565],[-5.94526,37.3754],[-5.94526,37.3754],[-5.94565,37.37511],[-5.94665,37.37433],[-5.94666,37.37433],[-5.94682,37.37447],[-5.94734,37.37503],[-5.9476,37.37526],[-5.94956,37.37418],[-5.95085,37.37347],[-5.95141,37.3732],[-5.95175,37.37308],[-5.95222,37.37296],[-5.95254,37.37289],[-5.95236,37.37256],[-5.95398,37.37218],[-5.95414,37.3721]]]]}},{"type":"Feature","properties":{"nbhd_name":"Sevilla sub-city dist. No. 4-A","uesi_id":"ESP_R342563","nbhd_code":"ESP_R342563_38"},"geometry":{"type":"MultiPolygon","coordinates":[[[[-5.94075,37.36833],[-5.94297,37.3681],[-5.94409,37.36768],[-5.9442,37.36894],[-5.94391,37.37004],[-5.94392,37.37004],[-5.9436,37.37154],[-5.94392,37.37186],[-5.9444,37.37183],[-5.94442,37.37183],[-5.94476,37.37184],[-5.94476,37.37183],[-5.94489,37.37183],[-5.94665,37.37433],[-5.94565,37.37511],[-5.94526,37.3754],[-5.94526,37.3754],[-5.9449,37.37565],[-5.94421,37.376],[-5.94418,37.37602],[-5.94408,37.37652],[-5.94395,37.37699],[-5.9435,37.3783],[-5.94288,37.38004],[-5.94249,37.38112],[-5.94246,37.38119],[-5.94102,37.38523],[-5.94085,37.38586],[-5.94081,37.38612],[-5.9408,37.38641],[-5.93716,37.38626],[-5.93472,37.3862],[-5.93452,37.3862],[-5.93391,37.38618],[-5.93283,37.38614],[-5.92667,37.38597],[-5.9257,37.38598],[-5.92423,37.38608],[-5.92341,37.38608],[-5.92232,37.38602],[-5.92135,37.38598],[-5.92054,37.38595],[-5.91917,37.3859],[-5.91917,37.38337],[-5.91919,37.38218],[-5.91918,37.38176],[-5.91474,37.38175],[-5.91459,37.3748],[-5.91459,37.37471],[-5.91464,37.37471],[-5.91494,37.37465],[-5.91613,37.37441],[-5.91686,37.3743],[-5.9207,37.37371],[-5.92108,37.37364],[-5.92349,37.37318],[-5.92427,37.37288],[-5.92481,37.37251],[-5.925,37.37238],[-5.92633,37.37159],[-5.92691,37.37133],[-5.92853,37.371],[-5.92919,37.37067],[-5.92962,37.37062],[-5.92989,37.37053],[-5.93046,37.3701],[-5.93072,37.36998],[-5.9313,37.36988],[-5.93195,37.36977],[-5.93232,37.36972],[-5.93242,37.36971],[-5.93284,37.36967],[-5.93391,37.36938],[-5.93557,37.36894],[-5.9363,37.36878],[-5.9372,37.36869],[-5.94075,37.36833]]]]}},{"type":"Feature","properties":{"nbhd_name":"Sevilla sub-city dist. No. 4-B","uesi_id":"ESP_R342563","nbhd_code":"ESP_R342563_39"},"geometry":{"type":"MultiPolygon","coordinates":[[[[-5.95523,37.368],[-5.95731,37.36889],[-5.95785,37.36917],[-5.95935,37.37014],[-5.96059,37.37093],[-5.96252,37.36899],[-5.96479,37.37047],[-5.9633,37.372],[-5.96293,37.37239],[-5.96425,37.37328],[-5.96426,37.37327],[-5.96462,37.3735],[-5.96231,37.37565],[-5.96231,37.37565],[-5.96151,37.37646],[-5.9608,37.37678],[-5.96079,37.37678],[-5.96072,37.37677],[-5.96032,37.37672],[-5.96031,37.37674],[-5.96002,37.3767],[-5.95721,37.37625],[-5.95547,37.37598],[-5.95596,37.37467],[-5.95614,37.37425],[-5.95546,37.37382],[-5.95548,37.37369],[-5.95556,37.37351],[-5.95597,37.37334],[-5.95585,37.37321],[-5.95613,37.37306],[-5.95617,37.37309],[-5.95685,37.3735],[-5.95704,37.37331],[-5.95683,37.37319],[-5.95718,37.37283],[-5.95644,37.37237],[-5.95641,37.3724],[-5.956,37.37214],[-5.95603,37.3721],[-5.95486,37.37136],[-5.95429,37.37195],[-5.95414,37.3721],[-5.95398,37.37218],[-5.95236,37.37256],[-5.95254,37.37289],[-5.95222,37.37296],[-5.95175,37.37308],[-5.95141,37.3732],[-5.95085,37.37347],[-5.94956,37.37418],[-5.9476,37.37526],[-5.94734,37.37503],[-5.94682,37.37447],[-5.94666,37.37433],[-5.94665,37.37433],[-5.94489,37.37183],[-5.94476,37.37183],[-5.94476,37.37184],[-5.94442,37.37183],[-5.9444,37.37183],[-5.94392,37.37186],[-5.9436,37.37154],[-5.94392,37.37004],[-5.94391,37.37004],[-5.9442,37.36894],[-5.94409,37.36768],[-5.94439,37.36757],[-5.94451,37.36752],[-5.94592,37.36699],[-5.9461,37.36692],[-5.94653,37.36675],[-5.94784,37.36623],[-5.94803,37.36616],[-5.94814,37.3663],[-5.94829,37.36621],[-5.94877,37.36602],[-5.94893,37.36595],[-5.94913,37.3659],[-5.94937,37.36591],[-5.94971,37.36598],[-5.94986,37.36598],[-5.95015,37.36595],[-5.9503,37.36599],[-5.95051,37.36605],[-5.9519,37.36659],[-5.95199,37.36663],[-5.95239,37.3668],[-5.95368,37.36736],[-5.95409,37.36749],[-5.95523,37.368]]]]}}]}