{"type":"FeatureCollection","name":"ETH_R1707699","crs":{"type":"name","properties":{"name":"urn:ogc:def:crs:OGC:1.3:CRS84"}},"features":[{"type":"Feature","properties":{"uesi_id":"ETH_R1707699","nbhd_code":"ETH_R1707699_1","nbhd_name":"Nefas Silk"},"geometry":{"type":"MultiPolygon","coordinates":[[[[38.73862,8.99747,0.0],[38.73969,8.99174,0.0],[38.745,8.98798,0.0],[38.75015,8.98516,0.0],[38.75888,8.98143,0.0],[38.76504,8.9811,0.0],[38.76475,8.97657,0.0],[38.76942,8.97276,0.0],[38.77023,8.96568,0.0],[38.77589,8.96051,0.0],[38.77361,8.95276,0.0],[38.76919,8.96007,0.0],[38.7634,8.95935,0.0],[38.76108,8.95289,0.0],[38.75897,8.94583,0.0],[38.75785,8.93974,0.0],[38.7563,8.93304,0.0],[38.75469,8.92802,0.0],[38.75048,8.92321,0.0],[38.74842,8.91748,0.0],[38.74661,8.91115,0.0],[38.74443,8.90364,0.0],[38.73735,8.90234,0.0],[38.73191,8.90614,0.0],[38.72806,8.9119,0.0],[38.72418,8.91563,0.0],[38.71998,8.92077,0.0],[38.70927,8.92197,0.0],[38.7028,8.92668,0.0],[38.69767,8.93376,0.0],[38.69468,8.94295,0.0],[38.68874,8.94079,0.0],[38.68148,8.94214,0.0],[38.6818,8.95071,0.0],[38.68941,8.95734,0.0],[38.693,8.96521,0.0],[38.69971,8.96852,0.0],[38.70487,8.97194,0.0],[38.71322,8.97461,0.0],[38.71446,8.98313,0.0],[38.71577,8.98967,0.0],[38.71588,8.99399,0.0],[38.72002,8.99961,0.0],[38.72544,8.99954,0.0],[38.73176,8.99764,0.0],[38.73862,8.99747,0.0]]]]}},{"type":"Feature","properties":{"uesi_id":"ETH_R1707699","nbhd_code":"ETH_R1707699_2","nbhd_name":"Bole"},"geometry":{"type":"MultiPolygon","coordinates":[[[[38.90363,8.96346,0.0],[38.89708,8.95589,0.0],[38.90194,8.94719,0.0],[38.8976,8.93808,0.0],[38.89227,8.93538,0.0],[38.88292,8.93725,0.0],[38.87033,8.94067,0.0],[38.86226,8.94373,0.0],[38.8564,8.93934,0.0],[38.85022,8.93933,0.0],[38.8419,8.94213,0.0],[38.83681,8.94322,0.0],[38.82913,8.94052,0.0],[38.82138,8.93892,0.0],[38.81728,8.94263,0.0],[38.80972,8.94514,0.0],[38.80157,8.94701,0.0],[38.79487,8.94334,0.0],[38.78661,8.93983,0.0],[38.7809,8.93696,0.0],[38.77478,8.94134,0.0],[38.77197,8.94625,0.0],[38.77361,8.95276,0.0],[38.77589,8.96051,0.0],[38.77023,8.96568,0.0],[38.76942,8.97276,0.0],[38.76475,8.97657,0.0],[38.76504,8.9811,0.0],[38.77081,8.98572,0.0],[38.77548,8.99193,0.0],[38.77425,9.00099,0.0],[38.77663,9.00656,0.0],[38.77564,9.01207,0.0],[38.77758,9.01678,0.0],[38.78463,9.01592,0.0],[38.79323,9.01786,0.0],[38.79953,9.01974,0.0],[38.80888,9.02084,0.0],[38.81976,9.01974,0.0],[38.83051,9.02241,0.0],[38.84109,9.02192,0.0],[38.85172,9.02137,0.0],[38.85854,9.02101,0.0],[38.87797,9.02206,0.0],[38.88536,9.02242,0.0],[38.89062,9.02325,0.0],[38.8975,9.03154,0.0],[38.902,9.02063,0.0],[38.90584,9.01054,0.0],[38.9069,8.99858,0.0],[38.90518,8.9932,0.0],[38.90574,8.98516,0.0],[38.90709,8.97846,0.0],[38.90494,8.97059,0.0],[38.90363,8.96346,0.0]]]]}},{"type":"Feature","properties":{"uesi_id":"ETH_R1707699","nbhd_code":"ETH_R1707699_3","nbhd_name":"Lideta"},"geometry":{"type":"MultiPolygon","coordinates":[[[[38.75448,9.02002,0.0],[38.74965,9.01534,0.0],[38.74376,9.0107,0.0],[38.73862,8.99747,0.0],[38.73176,8.99764,0.0],[38.72544,8.99954,0.0],[38.72002,8.99961,0.0],[38.71588,8.99399,0.0],[38.71263,8.9981,0.0],[38.71306,9.00494,0.0],[38.71037,9.00958,0.0],[38.71124,9.01739,0.0],[38.71722,9.0218,0.0],[38.72561,9.02152,0.0],[38.73337,9.02409,0.0],[38.7404,9.02747,0.0],[38.74464,9.03162,0.0],[38.74935,9.02642,0.0],[38.75448,9.02002,0.0]]]]}},{"type":"Feature","properties":{"uesi_id":"ETH_R1707699","nbhd_code":"ETH_R1707699_4","nbhd_name":"Kirkos"},"geometry":{"type":"MultiPolygon","coordinates":[[[[38.76629,9.02309,0.0],[38.77208,9.0198,0.0],[38.77758,9.01678,0.0],[38.77564,9.01207,0.0],[38.77663,9.00656,0.0],[38.77425,9.00099,0.0],[38.77548,8.99193,0.0],[38.77081,8.98572,0.0],[38.76504,8.9811,0.0],[38.75888,8.98143,0.0],[38.75015,8.98516,0.0],[38.745,8.98798,0.0],[38.73969,8.99174,0.0],[38.73862,8.99747,0.0],[38.74376,9.0107,0.0],[38.74965,9.01534,0.0],[38.75448,9.02002,0.0],[38.7592,9.02436,0.0],[38.76629,9.02309,0.0]]]]}},{"type":"Feature","properties":{"uesi_id":"ETH_R1707699","nbhd_code":"ETH_R1707699_5","nbhd_name":"Yeka"},"geometry":{"type":"MultiPolygon","coordinates":[[[[38.8975,9.03154,0.0],[38.89062,9.02325,0.0],[38.88536,9.02242,0.0],[38.87797,9.02206,0.0],[38.85854,9.02101,0.0],[38.85172,9.02137,0.0],[38.84109,9.02192,0.0],[38.83051,9.02241,0.0],[38.81976,9.01974,0.0],[38.80888,9.02084,0.0],[38.79953,9.01974,0.0],[38.79323,9.01786,0.0],[38.78463,9.01592,0.0],[38.77758,9.01678,0.0],[38.77208,9.0198,0.0],[38.76629,9.02309,0.0],[38.77017,9.02639,0.0],[38.77619,9.02855,0.0],[38.77864,9.03563,0.0],[38.7724,9.03917,0.0],[38.76066,9.04411,0.0],[38.7679,9.05139,0.0],[38.76751,9.05887,0.0],[38.76523,9.06448,0.0],[38.76581,9.06999,0.0],[38.77135,9.07483,0.0],[38.77865,9.07834,0.0],[38.78313,9.08218,0.0],[38.79215,9.07872,0.0],[38.8008,9.0796,0.0],[38.80597,9.08337,0.0],[38.81422,9.08106,0.0],[38.82558,9.07693,0.0],[38.84341,9.07965,0.0],[38.85037,9.07921,0.0],[38.85759,9.08456,0.0],[38.86906,9.08595,0.0],[38.87716,9.08262,0.0],[38.87995,9.07657,0.0],[38.8828,9.0696,0.0],[38.88382,9.06152,0.0],[38.88379,9.05315,0.0],[38.88717,9.04786,0.0],[38.89419,9.03827,0.0],[38.8975,9.03154,0.0]]]]}},{"type":"Feature","properties":{"uesi_id":"ETH_R1707699","nbhd_code":"ETH_R1707699_6","nbhd_name":"Addis Ketema"},"geometry":{"type":"MultiPolygon","coordinates":[[[[38.73579,9.04858,0.0],[38.7359,9.04385,0.0],[38.73967,9.0372,0.0],[38.74464,9.03162,0.0],[38.7404,9.02747,0.0],[38.73337,9.02409,0.0],[38.72561,9.02152,0.0],[38.71722,9.0218,0.0],[38.71714,9.02756,0.0],[38.71512,9.03529,0.0],[38.71696,9.04144,0.0],[38.71733,9.04656,0.0],[38.71682,9.05429,0.0],[38.72488,9.04995,0.0],[38.72917,9.04693,0.0],[38.73579,9.04858,0.0]]]]}},{"type":"Feature","properties":{"uesi_id":"ETH_R1707699","nbhd_code":"ETH_R1707699_7","nbhd_name":"Arada"},"geometry":{"type":"MultiPolygon","coordinates":[[[[38.76066,9.04411,0.0],[38.7724,9.03917,0.0],[38.77864,9.03563,0.0],[38.77619,9.02855,0.0],[38.77017,9.02639,0.0],[38.76629,9.02309,0.0],[38.7592,9.02436,0.0],[38.75448,9.02002,0.0],[38.74935,9.02642,0.0],[38.74464,9.03162,0.0],[38.73967,9.0372,0.0],[38.7359,9.04385,0.0],[38.73579,9.04858,0.0],[38.74043,9.05346,0.0],[38.74856,9.05304,0.0],[38.7511,9.04699,0.0],[38.76066,9.04411,0.0]]]]}},{"type":"Feature","properties":{"uesi_id":"ETH_R1707699","nbhd_code":"ETH_R1707699_8","nbhd_name":"Akaki - Kalit"},"geometry":{"type":"MultiPolygon","coordinates":[[[[38.77361,8.95276,0.0],[38.77197,8.94625,0.0],[38.77478,8.94134,0.0],[38.7809,8.93696,0.0],[38.78661,8.93983,0.0],[38.79487,8.94334,0.0],[38.80157,8.94701,0.0],[38.80972,8.94514,0.0],[38.81728,8.94263,0.0],[38.82138,8.93892,0.0],[38.82913,8.94052,0.0],[38.83681,8.94322,0.0],[38.8419,8.94213,0.0],[38.85022,8.93933,0.0],[38.8564,8.93934,0.0],[38.86167,8.93323,0.0],[38.86891,8.92867,0.0],[38.87433,8.92481,0.0],[38.88029,8.91937,0.0],[38.87802,8.91358,0.0],[38.87415,8.90615,0.0],[38.87833,8.89684,0.0],[38.87425,8.88935,0.0],[38.87067,8.88183,0.0],[38.86956,8.87409,0.0],[38.86465,8.88391,0.0],[38.85923,8.88469,0.0],[38.85382,8.88284,0.0],[38.84792,8.88107,0.0],[38.84153,8.88091,0.0],[38.83382,8.88397,0.0],[38.82684,8.88124,0.0],[38.82778,8.87472,0.0],[38.83025,8.86984,0.0],[38.82789,8.86431,0.0],[38.82712,8.85867,0.0],[38.82475,8.85382,0.0],[38.82467,8.84751,0.0],[38.82523,8.84239,0.0],[38.81833,8.84035,0.0],[38.81339,8.84107,0.0],[38.80634,8.8383,0.0],[38.79842,8.83454,0.0],[38.79286,8.83684,0.0],[38.78749,8.83634,0.0],[38.78143,8.83698,0.0],[38.77922,8.84287,0.0],[38.7783,8.85348,0.0],[38.77383,8.85852,0.0],[38.7624,8.85467,0.0],[38.7573,8.8543,0.0],[38.75496,8.85965,0.0],[38.74636,8.86448,0.0],[38.74604,8.87055,0.0],[38.74813,8.87821,0.0],[38.744,8.88147,0.0],[38.74532,8.89317,0.0],[38.74443,8.90364,0.0],[38.74661,8.91115,0.0],[38.74842,8.91748,0.0],[38.75048,8.92321,0.0],[38.75469,8.92802,0.0],[38.7563,8.93304,0.0],[38.75785,8.93974,0.0],[38.75897,8.94583,0.0],[38.76108,8.95289,0.0],[38.7634,8.95935,0.0],[38.76919,8.96007,0.0],[38.77361,8.95276,0.0]]]]}},{"type":"Feature","properties":{"uesi_id":"ETH_R1707699","nbhd_code":"ETH_R1707699_9","nbhd_name":"Gulele"},"geometry":{"type":"MultiPolygon","coordinates":[[[[38.77903,9.09469,0.0],[38.79215,9.07872,0.0],[38.78313,9.08218,0.0],[38.77865,9.07834,0.0],[38.77135,9.07483,0.0],[38.76581,9.06999,0.0],[38.76523,9.06448,0.0],[38.76751,9.05887,0.0],[38.7679,9.05139,0.0],[38.76066,9.04411,0.0],[38.7511,9.04699,0.0],[38.74856,9.05304,0.0],[38.74043,9.05346,0.0],[38.73579,9.04858,0.0],[38.72917,9.04693,0.0],[38.72488,9.04995,0.0],[38.71682,9.05429,0.0],[38.71207,9.06055,0.0],[38.71165,9.06677,0.0],[38.71007,9.07418,0.0],[38.70759,9.08287,0.0],[38.71748,9.08879,0.0],[38.72794,9.08675,0.0],[38.73886,9.0879,0.0],[38.7517,9.09157,0.0],[38.76013,9.09693,0.0],[38.76605,9.09919,0.0],[38.77209,9.09923,0.0],[38.77903,9.09469,0.0]]]]}},{"type":"Feature","properties":{"uesi_id":"ETH_R1707699","nbhd_code":"ETH_R1707699_10","nbhd_name":"Kolfe - Keran"},"geometry":{"type":"MultiPolygon","coordinates":[[[[38.71682,9.05429,0.0],[38.71733,9.04656,0.0],[38.71696,9.04144,0.0],[38.71512,9.03529,0.0],[38.71714,9.02756,0.0],[38.71722,9.0218,0.0],[38.71124,9.01739,0.0],[38.71037,9.00958,0.0],[38.71306,9.00494,0.0],[38.71263,8.9981,0.0],[38.71588,8.99399,0.0],[38.71577,8.98967,0.0],[38.71446,8.98313,0.0],[38.71322,8.97461,0.0],[38.70487,8.97194,0.0],[38.69971,8.96852,0.0],[38.693,8.96521,0.0],[38.68941,8.95734,0.0],[38.6818,8.95071,0.0],[38.67706,8.95865,0.0],[38.66625,8.96213,0.0],[38.6542,8.96395,0.0],[38.64365,8.9669,0.0],[38.64024,8.97508,0.0],[38.64935,8.97704,0.0],[38.65548,8.97798,0.0],[38.66022,8.98645,0.0],[38.65863,8.99586,0.0],[38.65189,9.00354,0.0],[38.65278,9.01133,0.0],[38.66091,9.01038,0.0],[38.66787,9.01107,0.0],[38.66737,9.01778,0.0],[38.66806,9.02727,0.0],[38.67292,9.03419,0.0],[38.67343,9.03971,0.0],[38.6776,9.04421,0.0],[38.68438,9.05108,0.0],[38.68454,9.06058,0.0],[38.68453,9.06736,0.0],[38.68625,9.07407,0.0],[38.69539,9.07877,0.0],[38.70152,9.08155,0.0],[38.70759,9.08287,0.0],[38.71007,9.07418,0.0],[38.71165,9.06677,0.0],[38.71207,9.06055,0.0],[38.71682,9.05429,0.0]]]]}}]}