{"type":"FeatureCollection","name":"FRA_R7444","crs":{"type":"name","properties":{"name":"urn:ogc:def:crs:OGC:1.3:CRS84"}},"features":[{"type":"Feature","properties":{"uesi_id":"FRA_R7444","nbhd_code":"FRA_R7444_009","nbhd_name":"60170"},"geometry":{"type":"MultiPolygon","coordinates":[[[[2.32593,48.86958,0.0],[2.32609,48.87057,0.0],[2.32663,48.87266,0.0],[2.32675,48.87314,0.0],[2.32682,48.87325,0.0],[2.32718,48.87375,0.0],[2.3271,48.87388,0.0],[2.32692,48.87418,0.0],[2.32677,48.87483,0.0],[2.32667,48.87521,0.0],[2.32664,48.87535,0.0],[2.32657,48.87558,0.0],[2.32663,48.87559,0.0],[2.32675,48.87561,0.0],[2.32685,48.87563,0.0],[2.32686,48.87602,0.0],[2.32692,48.8771,0.0],[2.32692,48.87719,0.0],[2.32695,48.87785,0.0],[2.32698,48.87872,0.0],[2.32702,48.87964,0.0],[2.32702,48.87971,0.0],[2.32705,48.88044,0.0],[2.32705,48.88052,0.0],[2.32706,48.88081,0.0],[2.32707,48.88087,0.0],[2.32708,48.88127,0.0],[2.32718,48.88333,0.0],[2.32718,48.88348,0.0],[2.32743,48.88352,0.0],[2.32783,48.88361,0.0],[2.32814,48.88371,0.0],[2.32944,48.88455,0.0],[2.33244,48.88385,0.0],[2.33328,48.88359,0.0],[2.33702,48.88247,0.0],[2.3373,48.8824,0.0],[2.33782,48.88231,0.0],[2.33959,48.88206,0.0],[2.33982,48.88202,0.0],[2.34193,48.88244,0.0],[2.34451,48.88295,0.0],[2.3467,48.88337,0.0],[2.34695,48.88342,0.0],[2.3495,48.88373,0.0],[2.34959,48.88349,0.0],[2.34962,48.88313,0.0],[2.34963,48.88307,0.0],[2.34969,48.8824,0.0],[2.3497,48.88235,0.0],[2.34983,48.88109,0.0],[2.34984,48.881,0.0],[2.34986,48.88063,0.0],[2.3498,48.88046,0.0],[2.34956,48.87978,0.0],[2.34952,48.87968,0.0],[2.34952,48.87967,0.0],[2.34948,48.87957,0.0],[2.34937,48.87929,0.0],[2.34934,48.87923,0.0],[2.34932,48.87916,0.0],[2.34929,48.87903,0.0],[2.3492,48.87855,0.0],[2.34911,48.87748,0.0],[2.34908,48.87742,0.0],[2.349,48.87727,0.0],[2.34895,48.87718,0.0],[2.34892,48.87706,0.0],[2.34868,48.87664,0.0],[2.34865,48.87657,0.0],[2.34862,48.87652,0.0],[2.34847,48.87627,0.0],[2.34839,48.87611,0.0],[2.34829,48.87591,0.0],[2.34826,48.87584,0.0],[2.34824,48.87579,0.0],[2.34807,48.87485,0.0],[2.34791,48.87402,0.0],[2.34791,48.87344,0.0],[2.34791,48.87312,0.0],[2.34791,48.87306,0.0],[2.3479,48.87251,0.0],[2.3479,48.87246,0.0],[2.3479,48.87206,0.0],[2.3479,48.872,0.0],[2.34788,48.87082,0.0],[2.34789,48.87068,0.0],[2.34768,48.87071,0.0],[2.34682,48.87087,0.0],[2.34674,48.87088,0.0],[2.3461,48.87098,0.0],[2.34598,48.871,0.0],[2.34572,48.87104,0.0],[2.34559,48.87106,0.0],[2.3432,48.87147,0.0],[2.34307,48.87149,0.0],[2.34291,48.87151,0.0],[2.34187,48.87168,0.0],[2.34161,48.87172,0.0],[2.34021,48.87195,0.0],[2.34005,48.87198,0.0],[2.33985,48.87195,0.0],[2.33916,48.87183,0.0],[2.33842,48.8717,0.0],[2.33826,48.87167,0.0],[2.33807,48.87164,0.0],[2.33767,48.87157,0.0],[2.33731,48.87151,0.0],[2.33711,48.87148,0.0],[2.3371,48.87147,0.0],[2.33701,48.87146,0.0],[2.33698,48.87145,0.0],[2.33688,48.87144,0.0],[2.33592,48.87128,0.0],[2.33493,48.87111,0.0],[2.3348,48.87108,0.0],[2.33465,48.87106,0.0],[2.33414,48.87097,0.0],[2.33398,48.87094,0.0],[2.33254,48.87069,0.0],[2.33207,48.87061,0.0],[2.33006,48.87027,0.0],[2.32977,48.87022,0.0],[2.32948,48.87017,0.0],[2.32905,48.8701,0.0],[2.32821,48.86996,0.0],[2.32799,48.86993,0.0],[2.32782,48.8699,0.0],[2.32725,48.8698,0.0],[2.32645,48.86967,0.0],[2.32593,48.86958,0.0]]]]}},{"type":"Feature","properties":{"uesi_id":"FRA_R7444","nbhd_code":"FRA_R7444_020","nbhd_name":"196479"},"geometry":{"type":"MultiPolygon","coordinates":[[[[2.37699,48.87206,0.0],[2.37702,48.87209,0.0],[2.37705,48.8721,0.0],[2.37716,48.87215,0.0],[2.37743,48.87222,0.0],[2.3775,48.87223,0.0],[2.37765,48.87227,0.0],[2.378,48.87237,0.0],[2.37809,48.87239,0.0],[2.37855,48.8725,0.0],[2.37867,48.87253,0.0],[2.3797,48.87281,0.0],[2.37982,48.87283,0.0],[2.37993,48.87285,0.0],[2.38119,48.87311,0.0],[2.3819,48.87328,0.0],[2.38258,48.8734,0.0],[2.38301,48.87347,0.0],[2.3831,48.87348,0.0],[2.38376,48.87357,0.0],[2.38445,48.87366,0.0],[2.38482,48.87373,0.0],[2.38494,48.87376,0.0],[2.38507,48.8738,0.0],[2.3853,48.87391,0.0],[2.38568,48.87411,0.0],[2.38625,48.87439,0.0],[2.38676,48.87459,0.0],[2.38685,48.87462,0.0],[2.38693,48.87464,0.0],[2.38702,48.87465,0.0],[2.38744,48.87467,0.0],[2.3877,48.87469,0.0],[2.38775,48.87469,0.0],[2.38827,48.87471,0.0],[2.3885,48.87477,0.0],[2.38892,48.87494,0.0],[2.38927,48.8751,0.0],[2.38963,48.87527,0.0],[2.38997,48.87537,0.0],[2.39058,48.87544,0.0],[2.39203,48.87547,0.0],[2.39224,48.87545,0.0],[2.39245,48.87542,0.0],[2.39257,48.87541,0.0],[2.39318,48.87535,0.0],[2.39355,48.87532,0.0],[2.3939,48.87533,0.0],[2.39393,48.87531,0.0],[2.39401,48.8753,0.0],[2.3948,48.87526,0.0],[2.39493,48.87525,0.0],[2.39507,48.87524,0.0],[2.39521,48.87524,0.0],[2.39533,48.87525,0.0],[2.39777,48.87544,0.0],[2.39792,48.87543,0.0],[2.39807,48.87544,0.0],[2.39879,48.87547,0.0],[2.39893,48.87548,0.0],[2.39921,48.87553,0.0],[2.39931,48.87555,0.0],[2.40095,48.87578,0.0],[2.40184,48.87591,0.0],[2.40258,48.87601,0.0],[2.40531,48.87681,0.0],[2.40601,48.87702,0.0],[2.40647,48.87714,0.0],[2.40692,48.87721,0.0],[2.40702,48.87723,0.0],[2.40716,48.87728,0.0],[2.40756,48.87745,0.0],[2.40795,48.87759,0.0],[2.40809,48.87763,0.0],[2.40943,48.87802,0.0],[2.41013,48.87822,0.0],[2.41084,48.87842,0.0],[2.41086,48.8784,0.0],[2.41186,48.87715,0.0],[2.41248,48.87637,0.0],[2.41284,48.87519,0.0],[2.41314,48.87412,0.0],[2.41338,48.87332,0.0],[2.41343,48.87315,0.0],[2.41357,48.87267,0.0],[2.41362,48.87245,0.0],[2.4137,48.87165,0.0],[2.41379,48.87087,0.0],[2.41382,48.87056,0.0],[2.41395,48.86929,0.0],[2.41396,48.86759,0.0],[2.41391,48.86567,0.0],[2.41389,48.86517,0.0],[2.41386,48.86407,0.0],[2.4139,48.86376,0.0],[2.41396,48.86333,0.0],[2.41406,48.86257,0.0],[2.4143,48.86108,0.0],[2.41449,48.85986,0.0],[2.41462,48.85904,0.0],[2.41471,48.85871,0.0],[2.41485,48.8578,0.0],[2.41493,48.85736,0.0],[2.41517,48.85587,0.0],[2.41527,48.85526,0.0],[2.41528,48.85518,0.0],[2.41534,48.85485,0.0],[2.41543,48.85436,0.0],[2.41546,48.85421,0.0],[2.41552,48.85393,0.0],[2.4156,48.85347,0.0],[2.41571,48.85279,0.0],[2.41581,48.85222,0.0],[2.41588,48.8518,0.0],[2.41597,48.85124,0.0],[2.41602,48.85099,0.0],[2.41604,48.85085,0.0],[2.4162,48.84989,0.0],[2.41636,48.84924,0.0],[2.41644,48.84879,0.0],[2.41641,48.84864,0.0],[2.4164,48.84862,0.0],[2.41639,48.84856,0.0],[2.41636,48.84838,0.0],[2.4163,48.84812,0.0],[2.4163,48.84808,0.0],[2.41626,48.84791,0.0],[2.41626,48.84788,0.0],[2.4162,48.84761,0.0],[2.41619,48.84757,0.0],[2.41618,48.84752,0.0],[2.41618,48.84749,0.0],[2.41616,48.8474,0.0],[2.41616,48.84738,0.0],[2.41614,48.84729,0.0],[2.41612,48.8472,0.0],[2.41607,48.84698,0.0],[2.41599,48.84661,0.0],[2.41553,48.84666,0.0],[2.4152,48.84669,0.0],[2.41405,48.84678,0.0],[2.41399,48.84679,0.0],[2.41396,48.84679,0.0],[2.41384,48.8468,0.0],[2.41133,48.84702,0.0],[2.41079,48.84707,0.0],[2.40887,48.84724,0.0],[2.40783,48.84732,0.0],[2.40631,48.84744,0.0],[2.40345,48.84772,0.0],[2.39919,48.84809,0.0],[2.39912,48.8481,0.0],[2.39927,48.84886,0.0],[2.39895,48.84978,0.0],[2.39843,48.85135,0.0],[2.39837,48.85143,0.0],[2.39717,48.85296,0.0],[2.39707,48.85308,0.0],[2.39612,48.8543,0.0],[2.39506,48.85565,0.0],[2.39444,48.85657,0.0],[2.39227,48.85769,0.0],[2.39216,48.85772,0.0],[2.39209,48.85774,0.0],[2.39044,48.85823,0.0],[2.38998,48.85837,0.0],[2.3898,48.85843,0.0],[2.38972,48.85845,0.0],[2.38963,48.8585,0.0],[2.38958,48.85853,0.0],[2.38954,48.85858,0.0],[2.38952,48.85861,0.0],[2.38896,48.85978,0.0],[2.38885,48.85999,0.0],[2.3884,48.86094,0.0],[2.38834,48.86107,0.0],[2.38752,48.86275,0.0],[2.38752,48.86276,0.0],[2.38743,48.86291,0.0],[2.3873,48.86308,0.0],[2.3872,48.86317,0.0],[2.38618,48.86407,0.0],[2.38604,48.86419,0.0],[2.38502,48.86508,0.0],[2.3849,48.86519,0.0],[2.3837,48.86623,0.0],[2.38346,48.86644,0.0],[2.38314,48.86708,0.0],[2.38308,48.86718,0.0],[2.38063,48.86901,0.0],[2.37998,48.86952,0.0],[2.37877,48.87047,0.0],[2.37798,48.8711,0.0],[2.37699,48.87206,0.0]]]]}},{"type":"Feature","properties":{"uesi_id":"FRA_R7444","nbhd_code":"FRA_R7444_014","nbhd_name":"142145"},"geometry":{"type":"MultiPolygon","coordinates":[[[[2.30132,48.82513,0.0],[2.30133,48.82518,0.0],[2.30239,48.82614,0.0],[2.30356,48.8271,0.0],[2.30678,48.82972,0.0],[2.30842,48.83099,0.0],[2.30914,48.83155,0.0],[2.30916,48.83158,0.0],[2.31029,48.83252,0.0],[2.31086,48.83299,0.0],[2.31095,48.83307,0.0],[2.31101,48.83306,0.0],[2.31185,48.83375,0.0],[2.31241,48.83419,0.0],[2.31283,48.83452,0.0],[2.31303,48.83469,0.0],[2.31308,48.83472,0.0],[2.31309,48.83472,0.0],[2.31379,48.83529,0.0],[2.31432,48.83574,0.0],[2.31511,48.83641,0.0],[2.31575,48.83694,0.0],[2.31614,48.83727,0.0],[2.31719,48.83816,0.0],[2.31995,48.84052,0.0],[2.32139,48.83979,0.0],[2.32184,48.84017,0.0],[2.32149,48.84101,0.0],[2.32252,48.84185,0.0],[2.32407,48.8431,0.0],[2.32469,48.84361,0.0],[2.32482,48.84356,0.0],[2.32637,48.84305,0.0],[2.32946,48.84202,0.0],[2.32969,48.84195,0.0],[2.33377,48.84062,0.0],[2.33673,48.83965,0.0],[2.3376,48.83942,0.0],[2.33971,48.83886,0.0],[2.34207,48.83836,0.0],[2.34206,48.83829,0.0],[2.34198,48.83762,0.0],[2.34192,48.83707,0.0],[2.34189,48.83683,0.0],[2.34189,48.83682,0.0],[2.34167,48.83539,0.0],[2.34166,48.83531,0.0],[2.3416,48.83492,0.0],[2.34159,48.83481,0.0],[2.34156,48.83468,0.0],[2.34155,48.83461,0.0],[2.34127,48.83316,0.0],[2.34125,48.83307,0.0],[2.34114,48.83249,0.0],[2.34115,48.83179,0.0],[2.34121,48.83139,0.0],[2.34126,48.83029,0.0],[2.34134,48.82941,0.0],[2.3415,48.82881,0.0],[2.34159,48.82834,0.0],[2.34162,48.82809,0.0],[2.34164,48.8278,0.0],[2.34163,48.82753,0.0],[2.34162,48.82738,0.0],[2.34162,48.82703,0.0],[2.34165,48.82655,0.0],[2.34166,48.82647,0.0],[2.34169,48.82603,0.0],[2.3416,48.8253,0.0],[2.34152,48.82463,0.0],[2.34144,48.82367,0.0],[2.34173,48.8227,0.0],[2.34204,48.8221,0.0],[2.34249,48.82146,0.0],[2.34267,48.82127,0.0],[2.34268,48.82119,0.0],[2.34388,48.82036,0.0],[2.34418,48.82003,0.0],[2.34463,48.81954,0.0],[2.34412,48.81772,0.0],[2.34409,48.81755,0.0],[2.34407,48.81738,0.0],[2.34397,48.81577,0.0],[2.3437,48.81584,0.0],[2.34305,48.81607,0.0],[2.34167,48.81634,0.0],[2.34046,48.81641,0.0],[2.34029,48.81642,0.0],[2.33953,48.81646,0.0],[2.33867,48.8165,0.0],[2.33802,48.81654,0.0],[2.33676,48.8166,0.0],[2.33605,48.81664,0.0],[2.33514,48.81669,0.0],[2.33494,48.8167,0.0],[2.33484,48.8167,0.0],[2.33382,48.81675,0.0],[2.33372,48.81676,0.0],[2.33212,48.81698,0.0],[2.33205,48.81699,0.0],[2.33196,48.81699,0.0],[2.3319,48.817,0.0],[2.33173,48.81701,0.0],[2.33209,48.81769,0.0],[2.33237,48.81821,0.0],[2.33081,48.81856,0.0],[2.32927,48.8189,0.0],[2.32746,48.8193,0.0],[2.32692,48.81942,0.0],[2.32687,48.81943,0.0],[2.3268,48.81945,0.0],[2.32666,48.81948,0.0],[2.32663,48.81948,0.0],[2.32655,48.8195,0.0],[2.32633,48.81955,0.0],[2.32627,48.81957,0.0],[2.32612,48.8196,0.0],[2.32609,48.81961,0.0],[2.32609,48.81961,0.0],[2.32594,48.81964,0.0],[2.32577,48.81968,0.0],[2.3256,48.81972,0.0],[2.32132,48.82068,0.0],[2.32116,48.82071,0.0],[2.32087,48.82077,0.0],[2.32063,48.82083,0.0],[2.31984,48.821,0.0],[2.31679,48.82168,0.0],[2.31662,48.82172,0.0],[2.31514,48.82205,0.0],[2.31473,48.82213,0.0],[2.31455,48.82217,0.0],[2.31454,48.82218,0.0],[2.31441,48.8222,0.0],[2.31436,48.82221,0.0],[2.31413,48.82226,0.0],[2.3138,48.82233,0.0],[2.31339,48.82243,0.0],[2.31339,48.82243,0.0],[2.31301,48.82251,0.0],[2.31152,48.82285,0.0],[2.31026,48.82313,0.0],[2.30842,48.82353,0.0],[2.30681,48.82389,0.0],[2.3065,48.82395,0.0],[2.30635,48.82399,0.0],[2.30584,48.82411,0.0],[2.30438,48.82444,0.0],[2.30412,48.82449,0.0],[2.30404,48.82451,0.0],[2.304,48.82452,0.0],[2.30398,48.82453,0.0],[2.3023,48.82489,0.0],[2.30178,48.82502,0.0],[2.30132,48.82513,0.0]]]]}},{"type":"Feature","properties":{"uesi_id":"FRA_R7444","nbhd_code":"FRA_R7444_016","nbhd_name":"169070"},"geometry":{"type":"MultiPolygon","coordinates":[[[[2.22412,48.8542,0.0],[2.22416,48.85462,0.0],[2.22426,48.85524,0.0],[2.22432,48.85555,0.0],[2.22437,48.85581,0.0],[2.22447,48.85623,0.0],[2.22458,48.85663,0.0],[2.22479,48.85733,0.0],[2.22488,48.85761,0.0],[2.225,48.85798,0.0],[2.22506,48.85812,0.0],[2.22512,48.85827,0.0],[2.22523,48.85852,0.0],[2.22529,48.85863,0.0],[2.22543,48.85891,0.0],[2.22569,48.85944,0.0],[2.22576,48.85973,0.0],[2.2264,48.86096,0.0],[2.2269,48.86179,0.0],[2.22729,48.86257,0.0],[2.22795,48.86433,0.0],[2.22824,48.86514,0.0],[2.22843,48.86543,0.0],[2.22865,48.86577,0.0],[2.22947,48.86673,0.0],[2.22958,48.86685,0.0],[2.23037,48.86773,0.0],[2.23123,48.86862,0.0],[2.23212,48.86955,0.0],[2.23284,48.86975,0.0],[2.23737,48.87101,0.0],[2.23967,48.87158,0.0],[2.24012,48.87172,0.0],[2.24046,48.87189,0.0],[2.24105,48.87228,0.0],[2.24336,48.87413,0.0],[2.24562,48.87636,0.0],[2.24761,48.87587,0.0],[2.24959,48.87538,0.0],[2.25481,48.87408,0.0],[2.25506,48.87415,0.0],[2.25541,48.87426,0.0],[2.25841,48.8801,0.0],[2.25846,48.88012,0.0],[2.25883,48.88026,0.0],[2.25884,48.88026,0.0],[2.25888,48.88028,0.0],[2.25889,48.88028,0.0],[2.26027,48.88011,0.0],[2.26462,48.87957,0.0],[2.27032,48.87886,0.0],[2.27073,48.87881,0.0],[2.27749,48.87796,0.0],[2.27861,48.8783,0.0],[2.27862,48.8783,0.0],[2.2798,48.87865,0.0],[2.27997,48.8786,0.0],[2.28117,48.87821,0.0],[2.2813,48.87816,0.0],[2.28335,48.87749,0.0],[2.28341,48.87747,0.0],[2.28415,48.87723,0.0],[2.28535,48.87687,0.0],[2.28899,48.8757,0.0],[2.29106,48.87504,0.0],[2.29382,48.87416,0.0],[2.29504,48.87378,0.0],[2.29617,48.87248,0.0],[2.29752,48.87093,0.0],[2.29824,48.8697,0.0],[2.29886,48.86863,0.0],[2.29891,48.86855,0.0],[2.29898,48.86832,0.0],[2.29921,48.86757,0.0],[2.29925,48.86745,0.0],[2.29928,48.86735,0.0],[2.29946,48.86674,0.0],[2.2995,48.86664,0.0],[2.29967,48.86605,0.0],[2.29978,48.86572,0.0],[2.2999,48.86533,0.0],[2.3002,48.86506,0.0],[2.30152,48.86453,0.0],[2.30159,48.86347,0.0],[2.30146,48.86347,0.0],[2.30087,48.86344,0.0],[2.30011,48.86338,0.0],[2.29927,48.86327,0.0],[2.29893,48.86321,0.0],[2.29798,48.863,0.0],[2.29743,48.86285,0.0],[2.29679,48.86264,0.0],[2.29634,48.8625,0.0],[2.29582,48.86228,0.0],[2.29516,48.86199,0.0],[2.29419,48.86152,0.0],[2.29262,48.86039,0.0],[2.29196,48.85991,0.0],[2.29177,48.85977,0.0],[2.28982,48.85823,0.0],[2.28913,48.85767,0.0],[2.28904,48.85758,0.0],[2.28894,48.85746,0.0],[2.2886,48.85697,0.0],[2.2881,48.85612,0.0],[2.28766,48.85581,0.0],[2.28754,48.85574,0.0],[2.28737,48.85564,0.0],[2.28502,48.85395,0.0],[2.28087,48.851,0.0],[2.27996,48.85036,0.0],[2.27982,48.85025,0.0],[2.27885,48.84954,0.0],[2.27779,48.84869,0.0],[2.27698,48.84805,0.0],[2.27572,48.84696,0.0],[2.27539,48.84662,0.0],[2.27365,48.84483,0.0],[2.27224,48.84341,0.0],[2.26962,48.8407,0.0],[2.26759,48.83852,0.0],[2.26517,48.83616,0.0],[2.26296,48.8339,0.0],[2.26278,48.83392,0.0],[2.26165,48.83406,0.0],[2.26117,48.83411,0.0],[2.25947,48.8343,0.0],[2.25746,48.83454,0.0],[2.25711,48.83458,0.0],[2.25684,48.83461,0.0],[2.25617,48.83469,0.0],[2.25515,48.8348,0.0],[2.2542,48.83592,0.0],[2.25409,48.83605,0.0],[2.25394,48.83623,0.0],[2.25378,48.8364,0.0],[2.25373,48.83647,0.0],[2.2535,48.83673,0.0],[2.2534,48.83685,0.0],[2.2533,48.83697,0.0],[2.25321,48.83708,0.0],[2.25301,48.83731,0.0],[2.2523,48.83814,0.0],[2.2523,48.83814,0.0],[2.25222,48.83824,0.0],[2.25209,48.83839,0.0],[2.25206,48.83843,0.0],[2.25193,48.83858,0.0],[2.25165,48.83891,0.0],[2.25161,48.83928,0.0],[2.25159,48.8394,0.0],[2.25157,48.83965,0.0],[2.25154,48.83989,0.0],[2.25153,48.84001,0.0],[2.2515,48.84033,0.0],[2.25141,48.84115,0.0],[2.25132,48.84192,0.0],[2.2513,48.84209,0.0],[2.25127,48.8424,0.0],[2.25122,48.84289,0.0],[2.25254,48.84558,0.0],[2.25096,48.84562,0.0],[2.25089,48.84562,0.0],[2.25085,48.84562,0.0],[2.25068,48.84563,0.0],[2.25054,48.84566,0.0],[2.25042,48.84569,0.0],[2.24796,48.84632,0.0],[2.24556,48.84694,0.0],[2.24247,48.84773,0.0],[2.24245,48.84773,0.0],[2.24244,48.84774,0.0],[2.24244,48.84773,0.0],[2.24241,48.84776,0.0],[2.24242,48.84776,0.0],[2.24241,48.84777,0.0],[2.24242,48.84777,0.0],[2.24241,48.84778,0.0],[2.2416,48.84849,0.0],[2.24031,48.8496,0.0],[2.24012,48.84975,0.0],[2.23995,48.84985,0.0],[2.2397,48.84998,0.0],[2.23956,48.85004,0.0],[2.23932,48.85011,0.0],[2.23908,48.85016,0.0],[2.23814,48.85037,0.0],[2.2378,48.85044,0.0],[2.2255,48.85315,0.0],[2.22417,48.85344,0.0],[2.22416,48.85348,0.0],[2.22414,48.85358,0.0],[2.22413,48.85365,0.0],[2.22413,48.85376,0.0],[2.22412,48.85387,0.0],[2.22412,48.85402,0.0],[2.22412,48.8542,0.0]]]]}},{"type":"Feature","properties":{"uesi_id":"FRA_R7444","nbhd_code":"FRA_R7444_015","nbhd_name":"239535"},"geometry":{"type":"MultiPolygon","coordinates":[[[[2.26296,48.8339,0.0],[2.26517,48.83616,0.0],[2.26759,48.83852,0.0],[2.26962,48.8407,0.0],[2.27224,48.84341,0.0],[2.27365,48.84483,0.0],[2.27539,48.84662,0.0],[2.27572,48.84696,0.0],[2.27698,48.84805,0.0],[2.27779,48.84869,0.0],[2.27885,48.84954,0.0],[2.27982,48.85025,0.0],[2.27996,48.85036,0.0],[2.28087,48.851,0.0],[2.28502,48.85395,0.0],[2.28737,48.85564,0.0],[2.28754,48.85574,0.0],[2.28766,48.85581,0.0],[2.2881,48.85612,0.0],[2.2886,48.85697,0.0],[2.28894,48.85746,0.0],[2.28904,48.85758,0.0],[2.28913,48.85767,0.0],[2.28982,48.85823,0.0],[2.29103,48.85749,0.0],[2.29191,48.85692,0.0],[2.29293,48.85627,0.0],[2.2931,48.85616,0.0],[2.29403,48.85557,0.0],[2.2947,48.85514,0.0],[2.29537,48.85471,0.0],[2.29551,48.85462,0.0],[2.29575,48.85446,0.0],[2.29662,48.8539,0.0],[2.29694,48.8537,0.0],[2.29737,48.85342,0.0],[2.29792,48.85307,0.0],[2.29835,48.85279,0.0],[2.29918,48.85227,0.0],[2.29933,48.85217,0.0],[2.30027,48.85157,0.0],[2.3009,48.85119,0.0],[2.30096,48.85123,0.0],[2.30203,48.85053,0.0],[2.30375,48.84944,0.0],[2.30377,48.84943,0.0],[2.30452,48.84893,0.0],[2.30582,48.84811,0.0],[2.30615,48.8479,0.0],[2.30723,48.84721,0.0],[2.30727,48.84719,0.0],[2.30734,48.84714,0.0],[2.30758,48.84723,0.0],[2.30761,48.84724,0.0],[2.30806,48.8474,0.0],[2.3081,48.84741,0.0],[2.30821,48.84744,0.0],[2.3083,48.84746,0.0],[2.30882,48.84758,0.0],[2.30897,48.84761,0.0],[2.30954,48.84775,0.0],[2.31023,48.84792,0.0],[2.31033,48.84794,0.0],[2.31053,48.84799,0.0],[2.31054,48.84798,0.0],[2.3116,48.8473,0.0],[2.31209,48.84698,0.0],[2.31373,48.84593,0.0],[2.31385,48.84597,0.0],[2.31424,48.84609,0.0],[2.31433,48.84612,0.0],[2.31537,48.84644,0.0],[2.31611,48.84667,0.0],[2.31657,48.84682,0.0],[2.31716,48.84653,0.0],[2.31752,48.84634,0.0],[2.31788,48.84615,0.0],[2.31915,48.84551,0.0],[2.3202,48.84511,0.0],[2.32107,48.84482,0.0],[2.32273,48.84427,0.0],[2.32469,48.84361,0.0],[2.32407,48.8431,0.0],[2.32252,48.84185,0.0],[2.32149,48.84101,0.0],[2.32184,48.84017,0.0],[2.32139,48.83979,0.0],[2.31995,48.84052,0.0],[2.31719,48.83816,0.0],[2.31614,48.83727,0.0],[2.31575,48.83694,0.0],[2.31511,48.83641,0.0],[2.31432,48.83574,0.0],[2.31379,48.83529,0.0],[2.31309,48.83472,0.0],[2.31308,48.83472,0.0],[2.31303,48.83469,0.0],[2.31283,48.83452,0.0],[2.31241,48.83419,0.0],[2.31185,48.83375,0.0],[2.31101,48.83306,0.0],[2.31095,48.83307,0.0],[2.31086,48.83299,0.0],[2.31029,48.83252,0.0],[2.30916,48.83158,0.0],[2.30914,48.83155,0.0],[2.30842,48.83099,0.0],[2.30678,48.82972,0.0],[2.30356,48.8271,0.0],[2.30239,48.82614,0.0],[2.30133,48.82518,0.0],[2.30132,48.82513,0.0],[2.29765,48.82591,0.0],[2.29423,48.82669,0.0],[2.29236,48.82711,0.0],[2.29222,48.82714,0.0],[2.2909,48.82769,0.0],[2.28939,48.82832,0.0],[2.28547,48.82998,0.0],[2.28336,48.83086,0.0],[2.28049,48.83192,0.0],[2.27902,48.83246,0.0],[2.27633,48.83023,0.0],[2.27576,48.82972,0.0],[2.2734,48.82832,0.0],[2.27274,48.82796,0.0],[2.27271,48.82795,0.0],[2.26781,48.82785,0.0],[2.26778,48.82786,0.0],[2.2676,48.82797,0.0],[2.2673,48.83156,0.0],[2.26967,48.83281,0.0],[2.27003,48.83301,0.0],[2.26998,48.83304,0.0],[2.26995,48.83307,0.0],[2.26991,48.8331,0.0],[2.26888,48.83381,0.0],[2.26837,48.83421,0.0],[2.26795,48.83458,0.0],[2.26747,48.83463,0.0],[2.26692,48.83452,0.0],[2.26618,48.83445,0.0],[2.26492,48.83423,0.0],[2.26437,48.83414,0.0],[2.26296,48.8339,0.0]]]]}},{"type":"Feature","properties":{"uesi_id":"FRA_R7444","nbhd_code":"FRA_R7444_001","nbhd_name":"17165"},"geometry":{"type":"MultiPolygon","coordinates":[[[[2.3209,48.86306,0.0],[2.32128,48.86354,0.0],[2.32157,48.86392,0.0],[2.32211,48.86461,0.0],[2.32246,48.86505,0.0],[2.32255,48.86517,0.0],[2.32272,48.86539,0.0],[2.32333,48.86618,0.0],[2.32347,48.86639,0.0],[2.32357,48.8665,0.0],[2.32353,48.86651,0.0],[2.32455,48.86788,0.0],[2.32459,48.86794,0.0],[2.32463,48.868,0.0],[2.32526,48.86893,0.0],[2.32532,48.86901,0.0],[2.32517,48.8694,0.0],[2.32514,48.86946,0.0],[2.32593,48.86958,0.0],[2.32645,48.86967,0.0],[2.32725,48.8698,0.0],[2.32782,48.8699,0.0],[2.32799,48.86993,0.0],[2.32814,48.86982,0.0],[2.32823,48.86976,0.0],[2.32877,48.86937,0.0],[2.32942,48.8689,0.0],[2.32996,48.86852,0.0],[2.33018,48.86841,0.0],[2.33031,48.86835,0.0],[2.33042,48.8683,0.0],[2.33066,48.86819,0.0],[2.33173,48.86796,0.0],[2.3322,48.86785,0.0],[2.3323,48.86783,0.0],[2.33236,48.86781,0.0],[2.33343,48.86756,0.0],[2.33367,48.86751,0.0],[2.33383,48.86747,0.0],[2.3346,48.8673,0.0],[2.33467,48.86728,0.0],[2.3351,48.86718,0.0],[2.33525,48.86714,0.0],[2.33532,48.86713,0.0],[2.33579,48.86702,0.0],[2.33587,48.867,0.0],[2.33588,48.86699,0.0],[2.33593,48.86698,0.0],[2.33656,48.86682,0.0],[2.33735,48.86664,0.0],[2.33858,48.86636,0.0],[2.33867,48.86634,0.0],[2.33873,48.86633,0.0],[2.33906,48.86625,0.0],[2.33927,48.8662,0.0],[2.33945,48.86616,0.0],[2.33959,48.86612,0.0],[2.33965,48.86611,0.0],[2.33977,48.86608,0.0],[2.33999,48.86603,0.0],[2.34069,48.86586,0.0],[2.34087,48.86582,0.0],[2.34118,48.86575,0.0],[2.34149,48.86568,0.0],[2.34163,48.86564,0.0],[2.34256,48.86541,0.0],[2.34294,48.86533,0.0],[2.34309,48.86529,0.0],[2.34321,48.86526,0.0],[2.34383,48.86511,0.0],[2.34406,48.86506,0.0],[2.34483,48.86487,0.0],[2.34505,48.86482,0.0],[2.34531,48.86475,0.0],[2.34534,48.86475,0.0],[2.34667,48.86443,0.0],[2.34761,48.86421,0.0],[2.34863,48.86396,0.0],[2.34877,48.86393,0.0],[2.34906,48.86386,0.0],[2.34914,48.86384,0.0],[2.34937,48.86378,0.0],[2.34994,48.86365,0.0],[2.35007,48.86362,0.0],[2.35078,48.86345,0.0],[2.35093,48.86341,0.0],[2.35095,48.86341,0.0],[2.35067,48.86294,0.0],[2.3504,48.86246,0.0],[2.35016,48.86199,0.0],[2.34955,48.86091,0.0],[2.34879,48.85954,0.0],[2.34833,48.85872,0.0],[2.3482,48.85849,0.0],[2.3481,48.8583,0.0],[2.34784,48.85784,0.0],[2.34778,48.85772,0.0],[2.34772,48.85763,0.0],[2.34757,48.85736,0.0],[2.34756,48.85734,0.0],[2.34754,48.85732,0.0],[2.34727,48.8572,0.0],[2.34719,48.85716,0.0],[2.34714,48.85713,0.0],[2.34706,48.85709,0.0],[2.34702,48.85704,0.0],[2.34699,48.85701,0.0],[2.34652,48.85626,0.0],[2.34651,48.85625,0.0],[2.34648,48.85619,0.0],[2.34621,48.85576,0.0],[2.34613,48.85564,0.0],[2.34607,48.85554,0.0],[2.34591,48.85532,0.0],[2.34586,48.85527,0.0],[2.34578,48.85519,0.0],[2.34566,48.85506,0.0],[2.34499,48.85443,0.0],[2.34482,48.85427,0.0],[2.34459,48.85405,0.0],[2.34443,48.85413,0.0],[2.34424,48.85419,0.0],[2.34402,48.85429,0.0],[2.34284,48.85487,0.0],[2.34269,48.855,0.0],[2.34192,48.85564,0.0],[2.34096,48.85647,0.0],[2.34073,48.85664,0.0],[2.34064,48.85669,0.0],[2.33951,48.8573,0.0],[2.339,48.85757,0.0],[2.33995,48.85823,0.0],[2.3377,48.8587,0.0],[2.33763,48.85858,0.0],[2.33757,48.85859,0.0],[2.33747,48.8584,0.0],[2.33661,48.85858,0.0],[2.33314,48.8593,0.0],[2.33291,48.85935,0.0],[2.3327,48.8594,0.0],[2.33175,48.85965,0.0],[2.33003,48.8601,0.0],[2.32982,48.86016,0.0],[2.3295,48.86026,0.0],[2.32833,48.86073,0.0],[2.32715,48.86112,0.0],[2.32611,48.86148,0.0],[2.32512,48.86177,0.0],[2.3233,48.86232,0.0],[2.3209,48.86306,0.0]]]]}},{"type":"Feature","properties":{"uesi_id":"FRA_R7444","nbhd_code":"FRA_R7444_007","nbhd_name":"57372"},"geometry":{"type":"MultiPolygon","coordinates":[[[[2.28982,48.85823,0.0],[2.29177,48.85977,0.0],[2.29196,48.85991,0.0],[2.29262,48.86039,0.0],[2.29419,48.86152,0.0],[2.29516,48.86199,0.0],[2.29582,48.86228,0.0],[2.29634,48.8625,0.0],[2.29679,48.86264,0.0],[2.29743,48.86285,0.0],[2.29798,48.863,0.0],[2.29893,48.86321,0.0],[2.29927,48.86327,0.0],[2.30011,48.86338,0.0],[2.30087,48.86344,0.0],[2.30146,48.86347,0.0],[2.30159,48.86347,0.0],[2.30204,48.86348,0.0],[2.31039,48.86363,0.0],[2.31574,48.86372,0.0],[2.31854,48.86378,0.0],[2.31873,48.86375,0.0],[2.31942,48.86353,0.0],[2.31987,48.86339,0.0],[2.3209,48.86306,0.0],[2.3233,48.86232,0.0],[2.32512,48.86177,0.0],[2.32611,48.86148,0.0],[2.32715,48.86112,0.0],[2.32833,48.86073,0.0],[2.3295,48.86026,0.0],[2.32982,48.86016,0.0],[2.33003,48.8601,0.0],[2.33175,48.85965,0.0],[2.3327,48.8594,0.0],[2.33291,48.85935,0.0],[2.33266,48.85889,0.0],[2.33262,48.85882,0.0],[2.33259,48.85877,0.0],[2.33245,48.85851,0.0],[2.3329,48.85838,0.0],[2.33327,48.85827,0.0],[2.33322,48.85821,0.0],[2.33276,48.85763,0.0],[2.33228,48.85705,0.0],[2.33192,48.8566,0.0],[2.33168,48.85631,0.0],[2.33121,48.85571,0.0],[2.33078,48.85511,0.0],[2.33046,48.85448,0.0],[2.32942,48.85279,0.0],[2.32938,48.85273,0.0],[2.3293,48.85261,0.0],[2.32842,48.85183,0.0],[2.32788,48.85174,0.0],[2.32719,48.85162,0.0],[2.32687,48.85141,0.0],[2.32663,48.85126,0.0],[2.32527,48.8507,0.0],[2.32461,48.85043,0.0],[2.32414,48.85023,0.0],[2.32329,48.84983,0.0],[2.32205,48.8492,0.0],[2.32064,48.84847,0.0],[2.32054,48.84842,0.0],[2.32018,48.84823,0.0],[2.31974,48.84802,0.0],[2.31968,48.84799,0.0],[2.31942,48.84787,0.0],[2.31908,48.84773,0.0],[2.31819,48.84739,0.0],[2.31686,48.84693,0.0],[2.31657,48.84682,0.0],[2.31611,48.84667,0.0],[2.31537,48.84644,0.0],[2.31433,48.84612,0.0],[2.31424,48.84609,0.0],[2.31385,48.84597,0.0],[2.31373,48.84593,0.0],[2.31209,48.84698,0.0],[2.3116,48.8473,0.0],[2.31054,48.84798,0.0],[2.31053,48.84799,0.0],[2.31033,48.84794,0.0],[2.31023,48.84792,0.0],[2.30954,48.84775,0.0],[2.30897,48.84761,0.0],[2.30882,48.84758,0.0],[2.3083,48.84746,0.0],[2.30821,48.84744,0.0],[2.3081,48.84741,0.0],[2.30806,48.8474,0.0],[2.30761,48.84724,0.0],[2.30758,48.84723,0.0],[2.30734,48.84714,0.0],[2.30727,48.84719,0.0],[2.30723,48.84721,0.0],[2.30615,48.8479,0.0],[2.30582,48.84811,0.0],[2.30452,48.84893,0.0],[2.30377,48.84943,0.0],[2.30375,48.84944,0.0],[2.30203,48.85053,0.0],[2.30096,48.85123,0.0],[2.3009,48.85119,0.0],[2.30027,48.85157,0.0],[2.29933,48.85217,0.0],[2.29918,48.85227,0.0],[2.29835,48.85279,0.0],[2.29792,48.85307,0.0],[2.29737,48.85342,0.0],[2.29694,48.8537,0.0],[2.29662,48.8539,0.0],[2.29575,48.85446,0.0],[2.29551,48.85462,0.0],[2.29537,48.85471,0.0],[2.2947,48.85514,0.0],[2.29403,48.85557,0.0],[2.2931,48.85616,0.0],[2.29293,48.85627,0.0],[2.29191,48.85692,0.0],[2.29103,48.85749,0.0],[2.28982,48.85823,0.0]]]]}},{"type":"Feature","properties":{"uesi_id":"FRA_R7444","nbhd_code":"FRA_R7444_019","nbhd_name":"187550"},"geometry":{"type":"MultiPolygon","coordinates":[[[[2.36469,48.88437,0.0],[2.36579,48.88554,0.0],[2.36622,48.88601,0.0],[2.36651,48.88633,0.0],[2.36656,48.88639,0.0],[2.36673,48.8866,0.0],[2.36678,48.88672,0.0],[2.36683,48.88685,0.0],[2.36696,48.88712,0.0],[2.36706,48.88732,0.0],[2.36757,48.88863,0.0],[2.36759,48.8887,0.0],[2.36807,48.8896,0.0],[2.36812,48.88968,0.0],[2.36814,48.88972,0.0],[2.36816,48.88977,0.0],[2.36817,48.8898,0.0],[2.3688,48.89122,0.0],[2.36901,48.89166,0.0],[2.36949,48.89267,0.0],[2.36961,48.89292,0.0],[2.36986,48.89353,0.0],[2.37006,48.89406,0.0],[2.37011,48.89419,0.0],[2.37042,48.89452,0.0],[2.37052,48.89464,0.0],[2.37081,48.89485,0.0],[2.37134,48.89517,0.0],[2.37179,48.89542,0.0],[2.37175,48.89545,0.0],[2.3714,48.89573,0.0],[2.3713,48.8958,0.0],[2.37126,48.89592,0.0],[2.37063,48.89643,0.0],[2.37039,48.89663,0.0],[2.37037,48.89694,0.0],[2.37036,48.89729,0.0],[2.37033,48.8977,0.0],[2.37031,48.89816,0.0],[2.37026,48.8993,0.0],[2.37024,48.89994,0.0],[2.37022,48.90039,0.0],[2.37021,48.90089,0.0],[2.37017,48.90143,0.0],[2.37016,48.90154,0.0],[2.37017,48.90158,0.0],[2.37017,48.90162,0.0],[2.37019,48.90166,0.0],[2.37023,48.90176,0.0],[2.37029,48.90186,0.0],[2.37155,48.90189,0.0],[2.37598,48.90198,0.0],[2.379,48.90205,0.0],[2.38443,48.90216,0.0],[2.38619,48.90183,0.0],[2.38724,48.90163,0.0],[2.3887,48.90135,0.0],[2.38932,48.90113,0.0],[2.39086,48.90089,0.0],[2.39374,48.89927,0.0],[2.39553,48.89826,0.0],[2.39603,48.89745,0.0],[2.39644,48.89678,0.0],[2.39693,48.89598,0.0],[2.39773,48.89465,0.0],[2.39776,48.89459,0.0],[2.39805,48.89356,0.0],[2.39808,48.89344,0.0],[2.39812,48.89328,0.0],[2.39829,48.89263,0.0],[2.39862,48.89134,0.0],[2.39876,48.89036,0.0],[2.39896,48.88955,0.0],[2.39917,48.88832,0.0],[2.39919,48.88823,0.0],[2.39919,48.88767,0.0],[2.39919,48.88763,0.0],[2.39919,48.88758,0.0],[2.39919,48.88754,0.0],[2.3992,48.8869,0.0],[2.3992,48.88671,0.0],[2.3992,48.88654,0.0],[2.39921,48.88635,0.0],[2.39921,48.88633,0.0],[2.39921,48.88629,0.0],[2.39921,48.88624,0.0],[2.39921,48.88587,0.0],[2.39921,48.88585,0.0],[2.39923,48.88537,0.0],[2.39924,48.88489,0.0],[2.40007,48.88382,0.0],[2.40046,48.8835,0.0],[2.40147,48.88261,0.0],[2.40379,48.88145,0.0],[2.40461,48.88122,0.0],[2.40718,48.88051,0.0],[2.40831,48.88039,0.0],[2.40838,48.88038,0.0],[2.40929,48.88028,0.0],[2.41084,48.87842,0.0],[2.41013,48.87822,0.0],[2.40943,48.87802,0.0],[2.40809,48.87763,0.0],[2.40795,48.87759,0.0],[2.40756,48.87745,0.0],[2.40716,48.87728,0.0],[2.40702,48.87723,0.0],[2.40692,48.87721,0.0],[2.40647,48.87714,0.0],[2.40601,48.87702,0.0],[2.40531,48.87681,0.0],[2.40258,48.87601,0.0],[2.40184,48.87591,0.0],[2.40095,48.87578,0.0],[2.39931,48.87555,0.0],[2.39921,48.87553,0.0],[2.39893,48.87548,0.0],[2.39879,48.87547,0.0],[2.39807,48.87544,0.0],[2.39792,48.87543,0.0],[2.39777,48.87544,0.0],[2.39533,48.87525,0.0],[2.39521,48.87524,0.0],[2.39507,48.87524,0.0],[2.39493,48.87525,0.0],[2.3948,48.87526,0.0],[2.39401,48.8753,0.0],[2.39393,48.87531,0.0],[2.3939,48.87533,0.0],[2.39355,48.87532,0.0],[2.39318,48.87535,0.0],[2.39257,48.87541,0.0],[2.39245,48.87542,0.0],[2.39224,48.87545,0.0],[2.39203,48.87547,0.0],[2.39058,48.87544,0.0],[2.38997,48.87537,0.0],[2.38963,48.87527,0.0],[2.38927,48.8751,0.0],[2.38892,48.87494,0.0],[2.3885,48.87477,0.0],[2.38827,48.87471,0.0],[2.38775,48.87469,0.0],[2.3877,48.87469,0.0],[2.38744,48.87467,0.0],[2.38702,48.87465,0.0],[2.38693,48.87464,0.0],[2.38685,48.87462,0.0],[2.38676,48.87459,0.0],[2.38625,48.87439,0.0],[2.38568,48.87411,0.0],[2.3853,48.87391,0.0],[2.38507,48.8738,0.0],[2.38494,48.87376,0.0],[2.38482,48.87373,0.0],[2.38445,48.87366,0.0],[2.38376,48.87357,0.0],[2.3831,48.87348,0.0],[2.38301,48.87347,0.0],[2.38258,48.8734,0.0],[2.3819,48.87328,0.0],[2.38119,48.87311,0.0],[2.37993,48.87285,0.0],[2.37982,48.87283,0.0],[2.3797,48.87281,0.0],[2.37867,48.87253,0.0],[2.37855,48.8725,0.0],[2.37809,48.87239,0.0],[2.378,48.87237,0.0],[2.37765,48.87227,0.0],[2.3775,48.87223,0.0],[2.37743,48.87222,0.0],[2.37716,48.87215,0.0],[2.37705,48.8721,0.0],[2.37702,48.87209,0.0],[2.37699,48.87206,0.0],[2.3751,48.87377,0.0],[2.37478,48.87405,0.0],[2.37365,48.87504,0.0],[2.37239,48.87615,0.0],[2.37209,48.87641,0.0],[2.37091,48.87744,0.0],[2.37047,48.87783,0.0],[2.37028,48.87799,0.0],[2.37028,48.87836,0.0],[2.37027,48.87847,0.0],[2.37028,48.87857,0.0],[2.37029,48.88023,0.0],[2.3703,48.88132,0.0],[2.37024,48.88152,0.0],[2.37023,48.88242,0.0],[2.37022,48.88248,0.0],[2.37022,48.88266,0.0],[2.37022,48.88268,0.0],[2.37019,48.88272,0.0],[2.37015,48.88276,0.0],[2.37013,48.88277,0.0],[2.37005,48.88281,0.0],[2.37002,48.88283,0.0],[2.36984,48.88291,0.0],[2.36966,48.88298,0.0],[2.36956,48.88302,0.0],[2.36936,48.88312,0.0],[2.36925,48.88319,0.0],[2.36918,48.88325,0.0],[2.36911,48.88332,0.0],[2.36904,48.8834,0.0],[2.36896,48.88352,0.0],[2.36891,48.88362,0.0],[2.36891,48.88363,0.0],[2.36886,48.88377,0.0],[2.36883,48.88383,0.0],[2.36881,48.88386,0.0],[2.36879,48.88388,0.0],[2.36877,48.88391,0.0],[2.36874,48.88393,0.0],[2.3687,48.88396,0.0],[2.36868,48.88397,0.0],[2.36866,48.88399,0.0],[2.36852,48.88405,0.0],[2.36846,48.88407,0.0],[2.36837,48.88409,0.0],[2.36831,48.88411,0.0],[2.36811,48.88415,0.0],[2.36786,48.88416,0.0],[2.36758,48.88418,0.0],[2.36748,48.88419,0.0],[2.36689,48.88422,0.0],[2.36678,48.88423,0.0],[2.36676,48.88423,0.0],[2.36647,48.88425,0.0],[2.36594,48.88429,0.0],[2.36485,48.88436,0.0],[2.36469,48.88437,0.0]]]]}},{"type":"Feature","properties":{"uesi_id":"FRA_R7444","nbhd_code":"FRA_R7444_018","nbhd_name":"200915"},"geometry":{"type":"MultiPolygon","coordinates":[[[[2.32559,48.8875,0.0],[2.32576,48.88802,0.0],[2.32586,48.88834,0.0],[2.32592,48.88853,0.0],[2.32613,48.88913,0.0],[2.32628,48.88959,0.0],[2.32632,48.88973,0.0],[2.32647,48.89015,0.0],[2.32656,48.89041,0.0],[2.32661,48.89057,0.0],[2.32665,48.8907,0.0],[2.32687,48.89131,0.0],[2.32697,48.89161,0.0],[2.32746,48.89304,0.0],[2.32758,48.89338,0.0],[2.32781,48.89404,0.0],[2.32812,48.89493,0.0],[2.32822,48.89522,0.0],[2.32829,48.89543,0.0],[2.32833,48.89555,0.0],[2.3284,48.89574,0.0],[2.32844,48.89587,0.0],[2.32854,48.89618,0.0],[2.32869,48.89659,0.0],[2.3288,48.89696,0.0],[2.32895,48.8975,0.0],[2.32902,48.89772,0.0],[2.32907,48.89787,0.0],[2.32948,48.899,0.0],[2.33015,48.90095,0.0],[2.33018,48.90103,0.0],[2.33461,48.90114,0.0],[2.33463,48.90114,0.0],[2.33469,48.90114,0.0],[2.33472,48.90114,0.0],[2.33483,48.90114,0.0],[2.33511,48.90115,0.0],[2.33527,48.90115,0.0],[2.33538,48.90115,0.0],[2.33543,48.90115,0.0],[2.33549,48.90116,0.0],[2.33551,48.90116,0.0],[2.33562,48.90116,0.0],[2.33565,48.90116,0.0],[2.33583,48.90116,0.0],[2.33603,48.90117,0.0],[2.33606,48.90117,0.0],[2.33617,48.90117,0.0],[2.33637,48.90118,0.0],[2.33654,48.90118,0.0],[2.3366,48.90118,0.0],[2.33671,48.90118,0.0],[2.33672,48.90118,0.0],[2.33676,48.90118,0.0],[2.33697,48.90119,0.0],[2.33714,48.90119,0.0],[2.33714,48.90119,0.0],[2.33727,48.9012,0.0],[2.34411,48.90133,0.0],[2.34806,48.90141,0.0],[2.35195,48.90149,0.0],[2.35198,48.90149,0.0],[2.3531,48.90151,0.0],[2.3551,48.90153,0.0],[2.35784,48.90161,0.0],[2.35885,48.90162,0.0],[2.36151,48.90168,0.0],[2.36171,48.90168,0.0],[2.36199,48.90169,0.0],[2.36561,48.90176,0.0],[2.3701,48.90185,0.0],[2.37029,48.90186,0.0],[2.37023,48.90176,0.0],[2.37019,48.90166,0.0],[2.37017,48.90162,0.0],[2.37017,48.90158,0.0],[2.37016,48.90154,0.0],[2.37017,48.90143,0.0],[2.37021,48.90089,0.0],[2.37022,48.90039,0.0],[2.37024,48.89994,0.0],[2.37026,48.8993,0.0],[2.37031,48.89816,0.0],[2.37033,48.8977,0.0],[2.37036,48.89729,0.0],[2.37037,48.89694,0.0],[2.37039,48.89663,0.0],[2.37063,48.89643,0.0],[2.37126,48.89592,0.0],[2.3713,48.8958,0.0],[2.3714,48.89573,0.0],[2.37175,48.89545,0.0],[2.37179,48.89542,0.0],[2.37134,48.89517,0.0],[2.37081,48.89485,0.0],[2.37052,48.89464,0.0],[2.37042,48.89452,0.0],[2.37011,48.89419,0.0],[2.37006,48.89406,0.0],[2.36986,48.89353,0.0],[2.36961,48.89292,0.0],[2.36949,48.89267,0.0],[2.36901,48.89166,0.0],[2.3688,48.89122,0.0],[2.36817,48.8898,0.0],[2.36816,48.88977,0.0],[2.36814,48.88972,0.0],[2.36812,48.88968,0.0],[2.36807,48.8896,0.0],[2.36759,48.8887,0.0],[2.36757,48.88863,0.0],[2.36706,48.88732,0.0],[2.36696,48.88712,0.0],[2.36683,48.88685,0.0],[2.36678,48.88672,0.0],[2.36673,48.8866,0.0],[2.36656,48.88639,0.0],[2.36651,48.88633,0.0],[2.36622,48.88601,0.0],[2.36579,48.88554,0.0],[2.36469,48.88437,0.0],[2.36433,48.88439,0.0],[2.36392,48.88439,0.0],[2.36254,48.88441,0.0],[2.36144,48.88441,0.0],[2.36091,48.88442,0.0],[2.36028,48.88442,0.0],[2.35986,48.88442,0.0],[2.35932,48.88443,0.0],[2.35912,48.88442,0.0],[2.35825,48.88437,0.0],[2.35722,48.88429,0.0],[2.35617,48.88422,0.0],[2.35542,48.88417,0.0],[2.35382,48.88406,0.0],[2.3525,48.88396,0.0],[2.35066,48.88381,0.0],[2.35039,48.88379,0.0],[2.3503,48.88378,0.0],[2.35015,48.88377,0.0],[2.35003,48.88376,0.0],[2.3495,48.88373,0.0],[2.34695,48.88342,0.0],[2.3467,48.88337,0.0],[2.34451,48.88295,0.0],[2.34193,48.88244,0.0],[2.33982,48.88202,0.0],[2.33959,48.88206,0.0],[2.33782,48.88231,0.0],[2.3373,48.8824,0.0],[2.33702,48.88247,0.0],[2.33328,48.88359,0.0],[2.33244,48.88385,0.0],[2.32944,48.88455,0.0],[2.32814,48.88371,0.0],[2.32783,48.88361,0.0],[2.32743,48.88352,0.0],[2.32736,48.88365,0.0],[2.32724,48.88394,0.0],[2.32695,48.88455,0.0],[2.32677,48.88494,0.0],[2.32672,48.88504,0.0],[2.32658,48.88536,0.0],[2.32636,48.88582,0.0],[2.32612,48.88632,0.0],[2.32599,48.88659,0.0],[2.32592,48.88676,0.0],[2.32574,48.88716,0.0],[2.32559,48.8875,0.0]]]]}},{"type":"Feature","properties":{"uesi_id":"FRA_R7444","nbhd_code":"FRA_R7444_006","nbhd_name":"44458"},"geometry":{"type":"MultiPolygon","coordinates":[[[[2.31657,48.84682,0.0],[2.31686,48.84693,0.0],[2.31819,48.84739,0.0],[2.31908,48.84773,0.0],[2.31942,48.84787,0.0],[2.31968,48.84799,0.0],[2.31974,48.84802,0.0],[2.32018,48.84823,0.0],[2.32054,48.84842,0.0],[2.32064,48.84847,0.0],[2.32205,48.8492,0.0],[2.32329,48.84983,0.0],[2.32414,48.85023,0.0],[2.32461,48.85043,0.0],[2.32527,48.8507,0.0],[2.32663,48.85126,0.0],[2.32687,48.85141,0.0],[2.32719,48.85162,0.0],[2.32788,48.85174,0.0],[2.32842,48.85183,0.0],[2.3293,48.85261,0.0],[2.32938,48.85273,0.0],[2.32942,48.85279,0.0],[2.33046,48.85448,0.0],[2.33078,48.85511,0.0],[2.33121,48.85571,0.0],[2.33168,48.85631,0.0],[2.33192,48.8566,0.0],[2.33228,48.85705,0.0],[2.33276,48.85763,0.0],[2.33322,48.85821,0.0],[2.33327,48.85827,0.0],[2.3329,48.85838,0.0],[2.33245,48.85851,0.0],[2.33259,48.85877,0.0],[2.33262,48.85882,0.0],[2.33266,48.85889,0.0],[2.33291,48.85935,0.0],[2.33314,48.8593,0.0],[2.33661,48.85858,0.0],[2.33747,48.8584,0.0],[2.33757,48.85859,0.0],[2.33763,48.85858,0.0],[2.3377,48.8587,0.0],[2.33995,48.85823,0.0],[2.339,48.85757,0.0],[2.33951,48.8573,0.0],[2.34064,48.85669,0.0],[2.34073,48.85664,0.0],[2.34096,48.85647,0.0],[2.34192,48.85564,0.0],[2.34269,48.855,0.0],[2.34284,48.85487,0.0],[2.34402,48.85429,0.0],[2.34424,48.85419,0.0],[2.34443,48.85413,0.0],[2.34459,48.85405,0.0],[2.34439,48.85387,0.0],[2.34429,48.85377,0.0],[2.34414,48.85344,0.0],[2.34409,48.85333,0.0],[2.34397,48.85308,0.0],[2.34383,48.85277,0.0],[2.34378,48.8527,0.0],[2.34339,48.85186,0.0],[2.34335,48.85176,0.0],[2.34317,48.8514,0.0],[2.3431,48.85124,0.0],[2.3428,48.85063,0.0],[2.34267,48.85036,0.0],[2.34265,48.85031,0.0],[2.34184,48.84897,0.0],[2.3418,48.84891,0.0],[2.34176,48.84884,0.0],[2.34168,48.84872,0.0],[2.34167,48.84869,0.0],[2.34147,48.84837,0.0],[2.34104,48.84767,0.0],[2.34097,48.84757,0.0],[2.34092,48.84749,0.0],[2.34083,48.84735,0.0],[2.34068,48.84705,0.0],[2.34056,48.84682,0.0],[2.3405,48.84671,0.0],[2.34046,48.84664,0.0],[2.34025,48.84628,0.0],[2.33865,48.84337,0.0],[2.33818,48.8425,0.0],[2.33777,48.84175,0.0],[2.33773,48.84168,0.0],[2.33741,48.84112,0.0],[2.33733,48.84098,0.0],[2.33727,48.84089,0.0],[2.33722,48.84083,0.0],[2.33718,48.8408,0.0],[2.33712,48.84076,0.0],[2.33703,48.84073,0.0],[2.33698,48.84071,0.0],[2.33692,48.8407,0.0],[2.33686,48.8407,0.0],[2.33679,48.8407,0.0],[2.33673,48.83965,0.0],[2.33377,48.84062,0.0],[2.32969,48.84195,0.0],[2.32946,48.84202,0.0],[2.32637,48.84305,0.0],[2.32482,48.84356,0.0],[2.32469,48.84361,0.0],[2.32273,48.84427,0.0],[2.32107,48.84482,0.0],[2.3202,48.84511,0.0],[2.31915,48.84551,0.0],[2.31788,48.84615,0.0],[2.31752,48.84634,0.0],[2.31716,48.84653,0.0],[2.31657,48.84682,0.0]]]]}},{"type":"Feature","properties":{"uesi_id":"FRA_R7444","nbhd_code":"FRA_R7444_008","nbhd_name":"39802"},"geometry":{"type":"MultiPolygon","coordinates":[[[[2.29504,48.87378,0.0],[2.29544,48.87433,0.0],[2.29574,48.87475,0.0],[2.29601,48.87512,0.0],[2.29616,48.87533,0.0],[2.29624,48.87544,0.0],[2.29654,48.87585,0.0],[2.29686,48.87629,0.0],[2.29718,48.87673,0.0],[2.29758,48.87727,0.0],[2.29786,48.87766,0.0],[2.29796,48.87781,0.0],[2.29816,48.87808,0.0],[2.2989,48.87824,0.0],[2.30085,48.87866,0.0],[2.30177,48.87886,0.0],[2.30241,48.879,0.0],[2.30309,48.87914,0.0],[2.30311,48.87915,0.0],[2.30498,48.87955,0.0],[2.30535,48.87963,0.0],[2.3086,48.88032,0.0],[2.30914,48.88042,0.0],[2.30991,48.88051,0.0],[2.31164,48.88072,0.0],[2.31203,48.88076,0.0],[2.31253,48.88083,0.0],[2.31389,48.88099,0.0],[2.31529,48.88117,0.0],[2.3165,48.88132,0.0],[2.31666,48.88133,0.0],[2.32718,48.88348,0.0],[2.32718,48.88333,0.0],[2.32708,48.88127,0.0],[2.32707,48.88087,0.0],[2.32706,48.88081,0.0],[2.32705,48.88052,0.0],[2.32705,48.88044,0.0],[2.32702,48.87971,0.0],[2.32702,48.87964,0.0],[2.32698,48.87872,0.0],[2.32695,48.87785,0.0],[2.32692,48.87719,0.0],[2.32692,48.8771,0.0],[2.32686,48.87602,0.0],[2.32685,48.87563,0.0],[2.32675,48.87561,0.0],[2.32663,48.87559,0.0],[2.32657,48.87558,0.0],[2.32664,48.87535,0.0],[2.32667,48.87521,0.0],[2.32677,48.87483,0.0],[2.32692,48.87418,0.0],[2.3271,48.87388,0.0],[2.32718,48.87375,0.0],[2.32682,48.87325,0.0],[2.32675,48.87314,0.0],[2.32663,48.87266,0.0],[2.32609,48.87057,0.0],[2.32593,48.86958,0.0],[2.32514,48.86946,0.0],[2.32517,48.8694,0.0],[2.32532,48.86901,0.0],[2.32526,48.86893,0.0],[2.32463,48.868,0.0],[2.32459,48.86794,0.0],[2.32455,48.86788,0.0],[2.32353,48.86651,0.0],[2.32357,48.8665,0.0],[2.32347,48.86639,0.0],[2.32333,48.86618,0.0],[2.32272,48.86539,0.0],[2.32255,48.86517,0.0],[2.32246,48.86505,0.0],[2.32211,48.86461,0.0],[2.32157,48.86392,0.0],[2.32128,48.86354,0.0],[2.3209,48.86306,0.0],[2.31987,48.86339,0.0],[2.31942,48.86353,0.0],[2.31873,48.86375,0.0],[2.31854,48.86378,0.0],[2.31574,48.86372,0.0],[2.31039,48.86363,0.0],[2.30204,48.86348,0.0],[2.30159,48.86347,0.0],[2.30152,48.86453,0.0],[2.3002,48.86506,0.0],[2.2999,48.86533,0.0],[2.29978,48.86572,0.0],[2.29967,48.86605,0.0],[2.2995,48.86664,0.0],[2.29946,48.86674,0.0],[2.29928,48.86735,0.0],[2.29925,48.86745,0.0],[2.29921,48.86757,0.0],[2.29898,48.86832,0.0],[2.29891,48.86855,0.0],[2.29886,48.86863,0.0],[2.29824,48.8697,0.0],[2.29752,48.87093,0.0],[2.29617,48.87248,0.0],[2.29504,48.87378,0.0]]]]}},{"type":"Feature","properties":{"uesi_id":"FRA_R7444","nbhd_code":"FRA_R7444_003","nbhd_name":"36380"},"geometry":{"type":"MultiPolygon","coordinates":[[[[2.35016,48.86199,0.0],[2.3504,48.86246,0.0],[2.35067,48.86294,0.0],[2.35095,48.86341,0.0],[2.35152,48.86443,0.0],[2.35294,48.86697,0.0],[2.35346,48.86791,0.0],[2.35426,48.86933,0.0],[2.35433,48.86931,0.0],[2.35444,48.86929,0.0],[2.35517,48.86912,0.0],[2.35535,48.86908,0.0],[2.35542,48.86906,0.0],[2.3556,48.86902,0.0],[2.35576,48.86899,0.0],[2.35582,48.86897,0.0],[2.35586,48.86896,0.0],[2.35598,48.86894,0.0],[2.35608,48.86891,0.0],[2.35639,48.86885,0.0],[2.35799,48.86861,0.0],[2.35851,48.86853,0.0],[2.35886,48.86848,0.0],[2.35927,48.86842,0.0],[2.35975,48.86835,0.0],[2.36094,48.86817,0.0],[2.3611,48.86815,0.0],[2.36126,48.86813,0.0],[2.36327,48.86784,0.0],[2.36382,48.8675,0.0],[2.36425,48.86725,0.0],[2.36476,48.86653,0.0],[2.36477,48.8664,0.0],[2.3648,48.86628,0.0],[2.36498,48.86598,0.0],[2.36505,48.86586,0.0],[2.36538,48.86537,0.0],[2.36541,48.86533,0.0],[2.36549,48.86519,0.0],[2.36565,48.86492,0.0],[2.36569,48.86486,0.0],[2.36581,48.86465,0.0],[2.36592,48.86447,0.0],[2.36637,48.86373,0.0],[2.36641,48.86366,0.0],[2.36667,48.86322,0.0],[2.36673,48.8631,0.0],[2.3669,48.86246,0.0],[2.3669,48.86246,0.0],[2.3671,48.86162,0.0],[2.36716,48.86139,0.0],[2.36727,48.86095,0.0],[2.36729,48.86082,0.0],[2.36733,48.86065,0.0],[2.36735,48.86057,0.0],[2.36747,48.8601,0.0],[2.36748,48.86004,0.0],[2.36751,48.85989,0.0],[2.36753,48.85983,0.0],[2.36755,48.85975,0.0],[2.36757,48.85966,0.0],[2.36761,48.85949,0.0],[2.36767,48.85925,0.0],[2.36777,48.85882,0.0],[2.36784,48.85854,0.0],[2.36799,48.8579,0.0],[2.36805,48.85766,0.0],[2.36807,48.85759,0.0],[2.36812,48.85738,0.0],[2.36816,48.85721,0.0],[2.36818,48.85714,0.0],[2.36821,48.85701,0.0],[2.36823,48.85692,0.0],[2.3683,48.85661,0.0],[2.36841,48.85616,0.0],[2.36844,48.85602,0.0],[2.36848,48.85583,0.0],[2.36851,48.85573,0.0],[2.36731,48.85593,0.0],[2.3667,48.85603,0.0],[2.3666,48.85605,0.0],[2.36576,48.85619,0.0],[2.36492,48.85633,0.0],[2.36479,48.85636,0.0],[2.36445,48.85641,0.0],[2.36428,48.85646,0.0],[2.36282,48.8569,0.0],[2.36176,48.85725,0.0],[2.36074,48.85767,0.0],[2.36043,48.85782,0.0],[2.35932,48.85834,0.0],[2.35874,48.85868,0.0],[2.35827,48.85904,0.0],[2.35691,48.86006,0.0],[2.35688,48.86007,0.0],[2.35679,48.8601,0.0],[2.3563,48.86027,0.0],[2.35623,48.86029,0.0],[2.35619,48.86031,0.0],[2.35516,48.86065,0.0],[2.35509,48.86068,0.0],[2.35455,48.86085,0.0],[2.35445,48.86089,0.0],[2.35359,48.86118,0.0],[2.3535,48.86121,0.0],[2.35347,48.86122,0.0],[2.35334,48.86127,0.0],[2.35262,48.86143,0.0],[2.35169,48.86164,0.0],[2.35089,48.86182,0.0],[2.35016,48.86199,0.0]]]]}},{"type":"Feature","properties":{"uesi_id":"FRA_R7444","nbhd_code":"FRA_R7444_004","nbhd_name":"27689"},"geometry":{"type":"MultiPolygon","coordinates":[[[[2.34459,48.85405,0.0],[2.34482,48.85427,0.0],[2.34499,48.85443,0.0],[2.34566,48.85506,0.0],[2.34578,48.85519,0.0],[2.34586,48.85527,0.0],[2.34591,48.85532,0.0],[2.34607,48.85554,0.0],[2.34613,48.85564,0.0],[2.34621,48.85576,0.0],[2.34648,48.85619,0.0],[2.34651,48.85625,0.0],[2.34652,48.85626,0.0],[2.34699,48.85701,0.0],[2.34702,48.85704,0.0],[2.34706,48.85709,0.0],[2.34714,48.85713,0.0],[2.34719,48.85716,0.0],[2.34727,48.8572,0.0],[2.34754,48.85732,0.0],[2.34756,48.85734,0.0],[2.34757,48.85736,0.0],[2.34772,48.85763,0.0],[2.34778,48.85772,0.0],[2.34784,48.85784,0.0],[2.3481,48.8583,0.0],[2.3482,48.85849,0.0],[2.34833,48.85872,0.0],[2.34879,48.85954,0.0],[2.34955,48.86091,0.0],[2.35016,48.86199,0.0],[2.35089,48.86182,0.0],[2.35169,48.86164,0.0],[2.35262,48.86143,0.0],[2.35334,48.86127,0.0],[2.35347,48.86122,0.0],[2.3535,48.86121,0.0],[2.35359,48.86118,0.0],[2.35445,48.86089,0.0],[2.35455,48.86085,0.0],[2.35509,48.86068,0.0],[2.35516,48.86065,0.0],[2.35619,48.86031,0.0],[2.35623,48.86029,0.0],[2.3563,48.86027,0.0],[2.35679,48.8601,0.0],[2.35688,48.86007,0.0],[2.35691,48.86006,0.0],[2.35827,48.85904,0.0],[2.35874,48.85868,0.0],[2.35932,48.85834,0.0],[2.36043,48.85782,0.0],[2.36074,48.85767,0.0],[2.36176,48.85725,0.0],[2.36282,48.8569,0.0],[2.36428,48.85646,0.0],[2.36445,48.85641,0.0],[2.36479,48.85636,0.0],[2.36492,48.85633,0.0],[2.36576,48.85619,0.0],[2.3666,48.85605,0.0],[2.3667,48.85603,0.0],[2.36731,48.85593,0.0],[2.36851,48.85573,0.0],[2.3686,48.85538,0.0],[2.36871,48.85495,0.0],[2.36874,48.85482,0.0],[2.36879,48.8546,0.0],[2.36883,48.85446,0.0],[2.36885,48.85436,0.0],[2.36888,48.85425,0.0],[2.36914,48.85316,0.0],[2.36831,48.85139,0.0],[2.36732,48.84921,0.0],[2.3665,48.84737,0.0],[2.36534,48.84668,0.0],[2.36443,48.84614,0.0],[2.36249,48.84762,0.0],[2.36164,48.84816,0.0],[2.36152,48.84823,0.0],[2.36046,48.84882,0.0],[2.35986,48.84916,0.0],[2.35953,48.84932,0.0],[2.35923,48.84946,0.0],[2.35886,48.8496,0.0],[2.35834,48.84978,0.0],[2.35797,48.84989,0.0],[2.3569,48.85024,0.0],[2.35567,48.85064,0.0],[2.35476,48.85091,0.0],[2.35371,48.85122,0.0],[2.35326,48.85129,0.0],[2.35251,48.85139,0.0],[2.35169,48.85158,0.0],[2.35148,48.85163,0.0],[2.35095,48.85176,0.0],[2.35024,48.85194,0.0],[2.35006,48.85199,0.0],[2.34987,48.85206,0.0],[2.34964,48.85214,0.0],[2.3486,48.85256,0.0],[2.34833,48.85268,0.0],[2.34694,48.8533,0.0],[2.34459,48.85405,0.0]]]]}},{"type":"Feature","properties":{"uesi_id":"FRA_R7444","nbhd_code":"FRA_R7444_011","nbhd_name":"155267"},"geometry":{"type":"MultiPolygon","coordinates":[[[[2.36382,48.8675,0.0],[2.36542,48.86814,0.0],[2.36555,48.86821,0.0],[2.36614,48.8684,0.0],[2.3669,48.86862,0.0],[2.36704,48.86867,0.0],[2.36713,48.86869,0.0],[2.36715,48.8687,0.0],[2.36746,48.86879,0.0],[2.36761,48.86884,0.0],[2.36774,48.86888,0.0],[2.36784,48.86891,0.0],[2.36787,48.86892,0.0],[2.36797,48.86895,0.0],[2.36933,48.86946,0.0],[2.36941,48.86949,0.0],[2.36966,48.86957,0.0],[2.37006,48.8697,0.0],[2.37103,48.86999,0.0],[2.37153,48.87015,0.0],[2.37199,48.87029,0.0],[2.37277,48.87053,0.0],[2.37288,48.87056,0.0],[2.37297,48.87059,0.0],[2.3735,48.87077,0.0],[2.37361,48.87081,0.0],[2.37394,48.87096,0.0],[2.37411,48.87103,0.0],[2.37425,48.87109,0.0],[2.37453,48.87119,0.0],[2.37465,48.87123,0.0],[2.37469,48.87125,0.0],[2.37508,48.87138,0.0],[2.37573,48.87162,0.0],[2.37578,48.87164,0.0],[2.37586,48.87166,0.0],[2.376,48.87171,0.0],[2.3767,48.87196,0.0],[2.37681,48.872,0.0],[2.37687,48.87203,0.0],[2.37692,48.87205,0.0],[2.37699,48.87206,0.0],[2.37798,48.8711,0.0],[2.37877,48.87047,0.0],[2.37998,48.86952,0.0],[2.38063,48.86901,0.0],[2.38308,48.86718,0.0],[2.38314,48.86708,0.0],[2.38346,48.86644,0.0],[2.3837,48.86623,0.0],[2.3849,48.86519,0.0],[2.38502,48.86508,0.0],[2.38604,48.86419,0.0],[2.38618,48.86407,0.0],[2.3872,48.86317,0.0],[2.3873,48.86308,0.0],[2.38743,48.86291,0.0],[2.38752,48.86276,0.0],[2.38752,48.86275,0.0],[2.38834,48.86107,0.0],[2.3884,48.86094,0.0],[2.38885,48.85999,0.0],[2.38896,48.85978,0.0],[2.38952,48.85861,0.0],[2.38954,48.85858,0.0],[2.38958,48.85853,0.0],[2.38963,48.8585,0.0],[2.38972,48.85845,0.0],[2.3898,48.85843,0.0],[2.38998,48.85837,0.0],[2.39044,48.85823,0.0],[2.39209,48.85774,0.0],[2.39216,48.85772,0.0],[2.39227,48.85769,0.0],[2.39444,48.85657,0.0],[2.39506,48.85565,0.0],[2.39612,48.8543,0.0],[2.39707,48.85308,0.0],[2.39717,48.85296,0.0],[2.39837,48.85143,0.0],[2.39843,48.85135,0.0],[2.39895,48.84978,0.0],[2.39927,48.84886,0.0],[2.39912,48.8481,0.0],[2.39907,48.8481,0.0],[2.39591,48.84839,0.0],[2.39508,48.8485,0.0],[2.39436,48.84861,0.0],[2.39424,48.84863,0.0],[2.39298,48.84882,0.0],[2.39225,48.84893,0.0],[2.39201,48.84897,0.0],[2.39171,48.84901,0.0],[2.3911,48.84911,0.0],[2.39028,48.84924,0.0],[2.39019,48.84925,0.0],[2.3901,48.84926,0.0],[2.38947,48.84936,0.0],[2.38829,48.84954,0.0],[2.38733,48.84968,0.0],[2.38631,48.84983,0.0],[2.38487,48.85005,0.0],[2.38475,48.85007,0.0],[2.38451,48.8501,0.0],[2.38434,48.85013,0.0],[2.38416,48.85016,0.0],[2.38376,48.85021,0.0],[2.38307,48.85026,0.0],[2.383,48.85027,0.0],[2.3829,48.85027,0.0],[2.3828,48.85028,0.0],[2.38152,48.85039,0.0],[2.38139,48.8504,0.0],[2.38123,48.8504,0.0],[2.38011,48.85045,0.0],[2.38007,48.85046,0.0],[2.37961,48.85052,0.0],[2.37951,48.85053,0.0],[2.3794,48.85055,0.0],[2.37893,48.85061,0.0],[2.37883,48.85063,0.0],[2.37878,48.85064,0.0],[2.37855,48.8507,0.0],[2.37851,48.85071,0.0],[2.3784,48.85073,0.0],[2.37777,48.85088,0.0],[2.3777,48.8509,0.0],[2.37765,48.85092,0.0],[2.37738,48.85098,0.0],[2.37718,48.85103,0.0],[2.37676,48.85113,0.0],[2.37613,48.85129,0.0],[2.37536,48.85148,0.0],[2.37507,48.85155,0.0],[2.37485,48.8516,0.0],[2.37476,48.85163,0.0],[2.37444,48.8517,0.0],[2.37379,48.85187,0.0],[2.37369,48.85189,0.0],[2.37362,48.85191,0.0],[2.37344,48.85196,0.0],[2.37319,48.85204,0.0],[2.37288,48.85213,0.0],[2.37259,48.85221,0.0],[2.37235,48.85228,0.0],[2.37207,48.85237,0.0],[2.37201,48.85238,0.0],[2.37176,48.85247,0.0],[2.37124,48.85272,0.0],[2.37083,48.85295,0.0],[2.37046,48.8532,0.0],[2.37039,48.85324,0.0],[2.37032,48.85326,0.0],[2.36914,48.85316,0.0],[2.36888,48.85425,0.0],[2.36885,48.85436,0.0],[2.36883,48.85446,0.0],[2.36879,48.8546,0.0],[2.36874,48.85482,0.0],[2.36871,48.85495,0.0],[2.3686,48.85538,0.0],[2.36851,48.85573,0.0],[2.36848,48.85583,0.0],[2.36844,48.85602,0.0],[2.36841,48.85616,0.0],[2.3683,48.85661,0.0],[2.36823,48.85692,0.0],[2.36821,48.85701,0.0],[2.36818,48.85714,0.0],[2.36816,48.85721,0.0],[2.36812,48.85738,0.0],[2.36807,48.85759,0.0],[2.36805,48.85766,0.0],[2.36799,48.8579,0.0],[2.36784,48.85854,0.0],[2.36777,48.85882,0.0],[2.36767,48.85925,0.0],[2.36761,48.85949,0.0],[2.36757,48.85966,0.0],[2.36755,48.85975,0.0],[2.36753,48.85983,0.0],[2.36751,48.85989,0.0],[2.36748,48.86004,0.0],[2.36747,48.8601,0.0],[2.36735,48.86057,0.0],[2.36733,48.86065,0.0],[2.36729,48.86082,0.0],[2.36727,48.86095,0.0],[2.36716,48.86139,0.0],[2.3671,48.86162,0.0],[2.3669,48.86246,0.0],[2.3669,48.86246,0.0],[2.36673,48.8631,0.0],[2.36667,48.86322,0.0],[2.36641,48.86366,0.0],[2.36637,48.86373,0.0],[2.36592,48.86447,0.0],[2.36581,48.86465,0.0],[2.36569,48.86486,0.0],[2.36565,48.86492,0.0],[2.36549,48.86519,0.0],[2.36541,48.86533,0.0],[2.36538,48.86537,0.0],[2.36505,48.86586,0.0],[2.36498,48.86598,0.0],[2.3648,48.86628,0.0],[2.36477,48.8664,0.0],[2.36476,48.86653,0.0],[2.36425,48.86725,0.0],[2.36382,48.8675,0.0]]]]}},{"type":"Feature","properties":{"uesi_id":"FRA_R7444","nbhd_code":"FRA_R7444_010","nbhd_name":"93438"},"geometry":{"type":"MultiPolygon","coordinates":[[[[2.34788,48.87082,0.0],[2.3479,48.872,0.0],[2.3479,48.87206,0.0],[2.3479,48.87246,0.0],[2.3479,48.87251,0.0],[2.34791,48.87306,0.0],[2.34791,48.87312,0.0],[2.34791,48.87344,0.0],[2.34791,48.87402,0.0],[2.34807,48.87485,0.0],[2.34824,48.87579,0.0],[2.34826,48.87584,0.0],[2.34829,48.87591,0.0],[2.34839,48.87611,0.0],[2.34847,48.87627,0.0],[2.34862,48.87652,0.0],[2.34865,48.87657,0.0],[2.34868,48.87664,0.0],[2.34892,48.87706,0.0],[2.34895,48.87718,0.0],[2.349,48.87727,0.0],[2.34908,48.87742,0.0],[2.34911,48.87748,0.0],[2.3492,48.87855,0.0],[2.34929,48.87903,0.0],[2.34932,48.87916,0.0],[2.34934,48.87923,0.0],[2.34937,48.87929,0.0],[2.34948,48.87957,0.0],[2.34952,48.87967,0.0],[2.34952,48.87968,0.0],[2.34956,48.87978,0.0],[2.3498,48.88046,0.0],[2.34986,48.88063,0.0],[2.34984,48.881,0.0],[2.34983,48.88109,0.0],[2.3497,48.88235,0.0],[2.34969,48.8824,0.0],[2.34963,48.88307,0.0],[2.34962,48.88313,0.0],[2.34959,48.88349,0.0],[2.3495,48.88373,0.0],[2.35003,48.88376,0.0],[2.35015,48.88377,0.0],[2.3503,48.88378,0.0],[2.35039,48.88379,0.0],[2.35066,48.88381,0.0],[2.3525,48.88396,0.0],[2.35382,48.88406,0.0],[2.35542,48.88417,0.0],[2.35617,48.88422,0.0],[2.35722,48.88429,0.0],[2.35825,48.88437,0.0],[2.35912,48.88442,0.0],[2.35932,48.88443,0.0],[2.35986,48.88442,0.0],[2.36028,48.88442,0.0],[2.36091,48.88442,0.0],[2.36144,48.88441,0.0],[2.36254,48.88441,0.0],[2.36392,48.88439,0.0],[2.36433,48.88439,0.0],[2.36469,48.88437,0.0],[2.36485,48.88436,0.0],[2.36594,48.88429,0.0],[2.36647,48.88425,0.0],[2.36676,48.88423,0.0],[2.36678,48.88423,0.0],[2.36689,48.88422,0.0],[2.36748,48.88419,0.0],[2.36758,48.88418,0.0],[2.36786,48.88416,0.0],[2.36811,48.88415,0.0],[2.36831,48.88411,0.0],[2.36837,48.88409,0.0],[2.36846,48.88407,0.0],[2.36852,48.88405,0.0],[2.36866,48.88399,0.0],[2.36868,48.88397,0.0],[2.3687,48.88396,0.0],[2.36874,48.88393,0.0],[2.36877,48.88391,0.0],[2.36879,48.88388,0.0],[2.36881,48.88386,0.0],[2.36883,48.88383,0.0],[2.36886,48.88377,0.0],[2.36891,48.88363,0.0],[2.36891,48.88362,0.0],[2.36896,48.88352,0.0],[2.36904,48.8834,0.0],[2.36911,48.88332,0.0],[2.36918,48.88325,0.0],[2.36925,48.88319,0.0],[2.36936,48.88312,0.0],[2.36956,48.88302,0.0],[2.36966,48.88298,0.0],[2.36984,48.88291,0.0],[2.37002,48.88283,0.0],[2.37005,48.88281,0.0],[2.37013,48.88277,0.0],[2.37015,48.88276,0.0],[2.37019,48.88272,0.0],[2.37022,48.88268,0.0],[2.37022,48.88266,0.0],[2.37022,48.88248,0.0],[2.37023,48.88242,0.0],[2.37024,48.88152,0.0],[2.3703,48.88132,0.0],[2.37029,48.88023,0.0],[2.37028,48.87857,0.0],[2.37027,48.87847,0.0],[2.37028,48.87836,0.0],[2.37028,48.87799,0.0],[2.37047,48.87783,0.0],[2.37091,48.87744,0.0],[2.37209,48.87641,0.0],[2.37239,48.87615,0.0],[2.37365,48.87504,0.0],[2.37478,48.87405,0.0],[2.3751,48.87377,0.0],[2.37699,48.87206,0.0],[2.37692,48.87205,0.0],[2.37687,48.87203,0.0],[2.37681,48.872,0.0],[2.3767,48.87196,0.0],[2.376,48.87171,0.0],[2.37586,48.87166,0.0],[2.37578,48.87164,0.0],[2.37573,48.87162,0.0],[2.37508,48.87138,0.0],[2.37469,48.87125,0.0],[2.37465,48.87123,0.0],[2.37453,48.87119,0.0],[2.37425,48.87109,0.0],[2.37411,48.87103,0.0],[2.37394,48.87096,0.0],[2.37361,48.87081,0.0],[2.3735,48.87077,0.0],[2.37297,48.87059,0.0],[2.37288,48.87056,0.0],[2.37277,48.87053,0.0],[2.37199,48.87029,0.0],[2.37153,48.87015,0.0],[2.37103,48.86999,0.0],[2.37006,48.8697,0.0],[2.36966,48.86957,0.0],[2.36941,48.86949,0.0],[2.36933,48.86946,0.0],[2.36797,48.86895,0.0],[2.36787,48.86892,0.0],[2.36784,48.86891,0.0],[2.36774,48.86888,0.0],[2.36761,48.86884,0.0],[2.36746,48.86879,0.0],[2.36715,48.8687,0.0],[2.36713,48.86869,0.0],[2.36704,48.86867,0.0],[2.3669,48.86862,0.0],[2.36614,48.8684,0.0],[2.36555,48.86821,0.0],[2.36542,48.86814,0.0],[2.36382,48.8675,0.0],[2.36327,48.86784,0.0],[2.36126,48.86813,0.0],[2.3611,48.86815,0.0],[2.36094,48.86817,0.0],[2.35975,48.86835,0.0],[2.35927,48.86842,0.0],[2.35886,48.86848,0.0],[2.35851,48.86853,0.0],[2.35799,48.86861,0.0],[2.35639,48.86885,0.0],[2.35608,48.86891,0.0],[2.35598,48.86894,0.0],[2.35586,48.86896,0.0],[2.35582,48.86897,0.0],[2.35576,48.86899,0.0],[2.3556,48.86902,0.0],[2.35542,48.86906,0.0],[2.35535,48.86908,0.0],[2.35517,48.86912,0.0],[2.35444,48.86929,0.0],[2.35433,48.86931,0.0],[2.35426,48.86933,0.0],[2.35421,48.86934,0.0],[2.354,48.86939,0.0],[2.35355,48.86949,0.0],[2.35308,48.86959,0.0],[2.35297,48.86962,0.0],[2.35283,48.86965,0.0],[2.35268,48.86968,0.0],[2.35261,48.86969,0.0],[2.35256,48.86971,0.0],[2.35237,48.86975,0.0],[2.3523,48.86976,0.0],[2.35183,48.86986,0.0],[2.35096,48.87005,0.0],[2.35071,48.8701,0.0],[2.35056,48.87013,0.0],[2.35006,48.87024,0.0],[2.34975,48.87031,0.0],[2.34956,48.87035,0.0],[2.34909,48.87045,0.0],[2.34882,48.87051,0.0],[2.34871,48.87053,0.0],[2.34828,48.87062,0.0],[2.34804,48.87065,0.0],[2.34789,48.87068,0.0],[2.34788,48.87082,0.0]]]]}},{"type":"Feature","properties":{"uesi_id":"FRA_R7444","nbhd_code":"FRA_R7444_005","nbhd_name":"61267"},"geometry":{"type":"MultiPolygon","coordinates":[[[[2.33673,48.83965,0.0],[2.33679,48.8407,0.0],[2.33686,48.8407,0.0],[2.33692,48.8407,0.0],[2.33698,48.84071,0.0],[2.33703,48.84073,0.0],[2.33712,48.84076,0.0],[2.33718,48.8408,0.0],[2.33722,48.84083,0.0],[2.33727,48.84089,0.0],[2.33733,48.84098,0.0],[2.33741,48.84112,0.0],[2.33773,48.84168,0.0],[2.33777,48.84175,0.0],[2.33818,48.8425,0.0],[2.33865,48.84337,0.0],[2.34025,48.84628,0.0],[2.34046,48.84664,0.0],[2.3405,48.84671,0.0],[2.34056,48.84682,0.0],[2.34068,48.84705,0.0],[2.34083,48.84735,0.0],[2.34092,48.84749,0.0],[2.34097,48.84757,0.0],[2.34104,48.84767,0.0],[2.34147,48.84837,0.0],[2.34167,48.84869,0.0],[2.34168,48.84872,0.0],[2.34176,48.84884,0.0],[2.3418,48.84891,0.0],[2.34184,48.84897,0.0],[2.34265,48.85031,0.0],[2.34267,48.85036,0.0],[2.3428,48.85063,0.0],[2.3431,48.85124,0.0],[2.34317,48.8514,0.0],[2.34335,48.85176,0.0],[2.34339,48.85186,0.0],[2.34378,48.8527,0.0],[2.34383,48.85277,0.0],[2.34397,48.85308,0.0],[2.34409,48.85333,0.0],[2.34414,48.85344,0.0],[2.34429,48.85377,0.0],[2.34439,48.85387,0.0],[2.34459,48.85405,0.0],[2.34694,48.8533,0.0],[2.34833,48.85268,0.0],[2.3486,48.85256,0.0],[2.34964,48.85214,0.0],[2.34987,48.85206,0.0],[2.35006,48.85199,0.0],[2.35024,48.85194,0.0],[2.35095,48.85176,0.0],[2.35148,48.85163,0.0],[2.35169,48.85158,0.0],[2.35251,48.85139,0.0],[2.35326,48.85129,0.0],[2.35371,48.85122,0.0],[2.35476,48.85091,0.0],[2.35567,48.85064,0.0],[2.3569,48.85024,0.0],[2.35797,48.84989,0.0],[2.35834,48.84978,0.0],[2.35886,48.8496,0.0],[2.35923,48.84946,0.0],[2.35953,48.84932,0.0],[2.35986,48.84916,0.0],[2.36046,48.84882,0.0],[2.36152,48.84823,0.0],[2.36164,48.84816,0.0],[2.36249,48.84762,0.0],[2.36443,48.84614,0.0],[2.36475,48.84591,0.0],[2.36603,48.84493,0.0],[2.36515,48.84444,0.0],[2.36503,48.84435,0.0],[2.36494,48.84426,0.0],[2.3649,48.84419,0.0],[2.36485,48.8441,0.0],[2.36483,48.84405,0.0],[2.36479,48.84396,0.0],[2.36422,48.8432,0.0],[2.36248,48.84085,0.0],[2.36182,48.83996,0.0],[2.35187,48.8368,0.0],[2.35184,48.83679,0.0],[2.35178,48.83678,0.0],[2.35167,48.83678,0.0],[2.35018,48.83695,0.0],[2.34899,48.83709,0.0],[2.3472,48.83729,0.0],[2.34701,48.83732,0.0],[2.34632,48.83747,0.0],[2.34547,48.83765,0.0],[2.34207,48.83836,0.0],[2.33971,48.83886,0.0],[2.3376,48.83942,0.0],[2.33673,48.83965,0.0]]]]}},{"type":"Feature","properties":{"uesi_id":"FRA_R7444","nbhd_code":"FRA_R7444_002","nbhd_name":"21914"},"geometry":{"type":"MultiPolygon","coordinates":[[[[2.32799,48.86993,0.0],[2.32821,48.86996,0.0],[2.32905,48.8701,0.0],[2.32948,48.87017,0.0],[2.32977,48.87022,0.0],[2.33006,48.87027,0.0],[2.33207,48.87061,0.0],[2.33254,48.87069,0.0],[2.33398,48.87094,0.0],[2.33414,48.87097,0.0],[2.33465,48.87106,0.0],[2.3348,48.87108,0.0],[2.33493,48.87111,0.0],[2.33592,48.87128,0.0],[2.33688,48.87144,0.0],[2.33698,48.87145,0.0],[2.33701,48.87146,0.0],[2.3371,48.87147,0.0],[2.33711,48.87148,0.0],[2.33731,48.87151,0.0],[2.33767,48.87157,0.0],[2.33807,48.87164,0.0],[2.33826,48.87167,0.0],[2.33842,48.8717,0.0],[2.33916,48.87183,0.0],[2.33985,48.87195,0.0],[2.34005,48.87198,0.0],[2.34021,48.87195,0.0],[2.34161,48.87172,0.0],[2.34187,48.87168,0.0],[2.34291,48.87151,0.0],[2.34307,48.87149,0.0],[2.3432,48.87147,0.0],[2.34559,48.87106,0.0],[2.34572,48.87104,0.0],[2.34598,48.871,0.0],[2.3461,48.87098,0.0],[2.34674,48.87088,0.0],[2.34682,48.87087,0.0],[2.34768,48.87071,0.0],[2.34789,48.87068,0.0],[2.34804,48.87065,0.0],[2.34828,48.87062,0.0],[2.34871,48.87053,0.0],[2.34882,48.87051,0.0],[2.34909,48.87045,0.0],[2.34956,48.87035,0.0],[2.34975,48.87031,0.0],[2.35006,48.87024,0.0],[2.35056,48.87013,0.0],[2.35071,48.8701,0.0],[2.35096,48.87005,0.0],[2.35183,48.86986,0.0],[2.3523,48.86976,0.0],[2.35237,48.86975,0.0],[2.35256,48.86971,0.0],[2.35261,48.86969,0.0],[2.35268,48.86968,0.0],[2.35283,48.86965,0.0],[2.35297,48.86962,0.0],[2.35308,48.86959,0.0],[2.35355,48.86949,0.0],[2.354,48.86939,0.0],[2.35421,48.86934,0.0],[2.35426,48.86933,0.0],[2.35346,48.86791,0.0],[2.35294,48.86697,0.0],[2.35152,48.86443,0.0],[2.35095,48.86341,0.0],[2.35093,48.86341,0.0],[2.35078,48.86345,0.0],[2.35007,48.86362,0.0],[2.34994,48.86365,0.0],[2.34937,48.86378,0.0],[2.34914,48.86384,0.0],[2.34906,48.86386,0.0],[2.34877,48.86393,0.0],[2.34863,48.86396,0.0],[2.34761,48.86421,0.0],[2.34667,48.86443,0.0],[2.34534,48.86475,0.0],[2.34531,48.86475,0.0],[2.34505,48.86482,0.0],[2.34483,48.86487,0.0],[2.34406,48.86506,0.0],[2.34383,48.86511,0.0],[2.34321,48.86526,0.0],[2.34309,48.86529,0.0],[2.34294,48.86533,0.0],[2.34256,48.86541,0.0],[2.34163,48.86564,0.0],[2.34149,48.86568,0.0],[2.34118,48.86575,0.0],[2.34087,48.86582,0.0],[2.34069,48.86586,0.0],[2.33999,48.86603,0.0],[2.33977,48.86608,0.0],[2.33965,48.86611,0.0],[2.33959,48.86612,0.0],[2.33945,48.86616,0.0],[2.33927,48.8662,0.0],[2.33906,48.86625,0.0],[2.33873,48.86633,0.0],[2.33867,48.86634,0.0],[2.33858,48.86636,0.0],[2.33735,48.86664,0.0],[2.33656,48.86682,0.0],[2.33593,48.86698,0.0],[2.33588,48.86699,0.0],[2.33587,48.867,0.0],[2.33579,48.86702,0.0],[2.33532,48.86713,0.0],[2.33525,48.86714,0.0],[2.3351,48.86718,0.0],[2.33467,48.86728,0.0],[2.3346,48.8673,0.0],[2.33383,48.86747,0.0],[2.33367,48.86751,0.0],[2.33343,48.86756,0.0],[2.33236,48.86781,0.0],[2.3323,48.86783,0.0],[2.3322,48.86785,0.0],[2.33173,48.86796,0.0],[2.33066,48.86819,0.0],[2.33042,48.8683,0.0],[2.33031,48.86835,0.0],[2.33018,48.86841,0.0],[2.32996,48.86852,0.0],[2.32942,48.8689,0.0],[2.32877,48.86937,0.0],[2.32823,48.86976,0.0],[2.32814,48.86982,0.0],[2.32799,48.86993,0.0]]]]}},{"type":"Feature","properties":{"uesi_id":"FRA_R7444","nbhd_code":"FRA_R7444_013","nbhd_name":"185489"},"geometry":{"type":"MultiPolygon","coordinates":[[[[2.34114,48.83249,0.0],[2.34125,48.83307,0.0],[2.34127,48.83316,0.0],[2.34155,48.83461,0.0],[2.34156,48.83468,0.0],[2.34159,48.83481,0.0],[2.3416,48.83492,0.0],[2.34166,48.83531,0.0],[2.34167,48.83539,0.0],[2.34189,48.83682,0.0],[2.34189,48.83683,0.0],[2.34192,48.83707,0.0],[2.34198,48.83762,0.0],[2.34206,48.83829,0.0],[2.34207,48.83836,0.0],[2.34547,48.83765,0.0],[2.34632,48.83747,0.0],[2.34701,48.83732,0.0],[2.3472,48.83729,0.0],[2.34899,48.83709,0.0],[2.35018,48.83695,0.0],[2.35167,48.83678,0.0],[2.35178,48.83678,0.0],[2.35184,48.83679,0.0],[2.35187,48.8368,0.0],[2.36182,48.83996,0.0],[2.36248,48.84085,0.0],[2.36422,48.8432,0.0],[2.36479,48.84396,0.0],[2.36483,48.84405,0.0],[2.36485,48.8441,0.0],[2.3649,48.84419,0.0],[2.36494,48.84426,0.0],[2.36503,48.84435,0.0],[2.36515,48.84444,0.0],[2.36603,48.84493,0.0],[2.36898,48.8427,0.0],[2.37241,48.84017,0.0],[2.37248,48.84013,0.0],[2.37289,48.83985,0.0],[2.3748,48.8381,0.0],[2.37734,48.8358,0.0],[2.38675,48.82825,0.0],[2.38763,48.82755,0.0],[2.39026,48.82573,0.0],[2.38978,48.82552,0.0],[2.38881,48.82501,0.0],[2.38717,48.82442,0.0],[2.38515,48.8237,0.0],[2.38151,48.82241,0.0],[2.38075,48.82169,0.0],[2.37906,48.82114,0.0],[2.37786,48.82075,0.0],[2.37602,48.82012,0.0],[2.37415,48.81951,0.0],[2.3739,48.81954,0.0],[2.37086,48.81855,0.0],[2.36696,48.81719,0.0],[2.36519,48.81663,0.0],[2.36473,48.81648,0.0],[2.36428,48.81633,0.0],[2.36341,48.81606,0.0],[2.36025,48.81602,0.0],[2.35661,48.81598,0.0],[2.35592,48.81597,0.0],[2.3524,48.81853,0.0],[2.34855,48.81666,0.0],[2.34849,48.81663,0.0],[2.34836,48.81657,0.0],[2.34819,48.81648,0.0],[2.34798,48.81638,0.0],[2.34779,48.81629,0.0],[2.34739,48.81609,0.0],[2.34719,48.816,0.0],[2.34692,48.81587,0.0],[2.34662,48.81589,0.0],[2.34643,48.81591,0.0],[2.34443,48.81611,0.0],[2.3445,48.81558,0.0],[2.34397,48.81577,0.0],[2.34407,48.81738,0.0],[2.34409,48.81755,0.0],[2.34412,48.81772,0.0],[2.34463,48.81954,0.0],[2.34418,48.82003,0.0],[2.34388,48.82036,0.0],[2.34268,48.82119,0.0],[2.34267,48.82127,0.0],[2.34249,48.82146,0.0],[2.34204,48.8221,0.0],[2.34173,48.8227,0.0],[2.34144,48.82367,0.0],[2.34152,48.82463,0.0],[2.3416,48.8253,0.0],[2.34169,48.82603,0.0],[2.34166,48.82647,0.0],[2.34165,48.82655,0.0],[2.34162,48.82703,0.0],[2.34162,48.82738,0.0],[2.34163,48.82753,0.0],[2.34164,48.8278,0.0],[2.34162,48.82809,0.0],[2.34159,48.82834,0.0],[2.3415,48.82881,0.0],[2.34134,48.82941,0.0],[2.34126,48.83029,0.0],[2.34121,48.83139,0.0],[2.34115,48.83179,0.0],[2.34114,48.83249,0.0]]]]}},{"type":"Feature","properties":{"uesi_id":"FRA_R7444","nbhd_code":"FRA_R7444_012","nbhd_name":"146251"},"geometry":{"type":"MultiPolygon","coordinates":[[[[2.36443,48.84614,0.0],[2.36534,48.84668,0.0],[2.3665,48.84737,0.0],[2.36732,48.84921,0.0],[2.36831,48.85139,0.0],[2.36914,48.85316,0.0],[2.37032,48.85326,0.0],[2.37039,48.85324,0.0],[2.37046,48.8532,0.0],[2.37083,48.85295,0.0],[2.37124,48.85272,0.0],[2.37176,48.85247,0.0],[2.37201,48.85238,0.0],[2.37207,48.85237,0.0],[2.37235,48.85228,0.0],[2.37259,48.85221,0.0],[2.37288,48.85213,0.0],[2.37319,48.85204,0.0],[2.37344,48.85196,0.0],[2.37362,48.85191,0.0],[2.37369,48.85189,0.0],[2.37379,48.85187,0.0],[2.37444,48.8517,0.0],[2.37476,48.85163,0.0],[2.37485,48.8516,0.0],[2.37507,48.85155,0.0],[2.37536,48.85148,0.0],[2.37613,48.85129,0.0],[2.37676,48.85113,0.0],[2.37718,48.85103,0.0],[2.37738,48.85098,0.0],[2.37765,48.85092,0.0],[2.3777,48.8509,0.0],[2.37777,48.85088,0.0],[2.3784,48.85073,0.0],[2.37851,48.85071,0.0],[2.37855,48.8507,0.0],[2.37878,48.85064,0.0],[2.37883,48.85063,0.0],[2.37893,48.85061,0.0],[2.3794,48.85055,0.0],[2.37951,48.85053,0.0],[2.37961,48.85052,0.0],[2.38007,48.85046,0.0],[2.38011,48.85045,0.0],[2.38123,48.8504,0.0],[2.38139,48.8504,0.0],[2.38152,48.85039,0.0],[2.3828,48.85028,0.0],[2.3829,48.85027,0.0],[2.383,48.85027,0.0],[2.38307,48.85026,0.0],[2.38376,48.85021,0.0],[2.38416,48.85016,0.0],[2.38434,48.85013,0.0],[2.38451,48.8501,0.0],[2.38475,48.85007,0.0],[2.38487,48.85005,0.0],[2.38631,48.84983,0.0],[2.38733,48.84968,0.0],[2.38829,48.84954,0.0],[2.38947,48.84936,0.0],[2.3901,48.84926,0.0],[2.39019,48.84925,0.0],[2.39028,48.84924,0.0],[2.3911,48.84911,0.0],[2.39171,48.84901,0.0],[2.39201,48.84897,0.0],[2.39225,48.84893,0.0],[2.39298,48.84882,0.0],[2.39424,48.84863,0.0],[2.39436,48.84861,0.0],[2.39508,48.8485,0.0],[2.39591,48.84839,0.0],[2.39907,48.8481,0.0],[2.39912,48.8481,0.0],[2.39919,48.84809,0.0],[2.40345,48.84772,0.0],[2.40631,48.84744,0.0],[2.40783,48.84732,0.0],[2.40887,48.84724,0.0],[2.41079,48.84707,0.0],[2.41133,48.84702,0.0],[2.41384,48.8468,0.0],[2.41396,48.84679,0.0],[2.41399,48.84679,0.0],[2.41405,48.84678,0.0],[2.4152,48.84669,0.0],[2.41553,48.84666,0.0],[2.41599,48.84661,0.0],[2.41587,48.84596,0.0],[2.41586,48.84592,0.0],[2.41581,48.84567,0.0],[2.41579,48.84558,0.0],[2.41579,48.84558,0.0],[2.41577,48.84545,0.0],[2.41575,48.84536,0.0],[2.41572,48.84525,0.0],[2.41569,48.84511,0.0],[2.41531,48.84387,0.0],[2.41531,48.84385,0.0],[2.41525,48.84367,0.0],[2.41521,48.84353,0.0],[2.41518,48.84344,0.0],[2.41518,48.84343,0.0],[2.41514,48.84332,0.0],[2.41511,48.84319,0.0],[2.41508,48.8431,0.0],[2.41496,48.84272,0.0],[2.41489,48.8425,0.0],[2.41449,48.84123,0.0],[2.41435,48.84075,0.0],[2.41431,48.84063,0.0],[2.41429,48.84054,0.0],[2.41426,48.84044,0.0],[2.41425,48.84041,0.0],[2.41407,48.83978,0.0],[2.41405,48.83974,0.0],[2.41398,48.8395,0.0],[2.41396,48.83942,0.0],[2.41393,48.83933,0.0],[2.41393,48.83931,0.0],[2.4139,48.83923,0.0],[2.4139,48.83921,0.0],[2.41389,48.83917,0.0],[2.41386,48.83908,0.0],[2.41385,48.83904,0.0],[2.41382,48.83893,0.0],[2.4138,48.83889,0.0],[2.41379,48.83885,0.0],[2.41378,48.83881,0.0],[2.41372,48.8386,0.0],[2.41364,48.83833,0.0],[2.4136,48.83818,0.0],[2.41354,48.83799,0.0],[2.41353,48.83795,0.0],[2.41351,48.83788,0.0],[2.41337,48.83751,0.0],[2.41335,48.83744,0.0],[2.41331,48.83734,0.0],[2.41314,48.8369,0.0],[2.4131,48.83678,0.0],[2.41304,48.83661,0.0],[2.41302,48.83657,0.0],[2.413,48.83652,0.0],[2.41298,48.83646,0.0],[2.41296,48.8364,0.0],[2.41292,48.83631,0.0],[2.41286,48.83612,0.0],[2.41282,48.83601,0.0],[2.41279,48.83592,0.0],[2.41277,48.83589,0.0],[2.41249,48.83512,0.0],[2.41241,48.83492,0.0],[2.41228,48.83455,0.0],[2.41193,48.83432,0.0],[2.4114,48.83397,0.0],[2.41132,48.83392,0.0],[2.41123,48.83387,0.0],[2.41143,48.83383,0.0],[2.41279,48.83363,0.0],[2.41313,48.8336,0.0],[2.41343,48.83359,0.0],[2.41365,48.83358,0.0],[2.41391,48.83357,0.0],[2.41414,48.83357,0.0],[2.41437,48.83358,0.0],[2.41462,48.83359,0.0],[2.41488,48.83361,0.0],[2.41512,48.83363,0.0],[2.41536,48.83365,0.0],[2.41561,48.83368,0.0],[2.41586,48.83372,0.0],[2.41611,48.83376,0.0],[2.41634,48.8338,0.0],[2.41664,48.83387,0.0],[2.41689,48.83393,0.0],[2.41712,48.83399,0.0],[2.41733,48.83404,0.0],[2.41887,48.83452,0.0],[2.4216,48.83555,0.0],[2.42211,48.83578,0.0],[2.42218,48.83581,0.0],[2.4217,48.83667,0.0],[2.42164,48.83681,0.0],[2.42156,48.83704,0.0],[2.42153,48.83715,0.0],[2.42142,48.83771,0.0],[2.4213,48.83825,0.0],[2.42122,48.83856,0.0],[2.42107,48.83905,0.0],[2.42099,48.8393,0.0],[2.42086,48.83965,0.0],[2.42072,48.83995,0.0],[2.4206,48.84019,0.0],[2.42042,48.8405,0.0],[2.42038,48.84055,0.0],[2.42027,48.84069,0.0],[2.42003,48.8409,0.0],[2.41986,48.84107,0.0],[2.41957,48.84154,0.0],[2.41942,48.84249,0.0],[2.41954,48.84269,0.0],[2.41958,48.84274,0.0],[2.41964,48.84278,0.0],[2.41971,48.84283,0.0],[2.41977,48.8429,0.0],[2.41982,48.84296,0.0],[2.41987,48.84303,0.0],[2.4199,48.8431,0.0],[2.41991,48.84315,0.0],[2.41992,48.84323,0.0],[2.41992,48.8433,0.0],[2.41991,48.84336,0.0],[2.41988,48.84343,0.0],[2.42211,48.8445,0.0],[2.42234,48.84437,0.0],[2.42245,48.8443,0.0],[2.42257,48.8442,0.0],[2.42276,48.84401,0.0],[2.42286,48.84389,0.0],[2.42294,48.84378,0.0],[2.42307,48.84359,0.0],[2.42319,48.8434,0.0],[2.42348,48.84298,0.0],[2.4237,48.84269,0.0],[2.42406,48.84233,0.0],[2.42457,48.84195,0.0],[2.42482,48.8419,0.0],[2.42476,48.84177,0.0],[2.42505,48.84172,0.0],[2.42509,48.84172,0.0],[2.42557,48.84168,0.0],[2.42756,48.84151,0.0],[2.42827,48.84145,0.0],[2.43245,48.84109,0.0],[2.43364,48.84099,0.0],[2.43368,48.84119,0.0],[2.43414,48.84115,0.0],[2.43719,48.84089,0.0],[2.43727,48.84129,0.0],[2.43753,48.84257,0.0],[2.43755,48.84266,0.0],[2.4379,48.84437,0.0],[2.43794,48.84457,0.0],[2.43938,48.84444,0.0],[2.44051,48.84435,0.0],[2.44058,48.8447,0.0],[2.44059,48.84478,0.0],[2.4406,48.84481,0.0],[2.44061,48.84485,0.0],[2.44062,48.84489,0.0],[2.44081,48.84487,0.0],[2.44087,48.84521,0.0],[2.44069,48.84521,0.0],[2.44077,48.84592,0.0],[2.44653,48.84575,0.0],[2.44655,48.84573,0.0],[2.44641,48.84493,0.0],[2.44773,48.8448,0.0],[2.44939,48.84464,0.0],[2.4522,48.84423,0.0],[2.45367,48.84402,0.0],[2.45806,48.84346,0.0],[2.4597,48.84314,0.0],[2.46084,48.84292,0.0],[2.46113,48.84285,0.0],[2.46174,48.84269,0.0],[2.46221,48.84255,0.0],[2.46273,48.84237,0.0],[2.46326,48.84217,0.0],[2.46384,48.84191,0.0],[2.46423,48.84171,0.0],[2.46455,48.84152,0.0],[2.46499,48.84123,0.0],[2.46529,48.84102,0.0],[2.46566,48.84073,0.0],[2.46594,48.84051,0.0],[2.46638,48.84011,0.0],[2.46654,48.83994,0.0],[2.46723,48.83909,0.0],[2.46846,48.83787,0.0],[2.46931,48.83712,0.0],[2.46942,48.837,0.0],[2.4695,48.83689,0.0],[2.4697,48.83659,0.0],[2.46972,48.83655,0.0],[2.46975,48.83649,0.0],[2.46976,48.83645,0.0],[2.46976,48.83638,0.0],[2.4697,48.83556,0.0],[2.46963,48.83528,0.0],[2.46949,48.83483,0.0],[2.46939,48.83461,0.0],[2.4693,48.83445,0.0],[2.46918,48.83428,0.0],[2.46905,48.83412,0.0],[2.46894,48.83399,0.0],[2.46876,48.83381,0.0],[2.46859,48.83368,0.0],[2.46838,48.83354,0.0],[2.46812,48.8334,0.0],[2.46769,48.83322,0.0],[2.46673,48.83272,0.0],[2.46643,48.83252,0.0],[2.46609,48.83225,0.0],[2.4659,48.83207,0.0],[2.46572,48.83189,0.0],[2.46549,48.8316,0.0],[2.46536,48.83141,0.0],[2.46523,48.83115,0.0],[2.4651,48.83084,0.0],[2.46498,48.83045,0.0],[2.46464,48.82936,0.0],[2.46451,48.82861,0.0],[2.46455,48.82794,0.0],[2.46461,48.82763,0.0],[2.4649,48.82757,0.0],[2.46509,48.82754,0.0],[2.46523,48.82767,0.0],[2.46543,48.82757,0.0],[2.46618,48.82733,0.0],[2.46576,48.82628,0.0],[2.46569,48.82607,0.0],[2.46536,48.825,0.0],[2.46512,48.82498,0.0],[2.46525,48.8245,0.0],[2.46472,48.82328,0.0],[2.46467,48.82327,0.0],[2.46291,48.8202,0.0],[2.46264,48.81934,0.0],[2.46252,48.81927,0.0],[2.46281,48.81908,0.0],[2.4628,48.81903,0.0],[2.46131,48.8183,0.0],[2.45975,48.81754,0.0],[2.4592,48.81733,0.0],[2.45925,48.81725,0.0],[2.45863,48.81701,0.0],[2.45722,48.81702,0.0],[2.45455,48.81714,0.0],[2.45332,48.81729,0.0],[2.45083,48.81781,0.0],[2.44964,48.81796,0.0],[2.44761,48.81803,0.0],[2.44498,48.81795,0.0],[2.44267,48.81796,0.0],[2.44216,48.81798,0.0],[2.44165,48.81804,0.0],[2.44001,48.81835,0.0],[2.43986,48.81836,0.0],[2.43975,48.81837,0.0],[2.43959,48.81836,0.0],[2.43735,48.81822,0.0],[2.43739,48.81859,0.0],[2.43743,48.81883,0.0],[2.43747,48.8191,0.0],[2.43736,48.81918,0.0],[2.43725,48.81924,0.0],[2.43709,48.81932,0.0],[2.43697,48.81936,0.0],[2.43676,48.81943,0.0],[2.43646,48.81952,0.0],[2.43627,48.81956,0.0],[2.43611,48.81958,0.0],[2.43596,48.8196,0.0],[2.43516,48.81965,0.0],[2.43514,48.81965,0.0],[2.43508,48.81963,0.0],[2.43493,48.81959,0.0],[2.43482,48.81954,0.0],[2.4345,48.81937,0.0],[2.43432,48.81939,0.0],[2.43418,48.81928,0.0],[2.43427,48.81992,0.0],[2.4343,48.82016,0.0],[2.43247,48.82142,0.0],[2.43289,48.82169,0.0],[2.43262,48.8219,0.0],[2.43219,48.82162,0.0],[2.43215,48.82164,0.0],[2.43037,48.82288,0.0],[2.43055,48.82308,0.0],[2.43062,48.82316,0.0],[2.43069,48.82323,0.0],[2.43024,48.8234,0.0],[2.42975,48.82357,0.0],[2.42925,48.82371,0.0],[2.42895,48.82379,0.0],[2.42838,48.82391,0.0],[2.42783,48.82401,0.0],[2.42715,48.82411,0.0],[2.4265,48.82418,0.0],[2.42596,48.82423,0.0],[2.42565,48.82425,0.0],[2.42495,48.82427,0.0],[2.42447,48.82427,0.0],[2.42398,48.82426,0.0],[2.42287,48.82421,0.0],[2.42178,48.82415,0.0],[2.42081,48.82413,0.0],[2.42035,48.82413,0.0],[2.41995,48.82415,0.0],[2.41987,48.82416,0.0],[2.41953,48.82421,0.0],[2.41904,48.8243,0.0],[2.41868,48.82438,0.0],[2.41807,48.82454,0.0],[2.41763,48.82464,0.0],[2.41722,48.82472,0.0],[2.41671,48.82479,0.0],[2.41639,48.82482,0.0],[2.41607,48.82484,0.0],[2.41566,48.82486,0.0],[2.41516,48.82486,0.0],[2.41462,48.82485,0.0],[2.41385,48.8248,0.0],[2.41319,48.82479,0.0],[2.41262,48.82482,0.0],[2.4123,48.82484,0.0],[2.41184,48.82489,0.0],[2.41129,48.82497,0.0],[2.4108,48.82505,0.0],[2.41052,48.82512,0.0],[2.41026,48.82519,0.0],[2.41024,48.82519,0.0],[2.41005,48.82526,0.0],[2.4099,48.82531,0.0],[2.40962,48.82542,0.0],[2.40924,48.82559,0.0],[2.40877,48.82583,0.0],[2.40831,48.82609,0.0],[2.40771,48.82647,0.0],[2.40728,48.82676,0.0],[2.40652,48.82736,0.0],[2.40623,48.82757,0.0],[2.40545,48.82815,0.0],[2.40519,48.82833,0.0],[2.40492,48.82852,0.0],[2.40458,48.82872,0.0],[2.40427,48.8289,0.0],[2.40392,48.82907,0.0],[2.40366,48.82918,0.0],[2.40308,48.82942,0.0],[2.40249,48.82965,0.0],[2.40149,48.82937,0.0],[2.40148,48.82936,0.0],[2.40131,48.82931,0.0],[2.401,48.82922,0.0],[2.39977,48.82888,0.0],[2.39435,48.82751,0.0],[2.39321,48.82702,0.0],[2.39095,48.82603,0.0],[2.39026,48.82573,0.0],[2.38763,48.82755,0.0],[2.38675,48.82825,0.0],[2.37734,48.8358,0.0],[2.3748,48.8381,0.0],[2.37289,48.83985,0.0],[2.37248,48.84013,0.0],[2.37241,48.84017,0.0],[2.36898,48.8427,0.0],[2.36603,48.84493,0.0],[2.36475,48.84591,0.0],[2.36443,48.84614,0.0]]]]}},{"type":"Feature","properties":{"uesi_id":"FRA_R7444","nbhd_code":"FRA_R7444_017","nbhd_name":"171906"},"geometry":{"type":"MultiPolygon","coordinates":[[[[2.2798,48.87865,0.0],[2.27996,48.8787,0.0],[2.28068,48.88184,0.0],[2.2809,48.88279,0.0],[2.28099,48.88295,0.0],[2.2812,48.88311,0.0],[2.28186,48.88362,0.0],[2.28446,48.88564,0.0],[2.2855,48.88645,0.0],[2.28566,48.88657,0.0],[2.28601,48.88674,0.0],[2.28607,48.88677,0.0],[2.28655,48.88701,0.0],[2.28711,48.88728,0.0],[2.28776,48.8876,0.0],[2.28866,48.88804,0.0],[2.28965,48.88853,0.0],[2.29054,48.88897,0.0],[2.29117,48.88928,0.0],[2.29115,48.8893,0.0],[2.2915,48.88946,0.0],[2.29168,48.88948,0.0],[2.29272,48.8896,0.0],[2.29436,48.88979,0.0],[2.29505,48.88987,0.0],[2.29561,48.89016,0.0],[2.29646,48.8906,0.0],[2.29732,48.89106,0.0],[2.29849,48.89169,0.0],[2.30061,48.89267,0.0],[2.30324,48.8939,0.0],[2.30379,48.89417,0.0],[2.30602,48.89523,0.0],[2.30719,48.89578,0.0],[2.30731,48.89585,0.0],[2.30755,48.89596,0.0],[2.30769,48.89601,0.0],[2.30782,48.89606,0.0],[2.30954,48.89671,0.0],[2.31186,48.89758,0.0],[2.31234,48.89776,0.0],[2.3134,48.89807,0.0],[2.31529,48.89865,0.0],[2.31621,48.89893,0.0],[2.31853,48.89963,0.0],[2.31872,48.89974,0.0],[2.31989,48.90046,0.0],[2.32027,48.9007,0.0],[2.32036,48.90076,0.0],[2.32164,48.90084,0.0],[2.32262,48.90086,0.0],[2.32279,48.90086,0.0],[2.3232,48.90087,0.0],[2.32408,48.90089,0.0],[2.32727,48.90094,0.0],[2.32778,48.90099,0.0],[2.33018,48.90103,0.0],[2.33015,48.90095,0.0],[2.32948,48.899,0.0],[2.32907,48.89787,0.0],[2.32902,48.89772,0.0],[2.32895,48.8975,0.0],[2.3288,48.89696,0.0],[2.32869,48.89659,0.0],[2.32854,48.89618,0.0],[2.32844,48.89587,0.0],[2.3284,48.89574,0.0],[2.32833,48.89555,0.0],[2.32829,48.89543,0.0],[2.32822,48.89522,0.0],[2.32812,48.89493,0.0],[2.32781,48.89404,0.0],[2.32758,48.89338,0.0],[2.32746,48.89304,0.0],[2.32697,48.89161,0.0],[2.32687,48.89131,0.0],[2.32665,48.8907,0.0],[2.32661,48.89057,0.0],[2.32656,48.89041,0.0],[2.32647,48.89015,0.0],[2.32632,48.88973,0.0],[2.32628,48.88959,0.0],[2.32613,48.88913,0.0],[2.32592,48.88853,0.0],[2.32586,48.88834,0.0],[2.32576,48.88802,0.0],[2.32559,48.8875,0.0],[2.32574,48.88716,0.0],[2.32592,48.88676,0.0],[2.32599,48.88659,0.0],[2.32612,48.88632,0.0],[2.32636,48.88582,0.0],[2.32658,48.88536,0.0],[2.32672,48.88504,0.0],[2.32677,48.88494,0.0],[2.32695,48.88455,0.0],[2.32724,48.88394,0.0],[2.32736,48.88365,0.0],[2.32743,48.88352,0.0],[2.32718,48.88348,0.0],[2.31666,48.88133,0.0],[2.3165,48.88132,0.0],[2.31529,48.88117,0.0],[2.31389,48.88099,0.0],[2.31253,48.88083,0.0],[2.31203,48.88076,0.0],[2.31164,48.88072,0.0],[2.30991,48.88051,0.0],[2.30914,48.88042,0.0],[2.3086,48.88032,0.0],[2.30535,48.87963,0.0],[2.30498,48.87955,0.0],[2.30311,48.87915,0.0],[2.30309,48.87914,0.0],[2.30241,48.879,0.0],[2.30177,48.87886,0.0],[2.30085,48.87866,0.0],[2.2989,48.87824,0.0],[2.29816,48.87808,0.0],[2.29796,48.87781,0.0],[2.29786,48.87766,0.0],[2.29758,48.87727,0.0],[2.29718,48.87673,0.0],[2.29686,48.87629,0.0],[2.29654,48.87585,0.0],[2.29624,48.87544,0.0],[2.29616,48.87533,0.0],[2.29601,48.87512,0.0],[2.29574,48.87475,0.0],[2.29544,48.87433,0.0],[2.29504,48.87378,0.0],[2.29382,48.87416,0.0],[2.29106,48.87504,0.0],[2.28899,48.8757,0.0],[2.28535,48.87687,0.0],[2.28415,48.87723,0.0],[2.28341,48.87747,0.0],[2.28335,48.87749,0.0],[2.2813,48.87816,0.0],[2.28117,48.87821,0.0],[2.27997,48.8786,0.0],[2.2798,48.87865,0.0]]]]}}]}