{"type":"FeatureCollection","name":"FRA_R28722","crs":{"type":"name","properties":{"name":"urn:ogc:def:crs:OGC:1.3:CRS84"}},"features":[{"type":"Feature","properties":{"nbhd_name":"HOPITAUX-FACULTES","uesi_id":"FRA_R28722","nbhd_code":"FRA_R28722_2"},"geometry":{"type":"Polygon","coordinates":[[[3.85683,43.65337],[3.8569,43.65336],[3.85742,43.65325],[3.85754,43.65322],[3.8576,43.65319],[3.8583,43.65291],[3.85861,43.65277],[3.85886,43.65262],[3.85889,43.6526],[3.85893,43.65257],[3.85896,43.65255],[3.85901,43.6525],[3.85907,43.65244],[3.85913,43.6524],[3.85924,43.65234],[3.85933,43.6523],[3.85952,43.65221],[3.85969,43.65214],[3.85986,43.65209],[3.85999,43.65205],[3.86018,43.65199],[3.86049,43.6519],[3.86055,43.65189],[3.86064,43.65188],[3.86086,43.65185],[3.86105,43.6518],[3.86124,43.65173],[3.86138,43.65165],[3.86173,43.65139],[3.8618,43.65136],[3.86192,43.65126],[3.86199,43.65121],[3.86212,43.65108],[3.86223,43.65098],[3.86225,43.65095],[3.8623,43.65091],[3.86231,43.6509],[3.86236,43.65086],[3.86243,43.65083],[3.86256,43.65076],[3.86265,43.65071],[3.86272,43.65067],[3.86277,43.65065],[3.86306,43.65053],[3.8631,43.65051],[3.86314,43.65049],[3.86322,43.65044],[3.86332,43.65038],[3.86342,43.65031],[3.86344,43.65029],[3.86352,43.65023],[3.86356,43.6502],[3.86359,43.65018],[3.86362,43.65016],[3.86364,43.65016],[3.86367,43.65016],[3.8637,43.65017],[3.86388,43.65022],[3.86424,43.65031],[3.86429,43.65032],[3.86435,43.65034],[3.86453,43.65031],[3.86511,43.65022],[3.86567,43.65012],[3.86579,43.65009],[3.86584,43.65008],[3.86588,43.65006],[3.86596,43.65003],[3.86601,43.65001],[3.86609,43.64998],[3.86612,43.64997],[3.86617,43.64995],[3.8662,43.64993],[3.86624,43.64991],[3.86629,43.64988],[3.86637,43.6498],[3.86642,43.64975],[3.86655,43.64963],[3.86689,43.64933],[3.86721,43.64905],[3.86726,43.649],[3.86729,43.64897],[3.86734,43.64891],[3.86739,43.64886],[3.86742,43.64883],[3.86744,43.64881],[3.86747,43.64877],[3.86755,43.64869],[3.86765,43.64859],[3.86786,43.64839],[3.86792,43.64833],[3.86809,43.64816],[3.86832,43.64795],[3.86856,43.64776],[3.86857,43.64775],[3.86861,43.64774],[3.86926,43.64773],[3.86959,43.64776],[3.87007,43.6478],[3.8702,43.64782],[3.87028,43.64783],[3.87096,43.64792],[3.8711,43.64794],[3.8712,43.64796],[3.87151,43.64802],[3.87169,43.64807],[3.8718,43.6481],[3.8719,43.64814],[3.87206,43.64821],[3.87226,43.6483],[3.87246,43.64839],[3.8726,43.64845],[3.87271,43.64848],[3.87285,43.64852],[3.87298,43.64856],[3.87303,43.64857],[3.8733,43.64856],[3.87358,43.64849],[3.8738,43.64841],[3.87392,43.64838],[3.87404,43.64836],[3.87411,43.64835],[3.87422,43.64836],[3.87434,43.64837],[3.87443,43.64838],[3.87453,43.6484],[3.87461,43.64842],[3.87475,43.64847],[3.87486,43.64852],[3.87499,43.64857],[3.87511,43.64863],[3.8752,43.64868],[3.87529,43.64874],[3.8754,43.64882],[3.87548,43.64888],[3.87557,43.64895],[3.87564,43.64901],[3.87567,43.64904],[3.87572,43.64907],[3.87579,43.64908],[3.87594,43.6491],[3.8761,43.64911],[3.8762,43.6491],[3.87637,43.64909],[3.87651,43.64908],[3.87663,43.64907],[3.87678,43.64905],[3.87696,43.64904],[3.87713,43.64903],[3.87735,43.64903],[3.87761,43.64902],[3.87787,43.64901],[3.87797,43.64901],[3.87803,43.64902],[3.87808,43.64904],[3.87813,43.64908],[3.87817,43.64911],[3.87823,43.64914],[3.87831,43.64917],[3.87836,43.64919],[3.87845,43.64923],[3.87861,43.64929],[3.8787,43.64931],[3.87878,43.64931],[3.87884,43.6493],[3.87894,43.64928],[3.87902,43.64926],[3.87909,43.64923],[3.87921,43.64917],[3.87936,43.6491],[3.87954,43.64901],[3.87964,43.64896],[3.87972,43.64891],[3.87978,43.64886],[3.87983,43.64881],[3.87995,43.6487],[3.88007,43.64859],[3.88014,43.64853],[3.88025,43.64845],[3.88036,43.64838],[3.88047,43.64831],[3.88061,43.64821],[3.88071,43.64814],[3.88078,43.64809],[3.88087,43.648],[3.8809,43.64796],[3.88095,43.64789],[3.88122,43.6475],[3.88138,43.64726],[3.88154,43.64703],[3.88169,43.6468],[3.88176,43.64669],[3.88186,43.64651],[3.88193,43.6464],[3.88194,43.64636],[3.88199,43.64631],[3.88205,43.64626],[3.88212,43.64622],[3.88222,43.64618],[3.88231,43.64615],[3.88244,43.64612],[3.88259,43.64609],[3.88281,43.64605],[3.88301,43.646],[3.8833,43.64594],[3.88387,43.64585],[3.88424,43.64579],[3.88458,43.64574],[3.88469,43.64572],[3.88502,43.64565],[3.88518,43.64562],[3.8853,43.64559],[3.88543,43.64554],[3.88555,43.64548],[3.88568,43.64541],[3.88583,43.64532],[3.88594,43.64523],[3.88601,43.64514],[3.88604,43.64508],[3.88607,43.645],[3.88611,43.64489],[3.88617,43.64477],[3.88623,43.64466],[3.88629,43.64456],[3.88634,43.64448],[3.88636,43.64442],[3.88638,43.64435],[3.88641,43.64426],[3.88643,43.64417],[3.88644,43.6441],[3.88648,43.64404],[3.88654,43.64398],[3.88657,43.64394],[3.88666,43.64391],[3.88672,43.6439],[3.88683,43.64392],[3.88694,43.64394],[3.88706,43.64397],[3.88718,43.644],[3.88736,43.64403],[3.88744,43.64406],[3.88755,43.64407],[3.88769,43.64406],[3.88785,43.64404],[3.88801,43.64403],[3.88879,43.64399],[3.88906,43.64398],[3.88925,43.64397],[3.88936,43.64397],[3.88947,43.64395],[3.88961,43.64391],[3.8898,43.64381],[3.88996,43.64372],[3.89009,43.64364],[3.89027,43.64353],[3.89031,43.64348],[3.89035,43.64343],[3.89037,43.64337],[3.89038,43.64331],[3.89037,43.64326],[3.89036,43.64315],[3.89034,43.64303],[3.8903,43.64286],[3.89027,43.64271],[3.89023,43.6426],[3.89019,43.64251],[3.89015,43.64243],[3.89008,43.64235],[3.89,43.64225],[3.88986,43.6421],[3.88971,43.64194],[3.88965,43.64187],[3.88961,43.64179],[3.88959,43.64173],[3.88958,43.64168],[3.88961,43.64159],[3.88968,43.64151],[3.88974,43.64146],[3.88987,43.6414],[3.89003,43.64134],[3.8902,43.6413],[3.89032,43.64127],[3.89049,43.64125],[3.89061,43.64125],[3.89081,43.64126],[3.89099,43.64127],[3.89119,43.64131],[3.89141,43.64135],[3.8916,43.6414],[3.89181,43.64145],[3.89198,43.6415],[3.89204,43.64151],[3.89213,43.64153],[3.89214,43.64153],[3.89227,43.64152],[3.89233,43.64151],[3.89237,43.6415],[3.89249,43.64147],[3.8926,43.64143],[3.89266,43.6414],[3.89269,43.64138],[3.89271,43.64136],[3.89274,43.64134],[3.89277,43.64131],[3.89288,43.6412],[3.89296,43.64109],[3.89298,43.64105],[3.893,43.64102],[3.89306,43.64088],[3.89312,43.64072],[3.89317,43.64059],[3.89319,43.64055],[3.8932,43.64051],[3.89322,43.64041],[3.89323,43.64036],[3.89324,43.64025],[3.89326,43.64013],[3.89327,43.64001],[3.89328,43.63997],[3.8933,43.63987],[3.8933,43.63983],[3.89333,43.63967],[3.89334,43.63962],[3.89334,43.63959],[3.89335,43.63948],[3.89335,43.63944],[3.89335,43.63941],[3.89336,43.63932],[3.89339,43.63914],[3.89339,43.63909],[3.8934,43.63901],[3.89345,43.63865],[3.89345,43.63856],[3.89344,43.63852],[3.89343,43.63844],[3.89342,43.6384],[3.89341,43.63837],[3.89336,43.63824],[3.89334,43.6382],[3.89332,43.63816],[3.89329,43.63812],[3.89326,43.63809],[3.89323,43.63806],[3.89315,43.63799],[3.8931,43.63796],[3.89306,43.63792],[3.89302,43.6379],[3.89298,43.63789],[3.89292,43.63788],[3.89286,43.63787],[3.89278,43.63786],[3.89274,43.63786],[3.89271,43.63785],[3.89268,43.63784],[3.89263,43.63783],[3.89258,43.6378],[3.89254,43.63779],[3.89251,43.63777],[3.89246,43.63774],[3.89242,43.63771],[3.89238,43.63768],[3.89235,43.63766],[3.8923,43.63761],[3.89226,43.63758],[3.89224,43.63755],[3.89221,43.63752],[3.89213,43.63744],[3.8921,43.63741],[3.89198,43.63726],[3.89192,43.63717],[3.89189,43.63714],[3.89187,43.63711],[3.89179,43.637],[3.89176,43.63697],[3.8917,43.63689],[3.89168,43.63686],[3.89165,43.63683],[3.8916,43.63678],[3.89155,43.63672],[3.89151,43.63669],[3.89143,43.63661],[3.89141,43.63658],[3.89138,43.63655],[3.8913,43.63647],[3.89128,43.63644],[3.89126,43.63642],[3.89119,43.63635],[3.8911,43.63623],[3.891,43.63607],[3.89093,43.63596],[3.8909,43.63593],[3.89088,43.63589],[3.89085,43.63587],[3.89083,43.63586],[3.89077,43.63583],[3.89073,43.63581],[3.89069,43.63579],[3.89058,43.63575],[3.89053,43.63573],[3.89048,43.63572],[3.89038,43.63571],[3.89034,43.6357],[3.8903,43.6357],[3.89018,43.63569],[3.89013,43.63568],[3.89009,43.63567],[3.89004,43.63565],[3.88999,43.63563],[3.88998,43.63562],[3.88992,43.63558],[3.88987,43.63553],[3.88986,43.6355],[3.88983,43.63546],[3.88981,43.63543],[3.88975,43.63534],[3.88974,43.63531],[3.88972,43.63529],[3.88965,43.63517],[3.88956,43.63496],[3.88952,43.63487],[3.88948,43.63478],[3.88948,43.63474],[3.88947,43.63472],[3.88944,43.63458],[3.88944,43.63455],[3.88943,43.63443],[3.88943,43.6344],[3.88943,43.6343],[3.88943,43.6342],[3.88943,43.63416],[3.88944,43.6341],[3.88944,43.63407],[3.88944,43.63406],[3.88946,43.63399],[3.88948,43.63396],[3.8895,43.63393],[3.88953,43.6339],[3.88956,43.63386],[3.88959,43.63383],[3.88961,43.63381],[3.88962,43.6338],[3.88965,43.63379],[3.88967,43.63379],[3.88978,43.63378],[3.88985,43.63378],[3.88996,43.63377],[3.89008,43.63376],[3.89034,43.63375],[3.89038,43.63375],[3.89052,43.63374],[3.89059,43.63374],[3.8907,43.63374],[3.89073,43.63374],[3.89086,43.63374],[3.89103,43.63375],[3.89128,43.63375],[3.89133,43.63375],[3.89136,43.63375],[3.89141,43.63375],[3.89154,43.63373],[3.89159,43.63372],[3.8917,43.6337],[3.89181,43.63368],[3.89186,43.63367],[3.89197,43.63365],[3.89199,43.63365],[3.89201,43.63364],[3.89203,43.63363],[3.89207,43.63361],[3.89212,43.63359],[3.89215,43.63357],[3.89217,43.63356],[3.8922,43.63354],[3.89221,43.63352],[3.89223,43.63351],[3.89227,43.63343],[3.89229,43.6334],[3.89235,43.63328],[3.89237,43.63324],[3.89239,43.63321],[3.89243,43.63313],[3.89245,43.6331],[3.89247,43.63307],[3.89252,43.633],[3.89255,43.63298],[3.89256,43.63297],[3.89291,43.6327],[3.89296,43.63266],[3.89303,43.63259],[3.89314,43.6325],[3.89319,43.63244],[3.89321,43.63242],[3.89325,43.63237],[3.8933,43.63231],[3.89336,43.63223],[3.8934,43.63218],[3.8935,43.63206],[3.89351,43.63205],[3.89351,43.63204],[3.89351,43.63201],[3.89351,43.63193],[3.8935,43.63173],[3.89349,43.63165],[3.89349,43.63162],[3.89348,43.63158],[3.89348,43.63149],[3.89348,43.63145],[3.89348,43.63142],[3.89349,43.63132],[3.89349,43.63129],[3.89349,43.63126],[3.89349,43.63117],[3.8935,43.6311],[3.89351,43.63099],[3.89352,43.63078],[3.89352,43.63073],[3.89353,43.63063],[3.89353,43.63049],[3.89354,43.6304],[3.89354,43.63029],[3.89355,43.63016],[3.89355,43.63008],[3.89359,43.63],[3.89362,43.62993],[3.89365,43.62983],[3.8937,43.62973],[3.89379,43.62956],[3.89382,43.62949],[3.89383,43.62948],[3.89399,43.62937],[3.89411,43.62928],[3.89414,43.62924],[3.89423,43.62909],[3.89424,43.62906],[3.89429,43.62897],[3.89432,43.62895],[3.89446,43.62881],[3.89455,43.62872],[3.89457,43.6287],[3.89462,43.62864],[3.89466,43.62859],[3.89467,43.62857],[3.89468,43.62854],[3.89469,43.62851],[3.89472,43.62841],[3.89474,43.62834],[3.89475,43.62831],[3.89478,43.62821],[3.89479,43.62817],[3.89483,43.62809],[3.89486,43.62803],[3.89488,43.62799],[3.89494,43.62789],[3.89498,43.62784],[3.89503,43.62777],[3.89505,43.62775],[3.89512,43.62767],[3.89515,43.62765],[3.89518,43.62762],[3.89521,43.62759],[3.89526,43.62757],[3.89541,43.62751],[3.89558,43.62746],[3.89562,43.62745],[3.89573,43.62744],[3.89577,43.62744],[3.89579,43.62744],[3.89582,43.62744],[3.89594,43.62743],[3.89596,43.62743],[3.89598,43.62743],[3.89602,43.62742],[3.89619,43.6274],[3.89621,43.62739],[3.89222,43.62351],[3.89186,43.62373],[3.88915,43.62476],[3.88799,43.62501],[3.88719,43.62518],[3.88666,43.62538],[3.88616,43.62561],[3.88568,43.6259],[3.88514,43.62628],[3.88433,43.62627],[3.88338,43.62623],[3.88229,43.62602],[3.8794,43.62563],[3.87909,43.62565],[3.87884,43.6257],[3.87739,43.62608],[3.87533,43.62663],[3.87484,43.62674],[3.87375,43.62692],[3.87305,43.627],[3.87237,43.62704],[3.87105,43.62698],[3.86975,43.62693],[3.86965,43.62692],[3.86646,43.62646],[3.8657,43.62621],[3.86463,43.62564],[3.86275,43.62431],[3.86227,43.624],[3.86174,43.62358],[3.85974,43.62218],[3.85895,43.62163],[3.85849,43.62119],[3.85803,43.62064],[3.85742,43.62087],[3.85661,43.62127],[3.85514,43.62217],[3.85491,43.62232],[3.85467,43.62256],[3.85441,43.62301],[3.85417,43.62333],[3.85391,43.62357],[3.85244,43.62447],[3.85099,43.62505],[3.85023,43.62537],[3.84933,43.626],[3.8485,43.6266],[3.84707,43.6273],[3.8466,43.62755],[3.84627,43.62786],[3.84575,43.62854],[3.84551,43.62874],[3.84503,43.62901],[3.84375,43.62971],[3.84271,43.63069],[3.84207,43.63056],[3.84189,43.62993],[3.8417,43.62946],[3.84139,43.62894],[3.8411,43.62855],[3.84074,43.62819],[3.8401,43.62761],[3.83956,43.62721],[3.83891,43.6268],[3.83819,43.62635],[3.83788,43.62658],[3.83774,43.62684],[3.8376,43.6271],[3.8375,43.62734],[3.83705,43.62749],[3.83653,43.62764],[3.83559,43.62791],[3.83447,43.62836],[3.8342,43.62851],[3.83383,43.62873],[3.83342,43.62896],[3.83294,43.62922],[3.83265,43.62948],[3.8324,43.62972],[3.83222,43.62983],[3.832,43.62991],[3.83179,43.62995],[3.83139,43.63004],[3.83132,43.63006],[3.83128,43.6301],[3.83125,43.63015],[3.83124,43.6302],[3.83136,43.63094],[3.83139,43.63111],[3.83137,43.63129],[3.83132,43.63147],[3.83125,43.63161],[3.83104,43.63199],[3.83092,43.63223],[3.8308,43.63248],[3.83067,43.63274],[3.83045,43.63319],[3.83033,43.6335],[3.83021,43.63367],[3.83016,43.6337],[3.83013,43.63372],[3.83007,43.63377],[3.82984,43.63395],[3.82971,43.63404],[3.82943,43.63424],[3.8292,43.63441],[3.82906,43.63451],[3.82889,43.63463],[3.82847,43.63492],[3.82834,43.63508],[3.82812,43.63554],[3.82788,43.63595],[3.82779,43.63611],[3.82769,43.63628],[3.82764,43.6367],[3.82717,43.63859],[3.82872,43.63921],[3.82801,43.63979],[3.82799,43.6399],[3.82797,43.63998],[3.82795,43.64006],[3.82795,43.64008],[3.82796,43.6401],[3.82797,43.64012],[3.82798,43.64012],[3.82799,43.64013],[3.828,43.64014],[3.82801,43.64015],[3.82802,43.64015],[3.82804,43.64015],[3.82806,43.64016],[3.82809,43.64016],[3.82828,43.64019],[3.8284,43.64022],[3.82854,43.64024],[3.82863,43.64026],[3.82866,43.64026],[3.82868,43.64027],[3.82869,43.64028],[3.82871,43.64029],[3.82872,43.6403],[3.82873,43.6403],[3.82874,43.64032],[3.82874,43.64033],[3.82875,43.64034],[3.82875,43.64035],[3.82875,43.64036],[3.82876,43.64037],[3.82877,43.64039],[3.82878,43.64042],[3.8288,43.64048],[3.82883,43.64055],[3.82884,43.64058],[3.82886,43.64061],[3.82887,43.64063],[3.82888,43.64066],[3.82889,43.64068],[3.82891,43.64072],[3.82896,43.64081],[3.82899,43.64086],[3.829,43.64089],[3.82901,43.6409],[3.82903,43.64092],[3.82904,43.64094],[3.82905,43.64095],[3.82907,43.64098],[3.82909,43.641],[3.8291,43.64101],[3.82911,43.64103],[3.82912,43.64104],[3.82914,43.64105],[3.82916,43.64107],[3.82917,43.64109],[3.82918,43.6411],[3.8292,43.64112],[3.82921,43.64113],[3.82923,43.64115],[3.82924,43.64116],[3.82926,43.64118],[3.82927,43.64119],[3.82936,43.64127],[3.8294,43.64132],[3.82947,43.64139],[3.82957,43.64151],[3.82968,43.64166],[3.82978,43.6418],[3.82987,43.64191],[3.82995,43.64202],[3.83002,43.64212],[3.83009,43.64222],[3.8301,43.64223],[3.83017,43.64232],[3.83023,43.64241],[3.83029,43.6425],[3.83035,43.64258],[3.83042,43.64269],[3.8305,43.6428],[3.83056,43.64291],[3.83066,43.64306],[3.83075,43.6432],[3.83084,43.64337],[3.83087,43.64345],[3.83091,43.64356],[3.83099,43.64382],[3.83103,43.64395],[3.83117,43.64393],[3.83119,43.64392],[3.83122,43.64392],[3.83142,43.64388],[3.8316,43.64384],[3.83166,43.64383],[3.83202,43.64375],[3.83221,43.6437],[3.83238,43.64366],[3.8325,43.64363],[3.83264,43.64362],[3.83291,43.64353],[3.83307,43.64347],[3.83367,43.64325],[3.83392,43.64316],[3.83401,43.64313],[3.83441,43.64298],[3.8347,43.64287],[3.83502,43.64276],[3.83506,43.64274],[3.83525,43.64267],[3.83548,43.64259],[3.83559,43.64255],[3.83562,43.64254],[3.83565,43.64271],[3.83558,43.64282],[3.83557,43.64284],[3.83556,43.64286],[3.83555,43.64288],[3.83555,43.64289],[3.83555,43.64291],[3.83554,43.64292],[3.83554,43.64293],[3.83555,43.64296],[3.83556,43.64298],[3.83558,43.64301],[3.83559,43.64302],[3.83566,43.6431],[3.83568,43.64313],[3.83569,43.64316],[3.8357,43.64319],[3.83569,43.64322],[3.83568,43.64326],[3.83564,43.64335],[3.83559,43.64339],[3.83555,43.64344],[3.83552,43.64347],[3.83551,43.6435],[3.83551,43.64351],[3.83551,43.64356],[3.83551,43.64359],[3.83552,43.64361],[3.83553,43.64363],[3.83553,43.64364],[3.83555,43.64366],[3.83557,43.64368],[3.83558,43.64369],[3.83563,43.64372],[3.83566,43.64374],[3.83568,43.64375],[3.83571,43.64378],[3.83573,43.6438],[3.83574,43.64382],[3.83574,43.64385],[3.83573,43.64395],[3.83574,43.64402],[3.83574,43.64405],[3.83574,43.64409],[3.83574,43.64417],[3.83574,43.64425],[3.83574,43.64432],[3.83573,43.64438],[3.83573,43.64443],[3.83572,43.64446],[3.83571,43.6445],[3.8357,43.64454],[3.83569,43.64457],[3.83568,43.64459],[3.83567,43.6446],[3.83564,43.64466],[3.83562,43.6447],[3.8356,43.64472],[3.83558,43.64475],[3.83553,43.64482],[3.83555,43.64485],[3.83563,43.64492],[3.83566,43.64495],[3.83575,43.64502],[3.83581,43.64508],[3.83583,43.6451],[3.83583,43.64511],[3.83584,43.64513],[3.83583,43.64515],[3.83582,43.64517],[3.83577,43.64527],[3.83574,43.64533],[3.83573,43.64535],[3.83568,43.64546],[3.83567,43.64549],[3.83566,43.6455],[3.83565,43.64554],[3.83566,43.64556],[3.83566,43.64557],[3.83567,43.64559],[3.83568,43.6456],[3.8357,43.6456],[3.83576,43.64561],[3.83581,43.64563],[3.83585,43.64564],[3.83598,43.64568],[3.83599,43.64568],[3.83607,43.64571],[3.83613,43.64574],[3.83618,43.64577],[3.83621,43.64578],[3.83629,43.64581],[3.83635,43.64584],[3.83641,43.64586],[3.83656,43.6459],[3.8366,43.64591],[3.83663,43.64592],[3.83672,43.64593],[3.83677,43.64594],[3.83688,43.64595],[3.83689,43.64596],[3.83688,43.64599],[3.83687,43.646],[3.83685,43.64602],[3.83684,43.64603],[3.83682,43.64605],[3.83679,43.64608],[3.83677,43.64611],[3.83674,43.64615],[3.83673,43.64617],[3.83669,43.64624],[3.83665,43.64634],[3.83662,43.64641],[3.8366,43.64648],[3.83659,43.64651],[3.83658,43.64654],[3.83657,43.64657],[3.83657,43.64662],[3.83657,43.64664],[3.83657,43.64667],[3.83659,43.6467],[3.83661,43.64672],[3.83662,43.64673],[3.83664,43.64676],[3.83665,43.64677],[3.83667,43.64678],[3.8367,43.64681],[3.83673,43.64685],[3.83674,43.64686],[3.83675,43.64688],[3.83676,43.64691],[3.83678,43.64697],[3.83681,43.64702],[3.83683,43.64704],[3.83687,43.64708],[3.83695,43.64714],[3.83705,43.64721],[3.83708,43.64723],[3.83714,43.64728],[3.83717,43.6473],[3.8372,43.64733],[3.83724,43.64735],[3.83729,43.64738],[3.83733,43.64739],[3.83738,43.6474],[3.83746,43.64743],[3.83751,43.64745],[3.83755,43.64747],[3.83756,43.64748],[3.83759,43.64752],[3.8376,43.64753],[3.83761,43.64756],[3.83764,43.64761],[3.83766,43.64766],[3.83768,43.6477],[3.83768,43.64774],[3.83768,43.64782],[3.83769,43.64789],[3.83771,43.64796],[3.83775,43.64803],[3.83778,43.64809],[3.83782,43.64815],[3.83786,43.64821],[3.83789,43.64825],[3.83791,43.6483],[3.83791,43.64833],[3.83791,43.64836],[3.83791,43.64837],[3.83791,43.64842],[3.83791,43.64846],[3.83794,43.6485],[3.83799,43.64859],[3.83801,43.64864],[3.83804,43.64868],[3.83809,43.64875],[3.83812,43.64879],[3.83816,43.64884],[3.83818,43.64887],[3.8382,43.64891],[3.83822,43.64897],[3.83823,43.64901],[3.83823,43.64911],[3.83823,43.64914],[3.83823,43.64924],[3.83822,43.64934],[3.83822,43.6494],[3.83822,43.64941],[3.83821,43.64948],[3.83819,43.64954],[3.83818,43.64958],[3.83817,43.64961],[3.83816,43.64963],[3.83815,43.64965],[3.83813,43.64968],[3.8381,43.64971],[3.83808,43.64974],[3.83807,43.64975],[3.83802,43.64979],[3.83796,43.64985],[3.83789,43.64991],[3.83793,43.64995],[3.83804,43.65003],[3.8381,43.65006],[3.83812,43.65007],[3.83818,43.65011],[3.83825,43.65015],[3.8383,43.65018],[3.83838,43.65024],[3.83848,43.65032],[3.83852,43.65035],[3.83855,43.65037],[3.83862,43.65037],[3.83876,43.65047],[3.83941,43.64983],[3.8401,43.64911],[3.8403,43.64887],[3.84054,43.64857],[3.84076,43.6483],[3.84086,43.64817],[3.84109,43.64784],[3.84122,43.64765],[3.84142,43.64771],[3.84184,43.64782],[3.84185,43.64784],[3.84207,43.6479],[3.84213,43.64791],[3.84258,43.64805],[3.84344,43.64829],[3.84405,43.64847],[3.84441,43.64861],[3.84463,43.6487],[3.84465,43.64869],[3.84473,43.6487],[3.84476,43.6487],[3.84481,43.64871],[3.84529,43.64885],[3.84544,43.64889],[3.84589,43.64901],[3.84598,43.649],[3.84631,43.64894],[3.84738,43.64874],[3.84832,43.64856],[3.84836,43.64855],[3.84852,43.64876],[3.84878,43.64907],[3.84879,43.64908],[3.84879,43.64909],[3.84886,43.64929],[3.84893,43.64955],[3.84894,43.64965],[3.84896,43.64984],[3.84903,43.64985],[3.84911,43.64984],[3.84914,43.64983],[3.84924,43.6498],[3.84929,43.64979],[3.84943,43.64981],[3.84971,43.64986],[3.85029,43.64994],[3.85054,43.64998],[3.85056,43.64999],[3.85058,43.65],[3.85065,43.65034],[3.8508,43.65106],[3.85082,43.65114],[3.85083,43.65115],[3.85089,43.65119],[3.8515,43.65157],[3.85187,43.6518],[3.85225,43.65178],[3.85249,43.6516],[3.85273,43.65135],[3.85276,43.65132],[3.85306,43.65106],[3.85307,43.65105],[3.85309,43.65104],[3.85313,43.65104],[3.85317,43.65103],[3.85379,43.65106],[3.85449,43.6511],[3.8546,43.65111],[3.85466,43.65113],[3.85471,43.65115],[3.85475,43.65118],[3.85476,43.65118],[3.8548,43.65122],[3.85483,43.65126],[3.85494,43.65147],[3.85497,43.65151],[3.85501,43.65155],[3.85502,43.65156],[3.85508,43.6516],[3.85514,43.65163],[3.85517,43.65165],[3.8553,43.65169],[3.85537,43.65171],[3.85554,43.65176],[3.85559,43.65177],[3.85586,43.65183],[3.85592,43.65185],[3.85595,43.65186],[3.85598,43.65188],[3.85602,43.6519],[3.85604,43.65193],[3.85625,43.6523],[3.85639,43.65253],[3.85645,43.65265],[3.85672,43.65314],[3.85683,43.65337]]]}},{"type":"Feature","properties":{"nbhd_name":"MOSSON","uesi_id":"FRA_R28722","nbhd_code":"FRA_R28722_3"},"geometry":{"type":"Polygon","coordinates":[[[3.82378,43.64303],[3.82374,43.64304],[3.82355,43.64311],[3.82333,43.64319],[3.82309,43.64328],[3.82306,43.64329],[3.82304,43.6433],[3.82299,43.64331],[3.82294,43.64332],[3.8229,43.64332],[3.82285,43.64333],[3.82281,43.64334],[3.82276,43.64334],[3.82271,43.64334],[3.82267,43.64334],[3.82264,43.64333],[3.82259,43.64333],[3.82256,43.64333],[3.82255,43.64334],[3.82234,43.64333],[3.82235,43.64326],[3.82237,43.64314],[3.82238,43.64304],[3.8224,43.64294],[3.82239,43.64279],[3.82238,43.64269],[3.82237,43.64265],[3.82235,43.64258],[3.82233,43.64252],[3.82232,43.6425],[3.82227,43.64235],[3.82224,43.64225],[3.82219,43.6422],[3.82208,43.64212],[3.82198,43.64204],[3.82197,43.64195],[3.82196,43.64183],[3.8219,43.64185],[3.82174,43.6419],[3.82156,43.64197],[3.82144,43.64203],[3.82132,43.64209],[3.82121,43.64214],[3.82114,43.64218],[3.82104,43.64224],[3.82099,43.64226],[3.82096,43.64229],[3.82093,43.6423],[3.8209,43.64231],[3.82073,43.6424],[3.82049,43.64242],[3.82046,43.64234],[3.82035,43.64207],[3.82023,43.64174],[3.82064,43.64171],[3.82072,43.6417],[3.82083,43.64169],[3.82096,43.64168],[3.82146,43.64163],[3.82151,43.64163],[3.82157,43.64162],[3.82183,43.64147],[3.82195,43.6414],[3.82208,43.64133],[3.8222,43.64126],[3.82231,43.6412],[3.82232,43.64119],[3.82244,43.64112],[3.82248,43.6411],[3.82256,43.64104],[3.82267,43.64096],[3.82278,43.64088],[3.8228,43.64086],[3.82295,43.6408],[3.82306,43.64075],[3.82308,43.64074],[3.82316,43.64065],[3.82319,43.64063],[3.82327,43.64058],[3.82339,43.6405],[3.82351,43.64042],[3.82363,43.64035],[3.82374,43.64028],[3.82393,43.64016],[3.8241,43.64005],[3.82373,43.63989],[3.82364,43.63985],[3.82334,43.63973],[3.82319,43.63967],[3.82318,43.63967],[3.82325,43.6396],[3.82338,43.6395],[3.8236,43.63933],[3.82374,43.63923],[3.82388,43.63912],[3.82401,43.63902],[3.82415,43.63891],[3.82423,43.63885],[3.82418,43.63874],[3.82388,43.63856],[3.82409,43.63839],[3.82412,43.63838],[3.82444,43.63811],[3.82465,43.63819],[3.82479,43.63824],[3.8252,43.63839],[3.82566,43.63857],[3.82573,43.63857],[3.82618,43.63872],[3.82621,43.63873],[3.82655,43.63885],[3.82656,43.63885],[3.82663,43.63888],[3.82668,43.63891],[3.82686,43.63899],[3.82691,43.63901],[3.82693,43.63902],[3.82701,43.63905],[3.82706,43.63906],[3.82709,43.63907],[3.82715,43.63914],[3.82717,43.63915],[3.82726,43.63926],[3.82728,43.63928],[3.82729,43.63929],[3.8273,43.6393],[3.82731,43.63931],[3.82732,43.63932],[3.82733,43.63933],[3.82734,43.63933],[3.82735,43.63934],[3.82737,43.63935],[3.82738,43.63936],[3.8274,43.63937],[3.82746,43.63941],[3.82752,43.63945],[3.82756,43.63948],[3.82763,43.63953],[3.82786,43.63969],[3.82789,43.6397],[3.82791,43.63972],[3.82797,43.63976],[3.82801,43.63979],[3.82801,43.63979],[3.82872,43.63921],[3.82717,43.63859],[3.82764,43.6367],[3.82769,43.63628],[3.82779,43.63611],[3.82788,43.63595],[3.82812,43.63554],[3.82834,43.63508],[3.82847,43.63492],[3.82889,43.63463],[3.82906,43.63451],[3.8292,43.63441],[3.82943,43.63424],[3.82971,43.63404],[3.82984,43.63395],[3.83007,43.63377],[3.83013,43.63372],[3.83016,43.6337],[3.83021,43.63367],[3.83033,43.6335],[3.83045,43.63319],[3.83067,43.63274],[3.8308,43.63248],[3.83092,43.63223],[3.83104,43.63199],[3.83125,43.63161],[3.83132,43.63147],[3.83137,43.63129],[3.83139,43.63111],[3.83136,43.63094],[3.83124,43.6302],[3.83125,43.63015],[3.83128,43.6301],[3.83132,43.63006],[3.83139,43.63004],[3.83179,43.62995],[3.832,43.62991],[3.83222,43.62983],[3.8324,43.62972],[3.83265,43.62948],[3.83294,43.62922],[3.83342,43.62896],[3.83383,43.62873],[3.8342,43.62851],[3.83447,43.62836],[3.83559,43.62791],[3.83653,43.62764],[3.83705,43.62749],[3.8375,43.62734],[3.8376,43.6271],[3.83774,43.62684],[3.83788,43.62658],[3.83819,43.62635],[3.83701,43.62566],[3.83687,43.6255],[3.83685,43.62519],[3.83683,43.62512],[3.83679,43.62505],[3.83675,43.625],[3.83669,43.62495],[3.83663,43.62491],[3.83655,43.62489],[3.83641,43.62486],[3.83627,43.62484],[3.83609,43.62486],[3.83602,43.62485],[3.83596,43.62481],[3.83582,43.62471],[3.83572,43.62458],[3.83568,43.62442],[3.83571,43.62422],[3.83584,43.62386],[3.83599,43.62358],[3.83609,43.62339],[3.83615,43.62327],[3.83619,43.62315],[3.8362,43.62302],[3.83619,43.62292],[3.83612,43.62279],[3.83604,43.62268],[3.83593,43.62258],[3.83572,43.62247],[3.83545,43.62243],[3.83521,43.62242],[3.83502,43.62242],[3.83489,43.62238],[3.83482,43.62225],[3.83473,43.62204],[3.83462,43.62179],[3.83439,43.62141],[3.83284,43.62004],[3.83281,43.61988],[3.83268,43.61955],[3.83212,43.61858],[3.83176,43.61802],[3.83126,43.61733],[3.83095,43.61699],[3.83053,43.61649],[3.83013,43.61593],[3.82912,43.61463],[3.83015,43.61473],[3.8307,43.61478],[3.83116,43.61481],[3.83279,43.61477],[3.83268,43.61353],[3.83271,43.61313],[3.83275,43.61277],[3.83346,43.61106],[3.83384,43.61014],[3.83259,43.61033],[3.82899,43.61107],[3.82732,43.6114],[3.82691,43.61147],[3.82641,43.61153],[3.82597,43.61155],[3.82558,43.61153],[3.82533,43.6115],[3.82508,43.61145],[3.82469,43.61131],[3.82427,43.61117],[3.82393,43.61105],[3.82346,43.61071],[3.82324,43.61046],[3.8231,43.61024],[3.82284,43.60987],[3.82259,43.60942],[3.82203,43.60889],[3.82166,43.6086],[3.82126,43.60834],[3.82074,43.608],[3.82038,43.60777],[3.81946,43.60725],[3.81948,43.60737],[3.81948,43.60738],[3.81949,43.60751],[3.8195,43.60754],[3.81958,43.60771],[3.81965,43.60802],[3.81971,43.60818],[3.81975,43.60833],[3.81976,43.60849],[3.81971,43.60872],[3.81946,43.60942],[3.81918,43.61004],[3.8187,43.61095],[3.81837,43.61158],[3.81777,43.61245],[3.81762,43.61274],[3.81763,43.61351],[3.81753,43.61408],[3.81734,43.61459],[3.81725,43.61515],[3.81726,43.61519],[3.81725,43.61525],[3.81718,43.61542],[3.81718,43.61544],[3.81709,43.61562],[3.81705,43.6157],[3.81697,43.61584],[3.81689,43.61596],[3.81683,43.61605],[3.81677,43.61613],[3.81666,43.61626],[3.81644,43.61646],[3.81631,43.61659],[3.81619,43.61673],[3.81602,43.61692],[3.81589,43.61706],[3.81579,43.61719],[3.81566,43.61735],[3.81555,43.61753],[3.81537,43.61776],[3.81532,43.61782],[3.81523,43.6179],[3.8151,43.618],[3.81499,43.61811],[3.81489,43.61821],[3.81475,43.61833],[3.81466,43.61842],[3.81457,43.61852],[3.81453,43.61856],[3.81438,43.61869],[3.81424,43.61879],[3.81417,43.61885],[3.81401,43.61899],[3.81393,43.61904],[3.81377,43.61909],[3.81372,43.61912],[3.81368,43.61914],[3.81362,43.6192],[3.8136,43.61923],[3.81353,43.61936],[3.81347,43.61947],[3.81344,43.61952],[3.81338,43.61959],[3.81331,43.61968],[3.81328,43.6197],[3.81324,43.61973],[3.81319,43.61976],[3.81314,43.61979],[3.8131,43.61981],[3.81305,43.61982],[3.81299,43.61983],[3.81294,43.61983],[3.81289,43.61983],[3.81287,43.61983],[3.81264,43.61979],[3.81255,43.61977],[3.81247,43.61977],[3.81239,43.61977],[3.81235,43.61977],[3.81233,43.61977],[3.81229,43.61978],[3.81226,43.61979],[3.81223,43.61981],[3.81221,43.61982],[3.81219,43.61984],[3.81214,43.61988],[3.81208,43.61995],[3.81201,43.62004],[3.81198,43.62013],[3.8119,43.62042],[3.81184,43.6206],[3.81182,43.62069],[3.81178,43.62078],[3.81174,43.62087],[3.81172,43.62091],[3.81167,43.62103],[3.81162,43.62112],[3.81159,43.62116],[3.81138,43.62147],[3.81135,43.6215],[3.81131,43.62154],[3.81113,43.62169],[3.8111,43.62171],[3.81106,43.62175],[3.81103,43.62177],[3.81096,43.62182],[3.81094,43.62184],[3.81082,43.6219],[3.81078,43.62192],[3.8107,43.62195],[3.8106,43.62199],[3.81031,43.62209],[3.81022,43.62211],[3.81012,43.62214],[3.81009,43.62215],[3.80999,43.62216],[3.80989,43.62216],[3.80985,43.62216],[3.80976,43.62216],[3.80962,43.62215],[3.8095,43.62213],[3.80946,43.62213],[3.8093,43.6221],[3.80925,43.6221],[3.80913,43.62208],[3.809,43.62205],[3.80892,43.62204],[3.80876,43.62199],[3.8087,43.62197],[3.80859,43.62195],[3.80849,43.62193],[3.80842,43.62192],[3.80834,43.62191],[3.80825,43.62191],[3.80807,43.62192],[3.80805,43.62192],[3.80801,43.62193],[3.8079,43.62197],[3.80785,43.62199],[3.80783,43.62199],[3.80779,43.62201],[3.80776,43.62204],[3.80773,43.62207],[3.80771,43.6221],[3.80765,43.62222],[3.80762,43.6223],[3.80757,43.6224],[3.80756,43.62242],[3.80752,43.62245],[3.8075,43.62246],[3.8075,43.62248],[3.80751,43.62269],[3.80753,43.62273],[3.80753,43.62275],[3.80758,43.62285],[3.80764,43.62299],[3.80764,43.623],[3.80763,43.6232],[3.80763,43.62328],[3.8076,43.62339],[3.80759,43.62349],[3.80758,43.6236],[3.80758,43.62364],[3.80759,43.62366],[3.80762,43.6237],[3.80766,43.62375],[3.80768,43.62376],[3.80772,43.62377],[3.80775,43.62378],[3.80777,43.62379],[3.80818,43.62398],[3.80824,43.62401],[3.8083,43.62404],[3.80833,43.62405],[3.80837,43.62408],[3.80843,43.62416],[3.80846,43.6242],[3.8085,43.62424],[3.80867,43.62438],[3.80869,43.6244],[3.80882,43.62449],[3.80889,43.62454],[3.80899,43.62459],[3.80905,43.62462],[3.80913,43.62465],[3.80924,43.62469],[3.80932,43.62471],[3.80951,43.62476],[3.80986,43.62484],[3.80997,43.62486],[3.8101,43.62488],[3.81032,43.62492],[3.81036,43.62492],[3.81042,43.62494],[3.81047,43.62495],[3.81073,43.62504],[3.81084,43.62508],[3.81089,43.6251],[3.81091,43.62511],[3.81094,43.62514],[3.81096,43.62516],[3.81099,43.62517],[3.81102,43.62518],[3.8111,43.62528],[3.81114,43.62532],[3.81116,43.62535],[3.81116,43.62537],[3.81114,43.62545],[3.8111,43.62553],[3.81107,43.62558],[3.81107,43.62563],[3.8111,43.62577],[3.81112,43.62581],[3.81115,43.62583],[3.81121,43.62587],[3.81146,43.62606],[3.81154,43.62612],[3.81167,43.62628],[3.81176,43.62638],[3.81185,43.62646],[3.81201,43.62659],[3.81218,43.62668],[3.81227,43.62676],[3.81235,43.62683],[3.81251,43.627],[3.81259,43.6271],[3.81263,43.62714],[3.81283,43.6273],[3.81288,43.62733],[3.81291,43.62735],[3.81296,43.62738],[3.81305,43.62742],[3.81313,43.62746],[3.8134,43.62757],[3.81384,43.62771],[3.81387,43.62772],[3.81402,43.62778],[3.81408,43.62781],[3.81421,43.62787],[3.81439,43.62797],[3.81452,43.62805],[3.81458,43.62808],[3.81464,43.62812],[3.81466,43.62813],[3.81489,43.62833],[3.81499,43.62842],[3.81531,43.62868],[3.8154,43.62876],[3.81558,43.6289],[3.81563,43.62895],[3.81564,43.62899],[3.81566,43.62905],[3.81568,43.62911],[3.81569,43.62914],[3.81572,43.62925],[3.81579,43.62984],[3.81582,43.63003],[3.81591,43.63023],[3.81615,43.6307],[3.81622,43.6309],[3.81626,43.63112],[3.81626,43.63131],[3.8162,43.63141],[3.81614,43.63152],[3.81602,43.63164],[3.8157,43.63193],[3.81528,43.63225],[3.81483,43.63258],[3.81457,43.63274],[3.8141,43.63299],[3.81379,43.63344],[3.81365,43.63364],[3.8136,43.63381],[3.81355,43.63388],[3.81341,43.63397],[3.81318,43.63415],[3.81298,43.63432],[3.81295,43.63434],[3.81291,43.63436],[3.81286,43.63438],[3.81274,43.63441],[3.8127,43.63441],[3.81252,43.63444],[3.81225,43.63445],[3.81218,43.63445],[3.81215,43.63445],[3.81211,43.63445],[3.81192,43.63442],[3.81156,43.63437],[3.81135,43.63435],[3.81122,43.63433],[3.81107,43.6343],[3.81094,43.63427],[3.81087,43.63426],[3.81076,43.63423],[3.81073,43.63422],[3.81063,43.63416],[3.81056,43.63412],[3.81052,43.63411],[3.81044,43.63408],[3.81037,43.63406],[3.81033,43.63405],[3.81024,43.63405],[3.80997,43.63404],[3.8097,43.63404],[3.8095,43.63405],[3.8094,43.63405],[3.8093,43.63406],[3.80922,43.63408],[3.80915,43.6341],[3.80882,43.63421],[3.80866,43.63428],[3.80863,43.63429],[3.80859,43.6343],[3.80855,43.6343],[3.80851,43.6343],[3.80838,43.63429],[3.80811,43.63427],[3.80804,43.63426],[3.80785,43.63425],[3.80778,43.63425],[3.80775,43.63425],[3.80767,43.63426],[3.80758,43.63428],[3.80753,43.63429],[3.80743,43.63432],[3.80729,43.63436],[3.80725,43.63438],[3.80723,43.6344],[3.80718,43.63443],[3.80712,43.63449],[3.80711,43.63451],[3.8071,43.63453],[3.80708,43.63459],[3.80707,43.63461],[3.80707,43.63464],[3.80708,43.63471],[3.80708,43.63474],[3.80712,43.63479],[3.80716,43.63484],[3.80724,43.63492],[3.80748,43.63513],[3.80778,43.63541],[3.80789,43.6355],[3.80796,43.63555],[3.80806,43.63563],[3.80818,43.63572],[3.80832,43.63584],[3.80838,43.63591],[3.8084,43.63594],[3.80842,43.63597],[3.80842,43.63599],[3.80842,43.63602],[3.80842,43.63605],[3.80841,43.63607],[3.80834,43.63627],[3.80832,43.63632],[3.80828,43.63645],[3.80824,43.63656],[3.8082,43.63664],[3.80812,43.63688],[3.8081,43.63694],[3.80804,43.63714],[3.80804,43.6372],[3.80804,43.63732],[3.80805,43.63735],[3.80806,43.6375],[3.80808,43.63766],[3.80808,43.63771],[3.80808,43.63776],[3.80807,43.63784],[3.80807,43.63786],[3.80806,43.63788],[3.80803,43.63803],[3.80802,43.63812],[3.80802,43.63813],[3.80802,43.63814],[3.80804,43.63821],[3.80805,43.63824],[3.80806,43.63827],[3.80807,43.63828],[3.80806,43.63842],[3.80805,43.63849],[3.80807,43.63856],[3.80808,43.63858],[3.80809,43.63863],[3.8081,43.63864],[3.8081,43.63868],[3.8081,43.6387],[3.80808,43.63875],[3.80806,43.63877],[3.80803,43.6388],[3.808,43.63882],[3.80791,43.63887],[3.80784,43.63889],[3.8078,43.6389],[3.80771,43.63892],[3.80767,43.63896],[3.80756,43.63905],[3.80721,43.63937],[3.80725,43.63954],[3.80726,43.63959],[3.80756,43.63995],[3.80758,43.63996],[3.80761,43.63999],[3.8077,43.64005],[3.80772,43.64005],[3.80781,43.64005],[3.80828,43.64023],[3.80837,43.64026],[3.80856,43.64035],[3.80879,43.64046],[3.8089,43.64051],[3.809,43.64055],[3.80901,43.64054],[3.8093,43.64046],[3.80944,43.64037],[3.80984,43.64027],[3.80988,43.64027],[3.81056,43.64037],[3.81079,43.64049],[3.81097,43.64058],[3.81138,43.64095],[3.8115,43.64105],[3.81191,43.64137],[3.81284,43.64195],[3.81295,43.64202],[3.81326,43.64221],[3.81333,43.64224],[3.81369,43.64236],[3.81384,43.6424],[3.81386,43.6424],[3.81451,43.64262],[3.81563,43.64299],[3.81598,43.64313],[3.81734,43.64368],[3.81798,43.64393],[3.81823,43.64403],[3.81839,43.6441],[3.81876,43.64415],[3.81894,43.64417],[3.82056,43.64352],[3.82088,43.64339],[3.82114,43.6434],[3.82155,43.6434],[3.82157,43.64343],[3.82162,43.64347],[3.82164,43.64352],[3.82165,43.64356],[3.82166,43.64358],[3.82166,43.6436],[3.82166,43.64362],[3.82166,43.64364],[3.82166,43.64367],[3.82166,43.6437],[3.82165,43.64371],[3.82165,43.64374],[3.82163,43.64377],[3.82162,43.64379],[3.82161,43.64381],[3.82159,43.64383],[3.82157,43.64385],[3.82155,43.64387],[3.82153,43.64389],[3.8215,43.64391],[3.82147,43.64393],[3.82143,43.64395],[3.8214,43.64397],[3.82137,43.64398],[3.82123,43.64404],[3.82107,43.6441],[3.82098,43.64414],[3.82097,43.64415],[3.82093,43.64416],[3.82089,43.64418],[3.82084,43.64421],[3.82081,43.64423],[3.82077,43.64425],[3.82074,43.64427],[3.8207,43.64431],[3.82068,43.64433],[3.82066,43.64435],[3.82063,43.64438],[3.8206,43.64441],[3.82061,43.64442],[3.82065,43.64445],[3.8208,43.64433],[3.82085,43.64431],[3.8209,43.64428],[3.82095,43.64426],[3.821,43.64423],[3.82102,43.64423],[3.82112,43.64418],[3.82126,43.64412],[3.82142,43.64406],[3.82161,43.64398],[3.82182,43.64389],[3.82203,43.64381],[3.82227,43.64371],[3.82251,43.64362],[3.82277,43.64351],[3.82308,43.64339],[3.8234,43.64326],[3.82374,43.64312],[3.82394,43.64304],[3.82403,43.64301],[3.82425,43.64292],[3.82432,43.64289],[3.82429,43.64286],[3.8241,43.64293],[3.82406,43.64295],[3.82401,43.64297],[3.82394,43.64298],[3.82386,43.643],[3.82383,43.64301],[3.8238,43.64302],[3.82378,43.64303]]]}},{"type":"Feature","properties":{"nbhd_name":"LES CEVENNES","uesi_id":"FRA_R28722","nbhd_code":"FRA_R28722_4"},"geometry":{"type":"Polygon","coordinates":[[[3.85803,43.62064],[3.85885,43.62023],[3.85873,43.61949],[3.85872,43.61927],[3.85873,43.61908],[3.85877,43.61892],[3.85881,43.6188],[3.85887,43.61872],[3.85896,43.61859],[3.85909,43.61847],[3.86119,43.61704],[3.86036,43.61673],[3.8588,43.61635],[3.85811,43.61613],[3.85889,43.61587],[3.85936,43.61568],[3.85994,43.61531],[3.86042,43.61502],[3.85969,43.61471],[3.85888,43.61332],[3.85896,43.61289],[3.85895,43.61265],[3.85889,43.61241],[3.85864,43.61205],[3.85787,43.61139],[3.85763,43.61125],[3.8573,43.6111],[3.85652,43.61055],[3.8563,43.61037],[3.85547,43.61027],[3.85542,43.60901],[3.85599,43.60905],[3.85503,43.60763],[3.85542,43.6073],[3.85452,43.60627],[3.85511,43.60606],[3.85452,43.6054],[3.85459,43.60522],[3.85545,43.60502],[3.85832,43.60415],[3.85811,43.604],[3.85764,43.60377],[3.85499,43.60279],[3.85174,43.60147],[3.85007,43.60096],[3.84848,43.60139],[3.84676,43.60126],[3.84624,43.60112],[3.84517,43.60069],[3.84363,43.59991],[3.84299,43.59954],[3.84256,43.59921],[3.8421,43.59882],[3.84158,43.59848],[3.83991,43.59745],[3.83903,43.59703],[3.83757,43.59663],[3.83725,43.59649],[3.83699,43.59632],[3.83684,43.59614],[3.83682,43.59608],[3.83684,43.59602],[3.83689,43.59593],[3.83691,43.59583],[3.8369,43.59572],[3.83689,43.59566],[3.83685,43.5956],[3.83678,43.59555],[3.83669,43.5955],[3.83659,43.59547],[3.8365,43.59546],[3.83632,43.59538],[3.8362,43.59526],[3.83618,43.59529],[3.83605,43.59507],[3.83602,43.59503],[3.83595,43.59493],[3.83593,43.59489],[3.83577,43.5947],[3.83572,43.59466],[3.83557,43.59452],[3.83548,43.59445],[3.83533,43.59435],[3.83518,43.59428],[3.83502,43.5942],[3.83486,43.59413],[3.83468,43.59407],[3.83451,43.59404],[3.83414,43.59397],[3.83378,43.59391],[3.83342,43.59384],[3.83298,43.59377],[3.8328,43.59373],[3.83244,43.59366],[3.83226,43.59361],[3.83209,43.59357],[3.8314,43.59337],[3.83087,43.59325],[3.83005,43.59312],[3.82937,43.59292],[3.8293,43.5929],[3.82918,43.59286],[3.82892,43.59278],[3.82872,43.59272],[3.82865,43.5927],[3.82856,43.59268],[3.82847,43.59267],[3.82843,43.59267],[3.8283,43.59266],[3.82819,43.59266],[3.82816,43.59267],[3.82804,43.59268],[3.82785,43.5927],[3.82768,43.59273],[3.82759,43.59274],[3.82707,43.59281],[3.82691,43.59283],[3.82689,43.59283],[3.82673,43.59285],[3.82664,43.59286],[3.82649,43.59289],[3.8264,43.5929],[3.82583,43.59298],[3.82575,43.59299],[3.82574,43.59299],[3.82557,43.59301],[3.82554,43.59301],[3.82548,43.59302],[3.8254,43.59303],[3.82486,43.5931],[3.82476,43.59311],[3.82474,43.59311],[3.82467,43.59311],[3.82457,43.59311],[3.82452,43.59311],[3.82422,43.59307],[3.82396,43.59303],[3.82333,43.59294],[3.82314,43.59291],[3.82277,43.59286],[3.82224,43.59279],[3.82207,43.59277],[3.82195,43.59275],[3.82172,43.59272],[3.8216,43.59271],[3.82147,43.59269],[3.82101,43.59264],[3.82053,43.59258],[3.82029,43.59255],[3.82016,43.59254],[3.82002,43.59252],[3.81995,43.59251],[3.81993,43.5925],[3.81948,43.59236],[3.81931,43.5923],[3.81902,43.5922],[3.81892,43.59217],[3.81875,43.59211],[3.81841,43.59201],[3.81821,43.59194],[3.81769,43.59175],[3.81718,43.59156],[3.81702,43.5915],[3.81695,43.59147],[3.81655,43.59133],[3.81653,43.59132],[3.81648,43.59134],[3.81638,43.59141],[3.81637,43.59142],[3.81634,43.59145],[3.8163,43.5915],[3.81628,43.59153],[3.81625,43.59158],[3.81619,43.59174],[3.81617,43.59178],[3.81616,43.59185],[3.81616,43.59187],[3.81616,43.59192],[3.81617,43.59194],[3.81618,43.59197],[3.8162,43.59201],[3.81622,43.59202],[3.81635,43.59215],[3.81639,43.5922],[3.81651,43.59232],[3.81674,43.59256],[3.81693,43.59278],[3.81695,43.59279],[3.8171,43.59293],[3.81716,43.59298],[3.81718,43.593],[3.81725,43.59306],[3.81731,43.59312],[3.81743,43.59322],[3.81761,43.59336],[3.81764,43.59338],[3.81768,43.59341],[3.81773,43.59347],[3.81776,43.59351],[3.81781,43.59357],[3.81784,43.59363],[3.81796,43.59383],[3.81799,43.59388],[3.81801,43.59393],[3.81804,43.594],[3.81805,43.59406],[3.81807,43.59408],[3.81809,43.59413],[3.8181,43.59416],[3.81821,43.59433],[3.81826,43.59441],[3.81829,43.59446],[3.81832,43.59453],[3.81833,43.59455],[3.81835,43.59465],[3.81836,43.5947],[3.81838,43.59481],[3.81838,43.59485],[3.81838,43.59495],[3.81838,43.59505],[3.81837,43.59523],[3.81835,43.5953],[3.81829,43.59544],[3.81821,43.59555],[3.81816,43.59561],[3.81811,43.59566],[3.81808,43.59569],[3.81805,43.59573],[3.81801,43.59577],[3.81797,43.59583],[3.81795,43.5959],[3.81793,43.59597],[3.81793,43.59605],[3.81793,43.59606],[3.81795,43.59614],[3.81797,43.59621],[3.81799,43.59623],[3.81803,43.59628],[3.81807,43.59631],[3.81809,43.59632],[3.81824,43.59641],[3.81845,43.59651],[3.81851,43.59654],[3.81864,43.5966],[3.81878,43.59666],[3.8189,43.59672],[3.81894,43.59673],[3.81898,43.59675],[3.81907,43.59678],[3.81911,43.5968],[3.81913,43.5968],[3.81918,43.59682],[3.81928,43.59685],[3.81961,43.59695],[3.81965,43.59696],[3.81973,43.59699],[3.81976,43.59701],[3.81983,43.59706],[3.81988,43.59709],[3.81991,43.59713],[3.81992,43.59715],[3.81998,43.59722],[3.82,43.59725],[3.82003,43.59729],[3.82007,43.59739],[3.82015,43.59757],[3.82017,43.59762],[3.82022,43.59772],[3.82022,43.59775],[3.82022,43.59776],[3.82021,43.59778],[3.8202,43.59781],[3.82018,43.59784],[3.82015,43.59786],[3.82012,43.59789],[3.82009,43.59791],[3.82005,43.59794],[3.81997,43.598],[3.81985,43.59809],[3.81976,43.59816],[3.81967,43.59824],[3.81955,43.59834],[3.81954,43.59835],[3.81952,43.59836],[3.81948,43.59837],[3.81945,43.59838],[3.81941,43.59838],[3.81937,43.59838],[3.81916,43.59835],[3.81906,43.59834],[3.81895,43.59833],[3.81878,43.59843],[3.81863,43.59855],[3.81847,43.59868],[3.81836,43.59877],[3.81828,43.59883],[3.81821,43.5989],[3.81815,43.59897],[3.8181,43.59904],[3.81805,43.59911],[3.81802,43.59918],[3.81801,43.59921],[3.81801,43.59923],[3.81808,43.59933],[3.81812,43.59941],[3.8182,43.59956],[3.81821,43.5996],[3.81822,43.59968],[3.81821,43.59972],[3.81818,43.59975],[3.81796,43.59989],[3.81775,43.60001],[3.8175,43.60018],[3.81747,43.60021],[3.81741,43.60027],[3.81737,43.60033],[3.81731,43.60042],[3.81724,43.6005],[3.81721,43.60054],[3.81716,43.60062],[3.8171,43.60074],[3.81698,43.60108],[3.81692,43.60128],[3.81685,43.60157],[3.81684,43.60161],[3.81682,43.60168],[3.81682,43.60177],[3.81682,43.60184],[3.81681,43.60186],[3.81681,43.60193],[3.81681,43.60196],[3.81678,43.60211],[3.81677,43.60216],[3.81675,43.6022],[3.81674,43.60222],[3.8167,43.60228],[3.81647,43.60259],[3.81645,43.60263],[3.81645,43.60265],[3.81644,43.6027],[3.81644,43.60272],[3.81646,43.60277],[3.81658,43.60288],[3.81662,43.60292],[3.81667,43.60296],[3.81673,43.60297],[3.81674,43.60298],[3.8168,43.60299],[3.81689,43.603],[3.81697,43.603],[3.81708,43.60301],[3.81747,43.60303],[3.81752,43.60303],[3.81754,43.60304],[3.81762,43.60308],[3.81767,43.60312],[3.81799,43.60336],[3.81814,43.6035],[3.81829,43.60363],[3.81831,43.60365],[3.81834,43.60368],[3.81835,43.6037],[3.81836,43.60373],[3.81842,43.6039],[3.81851,43.60415],[3.81858,43.60438],[3.81862,43.60453],[3.81864,43.6046],[3.81873,43.60484],[3.81874,43.60486],[3.8188,43.60498],[3.81881,43.60499],[3.81885,43.60502],[3.81897,43.60514],[3.81921,43.60536],[3.81926,43.60542],[3.81929,43.60548],[3.81932,43.60552],[3.81935,43.60556],[3.81938,43.6056],[3.81943,43.60569],[3.81953,43.60585],[3.81958,43.60593],[3.81964,43.60609],[3.81967,43.60619],[3.81968,43.60624],[3.81968,43.6063],[3.81968,43.60637],[3.81967,43.60639],[3.81966,43.60642],[3.81955,43.6066],[3.81946,43.60693],[3.81945,43.60699],[3.81944,43.60708],[3.81944,43.60717],[3.81944,43.60718],[3.81945,43.60719],[3.81945,43.60721],[3.81946,43.60725],[3.82038,43.60777],[3.82074,43.608],[3.82126,43.60834],[3.82166,43.6086],[3.82203,43.60889],[3.82259,43.60942],[3.82284,43.60987],[3.8231,43.61024],[3.82324,43.61046],[3.82346,43.61071],[3.82393,43.61105],[3.82427,43.61117],[3.82469,43.61131],[3.82508,43.61145],[3.82533,43.6115],[3.82558,43.61153],[3.82597,43.61155],[3.82641,43.61153],[3.82691,43.61147],[3.82732,43.6114],[3.82899,43.61107],[3.83259,43.61033],[3.83384,43.61014],[3.83346,43.61106],[3.83275,43.61277],[3.83271,43.61313],[3.83268,43.61353],[3.83279,43.61477],[3.83116,43.61481],[3.8307,43.61478],[3.83015,43.61473],[3.82912,43.61463],[3.83013,43.61593],[3.83053,43.61649],[3.83095,43.61699],[3.83126,43.61733],[3.83176,43.61802],[3.83212,43.61858],[3.83268,43.61955],[3.83281,43.61988],[3.83284,43.62004],[3.83439,43.62141],[3.83462,43.62179],[3.83473,43.62204],[3.83482,43.62225],[3.83489,43.62238],[3.83502,43.62242],[3.83521,43.62242],[3.83545,43.62243],[3.83572,43.62247],[3.83593,43.62258],[3.83604,43.62268],[3.83612,43.62279],[3.83619,43.62292],[3.8362,43.62302],[3.83619,43.62315],[3.83615,43.62327],[3.83609,43.62339],[3.83599,43.62358],[3.83584,43.62386],[3.83571,43.62422],[3.83568,43.62442],[3.83572,43.62458],[3.83582,43.62471],[3.83596,43.62481],[3.83602,43.62485],[3.83609,43.62486],[3.83627,43.62484],[3.83641,43.62486],[3.83655,43.62489],[3.83663,43.62491],[3.83669,43.62495],[3.83675,43.625],[3.83679,43.62505],[3.83683,43.62512],[3.83685,43.62519],[3.83687,43.6255],[3.83701,43.62566],[3.83819,43.62635],[3.83891,43.6268],[3.83956,43.62721],[3.8401,43.62761],[3.84074,43.62819],[3.8411,43.62855],[3.84139,43.62894],[3.8417,43.62946],[3.84189,43.62993],[3.84207,43.63056],[3.84271,43.63069],[3.84375,43.62971],[3.84503,43.62901],[3.84551,43.62874],[3.84575,43.62854],[3.84627,43.62786],[3.8466,43.62755],[3.84707,43.6273],[3.8485,43.6266],[3.84933,43.626],[3.85023,43.62537],[3.85099,43.62505],[3.85244,43.62447],[3.85391,43.62357],[3.85417,43.62333],[3.85441,43.62301],[3.85467,43.62256],[3.85491,43.62232],[3.85514,43.62217],[3.85661,43.62127],[3.85742,43.62087],[3.85803,43.62064]]]}},{"type":"Feature","properties":{"nbhd_name":"PORT MARIANNE","uesi_id":"FRA_R28722","nbhd_code":"FRA_R28722_5"},"geometry":{"type":"Polygon","coordinates":[[[3.89706,43.62232],[3.89706,43.62232],[3.89709,43.62231],[3.89737,43.62226],[3.89757,43.62225],[3.89759,43.62225],[3.89765,43.62222],[3.89858,43.62208],[3.89892,43.62203],[3.89917,43.62199],[3.8995,43.62195],[3.89998,43.6219],[3.90053,43.62186],[3.90069,43.62185],[3.90084,43.62183],[3.9009,43.62183],[3.90117,43.62181],[3.90149,43.62178],[3.90174,43.62176],[3.90203,43.62174],[3.90223,43.62172],[3.9024,43.62171],[3.90248,43.6217],[3.90265,43.6217],[3.90268,43.62169],[3.90297,43.62168],[3.90312,43.62168],[3.90366,43.62166],[3.90385,43.62166],[3.90423,43.62165],[3.90428,43.62165],[3.90467,43.62168],[3.90526,43.62173],[3.90542,43.62175],[3.90563,43.62177],[3.90568,43.62177],[3.90603,43.6218],[3.9061,43.6218],[3.90621,43.62181],[3.90632,43.62182],[3.90647,43.62183],[3.90658,43.62184],[3.90676,43.62186],[3.90682,43.62187],[3.90689,43.62188],[3.90709,43.62189],[3.90767,43.62189],[3.90793,43.62189],[3.9081,43.62188],[3.90837,43.62189],[3.90843,43.62189],[3.9086,43.62191],[3.90868,43.62192],[3.90887,43.62195],[3.90906,43.62199],[3.90917,43.62201],[3.90924,43.62202],[3.90952,43.62207],[3.90967,43.6221],[3.90976,43.62211],[3.91006,43.62184],[3.9102,43.62171],[3.91058,43.6214],[3.91104,43.62102],[3.91106,43.621],[3.91121,43.62096],[3.91124,43.62095],[3.91142,43.62088],[3.91179,43.62071],[3.91201,43.6206],[3.91211,43.62055],[3.9124,43.62038],[3.91246,43.62034],[3.91253,43.62031],[3.91269,43.62023],[3.91289,43.62012],[3.91303,43.62006],[3.91319,43.62],[3.91344,43.61991],[3.91372,43.61981],[3.91407,43.6197],[3.91422,43.61966],[3.91425,43.61965],[3.91434,43.61963],[3.91449,43.61956],[3.91466,43.6195],[3.91489,43.6194],[3.91512,43.6193],[3.91529,43.61924],[3.91545,43.6192],[3.91568,43.61916],[3.91592,43.61913],[3.91618,43.6191],[3.91658,43.61907],[3.91719,43.61905],[3.91767,43.61905],[3.91817,43.61904],[3.91853,43.61903],[3.91873,43.619],[3.91896,43.61892],[3.9194,43.61878],[3.91966,43.61869],[3.91991,43.61861],[3.92014,43.61855],[3.92033,43.6185],[3.92053,43.61846],[3.92062,43.61845],[3.92081,43.61855],[3.92095,43.61865],[3.9211,43.61877],[3.92119,43.61884],[3.92137,43.61897],[3.92142,43.61902],[3.92154,43.61912],[3.92177,43.61933],[3.92195,43.61949],[3.92204,43.61956],[3.92226,43.61977],[3.92236,43.61987],[3.92242,43.61991],[3.9225,43.61996],[3.92257,43.62],[3.92267,43.62005],[3.92276,43.6201],[3.92287,43.62016],[3.92292,43.62019],[3.92316,43.62033],[3.92339,43.62046],[3.92352,43.62054],[3.9236,43.62057],[3.92365,43.6206],[3.92408,43.62085],[3.92415,43.62089],[3.92421,43.62093],[3.92435,43.621],[3.92455,43.62112],[3.92467,43.62119],[3.92472,43.62122],[3.92479,43.62126],[3.92505,43.62144],[3.92514,43.62152],[3.92525,43.62161],[3.92529,43.62165],[3.92536,43.62172],[3.92539,43.62176],[3.92548,43.62188],[3.92553,43.62197],[3.92559,43.62209],[3.92561,43.62213],[3.92568,43.62227],[3.92578,43.62247],[3.92583,43.62259],[3.92588,43.62267],[3.92593,43.62275],[3.92597,43.62281],[3.92606,43.62295],[3.92609,43.62299],[3.92613,43.62309],[3.92622,43.6233],[3.92634,43.62363],[3.92637,43.6237],[3.92642,43.62382],[3.92647,43.62393],[3.92649,43.62397],[3.92659,43.62414],[3.92663,43.62422],[3.92669,43.62431],[3.92682,43.62448],[3.92693,43.62463],[3.92717,43.62497],[3.92728,43.6251],[3.92745,43.62528],[3.92753,43.62536],[3.92768,43.62552],[3.92785,43.62567],[3.92787,43.62569],[3.92804,43.62577],[3.92818,43.62584],[3.92829,43.62589],[3.92835,43.62591],[3.92848,43.62596],[3.92864,43.62603],[3.92896,43.62615],[3.92908,43.6262],[3.92921,43.62624],[3.92927,43.62626],[3.92932,43.62627],[3.92935,43.62629],[3.92945,43.62634],[3.92951,43.62637],[3.92957,43.62641],[3.92968,43.62649],[3.92975,43.62653],[3.92983,43.62659],[3.92993,43.62666],[3.93003,43.62672],[3.93022,43.62687],[3.93042,43.62701],[3.93052,43.62709],[3.93068,43.62721],[3.9307,43.62723],[3.9308,43.6273],[3.931,43.62744],[3.9312,43.62758],[3.9313,43.62764],[3.93152,43.6278],[3.93179,43.62799],[3.93189,43.62807],[3.93199,43.62815],[3.93207,43.62821],[3.93215,43.62828],[3.93231,43.6284],[3.93256,43.62858],[3.93298,43.62888],[3.93303,43.62893],[3.93306,43.62895],[3.93322,43.62889],[3.93345,43.62882],[3.9335,43.62875],[3.93356,43.62869],[3.93366,43.62854],[3.93372,43.62846],[3.9338,43.62832],[3.93409,43.62787],[3.93414,43.62777],[3.93426,43.6276],[3.93436,43.62743],[3.93443,43.62744],[3.93471,43.6275],[3.93489,43.62753],[3.935,43.62754],[3.93506,43.62755],[3.93516,43.62756],[3.93527,43.62756],[3.93538,43.62756],[3.93558,43.62755],[3.9356,43.62755],[3.93562,43.62752],[3.93564,43.6275],[3.93566,43.62747],[3.93569,43.62742],[3.9357,43.6274],[3.93576,43.62721],[3.93582,43.62705],[3.93586,43.62689],[3.93593,43.62665],[3.93598,43.6265],[3.93601,43.62641],[3.93606,43.62628],[3.9361,43.62619],[3.93618,43.62602],[3.9362,43.62598],[3.93632,43.62581],[3.93646,43.62558],[3.93652,43.62549],[3.9367,43.62519],[3.93674,43.62512],[3.93674,43.6251],[3.93674,43.62508],[3.93674,43.62507],[3.93671,43.62504],[3.9367,43.62503],[3.93663,43.62502],[3.93653,43.62502],[3.93642,43.62503],[3.93641,43.62503],[3.9363,43.62503],[3.93617,43.62504],[3.93612,43.62504],[3.93603,43.62505],[3.9363,43.62464],[3.93635,43.62455],[3.93654,43.62426],[3.93656,43.62423],[3.93658,43.62373],[3.9366,43.62341],[3.93662,43.62309],[3.93663,43.62285],[3.93709,43.62291],[3.93722,43.62269],[3.9373,43.62256],[3.93731,43.62254],[3.93726,43.62249],[3.93723,43.62247],[3.93723,43.62246],[3.93723,43.62245],[3.93723,43.62244],[3.93725,43.62229],[3.93732,43.6219],[3.93732,43.62188],[3.93737,43.62188],[3.93738,43.62186],[3.9374,43.62166],[3.93744,43.62112],[3.93745,43.62098],[3.93752,43.62086],[3.93757,43.62079],[3.93766,43.62068],[3.93787,43.62045],[3.938,43.62031],[3.93806,43.62024],[3.93808,43.62022],[3.93881,43.61985],[3.9391,43.6197],[3.93953,43.61948],[3.93962,43.61943],[3.93943,43.61894],[3.93937,43.61879],[3.93921,43.61839],[3.93919,43.61834],[3.93915,43.61824],[3.93912,43.61819],[3.93911,43.61817],[3.93913,43.61816],[3.93924,43.61818],[3.93934,43.61818],[3.93934,43.61815],[3.93936,43.61814],[3.93936,43.61809],[3.93934,43.61798],[3.93928,43.61778],[3.93927,43.61771],[3.93906,43.61695],[3.93894,43.61657],[3.9389,43.61643],[3.93885,43.6163],[3.93885,43.61627],[3.93884,43.61625],[3.93884,43.61623],[3.93886,43.61621],[3.93891,43.61619],[3.93895,43.61617],[3.93899,43.61615],[3.939,43.61613],[3.93901,43.61611],[3.93902,43.61608],[3.93903,43.61606],[3.93903,43.61604],[3.93904,43.61601],[3.93904,43.616],[3.93905,43.61598],[3.93905,43.61596],[3.93906,43.61592],[3.93906,43.61591],[3.93909,43.61571],[3.93911,43.61553],[3.93913,43.61536],[3.93916,43.61518],[3.93919,43.61501],[3.93922,43.61485],[3.93923,43.61476],[3.93924,43.6147],[3.93925,43.61454],[3.93929,43.61425],[3.93929,43.61424],[3.93931,43.61398],[3.93931,43.61384],[3.93932,43.6138],[3.93933,43.61377],[3.93934,43.61373],[3.93934,43.6137],[3.93934,43.61364],[3.93929,43.61355],[3.93927,43.6135],[3.93922,43.6134],[3.93912,43.6132],[3.9386,43.61217],[3.93855,43.61207],[3.93854,43.61204],[3.9384,43.61177],[3.93818,43.61132],[3.93804,43.61105],[3.93793,43.6108],[3.93781,43.61051],[3.93772,43.61029],[3.93772,43.61023],[3.93768,43.61022],[3.93739,43.60971],[3.93736,43.60966],[3.9373,43.60954],[3.93699,43.609],[3.93677,43.60864],[3.93665,43.60841],[3.93663,43.60838],[3.93645,43.60806],[3.93581,43.60691],[3.93545,43.60627],[3.93622,43.60511],[3.93648,43.60473],[3.93703,43.60394],[3.93758,43.60319],[3.93807,43.60253],[3.93853,43.60192],[3.93895,43.60137],[3.93906,43.6012],[3.93908,43.60117],[3.93919,43.60101],[3.93959,43.60041],[3.93977,43.6001],[3.9403,43.59919],[3.9405,43.59886],[3.94051,43.59883],[3.94133,43.59772],[3.94131,43.59771],[3.94072,43.59718],[3.94047,43.59694],[3.93987,43.59636],[3.93959,43.59602],[3.93948,43.5959],[3.93941,43.59582],[3.93938,43.59579],[3.93937,43.59577],[3.93935,43.59577],[3.93931,43.59576],[3.93923,43.59575],[3.93919,43.59574],[3.93908,43.59573],[3.93904,43.59572],[3.93901,43.59572],[3.93899,43.59571],[3.9389,43.59569],[3.93888,43.59568],[3.93884,43.59568],[3.93882,43.59567],[3.93874,43.59564],[3.9387,43.59562],[3.93867,43.59561],[3.93865,43.5956],[3.93863,43.59559],[3.93861,43.59557],[3.93858,43.59556],[3.93855,43.59554],[3.93852,43.59552],[3.9385,43.59551],[3.93849,43.5955],[3.93846,43.59548],[3.93843,43.59545],[3.93837,43.59541],[3.93833,43.59538],[3.93826,43.59533],[3.93816,43.59527],[3.93814,43.59526],[3.9381,43.59524],[3.93807,43.59522],[3.93804,43.59521],[3.93802,43.5952],[3.938,43.59519],[3.93799,43.59518],[3.93798,43.59518],[3.93785,43.59513],[3.93782,43.59512],[3.9378,43.59511],[3.93768,43.59507],[3.93767,43.59507],[3.93752,43.59504],[3.93747,43.59503],[3.93745,43.59502],[3.9374,43.59501],[3.93733,43.595],[3.93731,43.595],[3.93699,43.59495],[3.93697,43.59495],[3.93684,43.59493],[3.93675,43.59491],[3.93664,43.59489],[3.93657,43.59488],[3.93641,43.59485],[3.93638,43.59485],[3.93612,43.5948],[3.93587,43.59475],[3.93582,43.59474],[3.93559,43.5947],[3.93532,43.59466],[3.93528,43.59465],[3.93516,43.59463],[3.93498,43.5946],[3.9349,43.59458],[3.9348,43.59455],[3.93463,43.59454],[3.93442,43.59451],[3.93435,43.5945],[3.93418,43.59448],[3.93398,43.59445],[3.93297,43.59432],[3.93149,43.59411],[3.93102,43.59404],[3.93054,43.59397],[3.93006,43.5939],[3.92977,43.59387],[3.92941,43.59384],[3.92901,43.5938],[3.92866,43.59377],[3.92864,43.59377],[3.92788,43.59371],[3.92742,43.59368],[3.92696,43.59365],[3.92647,43.59361],[3.92623,43.59359],[3.92585,43.59358],[3.92543,43.59357],[3.92504,43.59356],[3.92468,43.59354],[3.92436,43.59353],[3.92402,43.59349],[3.92367,43.59344],[3.92359,43.59343],[3.92324,43.59337],[3.92285,43.59329],[3.92246,43.5932],[3.92205,43.59314],[3.92163,43.59307],[3.92128,43.59301],[3.92104,43.59296],[3.92068,43.59287],[3.92034,43.59279],[3.92,43.59271],[3.91978,43.59265],[3.91949,43.59255],[3.91918,43.59245],[3.91881,43.59232],[3.91863,43.59227],[3.91842,43.59225],[3.91819,43.5922],[3.91816,43.59219],[3.9181,43.59218],[3.91721,43.59198],[3.91681,43.5919],[3.91623,43.59179],[3.91565,43.59168],[3.91538,43.59163],[3.91524,43.59161],[3.91504,43.59159],[3.91474,43.59157],[3.91429,43.59155],[3.91379,43.59153],[3.91303,43.5915],[3.9119,43.59147],[3.91188,43.59147],[3.91178,43.59146],[3.91158,43.59146],[3.91148,43.59146],[3.91139,43.59147],[3.9111,43.59147],[3.91094,43.59148],[3.91084,43.59147],[3.91067,43.59148],[3.91056,43.59148],[3.91054,43.59148],[3.91037,43.59148],[3.91007,43.59148],[3.9099,43.59148],[3.90976,43.59149],[3.90948,43.59149],[3.90943,43.59149],[3.90932,43.59149],[3.90874,43.5915],[3.90851,43.5915],[3.90831,43.5915],[3.90791,43.59156],[3.9075,43.59163],[3.90717,43.59168],[3.90705,43.59167],[3.90664,43.59166],[3.90632,43.59165],[3.90609,43.59164],[3.90584,43.59162],[3.90577,43.59162],[3.90576,43.59162],[3.90573,43.59161],[3.90547,43.59149],[3.90474,43.59204],[3.90453,43.59236],[3.9042,43.59286],[3.904,43.59319],[3.90348,43.59407],[3.90284,43.5947],[3.90202,43.59527],[3.90161,43.59556],[3.90103,43.59595],[3.89972,43.59685],[3.89932,43.59718],[3.89884,43.59771],[3.89861,43.59809],[3.8983,43.59881],[3.89803,43.59933],[3.89766,43.59972],[3.89723,43.60006],[3.89664,43.60043],[3.89432,43.59929],[3.89279,43.60097],[3.89179,43.60203],[3.89155,43.60225],[3.89086,43.60303],[3.89018,43.60367],[3.88984,43.60405],[3.89078,43.60457],[3.89191,43.60509],[3.89191,43.6053],[3.89451,43.606],[3.89536,43.60623],[3.89602,43.60633],[3.89665,43.60632],[3.89715,43.60631],[3.89721,43.60752],[3.89728,43.60893],[3.89706,43.61042],[3.89685,43.61112],[3.89667,43.61172],[3.89646,43.61218],[3.89617,43.6126],[3.89565,43.613],[3.89543,43.61318],[3.89491,43.6135],[3.89473,43.61402],[3.8947,43.6143],[3.89421,43.61498],[3.89414,43.61537],[3.89361,43.61609],[3.89335,43.61636],[3.89326,43.61658],[3.8933,43.6168],[3.89342,43.61703],[3.89368,43.61732],[3.89389,43.61743],[3.89431,43.61751],[3.89525,43.61761],[3.8957,43.61756],[3.89596,43.61756],[3.89633,43.61768],[3.89652,43.61786],[3.89662,43.61806],[3.89667,43.6183],[3.89681,43.6189],[3.89678,43.61965],[3.89679,43.6202],[3.89663,43.62066],[3.8965,43.62096],[3.89639,43.62136],[3.89662,43.6217],[3.89686,43.62201],[3.89706,43.62232]]]}},{"type":"Feature","properties":{"nbhd_name":"MONTPELLIER CENTRE","uesi_id":"FRA_R28722","nbhd_code":"FRA_R28722_6"},"geometry":{"type":"Polygon","coordinates":[[[3.89621,43.62739],[3.89625,43.62739],[3.89635,43.62737],[3.89641,43.62734],[3.89655,43.62728],[3.89669,43.62723],[3.89676,43.62721],[3.89702,43.62719],[3.89715,43.62717],[3.89721,43.62716],[3.89727,43.62714],[3.8974,43.62708],[3.89746,43.62705],[3.89755,43.62698],[3.8976,43.62691],[3.89773,43.62666],[3.89776,43.62657],[3.89778,43.62648],[3.89782,43.6263],[3.89784,43.62624],[3.89787,43.62615],[3.89791,43.62606],[3.89791,43.62605],[3.89793,43.62575],[3.89794,43.62564],[3.89794,43.62545],[3.89794,43.62541],[3.89782,43.62498],[3.8978,43.62487],[3.89778,43.62477],[3.89776,43.6246],[3.89774,43.62448],[3.89774,43.6244],[3.89775,43.62426],[3.89776,43.62419],[3.89777,43.62409],[3.89778,43.62392],[3.89779,43.62379],[3.89778,43.62377],[3.8977,43.62344],[3.89769,43.62339],[3.89766,43.62333],[3.89741,43.62293],[3.89719,43.62256],[3.89716,43.6225],[3.89706,43.62232],[3.89686,43.62201],[3.89662,43.6217],[3.89639,43.62136],[3.8965,43.62096],[3.89663,43.62066],[3.89679,43.6202],[3.89678,43.61965],[3.89681,43.6189],[3.89667,43.6183],[3.89662,43.61806],[3.89652,43.61786],[3.89633,43.61768],[3.89596,43.61756],[3.8957,43.61756],[3.89525,43.61761],[3.89431,43.61751],[3.89389,43.61743],[3.89368,43.61732],[3.89342,43.61703],[3.8933,43.6168],[3.89326,43.61658],[3.89335,43.61636],[3.89361,43.61609],[3.89414,43.61537],[3.89421,43.61498],[3.8947,43.6143],[3.89473,43.61402],[3.89491,43.6135],[3.89543,43.61318],[3.89565,43.613],[3.89617,43.6126],[3.89646,43.61218],[3.89667,43.61172],[3.89685,43.61112],[3.89706,43.61042],[3.89728,43.60893],[3.89721,43.60752],[3.89715,43.60631],[3.89665,43.60632],[3.89602,43.60633],[3.89536,43.60623],[3.89451,43.606],[3.89191,43.6053],[3.89191,43.60509],[3.89078,43.60457],[3.88984,43.60405],[3.89018,43.60367],[3.88878,43.60354],[3.8866,43.60261],[3.88646,43.60257],[3.88629,43.60254],[3.88611,43.60249],[3.88594,43.6024],[3.88504,43.60187],[3.88444,43.60178],[3.88244,43.60149],[3.88146,43.60115],[3.87961,43.60065],[3.87722,43.60006],[3.87666,43.59993],[3.87605,43.59982],[3.87354,43.59938],[3.8734,43.59937],[3.87323,43.59938],[3.87294,43.59942],[3.87262,43.59951],[3.87232,43.59962],[3.87179,43.59986],[3.87052,43.60065],[3.86977,43.6011],[3.86926,43.6013],[3.8689,43.60145],[3.86808,43.60167],[3.86686,43.60203],[3.86505,43.60253],[3.86362,43.6028],[3.86143,43.6034],[3.86059,43.6036],[3.85932,43.60382],[3.85832,43.60415],[3.85545,43.60502],[3.85459,43.60522],[3.85452,43.6054],[3.85511,43.60606],[3.85452,43.60627],[3.85542,43.6073],[3.85503,43.60763],[3.85599,43.60905],[3.85542,43.60901],[3.85547,43.61027],[3.8563,43.61037],[3.85652,43.61055],[3.8573,43.6111],[3.85763,43.61125],[3.85787,43.61139],[3.85864,43.61205],[3.85889,43.61241],[3.85895,43.61265],[3.85896,43.61289],[3.85888,43.61332],[3.85969,43.61471],[3.86042,43.61502],[3.85994,43.61531],[3.85936,43.61568],[3.85889,43.61587],[3.85811,43.61613],[3.8588,43.61635],[3.86036,43.61673],[3.86119,43.61704],[3.85909,43.61847],[3.85896,43.61859],[3.85887,43.61872],[3.85881,43.6188],[3.85877,43.61892],[3.85873,43.61908],[3.85872,43.61927],[3.85873,43.61949],[3.85885,43.62023],[3.85803,43.62064],[3.85849,43.62119],[3.85895,43.62163],[3.85974,43.62218],[3.86174,43.62358],[3.86227,43.624],[3.86275,43.62431],[3.86463,43.62564],[3.8657,43.62621],[3.86646,43.62646],[3.86965,43.62692],[3.86975,43.62693],[3.87105,43.62698],[3.87237,43.62704],[3.87305,43.627],[3.87375,43.62692],[3.87484,43.62674],[3.87533,43.62663],[3.87739,43.62608],[3.87884,43.6257],[3.87909,43.62565],[3.8794,43.62563],[3.88229,43.62602],[3.88338,43.62623],[3.88433,43.62627],[3.88514,43.62628],[3.88568,43.6259],[3.88616,43.62561],[3.88666,43.62538],[3.88719,43.62518],[3.88799,43.62501],[3.88915,43.62476],[3.89186,43.62373],[3.89222,43.62351],[3.89621,43.62739]]]}},{"type":"Feature","properties":{"nbhd_name":"CROIX D'ARGENT","uesi_id":"FRA_R28722","nbhd_code":"FRA_R28722_7"},"geometry":{"type":"Polygon","coordinates":[[[3.87722,43.60006],[3.87715,43.59808],[3.87719,43.59577],[3.87714,43.59342],[3.87715,43.59275],[3.87708,43.59107],[3.87706,43.58998],[3.87692,43.5888],[3.87668,43.58727],[3.87648,43.58595],[3.8764,43.58567],[3.87616,43.58497],[3.87565,43.5835],[3.87535,43.58285],[3.87504,43.58218],[3.87475,43.5816],[3.87451,43.58117],[3.87426,43.58074],[3.87365,43.57967],[3.87315,43.57887],[3.87256,43.57795],[3.87154,43.57628],[3.87124,43.57585],[3.87107,43.57578],[3.87088,43.57571],[3.87071,43.57564],[3.87069,43.57563],[3.87062,43.57561],[3.87053,43.57558],[3.87051,43.57558],[3.87031,43.57551],[3.87008,43.57543],[3.87005,43.57542],[3.86998,43.57541],[3.86987,43.57537],[3.86977,43.57534],[3.86968,43.57532],[3.86961,43.5753],[3.86948,43.57526],[3.86946,43.57525],[3.86933,43.57522],[3.86919,43.57519],[3.8691,43.57517],[3.86898,43.57515],[3.86886,43.57513],[3.86875,43.57511],[3.86851,43.57506],[3.86848,43.57506],[3.86831,43.57502],[3.86815,43.575],[3.86802,43.57497],[3.86792,43.57495],[3.86769,43.57491],[3.86765,43.57482],[3.86761,43.57472],[3.86755,43.57455],[3.86743,43.57431],[3.86737,43.57418],[3.86735,43.57412],[3.86731,43.57405],[3.86727,43.57397],[3.86725,43.57391],[3.86723,43.57387],[3.86721,43.57382],[3.86718,43.57372],[3.86716,43.57365],[3.86715,43.57359],[3.86714,43.57357],[3.86713,43.57353],[3.8671,43.57346],[3.86707,43.57341],[3.86701,43.57331],[3.86692,43.57318],[3.86686,43.57309],[3.86679,43.573],[3.86677,43.57297],[3.86669,43.57289],[3.86659,43.57278],[3.86654,43.57273],[3.86642,43.57263],[3.86631,43.57253],[3.8662,43.57244],[3.86608,43.57233],[3.86602,43.57228],[3.86593,43.57221],[3.86571,43.57201],[3.86565,43.57196],[3.86541,43.57172],[3.86538,43.57168],[3.86531,43.57161],[3.86526,43.57156],[3.86525,43.57155],[3.86514,43.57144],[3.86504,43.57132],[3.86493,43.57121],[3.86482,43.57111],[3.86472,43.571],[3.86462,43.57089],[3.86452,43.57077],[3.86441,43.57066],[3.86431,43.57055],[3.8642,43.57043],[3.8641,43.57032],[3.864,43.57021],[3.86374,43.56996],[3.86363,43.56985],[3.86352,43.56974],[3.86341,43.56964],[3.86329,43.56952],[3.86319,43.56942],[3.86308,43.56931],[3.86297,43.5692],[3.86285,43.56909],[3.8627,43.56894],[3.86259,43.56883],[3.86248,43.56873],[3.86236,43.56862],[3.86225,43.56851],[3.86207,43.56835],[3.86196,43.56824],[3.86184,43.56814],[3.86173,43.56803],[3.86161,43.56792],[3.8615,43.56782],[3.86099,43.56734],[3.86091,43.56727],[3.86083,43.56718],[3.8608,43.56715],[3.86078,43.56713],[3.86073,43.56707],[3.86072,43.56705],[3.86071,43.56704],[3.8607,43.56702],[3.86066,43.56695],[3.86065,43.56693],[3.86065,43.56691],[3.86064,43.5669],[3.86064,43.56688],[3.86065,43.56682],[3.86066,43.56678],[3.86066,43.56677],[3.86066,43.56675],[3.86067,43.56673],[3.86061,43.56671],[3.86056,43.5667],[3.86057,43.56673],[3.86057,43.56675],[3.86057,43.56678],[3.86056,43.56685],[3.86056,43.56688],[3.86055,43.56692],[3.86052,43.56702],[3.8605,43.56705],[3.86048,43.56712],[3.86048,43.56715],[3.86045,43.56729],[3.86042,43.56759],[3.86041,43.56762],[3.86038,43.56767],[3.86036,43.56769],[3.86027,43.56781],[3.86021,43.5679],[3.86016,43.56796],[3.8601,43.56806],[3.86002,43.56817],[3.86,43.56821],[3.85995,43.5683],[3.85993,43.56833],[3.85988,43.56842],[3.85983,43.5685],[3.85975,43.56866],[3.8597,43.56875],[3.85968,43.56883],[3.85964,43.56892],[3.85961,43.56902],[3.85959,43.56907],[3.85956,43.56914],[3.85954,43.56921],[3.85952,43.56928],[3.85949,43.56942],[3.85945,43.56954],[3.85937,43.56988],[3.85934,43.56998],[3.85933,43.57001],[3.8593,43.57008],[3.85929,43.57009],[3.85927,43.57012],[3.85926,43.57013],[3.8592,43.57019],[3.85918,43.57021],[3.85916,43.57022],[3.85913,43.57024],[3.85906,43.57028],[3.85902,43.57031],[3.85899,43.57033],[3.85889,43.5704],[3.85886,43.57042],[3.85875,43.57048],[3.85861,43.57057],[3.85846,43.57067],[3.85843,43.57068],[3.85829,43.57078],[3.85816,43.57086],[3.85808,43.57091],[3.85808,43.57092],[3.85805,43.57094],[3.85804,43.57095],[3.85799,43.57101],[3.85791,43.57114],[3.85784,43.57132],[3.85774,43.5717],[3.85767,43.57182],[3.85766,43.57183],[3.8576,43.57191],[3.85757,43.57195],[3.85749,43.57202],[3.85745,43.57206],[3.85731,43.5722],[3.85719,43.57231],[3.85679,43.57271],[3.85656,43.57294],[3.85635,43.57314],[3.85632,43.57318],[3.85602,43.57347],[3.85601,43.5735],[3.85559,43.57386],[3.85547,43.57396],[3.85536,43.57409],[3.85532,43.57413],[3.85506,43.57449],[3.85503,43.57454],[3.85447,43.57515],[3.85439,43.57521],[3.85431,43.5753],[3.85426,43.5754],[3.85418,43.57551],[3.85411,43.57561],[3.85408,43.57564],[3.85404,43.57567],[3.85398,43.57572],[3.85387,43.57587],[3.85383,43.57597],[3.8538,43.57608],[3.85378,43.57614],[3.85376,43.57622],[3.85373,43.5763],[3.85372,43.57634],[3.85365,43.5765],[3.85363,43.57653],[3.85358,43.57664],[3.85353,43.57675],[3.8535,43.57681],[3.85346,43.57691],[3.85344,43.57695],[3.8534,43.57706],[3.85335,43.57718],[3.85333,43.57721],[3.85332,43.57724],[3.85331,43.57726],[3.85325,43.57731],[3.85322,43.57733],[3.85322,43.57734],[3.8532,43.57736],[3.85317,43.57743],[3.85313,43.5775],[3.85308,43.57762],[3.85305,43.57765],[3.85303,43.57768],[3.85292,43.5778],[3.85282,43.57791],[3.85266,43.57811],[3.85261,43.57818],[3.85252,43.57829],[3.85241,43.57845],[3.85223,43.5787],[3.85217,43.57878],[3.85211,43.57888],[3.85194,43.57909],[3.85157,43.57954],[3.8513,43.57986],[3.85096,43.58028],[3.85068,43.58065],[3.85025,43.58124],[3.85012,43.58141],[3.8501,43.58145],[3.85008,43.58146],[3.85,43.58154],[3.84997,43.58157],[3.84986,43.58168],[3.84983,43.58171],[3.84981,43.58173],[3.84976,43.5818],[3.84955,43.58214],[3.84928,43.58263],[3.84908,43.58297],[3.84906,43.58301],[3.84904,43.58304],[3.84903,43.58306],[3.84877,43.58341],[3.84857,43.58369],[3.84838,43.58395],[3.84826,43.58412],[3.84817,43.58419],[3.8481,43.58426],[3.84807,43.58429],[3.84742,43.58469],[3.84637,43.58531],[3.84573,43.5856],[3.84519,43.58582],[3.84495,43.58601],[3.84474,43.58616],[3.84444,43.58624],[3.84417,43.58636],[3.84392,43.58653],[3.84347,43.58695],[3.84345,43.58697],[3.84343,43.587],[3.84341,43.58701],[3.84321,43.58722],[3.8431,43.58729],[3.84287,43.58741],[3.84268,43.58747],[3.84253,43.58757],[3.84242,43.58767],[3.8422,43.5879],[3.84198,43.58814],[3.8419,43.58823],[3.84177,43.58839],[3.84174,43.58842],[3.84126,43.58893],[3.84122,43.58897],[3.84115,43.58905],[3.84103,43.58921],[3.84085,43.58944],[3.84078,43.58952],[3.84064,43.58966],[3.84055,43.58978],[3.84028,43.59011],[3.84024,43.59018],[3.84017,43.5903],[3.84003,43.59055],[3.83978,43.59086],[3.83957,43.59113],[3.83954,43.59116],[3.83951,43.59121],[3.83941,43.59137],[3.83933,43.59152],[3.83931,43.59155],[3.83927,43.5916],[3.83914,43.5918],[3.8388,43.59228],[3.83871,43.59242],[3.8386,43.59258],[3.83857,43.59262],[3.83853,43.59265],[3.8383,43.59279],[3.83811,43.59292],[3.83804,43.59296],[3.838,43.59299],[3.83791,43.59306],[3.83786,43.59312],[3.83784,43.59314],[3.83779,43.5932],[3.83772,43.59329],[3.83762,43.5934],[3.83752,43.59352],[3.83751,43.59355],[3.8375,43.59356],[3.8374,43.59372],[3.83724,43.594],[3.83715,43.59415],[3.83707,43.59429],[3.837,43.59434],[3.83697,43.59436],[3.83691,43.59442],[3.83688,43.59444],[3.8368,43.5945],[3.83678,43.59452],[3.83677,43.59453],[3.83673,43.59456],[3.83668,43.59462],[3.83664,43.59465],[3.83659,43.59473],[3.83644,43.59495],[3.83632,43.5951],[3.83628,43.59516],[3.83625,43.59519],[3.83624,43.59521],[3.83623,43.59522],[3.8362,43.59526],[3.83632,43.59538],[3.8365,43.59546],[3.83659,43.59547],[3.83669,43.5955],[3.83678,43.59555],[3.83685,43.5956],[3.83689,43.59566],[3.8369,43.59572],[3.83691,43.59583],[3.83689,43.59593],[3.83684,43.59602],[3.83682,43.59608],[3.83684,43.59614],[3.83699,43.59632],[3.83725,43.59649],[3.83757,43.59663],[3.83903,43.59703],[3.83991,43.59745],[3.84158,43.59848],[3.8421,43.59882],[3.84256,43.59921],[3.84299,43.59954],[3.84363,43.59991],[3.84517,43.60069],[3.84624,43.60112],[3.84676,43.60126],[3.84848,43.60139],[3.85007,43.60096],[3.85174,43.60147],[3.85499,43.60279],[3.85764,43.60377],[3.85811,43.604],[3.85832,43.60415],[3.85932,43.60382],[3.86059,43.6036],[3.86143,43.6034],[3.86362,43.6028],[3.86505,43.60253],[3.86686,43.60203],[3.86808,43.60167],[3.8689,43.60145],[3.86926,43.6013],[3.86977,43.6011],[3.87052,43.60065],[3.87179,43.59986],[3.87232,43.59962],[3.87262,43.59951],[3.87294,43.59942],[3.87323,43.59938],[3.8734,43.59937],[3.87354,43.59938],[3.87605,43.59982],[3.87666,43.59993],[3.87722,43.60006]]]}},{"type":"Feature","properties":{"nbhd_name":"PRES D'ARENE","uesi_id":"FRA_R28722","nbhd_code":"FRA_R28722_8"},"geometry":{"type":"Polygon","coordinates":[[[3.87722,43.60006],[3.87961,43.60065],[3.88146,43.60115],[3.88244,43.60149],[3.88444,43.60178],[3.88504,43.60187],[3.88594,43.6024],[3.88611,43.60249],[3.88629,43.60254],[3.88646,43.60257],[3.8866,43.60261],[3.88878,43.60354],[3.89018,43.60367],[3.89086,43.60303],[3.89155,43.60225],[3.89179,43.60203],[3.89279,43.60097],[3.89432,43.59929],[3.89664,43.60043],[3.89723,43.60006],[3.89766,43.59972],[3.89803,43.59933],[3.8983,43.59881],[3.89861,43.59809],[3.89884,43.59771],[3.89932,43.59718],[3.89972,43.59685],[3.90103,43.59595],[3.90161,43.59556],[3.90202,43.59527],[3.90284,43.5947],[3.90348,43.59407],[3.904,43.59319],[3.9042,43.59286],[3.90453,43.59236],[3.90474,43.59204],[3.90547,43.59149],[3.90517,43.59136],[3.90492,43.59124],[3.90487,43.59122],[3.90464,43.59112],[3.90449,43.59105],[3.90437,43.59099],[3.90427,43.59095],[3.90412,43.59088],[3.90399,43.59082],[3.9038,43.59071],[3.90355,43.59056],[3.90344,43.5905],[3.90332,43.59041],[3.90319,43.59032],[3.90306,43.59022],[3.90291,43.59011],[3.90271,43.58998],[3.90245,43.58981],[3.90218,43.58964],[3.90188,43.58944],[3.90153,43.58923],[3.90118,43.58901],[3.90093,43.58885],[3.90079,43.58877],[3.90075,43.58876],[3.9007,43.58875],[3.90066,43.58876],[3.9006,43.58876],[3.90051,43.58876],[3.89974,43.58859],[3.89969,43.58858],[3.89954,43.58855],[3.89885,43.58842],[3.89826,43.5883],[3.89765,43.58809],[3.89714,43.5879],[3.89659,43.58774],[3.89583,43.58752],[3.89556,43.58745],[3.89509,43.58728],[3.89504,43.58726],[3.89468,43.58713],[3.89425,43.58692],[3.89365,43.58668],[3.89344,43.5866],[3.8934,43.58658],[3.89329,43.58653],[3.89328,43.58652],[3.89325,43.58651],[3.89314,43.58643],[3.89307,43.58638],[3.89296,43.58628],[3.89294,43.58625],[3.89287,43.58617],[3.89282,43.58611],[3.89277,43.58603],[3.89272,43.58597],[3.89268,43.58588],[3.89263,43.58577],[3.8926,43.58571],[3.89258,43.58568],[3.89227,43.58548],[3.89176,43.58515],[3.8912,43.58479],[3.89095,43.58462],[3.89083,43.58454],[3.89069,43.58446],[3.89051,43.58437],[3.89033,43.58428],[3.89003,43.58416],[3.88991,43.5841],[3.88986,43.58408],[3.88972,43.58403],[3.88933,43.58388],[3.88871,43.58364],[3.8883,43.58346],[3.88768,43.58323],[3.88754,43.58318],[3.88742,43.58314],[3.88722,43.58298],[3.88721,43.58297],[3.8871,43.58288],[3.88704,43.58284],[3.88697,43.58278],[3.88692,43.58274],[3.88684,43.58269],[3.88671,43.58259],[3.88657,43.5825],[3.88644,43.5824],[3.88631,43.58231],[3.88627,43.58229],[3.88616,43.58223],[3.88601,43.58215],[3.88586,43.58207],[3.88571,43.582],[3.88555,43.58192],[3.88542,43.58187],[3.88515,43.58177],[3.88499,43.58171],[3.88482,43.58165],[3.88466,43.58159],[3.8845,43.58153],[3.88433,43.58147],[3.88409,43.58138],[3.88392,43.58132],[3.88375,43.58126],[3.88359,43.5812],[3.88342,43.58114],[3.88325,43.58108],[3.88296,43.58097],[3.88279,43.58091],[3.88262,43.58085],[3.88244,43.5808],[3.8824,43.58079],[3.88227,43.58076],[3.88204,43.5807],[3.88186,43.58065],[3.88169,43.58061],[3.88152,43.58056],[3.88134,43.58052],[3.88086,43.5804],[3.88069,43.58035],[3.88052,43.5803],[3.88043,43.58027],[3.88034,43.58025],[3.88026,43.58022],[3.88018,43.58019],[3.88008,43.58016],[3.88001,43.58013],[3.87993,43.5801],[3.87985,43.58006],[3.87969,43.57999],[3.87954,43.57992],[3.87938,43.57985],[3.87924,43.57976],[3.87909,43.57968],[3.87875,43.57949],[3.8786,43.57942],[3.87845,43.57934],[3.8783,43.57926],[3.87815,43.57918],[3.878,43.5791],[3.87785,43.57902],[3.8777,43.57895],[3.87755,43.57886],[3.8774,43.57879],[3.87725,43.57871],[3.87706,43.5786],[3.87695,43.57853],[3.87674,43.5784],[3.87667,43.57836],[3.8766,43.57831],[3.87655,43.57827],[3.87627,43.5781],[3.87619,43.57804],[3.87606,43.57796],[3.87592,43.57786],[3.87579,43.57777],[3.87565,43.57768],[3.87552,43.57759],[3.87529,43.57745],[3.87516,43.57736],[3.87502,43.57727],[3.87488,43.57718],[3.87473,43.5771],[3.87459,43.57702],[3.87443,43.57695],[3.87428,43.57687],[3.87412,43.5768],[3.87397,43.57673],[3.87381,43.57666],[3.87365,43.57659],[3.87349,43.57652],[3.87333,43.57646],[3.87314,43.57638],[3.87302,43.57633],[3.87297,43.57631],[3.87288,43.57628],[3.87279,43.57626],[3.87266,43.57622],[3.87261,43.57621],[3.87243,43.57617],[3.8723,43.57615],[3.87225,43.57614],[3.87211,43.57612],[3.87206,43.57611],[3.87197,43.57608],[3.87188,43.57606],[3.87171,43.57601],[3.87154,43.57596],[3.8714,43.57591],[3.87124,43.57585],[3.87124,43.57585],[3.87154,43.57628],[3.87256,43.57795],[3.87315,43.57887],[3.87365,43.57967],[3.87426,43.58074],[3.87451,43.58117],[3.87475,43.5816],[3.87504,43.58218],[3.87535,43.58285],[3.87565,43.5835],[3.87616,43.58497],[3.8764,43.58567],[3.87648,43.58595],[3.87668,43.58727],[3.87692,43.5888],[3.87706,43.58998],[3.87708,43.59107],[3.87715,43.59275],[3.87714,43.59342],[3.87719,43.59577],[3.87715,43.59808],[3.87722,43.60006]]]}}]}