{"type":"FeatureCollection","name":"GRC_R1370736","crs":{"type":"name","properties":{"name":"urn:ogc:def:crs:OGC:1.3:CRS84"}},"features":[{"type":"Feature","properties":{"uesi_id":"GRC_R1370736","nbhd_code":"GRC_R1370736_1","nbhd_name":"1\u00ce\u00b7 \u00ce\u201d\u00ce\u0161"},"geometry":{"type":"MultiPolygon","coordinates":[[[[23.7321,37.9956,0.0],[23.7322,37.9956,0.0],[23.7323,37.9956,0.0],[23.7324,37.9956,0.0],[23.7327,37.9956,0.0],[23.7329,37.9955,0.0],[23.7331,37.9955,0.0],[23.7332,37.9955,0.0],[23.7333,37.9955,0.0],[23.7334,37.9955,0.0],[23.7334,37.9954,0.0],[23.7335,37.9954,0.0],[23.7336,37.9954,0.0],[23.7339,37.9953,0.0],[23.7342,37.9953,0.0],[23.7348,37.9952,0.0],[23.7354,37.9951,0.0],[23.7357,37.995,0.0],[23.7359,37.995,0.0],[23.7362,37.995,0.0],[23.7365,37.9949,0.0],[23.7366,37.9949,0.0],[23.7371,37.9948,0.0],[23.7376,37.9947,0.0],[23.7377,37.9947,0.0],[23.7378,37.9947,0.0],[23.7383,37.9948,0.0],[23.7385,37.9948,0.0],[23.7387,37.9948,0.0],[23.7389,37.9947,0.0],[23.7392,37.9946,0.0],[23.7394,37.9945,0.0],[23.7396,37.9944,0.0],[23.7398,37.9942,0.0],[23.7399,37.994,0.0],[23.74,37.9938,0.0],[23.74,37.9937,0.0],[23.74,37.9936,0.0],[23.74,37.9934,0.0],[23.74,37.9932,0.0],[23.7399,37.993,0.0],[23.7398,37.9929,0.0],[23.7401,37.9927,0.0],[23.7404,37.9927,0.0],[23.7403,37.9925,0.0],[23.7403,37.9924,0.0],[23.7402,37.9923,0.0],[23.7402,37.9922,0.0],[23.7402,37.9921,0.0],[23.7401,37.992,0.0],[23.7401,37.9919,0.0],[23.7401,37.9918,0.0],[23.7401,37.9917,0.0],[23.7401,37.9916,0.0],[23.74,37.9916,0.0],[23.74,37.9915,0.0],[23.74,37.9913,0.0],[23.7399,37.9911,0.0],[23.7399,37.9909,0.0],[23.7398,37.9908,0.0],[23.7398,37.9907,0.0],[23.7398,37.9906,0.0],[23.7398,37.9905,0.0],[23.7398,37.9903,0.0],[23.74,37.9903,0.0],[23.7399,37.9901,0.0],[23.7398,37.9898,0.0],[23.74,37.9896,0.0],[23.7402,37.9894,0.0],[23.7403,37.9893,0.0],[23.7403,37.9892,0.0],[23.7404,37.9891,0.0],[23.7406,37.989,0.0],[23.7406,37.9889,0.0],[23.7407,37.9888,0.0],[23.7407,37.9887,0.0],[23.7408,37.9887,0.0],[23.7409,37.9887,0.0],[23.741,37.9888,0.0],[23.7411,37.9888,0.0],[23.7412,37.9889,0.0],[23.7413,37.9889,0.0],[23.7413,37.989,0.0],[23.7414,37.989,0.0],[23.7415,37.989,0.0],[23.7416,37.9891,0.0],[23.7417,37.9891,0.0],[23.7417,37.9892,0.0],[23.7418,37.9892,0.0],[23.7418,37.9893,0.0],[23.7419,37.9893,0.0],[23.742,37.9894,0.0],[23.7421,37.9895,0.0],[23.7422,37.9895,0.0],[23.7423,37.9896,0.0],[23.7424,37.9897,0.0],[23.7425,37.9898,0.0],[23.7426,37.9896,0.0],[23.7428,37.9895,0.0],[23.7429,37.9893,0.0],[23.743,37.9892,0.0],[23.7432,37.989,0.0],[23.7433,37.9888,0.0],[23.7434,37.9888,0.0],[23.7434,37.9887,0.0],[23.7435,37.9887,0.0],[23.7435,37.9886,0.0],[23.7436,37.9885,0.0],[23.7437,37.9884,0.0],[23.7437,37.9883,0.0],[23.7438,37.9883,0.0],[23.7438,37.9882,0.0],[23.7439,37.9882,0.0],[23.744,37.9881,0.0],[23.744,37.988,0.0],[23.7441,37.9879,0.0],[23.7441,37.9878,0.0],[23.7442,37.9878,0.0],[23.7443,37.9877,0.0],[23.7444,37.9876,0.0],[23.7445,37.9874,0.0],[23.7446,37.9873,0.0],[23.7446,37.9872,0.0],[23.7447,37.9872,0.0],[23.7447,37.9871,0.0],[23.7448,37.9871,0.0],[23.7448,37.987,0.0],[23.7449,37.9869,0.0],[23.745,37.9868,0.0],[23.7451,37.9867,0.0],[23.7451,37.9866,0.0],[23.7452,37.9866,0.0],[23.7452,37.9865,0.0],[23.7453,37.9865,0.0],[23.7453,37.9864,0.0],[23.7454,37.9863,0.0],[23.7455,37.9862,0.0],[23.7455,37.9861,0.0],[23.7456,37.9861,0.0],[23.7458,37.9858,0.0],[23.746,37.9856,0.0],[23.7461,37.9856,0.0],[23.7462,37.9857,0.0],[23.7464,37.9857,0.0],[23.7466,37.9858,0.0],[23.7468,37.9859,0.0],[23.7469,37.986,0.0],[23.747,37.9861,0.0],[23.7472,37.9862,0.0],[23.7473,37.9862,0.0],[23.7474,37.9863,0.0],[23.7476,37.9864,0.0],[23.7478,37.9865,0.0],[23.7479,37.9866,0.0],[23.7481,37.9866,0.0],[23.7482,37.9867,0.0],[23.7483,37.9867,0.0],[23.7485,37.9867,0.0],[23.7486,37.9867,0.0],[23.7487,37.9867,0.0],[23.7489,37.9866,0.0],[23.7491,37.9866,0.0],[23.7493,37.9866,0.0],[23.7494,37.9866,0.0],[23.7495,37.9865,0.0],[23.7498,37.9865,0.0],[23.7499,37.9864,0.0],[23.7502,37.9864,0.0],[23.7505,37.9863,0.0],[23.7506,37.9863,0.0],[23.7508,37.9863,0.0],[23.751,37.9862,0.0],[23.7513,37.9862,0.0],[23.7514,37.9861,0.0],[23.7515,37.986,0.0],[23.7516,37.9859,0.0],[23.7517,37.9857,0.0],[23.7518,37.9855,0.0],[23.7519,37.9854,0.0],[23.752,37.9853,0.0],[23.752,37.9852,0.0],[23.7519,37.9851,0.0],[23.7519,37.9849,0.0],[23.7519,37.9848,0.0],[23.7518,37.9846,0.0],[23.7517,37.9845,0.0],[23.7517,37.9844,0.0],[23.7517,37.9843,0.0],[23.7517,37.9841,0.0],[23.7516,37.984,0.0],[23.7516,37.9839,0.0],[23.7516,37.9838,0.0],[23.7516,37.9837,0.0],[23.7515,37.9836,0.0],[23.7515,37.9834,0.0],[23.7517,37.9833,0.0],[23.7518,37.9833,0.0],[23.7519,37.9832,0.0],[23.752,37.9832,0.0],[23.7521,37.9831,0.0],[23.7523,37.9831,0.0],[23.7525,37.983,0.0],[23.7526,37.9831,0.0],[23.7527,37.9831,0.0],[23.7527,37.983,0.0],[23.7528,37.983,0.0],[23.7528,37.9829,0.0],[23.7529,37.9829,0.0],[23.7529,37.9828,0.0],[23.7531,37.9827,0.0],[23.7532,37.9826,0.0],[23.7533,37.9825,0.0],[23.7534,37.9824,0.0],[23.7536,37.9823,0.0],[23.7537,37.9822,0.0],[23.7538,37.9821,0.0],[23.754,37.982,0.0],[23.7541,37.9819,0.0],[23.7542,37.9819,0.0],[23.7543,37.9818,0.0],[23.7544,37.9817,0.0],[23.7546,37.9816,0.0],[23.7547,37.9816,0.0],[23.7548,37.9815,0.0],[23.7549,37.9814,0.0],[23.755,37.9814,0.0],[23.755,37.9813,0.0],[23.7551,37.9813,0.0],[23.7552,37.9812,0.0],[23.7553,37.9811,0.0],[23.7551,37.9809,0.0],[23.755,37.9808,0.0],[23.7549,37.9807,0.0],[23.755,37.9807,0.0],[23.7551,37.9807,0.0],[23.7551,37.9806,0.0],[23.7553,37.9805,0.0],[23.7554,37.9804,0.0],[23.7556,37.9803,0.0],[23.7559,37.9802,0.0],[23.756,37.9802,0.0],[23.756,37.9801,0.0],[23.7562,37.98,0.0],[23.7562,37.9799,0.0],[23.7563,37.9798,0.0],[23.7564,37.9798,0.0],[23.7565,37.9795,0.0],[23.7566,37.9794,0.0],[23.7567,37.9793,0.0],[23.7568,37.9792,0.0],[23.7572,37.9786,0.0],[23.7577,37.9779,0.0],[23.7576,37.9779,0.0],[23.7577,37.9778,0.0],[23.7581,37.9777,0.0],[23.7589,37.9773,0.0],[23.7576,37.9759,0.0],[23.7583,37.9757,0.0],[23.758,37.9751,0.0],[23.7592,37.9748,0.0],[23.7594,37.9753,0.0],[23.7605,37.9749,0.0],[23.7607,37.9748,0.0],[23.761,37.9744,0.0],[23.7614,37.9746,0.0],[23.7616,37.9745,0.0],[23.7617,37.9736,0.0],[23.7633,37.9728,0.0],[23.7638,37.9735,0.0],[23.7674,37.9717,0.0],[23.7673,37.9702,0.0],[23.7678,37.97,0.0],[23.7686,37.9697,0.0],[23.7691,37.9696,0.0],[23.7694,37.9696,0.0],[23.7699,37.9695,0.0],[23.7701,37.9694,0.0],[23.7705,37.9693,0.0],[23.7717,37.9691,0.0],[23.7742,37.9685,0.0],[23.7763,37.9661,0.0],[23.7739,37.9673,0.0],[23.7653,37.9704,0.0],[23.7593,37.9732,0.0],[23.7591,37.9729,0.0],[23.759,37.9727,0.0],[23.7588,37.9725,0.0],[23.7586,37.9723,0.0],[23.7583,37.9721,0.0],[23.7582,37.972,0.0],[23.758,37.9719,0.0],[23.7578,37.9718,0.0],[23.7566,37.972,0.0],[23.7559,37.9721,0.0],[23.755,37.9722,0.0],[23.7542,37.9723,0.0],[23.7535,37.973,0.0],[23.7524,37.9724,0.0],[23.7514,37.9735,0.0],[23.7502,37.9736,0.0],[23.7501,37.9736,0.0],[23.75,37.9736,0.0],[23.7499,37.9736,0.0],[23.7498,37.9736,0.0],[23.7497,37.9736,0.0],[23.7496,37.9736,0.0],[23.7495,37.9736,0.0],[23.7494,37.9736,0.0],[23.7493,37.9736,0.0],[23.7492,37.9737,0.0],[23.749,37.9737,0.0],[23.7489,37.9737,0.0],[23.7488,37.9737,0.0],[23.7487,37.9737,0.0],[23.7486,37.9737,0.0],[23.7485,37.9737,0.0],[23.7484,37.9737,0.0],[23.7482,37.9738,0.0],[23.7481,37.9738,0.0],[23.748,37.9738,0.0],[23.7479,37.9738,0.0],[23.7478,37.9738,0.0],[23.7477,37.9738,0.0],[23.7476,37.9738,0.0],[23.7474,37.9738,0.0],[23.7473,37.9739,0.0],[23.7472,37.9739,0.0],[23.7471,37.9739,0.0],[23.747,37.9739,0.0],[23.7468,37.9739,0.0],[23.7466,37.9739,0.0],[23.7465,37.9742,0.0],[23.7464,37.9743,0.0],[23.7463,37.9745,0.0],[23.7463,37.9746,0.0],[23.7463,37.9747,0.0],[23.7462,37.9748,0.0],[23.7461,37.975,0.0],[23.7461,37.9751,0.0],[23.7461,37.9752,0.0],[23.746,37.9754,0.0],[23.746,37.9755,0.0],[23.7459,37.9756,0.0],[23.7459,37.9758,0.0],[23.7458,37.9759,0.0],[23.7458,37.976,0.0],[23.7451,37.9758,0.0],[23.7445,37.9756,0.0],[23.7444,37.9756,0.0],[23.7438,37.9755,0.0],[23.7434,37.9754,0.0],[23.7431,37.9753,0.0],[23.7429,37.9753,0.0],[23.7428,37.9753,0.0],[23.7426,37.9754,0.0],[23.7424,37.9754,0.0],[23.7421,37.9754,0.0],[23.742,37.9754,0.0],[23.7417,37.9755,0.0],[23.7412,37.9755,0.0],[23.741,37.9756,0.0],[23.7407,37.9756,0.0],[23.7406,37.9756,0.0],[23.7405,37.9756,0.0],[23.7399,37.9757,0.0],[23.7393,37.9758,0.0],[23.7391,37.9758,0.0],[23.739,37.9758,0.0],[23.7388,37.9759,0.0],[23.7384,37.9759,0.0],[23.738,37.976,0.0],[23.7377,37.976,0.0],[23.7375,37.9747,0.0],[23.7365,37.9748,0.0],[23.7362,37.9748,0.0],[23.7357,37.9748,0.0],[23.7356,37.9749,0.0],[23.7354,37.9749,0.0],[23.7353,37.9748,0.0],[23.7353,37.9745,0.0],[23.7352,37.9741,0.0],[23.7352,37.974,0.0],[23.7351,37.9738,0.0],[23.7351,37.9735,0.0],[23.7349,37.9733,0.0],[23.7347,37.9731,0.0],[23.7347,37.973,0.0],[23.7346,37.9729,0.0],[23.7345,37.9728,0.0],[23.7343,37.9726,0.0],[23.7341,37.9724,0.0],[23.734,37.9723,0.0],[23.7339,37.9722,0.0],[23.7338,37.9721,0.0],[23.7337,37.972,0.0],[23.7336,37.9718,0.0],[23.7335,37.9717,0.0],[23.7333,37.9716,0.0],[23.7332,37.9714,0.0],[23.7331,37.9713,0.0],[23.733,37.9712,0.0],[23.733,37.9711,0.0],[23.7329,37.9711,0.0],[23.7328,37.971,0.0],[23.7328,37.9709,0.0],[23.7327,37.9709,0.0],[23.7327,37.9708,0.0],[23.7326,37.9708,0.0],[23.7326,37.9707,0.0],[23.7325,37.9707,0.0],[23.7324,37.9707,0.0],[23.7324,37.9706,0.0],[23.7323,37.9706,0.0],[23.7322,37.9706,0.0],[23.7321,37.9705,0.0],[23.732,37.9705,0.0],[23.7319,37.9705,0.0],[23.7319,37.9704,0.0],[23.7318,37.9704,0.0],[23.7317,37.9703,0.0],[23.7316,37.9702,0.0],[23.7316,37.9701,0.0],[23.7316,37.9697,0.0],[23.7316,37.9696,0.0],[23.7315,37.969,0.0],[23.7315,37.9689,0.0],[23.7315,37.9687,0.0],[23.7315,37.9685,0.0],[23.7315,37.9684,0.0],[23.7314,37.9683,0.0],[23.7313,37.9683,0.0],[23.7313,37.9682,0.0],[23.7312,37.9682,0.0],[23.7311,37.9681,0.0],[23.731,37.968,0.0],[23.7308,37.9679,0.0],[23.7308,37.9678,0.0],[23.7307,37.9678,0.0],[23.7306,37.9677,0.0],[23.7305,37.9676,0.0],[23.7304,37.9675,0.0],[23.7303,37.9674,0.0],[23.7302,37.9674,0.0],[23.7301,37.9673,0.0],[23.7298,37.9671,0.0],[23.7296,37.9669,0.0],[23.7294,37.9668,0.0],[23.7292,37.9666,0.0],[23.7291,37.9665,0.0],[23.7289,37.9663,0.0],[23.7287,37.9662,0.0],[23.7286,37.9661,0.0],[23.7285,37.966,0.0],[23.728,37.9657,0.0],[23.7275,37.9653,0.0],[23.7274,37.9652,0.0],[23.7273,37.9652,0.0],[23.7271,37.965,0.0],[23.7269,37.9649,0.0],[23.7268,37.9648,0.0],[23.7267,37.9647,0.0],[23.7265,37.9645,0.0],[23.7263,37.9644,0.0],[23.7262,37.9643,0.0],[23.7262,37.9642,0.0],[23.7258,37.964,0.0],[23.7255,37.9637,0.0],[23.7254,37.9636,0.0],[23.7253,37.9636,0.0],[23.7253,37.9635,0.0],[23.7252,37.9635,0.0],[23.7251,37.9634,0.0],[23.7249,37.9632,0.0],[23.7246,37.963,0.0],[23.7245,37.9629,0.0],[23.7244,37.9629,0.0],[23.7243,37.9628,0.0],[23.7241,37.9627,0.0],[23.724,37.9626,0.0],[23.7239,37.9625,0.0],[23.7238,37.9624,0.0],[23.7234,37.9621,0.0],[23.723,37.9618,0.0],[23.7229,37.9617,0.0],[23.7228,37.9616,0.0],[23.7227,37.9615,0.0],[23.7226,37.9615,0.0],[23.7225,37.9614,0.0],[23.7225,37.9613,0.0],[23.7223,37.9612,0.0],[23.7221,37.9611,0.0],[23.7218,37.9608,0.0],[23.7216,37.9606,0.0],[23.7214,37.9604,0.0],[23.7213,37.9604,0.0],[23.721,37.9602,0.0],[23.7209,37.9601,0.0],[23.7208,37.96,0.0],[23.7204,37.9597,0.0],[23.7203,37.9596,0.0],[23.7194,37.9603,0.0],[23.7188,37.9607,0.0],[23.7179,37.9615,0.0],[23.7176,37.9618,0.0],[23.7177,37.9618,0.0],[23.7174,37.9623,0.0],[23.7172,37.9625,0.0],[23.7169,37.9628,0.0],[23.7167,37.963,0.0],[23.716,37.9636,0.0],[23.7159,37.9636,0.0],[23.7158,37.9637,0.0],[23.7157,37.9638,0.0],[23.7156,37.9638,0.0],[23.7155,37.9639,0.0],[23.7154,37.9639,0.0],[23.7152,37.9639,0.0],[23.7151,37.964,0.0],[23.715,37.964,0.0],[23.7149,37.964,0.0],[23.7148,37.964,0.0],[23.7147,37.9642,0.0],[23.7146,37.9645,0.0],[23.7145,37.9646,0.0],[23.7143,37.9647,0.0],[23.7141,37.9647,0.0],[23.714,37.9647,0.0],[23.7138,37.9648,0.0],[23.7137,37.9648,0.0],[23.7136,37.9648,0.0],[23.7135,37.9648,0.0],[23.7134,37.9649,0.0],[23.7132,37.9649,0.0],[23.7131,37.9649,0.0],[23.7129,37.9649,0.0],[23.713,37.9651,0.0],[23.7131,37.9651,0.0],[23.7132,37.9652,0.0],[23.7132,37.9653,0.0],[23.7132,37.9654,0.0],[23.7133,37.9654,0.0],[23.7134,37.9655,0.0],[23.7134,37.9656,0.0],[23.7135,37.9656,0.0],[23.7136,37.9657,0.0],[23.7136,37.9658,0.0],[23.7137,37.9659,0.0],[23.7138,37.966,0.0],[23.7139,37.9661,0.0],[23.7139,37.9662,0.0],[23.714,37.9662,0.0],[23.714,37.9663,0.0],[23.7141,37.9664,0.0],[23.7142,37.9665,0.0],[23.7143,37.9666,0.0],[23.7143,37.9667,0.0],[23.7144,37.9667,0.0],[23.7146,37.9667,0.0],[23.7148,37.9667,0.0],[23.7149,37.9667,0.0],[23.715,37.9667,0.0],[23.7153,37.9667,0.0],[23.7153,37.9665,0.0],[23.7153,37.9664,0.0],[23.7154,37.9663,0.0],[23.7155,37.9663,0.0],[23.7156,37.9661,0.0],[23.7158,37.966,0.0],[23.7162,37.9657,0.0],[23.7167,37.9653,0.0],[23.7169,37.9651,0.0],[23.7169,37.965,0.0],[23.717,37.965,0.0],[23.7171,37.965,0.0],[23.7172,37.965,0.0],[23.7172,37.9649,0.0],[23.7173,37.9649,0.0],[23.7174,37.9649,0.0],[23.7183,37.965,0.0],[23.7191,37.9652,0.0],[23.7192,37.9652,0.0],[23.7203,37.9653,0.0],[23.7207,37.9654,0.0],[23.7211,37.9655,0.0],[23.7214,37.9655,0.0],[23.7217,37.9657,0.0],[23.722,37.966,0.0],[23.7221,37.9661,0.0],[23.7223,37.9662,0.0],[23.7223,37.9663,0.0],[23.7224,37.9663,0.0],[23.7225,37.9664,0.0],[23.7227,37.9665,0.0],[23.7229,37.9667,0.0],[23.7231,37.9668,0.0],[23.7231,37.9669,0.0],[23.7233,37.967,0.0],[23.7234,37.9671,0.0],[23.7236,37.9673,0.0],[23.7238,37.9674,0.0],[23.7238,37.9675,0.0],[23.7238,37.9676,0.0],[23.7238,37.9677,0.0],[23.7238,37.9678,0.0],[23.7238,37.968,0.0],[23.7237,37.9683,0.0],[23.7237,37.9684,0.0],[23.7237,37.9685,0.0],[23.7237,37.9686,0.0],[23.7237,37.9687,0.0],[23.7237,37.9688,0.0],[23.7237,37.9689,0.0],[23.7237,37.969,0.0],[23.7236,37.9691,0.0],[23.7236,37.9692,0.0],[23.7236,37.9693,0.0],[23.7236,37.9694,0.0],[23.7236,37.9695,0.0],[23.7236,37.9696,0.0],[23.7235,37.9696,0.0],[23.7234,37.9697,0.0],[23.7233,37.9697,0.0],[23.7232,37.9698,0.0],[23.7231,37.9698,0.0],[23.723,37.9698,0.0],[23.7229,37.9699,0.0],[23.7228,37.9699,0.0],[23.7227,37.9699,0.0],[23.7226,37.97,0.0],[23.7225,37.97,0.0],[23.7225,37.9701,0.0],[23.7224,37.9702,0.0],[23.7225,37.9702,0.0],[23.7226,37.9702,0.0],[23.7235,37.9701,0.0],[23.7245,37.9699,0.0],[23.725,37.9699,0.0],[23.7251,37.9699,0.0],[23.7257,37.9698,0.0],[23.7267,37.9696,0.0],[23.7269,37.9696,0.0],[23.7277,37.9695,0.0],[23.7278,37.9695,0.0],[23.7281,37.9694,0.0],[23.7285,37.9694,0.0],[23.7288,37.9694,0.0],[23.7292,37.9694,0.0],[23.7293,37.9694,0.0],[23.7294,37.9694,0.0],[23.7294,37.9695,0.0],[23.7293,37.9697,0.0],[23.7292,37.9699,0.0],[23.7291,37.9702,0.0],[23.7291,37.9704,0.0],[23.729,37.9707,0.0],[23.729,37.9708,0.0],[23.729,37.9709,0.0],[23.7289,37.9709,0.0],[23.7289,37.971,0.0],[23.7289,37.9711,0.0],[23.7289,37.9712,0.0],[23.7289,37.9714,0.0],[23.7289,37.9715,0.0],[23.7289,37.9716,0.0],[23.7289,37.9717,0.0],[23.7288,37.9719,0.0],[23.7287,37.972,0.0],[23.7288,37.9721,0.0],[23.7287,37.9722,0.0],[23.7287,37.9723,0.0],[23.7287,37.9724,0.0],[23.7286,37.9724,0.0],[23.7286,37.9725,0.0],[23.7285,37.9725,0.0],[23.7285,37.9726,0.0],[23.7284,37.9726,0.0],[23.7284,37.9727,0.0],[23.7283,37.9727,0.0],[23.7283,37.9728,0.0],[23.7282,37.9729,0.0],[23.7281,37.9729,0.0],[23.728,37.9729,0.0],[23.7279,37.9729,0.0],[23.7279,37.973,0.0],[23.7278,37.973,0.0],[23.7277,37.973,0.0],[23.7275,37.9731,0.0],[23.7275,37.973,0.0],[23.7274,37.9729,0.0],[23.7273,37.9729,0.0],[23.7272,37.9729,0.0],[23.7271,37.9729,0.0],[23.7271,37.973,0.0],[23.727,37.973,0.0],[23.7268,37.973,0.0],[23.7267,37.973,0.0],[23.7266,37.973,0.0],[23.7265,37.9729,0.0],[23.7264,37.9729,0.0],[23.7263,37.9729,0.0],[23.7263,37.9728,0.0],[23.7262,37.9728,0.0],[23.7261,37.9728,0.0],[23.7259,37.9728,0.0],[23.7258,37.9728,0.0],[23.7257,37.9728,0.0],[23.7256,37.9728,0.0],[23.7255,37.9728,0.0],[23.7254,37.9728,0.0],[23.7253,37.9728,0.0],[23.7252,37.9727,0.0],[23.7252,37.9729,0.0],[23.7252,37.973,0.0],[23.7252,37.9731,0.0],[23.7252,37.9732,0.0],[23.7252,37.9734,0.0],[23.7245,37.9733,0.0],[23.7234,37.9733,0.0],[23.7216,37.9739,0.0],[23.7204,37.9748,0.0],[23.7209,37.9759,0.0],[23.7209,37.976,0.0],[23.721,37.976,0.0],[23.7211,37.9761,0.0],[23.7211,37.9762,0.0],[23.721,37.9763,0.0],[23.721,37.9764,0.0],[23.7213,37.9765,0.0],[23.7215,37.9767,0.0],[23.7216,37.9767,0.0],[23.7218,37.9765,0.0],[23.7219,37.9766,0.0],[23.722,37.9767,0.0],[23.7221,37.9768,0.0],[23.7222,37.9769,0.0],[23.7223,37.977,0.0],[23.7224,37.9771,0.0],[23.7224,37.9772,0.0],[23.7222,37.9772,0.0],[23.7222,37.9773,0.0],[23.7222,37.9774,0.0],[23.7223,37.9774,0.0],[23.7223,37.9775,0.0],[23.7224,37.9775,0.0],[23.7225,37.9776,0.0],[23.7226,37.9776,0.0],[23.7226,37.9777,0.0],[23.7225,37.9777,0.0],[23.7225,37.9778,0.0],[23.7224,37.9778,0.0],[23.7223,37.9779,0.0],[23.7222,37.978,0.0],[23.7221,37.9781,0.0],[23.7221,37.9782,0.0],[23.7222,37.9782,0.0],[23.7223,37.9782,0.0],[23.7223,37.9783,0.0],[23.7224,37.9783,0.0],[23.7224,37.9784,0.0],[23.7223,37.9784,0.0],[23.7222,37.9785,0.0],[23.7221,37.9785,0.0],[23.7221,37.9786,0.0],[23.722,37.9786,0.0],[23.7219,37.9786,0.0],[23.7218,37.9785,0.0],[23.7217,37.9785,0.0],[23.7217,37.9784,0.0],[23.7216,37.9784,0.0],[23.7216,37.9783,0.0],[23.7215,37.9783,0.0],[23.7215,37.9782,0.0],[23.7214,37.9783,0.0],[23.7213,37.9784,0.0],[23.7213,37.9785,0.0],[23.7213,37.9786,0.0],[23.7212,37.9786,0.0],[23.7212,37.9787,0.0],[23.7211,37.9787,0.0],[23.7212,37.9788,0.0],[23.7213,37.9788,0.0],[23.7213,37.9789,0.0],[23.7214,37.9789,0.0],[23.7214,37.979,0.0],[23.7215,37.979,0.0],[23.7215,37.9791,0.0],[23.7216,37.9791,0.0],[23.7216,37.9792,0.0],[23.7217,37.9792,0.0],[23.7217,37.9793,0.0],[23.7218,37.9793,0.0],[23.7218,37.9794,0.0],[23.7217,37.9794,0.0],[23.7217,37.9795,0.0],[23.7216,37.9796,0.0],[23.7215,37.9797,0.0],[23.7215,37.9798,0.0],[23.7214,37.9798,0.0],[23.7214,37.9799,0.0],[23.7213,37.98,0.0],[23.7213,37.9801,0.0],[23.7212,37.9801,0.0],[23.7212,37.9802,0.0],[23.7211,37.9803,0.0],[23.721,37.9804,0.0],[23.7209,37.9806,0.0],[23.7208,37.9807,0.0],[23.7207,37.9808,0.0],[23.7207,37.9809,0.0],[23.7208,37.9809,0.0],[23.7209,37.981,0.0],[23.721,37.981,0.0],[23.7211,37.981,0.0],[23.7212,37.9811,0.0],[23.7213,37.9812,0.0],[23.7214,37.9812,0.0],[23.7215,37.9812,0.0],[23.7215,37.9813,0.0],[23.7216,37.9813,0.0],[23.7217,37.9813,0.0],[23.7217,37.9814,0.0],[23.7218,37.9814,0.0],[23.7217,37.9815,0.0],[23.7216,37.9816,0.0],[23.7215,37.9817,0.0],[23.7215,37.9818,0.0],[23.7214,37.9819,0.0],[23.7213,37.9821,0.0],[23.7212,37.9822,0.0],[23.721,37.9824,0.0],[23.7209,37.9825,0.0],[23.7209,37.9826,0.0],[23.7208,37.9827,0.0],[23.7208,37.9828,0.0],[23.7207,37.9829,0.0],[23.7206,37.9831,0.0],[23.7205,37.9831,0.0],[23.7205,37.9832,0.0],[23.7204,37.9832,0.0],[23.7204,37.9833,0.0],[23.7204,37.9834,0.0],[23.7203,37.9834,0.0],[23.7203,37.9835,0.0],[23.7202,37.9836,0.0],[23.7201,37.9837,0.0],[23.7201,37.9838,0.0],[23.72,37.9838,0.0],[23.72,37.9839,0.0],[23.7199,37.984,0.0],[23.7198,37.9841,0.0],[23.7198,37.9842,0.0],[23.7197,37.9842,0.0],[23.7197,37.9843,0.0],[23.7196,37.9844,0.0],[23.7196,37.9845,0.0],[23.7195,37.9846,0.0],[23.7194,37.9847,0.0],[23.7193,37.9848,0.0],[23.7193,37.9849,0.0],[23.7193,37.985,0.0],[23.7193,37.9851,0.0],[23.7192,37.9852,0.0],[23.7192,37.9853,0.0],[23.719,37.9856,0.0],[23.7188,37.9858,0.0],[23.7188,37.9859,0.0],[23.7188,37.986,0.0],[23.7186,37.9861,0.0],[23.7185,37.9863,0.0],[23.7185,37.9864,0.0],[23.7184,37.9864,0.0],[23.7183,37.9866,0.0],[23.7182,37.9868,0.0],[23.7181,37.9868,0.0],[23.718,37.9869,0.0],[23.7181,37.9869,0.0],[23.7182,37.987,0.0],[23.7189,37.9876,0.0],[23.7193,37.9876,0.0],[23.7194,37.9877,0.0],[23.7195,37.9877,0.0],[23.7196,37.9877,0.0],[23.7197,37.9878,0.0],[23.7198,37.9878,0.0],[23.7199,37.9878,0.0],[23.7199,37.9879,0.0],[23.7198,37.9879,0.0],[23.7198,37.988,0.0],[23.7198,37.9881,0.0],[23.7198,37.9882,0.0],[23.7198,37.9884,0.0],[23.7199,37.9886,0.0],[23.72,37.9892,0.0],[23.7202,37.9898,0.0],[23.7202,37.9899,0.0],[23.7202,37.9901,0.0],[23.7203,37.9903,0.0],[23.7203,37.9904,0.0],[23.7203,37.9905,0.0],[23.7203,37.9906,0.0],[23.7203,37.9907,0.0],[23.7203,37.9908,0.0],[23.7204,37.9909,0.0],[23.7204,37.991,0.0],[23.7205,37.9911,0.0],[23.7206,37.9913,0.0],[23.7207,37.9915,0.0],[23.7207,37.9916,0.0],[23.7208,37.9917,0.0],[23.7209,37.9918,0.0],[23.7209,37.9919,0.0],[23.7209,37.992,0.0],[23.721,37.9921,0.0],[23.721,37.9922,0.0],[23.721,37.9923,0.0],[23.7212,37.9923,0.0],[23.7213,37.9923,0.0],[23.7215,37.9923,0.0],[23.7218,37.9922,0.0],[23.7219,37.9922,0.0],[23.7222,37.9922,0.0],[23.7225,37.9922,0.0],[23.7226,37.9922,0.0],[23.7227,37.9922,0.0],[23.7229,37.9922,0.0],[23.723,37.9922,0.0],[23.7231,37.9922,0.0],[23.7232,37.9921,0.0],[23.7233,37.9921,0.0],[23.7239,37.9921,0.0],[23.7243,37.9921,0.0],[23.7244,37.9921,0.0],[23.7245,37.9921,0.0],[23.7246,37.9921,0.0],[23.7247,37.9921,0.0],[23.7248,37.9921,0.0],[23.7249,37.9921,0.0],[23.725,37.9921,0.0],[23.7251,37.9921,0.0],[23.7252,37.992,0.0],[23.7253,37.992,0.0],[23.7254,37.992,0.0],[23.7255,37.992,0.0],[23.7257,37.992,0.0],[23.7258,37.992,0.0],[23.7259,37.992,0.0],[23.726,37.992,0.0],[23.7261,37.992,0.0],[23.7263,37.992,0.0],[23.7264,37.992,0.0],[23.7266,37.992,0.0],[23.7268,37.992,0.0],[23.7269,37.992,0.0],[23.7271,37.992,0.0],[23.7273,37.9919,0.0],[23.7275,37.9919,0.0],[23.7277,37.9919,0.0],[23.7279,37.9918,0.0],[23.728,37.9918,0.0],[23.7281,37.9918,0.0],[23.7282,37.9918,0.0],[23.7283,37.9918,0.0],[23.7284,37.9917,0.0],[23.7285,37.9917,0.0],[23.7286,37.9917,0.0],[23.7287,37.9917,0.0],[23.7288,37.9917,0.0],[23.7289,37.9917,0.0],[23.729,37.9917,0.0],[23.7291,37.9917,0.0],[23.7292,37.9916,0.0],[23.7294,37.9916,0.0],[23.7296,37.9916,0.0],[23.7297,37.9915,0.0],[23.7298,37.9915,0.0],[23.7299,37.9915,0.0],[23.73,37.9915,0.0],[23.7301,37.9915,0.0],[23.7302,37.9915,0.0],[23.7303,37.9915,0.0],[23.7304,37.9914,0.0],[23.7305,37.9914,0.0],[23.7307,37.9914,0.0],[23.7308,37.9914,0.0],[23.7309,37.9914,0.0],[23.731,37.9913,0.0],[23.7311,37.9913,0.0],[23.7311,37.9915,0.0],[23.7312,37.9916,0.0],[23.7312,37.9917,0.0],[23.7312,37.9918,0.0],[23.7312,37.9919,0.0],[23.7313,37.992,0.0],[23.7313,37.9921,0.0],[23.7313,37.9923,0.0],[23.7314,37.9925,0.0],[23.7315,37.9928,0.0],[23.7315,37.9929,0.0],[23.7315,37.993,0.0],[23.7315,37.9931,0.0],[23.7316,37.9933,0.0],[23.7316,37.9935,0.0],[23.7317,37.9937,0.0],[23.7318,37.9942,0.0],[23.7319,37.9946,0.0],[23.7319,37.9948,0.0],[23.732,37.9952,0.0],[23.7321,37.9956,0.0]]]]}},{"type":"Feature","properties":{"uesi_id":"GRC_R1370736","nbhd_code":"GRC_R1370736_2","nbhd_name":"5\u00ce\u00b7 \u00ce\u201d\u00ce\u0161"},"geometry":{"type":"MultiPolygon","coordinates":[[[[23.7191,38.0147,0.0],[23.7191,38.0148,0.0],[23.71917,38.01483,0.0],[23.7191,38.0147,0.0]]],[[[23.7192,38.0149,0.0],[23.7195,38.0155,0.0],[23.72,38.0161,0.0],[23.7203,38.0164,0.0],[23.7208,38.017,0.0],[23.7209,38.017,0.0],[23.7216,38.0175,0.0],[23.7226,38.0182,0.0],[23.7227,38.0183,0.0],[23.7233,38.0188,0.0],[23.7235,38.0189,0.0],[23.7236,38.019,0.0],[23.7239,38.0194,0.0],[23.7242,38.0199,0.0],[23.725,38.0201,0.0],[23.7251,38.0202,0.0],[23.7253,38.0203,0.0],[23.7255,38.0204,0.0],[23.7256,38.0205,0.0],[23.7257,38.0208,0.0],[23.7266,38.022,0.0],[23.727,38.0225,0.0],[23.7276,38.0227,0.0],[23.7281,38.0229,0.0],[23.7282,38.023,0.0],[23.7283,38.023,0.0],[23.7283,38.0231,0.0],[23.7284,38.0232,0.0],[23.7285,38.0233,0.0],[23.7285,38.0234,0.0],[23.7285,38.0236,0.0],[23.7286,38.0237,0.0],[23.7286,38.0238,0.0],[23.7286,38.0239,0.0],[23.7287,38.0241,0.0],[23.7289,38.0245,0.0],[23.729,38.0246,0.0],[23.7302,38.0254,0.0],[23.7308,38.0259,0.0],[23.731,38.026,0.0],[23.7312,38.026,0.0],[23.7313,38.026,0.0],[23.7316,38.0262,0.0],[23.7317,38.0262,0.0],[23.7319,38.0263,0.0],[23.7319,38.0264,0.0],[23.7321,38.0263,0.0],[23.7326,38.0266,0.0],[23.7329,38.0267,0.0],[23.7332,38.0269,0.0],[23.7336,38.027,0.0],[23.7342,38.0272,0.0],[23.7346,38.0273,0.0],[23.7356,38.0273,0.0],[23.7359,38.0273,0.0],[23.7361,38.0273,0.0],[23.7364,38.0275,0.0],[23.7366,38.0277,0.0],[23.7367,38.028,0.0],[23.7368,38.0283,0.0],[23.737,38.029,0.0],[23.7371,38.0295,0.0],[23.7376,38.03,0.0],[23.7378,38.0303,0.0],[23.738,38.0307,0.0],[23.7382,38.0308,0.0],[23.7384,38.031,0.0],[23.7388,38.0314,0.0],[23.74,38.0325,0.0],[23.7401,38.0326,0.0],[23.7402,38.0326,0.0],[23.7403,38.0326,0.0],[23.7404,38.0327,0.0],[23.7405,38.0326,0.0],[23.7406,38.0326,0.0],[23.7407,38.0326,0.0],[23.7408,38.0326,0.0],[23.7411,38.0325,0.0],[23.7413,38.0325,0.0],[23.7414,38.0325,0.0],[23.7415,38.0325,0.0],[23.7417,38.0325,0.0],[23.7423,38.0324,0.0],[23.744,38.0319,0.0],[23.7438,38.0314,0.0],[23.7447,38.0315,0.0],[23.7484,38.0298,0.0],[23.7495,38.0293,0.0],[23.7512,38.0286,0.0],[23.7515,38.0285,0.0],[23.7522,38.0282,0.0],[23.7528,38.0279,0.0],[23.7521,38.0269,0.0],[23.7515,38.0261,0.0],[23.7509,38.0253,0.0],[23.7503,38.0245,0.0],[23.7497,38.0236,0.0],[23.7491,38.0228,0.0],[23.7485,38.0219,0.0],[23.7482,38.0215,0.0],[23.7479,38.0211,0.0],[23.7477,38.0207,0.0],[23.7474,38.0203,0.0],[23.747,38.0198,0.0],[23.7465,38.0191,0.0],[23.7463,38.0188,0.0],[23.746,38.0188,0.0],[23.7454,38.0185,0.0],[23.7458,38.0181,0.0],[23.7455,38.0178,0.0],[23.7454,38.0172,0.0],[23.7453,38.0166,0.0],[23.7453,38.0165,0.0],[23.7451,38.0152,0.0],[23.745,38.0149,0.0],[23.7448,38.0149,0.0],[23.7441,38.014,0.0],[23.7434,38.0131,0.0],[23.7435,38.011,0.0],[23.7434,38.0107,0.0],[23.7434,38.0101,0.0],[23.7433,38.0096,0.0],[23.7432,38.0096,0.0],[23.7431,38.0096,0.0],[23.743,38.0096,0.0],[23.7429,38.0096,0.0],[23.7428,38.0095,0.0],[23.7427,38.0095,0.0],[23.7426,38.0095,0.0],[23.7425,38.0095,0.0],[23.7424,38.0094,0.0],[23.7423,38.0094,0.0],[23.7422,38.0094,0.0],[23.7421,38.0093,0.0],[23.742,38.0093,0.0],[23.7419,38.0093,0.0],[23.7418,38.0092,0.0],[23.7417,38.0092,0.0],[23.7416,38.0092,0.0],[23.7415,38.0092,0.0],[23.7414,38.0092,0.0],[23.7414,38.0091,0.0],[23.7413,38.0091,0.0],[23.7412,38.0091,0.0],[23.7411,38.0091,0.0],[23.741,38.0091,0.0],[23.7409,38.0091,0.0],[23.7408,38.0091,0.0],[23.7407,38.0091,0.0],[23.7406,38.0091,0.0],[23.7405,38.0091,0.0],[23.7404,38.0091,0.0],[23.7403,38.0091,0.0],[23.7403,38.009,0.0],[23.7403,38.0089,0.0],[23.7403,38.0088,0.0],[23.7403,38.0087,0.0],[23.7403,38.0085,0.0],[23.7402,38.0084,0.0],[23.7402,38.0082,0.0],[23.7402,38.0081,0.0],[23.7401,38.0081,0.0],[23.74,38.0081,0.0],[23.7399,38.0081,0.0],[23.7398,38.0081,0.0],[23.7397,38.0081,0.0],[23.7396,38.0081,0.0],[23.7394,38.0081,0.0],[23.7392,38.0081,0.0],[23.7391,38.0081,0.0],[23.7389,38.0081,0.0],[23.7388,38.0081,0.0],[23.7387,38.0081,0.0],[23.7386,38.0081,0.0],[23.7385,38.0081,0.0],[23.7384,38.0081,0.0],[23.7383,38.0081,0.0],[23.7382,38.0082,0.0],[23.7381,38.0082,0.0],[23.738,38.0082,0.0],[23.7379,38.0082,0.0],[23.7378,38.0082,0.0],[23.7377,38.0082,0.0],[23.7376,38.0082,0.0],[23.7375,38.0082,0.0],[23.7373,38.0082,0.0],[23.7372,38.0082,0.0],[23.737,38.0082,0.0],[23.7369,38.0082,0.0],[23.7368,38.0082,0.0],[23.7367,38.0082,0.0],[23.7366,38.0082,0.0],[23.7365,38.0082,0.0],[23.7364,38.0082,0.0],[23.7363,38.0082,0.0],[23.7362,38.0082,0.0],[23.7361,38.0083,0.0],[23.736,38.0083,0.0],[23.7358,38.0083,0.0],[23.7356,38.0083,0.0],[23.7354,38.0083,0.0],[23.7353,38.0083,0.0],[23.7352,38.0083,0.0],[23.7351,38.0083,0.0],[23.7351,38.0084,0.0],[23.7351,38.0086,0.0],[23.7351,38.0087,0.0],[23.7351,38.0088,0.0],[23.735,38.0088,0.0],[23.7349,38.0088,0.0],[23.7347,38.0088,0.0],[23.7346,38.0088,0.0],[23.7344,38.0088,0.0],[23.7343,38.0088,0.0],[23.7341,38.0088,0.0],[23.734,38.0088,0.0],[23.7339,38.0088,0.0],[23.7338,38.0088,0.0],[23.7337,38.0088,0.0],[23.7336,38.0088,0.0],[23.7335,38.0088,0.0],[23.7334,38.0088,0.0],[23.7333,38.0088,0.0],[23.7332,38.0088,0.0],[23.7331,38.0089,0.0],[23.733,38.0089,0.0],[23.7329,38.0089,0.0],[23.7328,38.0089,0.0],[23.7327,38.0089,0.0],[23.7326,38.0089,0.0],[23.7325,38.0089,0.0],[23.7324,38.0089,0.0],[23.7324,38.0091,0.0],[23.7324,38.0093,0.0],[23.7323,38.0094,0.0],[23.7323,38.0095,0.0],[23.7322,38.0095,0.0],[23.7321,38.0095,0.0],[23.732,38.0095,0.0],[23.7319,38.0095,0.0],[23.7318,38.0095,0.0],[23.7317,38.0095,0.0],[23.7316,38.0096,0.0],[23.7315,38.0096,0.0],[23.7314,38.0096,0.0],[23.7314,38.0097,0.0],[23.7314,38.0098,0.0],[23.7314,38.0099,0.0],[23.7314,38.01,0.0],[23.7314,38.0101,0.0],[23.7313,38.0102,0.0],[23.7313,38.0103,0.0],[23.7313,38.0104,0.0],[23.7313,38.0105,0.0],[23.7313,38.0106,0.0],[23.7313,38.0107,0.0],[23.7313,38.0108,0.0],[23.7313,38.0109,0.0],[23.7313,38.011,0.0],[23.7313,38.0111,0.0],[23.7313,38.0112,0.0],[23.7312,38.0112,0.0],[23.7312,38.0113,0.0],[23.7312,38.0114,0.0],[23.7312,38.0115,0.0],[23.7312,38.0116,0.0],[23.7312,38.0118,0.0],[23.7312,38.0119,0.0],[23.7311,38.012,0.0],[23.7311,38.0121,0.0],[23.7311,38.0123,0.0],[23.7311,38.0124,0.0],[23.731,38.0124,0.0],[23.7308,38.0124,0.0],[23.7307,38.0124,0.0],[23.7305,38.0124,0.0],[23.7303,38.0124,0.0],[23.7302,38.0123,0.0],[23.7301,38.0123,0.0],[23.73,38.0123,0.0],[23.7299,38.0123,0.0],[23.7297,38.0123,0.0],[23.7295,38.0123,0.0],[23.7293,38.0123,0.0],[23.729,38.0123,0.0],[23.7288,38.0123,0.0],[23.7287,38.0123,0.0],[23.7285,38.0123,0.0],[23.7286,38.0124,0.0],[23.7285,38.0126,0.0],[23.7285,38.0129,0.0],[23.7285,38.013,0.0],[23.7285,38.0134,0.0],[23.7285,38.0137,0.0],[23.7285,38.0138,0.0],[23.7284,38.0143,0.0],[23.7284,38.0147,0.0],[23.7283,38.0147,0.0],[23.7282,38.0148,0.0],[23.7281,38.0148,0.0],[23.728,38.0148,0.0],[23.7279,38.0148,0.0],[23.7278,38.0148,0.0],[23.7276,38.0148,0.0],[23.7275,38.0148,0.0],[23.7274,38.0148,0.0],[23.7273,38.0148,0.0],[23.7272,38.0148,0.0],[23.727,38.0148,0.0],[23.7269,38.0148,0.0],[23.7268,38.0148,0.0],[23.7267,38.0148,0.0],[23.7266,38.0148,0.0],[23.7265,38.0148,0.0],[23.7263,38.0149,0.0],[23.7262,38.0149,0.0],[23.7261,38.0149,0.0],[23.726,38.0149,0.0],[23.7259,38.0149,0.0],[23.7258,38.0149,0.0],[23.7257,38.0149,0.0],[23.7256,38.0149,0.0],[23.7255,38.0149,0.0],[23.7254,38.0149,0.0],[23.7253,38.0149,0.0],[23.7252,38.0149,0.0],[23.7251,38.0149,0.0],[23.725,38.0149,0.0],[23.7249,38.0149,0.0],[23.7248,38.0149,0.0],[23.7247,38.0149,0.0],[23.7246,38.0149,0.0],[23.7245,38.0149,0.0],[23.7244,38.0149,0.0],[23.7243,38.0149,0.0],[23.7243,38.015,0.0],[23.7241,38.015,0.0],[23.724,38.015,0.0],[23.7239,38.015,0.0],[23.7238,38.015,0.0],[23.7237,38.015,0.0],[23.7236,38.015,0.0],[23.7234,38.015,0.0],[23.7233,38.015,0.0],[23.7231,38.015,0.0],[23.723,38.015,0.0],[23.7228,38.015,0.0],[23.7227,38.015,0.0],[23.7226,38.015,0.0],[23.7225,38.015,0.0],[23.7224,38.015,0.0],[23.7223,38.015,0.0],[23.7222,38.015,0.0],[23.7221,38.015,0.0],[23.722,38.015,0.0],[23.7219,38.015,0.0],[23.7218,38.015,0.0],[23.7217,38.015,0.0],[23.7216,38.015,0.0],[23.7215,38.015,0.0],[23.7214,38.015,0.0],[23.7213,38.015,0.0],[23.7212,38.015,0.0],[23.7211,38.015,0.0],[23.721,38.015,0.0],[23.7208,38.015,0.0],[23.7207,38.015,0.0],[23.7205,38.015,0.0],[23.7204,38.015,0.0],[23.7203,38.015,0.0],[23.7202,38.0149,0.0],[23.7198,38.0149,0.0],[23.7195,38.0149,0.0],[23.7193,38.0149,0.0],[23.71917,38.01483,0.0],[23.7192,38.0149,0.0]]]]}},{"type":"Feature","properties":{"uesi_id":"GRC_R1370736","nbhd_code":"GRC_R1370736_3","nbhd_name":"4\u00ce\u00b7 \u00ce\u201d\u00ce\u0161"},"geometry":{"type":"MultiPolygon","coordinates":[[[[23.7191,38.0147,0.0],[23.7191,38.0148,0.0],[23.7193,38.0149,0.0],[23.7195,38.0149,0.0],[23.7198,38.0149,0.0],[23.7202,38.0149,0.0],[23.7203,38.015,0.0],[23.7204,38.015,0.0],[23.7205,38.015,0.0],[23.7207,38.015,0.0],[23.7208,38.015,0.0],[23.721,38.015,0.0],[23.7211,38.015,0.0],[23.7212,38.015,0.0],[23.7213,38.015,0.0],[23.7214,38.015,0.0],[23.7215,38.015,0.0],[23.7216,38.015,0.0],[23.7217,38.015,0.0],[23.7218,38.015,0.0],[23.7219,38.015,0.0],[23.722,38.015,0.0],[23.7221,38.015,0.0],[23.7222,38.015,0.0],[23.7223,38.015,0.0],[23.7224,38.015,0.0],[23.7225,38.015,0.0],[23.7226,38.015,0.0],[23.7227,38.015,0.0],[23.7228,38.015,0.0],[23.723,38.015,0.0],[23.7231,38.015,0.0],[23.7233,38.015,0.0],[23.7234,38.015,0.0],[23.7236,38.015,0.0],[23.7237,38.015,0.0],[23.7238,38.015,0.0],[23.7239,38.015,0.0],[23.724,38.015,0.0],[23.7241,38.015,0.0],[23.7243,38.015,0.0],[23.7243,38.0149,0.0],[23.7244,38.0149,0.0],[23.7245,38.0149,0.0],[23.7246,38.0149,0.0],[23.7247,38.0149,0.0],[23.7248,38.0149,0.0],[23.7249,38.0149,0.0],[23.725,38.0149,0.0],[23.7251,38.0149,0.0],[23.7252,38.0149,0.0],[23.7253,38.0149,0.0],[23.7254,38.0149,0.0],[23.7255,38.0149,0.0],[23.7256,38.0149,0.0],[23.7257,38.0149,0.0],[23.7258,38.0149,0.0],[23.7259,38.0149,0.0],[23.726,38.0149,0.0],[23.7261,38.0149,0.0],[23.7262,38.0149,0.0],[23.7263,38.0149,0.0],[23.7265,38.0148,0.0],[23.7266,38.0148,0.0],[23.7267,38.0148,0.0],[23.7268,38.0148,0.0],[23.7269,38.0148,0.0],[23.727,38.0148,0.0],[23.7272,38.0148,0.0],[23.7273,38.0148,0.0],[23.7274,38.0148,0.0],[23.7275,38.0148,0.0],[23.7276,38.0148,0.0],[23.7278,38.0148,0.0],[23.7279,38.0148,0.0],[23.728,38.0148,0.0],[23.7281,38.0148,0.0],[23.7282,38.0148,0.0],[23.7283,38.0147,0.0],[23.7284,38.0147,0.0],[23.7284,38.0143,0.0],[23.7285,38.0138,0.0],[23.7285,38.0137,0.0],[23.7285,38.0134,0.0],[23.7285,38.013,0.0],[23.7285,38.0129,0.0],[23.7285,38.0126,0.0],[23.7286,38.0124,0.0],[23.7285,38.0123,0.0],[23.7285,38.0122,0.0],[23.7285,38.012,0.0],[23.7285,38.0118,0.0],[23.7285,38.0117,0.0],[23.7284,38.0115,0.0],[23.7284,38.0112,0.0],[23.7284,38.0111,0.0],[23.7284,38.0109,0.0],[23.7283,38.0108,0.0],[23.7283,38.0107,0.0],[23.7283,38.0103,0.0],[23.7282,38.0099,0.0],[23.7282,38.0098,0.0],[23.7281,38.0094,0.0],[23.728,38.009,0.0],[23.728,38.0089,0.0],[23.728,38.0086,0.0],[23.7279,38.0083,0.0],[23.7279,38.0082,0.0],[23.7279,38.008,0.0],[23.7278,38.0079,0.0],[23.7278,38.0078,0.0],[23.7277,38.0075,0.0],[23.7277,38.0072,0.0],[23.7276,38.0072,0.0],[23.7276,38.0071,0.0],[23.7275,38.007,0.0],[23.7275,38.0068,0.0],[23.7274,38.0067,0.0],[23.7274,38.0066,0.0],[23.7273,38.0065,0.0],[23.7273,38.0064,0.0],[23.7272,38.0063,0.0],[23.7272,38.0062,0.0],[23.7269,38.0059,0.0],[23.7266,38.0055,0.0],[23.7266,38.0054,0.0],[23.7265,38.0053,0.0],[23.7264,38.0052,0.0],[23.7263,38.0051,0.0],[23.7263,38.005,0.0],[23.7262,38.005,0.0],[23.7261,38.0049,0.0],[23.726,38.0048,0.0],[23.726,38.0047,0.0],[23.7259,38.0047,0.0],[23.7259,38.0046,0.0],[23.7257,38.0044,0.0],[23.7256,38.0042,0.0],[23.7255,38.0041,0.0],[23.7254,38.004,0.0],[23.7252,38.0039,0.0],[23.7252,38.0038,0.0],[23.7251,38.0037,0.0],[23.7248,38.0034,0.0],[23.7245,38.003,0.0],[23.7244,38.0029,0.0],[23.7243,38.0028,0.0],[23.7243,38.0027,0.0],[23.7242,38.0027,0.0],[23.7241,38.0026,0.0],[23.724,38.0025,0.0],[23.724,38.0024,0.0],[23.7239,38.0023,0.0],[23.7237,38.0021,0.0],[23.7235,38.0019,0.0],[23.7235,38.0018,0.0],[23.7233,38.0016,0.0],[23.7232,38.0015,0.0],[23.7232,38.0014,0.0],[23.7233,38.0014,0.0],[23.7234,38.0014,0.0],[23.7236,38.0014,0.0],[23.7235,38.0008,0.0],[23.7235,38.0005,0.0],[23.7235,38.0004,0.0],[23.7235,38.0003,0.0],[23.7235,38.0002,0.0],[23.7235,38.0,0.0],[23.7234,37.9999,0.0],[23.7234,37.9998,0.0],[23.7234,37.9997,0.0],[23.7234,37.9995,0.0],[23.7234,37.9993,0.0],[23.7234,37.9992,0.0],[23.7234,37.9991,0.0],[23.7234,37.999,0.0],[23.7233,37.9989,0.0],[23.7233,37.9988,0.0],[23.7233,37.9987,0.0],[23.7233,37.9986,0.0],[23.7233,37.9984,0.0],[23.7233,37.9983,0.0],[23.7233,37.9982,0.0],[23.7233,37.9981,0.0],[23.7233,37.998,0.0],[23.7233,37.9979,0.0],[23.7232,37.9978,0.0],[23.7232,37.9977,0.0],[23.7232,37.9975,0.0],[23.7232,37.9974,0.0],[23.7232,37.9973,0.0],[23.7232,37.9971,0.0],[23.7232,37.997,0.0],[23.7232,37.9969,0.0],[23.7231,37.9967,0.0],[23.7229,37.9967,0.0],[23.7227,37.9968,0.0],[23.7226,37.9968,0.0],[23.7225,37.9968,0.0],[23.7223,37.9968,0.0],[23.7221,37.9968,0.0],[23.7219,37.9968,0.0],[23.7218,37.9968,0.0],[23.7217,37.9968,0.0],[23.7215,37.9968,0.0],[23.7214,37.9968,0.0],[23.7213,37.9968,0.0],[23.7212,37.9968,0.0],[23.7211,37.9968,0.0],[23.721,37.9968,0.0],[23.7209,37.9968,0.0],[23.7208,37.9967,0.0],[23.7208,37.9965,0.0],[23.7208,37.9964,0.0],[23.7208,37.9963,0.0],[23.7209,37.9962,0.0],[23.7209,37.9961,0.0],[23.7209,37.9958,0.0],[23.7209,37.9957,0.0],[23.721,37.9955,0.0],[23.721,37.9954,0.0],[23.721,37.9952,0.0],[23.721,37.9951,0.0],[23.721,37.995,0.0],[23.7211,37.9949,0.0],[23.7213,37.9949,0.0],[23.7214,37.9949,0.0],[23.7215,37.9948,0.0],[23.7214,37.9948,0.0],[23.7214,37.9947,0.0],[23.7214,37.9946,0.0],[23.7214,37.9944,0.0],[23.7213,37.9943,0.0],[23.7213,37.9942,0.0],[23.7213,37.9941,0.0],[23.7213,37.9939,0.0],[23.7213,37.9938,0.0],[23.7212,37.9937,0.0],[23.7212,37.9936,0.0],[23.7212,37.9935,0.0],[23.7212,37.9933,0.0],[23.7212,37.9932,0.0],[23.7212,37.9931,0.0],[23.7211,37.9929,0.0],[23.7211,37.9928,0.0],[23.7211,37.9927,0.0],[23.7211,37.9926,0.0],[23.7211,37.9925,0.0],[23.721,37.9924,0.0],[23.721,37.9923,0.0],[23.721,37.9922,0.0],[23.721,37.9921,0.0],[23.7209,37.992,0.0],[23.7209,37.9919,0.0],[23.7209,37.9918,0.0],[23.7208,37.9917,0.0],[23.7207,37.9916,0.0],[23.7207,37.9915,0.0],[23.7206,37.9913,0.0],[23.7205,37.9911,0.0],[23.7204,37.991,0.0],[23.7204,37.9909,0.0],[23.7203,37.9908,0.0],[23.7203,37.9907,0.0],[23.7203,37.9906,0.0],[23.7203,37.9905,0.0],[23.7203,37.9904,0.0],[23.7203,37.9903,0.0],[23.7202,37.9901,0.0],[23.7202,37.9899,0.0],[23.7202,37.9898,0.0],[23.72,37.9892,0.0],[23.7199,37.9886,0.0],[23.7198,37.9884,0.0],[23.7198,37.9882,0.0],[23.7198,37.9881,0.0],[23.7198,37.988,0.0],[23.7198,37.9879,0.0],[23.7199,37.9879,0.0],[23.7199,37.9878,0.0],[23.7198,37.9878,0.0],[23.7197,37.9878,0.0],[23.7196,37.9877,0.0],[23.7195,37.9877,0.0],[23.7194,37.9877,0.0],[23.7193,37.9876,0.0],[23.7189,37.9876,0.0],[23.7182,37.987,0.0],[23.7181,37.9869,0.0],[23.718,37.9869,0.0],[23.7179,37.9871,0.0],[23.7178,37.9872,0.0],[23.7176,37.9875,0.0],[23.7176,37.9876,0.0],[23.7175,37.9876,0.0],[23.7173,37.9875,0.0],[23.7172,37.9874,0.0],[23.7171,37.9874,0.0],[23.717,37.9874,0.0],[23.7169,37.9873,0.0],[23.7167,37.9872,0.0],[23.7166,37.9872,0.0],[23.7165,37.9871,0.0],[23.7164,37.9871,0.0],[23.7163,37.987,0.0],[23.7162,37.987,0.0],[23.7161,37.987,0.0],[23.716,37.9869,0.0],[23.7159,37.9869,0.0],[23.7158,37.9868,0.0],[23.7157,37.9868,0.0],[23.7156,37.9867,0.0],[23.7154,37.9866,0.0],[23.7153,37.9866,0.0],[23.7152,37.9866,0.0],[23.7152,37.9865,0.0],[23.7151,37.9865,0.0],[23.715,37.9865,0.0],[23.7149,37.9864,0.0],[23.7148,37.9864,0.0],[23.7147,37.9863,0.0],[23.7146,37.9863,0.0],[23.7145,37.9862,0.0],[23.7144,37.9862,0.0],[23.7143,37.9861,0.0],[23.7142,37.9861,0.0],[23.7141,37.9861,0.0],[23.7141,37.986,0.0],[23.714,37.986,0.0],[23.7139,37.986,0.0],[23.7138,37.9859,0.0],[23.7137,37.9859,0.0],[23.7136,37.9858,0.0],[23.7135,37.9858,0.0],[23.7134,37.9857,0.0],[23.7133,37.9857,0.0],[23.7133,37.9858,0.0],[23.7132,37.9858,0.0],[23.7132,37.9859,0.0],[23.7131,37.986,0.0],[23.713,37.9861,0.0],[23.7129,37.9861,0.0],[23.7128,37.9861,0.0],[23.7128,37.986,0.0],[23.7127,37.986,0.0],[23.7126,37.986,0.0],[23.7125,37.9859,0.0],[23.7124,37.9859,0.0],[23.7123,37.9858,0.0],[23.7122,37.9858,0.0],[23.7121,37.9857,0.0],[23.712,37.9857,0.0],[23.7119,37.9857,0.0],[23.7118,37.9858,0.0],[23.7117,37.9858,0.0],[23.7116,37.9859,0.0],[23.7115,37.9859,0.0],[23.7114,37.9859,0.0],[23.7113,37.986,0.0],[23.7112,37.986,0.0],[23.7111,37.9861,0.0],[23.711,37.9862,0.0],[23.7109,37.9862,0.0],[23.7108,37.9862,0.0],[23.7107,37.9863,0.0],[23.7106,37.9863,0.0],[23.7105,37.9864,0.0],[23.7104,37.9864,0.0],[23.7103,37.9864,0.0],[23.7102,37.9865,0.0],[23.7101,37.9865,0.0],[23.71,37.9865,0.0],[23.71,37.9866,0.0],[23.7098,37.9866,0.0],[23.7097,37.9867,0.0],[23.7096,37.9867,0.0],[23.7095,37.9868,0.0],[23.7094,37.9869,0.0],[23.7093,37.9869,0.0],[23.7092,37.987,0.0],[23.709,37.987,0.0],[23.709,37.9871,0.0],[23.7089,37.9872,0.0],[23.7088,37.9872,0.0],[23.7087,37.9874,0.0],[23.7086,37.9874,0.0],[23.7085,37.9875,0.0],[23.7085,37.9876,0.0],[23.7084,37.9877,0.0],[23.7083,37.9878,0.0],[23.7082,37.9879,0.0],[23.7081,37.9879,0.0],[23.7081,37.988,0.0],[23.708,37.988,0.0],[23.708,37.9881,0.0],[23.7079,37.9882,0.0],[23.7078,37.9882,0.0],[23.7077,37.9883,0.0],[23.7077,37.9884,0.0],[23.7076,37.9884,0.0],[23.7076,37.9885,0.0],[23.7075,37.9885,0.0],[23.7073,37.9884,0.0],[23.7069,37.9882,0.0],[23.7068,37.9881,0.0],[23.7066,37.9882,0.0],[23.7063,37.9884,0.0],[23.7061,37.9885,0.0],[23.7055,37.9889,0.0],[23.7049,37.9894,0.0],[23.7048,37.9894,0.0],[23.7041,37.9899,0.0],[23.7034,37.9903,0.0],[23.7034,37.9904,0.0],[23.7033,37.9905,0.0],[23.7025,37.991,0.0],[23.7016,37.9916,0.0],[23.7015,37.9917,0.0],[23.7012,37.9919,0.0],[23.7009,37.9921,0.0],[23.7008,37.9921,0.0],[23.7007,37.9922,0.0],[23.6996,37.9929,0.0],[23.6986,37.9937,0.0],[23.6985,37.9937,0.0],[23.6997,37.9947,0.0],[23.6999,37.9948,0.0],[23.7,37.9949,0.0],[23.7003,37.995,0.0],[23.701,37.9958,0.0],[23.7006,37.9963,0.0],[23.7008,37.9972,0.0],[23.7013,37.9999,0.0],[23.7023,38.0003,0.0],[23.7031,38.0006,0.0],[23.7044,38.0011,0.0],[23.7047,38.0012,0.0],[23.705,38.0013,0.0],[23.7054,38.0015,0.0],[23.7064,38.0022,0.0],[23.7071,38.0027,0.0],[23.7077,38.0032,0.0],[23.7082,38.0035,0.0],[23.7085,38.0038,0.0],[23.7087,38.004,0.0],[23.7089,38.0041,0.0],[23.7091,38.0042,0.0],[23.7092,38.0043,0.0],[23.7094,38.0044,0.0],[23.7096,38.0045,0.0],[23.7098,38.0046,0.0],[23.7099,38.0046,0.0],[23.7113,38.0052,0.0],[23.7115,38.0052,0.0],[23.7116,38.0053,0.0],[23.7118,38.0054,0.0],[23.712,38.0055,0.0],[23.7121,38.0056,0.0],[23.7123,38.0057,0.0],[23.7125,38.0059,0.0],[23.7127,38.006,0.0],[23.713,38.0063,0.0],[23.7145,38.0078,0.0],[23.7148,38.008,0.0],[23.7151,38.0083,0.0],[23.7171,38.0094,0.0],[23.7173,38.0095,0.0],[23.7174,38.0096,0.0],[23.7175,38.0097,0.0],[23.7176,38.0097,0.0],[23.7177,38.0098,0.0],[23.7178,38.0099,0.0],[23.7179,38.01,0.0],[23.718,38.0101,0.0],[23.718,38.0102,0.0],[23.7181,38.0103,0.0],[23.7181,38.0104,0.0],[23.7182,38.0105,0.0],[23.7182,38.0106,0.0],[23.7182,38.0107,0.0],[23.7182,38.0109,0.0],[23.7183,38.011,0.0],[23.7183,38.0112,0.0],[23.7183,38.0115,0.0],[23.7183,38.0118,0.0],[23.7184,38.0122,0.0],[23.7184,38.0125,0.0],[23.7185,38.013,0.0],[23.7188,38.014,0.0],[23.719,38.0146,0.0],[23.7191,38.0147,0.0]]]]}},{"type":"Feature","properties":{"uesi_id":"GRC_R1370736","nbhd_code":"GRC_R1370736_4","nbhd_name":"6\u00ce\u00b7 \u00ce\u201d\u00ce\u0161"},"geometry":{"type":"MultiPolygon","coordinates":[[[[23.731,38.0124,0.0],[23.7311,38.0124,0.0],[23.7311,38.0123,0.0],[23.7311,38.0121,0.0],[23.7311,38.012,0.0],[23.7312,38.0119,0.0],[23.7312,38.0118,0.0],[23.7312,38.0116,0.0],[23.7312,38.0115,0.0],[23.7312,38.0114,0.0],[23.7312,38.0113,0.0],[23.7312,38.0112,0.0],[23.7313,38.0112,0.0],[23.7313,38.0111,0.0],[23.7313,38.011,0.0],[23.7313,38.0109,0.0],[23.7313,38.0108,0.0],[23.7313,38.0107,0.0],[23.7313,38.0106,0.0],[23.7313,38.0105,0.0],[23.7313,38.0104,0.0],[23.7313,38.0103,0.0],[23.7313,38.0102,0.0],[23.7314,38.0101,0.0],[23.7314,38.01,0.0],[23.7314,38.0099,0.0],[23.7314,38.0098,0.0],[23.7314,38.0097,0.0],[23.7314,38.0096,0.0],[23.7315,38.0096,0.0],[23.7316,38.0096,0.0],[23.7317,38.0095,0.0],[23.7318,38.0095,0.0],[23.7319,38.0095,0.0],[23.732,38.0095,0.0],[23.7321,38.0095,0.0],[23.7322,38.0095,0.0],[23.7323,38.0095,0.0],[23.7323,38.0094,0.0],[23.7324,38.0093,0.0],[23.7324,38.0091,0.0],[23.7324,38.0089,0.0],[23.7325,38.0089,0.0],[23.7326,38.0089,0.0],[23.7327,38.0089,0.0],[23.7328,38.0089,0.0],[23.7329,38.0089,0.0],[23.733,38.0089,0.0],[23.7331,38.0089,0.0],[23.7332,38.0088,0.0],[23.7333,38.0088,0.0],[23.7334,38.0088,0.0],[23.7335,38.0088,0.0],[23.7336,38.0088,0.0],[23.7337,38.0088,0.0],[23.7338,38.0088,0.0],[23.7339,38.0088,0.0],[23.734,38.0088,0.0],[23.7341,38.0088,0.0],[23.7343,38.0088,0.0],[23.7344,38.0088,0.0],[23.7346,38.0088,0.0],[23.7347,38.0088,0.0],[23.7349,38.0088,0.0],[23.735,38.0088,0.0],[23.7351,38.0088,0.0],[23.7351,38.0087,0.0],[23.7351,38.0086,0.0],[23.7351,38.0084,0.0],[23.7351,38.0083,0.0],[23.7352,38.0083,0.0],[23.7353,38.0083,0.0],[23.7354,38.0083,0.0],[23.7356,38.0083,0.0],[23.7358,38.0083,0.0],[23.736,38.0083,0.0],[23.7361,38.0083,0.0],[23.7362,38.0082,0.0],[23.7363,38.0082,0.0],[23.7364,38.0082,0.0],[23.7365,38.0082,0.0],[23.7366,38.0082,0.0],[23.7367,38.0082,0.0],[23.7368,38.0082,0.0],[23.7369,38.0082,0.0],[23.737,38.0082,0.0],[23.7372,38.0082,0.0],[23.7373,38.0082,0.0],[23.7375,38.0082,0.0],[23.7376,38.0082,0.0],[23.7377,38.0082,0.0],[23.7378,38.0082,0.0],[23.7379,38.0082,0.0],[23.738,38.0082,0.0],[23.7381,38.0082,0.0],[23.7382,38.0082,0.0],[23.7383,38.0081,0.0],[23.7384,38.0081,0.0],[23.7385,38.0081,0.0],[23.7386,38.0081,0.0],[23.7387,38.0081,0.0],[23.7388,38.0081,0.0],[23.7389,38.0081,0.0],[23.7391,38.0081,0.0],[23.7392,38.0081,0.0],[23.7394,38.0081,0.0],[23.7396,38.0081,0.0],[23.7397,38.0081,0.0],[23.7398,38.0081,0.0],[23.7399,38.0081,0.0],[23.74,38.0081,0.0],[23.7401,38.0081,0.0],[23.7402,38.0081,0.0],[23.7402,38.0082,0.0],[23.7402,38.0084,0.0],[23.7403,38.0085,0.0],[23.7403,38.0087,0.0],[23.7403,38.0088,0.0],[23.7403,38.0089,0.0],[23.7403,38.009,0.0],[23.7403,38.0091,0.0],[23.7404,38.0091,0.0],[23.7405,38.0091,0.0],[23.7406,38.0091,0.0],[23.7407,38.0091,0.0],[23.7408,38.0091,0.0],[23.7409,38.0091,0.0],[23.741,38.0091,0.0],[23.7411,38.0091,0.0],[23.7412,38.0091,0.0],[23.7413,38.0091,0.0],[23.7414,38.0091,0.0],[23.7414,38.0092,0.0],[23.7415,38.0092,0.0],[23.7416,38.0092,0.0],[23.7417,38.0092,0.0],[23.7418,38.0092,0.0],[23.7419,38.0093,0.0],[23.742,38.0093,0.0],[23.7421,38.0093,0.0],[23.7422,38.0094,0.0],[23.7423,38.0094,0.0],[23.7424,38.0094,0.0],[23.7425,38.0095,0.0],[23.7426,38.0095,0.0],[23.7427,38.0095,0.0],[23.7428,38.0095,0.0],[23.7429,38.0096,0.0],[23.743,38.0096,0.0],[23.7431,38.0096,0.0],[23.7432,38.0096,0.0],[23.7433,38.0096,0.0],[23.7433,38.0093,0.0],[23.7432,38.0084,0.0],[23.7437,38.0081,0.0],[23.7446,38.0081,0.0],[23.7449,38.0081,0.0],[23.7456,38.008,0.0],[23.7457,38.008,0.0],[23.7466,38.008,0.0],[23.7474,38.0091,0.0],[23.7483,38.0086,0.0],[23.7495,38.0091,0.0],[23.7498,38.0088,0.0],[23.751,38.0096,0.0],[23.7514,38.0092,0.0],[23.7516,38.0093,0.0],[23.7518,38.0087,0.0],[23.753,38.0078,0.0],[23.7528,38.0077,0.0],[23.7529,38.0075,0.0],[23.7533,38.0077,0.0],[23.7538,38.0069,0.0],[23.7542,38.0068,0.0],[23.7541,38.0064,0.0],[23.7537,38.0063,0.0],[23.7533,38.0061,0.0],[23.7532,38.0061,0.0],[23.7528,38.0059,0.0],[23.7529,38.0058,0.0],[23.7528,38.0057,0.0],[23.7527,38.0056,0.0],[23.7526,38.0055,0.0],[23.7525,38.0054,0.0],[23.7524,38.0054,0.0],[23.7524,38.0053,0.0],[23.7524,38.0052,0.0],[23.7523,38.0052,0.0],[23.7523,38.0051,0.0],[23.7523,38.0049,0.0],[23.7522,38.0047,0.0],[23.7522,38.0044,0.0],[23.7521,38.004,0.0],[23.752,38.0036,0.0],[23.752,38.0035,0.0],[23.7519,38.0035,0.0],[23.7518,38.0034,0.0],[23.7518,38.0033,0.0],[23.7518,38.0032,0.0],[23.7518,38.0031,0.0],[23.7518,38.003,0.0],[23.7518,38.0029,0.0],[23.7518,38.0028,0.0],[23.7518,38.0027,0.0],[23.7518,38.0025,0.0],[23.7518,38.0024,0.0],[23.7518,38.0021,0.0],[23.7519,38.0017,0.0],[23.7518,38.0017,0.0],[23.7516,38.0016,0.0],[23.7515,38.0016,0.0],[23.7514,38.0016,0.0],[23.7513,38.0015,0.0],[23.7512,38.0015,0.0],[23.751,38.0014,0.0],[23.7509,38.0014,0.0],[23.7508,38.0013,0.0],[23.7507,38.0012,0.0],[23.7506,38.0011,0.0],[23.7504,38.001,0.0],[23.7504,38.0009,0.0],[23.7504,38.0008,0.0],[23.7504,38.0007,0.0],[23.7504,38.0006,0.0],[23.7504,38.0005,0.0],[23.7504,38.0004,0.0],[23.7502,38.0001,0.0],[23.7502,38.0,0.0],[23.7503,37.9999,0.0],[23.7503,37.9998,0.0],[23.7504,37.9997,0.0],[23.7503,37.9996,0.0],[23.7503,37.9995,0.0],[23.7502,37.9995,0.0],[23.7502,37.9994,0.0],[23.7501,37.9993,0.0],[23.75,37.9993,0.0],[23.7499,37.9993,0.0],[23.7497,37.9993,0.0],[23.7496,37.9993,0.0],[23.7495,37.9993,0.0],[23.7494,37.9993,0.0],[23.7493,37.9993,0.0],[23.7492,37.9993,0.0],[23.7491,37.9993,0.0],[23.749,37.9992,0.0],[23.7487,37.999,0.0],[23.7485,37.9988,0.0],[23.7484,37.9988,0.0],[23.7483,37.9987,0.0],[23.7482,37.9986,0.0],[23.7481,37.9985,0.0],[23.748,37.9985,0.0],[23.7479,37.9984,0.0],[23.7477,37.9982,0.0],[23.7473,37.9979,0.0],[23.7472,37.9979,0.0],[23.7472,37.9978,0.0],[23.747,37.9977,0.0],[23.7469,37.9977,0.0],[23.7468,37.9976,0.0],[23.7467,37.9975,0.0],[23.7466,37.9974,0.0],[23.7465,37.9974,0.0],[23.7465,37.9973,0.0],[23.7464,37.9973,0.0],[23.7463,37.9972,0.0],[23.7462,37.9971,0.0],[23.7461,37.9971,0.0],[23.7461,37.997,0.0],[23.746,37.997,0.0],[23.7459,37.9969,0.0],[23.746,37.9969,0.0],[23.7461,37.9969,0.0],[23.7462,37.9969,0.0],[23.7462,37.9968,0.0],[23.7464,37.9968,0.0],[23.7466,37.9967,0.0],[23.7467,37.9966,0.0],[23.7469,37.9965,0.0],[23.7472,37.9964,0.0],[23.7473,37.9964,0.0],[23.7475,37.9963,0.0],[23.7476,37.9963,0.0],[23.7477,37.9962,0.0],[23.7481,37.9961,0.0],[23.7482,37.996,0.0],[23.7479,37.9953,0.0],[23.7478,37.9952,0.0],[23.7475,37.9953,0.0],[23.7474,37.9953,0.0],[23.7473,37.9953,0.0],[23.7471,37.9954,0.0],[23.7466,37.9955,0.0],[23.7461,37.9949,0.0],[23.746,37.9948,0.0],[23.7459,37.9948,0.0],[23.7459,37.9947,0.0],[23.7458,37.9946,0.0],[23.7457,37.9945,0.0],[23.7456,37.9944,0.0],[23.7455,37.9944,0.0],[23.7454,37.9943,0.0],[23.7452,37.9941,0.0],[23.7451,37.994,0.0],[23.745,37.994,0.0],[23.745,37.9939,0.0],[23.7449,37.9938,0.0],[23.7448,37.9937,0.0],[23.7447,37.9936,0.0],[23.7445,37.9934,0.0],[23.7443,37.9932,0.0],[23.7441,37.9933,0.0],[23.744,37.9933,0.0],[23.7439,37.9933,0.0],[23.7437,37.9933,0.0],[23.7435,37.9934,0.0],[23.7434,37.9934,0.0],[23.7432,37.9934,0.0],[23.743,37.9935,0.0],[23.7429,37.9935,0.0],[23.7429,37.9934,0.0],[23.7425,37.9933,0.0],[23.7422,37.9932,0.0],[23.7416,37.9929,0.0],[23.7411,37.9927,0.0],[23.7411,37.9926,0.0],[23.741,37.9926,0.0],[23.7409,37.9926,0.0],[23.7408,37.9926,0.0],[23.7407,37.9925,0.0],[23.7406,37.9925,0.0],[23.7405,37.9925,0.0],[23.7403,37.9924,0.0],[23.7403,37.9925,0.0],[23.7404,37.9927,0.0],[23.7401,37.9927,0.0],[23.7398,37.9929,0.0],[23.7399,37.993,0.0],[23.74,37.9932,0.0],[23.74,37.9934,0.0],[23.74,37.9936,0.0],[23.74,37.9937,0.0],[23.74,37.9938,0.0],[23.7399,37.994,0.0],[23.7398,37.9942,0.0],[23.7396,37.9944,0.0],[23.7394,37.9945,0.0],[23.7392,37.9946,0.0],[23.7389,37.9947,0.0],[23.7387,37.9948,0.0],[23.7385,37.9948,0.0],[23.7383,37.9948,0.0],[23.7378,37.9947,0.0],[23.7377,37.9947,0.0],[23.7376,37.9947,0.0],[23.7371,37.9948,0.0],[23.7366,37.9949,0.0],[23.7365,37.9949,0.0],[23.7362,37.995,0.0],[23.7359,37.995,0.0],[23.7357,37.995,0.0],[23.7354,37.9951,0.0],[23.7348,37.9952,0.0],[23.7342,37.9953,0.0],[23.7339,37.9953,0.0],[23.7336,37.9954,0.0],[23.7335,37.9954,0.0],[23.7334,37.9954,0.0],[23.7334,37.9955,0.0],[23.7333,37.9955,0.0],[23.7332,37.9955,0.0],[23.7331,37.9955,0.0],[23.7329,37.9955,0.0],[23.7327,37.9956,0.0],[23.7324,37.9956,0.0],[23.7323,37.9956,0.0],[23.7322,37.9956,0.0],[23.7321,37.9956,0.0],[23.732,37.9952,0.0],[23.7319,37.9948,0.0],[23.7319,37.9946,0.0],[23.7318,37.9942,0.0],[23.7317,37.9937,0.0],[23.7316,37.9935,0.0],[23.7316,37.9933,0.0],[23.7315,37.9931,0.0],[23.7315,37.993,0.0],[23.7315,37.9929,0.0],[23.7315,37.9928,0.0],[23.7314,37.9925,0.0],[23.7313,37.9923,0.0],[23.7313,37.9921,0.0],[23.7313,37.992,0.0],[23.7312,37.9919,0.0],[23.7312,37.9918,0.0],[23.7312,37.9917,0.0],[23.7312,37.9916,0.0],[23.7311,37.9915,0.0],[23.7311,37.9913,0.0],[23.731,37.9913,0.0],[23.7309,37.9914,0.0],[23.7308,37.9914,0.0],[23.7307,37.9914,0.0],[23.7305,37.9914,0.0],[23.7304,37.9914,0.0],[23.7303,37.9915,0.0],[23.7302,37.9915,0.0],[23.7301,37.9915,0.0],[23.73,37.9915,0.0],[23.7299,37.9915,0.0],[23.7298,37.9915,0.0],[23.7297,37.9915,0.0],[23.7296,37.9916,0.0],[23.7294,37.9916,0.0],[23.7292,37.9916,0.0],[23.7291,37.9917,0.0],[23.729,37.9917,0.0],[23.7289,37.9917,0.0],[23.7288,37.9917,0.0],[23.7287,37.9917,0.0],[23.7286,37.9917,0.0],[23.7285,37.9917,0.0],[23.7284,37.9917,0.0],[23.7283,37.9918,0.0],[23.7282,37.9918,0.0],[23.7281,37.9918,0.0],[23.728,37.9918,0.0],[23.7279,37.9918,0.0],[23.7277,37.9919,0.0],[23.7275,37.9919,0.0],[23.7273,37.9919,0.0],[23.7271,37.992,0.0],[23.7269,37.992,0.0],[23.7268,37.992,0.0],[23.7266,37.992,0.0],[23.7264,37.992,0.0],[23.7263,37.992,0.0],[23.7261,37.992,0.0],[23.726,37.992,0.0],[23.7259,37.992,0.0],[23.7258,37.992,0.0],[23.7257,37.992,0.0],[23.7255,37.992,0.0],[23.7254,37.992,0.0],[23.7253,37.992,0.0],[23.7252,37.992,0.0],[23.7251,37.9921,0.0],[23.725,37.9921,0.0],[23.7249,37.9921,0.0],[23.7248,37.9921,0.0],[23.7247,37.9921,0.0],[23.7246,37.9921,0.0],[23.7245,37.9921,0.0],[23.7244,37.9921,0.0],[23.7243,37.9921,0.0],[23.7239,37.9921,0.0],[23.7233,37.9921,0.0],[23.7232,37.9921,0.0],[23.7231,37.9922,0.0],[23.723,37.9922,0.0],[23.7229,37.9922,0.0],[23.7227,37.9922,0.0],[23.7226,37.9922,0.0],[23.7225,37.9922,0.0],[23.7222,37.9922,0.0],[23.7219,37.9922,0.0],[23.7218,37.9922,0.0],[23.7215,37.9923,0.0],[23.7213,37.9923,0.0],[23.7212,37.9923,0.0],[23.721,37.9923,0.0],[23.721,37.9924,0.0],[23.7211,37.9925,0.0],[23.7211,37.9926,0.0],[23.7211,37.9927,0.0],[23.7211,37.9928,0.0],[23.7211,37.9929,0.0],[23.7212,37.9931,0.0],[23.7212,37.9932,0.0],[23.7212,37.9933,0.0],[23.7212,37.9935,0.0],[23.7212,37.9936,0.0],[23.7212,37.9937,0.0],[23.7213,37.9938,0.0],[23.7213,37.9939,0.0],[23.7213,37.9941,0.0],[23.7213,37.9942,0.0],[23.7213,37.9943,0.0],[23.7214,37.9944,0.0],[23.7214,37.9946,0.0],[23.7214,37.9947,0.0],[23.7214,37.9948,0.0],[23.7215,37.9948,0.0],[23.7214,37.9949,0.0],[23.7213,37.9949,0.0],[23.7211,37.9949,0.0],[23.721,37.995,0.0],[23.721,37.9951,0.0],[23.721,37.9952,0.0],[23.721,37.9954,0.0],[23.721,37.9955,0.0],[23.7209,37.9957,0.0],[23.7209,37.9958,0.0],[23.7209,37.9961,0.0],[23.7209,37.9962,0.0],[23.7208,37.9963,0.0],[23.7208,37.9964,0.0],[23.7208,37.9965,0.0],[23.7208,37.9967,0.0],[23.7209,37.9968,0.0],[23.721,37.9968,0.0],[23.7211,37.9968,0.0],[23.7212,37.9968,0.0],[23.7213,37.9968,0.0],[23.7214,37.9968,0.0],[23.7215,37.9968,0.0],[23.7217,37.9968,0.0],[23.7218,37.9968,0.0],[23.7219,37.9968,0.0],[23.7221,37.9968,0.0],[23.7223,37.9968,0.0],[23.7225,37.9968,0.0],[23.7226,37.9968,0.0],[23.7227,37.9968,0.0],[23.7229,37.9967,0.0],[23.7231,37.9967,0.0],[23.7232,37.9969,0.0],[23.7232,37.997,0.0],[23.7232,37.9971,0.0],[23.7232,37.9973,0.0],[23.7232,37.9974,0.0],[23.7232,37.9975,0.0],[23.7232,37.9977,0.0],[23.7232,37.9978,0.0],[23.7233,37.9979,0.0],[23.7233,37.998,0.0],[23.7233,37.9981,0.0],[23.7233,37.9982,0.0],[23.7233,37.9983,0.0],[23.7233,37.9984,0.0],[23.7233,37.9986,0.0],[23.7233,37.9987,0.0],[23.7233,37.9988,0.0],[23.7233,37.9989,0.0],[23.7234,37.999,0.0],[23.7234,37.9991,0.0],[23.7234,37.9992,0.0],[23.7234,37.9993,0.0],[23.7234,37.9995,0.0],[23.7234,37.9997,0.0],[23.7234,37.9998,0.0],[23.7234,37.9999,0.0],[23.7235,38.0,0.0],[23.7235,38.0002,0.0],[23.7235,38.0003,0.0],[23.7235,38.0004,0.0],[23.7235,38.0005,0.0],[23.7235,38.0008,0.0],[23.7236,38.0014,0.0],[23.7234,38.0014,0.0],[23.7233,38.0014,0.0],[23.7232,38.0014,0.0],[23.7232,38.0015,0.0],[23.7233,38.0016,0.0],[23.7235,38.0018,0.0],[23.7235,38.0019,0.0],[23.7237,38.0021,0.0],[23.7239,38.0023,0.0],[23.724,38.0024,0.0],[23.724,38.0025,0.0],[23.7241,38.0026,0.0],[23.7242,38.0027,0.0],[23.7243,38.0027,0.0],[23.7243,38.0028,0.0],[23.7244,38.0029,0.0],[23.7245,38.003,0.0],[23.7248,38.0034,0.0],[23.7251,38.0037,0.0],[23.7252,38.0038,0.0],[23.7252,38.0039,0.0],[23.7254,38.004,0.0],[23.7255,38.0041,0.0],[23.7256,38.0042,0.0],[23.7257,38.0044,0.0],[23.7259,38.0046,0.0],[23.7259,38.0047,0.0],[23.726,38.0047,0.0],[23.726,38.0048,0.0],[23.7261,38.0049,0.0],[23.7262,38.005,0.0],[23.7263,38.005,0.0],[23.7263,38.0051,0.0],[23.7264,38.0052,0.0],[23.7265,38.0053,0.0],[23.7266,38.0054,0.0],[23.7266,38.0055,0.0],[23.7269,38.0059,0.0],[23.7272,38.0062,0.0],[23.7272,38.0063,0.0],[23.7273,38.0064,0.0],[23.7273,38.0065,0.0],[23.7274,38.0066,0.0],[23.7274,38.0067,0.0],[23.7275,38.0068,0.0],[23.7275,38.007,0.0],[23.7276,38.0071,0.0],[23.7276,38.0072,0.0],[23.7277,38.0072,0.0],[23.7277,38.0075,0.0],[23.7278,38.0078,0.0],[23.7278,38.0079,0.0],[23.7279,38.008,0.0],[23.7279,38.0082,0.0],[23.7279,38.0083,0.0],[23.728,38.0086,0.0],[23.728,38.0089,0.0],[23.728,38.009,0.0],[23.7281,38.0094,0.0],[23.7282,38.0098,0.0],[23.7282,38.0099,0.0],[23.7283,38.0103,0.0],[23.7283,38.0107,0.0],[23.7283,38.0108,0.0],[23.7284,38.0109,0.0],[23.7284,38.0111,0.0],[23.7284,38.0112,0.0],[23.7284,38.0115,0.0],[23.7285,38.0117,0.0],[23.7285,38.0118,0.0],[23.7285,38.012,0.0],[23.7285,38.0122,0.0],[23.7285,38.0123,0.0],[23.7287,38.0123,0.0],[23.7288,38.0123,0.0],[23.729,38.0123,0.0],[23.7293,38.0123,0.0],[23.7295,38.0123,0.0],[23.7297,38.0123,0.0],[23.7299,38.0123,0.0],[23.73,38.0123,0.0],[23.7301,38.0123,0.0],[23.7302,38.0123,0.0],[23.7303,38.0124,0.0],[23.7305,38.0124,0.0],[23.7307,38.0124,0.0],[23.7308,38.0124,0.0],[23.731,38.0124,0.0]]]]}},{"type":"Feature","properties":{"uesi_id":"GRC_R1370736","nbhd_code":"GRC_R1370736_5","nbhd_name":"7\u00ce\u00b7 \u00ce\u201d\u00ce\u0161"},"geometry":{"type":"MultiPolygon","coordinates":[[[[23.7889,37.9903,0.0],[23.7888,37.9903,0.0],[23.7879,37.9909,0.0],[23.7889,37.9903,0.0]]],[[[23.758,38.0056,0.0],[23.7597,38.0051,0.0],[23.7617,38.0044,0.0],[23.7625,38.0038,0.0],[23.7629,38.0034,0.0],[23.7632,38.0032,0.0],[23.7637,38.0027,0.0],[23.7639,38.0025,0.0],[23.765,38.0017,0.0],[23.7654,38.0013,0.0],[23.766,38.0009,0.0],[23.7693,37.9981,0.0],[23.7699,37.9989,0.0],[23.7703,37.9992,0.0],[23.7714,38.0,0.0],[23.7734,38.0004,0.0],[23.7749,38.0007,0.0],[23.7779,37.9986,0.0],[23.778,37.9986,0.0],[23.7783,37.9981,0.0],[23.7791,37.9991,0.0],[23.7791,37.9992,0.0],[23.78,38.0004,0.0],[23.7809,38.0015,0.0],[23.7823,38.0034,0.0],[23.7872,38.001,0.0],[23.7853,37.9998,0.0],[23.785,37.9996,0.0],[23.7848,37.9995,0.0],[23.7844,37.9992,0.0],[23.7839,37.9987,0.0],[23.7905,37.9925,0.0],[23.7907,37.9909,0.0],[23.7899,37.9905,0.0],[23.7889,37.9911,0.0],[23.7879,37.9911,0.0],[23.7879,37.991,0.0],[23.7879,37.9909,0.0],[23.7878,37.9909,0.0],[23.7876,37.9909,0.0],[23.7875,37.991,0.0],[23.7874,37.991,0.0],[23.7873,37.991,0.0],[23.7872,37.991,0.0],[23.7871,37.991,0.0],[23.787,37.991,0.0],[23.787,37.9909,0.0],[23.7869,37.9909,0.0],[23.7868,37.9909,0.0],[23.7864,37.9907,0.0],[23.7853,37.9901,0.0],[23.7853,37.99,0.0],[23.7852,37.99,0.0],[23.7852,37.9899,0.0],[23.7852,37.9898,0.0],[23.7852,37.989,0.0],[23.7858,37.9879,0.0],[23.7861,37.9876,0.0],[23.7864,37.9874,0.0],[23.7875,37.9864,0.0],[23.783,37.984,0.0],[23.7857,37.9807,0.0],[23.785,37.9803,0.0],[23.785,37.9804,0.0],[23.7849,37.9804,0.0],[23.7849,37.9805,0.0],[23.7848,37.9805,0.0],[23.7848,37.9806,0.0],[23.7847,37.9806,0.0],[23.7846,37.9806,0.0],[23.7846,37.9807,0.0],[23.7845,37.9807,0.0],[23.7844,37.9807,0.0],[23.7843,37.9808,0.0],[23.7842,37.9808,0.0],[23.7841,37.9808,0.0],[23.784,37.9809,0.0],[23.7839,37.9809,0.0],[23.7838,37.9809,0.0],[23.7837,37.9809,0.0],[23.7836,37.981,0.0],[23.7835,37.981,0.0],[23.7834,37.981,0.0],[23.7833,37.981,0.0],[23.7832,37.9811,0.0],[23.7831,37.9811,0.0],[23.783,37.9811,0.0],[23.7829,37.9811,0.0],[23.7828,37.9811,0.0],[23.7827,37.9811,0.0],[23.7826,37.9811,0.0],[23.7825,37.9811,0.0],[23.7823,37.9811,0.0],[23.7822,37.981,0.0],[23.7821,37.981,0.0],[23.7818,37.9819,0.0],[23.7818,37.982,0.0],[23.7817,37.982,0.0],[23.7817,37.9821,0.0],[23.7816,37.9821,0.0],[23.7814,37.9822,0.0],[23.7813,37.9822,0.0],[23.7803,37.9823,0.0],[23.7781,37.9829,0.0],[23.778,37.9829,0.0],[23.7779,37.9829,0.0],[23.7778,37.983,0.0],[23.7777,37.9829,0.0],[23.7776,37.9829,0.0],[23.7775,37.9829,0.0],[23.7774,37.9829,0.0],[23.7774,37.9828,0.0],[23.7773,37.9828,0.0],[23.7772,37.9828,0.0],[23.7771,37.9828,0.0],[23.777,37.9828,0.0],[23.7769,37.9829,0.0],[23.7768,37.9829,0.0],[23.7762,37.9837,0.0],[23.7747,37.9839,0.0],[23.7745,37.9839,0.0],[23.7743,37.9839,0.0],[23.774,37.9839,0.0],[23.7738,37.984,0.0],[23.7735,37.984,0.0],[23.7733,37.984,0.0],[23.7731,37.984,0.0],[23.7729,37.984,0.0],[23.7726,37.984,0.0],[23.7724,37.984,0.0],[23.7721,37.984,0.0],[23.7719,37.9839,0.0],[23.7717,37.9839,0.0],[23.771,37.9847,0.0],[23.7701,37.9842,0.0],[23.7694,37.9838,0.0],[23.7687,37.9835,0.0],[23.7645,37.9816,0.0],[23.7623,37.9807,0.0],[23.7613,37.9802,0.0],[23.7588,37.9802,0.0],[23.7567,37.9793,0.0],[23.7566,37.9794,0.0],[23.7565,37.9795,0.0],[23.7564,37.9798,0.0],[23.7563,37.9798,0.0],[23.7562,37.9799,0.0],[23.7562,37.98,0.0],[23.756,37.9801,0.0],[23.756,37.9802,0.0],[23.7559,37.9802,0.0],[23.7556,37.9803,0.0],[23.7554,37.9804,0.0],[23.7553,37.9805,0.0],[23.7551,37.9806,0.0],[23.7551,37.9807,0.0],[23.755,37.9807,0.0],[23.7549,37.9807,0.0],[23.755,37.9808,0.0],[23.7551,37.9809,0.0],[23.7553,37.9811,0.0],[23.7552,37.9812,0.0],[23.7551,37.9813,0.0],[23.755,37.9813,0.0],[23.755,37.9814,0.0],[23.7549,37.9814,0.0],[23.7548,37.9815,0.0],[23.7547,37.9816,0.0],[23.7546,37.9816,0.0],[23.7544,37.9817,0.0],[23.7543,37.9818,0.0],[23.7542,37.9819,0.0],[23.7541,37.9819,0.0],[23.754,37.982,0.0],[23.7538,37.9821,0.0],[23.7537,37.9822,0.0],[23.7536,37.9823,0.0],[23.7534,37.9824,0.0],[23.7533,37.9825,0.0],[23.7532,37.9826,0.0],[23.7531,37.9827,0.0],[23.7529,37.9828,0.0],[23.7529,37.9829,0.0],[23.7528,37.9829,0.0],[23.7528,37.983,0.0],[23.7527,37.983,0.0],[23.7527,37.9831,0.0],[23.7526,37.9831,0.0],[23.7525,37.983,0.0],[23.7523,37.9831,0.0],[23.7521,37.9831,0.0],[23.752,37.9832,0.0],[23.7519,37.9832,0.0],[23.7518,37.9833,0.0],[23.7517,37.9833,0.0],[23.7515,37.9834,0.0],[23.7515,37.9836,0.0],[23.7516,37.9837,0.0],[23.7516,37.9838,0.0],[23.7516,37.9839,0.0],[23.7516,37.984,0.0],[23.7517,37.9841,0.0],[23.7517,37.9843,0.0],[23.7517,37.9844,0.0],[23.7517,37.9845,0.0],[23.7518,37.9846,0.0],[23.7519,37.9848,0.0],[23.7519,37.9849,0.0],[23.7519,37.9851,0.0],[23.752,37.9852,0.0],[23.752,37.9853,0.0],[23.7519,37.9854,0.0],[23.7518,37.9855,0.0],[23.7517,37.9857,0.0],[23.7516,37.9859,0.0],[23.7515,37.986,0.0],[23.7514,37.9861,0.0],[23.7513,37.9862,0.0],[23.751,37.9862,0.0],[23.7508,37.9863,0.0],[23.7506,37.9863,0.0],[23.7505,37.9863,0.0],[23.7502,37.9864,0.0],[23.7499,37.9864,0.0],[23.7498,37.9865,0.0],[23.7495,37.9865,0.0],[23.7494,37.9866,0.0],[23.7493,37.9866,0.0],[23.7491,37.9866,0.0],[23.7489,37.9866,0.0],[23.7487,37.9867,0.0],[23.7486,37.9867,0.0],[23.7485,37.9867,0.0],[23.7483,37.9867,0.0],[23.7482,37.9867,0.0],[23.7481,37.9866,0.0],[23.7479,37.9866,0.0],[23.7478,37.9865,0.0],[23.7476,37.9864,0.0],[23.7474,37.9863,0.0],[23.7473,37.9862,0.0],[23.7472,37.9862,0.0],[23.747,37.9861,0.0],[23.7469,37.986,0.0],[23.7468,37.9859,0.0],[23.7466,37.9858,0.0],[23.7464,37.9857,0.0],[23.7462,37.9857,0.0],[23.7461,37.9856,0.0],[23.746,37.9856,0.0],[23.7458,37.9858,0.0],[23.7456,37.9861,0.0],[23.7455,37.9861,0.0],[23.7455,37.9862,0.0],[23.7454,37.9863,0.0],[23.7453,37.9864,0.0],[23.7453,37.9865,0.0],[23.7452,37.9865,0.0],[23.7452,37.9866,0.0],[23.7451,37.9866,0.0],[23.7451,37.9867,0.0],[23.745,37.9868,0.0],[23.7449,37.9869,0.0],[23.7448,37.987,0.0],[23.7448,37.9871,0.0],[23.7447,37.9871,0.0],[23.7447,37.9872,0.0],[23.7446,37.9872,0.0],[23.7446,37.9873,0.0],[23.7445,37.9874,0.0],[23.7444,37.9876,0.0],[23.7443,37.9877,0.0],[23.7442,37.9878,0.0],[23.7441,37.9878,0.0],[23.7441,37.9879,0.0],[23.744,37.988,0.0],[23.744,37.9881,0.0],[23.7439,37.9882,0.0],[23.7438,37.9882,0.0],[23.7438,37.9883,0.0],[23.7437,37.9883,0.0],[23.7437,37.9884,0.0],[23.7436,37.9885,0.0],[23.7435,37.9886,0.0],[23.7435,37.9887,0.0],[23.7434,37.9887,0.0],[23.7434,37.9888,0.0],[23.7433,37.9888,0.0],[23.7432,37.989,0.0],[23.743,37.9892,0.0],[23.7429,37.9893,0.0],[23.7428,37.9895,0.0],[23.7426,37.9896,0.0],[23.7425,37.9898,0.0],[23.7424,37.9897,0.0],[23.7423,37.9896,0.0],[23.7422,37.9895,0.0],[23.7421,37.9895,0.0],[23.742,37.9894,0.0],[23.7419,37.9893,0.0],[23.7418,37.9893,0.0],[23.7418,37.9892,0.0],[23.7417,37.9892,0.0],[23.7417,37.9891,0.0],[23.7416,37.9891,0.0],[23.7415,37.989,0.0],[23.7414,37.989,0.0],[23.7413,37.989,0.0],[23.7413,37.9889,0.0],[23.7412,37.9889,0.0],[23.7411,37.9888,0.0],[23.741,37.9888,0.0],[23.7409,37.9887,0.0],[23.7408,37.9887,0.0],[23.7407,37.9887,0.0],[23.7407,37.9888,0.0],[23.7406,37.9889,0.0],[23.7406,37.989,0.0],[23.7404,37.9891,0.0],[23.7403,37.9892,0.0],[23.7403,37.9893,0.0],[23.7402,37.9894,0.0],[23.74,37.9896,0.0],[23.7398,37.9898,0.0],[23.7399,37.9901,0.0],[23.74,37.9903,0.0],[23.7398,37.9903,0.0],[23.7398,37.9905,0.0],[23.7398,37.9906,0.0],[23.7398,37.9907,0.0],[23.7398,37.9908,0.0],[23.7399,37.9909,0.0],[23.7399,37.9911,0.0],[23.74,37.9913,0.0],[23.74,37.9915,0.0],[23.74,37.9916,0.0],[23.7401,37.9916,0.0],[23.7401,37.9917,0.0],[23.7401,37.9918,0.0],[23.7401,37.9919,0.0],[23.7401,37.992,0.0],[23.7402,37.9921,0.0],[23.7402,37.9922,0.0],[23.7402,37.9923,0.0],[23.7403,37.9924,0.0],[23.7405,37.9925,0.0],[23.7406,37.9925,0.0],[23.7407,37.9925,0.0],[23.7408,37.9926,0.0],[23.7409,37.9926,0.0],[23.741,37.9926,0.0],[23.7411,37.9926,0.0],[23.7411,37.9927,0.0],[23.7416,37.9929,0.0],[23.7422,37.9932,0.0],[23.7425,37.9933,0.0],[23.7429,37.9934,0.0],[23.7429,37.9935,0.0],[23.743,37.9935,0.0],[23.7432,37.9934,0.0],[23.7434,37.9934,0.0],[23.7435,37.9934,0.0],[23.7437,37.9933,0.0],[23.7439,37.9933,0.0],[23.744,37.9933,0.0],[23.7441,37.9933,0.0],[23.7443,37.9932,0.0],[23.7445,37.9934,0.0],[23.7447,37.9936,0.0],[23.7448,37.9937,0.0],[23.7449,37.9938,0.0],[23.745,37.9939,0.0],[23.745,37.994,0.0],[23.7451,37.994,0.0],[23.7452,37.9941,0.0],[23.7454,37.9943,0.0],[23.7455,37.9944,0.0],[23.7456,37.9944,0.0],[23.7457,37.9945,0.0],[23.7458,37.9946,0.0],[23.7459,37.9947,0.0],[23.7459,37.9948,0.0],[23.746,37.9948,0.0],[23.7461,37.9949,0.0],[23.7466,37.9955,0.0],[23.7471,37.9954,0.0],[23.7473,37.9953,0.0],[23.7474,37.9953,0.0],[23.7475,37.9953,0.0],[23.7478,37.9952,0.0],[23.7479,37.9953,0.0],[23.7482,37.996,0.0],[23.7481,37.9961,0.0],[23.7477,37.9962,0.0],[23.7476,37.9963,0.0],[23.7475,37.9963,0.0],[23.7473,37.9964,0.0],[23.7472,37.9964,0.0],[23.7469,37.9965,0.0],[23.7467,37.9966,0.0],[23.7466,37.9967,0.0],[23.7464,37.9968,0.0],[23.7462,37.9968,0.0],[23.7462,37.9969,0.0],[23.7461,37.9969,0.0],[23.746,37.9969,0.0],[23.7459,37.9969,0.0],[23.746,37.997,0.0],[23.7461,37.997,0.0],[23.7461,37.9971,0.0],[23.7462,37.9971,0.0],[23.7463,37.9972,0.0],[23.7464,37.9973,0.0],[23.7465,37.9973,0.0],[23.7465,37.9974,0.0],[23.7466,37.9974,0.0],[23.7467,37.9975,0.0],[23.7468,37.9976,0.0],[23.7469,37.9977,0.0],[23.747,37.9977,0.0],[23.7472,37.9978,0.0],[23.7472,37.9979,0.0],[23.7473,37.9979,0.0],[23.7477,37.9982,0.0],[23.7479,37.9984,0.0],[23.748,37.9985,0.0],[23.7481,37.9985,0.0],[23.7482,37.9986,0.0],[23.7483,37.9987,0.0],[23.7484,37.9988,0.0],[23.7485,37.9988,0.0],[23.7487,37.999,0.0],[23.749,37.9992,0.0],[23.7491,37.9993,0.0],[23.7492,37.9993,0.0],[23.7493,37.9993,0.0],[23.7494,37.9993,0.0],[23.7495,37.9993,0.0],[23.7496,37.9993,0.0],[23.7497,37.9993,0.0],[23.7499,37.9993,0.0],[23.75,37.9993,0.0],[23.7501,37.9993,0.0],[23.7502,37.9994,0.0],[23.7502,37.9995,0.0],[23.7503,37.9995,0.0],[23.7503,37.9996,0.0],[23.7504,37.9997,0.0],[23.7503,37.9998,0.0],[23.7503,37.9999,0.0],[23.7502,38.0,0.0],[23.7502,38.0001,0.0],[23.7504,38.0004,0.0],[23.7504,38.0005,0.0],[23.7504,38.0006,0.0],[23.7504,38.0007,0.0],[23.7504,38.0008,0.0],[23.7504,38.0009,0.0],[23.7504,38.001,0.0],[23.7506,38.0011,0.0],[23.7507,38.0012,0.0],[23.7508,38.0013,0.0],[23.7509,38.0014,0.0],[23.751,38.0014,0.0],[23.7512,38.0015,0.0],[23.7513,38.0015,0.0],[23.7514,38.0016,0.0],[23.7515,38.0016,0.0],[23.7516,38.0016,0.0],[23.7518,38.0017,0.0],[23.7519,38.0017,0.0],[23.7518,38.0021,0.0],[23.7518,38.0024,0.0],[23.7518,38.0025,0.0],[23.7518,38.0027,0.0],[23.7518,38.0028,0.0],[23.7518,38.0029,0.0],[23.7518,38.003,0.0],[23.7518,38.0031,0.0],[23.7518,38.0032,0.0],[23.7518,38.0033,0.0],[23.7518,38.0034,0.0],[23.7519,38.0035,0.0],[23.752,38.0035,0.0],[23.752,38.0036,0.0],[23.7521,38.004,0.0],[23.7522,38.0044,0.0],[23.7522,38.0047,0.0],[23.7523,38.0049,0.0],[23.7523,38.0051,0.0],[23.7523,38.0052,0.0],[23.7524,38.0052,0.0],[23.7524,38.0053,0.0],[23.7524,38.0054,0.0],[23.7525,38.0054,0.0],[23.7526,38.0055,0.0],[23.7527,38.0056,0.0],[23.7528,38.0057,0.0],[23.7529,38.0058,0.0],[23.7528,38.0059,0.0],[23.7532,38.0061,0.0],[23.7533,38.0061,0.0],[23.7537,38.0063,0.0],[23.7541,38.0064,0.0],[23.7542,38.0068,0.0],[23.7555,38.0064,0.0],[23.758,38.0056,0.0]]]]}},{"type":"Feature","properties":{"uesi_id":"GRC_R1370736","nbhd_code":"GRC_R1370736_6","nbhd_name":"2\u00ce\u00b7 \u00ce\u201d\u00ce\u0161"},"geometry":{"type":"MultiPolygon","coordinates":[[[[23.7377,37.976,0.0],[23.738,37.976,0.0],[23.7384,37.9759,0.0],[23.7388,37.9759,0.0],[23.739,37.9758,0.0],[23.7391,37.9758,0.0],[23.7393,37.9758,0.0],[23.7399,37.9757,0.0],[23.7405,37.9756,0.0],[23.7406,37.9756,0.0],[23.7407,37.9756,0.0],[23.741,37.9756,0.0],[23.7412,37.9755,0.0],[23.7417,37.9755,0.0],[23.742,37.9754,0.0],[23.7421,37.9754,0.0],[23.7424,37.9754,0.0],[23.7426,37.9754,0.0],[23.7428,37.9753,0.0],[23.7429,37.9753,0.0],[23.7431,37.9753,0.0],[23.7434,37.9754,0.0],[23.7438,37.9755,0.0],[23.7444,37.9756,0.0],[23.7445,37.9756,0.0],[23.7451,37.9758,0.0],[23.7458,37.976,0.0],[23.7458,37.9759,0.0],[23.7459,37.9758,0.0],[23.7459,37.9756,0.0],[23.746,37.9755,0.0],[23.746,37.9754,0.0],[23.7461,37.9752,0.0],[23.7461,37.9751,0.0],[23.7461,37.975,0.0],[23.7462,37.9748,0.0],[23.7463,37.9747,0.0],[23.7463,37.9746,0.0],[23.7463,37.9745,0.0],[23.7464,37.9743,0.0],[23.7465,37.9742,0.0],[23.7466,37.9739,0.0],[23.7468,37.9739,0.0],[23.747,37.9739,0.0],[23.7471,37.9739,0.0],[23.7472,37.9739,0.0],[23.7473,37.9739,0.0],[23.7474,37.9738,0.0],[23.7476,37.9738,0.0],[23.7477,37.9738,0.0],[23.7478,37.9738,0.0],[23.7479,37.9738,0.0],[23.748,37.9738,0.0],[23.7481,37.9738,0.0],[23.7482,37.9738,0.0],[23.7484,37.9737,0.0],[23.7485,37.9737,0.0],[23.7486,37.9737,0.0],[23.7487,37.9737,0.0],[23.7488,37.9737,0.0],[23.7489,37.9737,0.0],[23.749,37.9737,0.0],[23.7492,37.9737,0.0],[23.7493,37.9736,0.0],[23.7494,37.9736,0.0],[23.7495,37.9736,0.0],[23.7496,37.9736,0.0],[23.7497,37.9736,0.0],[23.7498,37.9736,0.0],[23.7499,37.9736,0.0],[23.75,37.9736,0.0],[23.7501,37.9736,0.0],[23.7502,37.9736,0.0],[23.75,37.9722,0.0],[23.7501,37.9721,0.0],[23.7505,37.9717,0.0],[23.7509,37.9712,0.0],[23.7512,37.9709,0.0],[23.7517,37.9704,0.0],[23.7523,37.9697,0.0],[23.7528,37.9692,0.0],[23.7528,37.9691,0.0],[23.7535,37.9684,0.0],[23.7541,37.9676,0.0],[23.7551,37.9665,0.0],[23.7558,37.9659,0.0],[23.755,37.9654,0.0],[23.7546,37.9652,0.0],[23.754,37.9649,0.0],[23.7529,37.9643,0.0],[23.7523,37.9643,0.0],[23.7522,37.9643,0.0],[23.7511,37.9644,0.0],[23.7507,37.9644,0.0],[23.7502,37.9641,0.0],[23.7497,37.9638,0.0],[23.7491,37.9635,0.0],[23.7487,37.9633,0.0],[23.7483,37.9631,0.0],[23.7477,37.9627,0.0],[23.7466,37.9621,0.0],[23.746,37.9617,0.0],[23.7455,37.9615,0.0],[23.745,37.9612,0.0],[23.7445,37.9609,0.0],[23.7454,37.96,0.0],[23.7459,37.9594,0.0],[23.7464,37.9588,0.0],[23.7473,37.9579,0.0],[23.7477,37.9574,0.0],[23.7469,37.9567,0.0],[23.7465,37.9568,0.0],[23.7459,37.957,0.0],[23.7457,37.957,0.0],[23.7456,37.9564,0.0],[23.7453,37.9559,0.0],[23.7446,37.9561,0.0],[23.7438,37.9564,0.0],[23.7434,37.9563,0.0],[23.7429,37.9562,0.0],[23.7424,37.9561,0.0],[23.7419,37.956,0.0],[23.7414,37.9559,0.0],[23.7408,37.9558,0.0],[23.7401,37.9557,0.0],[23.74,37.956,0.0],[23.7399,37.9563,0.0],[23.7395,37.9563,0.0],[23.7387,37.9563,0.0],[23.7371,37.9561,0.0],[23.7367,37.9561,0.0],[23.7362,37.956,0.0],[23.7357,37.956,0.0],[23.7359,37.9557,0.0],[23.7349,37.9554,0.0],[23.734,37.9552,0.0],[23.734,37.9554,0.0],[23.7339,37.9554,0.0],[23.7339,37.9555,0.0],[23.7339,37.9556,0.0],[23.7338,37.9556,0.0],[23.7337,37.9557,0.0],[23.7336,37.9557,0.0],[23.7333,37.9556,0.0],[23.7328,37.9553,0.0],[23.7323,37.9551,0.0],[23.7315,37.9547,0.0],[23.7309,37.9544,0.0],[23.7305,37.9542,0.0],[23.7299,37.9543,0.0],[23.7297,37.9544,0.0],[23.729,37.9537,0.0],[23.7289,37.9538,0.0],[23.7285,37.9534,0.0],[23.728,37.953,0.0],[23.7275,37.9525,0.0],[23.7266,37.9527,0.0],[23.7248,37.9503,0.0],[23.7246,37.95,0.0],[23.7244,37.9499,0.0],[23.724,37.9497,0.0],[23.7237,37.9495,0.0],[23.7229,37.9489,0.0],[23.7202,37.951,0.0],[23.7201,37.951,0.0],[23.7194,37.9516,0.0],[23.7181,37.9527,0.0],[23.7171,37.9535,0.0],[23.7149,37.9553,0.0],[23.7175,37.9574,0.0],[23.7185,37.9581,0.0],[23.7203,37.9596,0.0],[23.7204,37.9597,0.0],[23.7208,37.96,0.0],[23.7209,37.9601,0.0],[23.721,37.9602,0.0],[23.7213,37.9604,0.0],[23.7214,37.9604,0.0],[23.7216,37.9606,0.0],[23.7218,37.9608,0.0],[23.7221,37.9611,0.0],[23.7223,37.9612,0.0],[23.7225,37.9613,0.0],[23.7225,37.9614,0.0],[23.7226,37.9615,0.0],[23.7227,37.9615,0.0],[23.7228,37.9616,0.0],[23.7229,37.9617,0.0],[23.723,37.9618,0.0],[23.7234,37.9621,0.0],[23.7238,37.9624,0.0],[23.7239,37.9625,0.0],[23.724,37.9626,0.0],[23.7241,37.9627,0.0],[23.7243,37.9628,0.0],[23.7244,37.9629,0.0],[23.7245,37.9629,0.0],[23.7246,37.963,0.0],[23.7249,37.9632,0.0],[23.7251,37.9634,0.0],[23.7252,37.9635,0.0],[23.7253,37.9635,0.0],[23.7253,37.9636,0.0],[23.7254,37.9636,0.0],[23.7255,37.9637,0.0],[23.7258,37.964,0.0],[23.7262,37.9642,0.0],[23.7262,37.9643,0.0],[23.7263,37.9644,0.0],[23.7265,37.9645,0.0],[23.7267,37.9647,0.0],[23.7268,37.9648,0.0],[23.7269,37.9649,0.0],[23.7271,37.965,0.0],[23.7273,37.9652,0.0],[23.7274,37.9652,0.0],[23.7275,37.9653,0.0],[23.728,37.9657,0.0],[23.7285,37.966,0.0],[23.7286,37.9661,0.0],[23.7287,37.9662,0.0],[23.7289,37.9663,0.0],[23.7291,37.9665,0.0],[23.7292,37.9666,0.0],[23.7294,37.9668,0.0],[23.7296,37.9669,0.0],[23.7298,37.9671,0.0],[23.7301,37.9673,0.0],[23.7302,37.9674,0.0],[23.7303,37.9674,0.0],[23.7304,37.9675,0.0],[23.7305,37.9676,0.0],[23.7306,37.9677,0.0],[23.7307,37.9678,0.0],[23.7308,37.9678,0.0],[23.7308,37.9679,0.0],[23.731,37.968,0.0],[23.7311,37.9681,0.0],[23.7312,37.9682,0.0],[23.7313,37.9682,0.0],[23.7313,37.9683,0.0],[23.7314,37.9683,0.0],[23.7315,37.9684,0.0],[23.7315,37.9685,0.0],[23.7315,37.9687,0.0],[23.7315,37.9689,0.0],[23.7315,37.969,0.0],[23.7316,37.9696,0.0],[23.7316,37.9697,0.0],[23.7316,37.9701,0.0],[23.7316,37.9702,0.0],[23.7317,37.9703,0.0],[23.7318,37.9704,0.0],[23.7319,37.9704,0.0],[23.7319,37.9705,0.0],[23.732,37.9705,0.0],[23.7321,37.9705,0.0],[23.7322,37.9706,0.0],[23.7323,37.9706,0.0],[23.7324,37.9706,0.0],[23.7324,37.9707,0.0],[23.7325,37.9707,0.0],[23.7326,37.9707,0.0],[23.7326,37.9708,0.0],[23.7327,37.9708,0.0],[23.7327,37.9709,0.0],[23.7328,37.9709,0.0],[23.7328,37.971,0.0],[23.7329,37.9711,0.0],[23.733,37.9711,0.0],[23.733,37.9712,0.0],[23.7331,37.9713,0.0],[23.7332,37.9714,0.0],[23.7333,37.9716,0.0],[23.7335,37.9717,0.0],[23.7336,37.9718,0.0],[23.7337,37.972,0.0],[23.7338,37.9721,0.0],[23.7339,37.9722,0.0],[23.734,37.9723,0.0],[23.7341,37.9724,0.0],[23.7343,37.9726,0.0],[23.7345,37.9728,0.0],[23.7346,37.9729,0.0],[23.7347,37.973,0.0],[23.7347,37.9731,0.0],[23.7349,37.9733,0.0],[23.7351,37.9735,0.0],[23.7351,37.9738,0.0],[23.7352,37.974,0.0],[23.7352,37.9741,0.0],[23.7353,37.9745,0.0],[23.7353,37.9748,0.0],[23.7354,37.9749,0.0],[23.7356,37.9749,0.0],[23.7357,37.9748,0.0],[23.7362,37.9748,0.0],[23.7365,37.9748,0.0],[23.7375,37.9747,0.0],[23.7377,37.976,0.0]]]]}},{"type":"Feature","properties":{"uesi_id":"GRC_R1370736","nbhd_code":"GRC_R1370736_7","nbhd_name":"3\u00ce\u00b7 \u00ce\u201d\u00ce\u0161"},"geometry":{"type":"MultiPolygon","coordinates":[[[[23.6985,37.9937,0.0],[23.6986,37.9937,0.0],[23.6996,37.9929,0.0],[23.7007,37.9922,0.0],[23.7008,37.9921,0.0],[23.7009,37.9921,0.0],[23.7012,37.9919,0.0],[23.7015,37.9917,0.0],[23.7016,37.9916,0.0],[23.7025,37.991,0.0],[23.7033,37.9905,0.0],[23.7034,37.9904,0.0],[23.7034,37.9903,0.0],[23.7041,37.9899,0.0],[23.7048,37.9894,0.0],[23.7049,37.9894,0.0],[23.7055,37.9889,0.0],[23.7061,37.9885,0.0],[23.7063,37.9884,0.0],[23.7066,37.9882,0.0],[23.7068,37.9881,0.0],[23.7069,37.9882,0.0],[23.7073,37.9884,0.0],[23.7075,37.9885,0.0],[23.7076,37.9885,0.0],[23.7076,37.9884,0.0],[23.7077,37.9884,0.0],[23.7077,37.9883,0.0],[23.7078,37.9882,0.0],[23.7079,37.9882,0.0],[23.708,37.9881,0.0],[23.708,37.988,0.0],[23.7081,37.988,0.0],[23.7081,37.9879,0.0],[23.7082,37.9879,0.0],[23.7083,37.9878,0.0],[23.7084,37.9877,0.0],[23.7085,37.9876,0.0],[23.7085,37.9875,0.0],[23.7086,37.9874,0.0],[23.7087,37.9874,0.0],[23.7088,37.9872,0.0],[23.7089,37.9872,0.0],[23.709,37.9871,0.0],[23.709,37.987,0.0],[23.7092,37.987,0.0],[23.7093,37.9869,0.0],[23.7094,37.9869,0.0],[23.7095,37.9868,0.0],[23.7096,37.9867,0.0],[23.7097,37.9867,0.0],[23.7098,37.9866,0.0],[23.71,37.9866,0.0],[23.71,37.9865,0.0],[23.7101,37.9865,0.0],[23.7102,37.9865,0.0],[23.7103,37.9864,0.0],[23.7104,37.9864,0.0],[23.7105,37.9864,0.0],[23.7106,37.9863,0.0],[23.7107,37.9863,0.0],[23.7108,37.9862,0.0],[23.7109,37.9862,0.0],[23.711,37.9862,0.0],[23.7111,37.9861,0.0],[23.7112,37.986,0.0],[23.7113,37.986,0.0],[23.7114,37.9859,0.0],[23.7115,37.9859,0.0],[23.7116,37.9859,0.0],[23.7117,37.9858,0.0],[23.7118,37.9858,0.0],[23.7119,37.9857,0.0],[23.712,37.9857,0.0],[23.7121,37.9857,0.0],[23.7122,37.9858,0.0],[23.7123,37.9858,0.0],[23.7124,37.9859,0.0],[23.7125,37.9859,0.0],[23.7126,37.986,0.0],[23.7127,37.986,0.0],[23.7128,37.986,0.0],[23.7128,37.9861,0.0],[23.7129,37.9861,0.0],[23.713,37.9861,0.0],[23.7131,37.986,0.0],[23.7132,37.9859,0.0],[23.7132,37.9858,0.0],[23.7133,37.9858,0.0],[23.7133,37.9857,0.0],[23.7134,37.9857,0.0],[23.7135,37.9858,0.0],[23.7136,37.9858,0.0],[23.7137,37.9859,0.0],[23.7138,37.9859,0.0],[23.7139,37.986,0.0],[23.714,37.986,0.0],[23.7141,37.986,0.0],[23.7141,37.9861,0.0],[23.7142,37.9861,0.0],[23.7143,37.9861,0.0],[23.7144,37.9862,0.0],[23.7145,37.9862,0.0],[23.7146,37.9863,0.0],[23.7147,37.9863,0.0],[23.7148,37.9864,0.0],[23.7149,37.9864,0.0],[23.715,37.9865,0.0],[23.7151,37.9865,0.0],[23.7152,37.9865,0.0],[23.7152,37.9866,0.0],[23.7153,37.9866,0.0],[23.7154,37.9866,0.0],[23.7156,37.9867,0.0],[23.7157,37.9868,0.0],[23.7158,37.9868,0.0],[23.7159,37.9869,0.0],[23.716,37.9869,0.0],[23.7161,37.987,0.0],[23.7162,37.987,0.0],[23.7163,37.987,0.0],[23.7164,37.9871,0.0],[23.7165,37.9871,0.0],[23.7166,37.9872,0.0],[23.7167,37.9872,0.0],[23.7169,37.9873,0.0],[23.717,37.9874,0.0],[23.7171,37.9874,0.0],[23.7172,37.9874,0.0],[23.7173,37.9875,0.0],[23.7175,37.9876,0.0],[23.7176,37.9876,0.0],[23.7176,37.9875,0.0],[23.7178,37.9872,0.0],[23.7179,37.9871,0.0],[23.718,37.9869,0.0],[23.7181,37.9868,0.0],[23.7182,37.9868,0.0],[23.7183,37.9866,0.0],[23.7184,37.9864,0.0],[23.7185,37.9864,0.0],[23.7185,37.9863,0.0],[23.7186,37.9861,0.0],[23.7188,37.986,0.0],[23.7188,37.9859,0.0],[23.7188,37.9858,0.0],[23.719,37.9856,0.0],[23.7192,37.9853,0.0],[23.7192,37.9852,0.0],[23.7193,37.9851,0.0],[23.7193,37.985,0.0],[23.7193,37.9849,0.0],[23.7193,37.9848,0.0],[23.7194,37.9847,0.0],[23.7195,37.9846,0.0],[23.7196,37.9845,0.0],[23.7196,37.9844,0.0],[23.7197,37.9843,0.0],[23.7197,37.9842,0.0],[23.7198,37.9842,0.0],[23.7198,37.9841,0.0],[23.7199,37.984,0.0],[23.72,37.9839,0.0],[23.72,37.9838,0.0],[23.7201,37.9838,0.0],[23.7201,37.9837,0.0],[23.7202,37.9836,0.0],[23.7203,37.9835,0.0],[23.7203,37.9834,0.0],[23.7204,37.9834,0.0],[23.7204,37.9833,0.0],[23.7204,37.9832,0.0],[23.7205,37.9832,0.0],[23.7205,37.9831,0.0],[23.7206,37.9831,0.0],[23.7207,37.9829,0.0],[23.7208,37.9828,0.0],[23.7208,37.9827,0.0],[23.7209,37.9826,0.0],[23.7209,37.9825,0.0],[23.721,37.9824,0.0],[23.7212,37.9822,0.0],[23.7213,37.9821,0.0],[23.7214,37.9819,0.0],[23.7215,37.9818,0.0],[23.7215,37.9817,0.0],[23.7216,37.9816,0.0],[23.7217,37.9815,0.0],[23.7218,37.9814,0.0],[23.7217,37.9814,0.0],[23.7217,37.9813,0.0],[23.7216,37.9813,0.0],[23.7215,37.9813,0.0],[23.7215,37.9812,0.0],[23.7214,37.9812,0.0],[23.7213,37.9812,0.0],[23.7212,37.9811,0.0],[23.7211,37.981,0.0],[23.721,37.981,0.0],[23.7209,37.981,0.0],[23.7208,37.9809,0.0],[23.7207,37.9809,0.0],[23.7207,37.9808,0.0],[23.7208,37.9807,0.0],[23.7209,37.9806,0.0],[23.721,37.9804,0.0],[23.7211,37.9803,0.0],[23.7212,37.9802,0.0],[23.7212,37.9801,0.0],[23.7213,37.9801,0.0],[23.7213,37.98,0.0],[23.7214,37.9799,0.0],[23.7214,37.9798,0.0],[23.7215,37.9798,0.0],[23.7215,37.9797,0.0],[23.7216,37.9796,0.0],[23.7217,37.9795,0.0],[23.7217,37.9794,0.0],[23.7218,37.9794,0.0],[23.7218,37.9793,0.0],[23.7217,37.9793,0.0],[23.7217,37.9792,0.0],[23.7216,37.9792,0.0],[23.7216,37.9791,0.0],[23.7215,37.9791,0.0],[23.7215,37.979,0.0],[23.7214,37.979,0.0],[23.7214,37.9789,0.0],[23.7213,37.9789,0.0],[23.7213,37.9788,0.0],[23.7212,37.9788,0.0],[23.7211,37.9787,0.0],[23.7212,37.9787,0.0],[23.7212,37.9786,0.0],[23.7213,37.9786,0.0],[23.7213,37.9785,0.0],[23.7213,37.9784,0.0],[23.7214,37.9783,0.0],[23.7215,37.9782,0.0],[23.7215,37.9783,0.0],[23.7216,37.9783,0.0],[23.7216,37.9784,0.0],[23.7217,37.9784,0.0],[23.7217,37.9785,0.0],[23.7218,37.9785,0.0],[23.7219,37.9786,0.0],[23.722,37.9786,0.0],[23.7221,37.9786,0.0],[23.7221,37.9785,0.0],[23.7222,37.9785,0.0],[23.7223,37.9784,0.0],[23.7224,37.9784,0.0],[23.7224,37.9783,0.0],[23.7223,37.9783,0.0],[23.7223,37.9782,0.0],[23.7222,37.9782,0.0],[23.7221,37.9782,0.0],[23.7221,37.9781,0.0],[23.7222,37.978,0.0],[23.7223,37.9779,0.0],[23.7224,37.9778,0.0],[23.7225,37.9778,0.0],[23.7225,37.9777,0.0],[23.7226,37.9777,0.0],[23.7226,37.9776,0.0],[23.7225,37.9776,0.0],[23.7224,37.9775,0.0],[23.7223,37.9775,0.0],[23.7223,37.9774,0.0],[23.7222,37.9774,0.0],[23.7222,37.9773,0.0],[23.7222,37.9772,0.0],[23.7224,37.9772,0.0],[23.7224,37.9771,0.0],[23.7223,37.977,0.0],[23.7222,37.9769,0.0],[23.7221,37.9768,0.0],[23.722,37.9767,0.0],[23.7219,37.9766,0.0],[23.7218,37.9765,0.0],[23.7216,37.9767,0.0],[23.7215,37.9767,0.0],[23.7213,37.9765,0.0],[23.721,37.9764,0.0],[23.721,37.9763,0.0],[23.7211,37.9762,0.0],[23.7211,37.9761,0.0],[23.721,37.976,0.0],[23.7209,37.976,0.0],[23.7209,37.9759,0.0],[23.7204,37.9748,0.0],[23.7216,37.9739,0.0],[23.7234,37.9733,0.0],[23.7245,37.9733,0.0],[23.7252,37.9734,0.0],[23.7252,37.9732,0.0],[23.7252,37.9731,0.0],[23.7252,37.973,0.0],[23.7252,37.9729,0.0],[23.7252,37.9727,0.0],[23.7253,37.9728,0.0],[23.7254,37.9728,0.0],[23.7255,37.9728,0.0],[23.7256,37.9728,0.0],[23.7257,37.9728,0.0],[23.7258,37.9728,0.0],[23.7259,37.9728,0.0],[23.7261,37.9728,0.0],[23.7262,37.9728,0.0],[23.7263,37.9728,0.0],[23.7263,37.9729,0.0],[23.7264,37.9729,0.0],[23.7265,37.9729,0.0],[23.7266,37.973,0.0],[23.7267,37.973,0.0],[23.7268,37.973,0.0],[23.727,37.973,0.0],[23.7271,37.973,0.0],[23.7271,37.9729,0.0],[23.7272,37.9729,0.0],[23.7273,37.9729,0.0],[23.7274,37.9729,0.0],[23.7275,37.973,0.0],[23.7275,37.9731,0.0],[23.7277,37.973,0.0],[23.7278,37.973,0.0],[23.7279,37.973,0.0],[23.7279,37.9729,0.0],[23.728,37.9729,0.0],[23.7281,37.9729,0.0],[23.7282,37.9729,0.0],[23.7283,37.9728,0.0],[23.7283,37.9727,0.0],[23.7284,37.9727,0.0],[23.7284,37.9726,0.0],[23.7285,37.9726,0.0],[23.7285,37.9725,0.0],[23.7286,37.9725,0.0],[23.7286,37.9724,0.0],[23.7287,37.9724,0.0],[23.7287,37.9723,0.0],[23.7287,37.9722,0.0],[23.7288,37.9721,0.0],[23.7287,37.972,0.0],[23.7288,37.9719,0.0],[23.7289,37.9717,0.0],[23.7289,37.9716,0.0],[23.7289,37.9715,0.0],[23.7289,37.9714,0.0],[23.7289,37.9712,0.0],[23.7289,37.9711,0.0],[23.7289,37.971,0.0],[23.7289,37.9709,0.0],[23.729,37.9709,0.0],[23.729,37.9708,0.0],[23.729,37.9707,0.0],[23.7291,37.9704,0.0],[23.7291,37.9702,0.0],[23.7292,37.9699,0.0],[23.7293,37.9697,0.0],[23.7294,37.9695,0.0],[23.7294,37.9694,0.0],[23.7293,37.9694,0.0],[23.7292,37.9694,0.0],[23.7288,37.9694,0.0],[23.7285,37.9694,0.0],[23.7281,37.9694,0.0],[23.7278,37.9695,0.0],[23.7277,37.9695,0.0],[23.7269,37.9696,0.0],[23.7267,37.9696,0.0],[23.7257,37.9698,0.0],[23.7251,37.9699,0.0],[23.725,37.9699,0.0],[23.7245,37.9699,0.0],[23.7235,37.9701,0.0],[23.7226,37.9702,0.0],[23.7225,37.9702,0.0],[23.7224,37.9702,0.0],[23.7225,37.9701,0.0],[23.7225,37.97,0.0],[23.7226,37.97,0.0],[23.7227,37.9699,0.0],[23.7228,37.9699,0.0],[23.7229,37.9699,0.0],[23.723,37.9698,0.0],[23.7231,37.9698,0.0],[23.7232,37.9698,0.0],[23.7233,37.9697,0.0],[23.7234,37.9697,0.0],[23.7235,37.9696,0.0],[23.7236,37.9696,0.0],[23.7236,37.9695,0.0],[23.7236,37.9694,0.0],[23.7236,37.9693,0.0],[23.7236,37.9692,0.0],[23.7236,37.9691,0.0],[23.7237,37.969,0.0],[23.7237,37.9689,0.0],[23.7237,37.9688,0.0],[23.7237,37.9687,0.0],[23.7237,37.9686,0.0],[23.7237,37.9685,0.0],[23.7237,37.9684,0.0],[23.7237,37.9683,0.0],[23.7238,37.968,0.0],[23.7238,37.9678,0.0],[23.7238,37.9677,0.0],[23.7238,37.9676,0.0],[23.7238,37.9675,0.0],[23.7238,37.9674,0.0],[23.7236,37.9673,0.0],[23.7234,37.9671,0.0],[23.7233,37.967,0.0],[23.7231,37.9669,0.0],[23.7231,37.9668,0.0],[23.7229,37.9667,0.0],[23.7227,37.9665,0.0],[23.7225,37.9664,0.0],[23.7224,37.9663,0.0],[23.7223,37.9663,0.0],[23.7223,37.9662,0.0],[23.7221,37.9661,0.0],[23.722,37.966,0.0],[23.7217,37.9657,0.0],[23.7214,37.9655,0.0],[23.7211,37.9655,0.0],[23.7207,37.9654,0.0],[23.7203,37.9653,0.0],[23.7192,37.9652,0.0],[23.7191,37.9652,0.0],[23.7183,37.965,0.0],[23.7174,37.9649,0.0],[23.7173,37.9649,0.0],[23.7172,37.9649,0.0],[23.7172,37.965,0.0],[23.7171,37.965,0.0],[23.717,37.965,0.0],[23.7169,37.965,0.0],[23.7169,37.9651,0.0],[23.7167,37.9653,0.0],[23.7162,37.9657,0.0],[23.7158,37.966,0.0],[23.7156,37.9661,0.0],[23.7155,37.9663,0.0],[23.7154,37.9663,0.0],[23.7153,37.9664,0.0],[23.7153,37.9665,0.0],[23.7153,37.9667,0.0],[23.715,37.9667,0.0],[23.7149,37.9667,0.0],[23.7148,37.9667,0.0],[23.7146,37.9667,0.0],[23.7144,37.9667,0.0],[23.7143,37.9667,0.0],[23.7143,37.9666,0.0],[23.7142,37.9665,0.0],[23.7141,37.9664,0.0],[23.714,37.9663,0.0],[23.714,37.9662,0.0],[23.7139,37.9662,0.0],[23.7139,37.9661,0.0],[23.7138,37.966,0.0],[23.7137,37.9659,0.0],[23.7136,37.9658,0.0],[23.7136,37.9657,0.0],[23.7135,37.9656,0.0],[23.7134,37.9656,0.0],[23.7134,37.9655,0.0],[23.7133,37.9654,0.0],[23.7132,37.9654,0.0],[23.7132,37.9653,0.0],[23.7132,37.9652,0.0],[23.7131,37.9651,0.0],[23.713,37.9651,0.0],[23.7129,37.9649,0.0],[23.7131,37.9649,0.0],[23.7132,37.9649,0.0],[23.7134,37.9649,0.0],[23.7135,37.9648,0.0],[23.7136,37.9648,0.0],[23.7137,37.9648,0.0],[23.7138,37.9648,0.0],[23.714,37.9647,0.0],[23.7141,37.9647,0.0],[23.7143,37.9647,0.0],[23.7145,37.9646,0.0],[23.7146,37.9645,0.0],[23.7147,37.9642,0.0],[23.7148,37.964,0.0],[23.7147,37.9641,0.0],[23.7146,37.9641,0.0],[23.7145,37.9641,0.0],[23.7144,37.9641,0.0],[23.7142,37.964,0.0],[23.714,37.964,0.0],[23.7138,37.964,0.0],[23.713,37.9638,0.0],[23.7117,37.9636,0.0],[23.7104,37.9635,0.0],[23.7083,37.9635,0.0],[23.7082,37.9635,0.0],[23.7064,37.9645,0.0],[23.7063,37.9646,0.0],[23.7036,37.9662,0.0],[23.702,37.9672,0.0],[23.7008,37.968,0.0],[23.6994,37.9688,0.0],[23.7,37.9691,0.0],[23.7003,37.9692,0.0],[23.701,37.9695,0.0],[23.7019,37.9698,0.0],[23.7022,37.9699,0.0],[23.7023,37.97,0.0],[23.7025,37.9701,0.0],[23.7028,37.9703,0.0],[23.7037,37.9709,0.0],[23.7043,37.9712,0.0],[23.7051,37.9718,0.0],[23.7056,37.9721,0.0],[23.7055,37.9722,0.0],[23.7041,37.9737,0.0],[23.7048,37.9743,0.0],[23.7053,37.9748,0.0],[23.7058,37.9751,0.0],[23.7057,37.9751,0.0],[23.7056,37.9752,0.0],[23.7055,37.9752,0.0],[23.7054,37.9752,0.0],[23.7053,37.9752,0.0],[23.7052,37.9752,0.0],[23.7044,37.9753,0.0],[23.7041,37.9753,0.0],[23.7039,37.9753,0.0],[23.7036,37.9753,0.0],[23.7034,37.9753,0.0],[23.7032,37.9753,0.0],[23.703,37.9754,0.0],[23.7028,37.9754,0.0],[23.7027,37.9754,0.0],[23.7017,37.9754,0.0],[23.7006,37.9755,0.0],[23.6997,37.9756,0.0],[23.6986,37.9756,0.0],[23.6972,37.9757,0.0],[23.696,37.9757,0.0],[23.6947,37.9758,0.0],[23.6928,37.9758,0.0],[23.6913,37.9759,0.0],[23.6887,37.9761,0.0],[23.6871,37.9762,0.0],[23.6862,37.9762,0.0],[23.6852,37.9763,0.0],[23.6855,37.9767,0.0],[23.6864,37.9777,0.0],[23.6869,37.9783,0.0],[23.6871,37.9785,0.0],[23.6885,37.98,0.0],[23.6895,37.9811,0.0],[23.6899,37.9814,0.0],[23.6903,37.982,0.0],[23.6908,37.9826,0.0],[23.6912,37.9832,0.0],[23.6919,37.9838,0.0],[23.6924,37.9842,0.0],[23.6927,37.9846,0.0],[23.6931,37.9851,0.0],[23.6936,37.9858,0.0],[23.6939,37.9864,0.0],[23.6941,37.9868,0.0],[23.6942,37.987,0.0],[23.6942,37.9871,0.0],[23.6943,37.9873,0.0],[23.6943,37.9874,0.0],[23.6944,37.9874,0.0],[23.6944,37.9875,0.0],[23.6945,37.9876,0.0],[23.6945,37.9877,0.0],[23.6949,37.9886,0.0],[23.695,37.989,0.0],[23.6952,37.9893,0.0],[23.6959,37.9907,0.0],[23.6961,37.9911,0.0],[23.6965,37.9917,0.0],[23.6966,37.9918,0.0],[23.697,37.9923,0.0],[23.6972,37.9926,0.0],[23.6977,37.993,0.0],[23.6983,37.9936,0.0],[23.6985,37.9937,0.0]]]]}}]}