{"type":"FeatureCollection","name":"IDN_R5978331","crs":{"type":"name","properties":{"name":"urn:ogc:def:crs:OGC:1.3:CRS84"}},"features":[{"type":"Feature","properties":{"uesi_id":"IDN_R5978331","nbhd_name":"Baiturrahman","nbhd_code":"IDN_R5978331_1"},"geometry":{"type":"MultiPolygon","coordinates":[[[[95.31274,5.53986],[95.31276,5.53988],[95.3128,5.53993],[95.31276,5.53988],[95.31274,5.53986],[95.31274,5.53986],[95.31274,5.53985],[95.31236,5.53939],[95.31205,5.53902],[95.3117,5.53871],[95.31112,5.53821],[95.31086,5.53801],[95.31028,5.53745],[95.31017,5.53734],[95.30982,5.53701],[95.30895,5.53611],[95.30869,5.53638],[95.30874,5.53649],[95.30849,5.5367],[95.30803,5.53685],[95.30809,5.53704],[95.30813,5.53718],[95.30848,5.53834],[95.30851,5.53866],[95.30853,5.53881],[95.30855,5.53891],[95.30847,5.53905],[95.30845,5.5393],[95.3085,5.53979],[95.30854,5.5402],[95.30857,5.54052],[95.30863,5.541],[95.30868,5.54147],[95.30869,5.54157],[95.30871,5.54178],[95.30876,5.54219],[95.30882,5.54276],[95.30882,5.54298],[95.30859,5.54357],[95.30847,5.54392],[95.30846,5.54422],[95.3086,5.54462],[95.30889,5.54491],[95.30917,5.54522],[95.30942,5.54571],[95.30985,5.54645],[95.31022,5.54702],[95.31045,5.54755],[95.31068,5.54794],[95.31083,5.54831],[95.31094,5.54881],[95.31101,5.54916],[95.31101,5.54917],[95.31103,5.54916],[95.31205,5.54894],[95.31245,5.5489],[95.31202,5.54895],[95.31206,5.5491],[95.31264,5.55098],[95.31307,5.5524],[95.31308,5.55241],[95.31348,5.55237],[95.3138,5.55229],[95.31393,5.55258],[95.31418,5.55351],[95.31418,5.55356],[95.31425,5.55376],[95.31431,5.55394],[95.31433,5.55401],[95.31453,5.55451],[95.31471,5.55505],[95.31475,5.55517],[95.31482,5.55536],[95.31487,5.55551],[95.31507,5.55607],[95.31508,5.55611],[95.31512,5.55615],[95.31534,5.55694],[95.31547,5.55742],[95.31561,5.55797],[95.31565,5.55812],[95.31572,5.55844],[95.3159,5.55923],[95.31593,5.55937],[95.3161,5.56018],[95.31613,5.56027],[95.31613,5.56029],[95.31628,5.56025],[95.31727,5.56039],[95.31743,5.56043],[95.31749,5.56051],[95.3176,5.56053],[95.31821,5.56054],[95.3182,5.55906],[95.31817,5.55894],[95.31805,5.55841],[95.31803,5.55824],[95.31799,5.55801],[95.31793,5.55768],[95.3179,5.55752],[95.31793,5.55678],[95.31823,5.55611],[95.319,5.55542],[95.31961,5.55495],[95.32062,5.55419],[95.32085,5.55402],[95.32094,5.55395],[95.3219,5.5534],[95.32284,5.55293],[95.323,5.55285],[95.32372,5.55251],[95.32448,5.55241],[95.32459,5.55239],[95.32459,5.55239],[95.3246,5.55239],[95.32629,5.55242],[95.32645,5.55246],[95.3278,5.55278],[95.3278,5.55278],[95.32789,5.55282],[95.32942,5.55346],[95.32993,5.55361],[95.33059,5.5536],[95.33053,5.55271],[95.33045,5.55165],[95.33027,5.55107],[95.33027,5.55106],[95.33027,5.55106],[95.33024,5.55098],[95.33023,5.55098],[95.32822,5.55094],[95.32822,5.55094],[95.32822,5.55093],[95.32814,5.55093],[95.3282,5.55058],[95.32845,5.55007],[95.32844,5.55006],[95.32872,5.54961],[95.32899,5.54915],[95.32912,5.54886],[95.32911,5.54839],[95.32911,5.54838],[95.32911,5.54837],[95.32911,5.54837],[95.3291,5.54809],[95.32904,5.54609],[95.32904,5.54609],[95.32904,5.54609],[95.32904,5.54602],[95.32904,5.54602],[95.32904,5.54602],[95.32903,5.54602],[95.32898,5.54603],[95.32872,5.54607],[95.32849,5.5461],[95.32814,5.54611],[95.3281,5.54581],[95.32646,5.5459],[95.32645,5.54537],[95.32635,5.54476],[95.32636,5.54476],[95.32636,5.54451],[95.32663,5.54452],[95.32673,5.54457],[95.32689,5.54457],[95.32722,5.54457],[95.32736,5.54459],[95.32739,5.54463],[95.32751,5.54462],[95.32763,5.54447],[95.3273,5.54414],[95.32715,5.54397],[95.32709,5.54383],[95.32705,5.54253],[95.32705,5.54245],[95.32705,5.54245],[95.32705,5.54245],[95.32705,5.54235],[95.32703,5.54194],[95.32693,5.54178],[95.32657,5.54119],[95.32657,5.54119],[95.32654,5.54119],[95.32655,5.54118],[95.32636,5.54082],[95.32638,5.54057],[95.32643,5.54038],[95.32652,5.54011],[95.32673,5.53997],[95.32684,5.53986],[95.32687,5.53947],[95.3268,5.53903],[95.32646,5.53876],[95.32593,5.53839],[95.32566,5.53817],[95.32554,5.53798],[95.32538,5.53651],[95.32531,5.53548],[95.32532,5.53475],[95.32534,5.53431],[95.32574,5.53322],[95.3259,5.53252],[95.32547,5.5324],[95.32544,5.53251],[95.3249,5.53242],[95.32487,5.5328],[95.32438,5.53266],[95.3241,5.53257],[95.32408,5.53264],[95.32385,5.53257],[95.32375,5.53254],[95.3231,5.53243],[95.32288,5.53247],[95.32214,5.53244],[95.3219,5.53242],[95.32188,5.53221],[95.3216,5.5322],[95.3215,5.53219],[95.32142,5.53222],[95.32128,5.53226],[95.32128,5.53224],[95.32057,5.53205],[95.32028,5.53197],[95.31959,5.53189],[95.31961,5.53173],[95.31943,5.53171],[95.31931,5.53156],[95.31888,5.53146],[95.31834,5.53137],[95.31823,5.53179],[95.31808,5.53241],[95.31815,5.53255],[95.31903,5.53257],[95.31901,5.53284],[95.31928,5.53286],[95.31922,5.5331],[95.31918,5.53325],[95.31905,5.53378],[95.3189,5.534],[95.31899,5.53409],[95.31882,5.53441],[95.31865,5.53481],[95.319,5.53488],[95.31909,5.53517],[95.31909,5.5352],[95.31873,5.53518],[95.31864,5.53548],[95.31839,5.53542],[95.31846,5.5352],[95.31799,5.53519],[95.31783,5.53521],[95.31764,5.53521],[95.31682,5.53517],[95.3168,5.53524],[95.31666,5.53586],[95.31644,5.53583],[95.3164,5.53586],[95.3164,5.53587],[95.31631,5.53638],[95.31574,5.5361],[95.31557,5.53602],[95.31516,5.53702],[95.31511,5.53708],[95.31505,5.53718],[95.31497,5.53725],[95.31443,5.5379],[95.31434,5.53801],[95.31403,5.53836],[95.31387,5.53856],[95.313,5.53951],[95.31274,5.53985],[95.31274,5.53986]]]]}},{"type":"Feature","properties":{"uesi_id":"IDN_R5978331","nbhd_name":"Banda Raya","nbhd_code":"IDN_R5978331_2"},"geometry":{"type":"MultiPolygon","coordinates":[[[[95.32597,5.53255],[95.32597,5.53256],[95.32598,5.53255],[95.32597,5.53255]]],[[[95.32597,5.53255],[95.32601,5.53231],[95.32641,5.53239],[95.32718,5.53238],[95.32776,5.53238],[95.32831,5.5324],[95.32849,5.53215],[95.32869,5.53181],[95.32855,5.53176],[95.3286,5.53142],[95.32893,5.53151],[95.32901,5.53131],[95.32909,5.5311],[95.3291,5.53089],[95.32949,5.53082],[95.32973,5.53083],[95.32973,5.53057],[95.32999,5.53055],[95.33021,5.53054],[95.33024,5.53053],[95.33023,5.53014],[95.33023,5.53006],[95.33022,5.52896],[95.33022,5.52896],[95.32981,5.52858],[95.3294,5.52841],[95.32948,5.52811],[95.32908,5.52801],[95.32908,5.52761],[95.32883,5.52755],[95.32886,5.52737],[95.32889,5.52725],[95.32822,5.52708],[95.32822,5.52714],[95.32781,5.52709],[95.32781,5.52716],[95.32721,5.52714],[95.32697,5.52714],[95.32657,5.52704],[95.32657,5.52702],[95.32659,5.52679],[95.32661,5.5266],[95.32662,5.52649],[95.32665,5.52636],[95.32666,5.52618],[95.32668,5.52601],[95.32675,5.52543],[95.32594,5.52388],[95.32595,5.52387],[95.32566,5.52334],[95.32565,5.52331],[95.32564,5.52331],[95.32559,5.52306],[95.32539,5.52233],[95.32529,5.52214],[95.32514,5.52185],[95.32489,5.52152],[95.32489,5.52152],[95.32447,5.52143],[95.32412,5.52126],[95.32403,5.5211],[95.32389,5.52083],[95.32366,5.52026],[95.32361,5.52009],[95.32354,5.51987],[95.32344,5.51955],[95.32344,5.51955],[95.32316,5.51944],[95.32281,5.51934],[95.32279,5.51937],[95.32283,5.51926],[95.32168,5.51884],[95.32126,5.51869],[95.31746,5.51727],[95.31654,5.51752],[95.31481,5.51799],[95.31482,5.51799],[95.31474,5.51716],[95.31468,5.51656],[95.31464,5.51616],[95.31458,5.51542],[95.31457,5.51542],[95.31457,5.51541],[95.31296,5.51555],[95.31206,5.51564],[95.30971,5.51585],[95.30974,5.51617],[95.30978,5.51649],[95.30983,5.51725],[95.30915,5.51714],[95.30904,5.518],[95.30895,5.5184],[95.30895,5.51863],[95.30898,5.51932],[95.30898,5.51932],[95.30407,5.52041],[95.30374,5.52049],[95.30373,5.52053],[95.30374,5.52053],[95.30376,5.52053],[95.3042,5.52109],[95.30421,5.52149],[95.30455,5.52174],[95.30482,5.52196],[95.30519,5.52227],[95.30581,5.52296],[95.30581,5.52316],[95.30596,5.5236],[95.30621,5.52412],[95.30617,5.52406],[95.30568,5.52427],[95.30554,5.52419],[95.30513,5.52427],[95.30468,5.52435],[95.30411,5.52442],[95.30403,5.52468],[95.30397,5.5248],[95.3039,5.52478],[95.3038,5.52475],[95.3036,5.52471],[95.30357,5.52468],[95.30338,5.52465],[95.30321,5.52462],[95.3032,5.52437],[95.30268,5.52444],[95.30268,5.52452],[95.3027,5.52473],[95.30272,5.5249],[95.30186,5.52495],[95.3015,5.52496],[95.30149,5.5252],[95.30123,5.52524],[95.30119,5.52524],[95.30117,5.52526],[95.30125,5.52596],[95.30103,5.52602],[95.30099,5.5262],[95.30091,5.52638],[95.30079,5.52655],[95.30065,5.52718],[95.30062,5.52718],[95.30034,5.52721],[95.30027,5.52722],[95.30022,5.52723],[95.30021,5.52723],[95.30018,5.52723],[95.30017,5.52723],[95.30003,5.52725],[95.30003,5.52725],[95.30002,5.52732],[95.29997,5.52744],[95.29993,5.52749],[95.29981,5.52774],[95.29972,5.52813],[95.29971,5.52819],[95.29968,5.52832],[95.29968,5.52833],[95.30004,5.52836],[95.3012,5.52885],[95.30121,5.52886],[95.30134,5.52932],[95.30154,5.52986],[95.30168,5.52988],[95.30184,5.52998],[95.30193,5.53013],[95.30189,5.53023],[95.30184,5.53041],[95.3018,5.53051],[95.3018,5.53051],[95.30183,5.53051],[95.30186,5.53051],[95.30189,5.53051],[95.30194,5.53052],[95.30203,5.53054],[95.30217,5.53057],[95.30251,5.53067],[95.30277,5.53074],[95.30299,5.53079],[95.30323,5.53078],[95.30364,5.53069],[95.30418,5.53434],[95.30447,5.53465],[95.30516,5.53537],[95.30855,5.53891],[95.30853,5.53881],[95.30851,5.53866],[95.30848,5.53834],[95.30813,5.53718],[95.30809,5.53704],[95.30803,5.53685],[95.30849,5.5367],[95.30874,5.53649],[95.30869,5.53638],[95.30895,5.53611],[95.30982,5.53701],[95.31017,5.53734],[95.31028,5.53745],[95.31086,5.53801],[95.31112,5.53821],[95.3117,5.53871],[95.31205,5.53902],[95.31236,5.53939],[95.31274,5.53985],[95.31274,5.53986],[95.31274,5.53985],[95.313,5.53951],[95.31387,5.53856],[95.31403,5.53836],[95.31434,5.53801],[95.31443,5.5379],[95.31497,5.53725],[95.31505,5.53718],[95.31511,5.53708],[95.31516,5.53702],[95.31557,5.53602],[95.31574,5.5361],[95.31631,5.53638],[95.3164,5.53587],[95.3164,5.53586],[95.31644,5.53583],[95.31666,5.53586],[95.3168,5.53524],[95.31682,5.53517],[95.31764,5.53521],[95.31783,5.53521],[95.31799,5.53519],[95.31846,5.5352],[95.31839,5.53542],[95.31864,5.53548],[95.31873,5.53518],[95.31909,5.5352],[95.31909,5.53517],[95.319,5.53488],[95.31865,5.53481],[95.31882,5.53441],[95.31899,5.53409],[95.3189,5.534],[95.31905,5.53378],[95.31918,5.53325],[95.31922,5.5331],[95.31928,5.53286],[95.31901,5.53284],[95.31903,5.53257],[95.31815,5.53255],[95.31808,5.53241],[95.31823,5.53179],[95.31834,5.53137],[95.31888,5.53146],[95.31931,5.53156],[95.31943,5.53171],[95.31961,5.53173],[95.31959,5.53189],[95.32028,5.53197],[95.32057,5.53205],[95.32128,5.53224],[95.32128,5.53226],[95.32142,5.53222],[95.3215,5.53219],[95.3216,5.5322],[95.32188,5.53221],[95.3219,5.53242],[95.32214,5.53244],[95.32288,5.53247],[95.3231,5.53243],[95.32375,5.53254],[95.32385,5.53257],[95.32408,5.53264],[95.3241,5.53257],[95.32438,5.53266],[95.32487,5.5328],[95.3249,5.53242],[95.32544,5.53251],[95.32547,5.5324],[95.3259,5.53252],[95.32597,5.53255]]],[[[95.31274,5.53986],[95.31274,5.53986],[95.31276,5.53988],[95.3128,5.53993],[95.31276,5.53988],[95.31274,5.53986]]]]}},{"type":"Feature","properties":{"uesi_id":"IDN_R5978331","nbhd_name":"Jaya Baru","nbhd_code":"IDN_R5978331_3"},"geometry":{"type":"MultiPolygon","coordinates":[[[[95.31068,5.54794],[95.31045,5.54755],[95.31022,5.54702],[95.30985,5.54645],[95.30942,5.54571],[95.30917,5.54522],[95.30889,5.54491],[95.3086,5.54462],[95.30846,5.54422],[95.30847,5.54392],[95.30859,5.54357],[95.30882,5.54298],[95.30882,5.54276],[95.30876,5.54219],[95.30871,5.54178],[95.30869,5.54157],[95.30868,5.54147],[95.30863,5.541],[95.30857,5.54052],[95.30854,5.5402],[95.3085,5.53979],[95.30845,5.5393],[95.30847,5.53905],[95.30855,5.53891],[95.30516,5.53537],[95.30447,5.53465],[95.30418,5.53434],[95.30364,5.53069],[95.30323,5.53078],[95.30299,5.53079],[95.30277,5.53074],[95.30251,5.53067],[95.30217,5.53057],[95.30203,5.53054],[95.30194,5.53052],[95.30189,5.53051],[95.30186,5.53051],[95.30183,5.53051],[95.3018,5.53051],[95.3018,5.53051],[95.30184,5.53041],[95.30189,5.53023],[95.30193,5.53013],[95.30184,5.52998],[95.30168,5.52988],[95.30154,5.52986],[95.30134,5.52932],[95.30121,5.52886],[95.3012,5.52885],[95.30004,5.52836],[95.29968,5.52833],[95.29968,5.52832],[95.29971,5.52819],[95.29972,5.52813],[95.29981,5.52774],[95.29993,5.52749],[95.29997,5.52744],[95.30002,5.52732],[95.30003,5.52725],[95.30003,5.52725],[95.30017,5.52723],[95.30018,5.52723],[95.30021,5.52723],[95.30022,5.52723],[95.30027,5.52722],[95.30034,5.52721],[95.30062,5.52718],[95.30065,5.52718],[95.30079,5.52655],[95.30091,5.52638],[95.30099,5.5262],[95.30103,5.52602],[95.30125,5.52596],[95.30117,5.52526],[95.30119,5.52524],[95.30123,5.52524],[95.30149,5.5252],[95.3015,5.52496],[95.30186,5.52495],[95.30272,5.5249],[95.3027,5.52473],[95.30268,5.52452],[95.30268,5.52444],[95.3032,5.52437],[95.30321,5.52462],[95.30338,5.52465],[95.30357,5.52468],[95.3036,5.52471],[95.3038,5.52475],[95.3039,5.52478],[95.30397,5.5248],[95.30403,5.52468],[95.30411,5.52442],[95.30468,5.52435],[95.30513,5.52427],[95.30554,5.52419],[95.30568,5.52427],[95.30617,5.52406],[95.30621,5.52412],[95.30596,5.5236],[95.30581,5.52316],[95.30581,5.52296],[95.30519,5.52227],[95.30482,5.52196],[95.30455,5.52174],[95.30421,5.52149],[95.3042,5.52109],[95.30376,5.52053],[95.30374,5.52053],[95.30373,5.52053],[95.30373,5.52053],[95.3029,5.52075],[95.30256,5.52086],[95.30241,5.52091],[95.30237,5.52092],[95.30203,5.52103],[95.3018,5.52111],[95.30132,5.52131],[95.30092,5.52148],[95.30085,5.52154],[95.30082,5.52157],[95.30079,5.5216],[95.30062,5.52184],[95.30045,5.52208],[95.30032,5.52226],[95.30014,5.5225],[95.30014,5.5225],[95.29999,5.52269],[95.29953,5.52326],[95.29943,5.5234],[95.29871,5.52433],[95.29838,5.52475],[95.29838,5.52475],[95.29814,5.52506],[95.29805,5.52517],[95.29769,5.52564],[95.29768,5.52565],[95.29703,5.52649],[95.2964,5.52731],[95.29637,5.52735],[95.29624,5.52753],[95.29622,5.52754],[95.2961,5.5277],[95.2961,5.5277],[95.2961,5.5277],[95.2961,5.52771],[95.29609,5.52771],[95.29606,5.5277],[95.29537,5.52742],[95.29516,5.52737],[95.29492,5.52732],[95.29486,5.52719],[95.29486,5.52719],[95.29463,5.52714],[95.29429,5.52707],[95.29422,5.52705],[95.29397,5.52694],[95.29385,5.52689],[95.29367,5.52681],[95.29367,5.52681],[95.29367,5.52681],[95.29363,5.52684],[95.2936,5.52687],[95.29292,5.52663],[95.29292,5.52663],[95.29284,5.52704],[95.29265,5.52802],[95.2925,5.52798],[95.29239,5.52796],[95.29239,5.52796],[95.29233,5.52812],[95.2922,5.52851],[95.29212,5.52865],[95.29208,5.5287],[95.29208,5.5287],[95.29169,5.52935],[95.29161,5.52967],[95.29116,5.53042],[95.29089,5.5304],[95.29074,5.53036],[95.29074,5.53036],[95.29043,5.53028],[95.29043,5.53028],[95.29043,5.53028],[95.29039,5.53057],[95.29038,5.53069],[95.29036,5.5308],[95.29034,5.531],[95.29033,5.53108],[95.29033,5.53108],[95.28985,5.53095],[95.28982,5.53094],[95.28937,5.53082],[95.28909,5.53075],[95.28909,5.53075],[95.28903,5.53112],[95.28899,5.53142],[95.28874,5.5314],[95.28829,5.53138],[95.28839,5.53116],[95.28496,5.53066],[95.28369,5.53215],[95.28345,5.53243],[95.28345,5.53243],[95.28345,5.53243],[95.28343,5.53328],[95.28343,5.53355],[95.28343,5.53379],[95.28342,5.53394],[95.2834,5.53413],[95.28341,5.53413],[95.28341,5.53413],[95.28342,5.53413],[95.28342,5.53413],[95.28341,5.53421],[95.28339,5.5345],[95.28319,5.5346],[95.28272,5.53484],[95.2823,5.53507],[95.28221,5.53512],[95.28224,5.53518],[95.28247,5.53561],[95.28247,5.53561],[95.28235,5.53568],[95.28222,5.53576],[95.28219,5.53578],[95.28214,5.53581],[95.28185,5.5358],[95.28151,5.53583],[95.2815,5.53583],[95.28139,5.53584],[95.28139,5.53584],[95.28104,5.53584],[95.28102,5.53586],[95.28099,5.53588],[95.28096,5.5359],[95.28067,5.53593],[95.28067,5.53593],[95.28057,5.53595],[95.28041,5.53598],[95.28024,5.53602],[95.28015,5.53676],[95.28016,5.53691],[95.28022,5.53757],[95.28022,5.53757],[95.2809,5.53852],[95.2809,5.53852],[95.28104,5.53851],[95.2811,5.53837],[95.28155,5.53829],[95.28157,5.53839],[95.2816,5.53849],[95.28161,5.5386],[95.28161,5.53861],[95.2815,5.53956],[95.28159,5.53963],[95.28199,5.53997],[95.282,5.53999],[95.28233,5.54064],[95.28241,5.54078],[95.28242,5.5408],[95.28246,5.54088],[95.28268,5.54144],[95.28271,5.54152],[95.28271,5.54152],[95.28301,5.54157],[95.28337,5.54175],[95.28343,5.542],[95.28349,5.54223],[95.2837,5.54239],[95.28374,5.54242],[95.28374,5.54242],[95.28398,5.54261],[95.28398,5.54261],[95.28401,5.54261],[95.28444,5.54257],[95.28547,5.54225],[95.2855,5.54223],[95.28568,5.54209],[95.28788,5.54115],[95.28851,5.54124],[95.28854,5.54124],[95.28887,5.54154],[95.28928,5.54151],[95.28976,5.54157],[95.2897,5.54147],[95.28913,5.54008],[95.28913,5.54008],[95.28913,5.54007],[95.28928,5.53969],[95.28952,5.53913],[95.2896,5.53889],[95.28962,5.53888],[95.29027,5.53835],[95.29086,5.53813],[95.2914,5.53828],[95.29429,5.53923],[95.29439,5.53968],[95.29441,5.5399],[95.29424,5.54019],[95.29398,5.54029],[95.29364,5.54045],[95.29366,5.54083],[95.29391,5.54112],[95.29436,5.54117],[95.29463,5.54104],[95.29494,5.54069],[95.29514,5.54044],[95.29532,5.54037],[95.2955,5.54037],[95.29554,5.54037],[95.29572,5.54052],[95.29593,5.54062],[95.29608,5.54068],[95.29626,5.54082],[95.2964,5.54086],[95.29668,5.54092],[95.29681,5.54091],[95.29706,5.54103],[95.29731,5.54109],[95.29742,5.54108],[95.29743,5.541],[95.29748,5.54032],[95.2975,5.54015],[95.29754,5.53995],[95.29764,5.53988],[95.29773,5.53985],[95.29815,5.53975],[95.29911,5.53977],[95.29921,5.53984],[95.2996,5.53983],[95.29963,5.53979],[95.29982,5.53978],[95.29985,5.53978],[95.3001,5.53982],[95.30039,5.53996],[95.3007,5.54011],[95.30102,5.54019],[95.30179,5.5403],[95.30179,5.5403],[95.3018,5.5403],[95.3018,5.5403],[95.30176,5.54073],[95.30185,5.54102],[95.30184,5.54122],[95.30202,5.54223],[95.30207,5.54247],[95.30217,5.54262],[95.30232,5.54272],[95.30238,5.54306],[95.30238,5.54318],[95.30239,5.54332],[95.30241,5.54347],[95.30241,5.5436],[95.30235,5.54384],[95.30231,5.54412],[95.30212,5.54428],[95.3021,5.54428],[95.30213,5.5443],[95.30214,5.5443],[95.30212,5.5444],[95.30205,5.54481],[95.30184,5.54539],[95.3018,5.5457],[95.30175,5.54585],[95.30174,5.54626],[95.30239,5.54648],[95.30299,5.54659],[95.30289,5.54695],[95.30278,5.54702],[95.30286,5.5476],[95.30264,5.54763],[95.30267,5.54795],[95.3033,5.54793],[95.30332,5.54804],[95.30334,5.54857],[95.30305,5.54862],[95.30323,5.54914],[95.30326,5.54914],[95.3033,5.54915],[95.30332,5.54915],[95.30368,5.54922],[95.3038,5.54924],[95.3039,5.54925],[95.30408,5.54928],[95.30421,5.54936],[95.30428,5.54944],[95.30415,5.55012],[95.30414,5.5502],[95.30414,5.55031],[95.30418,5.55058],[95.30432,5.55102],[95.30437,5.55118],[95.30439,5.55125],[95.30439,5.55129],[95.30704,5.55047],[95.30897,5.54978],[95.31101,5.54917],[95.31101,5.54916],[95.31094,5.54881],[95.31083,5.54831],[95.31068,5.54794]]]]}},{"type":"Feature","properties":{"uesi_id":"IDN_R5978331","nbhd_name":"Kuta Alam","nbhd_code":"IDN_R5978331_4"},"geometry":{"type":"MultiPolygon","coordinates":[[[[95.33905,5.5897],[95.33873,5.58915],[95.33896,5.5879],[95.33906,5.58717],[95.33907,5.58681],[95.3391,5.58613],[95.33904,5.58537],[95.33901,5.58408],[95.33891,5.58327],[95.33848,5.58209],[95.33839,5.58129],[95.33849,5.58068],[95.33872,5.58012],[95.33914,5.57953],[95.33943,5.57883],[95.33941,5.57877],[95.33912,5.57804],[95.33849,5.57732],[95.33799,5.57642],[95.33785,5.57588],[95.33782,5.5752],[95.33779,5.57459],[95.33792,5.57378],[95.33792,5.57335],[95.33792,5.57323],[95.33808,5.57314],[95.33821,5.57302],[95.33824,5.57293],[95.33852,5.57286],[95.33897,5.57135],[95.33896,5.57135],[95.33893,5.5695],[95.33893,5.5695],[95.33893,5.5695],[95.339,5.56931],[95.33967,5.56799],[95.33968,5.568],[95.33968,5.56801],[95.3414,5.56967],[95.34305,5.57127],[95.34314,5.57136],[95.34351,5.57173],[95.34427,5.5725],[95.3451,5.57332],[95.34518,5.5731],[95.34525,5.57274],[95.3454,5.57226],[95.34545,5.57213],[95.34542,5.57183],[95.34538,5.57161],[95.34544,5.57128],[95.34552,5.57113],[95.34551,5.57113],[95.34567,5.57057],[95.3457,5.57031],[95.34572,5.56996],[95.34571,5.56985],[95.34581,5.56929],[95.34582,5.56929],[95.34584,5.56922],[95.34551,5.56913],[95.34535,5.56914],[95.34472,5.569],[95.34477,5.56868],[95.3448,5.56867],[95.34482,5.56851],[95.34483,5.56848],[95.34484,5.56845],[95.34484,5.56844],[95.3448,5.56843],[95.34479,5.56811],[95.34481,5.56769],[95.34482,5.56746],[95.34484,5.56733],[95.34491,5.56698],[95.34501,5.56657],[95.34502,5.56656],[95.34503,5.56651],[95.3449,5.56649],[95.34499,5.56557],[95.34488,5.56555],[95.34487,5.56556],[95.34483,5.56555],[95.34487,5.56512],[95.3449,5.56473],[95.34488,5.56452],[95.34484,5.56414],[95.34487,5.56392],[95.34523,5.56386],[95.34524,5.56385],[95.3454,5.56385],[95.34545,5.5631],[95.34545,5.5631],[95.3455,5.56287],[95.34555,5.56255],[95.34549,5.56254],[95.34547,5.56251],[95.34548,5.56242],[95.34366,5.56226],[95.34365,5.56227],[95.3436,5.56226],[95.34364,5.56187],[95.34279,5.56175],[95.34252,5.56173],[95.3426,5.56122],[95.34237,5.56109],[95.34208,5.56094],[95.34207,5.56093],[95.34212,5.56011],[95.34132,5.56014],[95.34076,5.56004],[95.34038,5.56],[95.33998,5.56],[95.3398,5.56],[95.33971,5.56],[95.33964,5.56083],[95.33952,5.56101],[95.33941,5.56094],[95.33917,5.56074],[95.33905,5.56087],[95.33902,5.56057],[95.33872,5.56056],[95.33868,5.56101],[95.33838,5.56099],[95.33837,5.56143],[95.33848,5.56145],[95.33824,5.56169],[95.33824,5.5617],[95.33824,5.5617],[95.33799,5.56164],[95.33722,5.56103],[95.33698,5.56083],[95.33601,5.56081],[95.33601,5.56035],[95.33605,5.5595],[95.33604,5.5595],[95.33605,5.55949],[95.33605,5.5587],[95.33605,5.5587],[95.33605,5.55869],[95.33607,5.5586],[95.33609,5.55846],[95.33609,5.55838],[95.3361,5.55819],[95.33597,5.55811],[95.33597,5.55798],[95.33594,5.55795],[95.33594,5.55782],[95.33594,5.55768],[95.33596,5.55653],[95.33596,5.55607],[95.33595,5.55579],[95.33598,5.55433],[95.33599,5.55411],[95.336,5.5536],[95.33597,5.55344],[95.33588,5.55336],[95.33584,5.55264],[95.33579,5.55255],[95.33586,5.55186],[95.33548,5.55088],[95.3347,5.55134],[95.33453,5.55149],[95.33397,5.55198],[95.33367,5.55223],[95.33344,5.55242],[95.33334,5.55249],[95.33284,5.5528],[95.33212,5.55314],[95.33137,5.55344],[95.33079,5.55357],[95.33077,5.55358],[95.33069,5.5536],[95.3306,5.5536],[95.33059,5.5536],[95.32993,5.55361],[95.32942,5.55346],[95.32789,5.55282],[95.3278,5.55278],[95.3278,5.55278],[95.32645,5.55246],[95.32629,5.55242],[95.3246,5.55239],[95.32459,5.55239],[95.32459,5.55239],[95.32448,5.55241],[95.32372,5.55251],[95.323,5.55285],[95.32284,5.55293],[95.3219,5.5534],[95.32094,5.55395],[95.32085,5.55402],[95.32062,5.55419],[95.31961,5.55495],[95.319,5.55542],[95.31823,5.55611],[95.31793,5.55678],[95.3179,5.55752],[95.31793,5.55768],[95.31799,5.55801],[95.31803,5.55824],[95.31805,5.55841],[95.31817,5.55894],[95.3182,5.55906],[95.31821,5.56054],[95.31821,5.56064],[95.31821,5.56064],[95.31821,5.56065],[95.31823,5.56117],[95.31824,5.5614],[95.31823,5.56152],[95.31822,5.56163],[95.31815,5.56248],[95.31815,5.56252],[95.31812,5.56311],[95.31812,5.56315],[95.31812,5.56319],[95.31811,5.56322],[95.31811,5.56375],[95.3181,5.56419],[95.31809,5.56497],[95.31809,5.56499],[95.31808,5.5659],[95.31807,5.56607],[95.31807,5.56608],[95.31805,5.56608],[95.31809,5.56721],[95.3181,5.56724],[95.31853,5.56834],[95.3193,5.56915],[95.31968,5.56954],[95.31978,5.56965],[95.31994,5.56979],[95.32024,5.57],[95.32192,5.57087],[95.32229,5.57121],[95.32252,5.57143],[95.32288,5.57176],[95.32293,5.57193],[95.32312,5.57259],[95.32321,5.57289],[95.3232,5.57307],[95.32309,5.57458],[95.32286,5.57526],[95.32272,5.57568],[95.32222,5.57659],[95.32177,5.57718],[95.32151,5.57751],[95.31938,5.57871],[95.31756,5.57974],[95.31751,5.57977],[95.31627,5.58072],[95.31627,5.58072],[95.31563,5.58196],[95.31541,5.5831],[95.3154,5.58312],[95.31549,5.58318],[95.31551,5.58319],[95.3156,5.58323],[95.31568,5.58326],[95.31599,5.58333],[95.31609,5.58338],[95.31691,5.58389],[95.31698,5.58392],[95.31704,5.58392],[95.31731,5.58373],[95.31733,5.58373],[95.31763,5.58385],[95.31772,5.58391],[95.31808,5.5845],[95.31809,5.58456],[95.31773,5.58497],[95.31769,5.58502],[95.3177,5.58505],[95.318,5.58536],[95.31796,5.5854],[95.31866,5.586],[95.3187,5.58597],[95.31899,5.58622],[95.31906,5.58627],[95.31908,5.58627],[95.31945,5.58574],[95.31949,5.58571],[95.31956,5.58573],[95.31966,5.58578],[95.32015,5.58607],[95.32059,5.58631],[95.32082,5.58642],[95.32106,5.58651],[95.32124,5.58659],[95.32136,5.58665],[95.32145,5.58673],[95.32182,5.58715],[95.32182,5.58715],[95.32258,5.58736],[95.32323,5.58753],[95.32376,5.58766],[95.32441,5.58752],[95.32493,5.58747],[95.32584,5.58722],[95.32662,5.58719],[95.32672,5.58718],[95.32725,5.58735],[95.32776,5.58746],[95.32822,5.58738],[95.32877,5.58708],[95.32939,5.58722],[95.32942,5.58722],[95.33003,5.58711],[95.33051,5.58755],[95.33067,5.58767],[95.33093,5.58765],[95.33128,5.58763],[95.33132,5.58763],[95.33163,5.58778],[95.33195,5.58803],[95.33234,5.58816],[95.33277,5.58824],[95.33314,5.58841],[95.33326,5.58844],[95.3334,5.58847],[95.334,5.58856],[95.3342,5.58865],[95.33432,5.58871],[95.33465,5.58874],[95.33478,5.58902],[95.33493,5.58943],[95.33532,5.58952],[95.33575,5.5894],[95.33582,5.58938],[95.33633,5.58962],[95.33683,5.58984],[95.33698,5.59],[95.33727,5.59012],[95.33748,5.59027],[95.33864,5.59032],[95.33897,5.59034],[95.33908,5.59034],[95.33905,5.5897]]]]}},{"type":"Feature","properties":{"uesi_id":"IDN_R5978331","nbhd_name":"Kuta Raja","nbhd_code":"IDN_R5978331_5"},"geometry":{"type":"MultiPolygon","coordinates":[[[[95.31382,5.58351],[95.3145,5.58248],[95.31451,5.58248],[95.31501,5.58284],[95.3154,5.58312],[95.31541,5.5831],[95.31563,5.58196],[95.31627,5.58072],[95.31627,5.58072],[95.31751,5.57977],[95.31756,5.57974],[95.31938,5.57871],[95.32151,5.57751],[95.32177,5.57718],[95.32222,5.57659],[95.32272,5.57568],[95.32286,5.57526],[95.32309,5.57458],[95.3232,5.57307],[95.32321,5.57289],[95.32312,5.57259],[95.32293,5.57193],[95.32288,5.57176],[95.32252,5.57143],[95.32229,5.57121],[95.32192,5.57087],[95.32024,5.57],[95.31994,5.56979],[95.31978,5.56965],[95.31968,5.56954],[95.3193,5.56915],[95.31853,5.56834],[95.3181,5.56724],[95.31809,5.56721],[95.31805,5.56608],[95.31807,5.56608],[95.31807,5.56607],[95.31808,5.5659],[95.31809,5.56499],[95.31809,5.56497],[95.3181,5.56419],[95.31811,5.56375],[95.31811,5.56322],[95.31812,5.56319],[95.31812,5.56315],[95.31812,5.56311],[95.31815,5.56252],[95.31815,5.56248],[95.31822,5.56163],[95.31823,5.56152],[95.31824,5.5614],[95.31823,5.56117],[95.31821,5.56065],[95.31821,5.56064],[95.31821,5.56064],[95.31821,5.56054],[95.3176,5.56053],[95.31749,5.56051],[95.31743,5.56043],[95.31727,5.56039],[95.31628,5.56025],[95.31613,5.56029],[95.31613,5.56027],[95.3161,5.56018],[95.31593,5.55937],[95.3159,5.55923],[95.31572,5.55844],[95.31565,5.55812],[95.31561,5.55797],[95.31547,5.55742],[95.31534,5.55694],[95.31512,5.55615],[95.31508,5.55611],[95.31507,5.55607],[95.31487,5.55551],[95.31482,5.55536],[95.31475,5.55517],[95.31471,5.55505],[95.31453,5.55451],[95.31433,5.55401],[95.31431,5.55394],[95.31425,5.55376],[95.31418,5.55356],[95.31418,5.55351],[95.31393,5.55258],[95.3138,5.55229],[95.31348,5.55237],[95.31308,5.55241],[95.31308,5.55242],[95.31311,5.55252],[95.31311,5.55253],[95.31315,5.55262],[95.31315,5.55264],[95.31333,5.55338],[95.31345,5.55367],[95.31347,5.55401],[95.31326,5.55401],[95.31284,5.55395],[95.31265,5.55389],[95.31233,5.55394],[95.3123,5.55394],[95.3121,5.55394],[95.31172,5.55396],[95.31142,5.55399],[95.31145,5.55412],[95.31148,5.5542],[95.31148,5.55421],[95.31144,5.55481],[95.31144,5.55532],[95.31143,5.55556],[95.31106,5.55552],[95.31104,5.55589],[95.31104,5.55589],[95.311,5.55602],[95.30998,5.55596],[95.30996,5.55589],[95.30994,5.55587],[95.30988,5.5558],[95.30982,5.55574],[95.30984,5.5555],[95.30853,5.55547],[95.30846,5.55577],[95.30814,5.55625],[95.30824,5.5572],[95.30825,5.5572],[95.30824,5.55721],[95.30834,5.55801],[95.30836,5.55896],[95.30836,5.55896],[95.30838,5.55966],[95.30828,5.56053],[95.30827,5.56054],[95.30822,5.56109],[95.30824,5.56181],[95.30826,5.56181],[95.30831,5.56181],[95.30838,5.56182],[95.3084,5.56182],[95.30848,5.56183],[95.30852,5.56184],[95.30855,5.56184],[95.30988,5.56194],[95.30991,5.56195],[95.30993,5.56204],[95.30993,5.56209],[95.30994,5.56238],[95.30996,5.56279],[95.31014,5.56336],[95.31023,5.56341],[95.31105,5.5636],[95.31113,5.56366],[95.31115,5.56371],[95.31123,5.56492],[95.31118,5.56541],[95.31116,5.56571],[95.31114,5.5659],[95.31108,5.56596],[95.31097,5.56602],[95.31074,5.56611],[95.31054,5.56618],[95.31046,5.56625],[95.31045,5.5664],[95.31048,5.5666],[95.31056,5.56688],[95.31063,5.56722],[95.3107,5.56741],[95.31081,5.56747],[95.31097,5.56749],[95.31099,5.56751],[95.31107,5.56757],[95.31111,5.56769],[95.31127,5.56827],[95.31134,5.56855],[95.31136,5.56868],[95.31137,5.5688],[95.31141,5.569],[95.31146,5.56908],[95.31163,5.56909],[95.31167,5.56916],[95.31168,5.56927],[95.31166,5.56931],[95.31155,5.56932],[95.31144,5.56935],[95.31141,5.56937],[95.31142,5.56944],[95.31143,5.56961],[95.31145,5.56976],[95.3115,5.5699],[95.31153,5.5701],[95.31153,5.57033],[95.31153,5.57053],[95.31151,5.57072],[95.31147,5.57091],[95.3114,5.5715],[95.3114,5.57154],[95.31147,5.57154],[95.31176,5.57155],[95.31181,5.57158],[95.31181,5.57162],[95.31178,5.57176],[95.31176,5.57191],[95.31172,5.572],[95.31162,5.57208],[95.31154,5.57214],[95.31154,5.57223],[95.31156,5.57234],[95.31156,5.57239],[95.31142,5.57245],[95.31135,5.57247],[95.31119,5.57257],[95.31106,5.57272],[95.31098,5.57293],[95.31097,5.57319],[95.31097,5.57353],[95.31092,5.57385],[95.31087,5.57409],[95.31086,5.57435],[95.31089,5.5746],[95.31091,5.57485],[95.31094,5.57499],[95.31105,5.57509],[95.31125,5.57513],[95.31151,5.57514],[95.31196,5.57515],[95.31202,5.57519],[95.31204,5.57527],[95.31204,5.57564],[95.31203,5.57596],[95.31196,5.5762],[95.31185,5.57641],[95.31168,5.57665],[95.31157,5.57679],[95.31151,5.57685],[95.31134,5.5771],[95.3112,5.57741],[95.3111,5.57763],[95.31108,5.57789],[95.31108,5.57817],[95.31117,5.57881],[95.31116,5.579],[95.31107,5.57913],[95.31095,5.57921],[95.31082,5.57937],[95.31075,5.57949],[95.31066,5.57964],[95.31057,5.57978],[95.31053,5.57996],[95.31111,5.58051],[95.31172,5.5811],[95.31173,5.58111],[95.31249,5.58197],[95.31302,5.58256],[95.31362,5.58343],[95.31368,5.5835],[95.31381,5.58351],[95.31382,5.58351]]]]}},{"type":"Feature","properties":{"uesi_id":"IDN_R5978331","nbhd_name":"Lueng Bata","nbhd_code":"IDN_R5978331_6"},"geometry":{"type":"MultiPolygon","coordinates":[[[[95.32597,5.53255],[95.32598,5.53255],[95.32597,5.53256],[95.32597,5.53255],[95.3259,5.53252],[95.32574,5.53322],[95.32534,5.53431],[95.32532,5.53475],[95.32531,5.53548],[95.32538,5.53651],[95.32554,5.53798],[95.32566,5.53817],[95.32593,5.53839],[95.32646,5.53876],[95.3268,5.53903],[95.32687,5.53947],[95.32684,5.53986],[95.32673,5.53997],[95.32652,5.54011],[95.32643,5.54038],[95.32638,5.54057],[95.32636,5.54082],[95.32655,5.54118],[95.32654,5.54119],[95.32657,5.54119],[95.32657,5.54119],[95.32693,5.54178],[95.32703,5.54194],[95.32705,5.54235],[95.32705,5.54245],[95.32705,5.54245],[95.32705,5.54245],[95.32705,5.54253],[95.32709,5.54383],[95.32715,5.54397],[95.3273,5.54414],[95.32763,5.54447],[95.32751,5.54462],[95.32739,5.54463],[95.32736,5.54459],[95.32722,5.54457],[95.32689,5.54457],[95.32673,5.54457],[95.32663,5.54452],[95.32636,5.54451],[95.32636,5.54476],[95.32635,5.54476],[95.32645,5.54537],[95.32646,5.5459],[95.3281,5.54581],[95.32814,5.54611],[95.32849,5.5461],[95.32872,5.54607],[95.32898,5.54603],[95.32903,5.54602],[95.32904,5.54602],[95.32904,5.54602],[95.32904,5.54602],[95.32904,5.54609],[95.32904,5.54609],[95.32904,5.54609],[95.3291,5.54809],[95.32911,5.54837],[95.32911,5.54837],[95.32911,5.54838],[95.32911,5.54839],[95.32912,5.54886],[95.32899,5.54915],[95.32872,5.54961],[95.32844,5.55006],[95.32845,5.55007],[95.3282,5.55058],[95.32814,5.55093],[95.32822,5.55093],[95.32822,5.55094],[95.32822,5.55094],[95.33023,5.55098],[95.33024,5.55098],[95.33027,5.55106],[95.33027,5.55106],[95.33027,5.55107],[95.33045,5.55165],[95.33053,5.55271],[95.33059,5.5536],[95.3306,5.5536],[95.33069,5.5536],[95.33077,5.55358],[95.33079,5.55357],[95.33137,5.55344],[95.33212,5.55314],[95.33284,5.5528],[95.33334,5.55249],[95.33344,5.55242],[95.33367,5.55223],[95.33397,5.55198],[95.33453,5.55149],[95.3347,5.55134],[95.33548,5.55088],[95.33614,5.55068],[95.33614,5.55068],[95.33665,5.55059],[95.33673,5.55059],[95.33725,5.55057],[95.33794,5.55052],[95.33844,5.55038],[95.33892,5.5501],[95.33901,5.55005],[95.33915,5.54997],[95.3395,5.54978],[95.3395,5.54978],[95.34021,5.54924],[95.34075,5.54877],[95.34106,5.5485],[95.34129,5.54826],[95.34131,5.54824],[95.34138,5.54811],[95.34152,5.54784],[95.34152,5.54783],[95.34155,5.54761],[95.34166,5.54666],[95.34166,5.54662],[95.34166,5.54659],[95.3416,5.54578],[95.34156,5.54512],[95.34156,5.54506],[95.34155,5.54483],[95.34154,5.54461],[95.34151,5.54396],[95.34146,5.54349],[95.34146,5.54349],[95.34139,5.54175],[95.34138,5.54151],[95.34212,5.53999],[95.34246,5.53914],[95.34247,5.5391],[95.34252,5.53881],[95.34259,5.53849],[95.34261,5.53842],[95.34265,5.53825],[95.34273,5.53791],[95.34292,5.53717],[95.34315,5.53648],[95.34363,5.53588],[95.34364,5.53587],[95.34433,5.535],[95.34439,5.53496],[95.34448,5.5349],[95.34449,5.53489],[95.34445,5.53484],[95.34432,5.53468],[95.34421,5.53404],[95.34418,5.53386],[95.34419,5.53374],[95.34425,5.53351],[95.34452,5.5333],[95.34475,5.53318],[95.34492,5.53302],[95.34487,5.53282],[95.34465,5.5326],[95.3446,5.5325],[95.34452,5.53236],[95.34449,5.5323],[95.34447,5.53221],[95.34451,5.5321],[95.34458,5.53193],[95.34489,5.53149],[95.34489,5.53141],[95.34484,5.53134],[95.3448,5.5313],[95.3448,5.5313],[95.3448,5.5313],[95.34475,5.53126],[95.34475,5.53126],[95.34453,5.53131],[95.34422,5.53136],[95.34416,5.53128],[95.34415,5.53108],[95.34413,5.53058],[95.34429,5.53004],[95.34426,5.52979],[95.34422,5.52948],[95.34412,5.52934],[95.34403,5.52922],[95.34397,5.52893],[95.34391,5.52868],[95.34393,5.52864],[95.34394,5.52861],[95.34394,5.52828],[95.3439,5.52823],[95.34381,5.52812],[95.34381,5.52812],[95.34365,5.52813],[95.34361,5.52814],[95.34334,5.52815],[95.34327,5.52815],[95.34324,5.52816],[95.34323,5.52816],[95.34241,5.52825],[95.34217,5.52839],[95.34217,5.52839],[95.34217,5.52839],[95.34217,5.52839],[95.34196,5.52799],[95.34195,5.52799],[95.34191,5.52791],[95.34176,5.52798],[95.34114,5.52819],[95.34107,5.52884],[95.34107,5.52886],[95.34042,5.52881],[95.33831,5.52883],[95.33727,5.52884],[95.33654,5.52881],[95.33654,5.5287],[95.33655,5.52854],[95.33629,5.5284],[95.33601,5.52838],[95.33555,5.52832],[95.33554,5.52832],[95.33541,5.52833],[95.3354,5.52833],[95.33539,5.52833],[95.3349,5.52836],[95.33365,5.5282],[95.33372,5.52789],[95.33361,5.52776],[95.33364,5.52758],[95.33374,5.52749],[95.33375,5.52749],[95.33397,5.52731],[95.33401,5.52698],[95.33401,5.52698],[95.3334,5.52678],[95.3324,5.52654],[95.3324,5.52653],[95.33181,5.52637],[95.33135,5.52628],[95.33019,5.52597],[95.33019,5.52597],[95.3302,5.52726],[95.33022,5.52896],[95.33022,5.52896],[95.33023,5.53006],[95.33023,5.53014],[95.33024,5.53053],[95.33021,5.53054],[95.32999,5.53055],[95.32973,5.53057],[95.32973,5.53083],[95.32949,5.53082],[95.3291,5.53089],[95.32909,5.5311],[95.32901,5.53131],[95.32893,5.53151],[95.3286,5.53142],[95.32855,5.53176],[95.32869,5.53181],[95.32849,5.53215],[95.32831,5.5324],[95.32776,5.53238],[95.32718,5.53238],[95.32641,5.53239],[95.32601,5.53231],[95.32597,5.53255]]]]}},{"type":"Feature","properties":{"uesi_id":"IDN_R5978331","nbhd_name":"Meuraxa","nbhd_code":"IDN_R5978331_7"},"geometry":{"type":"MultiPolygon","coordinates":[[[[95.30284,5.56789],[95.30297,5.56781],[95.30315,5.56776],[95.30328,5.56768],[95.30336,5.56759],[95.30337,5.56752],[95.30334,5.56749],[95.30327,5.56747],[95.30315,5.56747],[95.30274,5.56767],[95.30247,5.56783],[95.30233,5.56788],[95.30217,5.56786],[95.30187,5.56778],[95.30174,5.56772],[95.30174,5.5677],[95.30178,5.56766],[95.30189,5.56762],[95.30193,5.56756],[95.30195,5.56747],[95.30192,5.56739],[95.30186,5.56732],[95.30175,5.56733],[95.30153,5.56738],[95.30129,5.56743],[95.30113,5.56745],[95.30097,5.56745],[95.30084,5.5674],[95.3007,5.56733],[95.30052,5.56729],[95.30031,5.56725],[95.30005,5.56723],[95.29981,5.56718],[95.29967,5.56716],[95.29955,5.5672],[95.29944,5.56727],[95.29929,5.5673],[95.2991,5.5673],[95.2989,5.5673],[95.29875,5.56731],[95.29866,5.56735],[95.29864,5.56738],[95.29868,5.5674],[95.29876,5.5674],[95.29894,5.56742],[95.2992,5.56742],[95.29941,5.5674],[95.29977,5.56738],[95.30001,5.56738],[95.30029,5.56741],[95.30055,5.56744],[95.30076,5.56749],[95.30098,5.56757],[95.30132,5.56773],[95.30153,5.56779],[95.30164,5.56784],[95.30235,5.56833],[95.30293,5.56878],[95.30302,5.56884],[95.3031,5.56888],[95.3032,5.56889],[95.30327,5.56886],[95.30356,5.56862],[95.30359,5.56857],[95.30359,5.56853],[95.30354,5.56847],[95.30344,5.56836],[95.30333,5.56824],[95.30324,5.56817],[95.30311,5.56811],[95.30297,5.56808],[95.30285,5.56807],[95.30278,5.56803],[95.30278,5.56797],[95.30284,5.56789]]],[[[95.29798,5.56814],[95.29794,5.56811],[95.29791,5.56812],[95.29788,5.56831],[95.29783,5.56899],[95.2978,5.56942],[95.29781,5.56945],[95.29785,5.56947],[95.29788,5.56948],[95.29789,5.56943],[95.2979,5.56909],[95.29793,5.56895],[95.29798,5.5688],[95.29804,5.56872],[95.29815,5.56868],[95.29827,5.56866],[95.29836,5.56863],[95.29838,5.56858],[95.29836,5.56853],[95.2983,5.56845],[95.29821,5.56839],[95.29811,5.56833],[95.29805,5.56825],[95.29802,5.56818],[95.29798,5.56814]]],[[[95.29733,5.56905],[95.29734,5.56905],[95.29757,5.56907],[95.29758,5.56911],[95.29756,5.56925],[95.29756,5.56932],[95.29754,5.56938],[95.29753,5.56942],[95.29752,5.56946],[95.29754,5.56947],[95.29758,5.56947],[95.2976,5.56946],[95.29762,5.56941],[95.29764,5.56931],[95.29766,5.56917],[95.2977,5.56882],[95.29782,5.56773],[95.29794,5.56653],[95.29795,5.56634],[95.29792,5.56619],[95.29784,5.56602],[95.29773,5.56583],[95.29761,5.56572],[95.29741,5.56558],[95.29668,5.56513],[95.29627,5.56488],[95.29561,5.56448],[95.29446,5.56373],[95.29406,5.56348],[95.29355,5.56317],[95.2932,5.56296],[95.29302,5.56286],[95.29283,5.56279],[95.29195,5.56254],[95.29153,5.56241],[95.29137,5.56236],[95.29106,5.56224],[95.29078,5.56209],[95.29054,5.56199],[95.2903,5.56189],[95.29014,5.5618],[95.28993,5.56165],[95.28968,5.56136],[95.28959,5.56122],[95.2895,5.56106],[95.28944,5.56094],[95.2894,5.56088],[95.28934,5.56087],[95.28923,5.56087],[95.28905,5.56089],[95.28888,5.56091],[95.28872,5.56092],[95.28858,5.56094],[95.28847,5.56095],[95.28838,5.56099],[95.28829,5.56104],[95.28823,5.56107],[95.28814,5.56106],[95.28757,5.5607],[95.28755,5.56067],[95.28757,5.56062],[95.28765,5.56046],[95.28765,5.56042],[95.28759,5.56038],[95.28754,5.56034],[95.28753,5.5603],[95.28751,5.56024],[95.28744,5.56019],[95.28732,5.56012],[95.28722,5.56008],[95.28716,5.56005],[95.2871,5.56],[95.28702,5.5599],[95.28693,5.55976],[95.28683,5.55962],[95.28674,5.55949],[95.28669,5.55939],[95.28666,5.55934],[95.28663,5.55923],[95.28662,5.55911],[95.28664,5.55903],[95.28671,5.55893],[95.28677,5.5589],[95.28685,5.55886],[95.28723,5.55877],[95.28733,5.55873],[95.28737,5.55868],[95.2874,5.55862],[95.28738,5.55853],[95.28715,5.5582],[95.28702,5.55806],[95.28673,5.55774],[95.28664,5.55765],[95.28655,5.5576],[95.28648,5.55758],[95.2861,5.55757],[95.2847,5.55756],[95.28463,5.55752],[95.28451,5.55746],[95.28441,5.55744],[95.2844,5.55679],[95.28443,5.55677],[95.28451,5.55667],[95.28463,5.55655],[95.28471,5.55647],[95.28489,5.55633],[95.28505,5.55623],[95.28519,5.55615],[95.28542,5.55608],[95.28572,5.55595],[95.28585,5.55591],[95.28591,5.55588],[95.28602,5.55586],[95.28604,5.55586],[95.28625,5.55585],[95.28647,5.55585],[95.28661,5.55585],[95.28669,5.55585],[95.28686,5.55585],[95.28718,5.55596],[95.28766,5.55622],[95.28787,5.55633],[95.28812,5.55646],[95.28813,5.55649],[95.28811,5.55655],[95.28805,5.5567],[95.28801,5.5567],[95.28788,5.55671],[95.2878,5.55675],[95.28775,5.55681],[95.28772,5.5569],[95.28772,5.55704],[95.28774,5.55713],[95.28778,5.55729],[95.28789,5.55757],[95.288,5.55788],[95.28804,5.55809],[95.28803,5.55848],[95.28805,5.55857],[95.28811,5.55862],[95.28811,5.55862],[95.28817,5.55862],[95.28835,5.55861],[95.28841,5.55865],[95.28849,5.55876],[95.2886,5.55889],[95.28896,5.55926],[95.28906,5.55938],[95.28925,5.55957],[95.28933,5.55968],[95.28933,5.55978],[95.28933,5.55987],[95.28937,5.55993],[95.28966,5.56014],[95.28989,5.56028],[95.29008,5.56035],[95.29032,5.56045],[95.29106,5.56071],[95.29105,5.56074],[95.291,5.56073],[95.29098,5.56076],[95.29112,5.56081],[95.29113,5.56077],[95.29108,5.56075],[95.29109,5.56072],[95.2912,5.56076],[95.29161,5.56089],[95.29198,5.56107],[95.29232,5.56123],[95.29252,5.56133],[95.29304,5.56158],[95.29322,5.56168],[95.29341,5.56173],[95.29355,5.56175],[95.29366,5.56181],[95.29368,5.56182],[95.2937,5.56183],[95.29384,5.56195],[95.29397,5.56207],[95.29402,5.56219],[95.29406,5.56225],[95.29443,5.56244],[95.295,5.56266],[95.29545,5.56288],[95.29566,5.56295],[95.29582,5.56302],[95.29593,5.5631],[95.29602,5.56318],[95.29603,5.56324],[95.29603,5.56335],[95.29607,5.56348],[95.29615,5.5636],[95.29628,5.5637],[95.29641,5.56376],[95.29654,5.56378],[95.29673,5.5638],[95.29709,5.5638],[95.29718,5.5638],[95.29728,5.56382],[95.29771,5.56406],[95.298,5.56422],[95.29833,5.56438],[95.29895,5.56463],[95.29914,5.56465],[95.2993,5.56463],[95.2994,5.56459],[95.29949,5.56453],[95.29966,5.56432],[95.29994,5.56407],[95.30014,5.56389],[95.30019,5.56388],[95.30051,5.56391],[95.30055,5.56391],[95.30056,5.56395],[95.30055,5.56448],[95.30062,5.56463],[95.30073,5.56474],[95.30086,5.56484],[95.30098,5.56495],[95.30131,5.56526],[95.30142,5.56538],[95.30144,5.56539],[95.30156,5.56546],[95.30169,5.56549],[95.30214,5.56554],[95.3024,5.56556],[95.30256,5.5656],[95.30264,5.56564],[95.30272,5.56571],[95.30278,5.56576],[95.30283,5.56577],[95.30288,5.56574],[95.30294,5.56565],[95.303,5.56553],[95.30312,5.56518],[95.30328,5.56456],[95.30328,5.56455],[95.30336,5.56438],[95.30341,5.56429],[95.30349,5.56422],[95.3036,5.56415],[95.30371,5.56406],[95.30377,5.56398],[95.30383,5.56377],[95.30382,5.56372],[95.30378,5.56369],[95.30373,5.56365],[95.30368,5.56358],[95.30366,5.56353],[95.30359,5.5635],[95.30334,5.56336],[95.30324,5.56332],[95.30318,5.56331],[95.30314,5.56331],[95.30304,5.56331],[95.30298,5.56329],[95.30296,5.56328],[95.30296,5.56326],[95.30297,5.56323],[95.30299,5.56319],[95.30327,5.56261],[95.30342,5.56224],[95.30342,5.56223],[95.30344,5.5622],[95.30346,5.5622],[95.30347,5.5622],[95.30351,5.56221],[95.30355,5.56228],[95.30358,5.56234],[95.30365,5.56237],[95.30389,5.56244],[95.30397,5.56241],[95.30405,5.56237],[95.30406,5.56237],[95.30411,5.56237],[95.30492,5.56251],[95.30506,5.56252],[95.30511,5.56249],[95.30514,5.56239],[95.30514,5.56221],[95.30514,5.56203],[95.30514,5.56188],[95.30517,5.56184],[95.30529,5.56182],[95.30574,5.56181],[95.30599,5.5618],[95.306,5.5618],[95.30714,5.56181],[95.30724,5.5618],[95.30725,5.56178],[95.30726,5.56173],[95.30724,5.56136],[95.30726,5.56132],[95.30733,5.56129],[95.30799,5.56121],[95.30802,5.56122],[95.30804,5.56126],[95.30814,5.56178],[95.30815,5.56179],[95.30815,5.56179],[95.30824,5.56181],[95.30822,5.56109],[95.30827,5.56054],[95.30828,5.56053],[95.30838,5.55966],[95.30836,5.55896],[95.30836,5.55896],[95.30834,5.55801],[95.30824,5.55721],[95.30825,5.5572],[95.30824,5.5572],[95.30814,5.55625],[95.30846,5.55577],[95.30853,5.55547],[95.30984,5.5555],[95.30982,5.55574],[95.30988,5.5558],[95.30994,5.55587],[95.30996,5.55589],[95.30998,5.55596],[95.311,5.55602],[95.31104,5.55589],[95.31104,5.55589],[95.31106,5.55552],[95.31143,5.55556],[95.31144,5.55532],[95.31144,5.55481],[95.31148,5.55421],[95.31148,5.5542],[95.31145,5.55412],[95.31142,5.55399],[95.31172,5.55396],[95.3121,5.55394],[95.3123,5.55394],[95.31233,5.55394],[95.31265,5.55389],[95.31284,5.55395],[95.31326,5.55401],[95.31347,5.55401],[95.31345,5.55367],[95.31333,5.55338],[95.31315,5.55264],[95.31315,5.55262],[95.31311,5.55253],[95.31311,5.55252],[95.31308,5.55242],[95.31308,5.55241],[95.31307,5.5524],[95.31264,5.55098],[95.31206,5.5491],[95.31202,5.54895],[95.31245,5.5489],[95.31205,5.54894],[95.31103,5.54916],[95.31101,5.54917],[95.30897,5.54978],[95.30704,5.55047],[95.30439,5.55129],[95.30439,5.55125],[95.30437,5.55118],[95.30432,5.55102],[95.30418,5.55058],[95.30414,5.55031],[95.30414,5.5502],[95.30415,5.55012],[95.30428,5.54944],[95.30421,5.54936],[95.30408,5.54928],[95.3039,5.54925],[95.3038,5.54924],[95.30368,5.54922],[95.30332,5.54915],[95.3033,5.54915],[95.30326,5.54914],[95.30323,5.54914],[95.30305,5.54862],[95.30334,5.54857],[95.30332,5.54804],[95.3033,5.54793],[95.30267,5.54795],[95.30264,5.54763],[95.30286,5.5476],[95.30278,5.54702],[95.30289,5.54695],[95.30299,5.54659],[95.30239,5.54648],[95.30174,5.54626],[95.30175,5.54585],[95.3018,5.5457],[95.30184,5.54539],[95.30205,5.54481],[95.30212,5.5444],[95.30214,5.5443],[95.30213,5.5443],[95.3021,5.54428],[95.30212,5.54428],[95.30231,5.54412],[95.30235,5.54384],[95.30241,5.5436],[95.30241,5.54347],[95.30239,5.54332],[95.30238,5.54318],[95.30238,5.54306],[95.30232,5.54272],[95.30217,5.54262],[95.30207,5.54247],[95.30202,5.54223],[95.30184,5.54122],[95.30185,5.54102],[95.30176,5.54073],[95.3018,5.5403],[95.3018,5.5403],[95.30179,5.5403],[95.30179,5.5403],[95.30102,5.54019],[95.3007,5.54011],[95.30039,5.53996],[95.3001,5.53982],[95.29985,5.53978],[95.29982,5.53978],[95.29963,5.53979],[95.2996,5.53983],[95.29921,5.53984],[95.29911,5.53977],[95.29815,5.53975],[95.29773,5.53985],[95.29764,5.53988],[95.29754,5.53995],[95.2975,5.54015],[95.29748,5.54032],[95.29743,5.541],[95.29742,5.54108],[95.29731,5.54109],[95.29706,5.54103],[95.29681,5.54091],[95.29668,5.54092],[95.2964,5.54086],[95.29626,5.54082],[95.29608,5.54068],[95.29593,5.54062],[95.29572,5.54052],[95.29554,5.54037],[95.2955,5.54037],[95.29532,5.54037],[95.29514,5.54044],[95.29494,5.54069],[95.29463,5.54104],[95.29436,5.54117],[95.29391,5.54112],[95.29366,5.54083],[95.29364,5.54045],[95.29398,5.54029],[95.29424,5.54019],[95.29441,5.5399],[95.29439,5.53968],[95.29429,5.53923],[95.2914,5.53828],[95.29086,5.53813],[95.29027,5.53835],[95.28962,5.53888],[95.2896,5.53889],[95.28952,5.53913],[95.28928,5.53969],[95.28913,5.54007],[95.28913,5.54008],[95.28913,5.54008],[95.2897,5.54147],[95.28976,5.54157],[95.28928,5.54151],[95.28887,5.54154],[95.28854,5.54124],[95.28851,5.54124],[95.28788,5.54115],[95.28568,5.54209],[95.2855,5.54223],[95.28547,5.54225],[95.28444,5.54257],[95.28401,5.54261],[95.28408,5.54325],[95.28395,5.54326],[95.28395,5.54326],[95.28387,5.54326],[95.28351,5.54371],[95.28329,5.544],[95.28359,5.54415],[95.28389,5.54431],[95.28389,5.54436],[95.2839,5.54448],[95.2839,5.54474],[95.2833,5.54527],[95.28279,5.54571],[95.28248,5.54598],[95.28247,5.5461],[95.28247,5.54612],[95.28245,5.54611],[95.28243,5.5461],[95.28243,5.5461],[95.282,5.54653],[95.28207,5.5471],[95.28212,5.54761],[95.28214,5.54774],[95.28216,5.54795],[95.28226,5.54882],[95.28232,5.54928],[95.28232,5.54928],[95.28232,5.54929],[95.28256,5.55043],[95.28256,5.55043],[95.28386,5.55051],[95.28564,5.55063],[95.28451,5.55218],[95.2844,5.55232],[95.28426,5.55252],[95.28415,5.55267],[95.28414,5.55268],[95.28313,5.55209],[95.28311,5.55208],[95.28026,5.5517],[95.28026,5.5517],[95.28026,5.5517],[95.28026,5.5517],[95.28026,5.55189],[95.28029,5.55191],[95.28071,5.55209],[95.28119,5.55232],[95.28148,5.5525],[95.2817,5.55262],[95.28193,5.55268],[95.28217,5.55267],[95.28245,5.55262],[95.28291,5.55249],[95.28295,5.55251],[95.28308,5.55267],[95.28362,5.55341],[95.28366,5.55346],[95.28357,5.55358],[95.2832,5.55395],[95.28275,5.55434],[95.28268,5.5544],[95.28262,5.55451],[95.28258,5.5546],[95.28258,5.55471],[95.28288,5.55561],[95.28297,5.55584],[95.28308,5.556],[95.2832,5.55616],[95.28321,5.55617],[95.28327,5.55627],[95.28336,5.55643],[95.28342,5.55652],[95.2835,5.55657],[95.2841,5.55679],[95.28417,5.55681],[95.28415,5.55746],[95.28357,5.55751],[95.28329,5.55753],[95.28326,5.55764],[95.28244,5.55817],[95.2824,5.55823],[95.2825,5.5587],[95.28261,5.55916],[95.28267,5.55921],[95.28303,5.55945],[95.2831,5.55946],[95.28317,5.55946],[95.28365,5.55932],[95.28378,5.5593],[95.28394,5.5593],[95.28396,5.5593],[95.28419,5.55933],[95.28442,5.5594],[95.28461,5.55947],[95.28481,5.55958],[95.28501,5.5597],[95.28527,5.55981],[95.28556,5.55996],[95.28584,5.56011],[95.28607,5.56027],[95.28624,5.56043],[95.28633,5.56058],[95.28646,5.56071],[95.28658,5.56083],[95.28668,5.56096],[95.28678,5.56109],[95.2869,5.56117],[95.28712,5.56122],[95.2874,5.56126],[95.28767,5.5613],[95.28783,5.56136],[95.28806,5.56145],[95.28831,5.56155],[95.28927,5.56217],[95.29067,5.56304],[95.2916,5.56364],[95.29171,5.56374],[95.29182,5.56386],[95.29189,5.56396],[95.29197,5.56404],[95.29207,5.5641],[95.2921,5.56412],[95.29211,5.56415],[95.2921,5.56422],[95.2921,5.56426],[95.29216,5.56431],[95.29249,5.56453],[95.29249,5.56458],[95.29225,5.56497],[95.29225,5.56499],[95.29293,5.56558],[95.29309,5.56566],[95.29324,5.56575],[95.29338,5.56585],[95.29351,5.56597],[95.29369,5.56613],[95.2939,5.5663],[95.2941,5.56647],[95.29435,5.56664],[95.29518,5.56711],[95.2953,5.56718],[95.29567,5.56744],[95.29574,5.5675],[95.29575,5.56752],[95.29581,5.56765],[95.29586,5.5678],[95.29587,5.56798],[95.29585,5.56842],[95.2958,5.56935],[95.29583,5.5694],[95.2959,5.56942],[95.29598,5.56942],[95.29599,5.5694],[95.29604,5.56885],[95.29609,5.56832],[95.29608,5.56773],[95.29606,5.56765],[95.29599,5.56753],[95.29577,5.56732],[95.29573,5.56727],[95.29556,5.56714],[95.29533,5.567],[95.29458,5.56654],[95.29464,5.56643],[95.29482,5.56654],[95.29487,5.56646],[95.29448,5.56624],[95.29443,5.56631],[95.2946,5.56641],[95.29454,5.56651],[95.29429,5.56635],[95.29419,5.56629],[95.29408,5.56619],[95.29405,5.56612],[95.29406,5.56605],[95.29441,5.56551],[95.29443,5.56549],[95.29446,5.56548],[95.29449,5.56545],[95.29464,5.56522],[95.29466,5.56521],[95.2947,5.56521],[95.29474,5.56517],[95.29483,5.56501],[95.29483,5.56501],[95.29483,5.56499],[95.29482,5.56495],[95.29483,5.56486],[95.29494,5.5646],[95.29497,5.56459],[95.29504,5.56464],[95.29543,5.56487],[95.29547,5.56488],[95.29557,5.56472],[95.29559,5.56472],[95.29623,5.56508],[95.29734,5.56572],[95.29766,5.56598],[95.29772,5.56609],[95.29776,5.5662],[95.29777,5.56632],[95.29777,5.56644],[95.29775,5.56653],[95.29766,5.56669],[95.29734,5.56721],[95.29729,5.56734],[95.29721,5.56816],[95.29718,5.56826],[95.29716,5.56836],[95.29715,5.56851],[95.29713,5.56888],[95.29706,5.57044],[95.29708,5.57047],[95.29712,5.57047],[95.29721,5.57048],[95.29723,5.57047],[95.29723,5.57044],[95.29729,5.56906],[95.29733,5.56905]]]]}},{"type":"Feature","properties":{"uesi_id":"IDN_R5978331","nbhd_name":"Syiah Kuala","nbhd_code":"IDN_R5978331_8"},"geometry":{"type":"MultiPolygon","coordinates":[[[[95.36535,5.60657],[95.36404,5.60572],[95.36332,5.60525],[95.36216,5.60451],[95.36216,5.60451],[95.36167,5.60436],[95.35748,5.6031],[95.35749,5.60239],[95.3575,5.60178],[95.3575,5.60173],[95.35753,5.60111],[95.35747,5.60101],[95.35746,5.601],[95.35634,5.59911],[95.35619,5.5989],[95.35518,5.59742],[95.35447,5.59633],[95.35441,5.59575],[95.35437,5.59529],[95.35436,5.59524],[95.35436,5.595],[95.35437,5.59426],[95.35442,5.59404],[95.35448,5.59382],[95.35451,5.59369],[95.35454,5.59342],[95.35462,5.5927],[95.35467,5.59233],[95.35468,5.59218],[95.35475,5.59153],[95.35479,5.5912],[95.35483,5.59107],[95.35494,5.59068],[95.35504,5.59036],[95.35506,5.58984],[95.35509,5.58895],[95.35511,5.58849],[95.35513,5.58801],[95.35524,5.58686],[95.35526,5.58658],[95.35543,5.58574],[95.35544,5.5857],[95.35575,5.58499],[95.35592,5.58498],[95.35592,5.58498],[95.35709,5.58487],[95.35769,5.58482],[95.35893,5.58517],[95.359,5.58519],[95.35912,5.58523],[95.35939,5.5853],[95.35948,5.58518],[95.35953,5.58511],[95.3601,5.58523],[95.36032,5.58542],[95.36044,5.58552],[95.36111,5.58621],[95.36111,5.5865],[95.36173,5.58678],[95.36245,5.58719],[95.36312,5.58729],[95.3635,5.58743],[95.36374,5.58773],[95.36379,5.58779],[95.36407,5.5882],[95.36417,5.5882],[95.36417,5.5882],[95.36391,5.58683],[95.36386,5.58636],[95.36386,5.58613],[95.36385,5.58608],[95.3639,5.58605],[95.36395,5.58601],[95.36396,5.58605],[95.36396,5.58605],[95.36397,5.58605],[95.36397,5.58606],[95.36398,5.58606],[95.36461,5.58616],[95.36456,5.58646],[95.36443,5.58714],[95.36467,5.5872],[95.36481,5.58723],[95.36617,5.58753],[95.3663,5.58768],[95.36685,5.58831],[95.36762,5.58916],[95.36787,5.58942],[95.36803,5.58924],[95.36823,5.58915],[95.36841,5.58918],[95.36859,5.5892],[95.36871,5.58911],[95.36875,5.58909],[95.36875,5.58909],[95.36876,5.58908],[95.3689,5.58846],[95.36917,5.58727],[95.36897,5.58721],[95.36893,5.5872],[95.36921,5.58578],[95.36921,5.58578],[95.36926,5.58554],[95.36937,5.5849],[95.3694,5.58481],[95.3702,5.58153],[95.37104,5.57807],[95.37104,5.57806],[95.37105,5.57806],[95.37124,5.57729],[95.37128,5.57713],[95.37163,5.57579],[95.37054,5.57527],[95.37053,5.57527],[95.37053,5.57527],[95.37055,5.57522],[95.37057,5.57519],[95.37064,5.57507],[95.37068,5.57492],[95.37096,5.57428],[95.37106,5.57408],[95.37114,5.57394],[95.37119,5.57381],[95.37127,5.57363],[95.37152,5.57308],[95.37174,5.57257],[95.37206,5.57187],[95.3721,5.57175],[95.3721,5.57169],[95.3721,5.57166],[95.37209,5.57159],[95.37209,5.57153],[95.3721,5.5714],[95.37345,5.57085],[95.37372,5.57079],[95.37477,5.57069],[95.3762,5.57055],[95.37722,5.56945],[95.37724,5.56842],[95.37726,5.56787],[95.37716,5.56779],[95.37697,5.56765],[95.37635,5.56718],[95.37607,5.56669],[95.37597,5.56652],[95.37576,5.56616],[95.37535,5.56569],[95.37533,5.56567],[95.37505,5.56561],[95.3747,5.56561],[95.37305,5.56557],[95.37304,5.56557],[95.37229,5.56504],[95.37228,5.56503],[95.37207,5.56493],[95.37197,5.56487],[95.37185,5.56483],[95.37185,5.56483],[95.37183,5.56483],[95.37183,5.56483],[95.37183,5.56483],[95.3718,5.56481],[95.37171,5.56477],[95.37159,5.56466],[95.37146,5.56455],[95.37112,5.56409],[95.37091,5.56383],[95.37087,5.56378],[95.37077,5.56367],[95.37015,5.56347],[95.37005,5.56345],[95.36902,5.56326],[95.36787,5.56461],[95.36785,5.56463],[95.36679,5.56582],[95.366,5.56676],[95.365,5.56789],[95.36478,5.56814],[95.36428,5.56871],[95.36338,5.56975],[95.3632,5.56998],[95.36304,5.57013],[95.36266,5.57057],[95.36226,5.571],[95.36188,5.57144],[95.36149,5.57191],[95.36124,5.57225],[95.3607,5.57301],[95.36069,5.57301],[95.36066,5.57305],[95.36065,5.57305],[95.36025,5.57276],[95.35981,5.57246],[95.35969,5.57239],[95.35969,5.57239],[95.35958,5.57232],[95.35939,5.57219],[95.35934,5.57216],[95.35908,5.572],[95.35889,5.57188],[95.35796,5.57129],[95.35769,5.57119],[95.35756,5.57113],[95.3577,5.57031],[95.35773,5.57007],[95.35794,5.56929],[95.35809,5.56879],[95.35812,5.56851],[95.35811,5.56774],[95.3581,5.56738],[95.3581,5.56737],[95.35795,5.56655],[95.35776,5.56612],[95.35759,5.56571],[95.35737,5.56539],[95.35719,5.56514],[95.35628,5.56461],[95.35628,5.56461],[95.35617,5.56459],[95.35582,5.56453],[95.35553,5.56454],[95.35552,5.56454],[95.35515,5.56455],[95.35515,5.56455],[95.35477,5.56442],[95.35453,5.56434],[95.35391,5.56419],[95.3539,5.5642],[95.3539,5.5642],[95.3539,5.5642],[95.35374,5.5638],[95.35365,5.56357],[95.35369,5.56356],[95.35365,5.56344],[95.35364,5.5634],[95.35329,5.5624],[95.35303,5.56166],[95.35302,5.56162],[95.35304,5.56117],[95.35305,5.56108],[95.35349,5.56],[95.35406,5.55947],[95.35372,5.55874],[95.35351,5.55829],[95.35351,5.55829],[95.35321,5.55824],[95.35321,5.55824],[95.35298,5.55824],[95.35298,5.55825],[95.3529,5.55824],[95.35149,5.5581],[95.35149,5.5581],[95.35098,5.55806],[95.3499,5.55796],[95.34926,5.55783],[95.34926,5.55783],[95.34811,5.55739],[95.34767,5.55722],[95.34712,5.55708],[95.34643,5.55703],[95.34632,5.55699],[95.34612,5.55696],[95.34583,5.55695],[95.34532,5.55696],[95.34517,5.55695],[95.34513,5.55687],[95.34486,5.55688],[95.34463,5.55685],[95.34437,5.55681],[95.3442,5.55682],[95.3442,5.55687],[95.34421,5.55688],[95.34409,5.55802],[95.34388,5.56013],[95.3437,5.56188],[95.34364,5.56187],[95.3436,5.56226],[95.34365,5.56227],[95.34366,5.56226],[95.34548,5.56242],[95.34547,5.56251],[95.34549,5.56254],[95.34555,5.56255],[95.3455,5.56287],[95.34545,5.5631],[95.34545,5.5631],[95.3454,5.56385],[95.34524,5.56385],[95.34523,5.56386],[95.34487,5.56392],[95.34484,5.56414],[95.34488,5.56452],[95.3449,5.56473],[95.34487,5.56512],[95.34483,5.56555],[95.34487,5.56556],[95.34488,5.56555],[95.34499,5.56557],[95.3449,5.56649],[95.34503,5.56651],[95.34502,5.56656],[95.34501,5.56657],[95.34491,5.56698],[95.34484,5.56733],[95.34482,5.56746],[95.34481,5.56769],[95.34479,5.56811],[95.3448,5.56843],[95.34484,5.56844],[95.34484,5.56845],[95.34483,5.56848],[95.34482,5.56851],[95.3448,5.56867],[95.34477,5.56868],[95.34472,5.569],[95.34535,5.56914],[95.34551,5.56913],[95.34584,5.56922],[95.34582,5.56929],[95.34581,5.56929],[95.34571,5.56985],[95.34572,5.56996],[95.3457,5.57031],[95.34567,5.57057],[95.34551,5.57113],[95.34552,5.57113],[95.34544,5.57128],[95.34538,5.57161],[95.34542,5.57183],[95.34545,5.57213],[95.3454,5.57226],[95.34525,5.57274],[95.34518,5.5731],[95.3451,5.57332],[95.34427,5.5725],[95.34351,5.57173],[95.34314,5.57136],[95.34305,5.57127],[95.3414,5.56967],[95.33968,5.56801],[95.33968,5.568],[95.33967,5.56799],[95.339,5.56931],[95.33893,5.5695],[95.33893,5.5695],[95.33893,5.5695],[95.33896,5.57135],[95.33897,5.57135],[95.33852,5.57286],[95.33824,5.57293],[95.33821,5.57302],[95.33808,5.57314],[95.33792,5.57323],[95.33792,5.57335],[95.33792,5.57378],[95.33779,5.57459],[95.33782,5.5752],[95.33785,5.57588],[95.33799,5.57642],[95.33849,5.57732],[95.33912,5.57804],[95.33941,5.57877],[95.33943,5.57883],[95.33914,5.57953],[95.33872,5.58012],[95.33849,5.58068],[95.33839,5.58129],[95.33848,5.58209],[95.33891,5.58327],[95.33901,5.58408],[95.33904,5.58537],[95.3391,5.58613],[95.33907,5.58681],[95.33906,5.58717],[95.33896,5.5879],[95.33873,5.58915],[95.33905,5.5897],[95.33908,5.59034],[95.33897,5.59034],[95.33864,5.59032],[95.33748,5.59027],[95.33727,5.59012],[95.33698,5.59],[95.33683,5.58984],[95.33633,5.58962],[95.33582,5.58938],[95.33575,5.5894],[95.33532,5.58952],[95.33493,5.58943],[95.33478,5.58902],[95.33465,5.58874],[95.33432,5.58871],[95.3342,5.58865],[95.334,5.58856],[95.3334,5.58847],[95.33326,5.58844],[95.33314,5.58841],[95.33277,5.58824],[95.33234,5.58816],[95.33195,5.58803],[95.33163,5.58778],[95.33132,5.58763],[95.33128,5.58763],[95.33093,5.58765],[95.33067,5.58767],[95.33051,5.58755],[95.33003,5.58711],[95.32942,5.58722],[95.32939,5.58722],[95.32877,5.58708],[95.32822,5.58738],[95.32776,5.58746],[95.32725,5.58735],[95.32672,5.58718],[95.32662,5.58719],[95.32584,5.58722],[95.32493,5.58747],[95.32441,5.58752],[95.32376,5.58766],[95.32323,5.58753],[95.32258,5.58736],[95.32182,5.58715],[95.32205,5.58745],[95.32314,5.589],[95.32326,5.58918],[95.32329,5.5893],[95.32328,5.58937],[95.32302,5.58967],[95.32302,5.5897],[95.32302,5.58971],[95.32307,5.58979],[95.3235,5.59024],[95.32372,5.59044],[95.3239,5.5906],[95.32548,5.59178],[95.32572,5.59199],[95.32697,5.5933],[95.32706,5.59332],[95.32781,5.59334],[95.32804,5.59337],[95.32819,5.5934],[95.32863,5.59355],[95.3296,5.5939],[95.32985,5.59399],[95.33,5.59409],[95.33016,5.59422],[95.33063,5.59461],[95.33088,5.59482],[95.33111,5.59503],[95.33132,5.59527],[95.33154,5.59548],[95.33176,5.59565],[95.33197,5.59578],[95.332,5.5958],[95.33224,5.59594],[95.33246,5.59606],[95.33265,5.59617],[95.33291,5.59639],[95.33346,5.59683],[95.33461,5.59775],[95.33515,5.59814],[95.33555,5.59838],[95.3358,5.59854],[95.33634,5.59899],[95.33689,5.5995],[95.33721,5.59973],[95.33727,5.59976],[95.33818,5.60031],[95.339,5.60087],[95.33945,5.60116],[95.33993,5.60142],[95.3403,5.60165],[95.34097,5.60196],[95.3415,5.60223],[95.34186,5.60242],[95.34281,5.60303],[95.34347,5.60342],[95.34417,5.60382],[95.34532,5.60439],[95.34628,5.60487],[95.34656,5.60501],[95.34667,5.60505],[95.34667,5.60505],[95.34669,5.60504],[95.34669,5.60489],[95.34672,5.60487],[95.34692,5.60493],[95.34981,5.60572],[95.3498,5.60583],[95.3498,5.60586],[95.34981,5.60588],[95.34985,5.60589],[95.34993,5.60591],[95.35078,5.60607],[95.3517,5.60625],[95.35184,5.60624],[95.35198,5.60623],[95.35342,5.60551],[95.35348,5.60552],[95.35357,5.60554],[95.35389,5.60564],[95.35409,5.60568],[95.35423,5.60569],[95.35474,5.60568],[95.35516,5.6057],[95.35555,5.60574],[95.35579,5.60576],[95.35601,5.6058],[95.35708,5.60599],[95.35722,5.60599],[95.35737,5.60598],[95.35753,5.60597],[95.3577,5.60597],[95.358,5.60605],[95.35827,5.60615],[95.35857,5.60623],[95.35886,5.60627],[95.35914,5.60629],[95.3594,5.60629],[95.35974,5.60629],[95.36004,5.60629],[95.36034,5.60631],[95.36059,5.60636],[95.36084,5.60646],[95.3611,5.60658],[95.36136,5.6067],[95.36157,5.60678],[95.36191,5.60686],[95.36213,5.60691],[95.36236,5.60694],[95.36258,5.60697],[95.3628,5.60702],[95.36332,5.60714],[95.36412,5.60733],[95.36508,5.6076],[95.36593,5.60792],[95.36635,5.60806],[95.3667,5.60818],[95.36696,5.60828],[95.36694,5.60797],[95.3669,5.60746],[95.36687,5.60744],[95.36667,5.60733],[95.36643,5.60719],[95.36535,5.60657]]]]}},{"type":"Feature","properties":{"uesi_id":"IDN_R5978331","nbhd_name":"Ulee Kareng","nbhd_code":"IDN_R5978331_9"},"geometry":{"type":"MultiPolygon","coordinates":[[[[95.34388,5.56013],[95.34409,5.55802],[95.34421,5.55688],[95.3442,5.55687],[95.3442,5.55682],[95.34437,5.55681],[95.34463,5.55685],[95.34486,5.55688],[95.34513,5.55687],[95.34517,5.55695],[95.34532,5.55696],[95.34583,5.55695],[95.34612,5.55696],[95.34632,5.55699],[95.34643,5.55703],[95.34712,5.55708],[95.34767,5.55722],[95.34811,5.55739],[95.34926,5.55783],[95.34926,5.55783],[95.3499,5.55796],[95.35098,5.55806],[95.35149,5.5581],[95.35149,5.5581],[95.3529,5.55824],[95.35298,5.55825],[95.35298,5.55824],[95.35321,5.55824],[95.35321,5.55824],[95.35335,5.5579],[95.35376,5.55775],[95.35376,5.55775],[95.3541,5.55765],[95.35433,5.55771],[95.35482,5.55783],[95.35482,5.55783],[95.35566,5.55777],[95.35597,5.55786],[95.35612,5.55808],[95.35633,5.5584],[95.35683,5.5587],[95.35724,5.55873],[95.35731,5.5584],[95.3573,5.55811],[95.3573,5.55785],[95.3573,5.55778],[95.35729,5.55775],[95.35701,5.55736],[95.35701,5.55736],[95.35704,5.55714],[95.35708,5.55686],[95.35716,5.55681],[95.35716,5.55681],[95.35732,5.55672],[95.35733,5.55672],[95.35777,5.5565],[95.35818,5.5557],[95.35818,5.5557],[95.35817,5.55562],[95.35817,5.55549],[95.35817,5.55548],[95.35817,5.55545],[95.35817,5.55545],[95.35815,5.55539],[95.3582,5.55524],[95.35827,5.55511],[95.35864,5.55432],[95.35865,5.55431],[95.35873,5.55424],[95.359,5.55405],[95.35915,5.55394],[95.35925,5.55385],[95.35931,5.55373],[95.35938,5.55351],[95.3594,5.55332],[95.3594,5.55332],[95.3594,5.55306],[95.3594,5.55269],[95.35942,5.55213],[95.35976,5.55221],[95.35977,5.5522],[95.35995,5.55217],[95.35998,5.55216],[95.36008,5.55147],[95.36012,5.55118],[95.36012,5.55118],[95.36017,5.5508],[95.36022,5.5505],[95.36025,5.55037],[95.36027,5.55021],[95.36027,5.55021],[95.3604,5.54927],[95.36052,5.54868],[95.3606,5.54828],[95.3606,5.54829],[95.3606,5.54829],[95.3606,5.54829],[95.36086,5.54808],[95.36085,5.54798],[95.36084,5.54787],[95.36081,5.5476],[95.36067,5.54646],[95.3606,5.54512],[95.36058,5.54476],[95.36058,5.54476],[95.35981,5.54477],[95.35926,5.54479],[95.35898,5.54478],[95.35898,5.54478],[95.35849,5.54477],[95.35841,5.54477],[95.35796,5.54481],[95.35796,5.54481],[95.35737,5.54485],[95.35698,5.54491],[95.35663,5.54497],[95.35611,5.545],[95.35611,5.545],[95.35604,5.545],[95.35599,5.54501],[95.35573,5.54502],[95.35514,5.54504],[95.35509,5.54504],[95.35505,5.54504],[95.35503,5.54504],[95.35501,5.54504],[95.35499,5.54504],[95.35494,5.54504],[95.35492,5.54504],[95.35546,5.54463],[95.35618,5.54407],[95.3569,5.54346],[95.3569,5.54346],[95.3569,5.54345],[95.35685,5.54224],[95.35522,5.54232],[95.35522,5.54231],[95.35523,5.54195],[95.3553,5.54106],[95.35536,5.539],[95.35533,5.53841],[95.35402,5.53827],[95.35402,5.53826],[95.35392,5.53825],[95.35389,5.53794],[95.35381,5.53755],[95.35375,5.5367],[95.35376,5.53666],[95.35391,5.53544],[95.35392,5.53543],[95.35392,5.5353],[95.35392,5.5353],[95.35406,5.533],[95.35406,5.533],[95.35278,5.5336],[95.35278,5.5336],[95.35275,5.53363],[95.35141,5.53491],[95.3508,5.53541],[95.35059,5.53549],[95.35044,5.5355],[95.35044,5.5355],[95.35007,5.53554],[95.34931,5.53561],[95.34865,5.53552],[95.34792,5.53524],[95.34783,5.53517],[95.34703,5.53459],[95.34664,5.53432],[95.34664,5.53432],[95.34587,5.53436],[95.34449,5.53489],[95.34445,5.53484],[95.34449,5.53489],[95.34448,5.5349],[95.34439,5.53496],[95.34433,5.535],[95.34364,5.53587],[95.34363,5.53588],[95.34315,5.53648],[95.34292,5.53717],[95.34273,5.53791],[95.34265,5.53825],[95.34261,5.53842],[95.34259,5.53849],[95.34252,5.53881],[95.34247,5.5391],[95.34246,5.53914],[95.34212,5.53999],[95.34138,5.54151],[95.34139,5.54175],[95.34146,5.54349],[95.34146,5.54349],[95.34151,5.54396],[95.34154,5.54461],[95.34155,5.54483],[95.34156,5.54506],[95.34156,5.54512],[95.3416,5.54578],[95.34166,5.54659],[95.34166,5.54662],[95.34166,5.54666],[95.34155,5.54761],[95.34152,5.54783],[95.34152,5.54784],[95.34138,5.54811],[95.34131,5.54824],[95.34129,5.54826],[95.34106,5.5485],[95.34075,5.54877],[95.34021,5.54924],[95.3395,5.54978],[95.3395,5.54978],[95.33915,5.54997],[95.33901,5.55005],[95.33892,5.5501],[95.33844,5.55038],[95.33794,5.55052],[95.33725,5.55057],[95.33673,5.55059],[95.33665,5.55059],[95.33614,5.55068],[95.33614,5.55068],[95.33548,5.55088],[95.33586,5.55186],[95.33579,5.55255],[95.33584,5.55264],[95.33588,5.55336],[95.33597,5.55344],[95.336,5.5536],[95.33599,5.55411],[95.33598,5.55433],[95.33595,5.55579],[95.33596,5.55607],[95.33596,5.55653],[95.33594,5.55768],[95.33594,5.55782],[95.33594,5.55795],[95.33597,5.55798],[95.33597,5.55811],[95.3361,5.55819],[95.33609,5.55838],[95.33609,5.55846],[95.33607,5.5586],[95.33605,5.55869],[95.33605,5.5587],[95.33605,5.5587],[95.33605,5.55949],[95.33604,5.5595],[95.33605,5.5595],[95.33601,5.56035],[95.33601,5.56081],[95.33698,5.56083],[95.33722,5.56103],[95.33799,5.56164],[95.33824,5.5617],[95.33824,5.5617],[95.33824,5.56169],[95.33848,5.56145],[95.33837,5.56143],[95.33838,5.56099],[95.33868,5.56101],[95.33872,5.56056],[95.33902,5.56057],[95.33905,5.56087],[95.33917,5.56074],[95.33941,5.56094],[95.33952,5.56101],[95.33964,5.56083],[95.33971,5.56],[95.3398,5.56],[95.33998,5.56],[95.34038,5.56],[95.34076,5.56004],[95.34132,5.56014],[95.34212,5.56011],[95.34207,5.56093],[95.34208,5.56094],[95.34237,5.56109],[95.3426,5.56122],[95.34252,5.56173],[95.34279,5.56175],[95.34364,5.56187],[95.3437,5.56188],[95.34388,5.56013]]]]}}]}