{"type":"FeatureCollection","name":"IND_R1942586","crs":{"type":"name","properties":{"name":"urn:ogc:def:crs:OGC:1.3:CRS84"}},"features":[{"type":"Feature","properties":{"uesi_id":"IND_R1942586","nbhd_code":"IND_R1942586_006","nbhd_name":"Central"},"geometry":{"type":"MultiPolygon","coordinates":[[[[77.26042,28.62286,0.0],[77.25705,28.62268,0.0],[77.24232,28.63196,0.0],[77.23747,28.6322,0.0],[77.23218,28.63573,0.0],[77.22051,28.64111,0.0],[77.20081,28.63912,0.0],[77.19679,28.63577,0.0],[77.19054,28.63237,0.0],[77.1877,28.62608,0.0],[77.18672,28.62564,0.0],[77.18691,28.62599,0.0],[77.18082,28.63172,0.0],[77.18078,28.63348,0.0],[77.18327,28.64053,0.0],[77.1838,28.64638,0.0],[77.18253,28.64817,0.0],[77.18825,28.65106,0.0],[77.18707,28.65367,0.0],[77.18588,28.65785,0.0],[77.18692,28.66024,0.0],[77.19589,28.65908,0.0],[77.20003,28.65719,0.0],[77.20597,28.65828,0.0],[77.21509,28.65022,0.0],[77.22144,28.64967,0.0],[77.22558,28.64777,0.0],[77.23154,28.64788,0.0],[77.23409,28.65055,0.0],[77.24042,28.65066,0.0],[77.24262,28.65201,0.0],[77.25299,28.65374,0.0],[77.25774,28.64241,0.0],[77.2579,28.63519,0.0],[77.25723,28.63156,0.0],[77.25889,28.62403,0.0],[77.26042,28.62286,0.0]]]]}},{"type":"Feature","properties":{"uesi_id":"IND_R1942586","nbhd_code":"IND_R1942586_004","nbhd_name":"East"},"geometry":{"type":"MultiPolygon","coordinates":[[[[77.30482,28.57678,0.0],[77.29593,28.58194,0.0],[77.28989,28.58578,0.0],[77.2835,28.5883,0.0],[77.27671,28.59245,0.0],[77.27586,28.59737,0.0],[77.27133,28.60025,0.0],[77.26558,28.60738,0.0],[77.26455,28.60747,0.0],[77.26445,28.60802,0.0],[77.26245,28.61456,0.0],[77.26273,28.61851,0.0],[77.26267,28.62114,0.0],[77.26042,28.62286,0.0],[77.25889,28.62403,0.0],[77.25723,28.63156,0.0],[77.2579,28.63519,0.0],[77.25774,28.64241,0.0],[77.25299,28.65374,0.0],[77.25144,28.65742,0.0],[77.25066,28.66244,0.0],[77.25057,28.66299,0.0],[77.26212,28.66319,0.0],[77.28538,28.67279,0.0],[77.30437,28.67344,0.0],[77.31189,28.67028,0.0],[77.31779,28.67334,0.0],[77.32807,28.67386,0.0],[77.328,28.67239,0.0],[77.32773,28.66653,0.0],[77.32771,28.66616,0.0],[77.32556,28.6578,0.0],[77.32554,28.65638,0.0],[77.32554,28.65573,0.0],[77.32544,28.64591,0.0],[77.32319,28.64121,0.0],[77.3213,28.63919,0.0],[77.32367,28.63774,0.0],[77.324,28.63743,0.0],[77.32603,28.63544,0.0],[77.33105,28.63056,0.0],[77.33633,28.62799,0.0],[77.34056,28.62593,0.0],[77.34431,28.62151,0.0],[77.34717,28.61641,0.0],[77.34762,28.61201,0.0],[77.34625,28.60339,0.0],[77.3432,28.60123,0.0],[77.33789,28.5994,0.0],[77.32697,28.59448,0.0],[77.32337,28.59397,0.0],[77.31996,28.59349,0.0],[77.31716,28.59144,0.0],[77.31556,28.58955,0.0],[77.31516,28.58907,0.0],[77.30491,28.57696,0.0],[77.30482,28.57678,0.0]]]]}},{"type":"Feature","properties":{"uesi_id":"IND_R1942586","nbhd_code":"IND_R1942586_003","nbhd_name":"North East"},"geometry":{"type":"MultiPolygon","coordinates":[[[[77.25066,28.66244,0.0],[77.25021,28.66266,0.0],[77.24684,28.66359,0.0],[77.24223,28.66975,0.0],[77.24341,28.70033,0.0],[77.24448,28.70265,0.0],[77.24602,28.73389,0.0],[77.23118,28.74744,0.0],[77.2231,28.7588,0.0],[77.21536,28.77148,0.0],[77.21488,28.77607,0.0],[77.21329,28.78031,0.0],[77.21434,28.78352,0.0],[77.21868,28.78185,0.0],[77.2233,28.7811,0.0],[77.22426,28.78131,0.0],[77.22642,28.7818,0.0],[77.22852,28.78228,0.0],[77.23047,28.78228,0.0],[77.23382,28.78227,0.0],[77.23493,28.78227,0.0],[77.23232,28.77838,0.0],[77.22733,28.77633,0.0],[77.23114,28.77255,0.0],[77.23701,28.76859,0.0],[77.23926,28.76707,0.0],[77.24538,28.75802,0.0],[77.24821,28.75385,0.0],[77.2487,28.75373,0.0],[77.25609,28.75197,0.0],[77.25868,28.75215,0.0],[77.26341,28.7474,0.0],[77.26208,28.74011,0.0],[77.26637,28.73454,0.0],[77.27013,28.73272,0.0],[77.27657,28.73388,0.0],[77.28133,28.73278,0.0],[77.28706,28.72899,0.0],[77.29089,28.72462,0.0],[77.29105,28.72437,0.0],[77.29462,28.71851,0.0],[77.29385,28.71356,0.0],[77.29509,28.70703,0.0],[77.30312,28.70434,0.0],[77.30581,28.70761,0.0],[77.31167,28.71129,0.0],[77.31643,28.71223,0.0],[77.32738,28.71176,0.0],[77.3337,28.71042,0.0],[77.33187,28.70637,0.0],[77.33003,28.6982,0.0],[77.33112,28.69422,0.0],[77.33775,28.68638,0.0],[77.33729,28.67969,0.0],[77.33578,28.67739,0.0],[77.33555,28.67704,0.0],[77.32807,28.67389,0.0],[77.32807,28.67386,0.0],[77.31779,28.67334,0.0],[77.31189,28.67028,0.0],[77.30437,28.67344,0.0],[77.28538,28.67279,0.0],[77.26212,28.66319,0.0],[77.25057,28.66299,0.0],[77.25066,28.66244,0.0]]]]}},{"type":"Feature","properties":{"uesi_id":"IND_R1942586","nbhd_code":"IND_R1942586_002","nbhd_name":"North"},"geometry":{"type":"MultiPolygon","coordinates":[[[[77.21434,28.78352,0.0],[77.21329,28.78031,0.0],[77.21488,28.77607,0.0],[77.21536,28.77148,0.0],[77.2231,28.7588,0.0],[77.23118,28.74744,0.0],[77.24602,28.73389,0.0],[77.24448,28.70265,0.0],[77.24341,28.70033,0.0],[77.24223,28.66975,0.0],[77.24684,28.66359,0.0],[77.25021,28.66266,0.0],[77.25066,28.66244,0.0],[77.25144,28.65742,0.0],[77.25299,28.65374,0.0],[77.24262,28.65201,0.0],[77.24042,28.65066,0.0],[77.23409,28.65055,0.0],[77.23154,28.64788,0.0],[77.22558,28.64777,0.0],[77.22144,28.64967,0.0],[77.21509,28.65022,0.0],[77.20597,28.65828,0.0],[77.20003,28.65719,0.0],[77.19589,28.65908,0.0],[77.18692,28.66024,0.0],[77.18588,28.65785,0.0],[77.18586,28.65792,0.0],[77.17284,28.65703,0.0],[77.1713,28.65898,0.0],[77.1675,28.66253,0.0],[77.17072,28.66817,0.0],[77.17093,28.66833,0.0],[77.17659,28.67255,0.0],[77.17822,28.68243,0.0],[77.18254,28.68941,0.0],[77.18702,28.68883,0.0],[77.19224,28.68892,0.0],[77.20159,28.68745,0.0],[77.20417,28.68848,0.0],[77.2141,28.69457,0.0],[77.21811,28.69858,0.0],[77.22092,28.70619,0.0],[77.21998,28.71471,0.0],[77.21435,28.71659,0.0],[77.19488,28.72052,0.0],[77.18621,28.72464,0.0],[77.17675,28.73104,0.0],[77.1695,28.73814,0.0],[77.16647,28.74039,0.0],[77.16603,28.74334,0.0],[77.16594,28.74728,0.0],[77.17985,28.75837,0.0],[77.18263,28.76729,0.0],[77.18934,28.76741,0.0],[77.21052,28.78652,0.0],[77.21292,28.78407,0.0],[77.21434,28.78352,0.0]]]]}},{"type":"Feature","properties":{"uesi_id":"IND_R1942586","nbhd_code":"IND_R1942586_001","nbhd_name":"North West"},"geometry":{"type":"MultiPolygon","coordinates":[[[[77.17093,28.66833,0.0],[77.16689,28.67303,0.0],[77.15494,28.67381,0.0],[77.15266,28.67607,0.0],[77.11951,28.67514,0.0],[77.11127,28.67697,0.0],[77.09836,28.68758,0.0],[77.08623,28.68045,0.0],[77.07976,28.68592,0.0],[77.07606,28.68487,0.0],[77.07153,28.68742,0.0],[77.0638,28.68333,0.0],[77.05813,28.68684,0.0],[77.04472,28.68659,0.0],[77.026,28.68986,0.0],[77.0109,28.68235,0.0],[76.99864,28.68113,0.0],[76.97816,28.69553,0.0],[76.96372,28.69481,0.0],[76.96409,28.69537,0.0],[76.9645,28.70021,0.0],[76.96086,28.70461,0.0],[76.95117,28.71189,0.0],[76.96061,28.73132,0.0],[76.95915,28.73636,0.0],[76.96027,28.74151,0.0],[76.9574,28.746,0.0],[76.94817,28.7545,0.0],[76.95658,28.76891,0.0],[76.95397,28.77341,0.0],[76.95234,28.78264,0.0],[76.95312,28.79,0.0],[76.94751,28.79839,0.0],[76.9474,28.80405,0.0],[76.95237,28.81557,0.0],[76.95829,28.81255,0.0],[76.96585,28.81491,0.0],[76.96811,28.82522,0.0],[76.97093,28.82656,0.0],[76.98066,28.81998,0.0],[76.9838,28.82071,0.0],[76.98968,28.83157,0.0],[76.99364,28.83396,0.0],[76.99987,28.83402,0.0],[77.01677,28.83011,0.0],[77.02895,28.83189,0.0],[77.03484,28.8311,0.0],[77.04171,28.83161,0.0],[77.04786,28.8476,0.0],[77.05999,28.868,0.0],[77.07592,28.8678,0.0],[77.08041,28.8748,0.0],[77.08612,28.87932,0.0],[77.09361,28.8694,0.0],[77.10973,28.86722,0.0],[77.11741,28.86322,0.0],[77.11998,28.86089,0.0],[77.13884,28.86013,0.0],[77.14536,28.85323,0.0],[77.14586,28.84743,0.0],[77.14407,28.83945,0.0],[77.14946,28.8364,0.0],[77.15265,28.8372,0.0],[77.16093,28.84317,0.0],[77.1699,28.85215,0.0],[77.17491,28.85535,0.0],[77.19399,28.857,0.0],[77.19721,28.86152,0.0],[77.20384,28.86004,0.0],[77.21,28.85963,0.0],[77.21515,28.85759,0.0],[77.21819,28.8549,0.0],[77.22181,28.8496,0.0],[77.22094,28.83996,0.0],[77.22764,28.82995,0.0],[77.22393,28.80816,0.0],[77.20488,28.81002,0.0],[77.20469,28.79696,0.0],[77.20717,28.78995,0.0],[77.21052,28.78652,0.0],[77.18934,28.76741,0.0],[77.18263,28.76729,0.0],[77.17985,28.75837,0.0],[77.16594,28.74728,0.0],[77.16603,28.74334,0.0],[77.16647,28.74039,0.0],[77.1695,28.73814,0.0],[77.17675,28.73104,0.0],[77.18621,28.72464,0.0],[77.19488,28.72052,0.0],[77.21435,28.71659,0.0],[77.21998,28.71471,0.0],[77.22092,28.70619,0.0],[77.21811,28.69858,0.0],[77.2141,28.69457,0.0],[77.20417,28.68848,0.0],[77.20159,28.68745,0.0],[77.19224,28.68892,0.0],[77.18702,28.68883,0.0],[77.18254,28.68941,0.0],[77.17822,28.68243,0.0],[77.17659,28.67255,0.0],[77.17093,28.66833,0.0]]]]}},{"type":"Feature","properties":{"uesi_id":"IND_R1942586","nbhd_code":"IND_R1942586_005","nbhd_name":"New Delhi"},"geometry":{"type":"MultiPolygon","coordinates":[[[[77.26042,28.62286,0.0],[77.26267,28.62114,0.0],[77.26273,28.61851,0.0],[77.26245,28.61456,0.0],[77.26445,28.60802,0.0],[77.26455,28.60747,0.0],[77.25887,28.60792,0.0],[77.24663,28.60574,0.0],[77.2298,28.59198,0.0],[77.22572,28.59158,0.0],[77.2129,28.58182,0.0],[77.21301,28.57689,0.0],[77.20139,28.58063,0.0],[77.19466,28.58183,0.0],[77.18266,28.58523,0.0],[77.17701,28.58842,0.0],[77.17354,28.59329,0.0],[77.17233,28.59754,0.0],[77.17229,28.59951,0.0],[77.18672,28.62564,0.0],[77.1877,28.62608,0.0],[77.19054,28.63237,0.0],[77.19679,28.63577,0.0],[77.20081,28.63912,0.0],[77.22051,28.64111,0.0],[77.23218,28.63573,0.0],[77.23747,28.6322,0.0],[77.24232,28.63196,0.0],[77.25705,28.62268,0.0],[77.26042,28.62286,0.0]]]]}},{"type":"Feature","properties":{"uesi_id":"IND_R1942586","nbhd_code":"IND_R1942586_009","nbhd_name":"South"},"geometry":{"type":"MultiPolygon","coordinates":[[[[77.26455,28.60747,0.0],[77.26558,28.60738,0.0],[77.27133,28.60025,0.0],[77.27586,28.59737,0.0],[77.27671,28.59245,0.0],[77.2835,28.5883,0.0],[77.28989,28.58578,0.0],[77.29593,28.58194,0.0],[77.30482,28.57678,0.0],[77.30363,28.57426,0.0],[77.30376,28.56126,0.0],[77.30514,28.55573,0.0],[77.31301,28.54497,0.0],[77.31439,28.54375,0.0],[77.32063,28.53821,0.0],[77.32483,28.536,0.0],[77.33145,28.53036,0.0],[77.3365,28.52376,0.0],[77.34044,28.51859,0.0],[77.34292,28.51616,0.0],[77.3439,28.5152,0.0],[77.34415,28.51475,0.0],[77.34676,28.51017,0.0],[77.34765,28.50346,0.0],[77.34437,28.50558,0.0],[77.3389,28.50282,0.0],[77.33657,28.49796,0.0],[77.33159,28.49388,0.0],[77.32475,28.48907,0.0],[77.31673,28.48519,0.0],[77.3108,28.48463,0.0],[77.30612,28.48567,0.0],[77.29564,28.4908,0.0],[77.2879,28.49268,0.0],[77.28096,28.49156,0.0],[77.26991,28.48297,0.0],[77.26379,28.48009,0.0],[77.25244,28.47915,0.0],[77.24652,28.47424,0.0],[77.24218,28.47035,0.0],[77.23738,28.46431,0.0],[77.2355,28.45857,0.0],[77.23618,28.45482,0.0],[77.24286,28.45401,0.0],[77.24962,28.44816,0.0],[77.25303,28.44204,0.0],[77.25403,28.43621,0.0],[77.25291,28.42822,0.0],[77.25034,28.4234,0.0],[77.23243,28.41352,0.0],[77.22498,28.4103,0.0],[77.21556,28.40796,0.0],[77.20487,28.4071,0.0],[77.18913,28.40696,0.0],[77.17538,28.40305,0.0],[77.16398,28.4159,0.0],[77.1615,28.42292,0.0],[77.15205,28.43033,0.0],[77.14103,28.43333,0.0],[77.13371,28.43386,0.0],[77.12793,28.43706,0.0],[77.12215,28.44488,0.0],[77.11839,28.452,0.0],[77.1157,28.46054,0.0],[77.11241,28.4651,0.0],[77.1112,28.47113,0.0],[77.11302,28.47777,0.0],[77.11505,28.48279,0.0],[77.11541,28.48279,0.0],[77.12099,28.4829,0.0],[77.12727,28.48465,0.0],[77.13466,28.48676,0.0],[77.14314,28.49053,0.0],[77.15298,28.49925,0.0],[77.16877,28.5084,0.0],[77.17862,28.51745,0.0],[77.18112,28.52177,0.0],[77.18108,28.52374,0.0],[77.18062,28.52768,0.0],[77.18719,28.53338,0.0],[77.19082,28.53739,0.0],[77.19075,28.54035,0.0],[77.18993,28.54395,0.0],[77.1902,28.54823,0.0],[77.19599,28.55556,0.0],[77.19922,28.5612,0.0],[77.21397,28.56738,0.0],[77.21379,28.57526,0.0],[77.21301,28.57689,0.0],[77.2129,28.58182,0.0],[77.22572,28.59158,0.0],[77.2298,28.59198,0.0],[77.24663,28.60574,0.0],[77.25887,28.60792,0.0],[77.26455,28.60747,0.0]]]]}},{"type":"Feature","properties":{"uesi_id":"IND_R1942586","nbhd_code":"IND_R1942586_008","nbhd_name":"South West"},"geometry":{"type":"MultiPolygon","coordinates":[[[[77.18253,28.64817,0.0],[77.1838,28.64638,0.0],[77.18327,28.64053,0.0],[77.18078,28.63348,0.0],[77.18082,28.63172,0.0],[77.18691,28.62599,0.0],[77.18672,28.62564,0.0],[77.17229,28.59951,0.0],[77.17233,28.59754,0.0],[77.17354,28.59329,0.0],[77.17701,28.58842,0.0],[77.18266,28.58523,0.0],[77.19466,28.58183,0.0],[77.20139,28.58063,0.0],[77.21301,28.57689,0.0],[77.21379,28.57526,0.0],[77.21397,28.56738,0.0],[77.19922,28.5612,0.0],[77.19599,28.55556,0.0],[77.1902,28.54823,0.0],[77.18993,28.54395,0.0],[77.19075,28.54035,0.0],[77.19082,28.53739,0.0],[77.18719,28.53338,0.0],[77.18062,28.52768,0.0],[77.18108,28.52374,0.0],[77.18112,28.52177,0.0],[77.17862,28.51745,0.0],[77.16877,28.5084,0.0],[77.15298,28.49925,0.0],[77.14314,28.49053,0.0],[77.13466,28.48676,0.0],[77.12727,28.48465,0.0],[77.12099,28.4829,0.0],[77.11541,28.48279,0.0],[77.11505,28.48279,0.0],[77.11738,28.48852,0.0],[77.11321,28.49212,0.0],[77.10002,28.50012,0.0],[77.09568,28.50554,0.0],[77.08219,28.51497,0.0],[77.07717,28.51534,0.0],[77.06664,28.50857,0.0],[77.05845,28.50995,0.0],[77.05134,28.51368,0.0],[77.04284,28.52307,0.0],[77.02931,28.52801,0.0],[77.02534,28.52807,0.0],[77.01578,28.53752,0.0],[77.00989,28.53676,0.0],[77.00562,28.53166,0.0],[77.00787,28.5269,0.0],[77.01466,28.52348,0.0],[77.02105,28.51885,0.0],[77.02059,28.51277,0.0],[77.01519,28.50919,0.0],[76.99991,28.51454,0.0],[76.98617,28.51858,0.0],[76.9781,28.52235,0.0],[76.95422,28.50843,0.0],[76.9428,28.51085,0.0],[76.93223,28.51408,0.0],[76.91802,28.50974,0.0],[76.907,28.51261,0.0],[76.90327,28.51099,0.0],[76.89634,28.50608,0.0],[76.88889,28.50391,0.0],[76.88333,28.50925,0.0],[76.88899,28.51885,0.0],[76.88586,28.52326,0.0],[76.86877,28.5368,0.0],[76.86631,28.5427,0.0],[76.84717,28.5519,0.0],[76.84251,28.57742,0.0],[76.84464,28.58632,0.0],[76.85986,28.58502,0.0],[76.86445,28.58725,0.0],[76.87056,28.59741,0.0],[76.88766,28.63253,0.0],[76.90341,28.62762,0.0],[76.90701,28.62767,0.0],[76.91375,28.63281,0.0],[76.9201,28.63269,0.0],[76.93341,28.6235,0.0],[76.93572,28.6241,0.0],[76.94367,28.63249,0.0],[76.92798,28.64813,0.0],[76.92728,28.65213,0.0],[76.93292,28.66408,0.0],[76.93955,28.66928,0.0],[76.95208,28.66994,0.0],[76.95219,28.6655,0.0],[76.95757,28.6621,0.0],[76.96283,28.66395,0.0],[76.96883,28.66231,0.0],[76.97892,28.65608,0.0],[76.98828,28.65216,0.0],[76.997,28.64765,0.0],[77.00385,28.63843,0.0],[77.00793,28.63384,0.0],[77.012,28.62982,0.0],[77.01996,28.62939,0.0],[77.02531,28.62715,0.0],[77.02868,28.62488,0.0],[77.03408,28.6203,0.0],[77.03686,28.6151,0.0],[77.03824,28.61278,0.0],[77.05478,28.61309,0.0],[77.06064,28.61729,0.0],[77.07585,28.61815,0.0],[77.08578,28.61833,0.0],[77.09174,28.61844,0.0],[77.10777,28.61231,0.0],[77.11304,28.61357,0.0],[77.12017,28.62013,0.0],[77.13048,28.63258,0.0],[77.13838,28.63448,0.0],[77.14426,28.63809,0.0],[77.15208,28.64348,0.0],[77.16397,28.64486,0.0],[77.17253,28.64677,0.0],[77.18175,28.64927,0.0],[77.18253,28.64817,0.0]]]]}},{"type":"Feature","properties":{"uesi_id":"IND_R1942586","nbhd_code":"IND_R1942586_007","nbhd_name":"West"},"geometry":{"type":"MultiPolygon","coordinates":[[[[77.17093,28.66833,0.0],[77.17072,28.66817,0.0],[77.1675,28.66253,0.0],[77.1713,28.65898,0.0],[77.17284,28.65703,0.0],[77.18586,28.65792,0.0],[77.18588,28.65785,0.0],[77.18707,28.65367,0.0],[77.18825,28.65106,0.0],[77.18253,28.64817,0.0],[77.18175,28.64927,0.0],[77.17253,28.64677,0.0],[77.16397,28.64486,0.0],[77.15208,28.64348,0.0],[77.14426,28.63809,0.0],[77.13838,28.63448,0.0],[77.13048,28.63258,0.0],[77.12017,28.62013,0.0],[77.11304,28.61357,0.0],[77.10777,28.61231,0.0],[77.09174,28.61844,0.0],[77.08578,28.61833,0.0],[77.07585,28.61815,0.0],[77.06064,28.61729,0.0],[77.05478,28.61309,0.0],[77.03824,28.61278,0.0],[77.03686,28.6151,0.0],[77.03408,28.6203,0.0],[77.02868,28.62488,0.0],[77.02531,28.62715,0.0],[77.01996,28.62939,0.0],[77.012,28.62982,0.0],[77.00793,28.63384,0.0],[77.00385,28.63843,0.0],[76.997,28.64765,0.0],[76.98828,28.65216,0.0],[76.97892,28.65608,0.0],[76.96883,28.66231,0.0],[76.96283,28.66395,0.0],[76.95757,28.6621,0.0],[76.95219,28.6655,0.0],[76.95208,28.66994,0.0],[76.95239,28.66996,0.0],[76.9571,28.67201,0.0],[76.9558,28.67833,0.0],[76.95824,28.68283,0.0],[76.95988,28.68898,0.0],[76.96372,28.69481,0.0],[76.97816,28.69553,0.0],[76.99864,28.68113,0.0],[77.0109,28.68235,0.0],[77.026,28.68986,0.0],[77.04472,28.68659,0.0],[77.05813,28.68684,0.0],[77.0638,28.68333,0.0],[77.07153,28.68742,0.0],[77.07606,28.68487,0.0],[77.07976,28.68592,0.0],[77.08623,28.68045,0.0],[77.09836,28.68758,0.0],[77.11127,28.67697,0.0],[77.11951,28.67514,0.0],[77.15266,28.67607,0.0],[77.15494,28.67381,0.0],[77.16689,28.67303,0.0],[77.17093,28.66833,0.0]]]]}}]}