{"type":"FeatureCollection","name":"ITA_R44830","crs":{"type":"name","properties":{"name":"urn:ogc:def:crs:OGC:1.3:CRS84"}},"features":[{"type":"Feature","properties":{"nbhd_name":"Centro Storico","uesi_id":"ITA_R44830","nbhd_code":"ITA_R44830_2"},"geometry":{"type":"MultiPolygon","coordinates":[[[[11.00886,45.45482],[11.00904,45.45461],[11.00937,45.45469],[11.00956,45.45475],[11.00973,45.4548],[11.01018,45.45492],[11.00991,45.45413],[11.00981,45.45391],[11.00935,45.45388],[11.00938,45.4532],[11.00942,45.45294],[11.00947,45.4528],[11.00959,45.45253],[11.00969,45.45229],[11.00995,45.45182],[11.01015,45.45147],[11.01024,45.45134],[11.0103,45.45135],[11.01036,45.45136],[11.01041,45.45137],[11.01047,45.45136],[11.01053,45.45134],[11.01061,45.45128],[11.01063,45.45122],[11.01063,45.45117],[11.01061,45.45111],[11.01057,45.45108],[11.01052,45.45105],[11.01046,45.45103],[11.0104,45.45102],[11.01035,45.45102],[11.01014,45.44993],[11.00997,45.4489],[11.00982,45.44815],[11.00976,45.44796],[11.00958,45.44759],[11.00935,45.44711],[11.00913,45.44664],[11.00895,45.44617],[11.00874,45.44567],[11.00869,45.44548],[11.00871,45.44526],[11.00876,45.44486],[11.00881,45.44463],[11.00881,45.44458],[11.00889,45.4438],[11.0089,45.44374],[11.00926,45.44322],[11.00931,45.4432],[11.00944,45.44302],[11.00938,45.443],[11.00965,45.44262],[11.00973,45.4426],[11.00979,45.44257],[11.00985,45.44255],[11.01087,45.44229],[11.01155,45.44211],[11.01199,45.44199],[11.01225,45.44192],[11.0127,45.44186],[11.01378,45.44174],[11.01417,45.4417],[11.01487,45.44162],[11.01492,45.44177],[11.01528,45.4418],[11.01546,45.4418],[11.01564,45.44173],[11.01571,45.44167],[11.01575,45.44158],[11.01574,45.44148],[11.01568,45.44134],[11.01558,45.4411],[11.01522,45.44109],[11.01511,45.44074],[11.01498,45.4403],[11.01477,45.43962],[11.01467,45.4393],[11.01469,45.43928],[11.01466,45.43891],[11.01466,45.43877],[11.01467,45.43851],[11.01471,45.43814],[11.01496,45.4379],[11.015,45.43767],[11.01503,45.43751],[11.01506,45.43734],[11.01498,45.43723],[11.01479,45.43697],[11.01467,45.43687],[11.01451,45.43674],[11.01432,45.43658],[11.01396,45.43637],[11.01298,45.43593],[11.01168,45.43536],[11.01087,45.43472],[11.01028,45.43423],[11.00966,45.43381],[11.0093,45.43367],[11.00905,45.43367],[11.00894,45.43369],[11.00874,45.43372],[11.00797,45.43412],[11.00776,45.43423],[11.00753,45.43436],[11.00732,45.43448],[11.00715,45.43458],[11.00694,45.43469],[11.00678,45.43479],[11.00654,45.43492],[11.0062,45.43512],[11.00597,45.43525],[11.00574,45.43532],[11.00556,45.43538],[11.0052,45.43539],[11.00466,45.43542],[11.00419,45.43543],[11.00141,45.43565],[11.00064,45.4357],[11.00028,45.43496],[11.00011,45.43463],[10.9997,45.43388],[10.99953,45.43356],[10.99867,45.43214],[10.9982,45.43153],[10.99781,45.43101],[10.99736,45.43031],[10.99707,45.42986],[10.99518,45.42719],[10.99448,45.42753],[10.99382,45.42785],[10.99361,45.42795],[10.99329,45.4281],[10.99292,45.42827],[10.99253,45.42845],[10.99208,45.42866],[10.99173,45.42881],[10.99152,45.42887],[10.99133,45.42894],[10.99113,45.429],[10.99062,45.42912],[10.99028,45.4292],[10.98987,45.42926],[10.98945,45.4293],[10.98903,45.4293],[10.98864,45.42928],[10.98814,45.42927],[10.98777,45.42927],[10.98715,45.42925],[10.98764,45.4302],[10.98774,45.43059],[10.9876,45.43078],[10.98762,45.43129],[10.98738,45.43129],[10.98635,45.43141],[10.98622,45.43111],[10.98637,45.43107],[10.98641,45.43102],[10.98643,45.43098],[10.98642,45.43094],[10.98638,45.43091],[10.98631,45.43088],[10.98507,45.43085],[10.98497,45.43086],[10.98488,45.43091],[10.98401,45.43159],[10.98399,45.43163],[10.984,45.43168],[10.98403,45.43171],[10.98407,45.43173],[10.98412,45.43174],[10.98418,45.43173],[10.9843,45.43169],[10.98448,45.43197],[10.98378,45.43231],[10.98295,45.43269],[10.98281,45.43259],[10.98201,45.43296],[10.98172,45.43275],[10.98183,45.43268],[10.98185,45.43259],[10.98178,45.43254],[10.98171,45.43253],[10.98147,45.43258],[10.98034,45.43283],[10.98029,45.43274],[10.98017,45.43278],[10.98013,45.43281],[10.98009,45.43291],[10.98023,45.43293],[10.98004,45.43392],[10.9801,45.434],[10.98021,45.43402],[10.98029,45.43397],[10.98036,45.43391],[10.9807,45.43408],[10.98041,45.43451],[10.98007,45.435],[10.97974,45.43489],[10.97943,45.4349],[10.97918,45.43501],[10.97917,45.43523],[10.97945,45.4355],[10.97971,45.43558],[10.97834,45.43725],[10.97793,45.43716],[10.97798,45.43705],[10.97797,45.43701],[10.97794,45.43698],[10.97781,45.43694],[10.9777,45.43698],[10.9771,45.43756],[10.97698,45.43751],[10.97691,45.43758],[10.97687,45.43764],[10.97685,45.4377],[10.97699,45.43774],[10.9768,45.43832],[10.97677,45.43844],[10.97679,45.43849],[10.97685,45.43853],[10.9769,45.43854],[10.97694,45.43854],[10.97699,45.43853],[10.97703,45.4385],[10.97709,45.43845],[10.97753,45.43866],[10.97584,45.44119],[10.97541,45.44111],[10.97544,45.44105],[10.97545,45.44099],[10.97542,45.44094],[10.97538,45.44093],[10.97529,45.44091],[10.97524,45.44091],[10.97518,45.44094],[10.9745,45.44164],[10.97437,45.4416],[10.97429,45.44168],[10.9743,45.4418],[10.97444,45.4418],[10.97453,45.44246],[10.97519,45.44259],[10.97525,45.44269],[10.97523,45.44282],[10.97498,45.44559],[10.9745,45.44561],[10.9745,45.44554],[10.97446,45.44547],[10.97439,45.44544],[10.97434,45.44544],[10.97426,45.44546],[10.9742,45.44549],[10.97378,45.44672],[10.97363,45.4467],[10.97359,45.44683],[10.9736,45.44687],[10.97368,45.4469],[10.97384,45.44693],[10.97387,45.44683],[10.97564,45.447],[10.97571,45.44698],[10.97577,45.44691],[10.97575,45.44684],[10.97569,45.4468],[10.9756,45.44676],[10.97583,45.44648],[10.97786,45.44703],[10.97869,45.44725],[10.97914,45.44737],[10.97901,45.44765],[10.97996,45.44797],[10.98018,45.44723],[10.97979,45.44716],[10.9802,45.4461],[10.98044,45.44563],[10.98069,45.4452],[10.9808,45.44493],[10.98109,45.4446],[10.98112,45.44447],[10.98115,45.44435],[10.982,45.44453],[10.98211,45.44396],[10.98228,45.44341],[10.98267,45.44278],[10.98335,45.44207],[10.98392,45.44156],[10.98413,45.44136],[10.98438,45.44115],[10.98467,45.44096],[10.9848,45.44087],[10.98516,45.44064],[10.98534,45.44058],[10.98548,45.44054],[10.9856,45.4405],[10.98595,45.44039],[10.98614,45.44039],[10.98644,45.44038],[10.98679,45.44037],[10.98704,45.44042],[10.98724,45.44046],[10.98758,45.44052],[10.98789,45.44058],[10.98808,45.44066],[10.98834,45.44076],[10.98872,45.44092],[10.98915,45.44111],[10.98945,45.44132],[10.98973,45.44151],[10.9901,45.44176],[10.99051,45.44209],[10.99076,45.44229],[10.99101,45.4425],[10.99141,45.44292],[10.99162,45.44315],[10.99198,45.44368],[10.99243,45.44445],[10.99248,45.44454],[10.99292,45.44525],[10.99334,45.44592],[10.99384,45.44667],[10.99416,45.44692],[10.99436,45.44706],[10.99448,45.44714],[10.99475,45.44731],[10.99436,45.44767],[10.99418,45.44784],[10.99403,45.44798],[10.99399,45.44808],[10.99399,45.44813],[10.99399,45.4482],[10.99403,45.44831],[10.9941,45.44838],[10.99419,45.44844],[10.9951,45.4487],[10.99498,45.44905],[10.99497,45.44911],[10.99486,45.44913],[10.99479,45.44915],[10.99475,45.44918],[10.9947,45.44922],[10.99465,45.44926],[10.99463,45.4493],[10.99463,45.44934],[10.99464,45.44943],[10.99469,45.44949],[10.99474,45.44954],[10.99481,45.44957],[10.9949,45.44959],[10.99502,45.44959],[10.9951,45.44958],[10.99519,45.44953],[10.99525,45.44948],[10.99664,45.44994],[10.99682,45.44996],[10.9971,45.45],[10.99711,45.44997],[10.99841,45.45046],[10.99832,45.45057],[10.9983,45.45062],[10.99829,45.45068],[10.9983,45.45073],[10.99833,45.45077],[10.99838,45.45082],[10.99844,45.45086],[10.99853,45.45089],[10.99863,45.45091],[10.99873,45.45089],[10.99881,45.45087],[10.99887,45.45084],[10.99892,45.45079],[10.99895,45.45075],[10.99897,45.45071],[10.99899,45.4506],[11.00076,45.45049],[11.00092,45.45049],[11.00102,45.45048],[11.00102,45.45051],[11.00112,45.4505],[11.00111,45.45047],[11.00235,45.45039],[11.00246,45.45039],[11.00258,45.45036],[11.00344,45.4503],[11.0034,45.45049],[11.0034,45.45055],[11.00346,45.45059],[11.00353,45.45058],[11.00357,45.45056],[11.00359,45.45052],[11.00362,45.45044],[11.00364,45.45037],[11.00418,45.45065],[11.00454,45.45094],[11.00457,45.45096],[11.00454,45.45098],[11.00463,45.45103],[11.00522,45.45148],[11.00531,45.45155],[11.00539,45.45161],[11.00547,45.45168],[11.00566,45.45183],[11.00622,45.45208],[11.00657,45.45225],[11.00673,45.45232],[11.00686,45.4524],[11.00704,45.45252],[11.00748,45.45253],[11.00785,45.45297],[11.00819,45.45335],[11.00836,45.45355],[11.00815,45.454],[11.00804,45.45432],[11.00791,45.45467],[11.00805,45.45509],[11.00823,45.45554],[11.00854,45.45518],[11.00886,45.45482]]]]}},{"type":"Feature","properties":{"nbhd_name":"Nord-Ovest","uesi_id":"ITA_R44830","nbhd_code":"ITA_R44830_3"},"geometry":{"type":"MultiPolygon","coordinates":[[[[10.98052,45.51265],[10.98123,45.51244],[10.98213,45.51246],[10.98252,45.51241],[10.98298,45.51234],[10.98386,45.51232],[10.98394,45.51144],[10.98382,45.5108],[10.98363,45.50997],[10.98361,45.50955],[10.98382,45.50957],[10.98453,45.50962],[10.98511,45.50957],[10.98593,45.5095],[10.98724,45.50938],[10.98907,45.5093],[10.99039,45.50934],[10.99095,45.5097],[10.99182,45.51023],[10.99252,45.51046],[10.99366,45.51065],[10.99471,45.51064],[10.99539,45.51063],[10.99594,45.51063],[10.9954,45.51195],[10.99641,45.51207],[10.99636,45.51012],[10.99634,45.51006],[10.99632,45.50998],[10.99633,45.5099],[10.99635,45.50983],[10.99637,45.50976],[10.99639,45.50969],[10.99639,45.50962],[10.99641,45.50957],[10.99647,45.50952],[10.99653,45.50946],[10.99655,45.50944],[10.99656,45.50937],[10.99657,45.5093],[10.9966,45.50923],[10.99664,45.50917],[10.99667,45.50911],[10.99671,45.50905],[10.99676,45.50899],[10.99679,45.50894],[10.9968,45.5089],[10.99681,45.50885],[10.99682,45.50878],[10.99684,45.50873],[10.99687,45.50866],[10.99689,45.50857],[10.99691,45.50849],[10.99693,45.50843],[10.99693,45.50836],[10.997,45.50829],[10.99704,45.50822],[10.99705,45.50819],[10.99704,45.50815],[10.99704,45.50808],[10.99701,45.50801],[10.99699,45.50793],[10.997,45.50788],[10.99713,45.50781],[10.99725,45.5078],[10.99733,45.50776],[10.99737,45.50771],[10.99741,45.50762],[10.99743,45.50757],[10.99746,45.50752],[10.99747,45.50747],[10.99749,45.50744],[10.99754,45.50737],[10.99758,45.50733],[10.9976,45.50728],[10.99763,45.50724],[10.99765,45.50717],[10.99765,45.5071],[10.99764,45.50707],[10.99762,45.50702],[10.99759,45.50696],[10.99753,45.50692],[10.99743,45.50684],[10.99739,45.50678],[10.99738,45.50674],[10.99739,45.50671],[10.99741,45.50666],[10.99745,45.50662],[10.99751,45.50657],[10.99756,45.50651],[10.9976,45.50647],[10.99762,45.50642],[10.99764,45.50638],[10.99766,45.50628],[10.99765,45.50624],[10.99762,45.50618],[10.99762,45.50614],[10.99763,45.50612],[10.99765,45.50606],[10.99768,45.50602],[10.99771,45.50598],[10.9978,45.50591],[10.99786,45.50586],[10.99791,45.50582],[10.99797,45.50574],[10.998,45.50566],[10.99799,45.50562],[10.99797,45.50558],[10.99788,45.50548],[10.99786,45.50542],[10.99785,45.50535],[10.99786,45.50529],[10.9979,45.50524],[10.99792,45.50519],[10.99793,45.50514],[10.99797,45.50509],[10.99803,45.50503],[10.9981,45.50499],[10.99818,45.50495],[10.99825,45.50492],[10.99833,45.50489],[10.99841,45.50485],[10.9985,45.50482],[10.99859,45.50479],[10.99864,45.50475],[10.9987,45.50471],[10.99879,45.50463],[10.99883,45.50457],[10.99886,45.50451],[10.99886,45.50445],[10.99886,45.5044],[10.99889,45.50435],[10.9989,45.50428],[10.99891,45.50423],[10.99892,45.50417],[10.99892,45.5041],[10.99891,45.50405],[10.99888,45.50399],[10.99886,45.50396],[10.99882,45.50388],[10.99883,45.50384],[10.99886,45.50378],[10.99886,45.50373],[10.99886,45.50367],[10.99889,45.50362],[10.99891,45.5036],[10.99895,45.50356],[10.99901,45.50351],[10.99909,45.50344],[10.99917,45.50338],[10.99921,45.50335],[10.9993,45.50328],[10.99942,45.50326],[10.9995,45.50325],[10.99961,45.50325],[10.99969,45.50323],[10.99982,45.50321],[10.99988,45.50318],[10.9999,45.50314],[10.99987,45.50309],[10.99983,45.50304],[10.99978,45.50298],[10.99973,45.50292],[10.9997,45.50285],[10.9997,45.50283],[10.99969,45.50277],[10.9997,45.50274],[10.99973,45.50264],[10.99977,45.50257],[10.99981,45.50252],[10.99982,45.50246],[10.99984,45.5024],[10.99985,45.50233],[10.99984,45.50227],[10.99985,45.50222],[10.99986,45.50217],[10.99987,45.50211],[10.99987,45.50207],[10.99989,45.50202],[10.99993,45.50196],[10.99997,45.50191],[11.00004,45.50184],[11.00008,45.50177],[11.00011,45.50167],[11.00012,45.50159],[11.00016,45.50152],[11.00021,45.50148],[11.00023,45.50142],[11.00025,45.5013],[11.00027,45.50118],[11.00027,45.50108],[11.00029,45.50095],[11.00032,45.50088],[11.00033,45.50085],[11.00035,45.50078],[11.00038,45.50074],[11.00038,45.50068],[11.00037,45.50061],[11.00038,45.50054],[11.0004,45.50047],[11.00043,45.50038],[11.00043,45.50029],[11.00042,45.50023],[11.00037,45.50015],[11.00031,45.5001],[11.00022,45.50004],[11.00013,45.49991],[11.00006,45.49984],[11.00004,45.49978],[11.00003,45.49968],[11.00003,45.49961],[11.00006,45.49955],[11.0001,45.49945],[11.00009,45.49938],[11.00018,45.49922],[11.00024,45.49915],[11.0003,45.49912],[11.00035,45.49909],[11.00032,45.499],[11.00029,45.49895],[11.00028,45.49891],[11.00026,45.49886],[11.00019,45.49882],[11.00014,45.4988],[11.00011,45.49876],[11.00012,45.49872],[11.00012,45.49869],[11.00012,45.49864],[11.0001,45.49859],[11.00004,45.49855],[11.00001,45.49853],[10.9999,45.49852],[10.9998,45.4985],[10.99975,45.49848],[10.99972,45.49844],[10.99972,45.49838],[10.99974,45.49833],[10.99975,45.49828],[10.99973,45.49821],[10.99972,45.49817],[10.99973,45.49812],[10.99976,45.49808],[10.99977,45.49805],[10.99978,45.49801],[10.99979,45.49797],[10.99978,45.49792],[10.99976,45.49786],[10.99973,45.49779],[10.99972,45.49774],[10.99968,45.49769],[10.99964,45.49768],[10.99961,45.49766],[10.99957,45.49765],[10.99952,45.49764],[10.9995,45.49759],[10.99948,45.49752],[10.99948,45.49744],[10.99949,45.49738],[10.99951,45.4973],[10.99955,45.49715],[10.99957,45.49705],[10.99958,45.49698],[10.99959,45.49693],[10.99961,45.49688],[10.99964,45.49684],[10.99966,45.49677],[10.99966,45.49669],[10.99965,45.49664],[10.99964,45.49661],[10.99964,45.49653],[10.99961,45.49647],[10.99959,45.49644],[10.99954,45.4964],[10.99946,45.49637],[10.99936,45.49633],[10.99927,45.4963],[10.99912,45.49624],[10.99902,45.49619],[10.99897,45.49616],[10.99892,45.49611],[10.99888,45.49605],[10.99884,45.49599],[10.99881,45.49591],[10.99879,45.49585],[10.99879,45.49581],[10.99881,45.49576],[10.99885,45.49573],[10.99891,45.4957],[10.999,45.49567],[10.99916,45.49562],[10.99923,45.4956],[10.9993,45.49557],[10.99933,45.49555],[10.99935,45.4955],[10.99934,45.49544],[10.99932,45.49539],[10.99929,45.49536],[10.99922,45.49528],[10.99916,45.49521],[10.9991,45.49513],[10.99905,45.49507],[10.99899,45.495],[10.99891,45.49492],[10.99883,45.49487],[10.99878,45.49483],[10.99873,45.49477],[10.9987,45.49473],[10.99867,45.49464],[10.99865,45.49456],[10.99863,45.49446],[10.99863,45.49433],[10.9986,45.49421],[10.99859,45.49412],[10.99856,45.49404],[10.99855,45.49399],[10.99849,45.49395],[10.9984,45.49393],[10.99835,45.49392],[10.99824,45.49391],[10.99818,45.49391],[10.99807,45.4939],[10.998,45.49389],[10.9979,45.49386],[10.99787,45.49382],[10.99785,45.49379],[10.99784,45.49374],[10.99783,45.49369],[10.99784,45.49361],[10.99787,45.49353],[10.99789,45.49347],[10.99793,45.49342],[10.99796,45.49339],[10.99802,45.49336],[10.99812,45.49332],[10.9982,45.49329],[10.99826,45.49327],[10.9983,45.49324],[10.99832,45.4932],[10.99831,45.49316],[10.9983,45.49311],[10.99826,45.49303],[10.99824,45.49295],[10.99822,45.49287],[10.9982,45.49275],[10.99817,45.49262],[10.99814,45.4925],[10.99812,45.49243],[10.9981,45.49238],[10.99808,45.49234],[10.99805,45.49232],[10.99799,45.49228],[10.99794,45.49225],[10.99785,45.49221],[10.9978,45.49219],[10.99774,45.49218],[10.99767,45.49215],[10.99763,45.49214],[10.99755,45.49212],[10.99741,45.49205],[10.99718,45.49193],[10.99724,45.49193],[10.99728,45.49192],[10.99737,45.49195],[10.99743,45.49194],[10.99748,45.49193],[10.99754,45.4919],[10.99768,45.49177],[10.99782,45.4917],[10.99788,45.49168],[10.99796,45.49166],[10.99804,45.49165],[10.99813,45.49165],[10.99824,45.49166],[10.99834,45.49167],[10.9984,45.49169],[10.99845,45.4917],[10.99854,45.49172],[10.99861,45.49174],[10.99873,45.49175],[10.99879,45.49176],[10.99886,45.49175],[10.99896,45.49175],[10.99904,45.49174],[10.99912,45.49175],[10.99919,45.49176],[10.99924,45.49178],[10.99929,45.49181],[10.99934,45.49182],[10.99944,45.49181],[10.99953,45.49179],[10.99958,45.49178],[10.99965,45.49177],[10.99977,45.49174],[10.99983,45.49173],[10.9999,45.49173],[11.0,45.4918],[11.00011,45.4919],[11.00023,45.49198],[11.00035,45.49204],[11.00045,45.49209],[11.00054,45.49214],[11.00064,45.49218],[11.00075,45.49222],[11.00089,45.4923],[11.00101,45.49237],[11.00121,45.49246],[11.00141,45.49252],[11.00158,45.49256],[11.00178,45.49261],[11.00188,45.49267],[11.00202,45.49272],[11.00212,45.49281],[11.0026,45.4926],[11.00281,45.49251],[11.003,45.4924],[11.00314,45.4923],[11.00334,45.49213],[11.00339,45.49209],[11.00384,45.49122],[11.00403,45.49115],[11.00422,45.49111],[11.00441,45.49109],[11.00455,45.4911],[11.00478,45.49115],[11.00491,45.49117],[11.00493,45.49113],[11.00533,45.49064],[11.00547,45.49049],[11.00565,45.49023],[11.00569,45.49008],[11.0057,45.49],[11.0057,45.4896],[11.00571,45.48945],[11.00573,45.48922],[11.00577,45.48893],[11.00579,45.48864],[11.00576,45.48829],[11.00579,45.48801],[11.00576,45.48786],[11.00566,45.48768],[11.00547,45.4875],[11.00531,45.48745],[11.00522,45.4874],[11.00501,45.48718],[11.00493,45.48706],[11.00502,45.48701],[11.00495,45.48687],[11.00479,45.48682],[11.00452,45.48677],[11.00458,45.48658],[11.00469,45.48634],[11.005,45.48565],[11.00515,45.48529],[11.00521,45.48514],[11.00528,45.48501],[11.00536,45.48492],[11.00551,45.48482],[11.00572,45.4847],[11.00616,45.48454],[11.00658,45.48444],[11.00686,45.48439],[11.00699,45.48434],[11.00711,45.48424],[11.00724,45.48402],[11.00728,45.48397],[11.00745,45.48376],[11.00759,45.4836],[11.00764,45.4835],[11.00765,45.48333],[11.00759,45.48307],[11.00746,45.48272],[11.00747,45.48254],[11.00761,45.48217],[11.00772,45.48218],[11.00786,45.48233],[11.00793,45.48243],[11.00802,45.48252],[11.00812,45.48253],[11.00835,45.48244],[11.00861,45.48234],[11.00863,45.48228],[11.00883,45.48214],[11.00949,45.48193],[11.00978,45.48178],[11.00981,45.48171],[11.00983,45.48158],[11.00998,45.48143],[11.0103,45.48121],[11.01062,45.48102],[11.01073,45.48093],[11.01083,45.48082],[11.01089,45.48071],[11.01101,45.48057],[11.01119,45.48027],[11.01142,45.4799],[11.01144,45.47983],[11.01139,45.47976],[11.01136,45.47967],[11.01133,45.4795],[11.01131,45.47921],[11.01131,45.47897],[11.01134,45.4789],[11.01132,45.47869],[11.01129,45.47852],[11.01126,45.47808],[11.01122,45.47794],[11.01114,45.47785],[11.01109,45.47782],[11.011,45.47781],[11.01094,45.47774],[11.01069,45.47725],[11.01048,45.47683],[11.01039,45.4766],[11.01032,45.47635],[11.01031,45.4762],[11.0103,45.47601],[11.01032,45.47584],[11.01038,45.47559],[11.01039,45.47544],[11.01035,45.47523],[11.01038,45.47511],[11.01041,45.475],[11.01044,45.47483],[11.01041,45.47466],[11.01027,45.47444],[11.01014,45.47424],[11.01007,45.47412],[11.01016,45.4736],[11.01005,45.47244],[11.00996,45.47133],[11.01012,45.46942],[11.01047,45.46758],[11.01114,45.46747],[11.01079,45.46656],[11.01066,45.46593],[11.01064,45.46503],[11.01049,45.46317],[11.01041,45.46199],[11.0101,45.46129],[11.00972,45.46021],[11.00967,45.45949],[11.00964,45.45875],[11.00994,45.45678],[11.00987,45.45572],[11.00978,45.45525],[11.00973,45.4548],[11.00956,45.45475],[11.00937,45.45469],[11.00904,45.45461],[11.00886,45.45482],[11.00854,45.45518],[11.00823,45.45554],[11.00805,45.45509],[11.00791,45.45467],[11.00804,45.45432],[11.00815,45.454],[11.00836,45.45355],[11.00819,45.45335],[11.00785,45.45297],[11.00748,45.45253],[11.00704,45.45252],[11.00686,45.4524],[11.00673,45.45232],[11.00657,45.45225],[11.00622,45.45208],[11.00566,45.45183],[11.00547,45.45168],[11.00539,45.45161],[11.00531,45.45155],[11.00522,45.45148],[11.00463,45.45103],[11.00454,45.45098],[11.00457,45.45096],[11.00454,45.45094],[11.00418,45.45065],[11.00364,45.45037],[11.00362,45.45044],[11.00359,45.45052],[11.00357,45.45056],[11.00353,45.45058],[11.00346,45.45059],[11.0034,45.45055],[11.0034,45.45049],[11.00344,45.4503],[11.00258,45.45036],[11.00246,45.45039],[11.00235,45.45039],[11.00111,45.45047],[11.00112,45.4505],[11.00102,45.45051],[11.00102,45.45048],[11.00092,45.45049],[11.00076,45.45049],[10.99899,45.4506],[10.99897,45.45071],[10.99895,45.45075],[10.99892,45.45079],[10.99887,45.45084],[10.99881,45.45087],[10.99873,45.45089],[10.99863,45.45091],[10.99853,45.45089],[10.99844,45.45086],[10.99838,45.45082],[10.99833,45.45077],[10.9983,45.45073],[10.99829,45.45068],[10.9983,45.45062],[10.99832,45.45057],[10.99841,45.45046],[10.99711,45.44997],[10.9971,45.45],[10.99682,45.44996],[10.99664,45.44994],[10.99525,45.44948],[10.99519,45.44953],[10.9951,45.44958],[10.99502,45.44959],[10.9949,45.44959],[10.99481,45.44957],[10.99474,45.44954],[10.99469,45.44949],[10.99464,45.44943],[10.99463,45.44934],[10.99463,45.4493],[10.99465,45.44926],[10.9947,45.44922],[10.99475,45.44918],[10.99479,45.44915],[10.99486,45.44913],[10.99497,45.44911],[10.99498,45.44905],[10.9951,45.4487],[10.99419,45.44844],[10.9941,45.44838],[10.99403,45.44831],[10.99399,45.4482],[10.99399,45.44813],[10.99399,45.44808],[10.99403,45.44798],[10.99418,45.44784],[10.99436,45.44767],[10.99475,45.44731],[10.99448,45.44714],[10.99436,45.44706],[10.99416,45.44692],[10.99384,45.44667],[10.99334,45.44592],[10.99292,45.44525],[10.99248,45.44454],[10.99243,45.44445],[10.99198,45.44368],[10.99162,45.44315],[10.99141,45.44292],[10.99101,45.4425],[10.99076,45.44229],[10.99051,45.44209],[10.9901,45.44176],[10.98973,45.44151],[10.98945,45.44132],[10.98915,45.44111],[10.98872,45.44092],[10.98834,45.44076],[10.98808,45.44066],[10.98789,45.44058],[10.98758,45.44052],[10.98724,45.44046],[10.98704,45.44042],[10.98679,45.44037],[10.98644,45.44038],[10.98614,45.44039],[10.98595,45.44039],[10.9856,45.4405],[10.98548,45.44054],[10.98534,45.44058],[10.98516,45.44064],[10.9848,45.44087],[10.98467,45.44096],[10.98438,45.44115],[10.98413,45.44136],[10.98392,45.44156],[10.98335,45.44207],[10.98267,45.44278],[10.98228,45.44341],[10.98211,45.44396],[10.982,45.44453],[10.98196,45.44474],[10.98203,45.44534],[10.98212,45.44572],[10.98234,45.44645],[10.98252,45.44699],[10.98254,45.44712],[10.98256,45.4475],[10.98257,45.44813],[10.98259,45.44861],[10.98253,45.44893],[10.98247,45.44924],[10.98242,45.44954],[10.98237,45.44982],[10.98226,45.45024],[10.9822,45.45046],[10.98178,45.45119],[10.98156,45.45149],[10.98139,45.45171],[10.98099,45.45224],[10.9809,45.45237],[10.98063,45.45262],[10.98043,45.45281],[10.98007,45.45301],[10.97976,45.45318],[10.97933,45.4534],[10.97892,45.45361],[10.97833,45.45399],[10.97795,45.45424],[10.9777,45.4544],[10.9771,45.45473],[10.97622,45.45517],[10.97486,45.45578],[10.97468,45.45583],[10.97439,45.45591],[10.97413,45.45598],[10.9738,45.45609],[10.97329,45.45626],[10.97303,45.45634],[10.97283,45.45641],[10.97186,45.45664],[10.97159,45.45668],[10.971,45.45678],[10.97005,45.45693],[10.96761,45.45725],[10.9667,45.45725],[10.9648,45.45748],[10.96285,45.45779],[10.9603,45.45822],[10.95896,45.45842],[10.95734,45.45857],[10.95649,45.45861],[10.95462,45.45871],[10.95404,45.45872],[10.95349,45.45886],[10.95286,45.4591],[10.95228,45.45935],[10.95138,45.4598],[10.95072,45.45998],[10.9495,45.46011],[10.94621,45.46028],[10.94519,45.46033],[10.94384,45.46044],[10.94338,45.46056],[10.9426,45.46076],[10.94221,45.461],[10.94213,45.46107],[10.94119,45.46186],[10.9409,45.46218],[10.94059,45.46254],[10.94038,45.4628],[10.94027,45.46341],[10.94032,45.46374],[10.94044,45.46459],[10.9405,45.46474],[10.94053,45.46488],[10.94059,45.46501],[10.94067,45.46516],[10.94071,45.46529],[10.94099,45.46564],[10.94115,45.46584],[10.94193,45.46628],[10.94272,45.46659],[10.94395,45.46692],[10.94508,45.46735],[10.94613,45.46771],[10.94639,45.46785],[10.94669,45.46802],[10.94694,45.46821],[10.9472,45.46841],[10.94765,45.46879],[10.94775,45.46888],[10.94792,45.46912],[10.94815,45.46944],[10.94842,45.46981],[10.94864,45.47014],[10.9488,45.47039],[10.94896,45.47064],[10.9493,45.47124],[10.94948,45.47182],[10.94963,45.47229],[10.94965,45.47248],[10.94967,45.47269],[10.9497,45.47309],[10.94969,45.47358],[10.94957,45.47405],[10.9494,45.47439],[10.94927,45.47466],[10.94905,45.47498],[10.94868,45.47528],[10.94824,45.47556],[10.94783,45.47575],[10.94774,45.47576],[10.94733,45.47584],[10.94709,45.47581],[10.94681,45.47578],[10.9465,45.47573],[10.94589,45.47565],[10.94529,45.47563],[10.94456,45.4757],[10.94381,45.47574],[10.94291,45.47571],[10.94112,45.47588],[10.94078,45.47593],[10.93999,45.47603],[10.93954,45.47612],[10.9393,45.47616],[10.93877,45.47632],[10.93831,45.47652],[10.93743,45.47701],[10.93669,45.47743],[10.93619,45.47772],[10.93557,45.47809],[10.93418,45.47885],[10.93247,45.4796],[10.93119,45.48014],[10.93089,45.48045],[10.93085,45.48155],[10.93177,45.48124],[10.93309,45.48208],[10.93296,45.48268],[10.9337,45.48235],[10.93394,45.48243],[10.93493,45.48277],[10.93436,45.48422],[10.93603,45.48458],[10.93696,45.48412],[10.93814,45.48371],[10.94007,45.4831],[10.93915,45.48529],[10.94008,45.48548],[10.94079,45.48568],[10.94089,45.48573],[10.94098,45.48577],[10.94151,45.48603],[10.94165,45.48607],[10.94176,45.48609],[10.94216,45.48621],[10.94457,45.48679],[10.9448,45.48685],[10.94531,45.48698],[10.94569,45.48707],[10.94614,45.48715],[10.94654,45.48726],[10.94715,45.48742],[10.94737,45.48748],[10.94757,45.48752],[10.94859,45.48772],[10.95015,45.488],[10.95132,45.48827],[10.95202,45.4884],[10.95301,45.48864],[10.9534,45.48883],[10.95388,45.48868],[10.95425,45.48856],[10.95554,45.48816],[10.95656,45.48798],[10.95744,45.48808],[10.95759,45.48815],[10.95866,45.48867],[10.95941,45.4883],[10.95983,45.48846],[10.96036,45.48797],[10.96069,45.48828],[10.96066,45.48839],[10.96059,45.48867],[10.96039,45.48894],[10.95913,45.48937],[10.96091,45.49006],[10.96006,45.49148],[10.95997,45.49238],[10.95999,45.49313],[10.95991,45.49351],[10.96053,45.4944],[10.96143,45.49489],[10.96236,45.4954],[10.96318,45.49563],[10.96439,45.49595],[10.96524,45.49631],[10.96586,45.49663],[10.96614,45.49693],[10.96639,45.49753],[10.96674,45.49817],[10.96695,45.49839],[10.96664,45.49894],[10.96528,45.49811],[10.96504,45.49829],[10.96463,45.49795],[10.96404,45.49778],[10.96387,45.49806],[10.9641,45.49841],[10.96312,45.49893],[10.96343,45.49973],[10.96334,45.50017],[10.96411,45.50076],[10.9652,45.50146],[10.96545,45.50196],[10.96563,45.50255],[10.96577,45.50322],[10.96609,45.50375],[10.96672,45.5039],[10.9673,45.50387],[10.96777,45.50379],[10.96757,45.50461],[10.96739,45.50487],[10.96713,45.50525],[10.96674,45.50623],[10.96648,45.50727],[10.96629,45.5083],[10.9663,45.50848],[10.96633,45.50874],[10.96646,45.50927],[10.96652,45.50973],[10.96647,45.51015],[10.96636,45.51062],[10.96667,45.51062],[10.96761,45.51064],[10.9679,45.51112],[10.96801,45.51129],[10.96843,45.5118],[10.96878,45.5121],[10.96964,45.51185],[10.97085,45.51139],[10.97196,45.51077],[10.97254,45.51067],[10.97313,45.51078],[10.97364,45.511],[10.97412,45.51115],[10.97484,45.51113],[10.97536,45.51098],[10.97606,45.51091],[10.97647,45.51142],[10.97665,45.51215],[10.97696,45.51296],[10.97724,45.51355],[10.97762,45.51412],[10.97816,45.51431],[10.97908,45.51416],[10.97929,45.51389],[10.97924,45.51335],[10.97929,45.51281],[10.98052,45.51265]]]]}},{"type":"Feature","properties":{"nbhd_name":"Ovest","uesi_id":"ITA_R44830","nbhd_code":"ITA_R44830_4"},"geometry":{"type":"MultiPolygon","coordinates":[[[[10.94112,45.47588],[10.94291,45.47571],[10.94381,45.47574],[10.94456,45.4757],[10.94529,45.47563],[10.94589,45.47565],[10.9465,45.47573],[10.94681,45.47578],[10.94709,45.47581],[10.94733,45.47584],[10.94774,45.47576],[10.94783,45.47575],[10.94824,45.47556],[10.94868,45.47528],[10.94905,45.47498],[10.94927,45.47466],[10.9494,45.47439],[10.94957,45.47405],[10.94969,45.47358],[10.9497,45.47309],[10.94967,45.47269],[10.94965,45.47248],[10.94963,45.47229],[10.94948,45.47182],[10.9493,45.47124],[10.94896,45.47064],[10.9488,45.47039],[10.94864,45.47014],[10.94842,45.46981],[10.94815,45.46944],[10.94792,45.46912],[10.94775,45.46888],[10.94765,45.46879],[10.9472,45.46841],[10.94694,45.46821],[10.94669,45.46802],[10.94639,45.46785],[10.94613,45.46771],[10.94508,45.46735],[10.94395,45.46692],[10.94272,45.46659],[10.94193,45.46628],[10.94115,45.46584],[10.94099,45.46564],[10.94071,45.46529],[10.94067,45.46516],[10.94059,45.46501],[10.94053,45.46488],[10.9405,45.46474],[10.94044,45.46459],[10.94032,45.46374],[10.94027,45.46341],[10.94038,45.4628],[10.94059,45.46254],[10.9409,45.46218],[10.94119,45.46186],[10.94213,45.46107],[10.94221,45.461],[10.9426,45.46076],[10.94338,45.46056],[10.94384,45.46044],[10.94519,45.46033],[10.94621,45.46028],[10.9495,45.46011],[10.95072,45.45998],[10.95138,45.4598],[10.95228,45.45935],[10.95286,45.4591],[10.95349,45.45886],[10.95404,45.45872],[10.95462,45.45871],[10.95649,45.45861],[10.95734,45.45857],[10.95896,45.45842],[10.9603,45.45822],[10.96285,45.45779],[10.9648,45.45748],[10.9667,45.45725],[10.96761,45.45725],[10.97005,45.45693],[10.971,45.45678],[10.97159,45.45668],[10.97186,45.45664],[10.97283,45.45641],[10.97303,45.45634],[10.97329,45.45626],[10.9738,45.45609],[10.97413,45.45598],[10.97439,45.45591],[10.97468,45.45583],[10.97486,45.45578],[10.97622,45.45517],[10.9771,45.45473],[10.9777,45.4544],[10.97795,45.45424],[10.97833,45.45399],[10.97892,45.45361],[10.97933,45.4534],[10.97976,45.45318],[10.98007,45.45301],[10.98043,45.45281],[10.98063,45.45262],[10.9809,45.45237],[10.98099,45.45224],[10.98139,45.45171],[10.98156,45.45149],[10.98178,45.45119],[10.9822,45.45046],[10.98226,45.45024],[10.98237,45.44982],[10.98242,45.44954],[10.98247,45.44924],[10.98253,45.44893],[10.98259,45.44861],[10.98257,45.44813],[10.98256,45.4475],[10.98254,45.44712],[10.98252,45.44699],[10.98234,45.44645],[10.98212,45.44572],[10.98203,45.44534],[10.98196,45.44474],[10.982,45.44453],[10.98115,45.44435],[10.98112,45.44447],[10.98109,45.4446],[10.9808,45.44493],[10.98069,45.4452],[10.98044,45.44563],[10.9802,45.4461],[10.97979,45.44716],[10.98018,45.44723],[10.97996,45.44797],[10.97901,45.44765],[10.97914,45.44737],[10.97869,45.44725],[10.97786,45.44703],[10.97583,45.44648],[10.9756,45.44676],[10.97569,45.4468],[10.97575,45.44684],[10.97577,45.44691],[10.97571,45.44698],[10.97564,45.447],[10.97387,45.44683],[10.97384,45.44693],[10.97368,45.4469],[10.9736,45.44687],[10.97359,45.44683],[10.97363,45.4467],[10.97378,45.44672],[10.9742,45.44549],[10.97426,45.44546],[10.97434,45.44544],[10.97439,45.44544],[10.97446,45.44547],[10.9745,45.44554],[10.9745,45.44561],[10.97498,45.44559],[10.97523,45.44282],[10.97525,45.44269],[10.97519,45.44259],[10.97453,45.44246],[10.97444,45.4418],[10.9743,45.4418],[10.97429,45.44168],[10.97437,45.4416],[10.9745,45.44164],[10.97518,45.44094],[10.97524,45.44091],[10.97529,45.44091],[10.97538,45.44093],[10.97542,45.44094],[10.97545,45.44099],[10.97544,45.44105],[10.97541,45.44111],[10.97584,45.44119],[10.97753,45.43866],[10.97709,45.43845],[10.97703,45.4385],[10.97699,45.43853],[10.97694,45.43854],[10.9769,45.43854],[10.97685,45.43853],[10.97679,45.43849],[10.97677,45.43844],[10.9768,45.43832],[10.97699,45.43774],[10.97685,45.4377],[10.97687,45.43764],[10.97691,45.43758],[10.97698,45.43751],[10.9771,45.43756],[10.9777,45.43698],[10.97781,45.43694],[10.97794,45.43698],[10.97797,45.43701],[10.97798,45.43705],[10.97793,45.43716],[10.97834,45.43725],[10.97971,45.43558],[10.97945,45.4355],[10.97917,45.43523],[10.97918,45.43501],[10.97943,45.4349],[10.97974,45.43489],[10.98007,45.435],[10.98041,45.43451],[10.9807,45.43408],[10.98036,45.43391],[10.98029,45.43397],[10.98021,45.43402],[10.9801,45.434],[10.98004,45.43392],[10.98023,45.43293],[10.98009,45.43291],[10.98013,45.43281],[10.98017,45.43278],[10.98029,45.43274],[10.98034,45.43283],[10.98147,45.43258],[10.98171,45.43253],[10.98178,45.43254],[10.98185,45.43259],[10.98183,45.43268],[10.98172,45.43275],[10.98201,45.43296],[10.98281,45.43259],[10.98295,45.43269],[10.98378,45.43231],[10.98448,45.43197],[10.9843,45.43169],[10.98418,45.43173],[10.98412,45.43174],[10.98407,45.43173],[10.98403,45.43171],[10.984,45.43168],[10.98399,45.43163],[10.98401,45.43159],[10.98488,45.43091],[10.98497,45.43086],[10.98507,45.43085],[10.98631,45.43088],[10.98638,45.43091],[10.98642,45.43094],[10.98643,45.43098],[10.98641,45.43102],[10.98637,45.43107],[10.98622,45.43111],[10.98635,45.43141],[10.98738,45.43129],[10.98762,45.43129],[10.9876,45.43078],[10.98774,45.43059],[10.98764,45.4302],[10.98715,45.42925],[10.98692,45.42902],[10.98643,45.42875],[10.98622,45.42863],[10.98612,45.42856],[10.9856,45.42764],[10.98488,45.4264],[10.98422,45.42534],[10.98356,45.42439],[10.98326,45.42389],[10.98295,45.42324],[10.98162,45.42276],[10.9819,45.42254],[10.98164,45.42251],[10.98043,45.42255],[10.97922,45.42259],[10.9788,45.42259],[10.9775,45.42264],[10.97574,45.42269],[10.97576,45.42303],[10.97558,45.42309],[10.97545,45.42313],[10.97513,45.42322],[10.97414,45.42331],[10.97285,45.42335],[10.97285,45.42346],[10.97286,45.42357],[10.97193,45.4236],[10.96944,45.42367],[10.96897,45.42371],[10.96857,45.42372],[10.96738,45.42377],[10.96612,45.42369],[10.96541,45.42357],[10.96497,45.4236],[10.96477,45.42361],[10.96445,45.42362],[10.9635,45.42367],[10.96282,45.42374],[10.96243,45.42381],[10.9618,45.42396],[10.96154,45.42403],[10.96176,45.42554],[10.96195,45.4269],[10.96037,45.42713],[10.95962,45.42722],[10.95896,45.42737],[10.95853,45.4275],[10.95828,45.42757],[10.9581,45.42763],[10.95794,45.42768],[10.95764,45.42764],[10.95745,45.42762],[10.95728,45.42746],[10.95718,45.42736],[10.95707,45.42725],[10.95697,45.42701],[10.95602,45.42702],[10.95425,45.42702],[10.95247,45.42703],[10.95158,45.42703],[10.95078,45.42704],[10.94985,45.42704],[10.94964,45.42704],[10.94888,45.42705],[10.94687,45.42706],[10.94501,45.42707],[10.94354,45.42707],[10.94276,45.42708],[10.94207,45.42707],[10.94192,45.42707],[10.94181,45.42707],[10.9415,45.42708],[10.94126,45.42708],[10.94093,45.42708],[10.9407,45.42709],[10.93997,45.42709],[10.93951,45.42709],[10.93914,45.42709],[10.93876,45.42709],[10.93813,45.4271],[10.93745,45.4271],[10.9364,45.42711],[10.93555,45.42712],[10.93495,45.42712],[10.93419,45.42713],[10.93344,45.42713],[10.93183,45.42713],[10.92648,45.42716],[10.92645,45.42478],[10.92642,45.42285],[10.91476,45.42181],[10.91431,45.42178],[10.91378,45.42172],[10.91296,45.42166],[10.91277,45.42165],[10.91246,45.42162],[10.91189,45.42158],[10.91053,45.42147],[10.9087,45.4214],[10.90865,45.4215],[10.90766,45.42337],[10.90695,45.42469],[10.90689,45.42481],[10.90585,45.42715],[10.90896,45.42718],[10.90937,45.42718],[10.90955,45.42718],[10.90966,45.42718],[10.90959,45.42729],[10.90862,45.42872],[10.90781,45.42991],[10.90777,45.42997],[10.90772,45.43005],[10.90718,45.42981],[10.90676,45.42984],[10.90637,45.43004],[10.90608,45.43046],[10.90602,45.43092],[10.90606,45.43139],[10.90608,45.43154],[10.90605,45.43196],[10.90603,45.43242],[10.90602,45.43261],[10.90601,45.43333],[10.90564,45.43387],[10.90539,45.43423],[10.90524,45.43444],[10.90457,45.43521],[10.90447,45.43533],[10.90441,45.43541],[10.90355,45.43626],[10.90289,45.43668],[10.90228,45.43707],[10.90075,45.43808],[10.89888,45.43931],[10.89862,45.43947],[10.89782,45.4399],[10.89684,45.44071],[10.89578,45.44155],[10.8949,45.44213],[10.89377,45.44256],[10.89355,45.44265],[10.89271,45.4428],[10.89215,45.4429],[10.89042,45.44287],[10.8895,45.44305],[10.88915,45.44343],[10.88885,45.4439],[10.88777,45.44543],[10.88744,45.44592],[10.88736,45.44602],[10.88709,45.44634],[10.88683,45.44666],[10.8866,45.44712],[10.88657,45.44719],[10.88623,45.4479],[10.88614,45.4481],[10.88594,45.44869],[10.88583,45.44901],[10.88509,45.44995],[10.8847,45.4505],[10.88459,45.45066],[10.88387,45.45107],[10.88274,45.45163],[10.88267,45.45166],[10.88178,45.45195],[10.88173,45.45197],[10.88103,45.45221],[10.88017,45.45288],[10.88005,45.45292],[10.87989,45.45299],[10.87887,45.45339],[10.87768,45.4539],[10.87755,45.45395],[10.87761,45.454],[10.87965,45.45545],[10.8798,45.45556],[10.8809,45.45633],[10.881,45.45641],[10.88049,45.45698],[10.8803,45.45719],[10.87999,45.45753],[10.87952,45.45808],[10.87849,45.45905],[10.87758,45.45994],[10.87716,45.46069],[10.87676,45.46156],[10.87685,45.46156],[10.87731,45.46161],[10.87736,45.46161],[10.87846,45.46171],[10.88015,45.46179],[10.88106,45.46196],[10.88154,45.46204],[10.88289,45.46244],[10.88412,45.46288],[10.88539,45.46338],[10.88625,45.46365],[10.88762,45.46432],[10.88865,45.4648],[10.89004,45.46516],[10.89192,45.46526],[10.89341,45.46548],[10.89565,45.46601],[10.89698,45.46647],[10.89923,45.46734],[10.89979,45.46763],[10.90023,45.46786],[10.90069,45.468],[10.90121,45.46833],[10.9015,45.46853],[10.90197,45.46883],[10.90213,45.4689],[10.90247,45.46907],[10.90291,45.46914],[10.90333,45.46925],[10.90381,45.46938],[10.90435,45.46951],[10.90526,45.4699],[10.90537,45.46997],[10.90546,45.47004],[10.90597,45.47041],[10.90624,45.47064],[10.90664,45.47048],[10.90685,45.4704],[10.90728,45.47026],[10.90818,45.46992],[10.90965,45.46951],[10.9101,45.46941],[10.91079,45.46925],[10.91093,45.46924],[10.91169,45.46914],[10.91302,45.46911],[10.91443,45.46938],[10.91449,45.46939],[10.91588,45.46967],[10.91753,45.47033],[10.91899,45.47127],[10.92008,45.47271],[10.92043,45.47367],[10.92091,45.47516],[10.92122,45.47627],[10.92145,45.47719],[10.92165,45.4778],[10.9219,45.47829],[10.92204,45.47855],[10.92246,45.47903],[10.9228,45.47934],[10.92355,45.48],[10.92457,45.48082],[10.92562,45.48138],[10.92624,45.48151],[10.92716,45.48183],[10.92831,45.4814],[10.92931,45.48112],[10.93071,45.48052],[10.93089,45.48045],[10.93119,45.48014],[10.93247,45.4796],[10.93418,45.47885],[10.93557,45.47809],[10.93619,45.47772],[10.93669,45.47743],[10.93743,45.47701],[10.93831,45.47652],[10.93877,45.47632],[10.9393,45.47616],[10.93954,45.47612],[10.93999,45.47603],[10.94078,45.47593],[10.94112,45.47588]]]]}},{"type":"Feature","properties":{"nbhd_name":"Sud-Ovest","uesi_id":"ITA_R44830","nbhd_code":"ITA_R44830_5"},"geometry":{"type":"MultiPolygon","coordinates":[[[[10.96195,45.4269],[10.96176,45.42554],[10.96154,45.42403],[10.9618,45.42396],[10.96243,45.42381],[10.96282,45.42374],[10.9635,45.42367],[10.96445,45.42362],[10.96477,45.42361],[10.96497,45.4236],[10.96541,45.42357],[10.96612,45.42369],[10.96738,45.42377],[10.96857,45.42372],[10.96897,45.42371],[10.96944,45.42367],[10.97193,45.4236],[10.97286,45.42357],[10.97285,45.42346],[10.97285,45.42335],[10.97414,45.42331],[10.97513,45.42322],[10.97545,45.42313],[10.97558,45.42309],[10.97576,45.42303],[10.97574,45.42269],[10.9775,45.42264],[10.9788,45.42259],[10.97922,45.42259],[10.98043,45.42255],[10.98164,45.42251],[10.9819,45.42254],[10.98287,45.42289],[10.982,45.42174],[10.98148,45.42107],[10.98115,45.42064],[10.98086,45.42026],[10.98031,45.41969],[10.97715,45.42091],[10.97704,45.42093],[10.97697,45.42052],[10.97698,45.42029],[10.97698,45.42023],[10.97722,45.42021],[10.97714,45.41993],[10.97708,45.41994],[10.97685,45.41996],[10.97673,45.41975],[10.97644,45.41955],[10.97608,45.41966],[10.97578,45.41932],[10.97559,45.4194],[10.9749,45.41889],[10.97458,45.41907],[10.97436,45.41891],[10.97361,45.41831],[10.97384,45.41816],[10.97343,45.41786],[10.97286,45.41751],[10.97252,45.41728],[10.97217,45.41753],[10.97166,45.4172],[10.97134,45.41693],[10.97106,45.41665],[10.97065,45.41623],[10.97049,45.41608],[10.97019,45.41591],[10.96989,45.41574],[10.96947,45.41555],[10.96899,45.41527],[10.96876,45.41514],[10.96854,45.41499],[10.96824,45.41476],[10.96795,45.41452],[10.96776,45.41436],[10.96757,45.41412],[10.96743,45.41395],[10.96722,45.41353],[10.967,45.41311],[10.96678,45.4127],[10.96635,45.4119],[10.96608,45.41152],[10.96545,45.41073],[10.96468,45.40987],[10.96379,45.40882],[10.96295,45.40794],[10.96262,45.40781],[10.96265,45.4075],[10.96231,45.40695],[10.96206,45.40654],[10.96173,45.40602],[10.96099,45.40632],[10.95803,45.40328],[10.95747,45.40274],[10.95701,45.40233],[10.95671,45.40201],[10.95644,45.40173],[10.95601,45.40118],[10.95563,45.40068],[10.95523,45.40011],[10.95492,45.39977],[10.95468,45.3995],[10.95446,45.39925],[10.95428,45.39904],[10.95407,45.39876],[10.95315,45.39749],[10.95294,45.39722],[10.95273,45.39705],[10.95266,45.39699],[10.95205,45.39631],[10.952,45.39627],[10.95191,45.39618],[10.95113,45.39546],[10.95086,45.39511],[10.94993,45.39414],[10.94919,45.39333],[10.94895,45.39303],[10.94843,45.39248],[10.94794,45.39199],[10.94766,45.39167],[10.94726,45.39127],[10.9467,45.39071],[10.94529,45.38923],[10.94459,45.3885],[10.94429,45.38818],[10.94405,45.38794],[10.94391,45.38781],[10.94378,45.38768],[10.94327,45.38724],[10.943,45.38699],[10.9427,45.38674],[10.94241,45.38651],[10.94221,45.38634],[10.94168,45.38595],[10.94092,45.38536],[10.94082,45.38523],[10.93985,45.38453],[10.93948,45.38426],[10.93924,45.38408],[10.9391,45.38398],[10.93897,45.38389],[10.93894,45.38387],[10.93885,45.3838],[10.93873,45.38371],[10.93452,45.3797],[10.93318,45.37865],[10.93202,45.37773],[10.93068,45.37685],[10.92976,45.37623],[10.9293,45.37548],[10.92884,45.37496],[10.9285,45.37599],[10.92712,45.38016],[10.92695,45.38087],[10.9267,45.38191],[10.92669,45.38195],[10.92673,45.38199],[10.92684,45.38211],[10.92979,45.38504],[10.92695,45.3885],[10.92693,45.38853],[10.92458,45.39138],[10.92244,45.39407],[10.92234,45.3942],[10.92184,45.3948],[10.9208,45.39604],[10.92043,45.39648],[10.91922,45.39919],[10.91899,45.39972],[10.91869,45.40039],[10.91858,45.40063],[10.91838,45.40104],[10.91816,45.40148],[10.91809,45.40162],[10.91777,45.40227],[10.91607,45.40569],[10.91522,45.40742],[10.91515,45.40755],[10.91191,45.41413],[10.91143,45.41513],[10.91033,45.41743],[10.91032,45.41747],[10.91028,45.4176],[10.91002,45.41837],[10.90998,45.41847],[10.90996,45.41852],[10.9087,45.4214],[10.91053,45.42147],[10.91189,45.42158],[10.91246,45.42162],[10.91277,45.42165],[10.91296,45.42166],[10.91378,45.42172],[10.91431,45.42178],[10.91476,45.42181],[10.92642,45.42285],[10.92645,45.42478],[10.92648,45.42716],[10.93183,45.42713],[10.93344,45.42713],[10.93419,45.42713],[10.93495,45.42712],[10.93555,45.42712],[10.9364,45.42711],[10.93745,45.4271],[10.93813,45.4271],[10.93876,45.42709],[10.93914,45.42709],[10.93951,45.42709],[10.93997,45.42709],[10.9407,45.42709],[10.94093,45.42708],[10.94126,45.42708],[10.9415,45.42708],[10.94181,45.42707],[10.94192,45.42707],[10.94207,45.42707],[10.94276,45.42708],[10.94354,45.42707],[10.94501,45.42707],[10.94687,45.42706],[10.94888,45.42705],[10.94964,45.42704],[10.94985,45.42704],[10.95078,45.42704],[10.95158,45.42703],[10.95247,45.42703],[10.95425,45.42702],[10.95602,45.42702],[10.95697,45.42701],[10.95707,45.42725],[10.95718,45.42736],[10.95728,45.42746],[10.95745,45.42762],[10.95764,45.42764],[10.95794,45.42768],[10.9581,45.42763],[10.95828,45.42757],[10.95853,45.4275],[10.95896,45.42737],[10.95962,45.42722],[10.96037,45.42713],[10.96195,45.4269]]]]}},{"type":"Feature","properties":{"nbhd_name":"Sud","uesi_id":"ITA_R44830","nbhd_code":"ITA_R44830_6"},"geometry":{"type":"MultiPolygon","coordinates":[[[[10.99696,45.42273],[10.9971,45.4226],[10.99727,45.42245],[10.99746,45.42227],[10.99799,45.42197],[10.99854,45.42169],[10.99907,45.42145],[10.99958,45.42123],[11.00028,45.42095],[11.00135,45.42042],[11.0022,45.42005],[11.00281,45.41986],[11.00358,45.4198],[11.00435,45.41986],[11.00503,45.42007],[11.00533,45.42021],[11.00563,45.42036],[11.00603,45.42061],[11.00617,45.42069],[11.00657,45.42103],[11.00695,45.42148],[11.00735,45.42197],[11.00798,45.42269],[11.00848,45.42324],[11.00886,45.4241],[11.00905,45.4246],[11.00914,45.42519],[11.00922,45.42544],[11.0097,45.42535],[11.01,45.42529],[11.01007,45.42527],[11.01101,45.42483],[11.01156,45.42456],[11.01195,45.42438],[11.01225,45.42424],[11.01259,45.42408],[11.01266,45.42383],[11.01284,45.4232],[11.01296,45.42276],[11.01305,45.42241],[11.0132,45.42206],[11.01339,45.42165],[11.01343,45.42157],[11.01372,45.42098],[11.0138,45.42073],[11.01376,45.42057],[11.01372,45.42045],[11.01394,45.42013],[11.01439,45.41967],[11.01443,45.4197],[11.01452,45.41974],[11.01465,45.41979],[11.0147,45.4198],[11.01504,45.41953],[11.01557,45.41916],[11.01577,45.41904],[11.01656,45.41863],[11.01766,45.41812],[11.01773,45.41808],[11.01784,45.41823],[11.01857,45.4187],[11.01868,45.41873],[11.01875,45.41877],[11.01896,45.41897],[11.01901,45.41901],[11.01941,45.41916],[11.01953,45.41925],[11.01965,45.41937],[11.01973,45.41943],[11.01985,45.41954],[11.01993,45.41957],[11.02,45.41956],[11.02009,45.41951],[11.02021,45.41945],[11.02055,45.41929],[11.02103,45.41902],[11.02125,45.41892],[11.02175,45.41874],[11.02228,45.41858],[11.02259,45.41847],[11.02298,45.41835],[11.02322,45.41828],[11.02338,45.41824],[11.02351,45.41821],[11.02368,45.41817],[11.02427,45.41798],[11.02461,45.41787],[11.02397,45.4168],[11.02389,45.41665],[11.02342,45.41572],[11.02295,45.41436],[11.02297,45.4133],[11.02303,45.41292],[11.02316,45.41207],[11.02358,45.41123],[11.02376,45.41087],[11.02443,45.40975],[11.02539,45.40862],[11.02626,45.40786],[11.02662,45.4076],[11.0271,45.40724],[11.02765,45.40683],[11.02836,45.40643],[11.02986,45.40544],[11.03,45.40513],[11.02984,45.40505],[11.02962,45.40494],[11.02911,45.40471],[11.02827,45.40448],[11.02712,45.40411],[11.027,45.40407],[11.02676,45.404],[11.02669,45.40398],[11.02496,45.40326],[11.02492,45.40329],[11.02444,45.40364],[11.02401,45.40395],[11.02394,45.40401],[11.02365,45.40413],[11.02346,45.40415],[11.02301,45.40421],[11.02295,45.40421],[11.02261,45.40403],[11.02209,45.40374],[11.02138,45.40334],[11.02088,45.40308],[11.02072,45.403],[11.02012,45.40268],[11.01853,45.40146],[11.0182,45.4012],[11.01812,45.40114],[11.01797,45.40102],[11.01788,45.40095],[11.01761,45.40074],[11.01687,45.40106],[11.01656,45.40119],[11.01631,45.40095],[11.01586,45.4005],[11.01569,45.40034],[11.01553,45.40018],[11.01495,45.39961],[11.01385,45.39854],[11.01325,45.39893],[11.01043,45.39786],[11.01032,45.39782],[11.01048,45.39765],[11.01052,45.39761],[11.01065,45.39747],[11.01098,45.39712],[11.01103,45.39707],[11.0135,45.39443],[11.01436,45.39352],[11.01455,45.39331],[11.01523,45.39259],[11.01748,45.39018],[11.01755,45.39011],[11.01768,45.38996],[11.01842,45.38918],[11.01865,45.38893],[11.02021,45.38727],[11.02031,45.38716],[11.02043,45.38703],[11.02054,45.38691],[11.02069,45.38675],[11.02088,45.38655],[11.02097,45.38646],[11.02164,45.38575],[11.02198,45.38538],[11.02233,45.385],[11.02237,45.38496],[11.02248,45.38485],[11.02252,45.38481],[11.02324,45.38403],[11.02327,45.384],[11.0235,45.38376],[11.024,45.38323],[11.02334,45.38291],[11.02309,45.38279],[11.02295,45.38272],[11.02227,45.38239],[11.02065,45.38411],[11.01917,45.38569],[11.01899,45.38587],[11.01655,45.38848],[11.01603,45.38903],[11.01555,45.3887],[11.01477,45.38821],[11.01498,45.38791],[11.01647,45.38568],[11.01625,45.38523],[11.01629,45.3851],[11.01644,45.38463],[11.01624,45.38443],[11.0159,45.38396],[11.01572,45.38352],[11.01595,45.38291],[11.01635,45.38208],[11.01675,45.38138],[11.01731,45.38126],[11.01796,45.38112],[11.01803,45.3811],[11.01928,45.38088],[11.02124,45.38043],[11.02226,45.3801],[11.02237,45.38007],[11.02246,45.38002],[11.02358,45.37951],[11.02371,45.37941],[11.02409,45.37909],[11.0244,45.37883],[11.02449,45.37876],[11.02503,45.37791],[11.0257,45.37736],[11.02656,45.37698],[11.02724,45.37649],[11.0236,45.37528],[11.02579,45.37285],[11.02072,45.37107],[11.02079,45.37088],[11.02147,45.36921],[11.01947,45.36867],[11.01916,45.36859],[11.01894,45.36899],[11.01788,45.37093],[11.01564,45.37051],[11.01541,45.3703],[11.01343,45.36996],[11.01316,45.36991],[11.01302,45.36989],[11.01023,45.36939],[11.01016,45.36938],[11.00972,45.36931],[11.00907,45.36924],[11.00844,45.36892],[11.00823,45.3688],[11.00797,45.36865],[11.00731,45.36866],[11.00637,45.36865],[11.00526,45.36868],[11.00515,45.36864],[11.00508,45.36862],[11.00451,45.36848],[11.00362,45.36818],[11.00282,45.36789],[11.0025,45.36782],[11.00233,45.36778],[11.00153,45.36761],[11.00081,45.36747],[10.9995,45.36733],[10.99874,45.36722],[10.99845,45.36717],[10.99654,45.36746],[10.99644,45.3675],[10.99611,45.36716],[10.99569,45.36671],[10.99532,45.36632],[10.99521,45.36621],[10.99462,45.36579],[10.994,45.36532],[10.99322,45.36475],[10.99199,45.36398],[10.9919,45.36392],[10.99212,45.36348],[10.99231,45.36312],[10.99233,45.36309],[10.99249,45.36273],[10.99271,45.36221],[10.99274,45.36215],[10.9928,45.36201],[10.99283,45.36188],[10.99294,45.3613],[10.99309,45.36049],[10.99328,45.35955],[10.99334,45.35889],[10.99347,45.35829],[10.99402,45.3568],[10.99464,45.35692],[10.99474,45.35649],[10.99484,45.35607],[10.99505,45.35567],[10.99508,45.35562],[10.99531,45.35506],[10.99536,45.35451],[10.99563,45.35341],[10.99576,45.35343],[10.99603,45.35349],[10.99604,45.35342],[10.99643,45.35186],[10.99644,45.35182],[10.99641,45.35179],[10.99631,45.35168],[10.99556,45.35085],[10.99548,45.35076],[10.99474,45.35063],[10.99398,45.35041],[10.99302,45.35045],[10.99207,45.35049],[10.99196,45.35049],[10.98998,45.35057],[10.98948,45.35059],[10.98842,45.34964],[10.98814,45.3494],[10.98762,45.34964],[10.98725,45.34987],[10.98698,45.35008],[10.98705,45.35094],[10.9877,45.35193],[10.9909,45.35674],[10.99081,45.35777],[10.99079,45.358],[10.99078,45.35818],[10.98937,45.35822],[10.98704,45.35728],[10.98501,45.35892],[10.98497,45.35896],[10.98381,45.35892],[10.98239,45.35887],[10.98227,45.35887],[10.98108,45.35883],[10.9814,45.35775],[10.98144,45.35764],[10.98083,45.35647],[10.97943,45.35393],[10.97882,45.35417],[10.97856,45.35427],[10.97779,45.35448],[10.9764,45.35477],[10.97525,45.35494],[10.97419,45.35497],[10.973,45.35474],[10.97248,45.35451],[10.97165,45.35465],[10.971,45.3562],[10.97089,45.35645],[10.97045,45.35752],[10.9698,45.35978],[10.96975,45.35996],[10.96967,45.36024],[10.96914,45.36224],[10.96912,45.3623],[10.9691,45.36235],[10.96904,45.36249],[10.96887,45.36301],[10.96886,45.36304],[10.96846,45.36415],[10.96816,45.36577],[10.96801,45.36624],[10.96799,45.36632],[10.96784,45.36677],[10.96768,45.3673],[10.9672,45.36894],[10.96688,45.37008],[10.96646,45.37155],[10.96574,45.374],[10.96767,45.37708],[10.96836,45.37819],[10.96807,45.37819],[10.96774,45.37818],[10.96444,45.37814],[10.96412,45.37814],[10.9623,45.378],[10.95989,45.37781],[10.95708,45.37759],[10.95684,45.37602],[10.9568,45.37578],[10.95619,45.37254],[10.95613,45.37254],[10.95571,45.37254],[10.95502,45.37255],[10.95422,45.37256],[10.95399,45.37166],[10.95203,45.37168],[10.95122,45.37171],[10.95047,45.37174],[10.94934,45.37178],[10.94768,45.37184],[10.9469,45.37186],[10.94495,45.37195],[10.94489,45.37195],[10.94323,45.37202],[10.94337,45.37213],[10.94374,45.37244],[10.94397,45.37281],[10.9444,45.37357],[10.94472,45.37405],[10.94498,45.3746],[10.94575,45.37582],[10.94611,45.37646],[10.94626,45.37675],[10.94867,45.38143],[10.94082,45.38523],[10.94092,45.38536],[10.94168,45.38595],[10.94221,45.38634],[10.94241,45.38651],[10.9427,45.38674],[10.943,45.38699],[10.94327,45.38724],[10.94378,45.38768],[10.94391,45.38781],[10.94405,45.38794],[10.94429,45.38818],[10.94459,45.3885],[10.94529,45.38923],[10.9467,45.39071],[10.94726,45.39127],[10.94766,45.39167],[10.94794,45.39199],[10.94843,45.39248],[10.94895,45.39303],[10.94919,45.39333],[10.94993,45.39414],[10.95086,45.39511],[10.95113,45.39546],[10.95191,45.39618],[10.952,45.39627],[10.95205,45.39631],[10.95266,45.39699],[10.95273,45.39705],[10.95294,45.39722],[10.95315,45.39749],[10.95407,45.39876],[10.95428,45.39904],[10.95446,45.39925],[10.95468,45.3995],[10.95492,45.39977],[10.95523,45.40011],[10.95563,45.40068],[10.95601,45.40118],[10.95644,45.40173],[10.95671,45.40201],[10.95701,45.40233],[10.95747,45.40274],[10.95803,45.40328],[10.96099,45.40632],[10.96173,45.40602],[10.96206,45.40654],[10.96231,45.40695],[10.96265,45.4075],[10.96262,45.40781],[10.96295,45.40794],[10.96379,45.40882],[10.96468,45.40987],[10.96545,45.41073],[10.96608,45.41152],[10.96635,45.4119],[10.96678,45.4127],[10.967,45.41311],[10.96722,45.41353],[10.96743,45.41395],[10.96757,45.41412],[10.96776,45.41436],[10.96795,45.41452],[10.96824,45.41476],[10.96854,45.41499],[10.96876,45.41514],[10.96899,45.41527],[10.96947,45.41555],[10.96989,45.41574],[10.97019,45.41591],[10.97049,45.41608],[10.97065,45.41623],[10.97106,45.41665],[10.97134,45.41693],[10.97166,45.4172],[10.97217,45.41753],[10.97252,45.41728],[10.97286,45.41751],[10.97343,45.41786],[10.97384,45.41816],[10.97361,45.41831],[10.97436,45.41891],[10.97458,45.41907],[10.9749,45.41889],[10.97559,45.4194],[10.97578,45.41932],[10.97608,45.41966],[10.97644,45.41955],[10.97673,45.41975],[10.97685,45.41996],[10.97708,45.41994],[10.97714,45.41993],[10.97722,45.42021],[10.97698,45.42023],[10.97698,45.42029],[10.97697,45.42052],[10.97704,45.42093],[10.97715,45.42091],[10.98031,45.41969],[10.98086,45.42026],[10.98115,45.42064],[10.98148,45.42107],[10.982,45.42174],[10.98287,45.42289],[10.9819,45.42254],[10.98162,45.42276],[10.98295,45.42324],[10.98326,45.42389],[10.98356,45.42439],[10.98422,45.42534],[10.98488,45.4264],[10.9856,45.42764],[10.98612,45.42856],[10.98622,45.42863],[10.98643,45.42875],[10.98692,45.42902],[10.98715,45.42925],[10.98777,45.42927],[10.98814,45.42927],[10.98864,45.42928],[10.98903,45.4293],[10.98945,45.4293],[10.98987,45.42926],[10.99028,45.4292],[10.99062,45.42912],[10.99113,45.429],[10.99133,45.42894],[10.99152,45.42887],[10.99173,45.42881],[10.99208,45.42866],[10.99253,45.42845],[10.99292,45.42827],[10.99329,45.4281],[10.99361,45.42795],[10.99382,45.42785],[10.99448,45.42753],[10.99518,45.42719],[10.99504,45.42696],[10.99485,45.42653],[10.99476,45.42616],[10.99486,45.42543],[10.99514,45.42486],[10.9954,45.42449],[10.9957,45.42407],[10.9962,45.42344],[10.99629,45.42334],[10.9965,45.42315],[10.99681,45.42287],[10.99696,45.42273]]]]}},{"type":"Feature","properties":{"nbhd_name":"Est","uesi_id":"ITA_R44830","nbhd_code":"ITA_R44830_7"},"geometry":{"type":"MultiPolygon","coordinates":[[[[11.0133,45.46661],[11.01446,45.46648],[11.01446,45.46651],[11.01605,45.46695],[11.01648,45.46703],[11.01726,45.46705],[11.01832,45.46712],[11.01829,45.46667],[11.01837,45.46496],[11.01829,45.46468],[11.01831,45.46381],[11.01836,45.46343],[11.01841,45.46302],[11.01841,45.46224],[11.01842,45.46208],[11.01844,45.46188],[11.01845,45.46148],[11.01846,45.46129],[11.01891,45.46139],[11.0193,45.46149],[11.01947,45.46151],[11.01974,45.46157],[11.02003,45.46164],[11.02045,45.46174],[11.02059,45.46177],[11.02082,45.4618],[11.0211,45.46182],[11.0214,45.46184],[11.0217,45.46185],[11.02209,45.46187],[11.02248,45.4619],[11.02275,45.46192],[11.02306,45.46196],[11.02343,45.462],[11.02403,45.4621],[11.02445,45.46216],[11.025,45.46225],[11.02555,45.46232],[11.02601,45.46238],[11.0264,45.46242],[11.02664,45.46245],[11.02696,45.46246],[11.02712,45.46248],[11.02725,45.4625],[11.02745,45.46252],[11.02766,45.46255],[11.02791,45.46258],[11.02825,45.46265],[11.02853,45.46271],[11.0289,45.46279],[11.02904,45.46282],[11.02927,45.46284],[11.02964,45.46288],[11.02982,45.46289],[11.02985,45.46291],[11.02987,45.46296],[11.02991,45.46323],[11.02993,45.46326],[11.02998,45.46329],[11.03027,45.46329],[11.03127,45.46331],[11.03165,45.46331],[11.03176,45.46328],[11.03192,45.46323],[11.03221,45.46322],[11.03247,45.46323],[11.03278,45.46323],[11.03283,45.46324],[11.03289,45.46324],[11.03333,45.46325],[11.03357,45.46324],[11.03396,45.46328],[11.03387,45.46355],[11.03381,45.46394],[11.03378,45.46433],[11.03409,45.46423],[11.03431,45.46399],[11.0345,45.4638],[11.03476,45.46354],[11.03484,45.46348],[11.03495,45.46341],[11.03531,45.46347],[11.03561,45.46353],[11.03603,45.46363],[11.03659,45.46379],[11.03721,45.46395],[11.03757,45.46406],[11.03793,45.46417],[11.03827,45.46425],[11.03856,45.46431],[11.03872,45.46435],[11.03897,45.46439],[11.03901,45.4644],[11.03915,45.46383],[11.03932,45.4632],[11.03941,45.46263],[11.0394,45.46209],[11.03956,45.46118],[11.0398,45.46054],[11.04021,45.45936],[11.04029,45.45913],[11.04004,45.45912],[11.03958,45.45903],[11.03909,45.45887],[11.03879,45.45869],[11.03846,45.4585],[11.03828,45.45843],[11.03799,45.4583],[11.0377,45.45818],[11.03745,45.45793],[11.03728,45.45763],[11.03732,45.45729],[11.03756,45.45627],[11.03771,45.45565],[11.03786,45.4552],[11.03739,45.45506],[11.03672,45.45489],[11.0363,45.45481],[11.03599,45.45474],[11.036,45.45461],[11.03602,45.45447],[11.03611,45.45331],[11.03624,45.45228],[11.03604,45.45214],[11.03629,45.45149],[11.03647,45.45104],[11.03754,45.44829],[11.03718,45.44821],[11.03732,45.44739],[11.03711,45.44651],[11.03697,45.44578],[11.03687,45.44544],[11.03662,45.44439],[11.03654,45.44308],[11.03653,45.44243],[11.03652,45.44193],[11.03649,45.44107],[11.0378,45.44093],[11.04044,45.44066],[11.04102,45.4406],[11.04211,45.44048],[11.04326,45.44029],[11.04362,45.44023],[11.04325,45.43921],[11.0431,45.43892],[11.04301,45.43884],[11.04277,45.43871],[11.04258,45.43866],[11.0412,45.43847],[11.03877,45.4381],[11.03879,45.43807],[11.03785,45.43794],[11.03783,45.43799],[11.03699,45.43785],[11.03596,45.4377],[11.03572,45.43767],[11.03539,45.43762],[11.03516,45.43696],[11.03491,45.43699],[11.03463,45.43621],[11.03438,45.43626],[11.03439,45.43631],[11.03351,45.43648],[11.03332,45.43603],[11.0334,45.43601],[11.0334,45.43586],[11.03299,45.43594],[11.03304,45.43607],[11.03052,45.43655],[11.02974,45.43671],[11.02778,45.4371],[11.02688,45.43726],[11.0252,45.4376],[11.02426,45.43778],[11.02142,45.43834],[11.02041,45.43853],[11.01646,45.43931],[11.0151,45.43959],[11.01477,45.43962],[11.01498,45.4403],[11.01511,45.44074],[11.01522,45.44109],[11.01558,45.4411],[11.01568,45.44134],[11.01574,45.44148],[11.01575,45.44158],[11.01571,45.44167],[11.01564,45.44173],[11.01546,45.4418],[11.01528,45.4418],[11.01492,45.44177],[11.01487,45.44162],[11.01417,45.4417],[11.01378,45.44174],[11.0127,45.44186],[11.01225,45.44192],[11.01199,45.44199],[11.01155,45.44211],[11.01087,45.44229],[11.00985,45.44255],[11.00979,45.44257],[11.00973,45.4426],[11.00965,45.44262],[11.00938,45.443],[11.00944,45.44302],[11.00931,45.4432],[11.00926,45.44322],[11.0089,45.44374],[11.00889,45.4438],[11.00881,45.44458],[11.00881,45.44463],[11.00876,45.44486],[11.00871,45.44526],[11.00869,45.44548],[11.00874,45.44567],[11.00895,45.44617],[11.00913,45.44664],[11.00935,45.44711],[11.00958,45.44759],[11.00976,45.44796],[11.00982,45.44815],[11.00997,45.4489],[11.01014,45.44993],[11.01035,45.45102],[11.0104,45.45102],[11.01046,45.45103],[11.01052,45.45105],[11.01057,45.45108],[11.01061,45.45111],[11.01063,45.45117],[11.01063,45.45122],[11.01061,45.45128],[11.01053,45.45134],[11.01047,45.45136],[11.01041,45.45137],[11.01036,45.45136],[11.0103,45.45135],[11.01024,45.45134],[11.01015,45.45147],[11.00995,45.45182],[11.00969,45.45229],[11.00959,45.45253],[11.00947,45.4528],[11.00942,45.45294],[11.00938,45.4532],[11.00935,45.45388],[11.00981,45.45391],[11.00991,45.45413],[11.01018,45.45492],[11.00973,45.4548],[11.00978,45.45525],[11.00987,45.45572],[11.00994,45.45678],[11.00964,45.45875],[11.00967,45.45949],[11.00972,45.46021],[11.0101,45.46129],[11.01041,45.46199],[11.01049,45.46317],[11.01064,45.46503],[11.01066,45.46593],[11.01079,45.46656],[11.01114,45.46747],[11.01207,45.46728],[11.01291,45.4672],[11.01289,45.46717],[11.01276,45.4667],[11.01283,45.46667],[11.0133,45.46661]]]]}},{"type":"Feature","properties":{"nbhd_name":"Sud-Est","uesi_id":"ITA_R44830","nbhd_code":"ITA_R44830_8"},"geometry":{"type":"MultiPolygon","coordinates":[[[[11.06269,45.43988],[11.06399,45.4389],[11.06459,45.43845],[11.06476,45.43829],[11.06576,45.43755],[11.06652,45.43702],[11.06718,45.43698],[11.06674,45.43692],[11.07222,45.43241],[11.07204,45.43106],[11.07189,45.42979],[11.07184,45.4294],[11.07162,45.42862],[11.07136,45.42769],[11.07131,45.42751],[11.07123,45.42725],[11.07237,45.42689],[11.07222,45.42664],[11.07103,45.42456],[11.07073,45.42422],[11.07036,45.42382],[11.07029,45.42375],[11.06898,45.42233],[11.06963,45.4221],[11.07052,45.42175],[11.07156,45.42143],[11.07173,45.42136],[11.07273,45.42101],[11.07412,45.42047],[11.07449,45.42032],[11.07525,45.42001],[11.07654,45.41927],[11.07702,45.41882],[11.07809,45.41803],[11.07952,45.41741],[11.07982,45.41713],[11.08002,45.41687],[11.08034,45.41649],[11.08068,45.41602],[11.08092,45.41533],[11.08125,45.41463],[11.08138,45.41399],[11.08137,45.41343],[11.08125,45.41266],[11.08117,45.41217],[11.08095,45.41187],[11.08064,45.41146],[11.08033,45.41105],[11.07979,45.4104],[11.07948,45.41012],[11.07917,45.40985],[11.07853,45.40946],[11.07797,45.40914],[11.07785,45.40908],[11.07702,45.40888],[11.07648,45.40863],[11.07599,45.40836],[11.07535,45.40804],[11.07481,45.40792],[11.07365,45.40762],[11.0723,45.40721],[11.07122,45.40685],[11.07039,45.40625],[11.07005,45.40566],[11.07001,45.40558],[11.06983,45.40523],[11.06945,45.40515],[11.06895,45.40511],[11.06833,45.40513],[11.06708,45.40511],[11.06627,45.40482],[11.06558,45.40443],[11.06489,45.40404],[11.06452,45.40335],[11.06447,45.40271],[11.06494,45.40197],[11.06556,45.40114],[11.06623,45.40049],[11.06721,45.39955],[11.06823,45.39849],[11.06918,45.39765],[11.07001,45.39684],[11.07127,45.39616],[11.07104,45.39433],[11.07069,45.39424],[11.06994,45.394],[11.06904,45.39386],[11.06802,45.39378],[11.06671,45.3936],[11.06545,45.39349],[11.06409,45.39332],[11.0632,45.39339],[11.062,45.3937],[11.06075,45.39392],[11.05983,45.39393],[11.05897,45.39373],[11.05821,45.39344],[11.05706,45.39327],[11.05638,45.3936],[11.05548,45.39397],[11.05422,45.39447],[11.05273,45.39501],[11.05134,45.39554],[11.04989,45.39595],[11.04905,45.39611],[11.04895,45.39613],[11.04828,45.39626],[11.04797,45.39632],[11.04643,45.39647],[11.04491,45.39662],[11.04345,45.39657],[11.04227,45.39644],[11.04101,45.39597],[11.03929,45.39523],[11.03904,45.39512],[11.0384,45.39484],[11.03755,45.39451],[11.03642,45.39432],[11.0355,45.39435],[11.03445,45.39457],[11.03369,45.39482],[11.03292,45.39521],[11.03227,45.39558],[11.03215,45.39565],[11.03152,45.39622],[11.0313,45.39696],[11.03137,45.39788],[11.03141,45.39871],[11.03157,45.39977],[11.03169,45.40076],[11.03159,45.40141],[11.03157,45.40152],[11.03149,45.40195],[11.03148,45.40203],[11.03147,45.40208],[11.03143,45.4023],[11.03138,45.40287],[11.03119,45.40351],[11.03092,45.4041],[11.03075,45.40453],[11.03065,45.40479],[11.03029,45.40528],[11.03,45.40513],[11.02986,45.40544],[11.02836,45.40643],[11.02765,45.40683],[11.0271,45.40724],[11.02662,45.4076],[11.02626,45.40786],[11.02539,45.40862],[11.02443,45.40975],[11.02376,45.41087],[11.02358,45.41123],[11.02316,45.41207],[11.02303,45.41292],[11.02297,45.4133],[11.02295,45.41436],[11.02342,45.41572],[11.02389,45.41665],[11.02397,45.4168],[11.02461,45.41787],[11.02427,45.41798],[11.02368,45.41817],[11.02351,45.41821],[11.02338,45.41824],[11.02322,45.41828],[11.02298,45.41835],[11.02259,45.41847],[11.02228,45.41858],[11.02175,45.41874],[11.02125,45.41892],[11.02103,45.41902],[11.02055,45.41929],[11.02021,45.41945],[11.02009,45.41951],[11.02,45.41956],[11.01993,45.41957],[11.01985,45.41954],[11.01973,45.41943],[11.01965,45.41937],[11.01953,45.41925],[11.01941,45.41916],[11.01901,45.41901],[11.01896,45.41897],[11.01875,45.41877],[11.01868,45.41873],[11.01857,45.4187],[11.01784,45.41823],[11.01773,45.41808],[11.01766,45.41812],[11.01656,45.41863],[11.01577,45.41904],[11.01557,45.41916],[11.01504,45.41953],[11.0147,45.4198],[11.01465,45.41979],[11.01452,45.41974],[11.01443,45.4197],[11.01439,45.41967],[11.01394,45.42013],[11.01372,45.42045],[11.01376,45.42057],[11.0138,45.42073],[11.01372,45.42098],[11.01343,45.42157],[11.01339,45.42165],[11.0132,45.42206],[11.01305,45.42241],[11.01296,45.42276],[11.01284,45.4232],[11.01266,45.42383],[11.01259,45.42408],[11.01225,45.42424],[11.01195,45.42438],[11.01156,45.42456],[11.01101,45.42483],[11.01007,45.42527],[11.01,45.42529],[11.0097,45.42535],[11.00922,45.42544],[11.00914,45.42519],[11.00905,45.4246],[11.00886,45.4241],[11.00848,45.42324],[11.00798,45.42269],[11.00735,45.42197],[11.00695,45.42148],[11.00657,45.42103],[11.00617,45.42069],[11.00603,45.42061],[11.00563,45.42036],[11.00533,45.42021],[11.00503,45.42007],[11.00435,45.41986],[11.00358,45.4198],[11.00281,45.41986],[11.0022,45.42005],[11.00135,45.42042],[11.00028,45.42095],[10.99958,45.42123],[10.99907,45.42145],[10.99854,45.42169],[10.99799,45.42197],[10.99746,45.42227],[10.99727,45.42245],[10.9971,45.4226],[10.99696,45.42273],[10.99681,45.42287],[10.9965,45.42315],[10.99629,45.42334],[10.9962,45.42344],[10.9957,45.42407],[10.9954,45.42449],[10.99514,45.42486],[10.99486,45.42543],[10.99476,45.42616],[10.99485,45.42653],[10.99504,45.42696],[10.99518,45.42719],[10.99707,45.42986],[10.99736,45.43031],[10.99781,45.43101],[10.9982,45.43153],[10.99867,45.43214],[10.99953,45.43356],[10.9997,45.43388],[11.00011,45.43463],[11.00028,45.43496],[11.00064,45.4357],[11.00141,45.43565],[11.00419,45.43543],[11.00466,45.43542],[11.0052,45.43539],[11.00556,45.43538],[11.00574,45.43532],[11.00597,45.43525],[11.0062,45.43512],[11.00654,45.43492],[11.00678,45.43479],[11.00694,45.43469],[11.00715,45.43458],[11.00732,45.43448],[11.00753,45.43436],[11.00776,45.43423],[11.00797,45.43412],[11.00874,45.43372],[11.00894,45.43369],[11.00905,45.43367],[11.0093,45.43367],[11.00966,45.43381],[11.01028,45.43423],[11.01087,45.43472],[11.01168,45.43536],[11.01298,45.43593],[11.01396,45.43637],[11.01432,45.43658],[11.01451,45.43674],[11.01467,45.43687],[11.01479,45.43697],[11.01498,45.43723],[11.01506,45.43734],[11.01503,45.43751],[11.015,45.43767],[11.01496,45.4379],[11.01471,45.43814],[11.01467,45.43851],[11.01466,45.43877],[11.01466,45.43891],[11.01469,45.43928],[11.01467,45.4393],[11.01477,45.43962],[11.0151,45.43959],[11.01646,45.43931],[11.02041,45.43853],[11.02142,45.43834],[11.02426,45.43778],[11.0252,45.4376],[11.02688,45.43726],[11.02778,45.4371],[11.02974,45.43671],[11.03052,45.43655],[11.03304,45.43607],[11.03299,45.43594],[11.0334,45.43586],[11.0334,45.43601],[11.03332,45.43603],[11.03351,45.43648],[11.03439,45.43631],[11.03438,45.43626],[11.03463,45.43621],[11.03491,45.43699],[11.03516,45.43696],[11.03539,45.43762],[11.03572,45.43767],[11.03596,45.4377],[11.03699,45.43785],[11.03783,45.43799],[11.03785,45.43794],[11.03879,45.43807],[11.03877,45.4381],[11.0412,45.43847],[11.04258,45.43866],[11.04277,45.43871],[11.04301,45.43884],[11.0431,45.43892],[11.04325,45.43921],[11.04362,45.44023],[11.04401,45.44016],[11.04485,45.44006],[11.0456,45.43996],[11.04637,45.43991],[11.04725,45.43991],[11.0478,45.4399],[11.04885,45.43989],[11.04945,45.43991],[11.04969,45.43991],[11.05088,45.43997],[11.05195,45.44004],[11.05451,45.44021],[11.05626,45.44034],[11.05825,45.44047],[11.05892,45.44052],[11.06029,45.44063],[11.06168,45.44071],[11.06185,45.44054],[11.06206,45.44034],[11.06269,45.43988]]]]}},{"type":"Feature","properties":{"nbhd_name":"Nord-Est","uesi_id":"ITA_R44830","nbhd_code":"ITA_R44830_9"},"geometry":{"type":"MultiPolygon","coordinates":[[[[11.07668,45.5418],[11.07666,45.54131],[11.07616,45.54084],[11.07601,45.54022],[11.0759,45.53984],[11.07525,45.53924],[11.07481,45.53875],[11.07456,45.53838],[11.07468,45.53784],[11.07472,45.53733],[11.07461,45.53684],[11.07455,45.53636],[11.07421,45.53584],[11.07435,45.53562],[11.07451,45.53534],[11.07393,45.5349],[11.07365,45.53452],[11.07366,45.53448],[11.0738,45.53407],[11.07433,45.53404],[11.07491,45.53445],[11.07529,45.53472],[11.07588,45.5351],[11.07633,45.53534],[11.07668,45.53556],[11.07702,45.53569],[11.07743,45.53585],[11.07752,45.53632],[11.08068,45.53742],[11.08116,45.53757],[11.08169,45.53773],[11.08259,45.53799],[11.08279,45.5376],[11.08351,45.5377],[11.08417,45.53797],[11.0847,45.53795],[11.0853,45.53765],[11.08613,45.53719],[11.08714,45.53675],[11.08786,45.53658],[11.0885,45.53645],[11.08914,45.53622],[11.08963,45.53604],[11.08974,45.53637],[11.08971,45.53679],[11.08987,45.53723],[11.09038,45.53721],[11.09087,45.53688],[11.09114,45.53653],[11.09132,45.53629],[11.09139,45.53619],[11.09154,45.53609],[11.09171,45.53598],[11.09183,45.53655],[11.09192,45.53719],[11.09396,45.53733],[11.096,45.53765],[11.09742,45.53778],[11.09915,45.53807],[11.10045,45.53838],[11.10167,45.53866],[11.10283,45.53884],[11.1037,45.53894],[11.10535,45.53924],[11.1058,45.53882],[11.10637,45.53835],[11.10731,45.53764],[11.10811,45.53702],[11.10885,45.53651],[11.10923,45.53605],[11.10925,45.53547],[11.10911,45.5349],[11.10928,45.53452],[11.1097,45.53398],[11.11018,45.53358],[11.11048,45.53321],[11.11009,45.53268],[11.10982,45.53192],[11.10986,45.53131],[11.11017,45.53073],[11.11053,45.53025],[11.11095,45.52971],[11.11122,45.52939],[11.11169,45.52924],[11.11255,45.5287],[11.1127,45.52826],[11.11304,45.528],[11.11342,45.52785],[11.11399,45.52775],[11.11446,45.5275],[11.11474,45.5271],[11.11499,45.52693],[11.11558,45.5267],[11.11598,45.52612],[11.11631,45.5256],[11.11669,45.5249],[11.1172,45.52408],[11.1174,45.52325],[11.11744,45.52261],[11.11758,45.52201],[11.1177,45.52187],[11.11795,45.52156],[11.11818,45.52123],[11.11798,45.52078],[11.11789,45.52035],[11.11799,45.51967],[11.11844,45.51904],[11.11915,45.51857],[11.11978,45.51817],[11.12016,45.51767],[11.12004,45.51705],[11.12003,45.51636],[11.12014,45.5159],[11.12037,45.51563],[11.12085,45.51534],[11.12157,45.51501],[11.12187,45.51448],[11.12223,45.51418],[11.12283,45.51393],[11.12336,45.5136],[11.12332,45.51333],[11.12344,45.51301],[11.12356,45.5124],[11.12393,45.51205],[11.12434,45.51148],[11.123,45.51126],[11.12247,45.51144],[11.12211,45.51236],[11.12157,45.51167],[11.12114,45.51155],[11.12061,45.51169],[11.12021,45.51195],[11.11977,45.51144],[11.12035,45.51091],[11.1204,45.51051],[11.12016,45.51018],[11.11953,45.50973],[11.11845,45.509],[11.11764,45.50859],[11.11652,45.50844],[11.1159,45.50862],[11.11546,45.50846],[11.11463,45.50824],[11.11329,45.50794],[11.11256,45.50759],[11.1122,45.50713],[11.11198,45.50693],[11.11176,45.50672],[11.11113,45.50663],[11.11088,45.50674],[11.11056,45.50689],[11.11006,45.5072],[11.10954,45.5072],[11.1089,45.50688],[11.1083,45.50665],[11.10772,45.50656],[11.1065,45.5065],[11.10576,45.50641],[11.10515,45.50601],[11.10464,45.50573],[11.10325,45.50555],[11.10139,45.50542],[11.10068,45.5062],[11.10031,45.50584],[11.09969,45.50536],[11.09903,45.50489],[11.09913,45.50457],[11.09859,45.50455],[11.09794,45.50448],[11.09762,45.50422],[11.09697,45.50389],[11.09603,45.50373],[11.09493,45.50371],[11.0942,45.50372],[11.09412,45.50357],[11.09398,45.50331],[11.09365,45.5028],[11.09342,45.50235],[11.0934,45.50199],[11.09361,45.5017],[11.09387,45.5014],[11.09404,45.50106],[11.09404,45.50076],[11.0934,45.49937],[11.0929,45.49847],[11.0925,45.49798],[11.09222,45.49731],[11.09222,45.49726],[11.09228,45.49647],[11.09194,45.49558],[11.09134,45.49461],[11.09141,45.49385],[11.09181,45.49284],[11.09176,45.49184],[11.09148,45.49107],[11.09057,45.49007],[11.09022,45.48931],[11.09012,45.4891],[11.09006,45.48894],[11.08973,45.48816],[11.08947,45.48738],[11.08946,45.48735],[11.08943,45.48717],[11.0893,45.48624],[11.08929,45.48617],[11.08925,45.48575],[11.08923,45.48529],[11.08922,45.4852],[11.08924,45.48486],[11.0892,45.48474],[11.08918,45.48469],[11.08912,45.48451],[11.08908,45.48419],[11.08891,45.48293],[11.08888,45.48248],[11.08887,45.48231],[11.08887,45.48223],[11.08879,45.48117],[11.08875,45.48029],[11.0887,45.47946],[11.08869,45.47934],[11.08843,45.47863],[11.08847,45.47797],[11.08883,45.47727],[11.08894,45.47651],[11.0887,45.47563],[11.08855,45.47495],[11.08855,45.47477],[11.08853,45.47401],[11.08868,45.47335],[11.08866,45.47263],[11.08849,45.47164],[11.08858,45.47041],[11.08933,45.46912],[11.09009,45.46837],[11.09067,45.46797],[11.09107,45.46773],[11.09127,45.46752],[11.09136,45.46742],[11.09174,45.46682],[11.09208,45.4656],[11.09241,45.46449],[11.09251,45.46347],[11.09246,45.46241],[11.09252,45.46095],[11.09255,45.45964],[11.09239,45.45859],[11.09213,45.45779],[11.09149,45.45721],[11.09105,45.45704],[11.09079,45.45667],[11.09058,45.45617],[11.0903,45.4557],[11.09009,45.455],[11.08994,45.45427],[11.08964,45.4532],[11.08937,45.45257],[11.08905,45.45181],[11.08898,45.45153],[11.08874,45.4506],[11.08809,45.45039],[11.08772,45.45012],[11.08708,45.44978],[11.08643,45.44947],[11.08558,45.44907],[11.08496,45.44859],[11.08469,45.44825],[11.08456,45.44728],[11.08271,45.44707],[11.07954,45.44703],[11.07949,45.44703],[11.07909,45.44702],[11.07913,45.44645],[11.07915,45.44619],[11.07829,45.44615],[11.07702,45.44593],[11.07654,45.44592],[11.07402,45.44586],[11.07448,45.44428],[11.07458,45.44391],[11.07495,45.44322],[11.07503,45.44306],[11.07525,45.44265],[11.07529,45.44259],[11.07533,45.44255],[11.07536,45.4425],[11.0754,45.44246],[11.07583,45.44196],[11.07624,45.44144],[11.07678,45.44072],[11.07702,45.44034],[11.07788,45.43912],[11.07833,45.43839],[11.07702,45.43816],[11.07552,45.43805],[11.07381,45.43795],[11.07111,45.43746],[11.06718,45.43698],[11.06652,45.43702],[11.06576,45.43755],[11.06476,45.43829],[11.06459,45.43845],[11.06399,45.4389],[11.06269,45.43988],[11.06206,45.44034],[11.06185,45.44054],[11.06168,45.44071],[11.06029,45.44063],[11.05892,45.44052],[11.05825,45.44047],[11.05626,45.44034],[11.05451,45.44021],[11.05195,45.44004],[11.05088,45.43997],[11.04969,45.43991],[11.04945,45.43991],[11.04885,45.43989],[11.0478,45.4399],[11.04725,45.43991],[11.04637,45.43991],[11.0456,45.43996],[11.04485,45.44006],[11.04401,45.44016],[11.04362,45.44023],[11.04326,45.44029],[11.04211,45.44048],[11.04102,45.4406],[11.04044,45.44066],[11.0378,45.44093],[11.03649,45.44107],[11.03652,45.44193],[11.03653,45.44243],[11.03654,45.44308],[11.03662,45.44439],[11.03687,45.44544],[11.03697,45.44578],[11.03711,45.44651],[11.03732,45.44739],[11.03718,45.44821],[11.03754,45.44829],[11.03647,45.45104],[11.03629,45.45149],[11.03604,45.45214],[11.03624,45.45228],[11.03611,45.45331],[11.03602,45.45447],[11.036,45.45461],[11.03599,45.45474],[11.0363,45.45481],[11.03672,45.45489],[11.03739,45.45506],[11.03786,45.4552],[11.03771,45.45565],[11.03756,45.45627],[11.03732,45.45729],[11.03728,45.45763],[11.03745,45.45793],[11.0377,45.45818],[11.03799,45.4583],[11.03828,45.45843],[11.03846,45.4585],[11.03879,45.45869],[11.03909,45.45887],[11.03958,45.45903],[11.04004,45.45912],[11.04029,45.45913],[11.04021,45.45936],[11.0398,45.46054],[11.03956,45.46118],[11.0394,45.46209],[11.03941,45.46263],[11.03932,45.4632],[11.03915,45.46383],[11.03901,45.4644],[11.03897,45.46439],[11.03872,45.46435],[11.03856,45.46431],[11.03827,45.46425],[11.03793,45.46417],[11.03757,45.46406],[11.03721,45.46395],[11.03659,45.46379],[11.03603,45.46363],[11.03561,45.46353],[11.03531,45.46347],[11.03495,45.46341],[11.03484,45.46348],[11.03476,45.46354],[11.0345,45.4638],[11.03431,45.46399],[11.03409,45.46423],[11.03378,45.46433],[11.03381,45.46394],[11.03387,45.46355],[11.03396,45.46328],[11.03357,45.46324],[11.03333,45.46325],[11.03289,45.46324],[11.03283,45.46324],[11.03278,45.46323],[11.03247,45.46323],[11.03221,45.46322],[11.03192,45.46323],[11.03176,45.46328],[11.03165,45.46331],[11.03127,45.46331],[11.03027,45.46329],[11.02998,45.46329],[11.02993,45.46326],[11.02991,45.46323],[11.02987,45.46296],[11.02985,45.46291],[11.02982,45.46289],[11.02964,45.46288],[11.02927,45.46284],[11.02904,45.46282],[11.0289,45.46279],[11.02853,45.46271],[11.02825,45.46265],[11.02791,45.46258],[11.02766,45.46255],[11.02745,45.46252],[11.02725,45.4625],[11.02712,45.46248],[11.02696,45.46246],[11.02664,45.46245],[11.0264,45.46242],[11.02601,45.46238],[11.02555,45.46232],[11.025,45.46225],[11.02445,45.46216],[11.02403,45.4621],[11.02343,45.462],[11.02306,45.46196],[11.02275,45.46192],[11.02248,45.4619],[11.02209,45.46187],[11.0217,45.46185],[11.0214,45.46184],[11.0211,45.46182],[11.02082,45.4618],[11.02059,45.46177],[11.02045,45.46174],[11.02003,45.46164],[11.01974,45.46157],[11.01947,45.46151],[11.0193,45.46149],[11.01891,45.46139],[11.01846,45.46129],[11.01845,45.46148],[11.01844,45.46188],[11.01842,45.46208],[11.01841,45.46224],[11.01841,45.46302],[11.01836,45.46343],[11.01831,45.46381],[11.01829,45.46468],[11.01837,45.46496],[11.01829,45.46667],[11.01832,45.46712],[11.01726,45.46705],[11.01648,45.46703],[11.01605,45.46695],[11.01446,45.46651],[11.01446,45.46648],[11.0133,45.46661],[11.01283,45.46667],[11.01276,45.4667],[11.01289,45.46717],[11.01291,45.4672],[11.01207,45.46728],[11.01114,45.46747],[11.01047,45.46758],[11.01012,45.46942],[11.00996,45.47133],[11.01005,45.47244],[11.01016,45.4736],[11.01007,45.47412],[11.01014,45.47424],[11.01027,45.47444],[11.01041,45.47466],[11.01044,45.47483],[11.01041,45.475],[11.01038,45.47511],[11.01035,45.47523],[11.01039,45.47544],[11.01038,45.47559],[11.01032,45.47584],[11.0103,45.47601],[11.01031,45.4762],[11.01032,45.47635],[11.01039,45.4766],[11.01048,45.47683],[11.01069,45.47725],[11.01094,45.47774],[11.011,45.47781],[11.01109,45.47782],[11.01114,45.47785],[11.01122,45.47794],[11.01126,45.47808],[11.01129,45.47852],[11.01132,45.47869],[11.01134,45.4789],[11.01131,45.47897],[11.01131,45.47921],[11.01133,45.4795],[11.01136,45.47967],[11.01139,45.47976],[11.01144,45.47983],[11.01142,45.4799],[11.01119,45.48027],[11.01101,45.48057],[11.01089,45.48071],[11.01083,45.48082],[11.01073,45.48093],[11.01062,45.48102],[11.0103,45.48121],[11.00998,45.48143],[11.00983,45.48158],[11.00981,45.48171],[11.00978,45.48178],[11.00949,45.48193],[11.00883,45.48214],[11.00863,45.48228],[11.00861,45.48234],[11.00835,45.48244],[11.00812,45.48253],[11.00802,45.48252],[11.00793,45.48243],[11.00786,45.48233],[11.00772,45.48218],[11.00761,45.48217],[11.00747,45.48254],[11.00746,45.48272],[11.00759,45.48307],[11.00765,45.48333],[11.00764,45.4835],[11.00759,45.4836],[11.00745,45.48376],[11.00728,45.48397],[11.00724,45.48402],[11.00711,45.48424],[11.00699,45.48434],[11.00686,45.48439],[11.00658,45.48444],[11.00616,45.48454],[11.00572,45.4847],[11.00551,45.48482],[11.00536,45.48492],[11.00528,45.48501],[11.00521,45.48514],[11.00515,45.48529],[11.005,45.48565],[11.00469,45.48634],[11.00458,45.48658],[11.00452,45.48677],[11.00479,45.48682],[11.00495,45.48687],[11.00502,45.48701],[11.00493,45.48706],[11.00501,45.48718],[11.00522,45.4874],[11.00531,45.48745],[11.00547,45.4875],[11.00566,45.48768],[11.00576,45.48786],[11.00579,45.48801],[11.00576,45.48829],[11.00579,45.48864],[11.00577,45.48893],[11.00573,45.48922],[11.00571,45.48945],[11.0057,45.4896],[11.0057,45.49],[11.00569,45.49008],[11.00565,45.49023],[11.00547,45.49049],[11.00533,45.49064],[11.00493,45.49113],[11.00491,45.49117],[11.00478,45.49115],[11.00455,45.4911],[11.00441,45.49109],[11.00422,45.49111],[11.00403,45.49115],[11.00384,45.49122],[11.00339,45.49209],[11.00334,45.49213],[11.00314,45.4923],[11.003,45.4924],[11.00281,45.49251],[11.0026,45.4926],[11.00212,45.49281],[11.00202,45.49272],[11.00188,45.49267],[11.00178,45.49261],[11.00158,45.49256],[11.00141,45.49252],[11.00121,45.49246],[11.00101,45.49237],[11.00089,45.4923],[11.00075,45.49222],[11.00064,45.49218],[11.00054,45.49214],[11.00045,45.49209],[11.00035,45.49204],[11.00023,45.49198],[11.00011,45.4919],[11.0,45.4918],[10.9999,45.49173],[10.99983,45.49173],[10.99977,45.49174],[10.99965,45.49177],[10.99958,45.49178],[10.99953,45.49179],[10.99944,45.49181],[10.99934,45.49182],[10.99929,45.49181],[10.99924,45.49178],[10.99919,45.49176],[10.99912,45.49175],[10.99904,45.49174],[10.99896,45.49175],[10.99886,45.49175],[10.99879,45.49176],[10.99873,45.49175],[10.99861,45.49174],[10.99854,45.49172],[10.99845,45.4917],[10.9984,45.49169],[10.99834,45.49167],[10.99824,45.49166],[10.99813,45.49165],[10.99804,45.49165],[10.99796,45.49166],[10.99788,45.49168],[10.99782,45.4917],[10.99768,45.49177],[10.99754,45.4919],[10.99748,45.49193],[10.99743,45.49194],[10.99737,45.49195],[10.99728,45.49192],[10.99724,45.49193],[10.99718,45.49193],[10.99741,45.49205],[10.99755,45.49212],[10.99763,45.49214],[10.99767,45.49215],[10.99774,45.49218],[10.9978,45.49219],[10.99785,45.49221],[10.99794,45.49225],[10.99799,45.49228],[10.99805,45.49232],[10.99808,45.49234],[10.9981,45.49238],[10.99812,45.49243],[10.99814,45.4925],[10.99817,45.49262],[10.9982,45.49275],[10.99822,45.49287],[10.99824,45.49295],[10.99826,45.49303],[10.9983,45.49311],[10.99831,45.49316],[10.99832,45.4932],[10.9983,45.49324],[10.99826,45.49327],[10.9982,45.49329],[10.99812,45.49332],[10.99802,45.49336],[10.99796,45.49339],[10.99793,45.49342],[10.99789,45.49347],[10.99787,45.49353],[10.99784,45.49361],[10.99783,45.49369],[10.99784,45.49374],[10.99785,45.49379],[10.99787,45.49382],[10.9979,45.49386],[10.998,45.49389],[10.99807,45.4939],[10.99818,45.49391],[10.99824,45.49391],[10.99835,45.49392],[10.9984,45.49393],[10.99849,45.49395],[10.99855,45.49399],[10.99856,45.49404],[10.99859,45.49412],[10.9986,45.49421],[10.99863,45.49433],[10.99863,45.49446],[10.99865,45.49456],[10.99867,45.49464],[10.9987,45.49473],[10.99873,45.49477],[10.99878,45.49483],[10.99883,45.49487],[10.99891,45.49492],[10.99899,45.495],[10.99905,45.49507],[10.9991,45.49513],[10.99916,45.49521],[10.99922,45.49528],[10.99929,45.49536],[10.99932,45.49539],[10.99934,45.49544],[10.99935,45.4955],[10.99933,45.49555],[10.9993,45.49557],[10.99923,45.4956],[10.99916,45.49562],[10.999,45.49567],[10.99891,45.4957],[10.99885,45.49573],[10.99881,45.49576],[10.99879,45.49581],[10.99879,45.49585],[10.99881,45.49591],[10.99884,45.49599],[10.99888,45.49605],[10.99892,45.49611],[10.99897,45.49616],[10.99902,45.49619],[10.99912,45.49624],[10.99927,45.4963],[10.99936,45.49633],[10.99946,45.49637],[10.99954,45.4964],[10.99959,45.49644],[10.99961,45.49647],[10.99964,45.49653],[10.99964,45.49661],[10.99965,45.49664],[10.99966,45.49669],[10.99966,45.49677],[10.99964,45.49684],[10.99961,45.49688],[10.99959,45.49693],[10.99958,45.49698],[10.99957,45.49705],[10.99955,45.49715],[10.99951,45.4973],[10.99949,45.49738],[10.99948,45.49744],[10.99948,45.49752],[10.9995,45.49759],[10.99952,45.49764],[10.99957,45.49765],[10.99961,45.49766],[10.99964,45.49768],[10.99968,45.49769],[10.99972,45.49774],[10.99973,45.49779],[10.99976,45.49786],[10.99978,45.49792],[10.99979,45.49797],[10.99978,45.49801],[10.99977,45.49805],[10.99976,45.49808],[10.99973,45.49812],[10.99972,45.49817],[10.99973,45.49821],[10.99975,45.49828],[10.99974,45.49833],[10.99972,45.49838],[10.99972,45.49844],[10.99975,45.49848],[10.9998,45.4985],[10.9999,45.49852],[11.00001,45.49853],[11.00004,45.49855],[11.0001,45.49859],[11.00012,45.49864],[11.00012,45.49869],[11.00012,45.49872],[11.00011,45.49876],[11.00014,45.4988],[11.00019,45.49882],[11.00026,45.49886],[11.00028,45.49891],[11.00029,45.49895],[11.00032,45.499],[11.00035,45.49909],[11.0003,45.49912],[11.00024,45.49915],[11.00018,45.49922],[11.00009,45.49938],[11.0001,45.49945],[11.00006,45.49955],[11.00003,45.49961],[11.00003,45.49968],[11.00004,45.49978],[11.00006,45.49984],[11.00013,45.49991],[11.00022,45.50004],[11.00031,45.5001],[11.00037,45.50015],[11.00042,45.50023],[11.00043,45.50029],[11.00043,45.50038],[11.0004,45.50047],[11.00038,45.50054],[11.00037,45.50061],[11.00038,45.50068],[11.00038,45.50074],[11.00035,45.50078],[11.00033,45.50085],[11.00032,45.50088],[11.00029,45.50095],[11.00027,45.50108],[11.00027,45.50118],[11.00025,45.5013],[11.00023,45.50142],[11.00021,45.50148],[11.00016,45.50152],[11.00012,45.50159],[11.00011,45.50167],[11.00008,45.50177],[11.00004,45.50184],[10.99997,45.50191],[10.99993,45.50196],[10.99989,45.50202],[10.99987,45.50207],[10.99987,45.50211],[10.99986,45.50217],[10.99985,45.50222],[10.99984,45.50227],[10.99985,45.50233],[10.99984,45.5024],[10.99982,45.50246],[10.99981,45.50252],[10.99977,45.50257],[10.99973,45.50264],[10.9997,45.50274],[10.99969,45.50277],[10.9997,45.50283],[10.9997,45.50285],[10.99973,45.50292],[10.99978,45.50298],[10.99983,45.50304],[10.99987,45.50309],[10.9999,45.50314],[10.99988,45.50318],[10.99982,45.50321],[10.99969,45.50323],[10.99961,45.50325],[10.9995,45.50325],[10.99942,45.50326],[10.9993,45.50328],[10.99921,45.50335],[10.99917,45.50338],[10.99909,45.50344],[10.99901,45.50351],[10.99895,45.50356],[10.99891,45.5036],[10.99889,45.50362],[10.99886,45.50367],[10.99886,45.50373],[10.99886,45.50378],[10.99883,45.50384],[10.99882,45.50388],[10.99886,45.50396],[10.99888,45.50399],[10.99891,45.50405],[10.99892,45.5041],[10.99892,45.50417],[10.99891,45.50423],[10.9989,45.50428],[10.99889,45.50435],[10.99886,45.5044],[10.99886,45.50445],[10.99886,45.50451],[10.99883,45.50457],[10.99879,45.50463],[10.9987,45.50471],[10.99864,45.50475],[10.99859,45.50479],[10.9985,45.50482],[10.99841,45.50485],[10.99833,45.50489],[10.99825,45.50492],[10.99818,45.50495],[10.9981,45.50499],[10.99803,45.50503],[10.99797,45.50509],[10.99793,45.50514],[10.99792,45.50519],[10.9979,45.50524],[10.99786,45.50529],[10.99785,45.50535],[10.99786,45.50542],[10.99788,45.50548],[10.99797,45.50558],[10.99799,45.50562],[10.998,45.50566],[10.99797,45.50574],[10.99791,45.50582],[10.99786,45.50586],[10.9978,45.50591],[10.99771,45.50598],[10.99768,45.50602],[10.99765,45.50606],[10.99763,45.50612],[10.99762,45.50614],[10.99762,45.50618],[10.99765,45.50624],[10.99766,45.50628],[10.99764,45.50638],[10.99762,45.50642],[10.9976,45.50647],[10.99756,45.50651],[10.99751,45.50657],[10.99745,45.50662],[10.99741,45.50666],[10.99739,45.50671],[10.99738,45.50674],[10.99739,45.50678],[10.99743,45.50684],[10.99753,45.50692],[10.99759,45.50696],[10.99762,45.50702],[10.99764,45.50707],[10.99765,45.5071],[10.99765,45.50717],[10.99763,45.50724],[10.9976,45.50728],[10.99758,45.50733],[10.99754,45.50737],[10.99749,45.50744],[10.99747,45.50747],[10.99746,45.50752],[10.99743,45.50757],[10.99741,45.50762],[10.99737,45.50771],[10.99733,45.50776],[10.99725,45.5078],[10.99713,45.50781],[10.997,45.50788],[10.99699,45.50793],[10.99701,45.50801],[10.99704,45.50808],[10.99704,45.50815],[10.99705,45.50819],[10.99704,45.50822],[10.997,45.50829],[10.99693,45.50836],[10.99693,45.50843],[10.99691,45.50849],[10.99689,45.50857],[10.99687,45.50866],[10.99684,45.50873],[10.99682,45.50878],[10.99681,45.50885],[10.9968,45.5089],[10.99679,45.50894],[10.99676,45.50899],[10.99671,45.50905],[10.99667,45.50911],[10.99664,45.50917],[10.9966,45.50923],[10.99657,45.5093],[10.99656,45.50937],[10.99655,45.50944],[10.99653,45.50946],[10.99647,45.50952],[10.99641,45.50957],[10.99639,45.50962],[10.99639,45.50969],[10.99637,45.50976],[10.99635,45.50983],[10.99633,45.5099],[10.99632,45.50998],[10.99634,45.51006],[10.99636,45.51012],[10.99641,45.51207],[10.99653,45.51209],[10.99743,45.51206],[10.99829,45.5121],[10.99883,45.51218],[10.99897,45.5124],[10.99884,45.51285],[10.9985,45.51315],[10.99837,45.5134],[11.0003,45.51323],[11.00062,45.51272],[11.00123,45.51218],[11.00161,45.51162],[11.00153,45.51106],[11.00131,45.51051],[11.00216,45.50971],[11.0027,45.50912],[11.00291,45.50886],[11.00399,45.50899],[11.00518,45.509],[11.00576,45.50869],[11.00582,45.50853],[11.00592,45.50828],[11.00652,45.5081],[11.00793,45.50803],[11.00919,45.50802],[11.00975,45.50802],[11.01088,45.50807],[11.0122,45.50806],[11.01281,45.50807],[11.01328,45.50824],[11.01414,45.50851],[11.01526,45.50852],[11.01626,45.50849],[11.01691,45.50823],[11.01761,45.5079],[11.01857,45.5079],[11.01948,45.5079],[11.02023,45.50794],[11.02038,45.50815],[11.02015,45.50856],[11.01991,45.50895],[11.02063,45.50932],[11.0214,45.50972],[11.02172,45.50989],[11.02232,45.51018],[11.02325,45.51033],[11.0243,45.51004],[11.02528,45.50983],[11.02588,45.50972],[11.02658,45.51075],[11.02597,45.51114],[11.02769,45.51138],[11.02917,45.51149],[11.03109,45.51162],[11.03242,45.51179],[11.03384,45.51209],[11.03509,45.51206],[11.03618,45.51197],[11.03692,45.51206],[11.03768,45.51248],[11.03847,45.51263],[11.04004,45.51217],[11.0414,45.51194],[11.04313,45.51172],[11.04422,45.5117],[11.04524,45.51198],[11.04595,45.5124],[11.0464,45.51287],[11.04658,45.51281],[11.04717,45.51261],[11.04693,45.51231],[11.04673,45.51204],[11.04744,45.51179],[11.04784,45.51161],[11.04778,45.51128],[11.04751,45.51073],[11.048,45.51027],[11.04801,45.50993],[11.04847,45.50985],[11.04851,45.51038],[11.04874,45.5106],[11.04941,45.50978],[11.04993,45.50919],[11.05031,45.50912],[11.05229,45.50946],[11.05358,45.50906],[11.05461,45.50875],[11.05563,45.50905],[11.05684,45.50953],[11.05785,45.50984],[11.05833,45.50856],[11.05854,45.50812],[11.0589,45.50751],[11.05968,45.50765],[11.06044,45.50796],[11.06122,45.50853],[11.06126,45.50856],[11.06178,45.50925],[11.06193,45.50996],[11.06199,45.51061],[11.06234,45.51148],[11.06199,45.51273],[11.06177,45.51363],[11.06113,45.5142],[11.06081,45.51456],[11.06141,45.51538],[11.06159,45.51619],[11.06141,45.51756],[11.06101,45.51846],[11.06078,45.51892],[11.06075,45.51955],[11.06092,45.5199],[11.06185,45.51973],[11.06283,45.51919],[11.06363,45.51877],[11.0642,45.51863],[11.06439,45.51899],[11.06463,45.51989],[11.06505,45.52057],[11.06538,45.52154],[11.06524,45.52289],[11.06499,45.52401],[11.0651,45.52528],[11.06547,45.52614],[11.06579,45.52682],[11.06579,45.52742],[11.06545,45.52786],[11.0653,45.52865],[11.06557,45.52938],[11.06551,45.53015],[11.06565,45.53057],[11.06558,45.53146],[11.0651,45.53232],[11.0647,45.53307],[11.06381,45.53385],[11.06321,45.53412],[11.06305,45.53437],[11.06329,45.53478],[11.06332,45.53484],[11.06346,45.53509],[11.06422,45.53546],[11.06521,45.53582],[11.06565,45.53622],[11.06582,45.53688],[11.06537,45.53754],[11.06511,45.53799],[11.06519,45.53831],[11.06553,45.53839],[11.06645,45.53812],[11.06732,45.53774],[11.06815,45.53751],[11.06876,45.53687],[11.06921,45.53657],[11.06973,45.5366],[11.07009,45.53662],[11.07048,45.53697],[11.07079,45.53767],[11.07125,45.53824],[11.07134,45.53899],[11.07176,45.53958],[11.07203,45.54008],[11.07201,45.54023],[11.07196,45.54055],[11.0719,45.54095],[11.07205,45.54128],[11.07224,45.54153],[11.07311,45.54146],[11.07427,45.54136],[11.07476,45.54144],[11.07534,45.54169],[11.07622,45.54181],[11.07668,45.5418]]]]}}]}