{"type":"FeatureCollection","name":"ITA_R41038","crs":{"type":"name","properties":{"name":"urn:ogc:def:crs:OGC:1.3:CRS84"}},"features":[{"type":"Feature","properties":{"nbhd_name":"Palese-Santo Spirito","uesi_id":"ITA_R41038","nbhd_code":"ITA_R41038_2"},"geometry":{"type":"MultiPolygon","coordinates":[[[[16.7333,41.16968],[16.73338,41.1696],[16.73329,41.16959],[16.73332,41.1695],[16.73356,41.1695],[16.73366,41.16941],[16.73403,41.16936],[16.7342,41.16944],[16.73443,41.1695],[16.73471,41.16942],[16.73483,41.16946],[16.7352,41.16938],[16.73516,41.16926],[16.73528,41.16928],[16.73544,41.16919],[16.73536,41.16877],[16.73575,41.16864],[16.73599,41.1686],[16.73612,41.16894],[16.73653,41.16896],[16.73674,41.16897],[16.73689,41.16904],[16.73724,41.16904],[16.73739,41.16911],[16.73765,41.16915],[16.73787,41.16913],[16.73805,41.16914],[16.73858,41.16909],[16.73902,41.16892],[16.73922,41.16891],[16.73924,41.16899],[16.73935,41.16899],[16.73938,41.16892],[16.73997,41.16891],[16.73997,41.16882],[16.74021,41.16879],[16.74043,41.16868],[16.74075,41.16863],[16.74074,41.16854],[16.74091,41.16858],[16.74105,41.16848],[16.74096,41.16837],[16.74123,41.16836],[16.74133,41.16847],[16.74165,41.16824],[16.74186,41.1682],[16.74211,41.1682],[16.74218,41.16827],[16.74246,41.16808],[16.7428,41.16803],[16.74287,41.16784],[16.74299,41.16778],[16.743,41.1677],[16.74336,41.1676],[16.74337,41.16754],[16.74359,41.16753],[16.7436,41.1676],[16.74371,41.1676],[16.74403,41.16771],[16.74419,41.16778],[16.74434,41.16779],[16.74438,41.16784],[16.7444,41.16786],[16.74451,41.16786],[16.74456,41.16799],[16.74473,41.16806],[16.745,41.16805],[16.74509,41.16792],[16.74525,41.16796],[16.74529,41.16787],[16.74561,41.1678],[16.74568,41.16766],[16.74584,41.16768],[16.74611,41.16757],[16.74613,41.16762],[16.74625,41.1676],[16.74633,41.16748],[16.74665,41.16732],[16.74685,41.1673],[16.74702,41.1672],[16.74722,41.16703],[16.74728,41.16701],[16.74731,41.16706],[16.74738,41.16702],[16.74747,41.16698],[16.74756,41.16693],[16.74769,41.16682],[16.74778,41.16682],[16.748,41.16678],[16.74822,41.16671],[16.74844,41.16661],[16.74838,41.16637],[16.7486,41.16622],[16.74966,41.1665],[16.75051,41.16651],[16.7505,41.16659],[16.75069,41.1666],[16.75068,41.1664],[16.75048,41.1664],[16.75048,41.16645],[16.75024,41.16646],[16.75021,41.16638],[16.75014,41.16638],[16.75018,41.16646],[16.74963,41.16643],[16.74971,41.16616],[16.74965,41.16616],[16.74956,41.16641],[16.74921,41.16632],[16.74932,41.16599],[16.74927,41.16599],[16.74914,41.1663],[16.74884,41.16623],[16.7489,41.166],[16.74884,41.16598],[16.74879,41.16621],[16.74852,41.16613],[16.74859,41.1658],[16.74858,41.16566],[16.74852,41.16549],[16.74875,41.16422],[16.74893,41.164],[16.74909,41.16393],[16.74918,41.16395],[16.74935,41.16431],[16.74908,41.16439],[16.74908,41.16444],[16.74937,41.16436],[16.74947,41.16456],[16.74917,41.16464],[16.74918,41.16469],[16.74994,41.16451],[16.74993,41.16447],[16.74953,41.16455],[16.74943,41.16435],[16.74979,41.16424],[16.74978,41.1642],[16.74941,41.16431],[16.74927,41.16395],[16.7494,41.16393],[16.74949,41.16385],[16.74949,41.1637],[16.7495,41.16365],[16.7497,41.16359],[16.7498,41.16356],[16.75002,41.16353],[16.7501,41.16351],[16.75034,41.16352],[16.7507,41.16355],[16.75092,41.16356],[16.75113,41.16359],[16.75123,41.16361],[16.75145,41.16372],[16.75158,41.16377],[16.75165,41.1638],[16.75172,41.16382],[16.75177,41.16384],[16.75185,41.16387],[16.75192,41.16394],[16.75164,41.1641],[16.75089,41.16416],[16.75073,41.16416],[16.75074,41.16421],[16.75164,41.16415],[16.75198,41.16395],[16.75201,41.16401],[16.75203,41.16405],[16.75209,41.16416],[16.75205,41.16425],[16.75208,41.16452],[16.75187,41.16454],[16.75136,41.16467],[16.75139,41.16472],[16.75202,41.16458],[16.75204,41.16465],[16.75205,41.16479],[16.75074,41.16538],[16.75071,41.16534],[16.75052,41.16543],[16.7507,41.16561],[16.75202,41.16504],[16.75225,41.16504],[16.75249,41.16511],[16.75265,41.16526],[16.75289,41.16527],[16.75298,41.16518],[16.75348,41.16524],[16.75389,41.16524],[16.7539,41.16518],[16.75451,41.16479],[16.75471,41.16477],[16.75481,41.16481],[16.75505,41.16489],[16.75509,41.165],[16.75534,41.16512],[16.75537,41.16508],[16.75554,41.16507],[16.75557,41.16513],[16.75576,41.16507],[16.75584,41.16493],[16.75607,41.16478],[16.75619,41.16469],[16.75637,41.16461],[16.7566,41.16462],[16.75685,41.16458],[16.75711,41.16441],[16.75728,41.16425],[16.7574,41.1643],[16.75768,41.16411],[16.75767,41.16404],[16.75801,41.16395],[16.75804,41.16382],[16.75815,41.16366],[16.75837,41.16364],[16.75843,41.16382],[16.75893,41.16369],[16.75886,41.16353],[16.7589,41.1634],[16.75908,41.16331],[16.75949,41.16317],[16.75988,41.16309],[16.75998,41.16317],[16.76013,41.16319],[16.76091,41.16305],[16.76111,41.16301],[16.76153,41.1628],[16.76166,41.16265],[16.76184,41.16237],[16.76217,41.16172],[16.76227,41.16174],[16.76235,41.16148],[16.76241,41.16148],[16.76248,41.16136],[16.76259,41.16137],[16.76282,41.16125],[16.76292,41.16106],[16.76298,41.161],[16.76291,41.16095],[16.76294,41.16079],[16.76287,41.16054],[16.76297,41.16047],[16.76313,41.16041],[16.76314,41.16036],[16.76323,41.16032],[16.76376,41.16031],[16.76377,41.16025],[16.76389,41.16022],[16.76434,41.1602],[16.76434,41.16014],[16.76475,41.16014],[16.76476,41.1602],[16.76489,41.16034],[16.76501,41.16039],[16.7653,41.16044],[16.76537,41.16038],[16.76542,41.16021],[16.76553,41.16021],[16.76564,41.16027],[16.76606,41.16039],[16.76642,41.16048],[16.76675,41.16051],[16.7668,41.16054],[16.767,41.16056],[16.76707,41.16048],[16.76758,41.16059],[16.76761,41.16107],[16.76765,41.16126],[16.76772,41.16137],[16.76787,41.16149],[16.76805,41.16158],[16.76846,41.16164],[16.76884,41.16165],[16.76882,41.16156],[16.76836,41.16156],[16.76812,41.16151],[16.76783,41.16136],[16.76772,41.16116],[16.76772,41.16071],[16.76792,41.16069],[16.76794,41.16061],[16.76873,41.1606],[16.76899,41.16059],[16.76905,41.16095],[16.76911,41.16094],[16.76908,41.16072],[16.76922,41.16073],[16.76932,41.16073],[16.76941,41.16073],[16.76945,41.16072],[16.76953,41.1607],[16.7696,41.16063],[16.76965,41.16056],[16.7697,41.16045],[16.76978,41.16041],[16.76982,41.16037],[16.76992,41.16035],[16.76997,41.16034],[16.77005,41.16034],[16.77013,41.16035],[16.77024,41.16036],[16.77048,41.16032],[16.77065,41.16029],[16.77078,41.16023],[16.7709,41.16021],[16.77092,41.1604],[16.7712,41.16041],[16.77142,41.16038],[16.77164,41.16033],[16.77174,41.1603],[16.77177,41.16027],[16.77183,41.16019],[16.77189,41.16017],[16.77195,41.16011],[16.77196,41.16006],[16.77211,41.16004],[16.77228,41.16002],[16.77235,41.16003],[16.77239,41.16007],[16.77243,41.16012],[16.77245,41.16019],[16.77256,41.1602],[16.77265,41.16022],[16.77267,41.16028],[16.77293,41.16029],[16.77294,41.16012],[16.77302,41.16012],[16.77322,41.16015],[16.77334,41.16016],[16.77343,41.16018],[16.77349,41.16024],[16.77366,41.16025],[16.77376,41.16023],[16.77372,41.16057],[16.77406,41.16061],[16.7741,41.16062],[16.77409,41.16068],[16.77418,41.16068],[16.77425,41.16069],[16.77434,41.1607],[16.7745,41.1607],[16.77494,41.16069],[16.77512,41.16068],[16.77555,41.16065],[16.77556,41.1607],[16.77605,41.16067],[16.77605,41.16056],[16.77618,41.16054],[16.77649,41.1605],[16.77671,41.16048],[16.77684,41.16046],[16.77684,41.16033],[16.77684,41.16028],[16.77697,41.16025],[16.77727,41.16023],[16.77757,41.16016],[16.77771,41.16012],[16.77825,41.15992],[16.77872,41.15971],[16.77881,41.15975],[16.77914,41.15972],[16.77932,41.15961],[16.77945,41.15949],[16.77942,41.15947],[16.77958,41.15934],[16.77957,41.15924],[16.77965,41.15911],[16.78004,41.15879],[16.78051,41.15836],[16.7807,41.15815],[16.78088,41.15784],[16.78124,41.15752],[16.78146,41.15735],[16.78174,41.1571],[16.78188,41.15689],[16.7822,41.15658],[16.78243,41.15641],[16.78267,41.15629],[16.78283,41.1563],[16.78299,41.15615],[16.78298,41.15609],[16.7831,41.15596],[16.78326,41.15582],[16.78335,41.15569],[16.78347,41.15566],[16.78369,41.15559],[16.78381,41.15551],[16.78383,41.15538],[16.7841,41.15513],[16.78433,41.15494],[16.78466,41.1547],[16.78493,41.15456],[16.78508,41.1545],[16.78516,41.15441],[16.78551,41.15422],[16.78571,41.15405],[16.78603,41.15387],[16.78642,41.15357],[16.78664,41.15334],[16.78698,41.15302],[16.78715,41.15295],[16.78744,41.15281],[16.78761,41.15262],[16.78773,41.15252],[16.78804,41.15232],[16.78816,41.15218],[16.78839,41.15202],[16.78883,41.15182],[16.78916,41.15165],[16.78948,41.15147],[16.78981,41.1514],[16.79013,41.15125],[16.79014,41.15112],[16.79029,41.15102],[16.79039,41.15067],[16.79042,41.15044],[16.79032,41.15035],[16.79023,41.14999],[16.79026,41.14981],[16.79037,41.14973],[16.79066,41.1496],[16.79081,41.14958],[16.79103,41.14955],[16.79125,41.14943],[16.79127,41.14919],[16.7914,41.14904],[16.79152,41.14903],[16.79168,41.14894],[16.79176,41.14886],[16.79173,41.14866],[16.79188,41.1485],[16.79226,41.14826],[16.79246,41.14822],[16.79264,41.14839],[16.7927,41.14837],[16.79253,41.1482],[16.79259,41.14815],[16.79257,41.14803],[16.79266,41.14802],[16.7927,41.14791],[16.79306,41.14773],[16.79322,41.14773],[16.79335,41.14777],[16.79381,41.14758],[16.79412,41.14741],[16.79437,41.14732],[16.79444,41.1474],[16.79449,41.14738],[16.79447,41.14727],[16.79453,41.14715],[16.79472,41.14706],[16.79482,41.14703],[16.79488,41.14707],[16.79499,41.14705],[16.79511,41.14688],[16.79533,41.14681],[16.79542,41.14676],[16.79584,41.14658],[16.79584,41.14649],[16.79636,41.14638],[16.79647,41.14649],[16.79651,41.14646],[16.79645,41.14636],[16.79673,41.14629],[16.7969,41.14602],[16.79724,41.14587],[16.79794,41.14563],[16.7981,41.14552],[16.79827,41.14546],[16.79835,41.14541],[16.79834,41.14534],[16.79854,41.14524],[16.79858,41.14516],[16.79873,41.14512],[16.79887,41.14511],[16.79933,41.14489],[16.79936,41.14483],[16.79978,41.1446],[16.79904,41.14374],[16.79883,41.14351],[16.79846,41.14309],[16.79812,41.1427],[16.79789,41.14282],[16.79768,41.14264],[16.79791,41.14247],[16.79728,41.14177],[16.79718,41.14145],[16.79659,41.13987],[16.79736,41.13957],[16.79881,41.13897],[16.7997,41.13864],[16.8011,41.13811],[16.80475,41.13666],[16.80471,41.13659],[16.80468,41.13654],[16.80455,41.13636],[16.80431,41.1361],[16.8041,41.13587],[16.80406,41.13583],[16.80391,41.13588],[16.80335,41.13607],[16.80316,41.13599],[16.80299,41.13581],[16.80257,41.13533],[16.80202,41.13422],[16.80342,41.13377],[16.80249,41.13185],[16.80218,41.13176],[16.80044,41.13126],[16.79942,41.13096],[16.79846,41.13068],[16.79753,41.13041],[16.79771,41.12996],[16.79591,41.12938],[16.79572,41.12955],[16.79546,41.13002],[16.79513,41.13057],[16.7949,41.13086],[16.79467,41.13111],[16.79444,41.13124],[16.79422,41.13134],[16.79405,41.13141],[16.7919,41.13231],[16.79103,41.13266],[16.7905,41.1329],[16.79021,41.13302],[16.78994,41.13316],[16.78978,41.13326],[16.78945,41.13354],[16.78937,41.13361],[16.78914,41.13381],[16.78898,41.13387],[16.7889,41.13391],[16.7888,41.13393],[16.78879,41.13514],[16.79029,41.13515],[16.79027,41.13534],[16.79106,41.13528],[16.79101,41.13657],[16.7907,41.13668],[16.78965,41.13707],[16.78903,41.13734],[16.78458,41.13619],[16.78387,41.136],[16.78367,41.13592],[16.77879,41.13478],[16.77859,41.13461],[16.77847,41.13455],[16.77802,41.13433],[16.77774,41.1341],[16.77675,41.1333],[16.77667,41.13324],[16.77608,41.13278],[16.77549,41.13233],[16.77514,41.13216],[16.77453,41.13196],[16.77375,41.13165],[16.77312,41.13142],[16.77264,41.13126],[16.77232,41.13115],[16.77194,41.13099],[16.77162,41.1308],[16.77121,41.13052],[16.77106,41.13042],[16.77049,41.12997],[16.76973,41.1294],[16.7693,41.12907],[16.76896,41.12883],[16.76851,41.12857],[16.76835,41.12848],[16.76793,41.12844],[16.7672,41.12842],[16.7658,41.12832],[16.7657,41.12832],[16.76485,41.12827],[16.76303,41.12806],[16.76167,41.12777],[16.76096,41.12761],[16.76042,41.12743],[16.75955,41.12715],[16.75924,41.12705],[16.75878,41.12689],[16.7581,41.12665],[16.75721,41.12635],[16.75705,41.12629],[16.75562,41.12583],[16.75447,41.12551],[16.75326,41.12517],[16.75216,41.12482],[16.75022,41.12422],[16.74987,41.12411],[16.74881,41.12381],[16.74871,41.12384],[16.7482,41.124],[16.74719,41.12441],[16.74637,41.12508],[16.74619,41.12565],[16.74623,41.12577],[16.74635,41.12615],[16.74624,41.1267],[16.74567,41.12703],[16.74529,41.12756],[16.74524,41.12763],[16.74473,41.12812],[16.74392,41.12883],[16.74338,41.12929],[16.7428,41.12987],[16.74196,41.13048],[16.74154,41.13091],[16.74146,41.13099],[16.74133,41.13121],[16.74109,41.13158],[16.74089,41.13181],[16.74049,41.13186],[16.74043,41.13216],[16.74042,41.13263],[16.7404,41.13323],[16.7404,41.13327],[16.74025,41.13374],[16.73999,41.13394],[16.73949,41.1341],[16.73897,41.13428],[16.73813,41.13468],[16.73816,41.135],[16.73836,41.13541],[16.73863,41.13586],[16.73985,41.13768],[16.73954,41.13782],[16.739,41.13803],[16.73836,41.13812],[16.73773,41.13819],[16.73728,41.1384],[16.73698,41.13884],[16.73675,41.13928],[16.73639,41.1397],[16.73603,41.14011],[16.73567,41.14028],[16.73545,41.14038],[16.73517,41.14045],[16.73457,41.1406],[16.73399,41.14118],[16.73314,41.14203],[16.7326,41.14251],[16.73238,41.14271],[16.7319,41.14313],[16.73157,41.14353],[16.73137,41.14377],[16.73107,41.14425],[16.73103,41.1443],[16.73085,41.1445],[16.73015,41.14488],[16.72969,41.14517],[16.72915,41.14534],[16.72879,41.14543],[16.72844,41.14551],[16.72759,41.14585],[16.72734,41.14629],[16.72725,41.14656],[16.72676,41.14679],[16.72629,41.14695],[16.72584,41.14724],[16.72545,41.14754],[16.72511,41.14798],[16.72438,41.14861],[16.72358,41.14908],[16.72321,41.14961],[16.7232,41.14964],[16.72331,41.15019],[16.72355,41.15084],[16.72366,41.15122],[16.72365,41.15172],[16.72369,41.15215],[16.72365,41.15252],[16.72364,41.15286],[16.72326,41.15321],[16.72241,41.15348],[16.72204,41.1536],[16.7216,41.15385],[16.72093,41.1541],[16.72002,41.15439],[16.7194,41.15447],[16.71834,41.15468],[16.71728,41.15481],[16.71743,41.15516],[16.71795,41.15617],[16.719,41.15631],[16.72468,41.15765],[16.72498,41.1582],[16.72684,41.15824],[16.72969,41.15829],[16.73033,41.1614],[16.73034,41.16176],[16.73035,41.16196],[16.73045,41.16257],[16.73049,41.16269],[16.73121,41.16463],[16.73082,41.16474],[16.7313,41.1659],[16.73141,41.16626],[16.73148,41.16634],[16.73153,41.16657],[16.73144,41.16659],[16.73097,41.16668],[16.73078,41.16672],[16.73046,41.16677],[16.73062,41.16716],[16.73074,41.16753],[16.73087,41.16783],[16.73101,41.16816],[16.73113,41.16854],[16.73133,41.16898],[16.73143,41.16927],[16.73153,41.16961],[16.73161,41.16976],[16.73168,41.16976],[16.73182,41.16974],[16.73187,41.16975],[16.732,41.16973],[16.73196,41.16966],[16.73204,41.16963],[16.73208,41.16961],[16.73214,41.16954],[16.73225,41.16953],[16.73231,41.16952],[16.73249,41.16953],[16.7326,41.16962],[16.73274,41.16974],[16.73297,41.16968],[16.73303,41.16973],[16.7333,41.16968]]]]}},{"type":"Feature","properties":{"nbhd_name":"San Paolo-Stanic-Villaggio del Lavoratore","uesi_id":"ITA_R41038","nbhd_code":"ITA_R41038_3"},"geometry":{"type":"MultiPolygon","coordinates":[[[[16.80649,41.13593],[16.80761,41.1355],[16.80807,41.13532],[16.80827,41.13523],[16.81102,41.13416],[16.81115,41.13411],[16.81711,41.13165],[16.81886,41.13099],[16.82534,41.1284],[16.8269,41.12778],[16.82713,41.12769],[16.82862,41.12715],[16.83106,41.12617],[16.83249,41.12559],[16.83393,41.12502],[16.83649,41.124],[16.83745,41.12362],[16.83892,41.12304],[16.84219,41.12175],[16.84521,41.12054],[16.84579,41.12031],[16.84653,41.12004],[16.84677,41.11997],[16.84684,41.11995],[16.85202,41.11792],[16.85221,41.11784],[16.85173,41.11781],[16.85105,41.11755],[16.84998,41.11696],[16.84869,41.11588],[16.84819,41.11509],[16.84787,41.11463],[16.84753,41.11423],[16.84739,41.11408],[16.84706,41.1138],[16.84677,41.1136],[16.84663,41.11351],[16.84678,41.11312],[16.84705,41.11243],[16.84723,41.11193],[16.8473,41.11148],[16.84735,41.11121],[16.84704,41.11075],[16.84703,41.10883],[16.84647,41.10805],[16.84602,41.10752],[16.84531,41.10718],[16.84446,41.10685],[16.84327,41.10675],[16.84069,41.10649],[16.83957,41.1064],[16.83299,41.106],[16.83237,41.10594],[16.83016,41.10572],[16.82758,41.10546],[16.82752,41.10545],[16.82644,41.10532],[16.82532,41.10519],[16.82502,41.10515],[16.82251,41.10485],[16.82064,41.10463],[16.82081,41.10396],[16.82146,41.10235],[16.82208,41.10134],[16.82212,41.10126],[16.82221,41.10113],[16.82242,41.10088],[16.82348,41.09971],[16.82363,41.09959],[16.82385,41.0994],[16.82408,41.09921],[16.82489,41.09857],[16.82498,41.0985],[16.8245,41.09815],[16.82337,41.09733],[16.82307,41.09714],[16.8225,41.09679],[16.82108,41.09583],[16.81964,41.09483],[16.81791,41.09364],[16.81633,41.09259],[16.81586,41.09228],[16.81475,41.09154],[16.81383,41.09096],[16.81278,41.09016],[16.81077,41.08882],[16.80968,41.08837],[16.80907,41.08812],[16.809,41.08809],[16.80856,41.08796],[16.80845,41.08791],[16.8082,41.08783],[16.80748,41.0876],[16.80639,41.08733],[16.80622,41.08731],[16.80485,41.08709],[16.80471,41.08708],[16.80459,41.08706],[16.80428,41.08703],[16.80409,41.08717],[16.80425,41.08754],[16.80478,41.08798],[16.80572,41.08853],[16.80598,41.08868],[16.80619,41.0888],[16.80648,41.08898],[16.80661,41.08906],[16.80778,41.08983],[16.80855,41.09034],[16.80888,41.09085],[16.80853,41.09143],[16.80815,41.0921],[16.80767,41.09272],[16.80764,41.09276],[16.80793,41.09304],[16.80897,41.09354],[16.80922,41.094],[16.80882,41.0945],[16.80894,41.09509],[16.80893,41.09577],[16.80893,41.09584],[16.80889,41.09633],[16.8087,41.09709],[16.80857,41.09736],[16.80854,41.09773],[16.80825,41.0982],[16.80776,41.09828],[16.8073,41.09857],[16.80727,41.09861],[16.80726,41.09863],[16.80723,41.09867],[16.8072,41.09872],[16.80701,41.099],[16.80666,41.09995],[16.80633,41.10039],[16.80525,41.10007],[16.8042,41.0998],[16.80394,41.10035],[16.80384,41.10064],[16.80383,41.10068],[16.80372,41.10102],[16.80359,41.10147],[16.80356,41.10156],[16.80341,41.10298],[16.80341,41.10302],[16.8034,41.10306],[16.80339,41.10321],[16.80319,41.10448],[16.80317,41.10458],[16.80282,41.10453],[16.80272,41.10452],[16.80218,41.10444],[16.80101,41.10436],[16.80094,41.10488],[16.80099,41.1063],[16.80059,41.10644],[16.80011,41.10654],[16.80011,41.10657],[16.80011,41.10666],[16.80013,41.10712],[16.80017,41.10735],[16.80018,41.1074],[16.80027,41.10785],[16.80025,41.1083],[16.79935,41.10874],[16.79866,41.10924],[16.79922,41.10976],[16.79955,41.11008],[16.79913,41.11063],[16.79964,41.11091],[16.79924,41.11156],[16.79946,41.11163],[16.79962,41.11168],[16.79987,41.11175],[16.80005,41.11194],[16.80011,41.11202],[16.79951,41.11337],[16.7995,41.1134],[16.79937,41.11369],[16.79849,41.11354],[16.7984,41.11353],[16.79673,41.11324],[16.79694,41.11274],[16.79696,41.1127],[16.79718,41.11217],[16.79768,41.11225],[16.79767,41.11144],[16.79727,41.11134],[16.79692,41.11129],[16.79563,41.11111],[16.79409,41.11104],[16.79398,41.11104],[16.79385,41.11171],[16.79385,41.11193],[16.79385,41.11196],[16.79384,41.11219],[16.79383,41.11271],[16.79291,41.11272],[16.79202,41.11282],[16.79194,41.11337],[16.79201,41.11442],[16.79206,41.11476],[16.79207,41.11483],[16.79208,41.1149],[16.79218,41.1156],[16.79219,41.11596],[16.79221,41.11651],[16.79221,41.11671],[16.79178,41.11651],[16.79098,41.11609],[16.79096,41.1162],[16.79094,41.11626],[16.79079,41.11689],[16.79076,41.11702],[16.79072,41.1172],[16.79064,41.11755],[16.79062,41.11773],[16.79055,41.1182],[16.79016,41.11819],[16.78892,41.11814],[16.78844,41.11811],[16.78797,41.11809],[16.78774,41.11808],[16.78724,41.11806],[16.78717,41.11806],[16.78682,41.11799],[16.78669,41.11796],[16.78665,41.11857],[16.78663,41.11892],[16.78649,41.11977],[16.78642,41.12012],[16.78638,41.12028],[16.78634,41.12026],[16.78623,41.1202],[16.78501,41.11964],[16.78495,41.11961],[16.7838,41.11895],[16.78377,41.11893],[16.78293,41.11843],[16.78222,41.11799],[16.78187,41.11776],[16.78138,41.11744],[16.78118,41.1173],[16.78082,41.11705],[16.78041,41.11678],[16.78019,41.11667],[16.78012,41.11663],[16.78007,41.11661],[16.77999,41.11656],[16.77942,41.11624],[16.77885,41.11598],[16.77807,41.11588],[16.77742,41.11584],[16.77673,41.1157],[16.77611,41.11551],[16.77525,41.11513],[16.77519,41.11511],[16.77496,41.115],[16.77351,41.11442],[16.77266,41.11403],[16.77192,41.11362],[16.77144,41.11334],[16.7711,41.11313],[16.77082,41.113],[16.77008,41.1126],[16.76873,41.11204],[16.76759,41.1116],[16.76631,41.11143],[16.76492,41.11142],[16.7637,41.11149],[16.76241,41.11156],[16.76129,41.11156],[16.76082,41.11182],[16.76056,41.11207],[16.75966,41.11265],[16.75852,41.11324],[16.7578,41.11374],[16.75708,41.11412],[16.75631,41.11433],[16.75506,41.11444],[16.75394,41.11471],[16.75269,41.11475],[16.75158,41.11463],[16.75065,41.11474],[16.74997,41.11483],[16.75022,41.11501],[16.75064,41.1157],[16.75083,41.11626],[16.75103,41.11684],[16.75135,41.11761],[16.75151,41.11822],[16.75139,41.1189],[16.75125,41.11929],[16.75119,41.11942],[16.75105,41.11977],[16.75117,41.12031],[16.75118,41.12039],[16.75096,41.12092],[16.75067,41.12146],[16.75086,41.1221],[16.75094,41.1228],[16.75106,41.12353],[16.75053,41.12384],[16.74958,41.12381],[16.74899,41.12375],[16.74881,41.12381],[16.74987,41.12411],[16.75022,41.12422],[16.75216,41.12482],[16.75326,41.12517],[16.75447,41.12551],[16.75562,41.12583],[16.75705,41.12629],[16.75721,41.12635],[16.7581,41.12665],[16.75878,41.12689],[16.75924,41.12705],[16.75955,41.12715],[16.76042,41.12743],[16.76096,41.12761],[16.76167,41.12777],[16.76303,41.12806],[16.76485,41.12827],[16.7657,41.12832],[16.7658,41.12832],[16.7672,41.12842],[16.76793,41.12844],[16.76835,41.12848],[16.76851,41.12857],[16.76896,41.12883],[16.7693,41.12907],[16.76973,41.1294],[16.77049,41.12997],[16.77106,41.13042],[16.77121,41.13052],[16.77162,41.1308],[16.77194,41.13099],[16.77232,41.13115],[16.77264,41.13126],[16.77312,41.13142],[16.77375,41.13165],[16.77453,41.13196],[16.77514,41.13216],[16.77549,41.13233],[16.77608,41.13278],[16.77667,41.13324],[16.77675,41.1333],[16.77774,41.1341],[16.77802,41.13433],[16.77847,41.13455],[16.77859,41.13461],[16.77879,41.13478],[16.78367,41.13592],[16.78387,41.136],[16.78458,41.13619],[16.78903,41.13734],[16.78965,41.13707],[16.7907,41.13668],[16.79101,41.13657],[16.79106,41.13528],[16.79027,41.13534],[16.79029,41.13515],[16.78879,41.13514],[16.7888,41.13393],[16.7889,41.13391],[16.78898,41.13387],[16.78914,41.13381],[16.78937,41.13361],[16.78945,41.13354],[16.78978,41.13326],[16.78994,41.13316],[16.79021,41.13302],[16.7905,41.1329],[16.79103,41.13266],[16.7919,41.13231],[16.79405,41.13141],[16.79422,41.13134],[16.79444,41.13124],[16.79467,41.13111],[16.7949,41.13086],[16.79513,41.13057],[16.79546,41.13002],[16.79572,41.12955],[16.79591,41.12938],[16.79771,41.12996],[16.79753,41.13041],[16.79846,41.13068],[16.79942,41.13096],[16.80044,41.13126],[16.80218,41.13176],[16.80249,41.13185],[16.80342,41.13377],[16.80202,41.13422],[16.80257,41.13533],[16.80299,41.13581],[16.80316,41.13599],[16.80335,41.13607],[16.80391,41.13588],[16.80406,41.13583],[16.8041,41.13587],[16.80431,41.1361],[16.80455,41.13636],[16.80468,41.13654],[16.80471,41.13659],[16.80475,41.13666],[16.80649,41.13593]]]]}},{"type":"Feature","properties":{"nbhd_name":"Picone-Poggiofranco","uesi_id":"ITA_R41038","nbhd_code":"ITA_R41038_4"},"geometry":{"type":"MultiPolygon","coordinates":[[[[16.86863,41.11638],[16.86874,41.11512],[16.86883,41.11492],[16.86891,41.1147],[16.86897,41.11452],[16.86898,41.11433],[16.86898,41.11424],[16.86897,41.11413],[16.86892,41.11399],[16.86888,41.11364],[16.86869,41.11319],[16.86869,41.11313],[16.86852,41.11271],[16.86839,41.11231],[16.86825,41.11195],[16.86814,41.11158],[16.86811,41.11133],[16.86789,41.11042],[16.86782,41.11009],[16.8678,41.10987],[16.86765,41.10929],[16.86762,41.1087],[16.86762,41.10843],[16.86769,41.10803],[16.86763,41.10794],[16.86766,41.1072],[16.86751,41.10574],[16.86743,41.10539],[16.86739,41.10534],[16.8673,41.10492],[16.86715,41.10445],[16.86711,41.10415],[16.86696,41.10313],[16.86691,41.10276],[16.86699,41.10233],[16.86699,41.10228],[16.86705,41.10197],[16.8671,41.10171],[16.86712,41.10161],[16.86716,41.10124],[16.86719,41.10088],[16.86724,41.10037],[16.86726,41.10013],[16.86726,41.10002],[16.86727,41.09989],[16.86733,41.09916],[16.86733,41.09853],[16.86741,41.09826],[16.86748,41.0976],[16.8675,41.09748],[16.86752,41.09733],[16.86751,41.09726],[16.86754,41.09704],[16.86748,41.09674],[16.86746,41.09657],[16.86739,41.0962],[16.86733,41.09596],[16.86724,41.09561],[16.86715,41.09535],[16.86694,41.09484],[16.86688,41.09471],[16.86634,41.09378],[16.86632,41.09375],[16.86629,41.09365],[16.86624,41.0935],[16.86617,41.09336],[16.86607,41.09305],[16.86596,41.09274],[16.86593,41.09251],[16.86588,41.09199],[16.8659,41.09124],[16.86586,41.09074],[16.86583,41.09031],[16.86581,41.09028],[16.86576,41.09003],[16.86579,41.08974],[16.86559,41.08911],[16.86478,41.08913],[16.86399,41.08915],[16.86407,41.08981],[16.86352,41.08982],[16.86113,41.08984],[16.85912,41.08989],[16.85718,41.08991],[16.85584,41.09001],[16.85416,41.09019],[16.85397,41.09022],[16.85319,41.09032],[16.85049,41.091],[16.84961,41.09122],[16.84653,41.092],[16.84399,41.09263],[16.84322,41.09281],[16.84213,41.09303],[16.84018,41.09348],[16.84003,41.09352],[16.83722,41.09426],[16.8305,41.09604],[16.83029,41.0961],[16.82929,41.09636],[16.8285,41.09667],[16.82826,41.09677],[16.82735,41.0971],[16.82613,41.09775],[16.82512,41.09839],[16.82498,41.0985],[16.82489,41.09857],[16.82408,41.09921],[16.82385,41.0994],[16.82363,41.09959],[16.82348,41.09971],[16.82242,41.10088],[16.82221,41.10113],[16.82212,41.10126],[16.82208,41.10134],[16.82146,41.10235],[16.82081,41.10396],[16.82064,41.10463],[16.82251,41.10485],[16.82502,41.10515],[16.82532,41.10519],[16.82644,41.10532],[16.82752,41.10545],[16.82758,41.10546],[16.83016,41.10572],[16.83237,41.10594],[16.83299,41.106],[16.83957,41.1064],[16.84069,41.10649],[16.84327,41.10675],[16.84446,41.10685],[16.84531,41.10718],[16.84602,41.10752],[16.84647,41.10805],[16.84703,41.10883],[16.84704,41.11075],[16.84735,41.11121],[16.8473,41.11148],[16.84723,41.11193],[16.84705,41.11243],[16.84678,41.11312],[16.84663,41.11351],[16.84677,41.1136],[16.84706,41.1138],[16.84739,41.11408],[16.84753,41.11423],[16.84787,41.11463],[16.84819,41.11509],[16.84869,41.11588],[16.84998,41.11696],[16.85105,41.11755],[16.85173,41.11781],[16.85221,41.11784],[16.85226,41.11788],[16.85227,41.11776],[16.85229,41.11772],[16.85238,41.11759],[16.85279,41.11725],[16.85321,41.11701],[16.85397,41.11678],[16.85502,41.11652],[16.85577,41.11641],[16.85639,41.11638],[16.85645,41.11638],[16.85704,41.11635],[16.8575,41.11633],[16.85832,41.11635],[16.85916,41.11637],[16.85926,41.11638],[16.8594,41.11639],[16.85952,41.1164],[16.86104,41.11651],[16.86108,41.11652],[16.86163,41.11653],[16.86273,41.1166],[16.86472,41.11673],[16.8649,41.11674],[16.86531,41.11676],[16.86535,41.11676],[16.86631,41.11678],[16.8686,41.11698],[16.86866,41.11655],[16.86863,41.11638]]]]}},{"type":"Feature","properties":{"nbhd_name":"Carbonara-Ceglie-Loseto","uesi_id":"ITA_R41038","nbhd_code":"ITA_R41038_5"},"geometry":{"type":"MultiPolygon","coordinates":[[[[16.85584,41.09001],[16.85718,41.08991],[16.85912,41.08989],[16.86113,41.08984],[16.86352,41.08982],[16.86407,41.08981],[16.86399,41.08915],[16.86478,41.08913],[16.86559,41.08911],[16.86579,41.08974],[16.86598,41.08973],[16.86922,41.08967],[16.86964,41.08966],[16.87081,41.08962],[16.8718,41.08956],[16.87187,41.08956],[16.87263,41.08957],[16.87295,41.08958],[16.8742,41.08955],[16.87433,41.08955],[16.87577,41.0895],[16.87784,41.08945],[16.88348,41.08927],[16.8836,41.08926],[16.88364,41.08906],[16.88365,41.08902],[16.88371,41.08886],[16.88375,41.08877],[16.88396,41.08842],[16.88405,41.08828],[16.88415,41.08815],[16.88431,41.08791],[16.88448,41.08769],[16.88455,41.08762],[16.88471,41.08744],[16.8851,41.08693],[16.88553,41.08636],[16.88603,41.08572],[16.88609,41.08557],[16.88632,41.08503],[16.88641,41.08477],[16.88642,41.08465],[16.88715,41.08469],[16.88793,41.0847],[16.89025,41.0848],[16.89051,41.08482],[16.89193,41.08486],[16.89429,41.08492],[16.89565,41.08501],[16.89916,41.0852],[16.90305,41.08542],[16.90768,41.08562],[16.90804,41.08617],[16.90827,41.08671],[16.90834,41.08775],[16.90969,41.08616],[16.91056,41.08523],[16.91069,41.08471],[16.91074,41.08432],[16.91061,41.08403],[16.91051,41.08357],[16.91044,41.0834],[16.91038,41.08318],[16.9101,41.08222],[16.90994,41.08164],[16.90943,41.07984],[16.9092,41.07911],[16.90893,41.07805],[16.90889,41.07788],[16.90852,41.0763],[16.90813,41.07451],[16.90804,41.07412],[16.90787,41.07307],[16.90783,41.07273],[16.90721,41.07279],[16.90706,41.07209],[16.90779,41.07207],[16.90772,41.07085],[16.90743,41.07091],[16.90722,41.06996],[16.90671,41.07002],[16.90661,41.07109],[16.90552,41.07125],[16.90534,41.07084],[16.90221,41.07056],[16.90373,41.06942],[16.90466,41.06966],[16.9047,41.06912],[16.90397,41.06786],[16.90267,41.06784],[16.90262,41.06654],[16.90318,41.06648],[16.90296,41.06558],[16.90146,41.06568],[16.9002,41.06549],[16.90015,41.06502],[16.90043,41.06481],[16.9004,41.06445],[16.90003,41.06448],[16.89988,41.06464],[16.89983,41.06469],[16.8995,41.06478],[16.89926,41.06472],[16.89922,41.06471],[16.89924,41.06438],[16.89939,41.064],[16.89941,41.06394],[16.89947,41.06332],[16.89945,41.063],[16.89944,41.06273],[16.89905,41.06274],[16.89869,41.06277],[16.89838,41.06281],[16.89677,41.0628],[16.89645,41.06268],[16.89605,41.06249],[16.89568,41.06227],[16.89521,41.06211],[16.89466,41.06202],[16.89387,41.06187],[16.89292,41.06176],[16.89182,41.0617],[16.89075,41.06169],[16.89015,41.06177],[16.88916,41.06188],[16.88835,41.06194],[16.88754,41.06186],[16.88663,41.06178],[16.88567,41.06172],[16.88548,41.06174],[16.88498,41.0618],[16.88417,41.06217],[16.8832,41.06241],[16.88288,41.06232],[16.88283,41.06229],[16.88282,41.0622],[16.88282,41.06216],[16.88281,41.06203],[16.8828,41.06199],[16.8826,41.06089],[16.88094,41.06097],[16.881,41.05949],[16.88107,41.05772],[16.88014,41.0576],[16.88012,41.05785],[16.87996,41.05887],[16.87934,41.05893],[16.87913,41.05895],[16.87884,41.05932],[16.87816,41.05927],[16.87744,41.05924],[16.87677,41.0592],[16.87697,41.05867],[16.87629,41.05851],[16.87614,41.05873],[16.87605,41.05914],[16.87568,41.05919],[16.87484,41.05922],[16.87419,41.05942],[16.87414,41.05931],[16.87367,41.05842],[16.87379,41.05818],[16.87395,41.05784],[16.87397,41.05748],[16.87359,41.05741],[16.87333,41.05738],[16.87327,41.05738],[16.87294,41.05734],[16.87286,41.05665],[16.87315,41.05652],[16.8732,41.05612],[16.87344,41.05564],[16.87444,41.05608],[16.87475,41.05586],[16.87463,41.05565],[16.87442,41.0551],[16.87433,41.05462],[16.87453,41.0541],[16.87463,41.05384],[16.87465,41.05376],[16.87467,41.05372],[16.87468,41.05366],[16.87494,41.05303],[16.87454,41.05302],[16.87429,41.05301],[16.87285,41.05301],[16.87277,41.05301],[16.87282,41.05279],[16.87306,41.05225],[16.87346,41.05178],[16.87377,41.05089],[16.87392,41.05016],[16.87385,41.04951],[16.87383,41.04931],[16.87383,41.04878],[16.87383,41.04859],[16.87369,41.04787],[16.87357,41.04714],[16.87343,41.04645],[16.87333,41.04587],[16.87259,41.04586],[16.87163,41.04599],[16.87038,41.04587],[16.86969,41.0459],[16.86879,41.04572],[16.86766,41.04563],[16.86612,41.04538],[16.86468,41.04509],[16.86427,41.04506],[16.86408,41.04505],[16.86382,41.04436],[16.8638,41.04376],[16.86378,41.0432],[16.86366,41.04215],[16.86376,41.04088],[16.86363,41.03982],[16.86362,41.03976],[16.86362,41.03973],[16.86361,41.03968],[16.86344,41.03864],[16.86331,41.03791],[16.86327,41.03768],[16.86299,41.03682],[16.86273,41.03611],[16.86262,41.03578],[16.86223,41.0347],[16.86202,41.03413],[16.86174,41.03341],[16.86143,41.03234],[16.86124,41.03175],[16.8612,41.03161],[16.86079,41.03089],[16.86061,41.03056],[16.86061,41.02942],[16.86037,41.02813],[16.86042,41.02734],[16.86063,41.02686],[16.86086,41.02649],[16.86042,41.02313],[16.857,41.02288],[16.85467,41.02026],[16.85318,41.02042],[16.85298,41.0197],[16.85342,41.01962],[16.85334,41.01903],[16.85306,41.01901],[16.85301,41.0184],[16.85162,41.01842],[16.85189,41.01749],[16.85039,41.01722],[16.85086,41.01658],[16.84964,41.01607],[16.84943,41.01626],[16.84921,41.01648],[16.849,41.01669],[16.84863,41.01721],[16.84853,41.01757],[16.84847,41.0179],[16.84842,41.0185],[16.84797,41.01844],[16.84788,41.01843],[16.84699,41.01831],[16.84588,41.01818],[16.84606,41.01635],[16.84601,41.01611],[16.84602,41.01586],[16.84598,41.01561],[16.84582,41.01528],[16.84572,41.01505],[16.8456,41.0148],[16.84555,41.01453],[16.84495,41.01488],[16.84516,41.0151],[16.8449,41.0153],[16.84533,41.01596],[16.84327,41.01681],[16.8434,41.01715],[16.84364,41.01761],[16.8438,41.01787],[16.8439,41.01812],[16.84234,41.01869],[16.84263,41.01888],[16.84241,41.01933],[16.84201,41.0194],[16.84168,41.01938],[16.84123,41.01946],[16.84158,41.02044],[16.84239,41.02217],[16.84271,41.02235],[16.84292,41.02273],[16.84247,41.02295],[16.84267,41.02331],[16.84276,41.02363],[16.84282,41.02388],[16.84283,41.02429],[16.84278,41.02454],[16.84231,41.02488],[16.84187,41.0251],[16.84159,41.02525],[16.84152,41.02537],[16.84143,41.02551],[16.84152,41.02584],[16.84169,41.02616],[16.84182,41.02639],[16.84096,41.02673],[16.8411,41.02713],[16.84114,41.0274],[16.84073,41.02748],[16.84019,41.02744],[16.83974,41.02745],[16.83895,41.02837],[16.83903,41.02918],[16.83906,41.02943],[16.83906,41.03],[16.83906,41.03064],[16.83898,41.03138],[16.83901,41.03191],[16.83897,41.03234],[16.83897,41.03258],[16.83898,41.03299],[16.83848,41.03335],[16.83819,41.03373],[16.8381,41.03403],[16.8381,41.03469],[16.83816,41.03528],[16.8382,41.03603],[16.8382,41.03654],[16.83813,41.0373],[16.83809,41.03773],[16.8382,41.03827],[16.83843,41.039],[16.83841,41.03974],[16.83853,41.0402],[16.83855,41.04028],[16.83856,41.04034],[16.83864,41.04092],[16.83876,41.04142],[16.83882,41.04208],[16.83903,41.0429],[16.83905,41.04347],[16.83904,41.04414],[16.83924,41.04456],[16.83941,41.04492],[16.83958,41.04525],[16.83956,41.04578],[16.83956,41.04633],[16.83965,41.04666],[16.8407,41.04657],[16.84057,41.04718],[16.84037,41.04771],[16.84038,41.04822],[16.84052,41.04868],[16.84081,41.04891],[16.84118,41.0491],[16.84202,41.04928],[16.84248,41.04945],[16.84263,41.04971],[16.84246,41.05002],[16.842,41.05002],[16.84162,41.05],[16.84097,41.04995],[16.84064,41.04988],[16.84001,41.04974],[16.84033,41.05006],[16.84043,41.05039],[16.84052,41.05065],[16.84066,41.05096],[16.84091,41.05138],[16.84099,41.05182],[16.84114,41.05218],[16.84152,41.05253],[16.84187,41.05303],[16.84201,41.05387],[16.84203,41.05462],[16.84209,41.05511],[16.84223,41.05569],[16.84232,41.05627],[16.84226,41.05683],[16.84193,41.05722],[16.84159,41.05763],[16.84147,41.0582],[16.84142,41.05869],[16.84136,41.0592],[16.8405,41.05941],[16.83973,41.05945],[16.83893,41.0595],[16.83802,41.05954],[16.8378,41.05923],[16.837,41.05925],[16.83713,41.06151],[16.83731,41.06244],[16.83742,41.06311],[16.83756,41.06401],[16.83767,41.06458],[16.8376,41.06504],[16.83756,41.06538],[16.83716,41.06592],[16.83697,41.06595],[16.83652,41.06604],[16.83578,41.066],[16.83546,41.06599],[16.83484,41.06605],[16.83449,41.06631],[16.83406,41.06643],[16.83372,41.06657],[16.83343,41.06701],[16.83309,41.06743],[16.83291,41.06769],[16.83264,41.06793],[16.83233,41.06805],[16.83216,41.06736],[16.83228,41.06684],[16.83238,41.06647],[16.83234,41.06624],[16.83196,41.06615],[16.83164,41.06609],[16.83105,41.06592],[16.83082,41.06577],[16.83005,41.06612],[16.8294,41.06635],[16.829,41.06657],[16.82972,41.06837],[16.83003,41.06907],[16.82974,41.06926],[16.82961,41.07188],[16.8293,41.07202],[16.82874,41.07227],[16.82724,41.07294],[16.82702,41.07293],[16.8267,41.07291],[16.82647,41.07293],[16.82613,41.07297],[16.82592,41.07299],[16.82526,41.07316],[16.82511,41.07319],[16.82472,41.07331],[16.82414,41.07349],[16.82365,41.07374],[16.82325,41.07395],[16.82233,41.07429],[16.82114,41.07449],[16.82025,41.07502],[16.81998,41.07551],[16.81926,41.07599],[16.81859,41.07647],[16.81822,41.07717],[16.81819,41.07818],[16.81792,41.07857],[16.81721,41.07899],[16.81606,41.07881],[16.81504,41.07818],[16.81403,41.07791],[16.81358,41.07825],[16.81458,41.0791],[16.81534,41.07963],[16.81596,41.08013],[16.81613,41.08026],[16.81641,41.08069],[16.81651,41.08163],[16.81659,41.0827],[16.81671,41.08339],[16.81698,41.08405],[16.81728,41.08431],[16.81806,41.08435],[16.81894,41.08477],[16.8196,41.08547],[16.82013,41.0863],[16.82082,41.08735],[16.82118,41.0881],[16.8212,41.08814],[16.82135,41.08845],[16.8214,41.08857],[16.82068,41.08845],[16.8206,41.08841],[16.81961,41.08792],[16.81876,41.08759],[16.81802,41.08735],[16.81622,41.08709],[16.81486,41.08693],[16.81337,41.08689],[16.81189,41.0864],[16.81091,41.08604],[16.80972,41.08577],[16.80871,41.08582],[16.80707,41.08617],[16.80564,41.08644],[16.80452,41.08685],[16.80432,41.087],[16.80428,41.08703],[16.80459,41.08706],[16.80471,41.08708],[16.80485,41.08709],[16.80622,41.08731],[16.80639,41.08733],[16.80748,41.0876],[16.8082,41.08783],[16.80845,41.08791],[16.80856,41.08796],[16.809,41.08809],[16.80907,41.08812],[16.80968,41.08837],[16.81077,41.08882],[16.81278,41.09016],[16.81383,41.09096],[16.81475,41.09154],[16.81586,41.09228],[16.81633,41.09259],[16.81791,41.09364],[16.81964,41.09483],[16.82108,41.09583],[16.8225,41.09679],[16.82307,41.09714],[16.82337,41.09733],[16.8245,41.09815],[16.82498,41.0985],[16.82512,41.09839],[16.82613,41.09775],[16.82735,41.0971],[16.82826,41.09677],[16.8285,41.09667],[16.82929,41.09636],[16.83029,41.0961],[16.8305,41.09604],[16.83722,41.09426],[16.84003,41.09352],[16.84018,41.09348],[16.84213,41.09303],[16.84322,41.09281],[16.84399,41.09263],[16.84653,41.092],[16.84961,41.09122],[16.85049,41.091],[16.85319,41.09032],[16.85397,41.09022],[16.85416,41.09019],[16.85584,41.09001]]]]}},{"type":"Feature","properties":{"nbhd_name":"Japigia-Torre a Mare","uesi_id":"ITA_R41038","nbhd_code":"ITA_R41038_6"},"geometry":{"type":"MultiPolygon","coordinates":[[[[16.88661,41.1172],[16.88851,41.1169],[16.88857,41.11698],[16.88859,41.11701],[16.88862,41.11704],[16.88865,41.11707],[16.88951,41.11694],[16.89023,41.1168],[16.89119,41.1166],[16.89223,41.11638],[16.89242,41.11632],[16.89295,41.11622],[16.89331,41.11613],[16.89365,41.11605],[16.89422,41.11592],[16.89635,41.11545],[16.89709,41.11531],[16.89841,41.11505],[16.89962,41.11486],[16.90447,41.11384],[16.9046,41.11381],[16.90558,41.11501],[16.90597,41.11553],[16.90623,41.11588],[16.90637,41.11579],[16.9067,41.11567],[16.90701,41.11556],[16.90766,41.11527],[16.908,41.11515],[16.90826,41.11505],[16.90853,41.11501],[16.90863,41.11506],[16.90891,41.11499],[16.90897,41.11502],[16.90914,41.11502],[16.90935,41.11502],[16.90952,41.11495],[16.91014,41.11459],[16.91051,41.11441],[16.91082,41.1143],[16.91111,41.11422],[16.91181,41.11402],[16.91214,41.11398],[16.91236,41.11396],[16.91258,41.11399],[16.91282,41.11406],[16.91315,41.11403],[16.91344,41.11393],[16.91367,41.1138],[16.91436,41.11349],[16.91466,41.11335],[16.91477,41.11317],[16.91496,41.11295],[16.91507,41.11285],[16.91521,41.11282],[16.91533,41.11274],[16.91574,41.11259],[16.91583,41.11263],[16.91597,41.11259],[16.91604,41.11243],[16.91654,41.11229],[16.91688,41.11227],[16.91738,41.11213],[16.91799,41.11194],[16.91833,41.1119],[16.91853,41.11192],[16.91849,41.11203],[16.91845,41.11217],[16.91857,41.11226],[16.91882,41.11222],[16.91881,41.11198],[16.91888,41.11182],[16.91928,41.11178],[16.91936,41.11172],[16.91969,41.11168],[16.92003,41.11171],[16.9203,41.11175],[16.92024,41.11186],[16.92067,41.11194],[16.92096,41.11191],[16.921,41.11171],[16.92117,41.11166],[16.92126,41.11183],[16.92179,41.11186],[16.92228,41.11175],[16.92242,41.11164],[16.9224,41.11155],[16.9225,41.1115],[16.9227,41.1115],[16.92273,41.11156],[16.92289,41.11161],[16.92298,41.11182],[16.92307,41.11196],[16.92351,41.11196],[16.92376,41.11188],[16.92416,41.11176],[16.92416,41.11163],[16.92439,41.11154],[16.92459,41.11159],[16.92472,41.11171],[16.9252,41.11177],[16.92561,41.11174],[16.92603,41.11156],[16.92631,41.11143],[16.92644,41.11148],[16.9265,41.11161],[16.9267,41.11163],[16.9268,41.11155],[16.92713,41.11158],[16.9274,41.11157],[16.92747,41.11149],[16.9276,41.11151],[16.92758,41.1116],[16.92799,41.11167],[16.92806,41.11161],[16.92826,41.11164],[16.92828,41.11172],[16.92857,41.11182],[16.92882,41.11176],[16.92929,41.11162],[16.92918,41.11154],[16.92921,41.11144],[16.92922,41.11135],[16.92941,41.11137],[16.92959,41.11124],[16.92954,41.11118],[16.9296,41.11112],[16.92968,41.11116],[16.92987,41.11094],[16.92989,41.11079],[16.93013,41.1107],[16.93024,41.11068],[16.93032,41.11061],[16.93065,41.11053],[16.93075,41.11046],[16.93075,41.11039],[16.93051,41.11045],[16.93059,41.11033],[16.93076,41.11018],[16.93095,41.11006],[16.93102,41.10999],[16.93101,41.10988],[16.93126,41.10964],[16.93141,41.10963],[16.9316,41.10949],[16.93162,41.10938],[16.93172,41.10934],[16.93185,41.1091],[16.93181,41.10897],[16.93178,41.10896],[16.9319,41.1088],[16.93209,41.10865],[16.93212,41.10857],[16.93233,41.10846],[16.93233,41.10841],[16.93249,41.10836],[16.93251,41.1083],[16.93278,41.10825],[16.93281,41.10831],[16.93325,41.10829],[16.93364,41.10819],[16.93363,41.10812],[16.93388,41.10809],[16.93398,41.10801],[16.93397,41.10791],[16.93409,41.10781],[16.93428,41.10785],[16.93427,41.10795],[16.93461,41.10798],[16.93472,41.10802],[16.93531,41.108],[16.93531,41.1079],[16.93523,41.10785],[16.93543,41.10759],[16.93551,41.10759],[16.93558,41.10743],[16.93551,41.1074],[16.93565,41.10724],[16.936,41.10718],[16.93596,41.10697],[16.93602,41.10694],[16.93601,41.10686],[16.9361,41.10676],[16.93611,41.1067],[16.9362,41.1066],[16.93654,41.10649],[16.93663,41.10641],[16.93673,41.10629],[16.93697,41.10614],[16.93725,41.10608],[16.93728,41.10598],[16.93746,41.10592],[16.93745,41.10585],[16.93779,41.10561],[16.93796,41.10559],[16.93815,41.1057],[16.93838,41.10574],[16.93864,41.10573],[16.93874,41.10566],[16.93876,41.10558],[16.93896,41.10551],[16.93919,41.10557],[16.9394,41.10554],[16.93987,41.10535],[16.93999,41.10533],[16.94018,41.10523],[16.94036,41.10518],[16.94045,41.10513],[16.9405,41.10496],[16.94076,41.10496],[16.94074,41.10509],[16.94103,41.10507],[16.94103,41.10499],[16.94134,41.10486],[16.94134,41.10483],[16.94115,41.10484],[16.94121,41.10476],[16.94151,41.10474],[16.9415,41.10469],[16.94198,41.10453],[16.94223,41.10452],[16.94261,41.10449],[16.9428,41.10448],[16.94295,41.10443],[16.94292,41.10432],[16.94296,41.10427],[16.94293,41.10415],[16.94319,41.10411],[16.94329,41.10414],[16.9433,41.10424],[16.94343,41.10427],[16.94384,41.10418],[16.94403,41.10408],[16.94415,41.104],[16.94416,41.10393],[16.94404,41.10394],[16.94403,41.1039],[16.9443,41.10374],[16.94429,41.10362],[16.94458,41.10353],[16.94459,41.10349],[16.94475,41.10351],[16.94472,41.1036],[16.9453,41.10361],[16.94588,41.10341],[16.94585,41.10329],[16.94605,41.10327],[16.94604,41.10317],[16.94597,41.10317],[16.946,41.10311],[16.94638,41.10306],[16.94636,41.10295],[16.94657,41.10289],[16.94653,41.10285],[16.94682,41.1025],[16.9471,41.10242],[16.94713,41.10229],[16.94706,41.10229],[16.94706,41.10224],[16.94713,41.10217],[16.94733,41.10206],[16.94753,41.10205],[16.94757,41.10215],[16.94769,41.1022],[16.94773,41.10228],[16.94802,41.10227],[16.9482,41.10219],[16.94838,41.10218],[16.94851,41.1021],[16.94865,41.10203],[16.94887,41.10201],[16.94898,41.10192],[16.94913,41.10184],[16.94914,41.10179],[16.94945,41.10163],[16.94949,41.10147],[16.94947,41.10134],[16.94957,41.10127],[16.94996,41.10129],[16.95012,41.10135],[16.95047,41.10127],[16.95054,41.10105],[16.95084,41.10097],[16.95089,41.10079],[16.9512,41.10082],[16.95125,41.10087],[16.95125,41.10099],[16.95137,41.10111],[16.95162,41.10112],[16.95185,41.1011],[16.95195,41.10102],[16.95212,41.1008],[16.95233,41.1008],[16.95247,41.10086],[16.95248,41.10091],[16.95257,41.10093],[16.95271,41.10092],[16.95281,41.10097],[16.95298,41.10092],[16.95317,41.10091],[16.95325,41.10094],[16.95368,41.10091],[16.95396,41.10083],[16.95408,41.10083],[16.95432,41.10059],[16.95441,41.10041],[16.95444,41.10022],[16.95458,41.10006],[16.95483,41.09983],[16.95481,41.09978],[16.95498,41.09965],[16.95521,41.09959],[16.95545,41.09962],[16.95569,41.09968],[16.95593,41.09974],[16.95605,41.09978],[16.95615,41.09983],[16.95636,41.09982],[16.95649,41.09981],[16.9566,41.09974],[16.95669,41.09979],[16.95671,41.09977],[16.95664,41.09968],[16.95684,41.0996],[16.95696,41.09973],[16.95701,41.09967],[16.95687,41.09953],[16.95714,41.09928],[16.95714,41.09922],[16.95731,41.09912],[16.95748,41.09889],[16.95743,41.09887],[16.95758,41.09874],[16.95756,41.09867],[16.95788,41.09855],[16.95803,41.09859],[16.95848,41.09855],[16.95859,41.0986],[16.95907,41.09851],[16.95941,41.09836],[16.95981,41.09813],[16.95981,41.09806],[16.95995,41.09804],[16.96001,41.09806],[16.96032,41.09799],[16.96057,41.0979],[16.96064,41.09789],[16.96079,41.09795],[16.9608,41.0979],[16.96057,41.0978],[16.96057,41.0977],[16.9605,41.09757],[16.96042,41.09757],[16.9603,41.09739],[16.96017,41.09726],[16.96001,41.09706],[16.95996,41.09705],[16.95984,41.09692],[16.95987,41.09686],[16.9594,41.0963],[16.95904,41.09592],[16.9593,41.09572],[16.95958,41.09589],[16.95964,41.09584],[16.95974,41.09587],[16.95964,41.09598],[16.96017,41.09618],[16.96022,41.09614],[16.96056,41.09623],[16.96062,41.09629],[16.96083,41.09629],[16.96088,41.09635],[16.96107,41.09635],[16.96112,41.09642],[16.96145,41.0964],[16.96152,41.09651],[16.96184,41.0966],[16.96194,41.09663],[16.96209,41.0967],[16.96216,41.09671],[16.96247,41.0965],[16.96281,41.09655],[16.96301,41.09662],[16.96312,41.09669],[16.96309,41.097],[16.96315,41.09701],[16.96311,41.09712],[16.9632,41.0972],[16.96333,41.09718],[16.96344,41.09722],[16.9635,41.09708],[16.96361,41.09707],[16.96361,41.09693],[16.96382,41.09684],[16.96397,41.09683],[16.96404,41.09684],[16.96419,41.09684],[16.96431,41.09682],[16.96433,41.09688],[16.96442,41.09686],[16.96442,41.09682],[16.96462,41.09678],[16.96504,41.09679],[16.9653,41.09681],[16.96542,41.09683],[16.9658,41.0968],[16.96591,41.09676],[16.96607,41.09676],[16.96625,41.09667],[16.96627,41.09656],[16.9666,41.09654],[16.96687,41.09644],[16.96713,41.09629],[16.96714,41.09622],[16.96727,41.09617],[16.96755,41.09613],[16.96756,41.09621],[16.96774,41.09625],[16.96794,41.09626],[16.96801,41.09615],[16.96813,41.09614],[16.96819,41.09623],[16.96824,41.09634],[16.96831,41.09639],[16.96842,41.09644],[16.96881,41.09644],[16.96893,41.09643],[16.96899,41.09626],[16.9691,41.09613],[16.96946,41.09611],[16.96956,41.09617],[16.96955,41.09633],[16.96974,41.09635],[16.97004,41.09633],[16.97028,41.09626],[16.97057,41.0962],[16.97064,41.09611],[16.9709,41.09608],[16.9709,41.09615],[16.97098,41.09618],[16.97121,41.09617],[16.97144,41.09619],[16.9717,41.09617],[16.97189,41.09609],[16.97191,41.09601],[16.97198,41.096],[16.97217,41.09584],[16.97227,41.09582],[16.97229,41.09587],[16.97238,41.09585],[16.97236,41.09577],[16.97257,41.09565],[16.97267,41.09555],[16.97283,41.0955],[16.97299,41.09542],[16.97318,41.09543],[16.97321,41.09546],[16.97316,41.09552],[16.97328,41.09555],[16.9735,41.09552],[16.9735,41.09546],[16.97364,41.09546],[16.97379,41.09551],[16.97396,41.09547],[16.97398,41.09551],[16.97411,41.09549],[16.97409,41.09542],[16.97417,41.09537],[16.9743,41.09537],[16.97433,41.09531],[16.97458,41.09528],[16.97464,41.09512],[16.97478,41.09506],[16.97491,41.09505],[16.97495,41.09495],[16.97503,41.09489],[16.97513,41.09488],[16.97543,41.09492],[16.97548,41.09498],[16.97552,41.09508],[16.97559,41.09513],[16.97582,41.09517],[16.97595,41.09517],[16.97603,41.09507],[16.97635,41.09506],[16.97655,41.09512],[16.97658,41.09517],[16.97674,41.09521],[16.97687,41.09508],[16.97698,41.09508],[16.97701,41.09511],[16.97713,41.09516],[16.97738,41.09519],[16.97757,41.09516],[16.97769,41.09505],[16.97778,41.09483],[16.97795,41.09455],[16.97791,41.09452],[16.97814,41.09441],[16.97822,41.09432],[16.97843,41.09428],[16.97853,41.09447],[16.97871,41.09453],[16.97899,41.09452],[16.9791,41.09449],[16.97919,41.09443],[16.97938,41.09424],[16.97931,41.09408],[16.97949,41.09403],[16.97964,41.09403],[16.97973,41.09408],[16.97976,41.0942],[16.97976,41.09431],[16.97967,41.09447],[16.97974,41.09452],[16.97966,41.09481],[16.97981,41.09482],[16.97987,41.09453],[16.98001,41.09453],[16.98012,41.09448],[16.98028,41.09447],[16.98037,41.09449],[16.98056,41.09453],[16.98055,41.09461],[16.98078,41.09465],[16.9808,41.09472],[16.98089,41.09477],[16.98106,41.09482],[16.9813,41.09482],[16.98148,41.09471],[16.98151,41.09458],[16.98156,41.09446],[16.98163,41.09448],[16.98162,41.0946],[16.98174,41.09462],[16.98178,41.09454],[16.9819,41.09455],[16.98187,41.09465],[16.98212,41.09468],[16.98212,41.09462],[16.9824,41.0946],[16.98241,41.09442],[16.9825,41.09436],[16.98257,41.09439],[16.98257,41.09452],[16.98273,41.09452],[16.98274,41.09442],[16.98284,41.09442],[16.98291,41.09449],[16.98309,41.09447],[16.98315,41.0944],[16.98312,41.09419],[16.98315,41.09414],[16.98325,41.09413],[16.98327,41.09416],[16.98344,41.09416],[16.98351,41.09418],[16.98347,41.0943],[16.98358,41.09429],[16.98364,41.09422],[16.98373,41.09418],[16.98394,41.09419],[16.98411,41.0942],[16.98422,41.09406],[16.98432,41.09403],[16.98433,41.09408],[16.98457,41.0941],[16.98465,41.09397],[16.98478,41.09401],[16.98476,41.09412],[16.98485,41.09417],[16.98502,41.0941],[16.98502,41.09403],[16.98494,41.09401],[16.98497,41.09395],[16.98506,41.09391],[16.98503,41.09378],[16.98516,41.09369],[16.98529,41.09364],[16.98534,41.09369],[16.9854,41.09365],[16.98533,41.09355],[16.98536,41.09346],[16.98563,41.09345],[16.98562,41.09338],[16.98539,41.09339],[16.98535,41.09337],[16.98538,41.09319],[16.98548,41.09314],[16.98554,41.09321],[16.98567,41.09319],[16.98589,41.09308],[16.98602,41.09313],[16.98608,41.09318],[16.98626,41.09315],[16.98626,41.09304],[16.98641,41.09302],[16.98644,41.09289],[16.98639,41.09285],[16.98641,41.09277],[16.98647,41.09274],[16.98655,41.0927],[16.98671,41.09272],[16.98674,41.09277],[16.98691,41.0928],[16.98694,41.09292],[16.98702,41.09293],[16.98701,41.09277],[16.98702,41.09268],[16.98698,41.09254],[16.98705,41.09252],[16.98703,41.09241],[16.98697,41.09237],[16.9869,41.09226],[16.98683,41.09211],[16.98695,41.092],[16.987,41.09203],[16.9871,41.09195],[16.98715,41.09196],[16.98727,41.09195],[16.98729,41.09189],[16.98735,41.09189],[16.98737,41.09194],[16.98745,41.09194],[16.98753,41.09187],[16.98751,41.09168],[16.98756,41.09157],[16.98767,41.09152],[16.98781,41.09148],[16.98792,41.09149],[16.98805,41.09154],[16.98819,41.09163],[16.98815,41.09169],[16.9882,41.09173],[16.98847,41.09183],[16.98878,41.09183],[16.98894,41.09208],[16.98908,41.0921],[16.98908,41.0922],[16.98919,41.09227],[16.98931,41.0923],[16.98946,41.0922],[16.98954,41.09219],[16.9896,41.09229],[16.98984,41.09226],[16.98983,41.09233],[16.98988,41.0924],[16.98991,41.09248],[16.98988,41.09253],[16.98988,41.09261],[16.99003,41.09261],[16.99012,41.09258],[16.99012,41.09239],[16.99035,41.09213],[16.99045,41.09208],[16.99046,41.09228],[16.99054,41.09231],[16.99063,41.09227],[16.99057,41.09202],[16.99062,41.09201],[16.99062,41.09193],[16.9905,41.09192],[16.99047,41.09174],[16.99045,41.09157],[16.99058,41.09146],[16.99091,41.09145],[16.991,41.0917],[16.99104,41.09177],[16.99123,41.09172],[16.99125,41.09176],[16.99112,41.09183],[16.99114,41.09189],[16.99122,41.09193],[16.99139,41.09197],[16.9915,41.09188],[16.99147,41.09182],[16.99151,41.09173],[16.99156,41.09173],[16.9916,41.09182],[16.99165,41.09182],[16.99176,41.09163],[16.99181,41.09158],[16.9918,41.0918],[16.99187,41.09193],[16.99199,41.09205],[16.99218,41.09212],[16.99236,41.09216],[16.99245,41.09212],[16.99242,41.09206],[16.99249,41.09199],[16.99254,41.092],[16.99259,41.09208],[16.99266,41.09206],[16.99259,41.09193],[16.99265,41.09192],[16.9928,41.092],[16.99295,41.09199],[16.993,41.0919],[16.99295,41.0919],[16.99296,41.09173],[16.99291,41.09154],[16.99297,41.09152],[16.99307,41.09158],[16.99313,41.09145],[16.99305,41.09131],[16.99293,41.09111],[16.99273,41.09099],[16.99272,41.09089],[16.99267,41.09089],[16.99267,41.09072],[16.99276,41.09072],[16.99275,41.09057],[16.99304,41.09037],[16.99311,41.09041],[16.99326,41.09042],[16.99341,41.09043],[16.99348,41.09032],[16.99362,41.09024],[16.99368,41.09028],[16.99378,41.0903],[16.99382,41.09038],[16.99393,41.09037],[16.99401,41.09033],[16.99401,41.09026],[16.99406,41.09016],[16.99445,41.08986],[16.99457,41.08973],[16.99453,41.08946],[16.99471,41.0894],[16.99494,41.08958],[16.99501,41.08953],[16.99495,41.08938],[16.99504,41.08932],[16.99528,41.08938],[16.99531,41.08933],[16.9955,41.08931],[16.99579,41.08917],[16.99608,41.08906],[16.99639,41.08886],[16.99647,41.08886],[16.99655,41.08874],[16.99667,41.08876],[16.99685,41.08863],[16.99696,41.08864],[16.99705,41.0885],[16.9971,41.08831],[16.99717,41.08823],[16.99724,41.08816],[16.99724,41.08807],[16.99741,41.08808],[16.99762,41.08813],[16.99771,41.08821],[16.99773,41.08844],[16.99781,41.08849],[16.99782,41.08855],[16.99795,41.08854],[16.99797,41.0886],[16.99836,41.08855],[16.99867,41.08869],[16.99882,41.08907],[16.99877,41.08913],[16.99879,41.08918],[16.99894,41.08915],[16.99887,41.089],[16.99937,41.08887],[16.9994,41.08893],[16.99946,41.08891],[16.9994,41.08876],[16.99933,41.08878],[16.99936,41.08882],[16.99885,41.08895],[16.99876,41.08871],[16.99893,41.08858],[16.99915,41.08829],[16.99936,41.08813],[16.99942,41.08811],[16.99978,41.08813],[17.00026,41.08806],[17.00042,41.08805],[17.00099,41.08858],[17.00014,41.08934],[16.99986,41.08948],[16.99934,41.08952],[16.99833,41.08999],[16.9983,41.08997],[16.99826,41.08996],[16.99819,41.08998],[16.99818,41.09003],[16.99824,41.0901],[16.99938,41.08958],[17.00013,41.08955],[17.00083,41.08892],[17.00097,41.08889],[17.00147,41.08892],[17.00154,41.08901],[17.00164,41.08898],[17.00183,41.089],[17.00198,41.08897],[17.00198,41.08892],[17.00188,41.0889],[17.00201,41.08875],[17.00224,41.08866],[17.0024,41.08859],[17.00303,41.08856],[17.00346,41.08838],[17.00368,41.08833],[17.00379,41.08832],[17.00397,41.08829],[17.00404,41.08817],[17.00403,41.08812],[17.00417,41.08789],[17.0043,41.08781],[17.00432,41.08784],[17.00442,41.08782],[17.00457,41.08777],[17.00467,41.08774],[17.00488,41.08764],[17.00502,41.08743],[17.00507,41.08727],[17.0052,41.08703],[17.00527,41.08697],[17.00548,41.08681],[17.00569,41.08677],[17.00572,41.08681],[17.00587,41.0868],[17.006,41.08686],[17.00611,41.08688],[17.00635,41.08688],[17.00643,41.08692],[17.00646,41.08697],[17.00662,41.08694],[17.00664,41.08687],[17.00657,41.08685],[17.00663,41.08675],[17.00684,41.08659],[17.007,41.08655],[17.00708,41.0866],[17.00714,41.08668],[17.00729,41.08665],[17.00741,41.08668],[17.00747,41.08657],[17.00741,41.08653],[17.00754,41.0864],[17.00751,41.08627],[17.00766,41.08609],[17.00768,41.08601],[17.00778,41.08601],[17.00793,41.08601],[17.00801,41.08596],[17.00796,41.08592],[17.00799,41.08579],[17.00805,41.08578],[17.00839,41.08568],[17.00842,41.08572],[17.0085,41.08574],[17.00865,41.08575],[17.00893,41.08583],[17.00915,41.08584],[17.00919,41.08574],[17.00947,41.08566],[17.00966,41.08565],[17.00988,41.0856],[17.00993,41.08554],[17.01023,41.08565],[17.01038,41.08574],[17.01053,41.08585],[17.01071,41.08585],[17.0108,41.08581],[17.0108,41.08572],[17.01096,41.08559],[17.0112,41.0855],[17.01131,41.08535],[17.01136,41.08538],[17.01148,41.08536],[17.01148,41.08527],[17.01162,41.08524],[17.01182,41.08522],[17.01197,41.08519],[17.01212,41.08527],[17.01216,41.0854],[17.01228,41.08546],[17.01228,41.08554],[17.01236,41.08558],[17.01237,41.08564],[17.01244,41.08571],[17.01237,41.08574],[17.01238,41.08581],[17.01229,41.08586],[17.01227,41.08598],[17.01238,41.086],[17.01238,41.08608],[17.01247,41.08612],[17.01257,41.08608],[17.01255,41.08597],[17.01263,41.08592],[17.01267,41.08594],[17.01286,41.08581],[17.013,41.08575],[17.01295,41.08563],[17.01304,41.08564],[17.01304,41.08557],[17.01319,41.08556],[17.01325,41.08554],[17.01318,41.08546],[17.01329,41.08534],[17.01344,41.08529],[17.01336,41.08518],[17.01342,41.08507],[17.01349,41.08501],[17.01356,41.08498],[17.01364,41.08503],[17.01367,41.08509],[17.01375,41.08508],[17.01381,41.08516],[17.01388,41.08518],[17.01391,41.08523],[17.01384,41.08525],[17.01384,41.08529],[17.01406,41.08529],[17.01428,41.08529],[17.01428,41.08524],[17.01453,41.08523],[17.01456,41.08516],[17.01473,41.08501],[17.01492,41.08489],[17.015,41.08491],[17.01516,41.08491],[17.01528,41.08485],[17.01527,41.08495],[17.01533,41.08495],[17.01538,41.0849],[17.01539,41.08482],[17.01562,41.08479],[17.01577,41.08481],[17.01577,41.08486],[17.01586,41.08489],[17.01586,41.08498],[17.01589,41.08503],[17.01614,41.08496],[17.01635,41.08512],[17.01635,41.08518],[17.01641,41.08525],[17.0165,41.08527],[17.01652,41.08535],[17.0166,41.0853],[17.01655,41.08518],[17.01667,41.08517],[17.01672,41.08522],[17.01681,41.08518],[17.01681,41.08512],[17.01675,41.08507],[17.01684,41.08504],[17.01691,41.08501],[17.01719,41.08492],[17.01729,41.08494],[17.01732,41.08501],[17.01732,41.08506],[17.01747,41.0851],[17.01754,41.08519],[17.01767,41.08519],[17.01779,41.08514],[17.01808,41.08508],[17.01813,41.08512],[17.01826,41.08509],[17.01826,41.08519],[17.01846,41.08516],[17.01845,41.08507],[17.01879,41.08495],[17.01894,41.08482],[17.01908,41.08477],[17.0192,41.08479],[17.01942,41.08468],[17.01939,41.08458],[17.01946,41.08451],[17.01964,41.08453],[17.01972,41.08443],[17.01983,41.08436],[17.01992,41.08436],[17.02006,41.08428],[17.02016,41.08428],[17.02033,41.08423],[17.02046,41.08421],[17.02061,41.08431],[17.02067,41.08445],[17.02077,41.08449],[17.0208,41.08458],[17.02097,41.0846],[17.02145,41.08452],[17.02154,41.08469],[17.02147,41.08477],[17.02151,41.08481],[17.02171,41.08482],[17.02194,41.0848],[17.02217,41.08485],[17.02239,41.08478],[17.02239,41.08474],[17.02234,41.0847],[17.02223,41.08468],[17.02206,41.08471],[17.02195,41.0847],[17.02201,41.08431],[17.02234,41.08404],[17.02249,41.08398],[17.02254,41.08413],[17.0226,41.08412],[17.0226,41.08398],[17.0229,41.08398],[17.02303,41.08403],[17.02319,41.08413],[17.0234,41.08411],[17.02347,41.08415],[17.0236,41.08415],[17.02364,41.084],[17.02374,41.08397],[17.02392,41.08394],[17.02412,41.08397],[17.02436,41.08412],[17.02445,41.08423],[17.02445,41.08431],[17.02426,41.08433],[17.02419,41.08437],[17.02424,41.08441],[17.02432,41.08441],[17.02449,41.0844],[17.02467,41.08447],[17.02493,41.08443],[17.02512,41.08446],[17.02525,41.08455],[17.02532,41.0845],[17.02519,41.08436],[17.02492,41.08431],[17.02491,41.08409],[17.025,41.08401],[17.02509,41.084],[17.02515,41.08407],[17.02526,41.08406],[17.02533,41.08424],[17.02541,41.08432],[17.02547,41.08425],[17.0254,41.0841],[17.02545,41.08393],[17.02564,41.08383],[17.02595,41.08375],[17.02607,41.08376],[17.02629,41.08366],[17.02645,41.08373],[17.02648,41.08382],[17.02667,41.08382],[17.02664,41.08363],[17.02649,41.08365],[17.02639,41.08363],[17.02643,41.08358],[17.02652,41.08354],[17.02673,41.08355],[17.0266,41.08342],[17.02694,41.08332],[17.02692,41.08319],[17.02705,41.08318],[17.02707,41.08326],[17.02718,41.08326],[17.0273,41.08314],[17.02725,41.08304],[17.02747,41.08292],[17.02757,41.08297],[17.02771,41.08299],[17.02788,41.083],[17.0279,41.08289],[17.02796,41.0829],[17.02801,41.08297],[17.02817,41.083],[17.02835,41.08292],[17.02845,41.08289],[17.02851,41.08295],[17.02842,41.08301],[17.02854,41.08312],[17.02873,41.08317],[17.02901,41.08314],[17.02899,41.08329],[17.0291,41.08334],[17.02927,41.08334],[17.0297,41.08318],[17.02987,41.08312],[17.02994,41.08319],[17.03016,41.08319],[17.03071,41.08316],[17.03087,41.08303],[17.03087,41.08283],[17.03101,41.08274],[17.03087,41.08263],[17.03078,41.08259],[17.03088,41.08237],[17.03107,41.08232],[17.03119,41.08241],[17.03126,41.0826],[17.03157,41.08266],[17.03168,41.08256],[17.03176,41.08257],[17.03179,41.08267],[17.03198,41.08268],[17.03231,41.08257],[17.03244,41.08278],[17.03249,41.08278],[17.0325,41.08283],[17.03256,41.08284],[17.03261,41.08281],[17.03268,41.08278],[17.03274,41.08279],[17.03279,41.08278],[17.03282,41.08276],[17.03284,41.08273],[17.03286,41.0827],[17.03291,41.08269],[17.03294,41.08266],[17.03295,41.08264],[17.03299,41.08261],[17.03303,41.08254],[17.03306,41.08251],[17.03305,41.08246],[17.03302,41.08245],[17.033,41.08237],[17.03302,41.08234],[17.03303,41.08231],[17.03306,41.08228],[17.03308,41.08225],[17.0331,41.08221],[17.03316,41.08218],[17.0332,41.08221],[17.03324,41.08224],[17.03328,41.08222],[17.03338,41.08221],[17.03293,41.08127],[17.03256,41.08059],[17.03218,41.08065],[17.03196,41.0807],[17.03176,41.08076],[17.03163,41.0805],[17.03143,41.08021],[17.03138,41.08015],[17.03133,41.08009],[17.03131,41.08005],[17.03063,41.07934],[17.02984,41.07849],[17.02911,41.07757],[17.02864,41.07676],[17.02802,41.07555],[17.02762,41.07563],[17.02735,41.07539],[17.02629,41.07427],[17.02625,41.07428],[17.0259,41.07438],[17.01891,41.07637],[17.01836,41.07652],[17.0146,41.07759],[17.00403,41.0806],[17.004,41.08061],[17.00393,41.08063],[17.00376,41.08067],[17.00231,41.08108],[17.00139,41.08133],[16.99986,41.08175],[16.99972,41.08179],[16.99919,41.08194],[16.99796,41.08228],[16.99766,41.08236],[16.99758,41.08238],[16.99751,41.0824],[16.99729,41.08247],[16.99688,41.08258],[16.99248,41.08379],[16.99163,41.08403],[16.98901,41.08474],[16.98795,41.08504],[16.9879,41.08505],[16.98582,41.08565],[16.9846,41.086],[16.98311,41.08643],[16.98304,41.08644],[16.98289,41.08649],[16.97881,41.08766],[16.97403,41.08898],[16.97387,41.08902],[16.96571,41.09134],[16.96563,41.09095],[16.96178,41.09203],[16.96164,41.09208],[16.96146,41.09211],[16.96125,41.09217],[16.96114,41.0922],[16.96109,41.09221],[16.96098,41.09223],[16.95996,41.09248],[16.95843,41.0929],[16.95745,41.09329],[16.95664,41.09371],[16.95611,41.09396],[16.95566,41.09411],[16.95539,41.09375],[16.95558,41.09358],[16.95574,41.09327],[16.95572,41.09291],[16.95573,41.09274],[16.95573,41.09268],[16.95427,41.09277],[16.9523,41.09289],[16.95225,41.09285],[16.95199,41.09267],[16.95159,41.09238],[16.95121,41.09216],[16.95094,41.092],[16.9501,41.09149],[16.94949,41.09131],[16.94854,41.09192],[16.94802,41.09229],[16.94778,41.09255],[16.94688,41.0929],[16.94614,41.0933],[16.94563,41.09286],[16.94509,41.09245],[16.94474,41.09212],[16.94427,41.09173],[16.94329,41.09133],[16.94222,41.09088],[16.94117,41.09042],[16.9408,41.09065],[16.94042,41.09024],[16.94,41.08983],[16.93954,41.08929],[16.93901,41.08882],[16.93869,41.08868],[16.93817,41.08837],[16.9378,41.0884],[16.93738,41.0877],[16.93684,41.087],[16.93632,41.08652],[16.93639,41.08632],[16.93699,41.08598],[16.9377,41.08545],[16.93717,41.08478],[16.93667,41.08409],[16.93654,41.08349],[16.93624,41.08275],[16.93606,41.08243],[16.93523,41.08244],[16.93456,41.08257],[16.93382,41.08247],[16.93369,41.08271],[16.93346,41.08296],[16.93311,41.08308],[16.93308,41.08331],[16.93305,41.08364],[16.93302,41.08402],[16.93272,41.08411],[16.9326,41.08424],[16.9325,41.08434],[16.93198,41.08422],[16.93171,41.08434],[16.93151,41.0845],[16.93124,41.08456],[16.93097,41.08462],[16.93074,41.08453],[16.9303,41.08435],[16.92981,41.08417],[16.92945,41.08414],[16.92824,41.08406],[16.92828,41.08386],[16.92829,41.08377],[16.92831,41.08369],[16.92842,41.08347],[16.92839,41.08307],[16.92839,41.08256],[16.92781,41.08245],[16.92721,41.08235],[16.92567,41.08179],[16.92564,41.08133],[16.92615,41.08123],[16.92623,41.08063],[16.92712,41.08058],[16.92708,41.07994],[16.92481,41.07993],[16.92468,41.07905],[16.92409,41.07898],[16.92378,41.07692],[16.92503,41.07683],[16.92492,41.07614],[16.92433,41.07612],[16.92338,41.07612],[16.92225,41.07607],[16.92157,41.07615],[16.92146,41.07637],[16.91902,41.07602],[16.9191,41.07536],[16.9192,41.07484],[16.91901,41.07444],[16.91861,41.07457],[16.91812,41.07481],[16.91491,41.07421],[16.91467,41.07446],[16.91416,41.07477],[16.9137,41.07516],[16.91329,41.07555],[16.91291,41.07604],[16.91217,41.07658],[16.9109,41.07595],[16.9112,41.07564],[16.91269,41.07409],[16.91234,41.07333],[16.9109,41.073],[16.91006,41.0744],[16.90918,41.07403],[16.90914,41.07351],[16.90847,41.07344],[16.90825,41.07269],[16.90796,41.07272],[16.90783,41.07273],[16.90787,41.07307],[16.90804,41.07412],[16.90813,41.07451],[16.90852,41.0763],[16.90889,41.07788],[16.90893,41.07805],[16.9092,41.07911],[16.90943,41.07984],[16.90994,41.08164],[16.9101,41.08222],[16.91038,41.08318],[16.91044,41.0834],[16.91051,41.08357],[16.91061,41.08403],[16.91074,41.08432],[16.91069,41.08471],[16.91056,41.08523],[16.90969,41.08616],[16.90834,41.08775],[16.90816,41.08795],[16.90652,41.0897],[16.90483,41.0915],[16.90172,41.09487],[16.90137,41.09526],[16.90053,41.09619],[16.89992,41.09692],[16.89824,41.09871],[16.89771,41.09918],[16.89553,41.10148],[16.89472,41.10227],[16.89332,41.10372],[16.88979,41.10729],[16.88854,41.10867],[16.88839,41.10878],[16.88831,41.10884],[16.88827,41.1089],[16.88818,41.10899],[16.88477,41.11257],[16.88401,41.11326],[16.88287,41.1145],[16.88181,41.11563],[16.88173,41.11571],[16.88111,41.11634],[16.87994,41.11733],[16.87949,41.11761],[16.8794,41.11767],[16.87948,41.11767],[16.87954,41.11767],[16.87983,41.11769],[16.88074,41.11772],[16.88201,41.11772],[16.88249,41.11771],[16.88334,41.11764],[16.88455,41.11755],[16.88661,41.1172]]]]}},{"type":"Feature","properties":{"nbhd_name":"Carrassi-San Pasquale","uesi_id":"ITA_R41038","nbhd_code":"ITA_R41038_7"},"geometry":{"type":"MultiPolygon","coordinates":[[[[16.90834,41.08775],[16.90827,41.08671],[16.90804,41.08617],[16.90768,41.08562],[16.90305,41.08542],[16.89916,41.0852],[16.89565,41.08501],[16.89429,41.08492],[16.89193,41.08486],[16.89051,41.08482],[16.89025,41.0848],[16.88793,41.0847],[16.88715,41.08469],[16.88642,41.08465],[16.88641,41.08477],[16.88632,41.08503],[16.88609,41.08557],[16.88603,41.08572],[16.88553,41.08636],[16.8851,41.08693],[16.88471,41.08744],[16.88455,41.08762],[16.88448,41.08769],[16.88431,41.08791],[16.88415,41.08815],[16.88405,41.08828],[16.88396,41.08842],[16.88375,41.08877],[16.88371,41.08886],[16.88365,41.08902],[16.88364,41.08906],[16.8836,41.08926],[16.88348,41.08927],[16.87784,41.08945],[16.87577,41.0895],[16.87433,41.08955],[16.8742,41.08955],[16.87295,41.08958],[16.87263,41.08957],[16.87187,41.08956],[16.8718,41.08956],[16.87081,41.08962],[16.86964,41.08966],[16.86922,41.08967],[16.86598,41.08973],[16.86579,41.08974],[16.86576,41.09003],[16.86581,41.09028],[16.86583,41.09031],[16.86586,41.09074],[16.8659,41.09124],[16.86588,41.09199],[16.86593,41.09251],[16.86596,41.09274],[16.86607,41.09305],[16.86617,41.09336],[16.86624,41.0935],[16.86629,41.09365],[16.86632,41.09375],[16.86634,41.09378],[16.86688,41.09471],[16.86694,41.09484],[16.86715,41.09535],[16.86724,41.09561],[16.86733,41.09596],[16.86739,41.0962],[16.86746,41.09657],[16.86748,41.09674],[16.86754,41.09704],[16.86751,41.09726],[16.86752,41.09733],[16.8675,41.09748],[16.86748,41.0976],[16.86741,41.09826],[16.86733,41.09853],[16.86733,41.09916],[16.86727,41.09989],[16.86726,41.10002],[16.86726,41.10013],[16.86724,41.10037],[16.86719,41.10088],[16.86716,41.10124],[16.86712,41.10161],[16.8671,41.10171],[16.86705,41.10197],[16.86699,41.10228],[16.86699,41.10233],[16.86691,41.10276],[16.86696,41.10313],[16.86711,41.10415],[16.86715,41.10445],[16.8673,41.10492],[16.86739,41.10534],[16.86743,41.10539],[16.86751,41.10574],[16.86766,41.1072],[16.86763,41.10794],[16.86769,41.10803],[16.86762,41.10843],[16.86762,41.1087],[16.86765,41.10929],[16.8678,41.10987],[16.86782,41.11009],[16.86789,41.11042],[16.86811,41.11133],[16.86814,41.11158],[16.86825,41.11195],[16.86839,41.11231],[16.86852,41.11271],[16.86869,41.11313],[16.86869,41.11319],[16.86888,41.11364],[16.86892,41.11399],[16.86897,41.11413],[16.86898,41.11424],[16.86898,41.11433],[16.86897,41.11452],[16.86891,41.1147],[16.86883,41.11492],[16.86874,41.11512],[16.86863,41.11638],[16.86866,41.11655],[16.8686,41.11698],[16.87016,41.11704],[16.87193,41.11718],[16.87293,41.11729],[16.87337,41.11731],[16.87434,41.11736],[16.87457,41.11737],[16.87516,41.11741],[16.87582,41.11745],[16.87642,41.11749],[16.87792,41.11758],[16.87866,41.11763],[16.87917,41.11766],[16.87924,41.11766],[16.87935,41.11767],[16.8794,41.11767],[16.87949,41.11761],[16.87994,41.11733],[16.88111,41.11634],[16.88173,41.11571],[16.88181,41.11563],[16.88287,41.1145],[16.88401,41.11326],[16.88477,41.11257],[16.88818,41.10899],[16.88827,41.1089],[16.88831,41.10884],[16.88839,41.10878],[16.88854,41.10867],[16.88979,41.10729],[16.89332,41.10372],[16.89472,41.10227],[16.89553,41.10148],[16.89771,41.09918],[16.89824,41.09871],[16.89992,41.09692],[16.90053,41.09619],[16.90137,41.09526],[16.90172,41.09487],[16.90483,41.0915],[16.90652,41.0897],[16.90816,41.08795],[16.90834,41.08775]]]]}},{"type":"Feature","properties":{"nbhd_name":"Madonnella","uesi_id":"ITA_R41038","nbhd_code":"ITA_R41038_8"},"geometry":{"type":"MultiPolygon","coordinates":[[[[16.87511,41.12716],[16.87656,41.12691],[16.87655,41.12687],[16.87571,41.127],[16.87563,41.1268],[16.87567,41.12677],[16.87575,41.12672],[16.87584,41.12665],[16.87586,41.12654],[16.87586,41.12649],[16.87644,41.12637],[16.87643,41.12633],[16.87584,41.12644],[16.87579,41.12634],[16.87575,41.1263],[16.8757,41.1263],[16.8757,41.12633],[16.87564,41.12634],[16.87557,41.12629],[16.87552,41.12629],[16.87546,41.12631],[16.87543,41.12634],[16.87527,41.12631],[16.87522,41.1263],[16.87512,41.12622],[16.8753,41.1261],[16.87519,41.12604],[16.875,41.12615],[16.87485,41.12602],[16.87473,41.1259],[16.87464,41.12576],[16.87459,41.12565],[16.87456,41.12554],[16.87455,41.12536],[16.87456,41.12521],[16.87458,41.12508],[16.87463,41.12496],[16.87475,41.12483],[16.87485,41.12474],[16.87504,41.1246],[16.87554,41.12433],[16.87598,41.12409],[16.87634,41.12389],[16.8766,41.12375],[16.8768,41.12365],[16.877,41.12353],[16.87713,41.12344],[16.87782,41.12307],[16.87792,41.12315],[16.87806,41.12321],[16.87822,41.12325],[16.8785,41.12327],[16.87856,41.12326],[16.87871,41.12323],[16.87885,41.12313],[16.87893,41.12307],[16.87895,41.12305],[16.879,41.12295],[16.87904,41.12283],[16.87906,41.12271],[16.87905,41.1226],[16.87925,41.12253],[16.87948,41.12245],[16.87973,41.12237],[16.88131,41.12187],[16.88217,41.12159],[16.883,41.12132],[16.88406,41.121],[16.88417,41.12098],[16.88423,41.12097],[16.88431,41.12096],[16.88435,41.12094],[16.88441,41.12093],[16.88444,41.12091],[16.88453,41.12088],[16.88457,41.12086],[16.88464,41.12084],[16.88471,41.12083],[16.88482,41.1208],[16.88494,41.12075],[16.88502,41.1207],[16.88508,41.12068],[16.88517,41.12067],[16.88522,41.12065],[16.8853,41.12061],[16.88543,41.12059],[16.88556,41.12055],[16.88563,41.12053],[16.88568,41.12051],[16.88578,41.12047],[16.88585,41.12046],[16.88591,41.12045],[16.88596,41.12043],[16.88602,41.12041],[16.88606,41.1204],[16.88613,41.12038],[16.88616,41.12036],[16.8862,41.12035],[16.88625,41.12033],[16.88629,41.12031],[16.88635,41.1203],[16.8864,41.12028],[16.88647,41.12027],[16.88653,41.12026],[16.88663,41.12022],[16.88668,41.12021],[16.88672,41.1202],[16.8868,41.12018],[16.88689,41.12015],[16.887,41.12011],[16.88713,41.12007],[16.88729,41.12002],[16.88735,41.12001],[16.88739,41.11999],[16.88743,41.11998],[16.88761,41.11991],[16.88765,41.1199],[16.88768,41.11989],[16.88773,41.11989],[16.88779,41.11986],[16.88784,41.11985],[16.88805,41.11978],[16.88819,41.11973],[16.88823,41.11968],[16.88835,41.11966],[16.88847,41.11962],[16.88859,41.11957],[16.88875,41.11955],[16.88894,41.1195],[16.88898,41.11952],[16.88906,41.11954],[16.8891,41.11953],[16.88917,41.11952],[16.88923,41.11951],[16.88928,41.11951],[16.88933,41.1195],[16.88939,41.11949],[16.88946,41.11947],[16.88951,41.11946],[16.88957,41.11945],[16.88963,41.11943],[16.88992,41.11932],[16.8902,41.11911],[16.89048,41.11877],[16.89079,41.11878],[16.89105,41.1187],[16.89143,41.11853],[16.89163,41.11853],[16.89209,41.11844],[16.89245,41.11838],[16.89278,41.11814],[16.893,41.11811],[16.89332,41.11804],[16.89369,41.11803],[16.89384,41.11805],[16.89405,41.11804],[16.89431,41.11807],[16.89458,41.11806],[16.89478,41.11801],[16.89499,41.11799],[16.89516,41.11796],[16.89557,41.11786],[16.89579,41.11784],[16.89605,41.11783],[16.89656,41.11784],[16.89693,41.11785],[16.89725,41.11779],[16.89744,41.11772],[16.89772,41.11763],[16.89787,41.11757],[16.89827,41.11748],[16.89829,41.11742],[16.89848,41.11738],[16.89853,41.11719],[16.89876,41.11698],[16.89909,41.11676],[16.89957,41.11666],[16.90007,41.11659],[16.9007,41.11659],[16.90118,41.1166],[16.90168,41.11668],[16.90216,41.11676],[16.90245,41.11678],[16.9027,41.11675],[16.90288,41.11677],[16.90304,41.11675],[16.90366,41.11661],[16.90406,41.11653],[16.90421,41.11654],[16.90437,41.1165],[16.90441,41.1164],[16.9045,41.11634],[16.90476,41.11625],[16.90493,41.1162],[16.90534,41.11614],[16.90558,41.1161],[16.90581,41.11602],[16.90623,41.11588],[16.90597,41.11553],[16.90558,41.11501],[16.9046,41.11381],[16.90447,41.11384],[16.89962,41.11486],[16.89841,41.11505],[16.89709,41.11531],[16.89635,41.11545],[16.89422,41.11592],[16.89365,41.11605],[16.89331,41.11613],[16.89295,41.11622],[16.89242,41.11632],[16.89223,41.11638],[16.89119,41.1166],[16.89023,41.1168],[16.88951,41.11694],[16.88865,41.11707],[16.88862,41.11704],[16.88859,41.11701],[16.88857,41.11698],[16.88851,41.1169],[16.88661,41.1172],[16.88455,41.11755],[16.88334,41.11764],[16.88249,41.11771],[16.88201,41.11772],[16.88074,41.11772],[16.87983,41.11769],[16.87954,41.11767],[16.87948,41.11767],[16.8794,41.11767],[16.87935,41.11767],[16.87924,41.11766],[16.87917,41.11766],[16.87866,41.11763],[16.87792,41.11758],[16.87642,41.11749],[16.87582,41.11745],[16.87516,41.11741],[16.87457,41.11737],[16.87434,41.11736],[16.87337,41.11731],[16.87293,41.11729],[16.87286,41.11767],[16.87281,41.11797],[16.8728,41.11805],[16.87279,41.11812],[16.87273,41.11834],[16.8728,41.11837],[16.87256,41.12006],[16.87248,41.12086],[16.87239,41.12162],[16.87232,41.12221],[16.87222,41.12289],[16.87218,41.12318],[16.87214,41.12353],[16.8721,41.12392],[16.87207,41.12422],[16.87207,41.12449],[16.87202,41.12488],[16.87195,41.1255],[16.87193,41.12586],[16.87192,41.12594],[16.87191,41.12621],[16.87229,41.12607],[16.87242,41.12603],[16.87243,41.12599],[16.87244,41.12593],[16.87268,41.12598],[16.87272,41.12588],[16.87332,41.12557],[16.87335,41.12555],[16.87352,41.12567],[16.87349,41.12571],[16.87356,41.12574],[16.87358,41.12572],[16.87377,41.12584],[16.87372,41.12588],[16.87377,41.12592],[16.87383,41.12589],[16.87403,41.12602],[16.87399,41.12606],[16.87406,41.1261],[16.87409,41.12607],[16.87417,41.12611],[16.87414,41.12613],[16.87414,41.12616],[16.87419,41.12617],[16.87426,41.12618],[16.87434,41.12617],[16.87443,41.12615],[16.87508,41.12658],[16.87501,41.12663],[16.875,41.12669],[16.87515,41.12668],[16.87517,41.12673],[16.87493,41.12679],[16.87493,41.12685],[16.87469,41.12688],[16.87469,41.12696],[16.87476,41.12695],[16.87476,41.12691],[16.87503,41.12689],[16.87508,41.12708],[16.87479,41.12712],[16.87479,41.12717],[16.87506,41.12713],[16.8751,41.12713],[16.87511,41.12716]]]]}},{"type":"Feature","properties":{"nbhd_name":"Libert\u00e0-Marconi-San Girolamo-Fesca","uesi_id":"ITA_R41038","nbhd_code":"ITA_R41038_9"},"geometry":{"type":"MultiPolygon","coordinates":[[[[16.85276,41.14196],[16.85266,41.14188],[16.85256,41.14197],[16.85222,41.14174],[16.85234,41.14165],[16.85227,41.1416],[16.85215,41.1417],[16.85185,41.14149],[16.85195,41.14139],[16.85183,41.14129],[16.8517,41.14138],[16.8511,41.14095],[16.85117,41.1409],[16.85108,41.14084],[16.85101,41.14087],[16.85068,41.14066],[16.85073,41.14058],[16.85065,41.14053],[16.85056,41.14058],[16.84927,41.13968],[16.84748,41.13843],[16.84755,41.13837],[16.84745,41.13829],[16.84735,41.13814],[16.84732,41.13809],[16.8479,41.13788],[16.84784,41.13777],[16.84773,41.1378],[16.84769,41.13773],[16.84828,41.13749],[16.84823,41.13707],[16.84814,41.1371],[16.84821,41.1374],[16.84818,41.13748],[16.84774,41.13764],[16.84737,41.13711],[16.84787,41.13694],[16.84784,41.13687],[16.84763,41.13696],[16.84744,41.13665],[16.84785,41.13648],[16.84781,41.13641],[16.84699,41.13676],[16.84675,41.13641],[16.84731,41.1361],[16.84766,41.13549],[16.84693,41.13522],[16.84687,41.13528],[16.84721,41.13543],[16.84699,41.13589],[16.84669,41.13607],[16.84656,41.13594],[16.84638,41.1359],[16.84622,41.1359],[16.84611,41.13594],[16.84615,41.13601],[16.84623,41.13596],[16.84627,41.13601],[16.8459,41.13626],[16.84557,41.13608],[16.84589,41.13604],[16.84587,41.13595],[16.84534,41.13598],[16.84529,41.13531],[16.846,41.1356],[16.84604,41.13553],[16.84525,41.13521],[16.84525,41.13517],[16.84547,41.13487],[16.8463,41.13521],[16.84643,41.13506],[16.8468,41.13489],[16.84743,41.13393],[16.84739,41.13358],[16.84695,41.13344],[16.84686,41.13345],[16.84657,41.13335],[16.84665,41.13327],[16.84691,41.13313],[16.84817,41.13406],[16.84872,41.13389],[16.85207,41.13286],[16.85476,41.13206],[16.85472,41.13196],[16.85463,41.13193],[16.85332,41.13231],[16.85324,41.13241],[16.85315,41.13242],[16.85298,41.13234],[16.8528,41.13238],[16.85247,41.13176],[16.85236,41.1317],[16.85231,41.1315],[16.85221,41.13132],[16.85213,41.13107],[16.85192,41.13068],[16.85159,41.13014],[16.852,41.12944],[16.85222,41.12938],[16.85227,41.12928],[16.85242,41.12924],[16.85284,41.12918],[16.85321,41.1291],[16.85365,41.1293],[16.85347,41.12905],[16.85361,41.12895],[16.85435,41.12876],[16.85519,41.12862],[16.85583,41.12862],[16.85826,41.12872],[16.85973,41.1288],[16.86009,41.12908],[16.86017,41.12919],[16.85996,41.1293],[16.85995,41.12938],[16.85887,41.12942],[16.85886,41.12946],[16.86023,41.12941],[16.86024,41.1297],[16.86035,41.12969],[16.86034,41.12958],[16.86057,41.12956],[16.86058,41.12965],[16.86045,41.12975],[16.86024,41.1298],[16.8598,41.12987],[16.85934,41.12992],[16.85885,41.12992],[16.85842,41.13022],[16.85829,41.13033],[16.85815,41.13041],[16.85793,41.1305],[16.85764,41.13053],[16.85756,41.13062],[16.85757,41.13074],[16.8576,41.13083],[16.8577,41.13087],[16.85774,41.13099],[16.85717,41.13117],[16.85708,41.13124],[16.85611,41.13154],[16.85614,41.13162],[16.85685,41.1314],[16.85859,41.13087],[16.85854,41.1308],[16.85818,41.1309],[16.85807,41.13089],[16.85788,41.13096],[16.85783,41.13079],[16.85796,41.13068],[16.85871,41.13045],[16.85924,41.1303],[16.8595,41.13023],[16.85959,41.13038],[16.8596,41.13051],[16.85968,41.13056],[16.85971,41.13063],[16.85982,41.13075],[16.85991,41.13086],[16.86019,41.13108],[16.86025,41.13137],[16.86031,41.13148],[16.86034,41.13161],[16.8605,41.13173],[16.86058,41.13169],[16.86068,41.13181],[16.86068,41.13187],[16.86111,41.13223],[16.86132,41.13225],[16.8615,41.13232],[16.86159,41.13239],[16.86168,41.13239],[16.86192,41.13285],[16.862,41.13311],[16.86207,41.13338],[16.86193,41.13344],[16.8619,41.13353],[16.86207,41.13367],[16.86222,41.13361],[16.86221,41.13358],[16.86242,41.13346],[16.86183,41.13211],[16.86092,41.13007],[16.86087,41.12942],[16.86108,41.12943],[16.86111,41.12961],[16.86127,41.1296],[16.86128,41.12951],[16.86167,41.12952],[16.86168,41.13011],[16.86149,41.13011],[16.86148,41.13017],[16.86182,41.13016],[16.86181,41.13011],[16.86175,41.13012],[16.86175,41.12952],[16.86236,41.12952],[16.86234,41.12964],[16.86219,41.12964],[16.86214,41.12979],[16.86272,41.12981],[16.86272,41.12962],[16.86257,41.12962],[16.86257,41.12955],[16.86308,41.12959],[16.8631,41.12942],[16.86334,41.12862],[16.86359,41.12866],[16.86366,41.12867],[16.86374,41.12798],[16.86378,41.1276],[16.86387,41.12677],[16.86388,41.12668],[16.86388,41.12661],[16.86389,41.12652],[16.8639,41.12646],[16.86396,41.12573],[16.86403,41.12504],[16.8641,41.12435],[16.86417,41.12377],[16.86424,41.12309],[16.86431,41.12241],[16.86438,41.12175],[16.86445,41.12111],[16.86452,41.12036],[16.8646,41.11961],[16.86469,41.11838],[16.86473,41.11819],[16.86489,41.11693],[16.8649,41.11674],[16.86472,41.11673],[16.86273,41.1166],[16.86163,41.11653],[16.86108,41.11652],[16.86104,41.11651],[16.85952,41.1164],[16.8594,41.11639],[16.85926,41.11638],[16.85916,41.11637],[16.85832,41.11635],[16.8575,41.11633],[16.85704,41.11635],[16.85645,41.11638],[16.85639,41.11638],[16.85577,41.11641],[16.85502,41.11652],[16.85397,41.11678],[16.85321,41.11701],[16.85279,41.11725],[16.85238,41.11759],[16.85229,41.11772],[16.85227,41.11776],[16.85226,41.11788],[16.85221,41.11784],[16.85202,41.11792],[16.84684,41.11995],[16.84677,41.11997],[16.84653,41.12004],[16.84579,41.12031],[16.84521,41.12054],[16.84219,41.12175],[16.83892,41.12304],[16.83745,41.12362],[16.83649,41.124],[16.83393,41.12502],[16.83249,41.12559],[16.83106,41.12617],[16.82862,41.12715],[16.82713,41.12769],[16.8269,41.12778],[16.82534,41.1284],[16.81886,41.13099],[16.81711,41.13165],[16.81115,41.13411],[16.81102,41.13416],[16.80827,41.13523],[16.80807,41.13532],[16.80761,41.1355],[16.80649,41.13593],[16.80475,41.13666],[16.8011,41.13811],[16.7997,41.13864],[16.79881,41.13897],[16.79736,41.13957],[16.79659,41.13987],[16.79718,41.14145],[16.79728,41.14177],[16.79791,41.14247],[16.79768,41.14264],[16.79789,41.14282],[16.79812,41.1427],[16.79846,41.14309],[16.79883,41.14351],[16.79904,41.14374],[16.79978,41.1446],[16.80126,41.14384],[16.80242,41.14333],[16.8031,41.14305],[16.80339,41.143],[16.80361,41.14292],[16.80363,41.14285],[16.80387,41.14283],[16.80391,41.14288],[16.804,41.14285],[16.80395,41.14279],[16.8041,41.14267],[16.80492,41.14237],[16.80499,41.14227],[16.8054,41.14215],[16.806,41.14199],[16.80642,41.14187],[16.80694,41.14171],[16.80717,41.14155],[16.80751,41.1414],[16.80783,41.14127],[16.80803,41.14128],[16.80812,41.14142],[16.80818,41.14141],[16.80806,41.14116],[16.80813,41.14111],[16.80825,41.14108],[16.80837,41.14107],[16.80845,41.14109],[16.80878,41.14142],[16.80892,41.14134],[16.80865,41.14112],[16.80865,41.14103],[16.80872,41.14086],[16.80883,41.14077],[16.80896,41.14073],[16.80916,41.14062],[16.8095,41.14049],[16.80967,41.14057],[16.8097,41.14051],[16.80955,41.14043],[16.80963,41.14033],[16.80996,41.14029],[16.81,41.14041],[16.80997,41.14053],[16.80989,41.14074],[16.81003,41.14076],[16.81019,41.14088],[16.81026,41.14085],[16.81045,41.14102],[16.81055,41.14094],[16.81051,41.14085],[16.81037,41.14073],[16.81038,41.1406],[16.81047,41.14045],[16.81059,41.14043],[16.81058,41.14037],[16.81077,41.14025],[16.81087,41.14029],[16.81097,41.14024],[16.81096,41.14016],[16.8115,41.14012],[16.81154,41.14021],[16.8116,41.14023],[16.81168,41.14021],[16.81174,41.14011],[16.81214,41.14009],[16.81238,41.14005],[16.8128,41.14002],[16.81353,41.13993],[16.81359,41.1399],[16.81384,41.13988],[16.81396,41.13992],[16.81423,41.13991],[16.81439,41.13993],[16.81455,41.13991],[16.81478,41.13993],[16.81495,41.13985],[16.81511,41.13982],[16.81508,41.13966],[16.81538,41.13965],[16.81549,41.13973],[16.81572,41.1397],[16.81604,41.13961],[16.81642,41.13954],[16.81679,41.13949],[16.81686,41.13941],[16.81729,41.13932],[16.81732,41.1394],[16.81742,41.13947],[16.81775,41.13949],[16.81803,41.13939],[16.81838,41.13929],[16.81865,41.13915],[16.81865,41.13904],[16.81887,41.13901],[16.81894,41.13911],[16.81915,41.13914],[16.81936,41.13914],[16.81951,41.1391],[16.81961,41.139],[16.81975,41.13892],[16.81997,41.13889],[16.82,41.13892],[16.82021,41.13887],[16.82018,41.13881],[16.82077,41.13865],[16.82074,41.13859],[16.82108,41.13852],[16.82129,41.13842],[16.82142,41.13845],[16.82155,41.13843],[16.8216,41.13834],[16.82237,41.13815],[16.8224,41.13823],[16.82255,41.13824],[16.82261,41.13816],[16.82325,41.13801],[16.82396,41.13786],[16.82414,41.1379],[16.82437,41.13798],[16.82458,41.13795],[16.82457,41.13782],[16.82524,41.13765],[16.82565,41.13765],[16.82567,41.13772],[16.82603,41.13768],[16.82608,41.13776],[16.82621,41.1377],[16.82619,41.13764],[16.82688,41.13746],[16.82691,41.13737],[16.82758,41.13725],[16.82757,41.13711],[16.8277,41.13707],[16.82771,41.13697],[16.82792,41.13688],[16.82824,41.13682],[16.82868,41.13683],[16.82871,41.13706],[16.82881,41.13704],[16.82901,41.1378],[16.82935,41.13774],[16.82911,41.13688],[16.82938,41.13671],[16.82999,41.13661],[16.82997,41.13655],[16.83079,41.13647],[16.83183,41.13647],[16.83248,41.13647],[16.83301,41.13651],[16.8335,41.13652],[16.83392,41.13655],[16.83438,41.13661],[16.83449,41.13678],[16.83469,41.13699],[16.83498,41.13705],[16.835,41.13698],[16.83523,41.13698],[16.83562,41.13761],[16.83583,41.13794],[16.83612,41.13802],[16.83639,41.13804],[16.83703,41.13801],[16.83704,41.13803],[16.83721,41.13804],[16.83722,41.13797],[16.83765,41.13797],[16.83788,41.13818],[16.83801,41.1382],[16.83815,41.13831],[16.83815,41.13836],[16.83827,41.13836],[16.83828,41.13825],[16.83839,41.13825],[16.8385,41.13817],[16.83877,41.13794],[16.83997,41.1379],[16.84019,41.13799],[16.84025,41.13811],[16.84026,41.13826],[16.84022,41.13844],[16.84009,41.13851],[16.84009,41.1386],[16.83996,41.13879],[16.83994,41.13894],[16.84008,41.139],[16.84026,41.13901],[16.84038,41.13904],[16.84045,41.13917],[16.84058,41.13924],[16.84078,41.13924],[16.84086,41.13917],[16.841,41.13917],[16.84102,41.13922],[16.84115,41.13924],[16.84127,41.13941],[16.84135,41.13941],[16.84142,41.13932],[16.84215,41.13931],[16.84212,41.1392],[16.8423,41.13919],[16.84284,41.13941],[16.8436,41.13975],[16.84445,41.1399],[16.84492,41.13992],[16.84541,41.1398],[16.84569,41.13965],[16.84621,41.13925],[16.84652,41.13888],[16.84674,41.13859],[16.8469,41.13851],[16.84713,41.13851],[16.84724,41.13854],[16.8479,41.13896],[16.84992,41.14038],[16.85254,41.14227],[16.85273,41.14212],[16.85267,41.14206],[16.85276,41.14196]]]]}},{"type":"Feature","properties":{"nbhd_name":"Murat-San Nicola","uesi_id":"ITA_R41038","nbhd_code":"ITA_R41038_10"},"geometry":{"type":"MultiPolygon","coordinates":[[[[16.84807,41.14812],[16.85036,41.14723],[16.85173,41.14675],[16.85183,41.14667],[16.85301,41.14624],[16.85346,41.14581],[16.85368,41.14559],[16.85378,41.14542],[16.8547,41.14438],[16.85498,41.14415],[16.85539,41.14396],[16.85575,41.14396],[16.85663,41.1439],[16.85716,41.14386],[16.8578,41.14384],[16.85916,41.14376],[16.8592,41.1438],[16.85941,41.1438],[16.85951,41.14374],[16.85975,41.14374],[16.86014,41.14369],[16.86134,41.14366],[16.86224,41.14361],[16.86322,41.14357],[16.86355,41.14353],[16.86459,41.14349],[16.86611,41.14343],[16.86672,41.14339],[16.8671,41.14336],[16.86725,41.14333],[16.86746,41.1433],[16.86754,41.14327],[16.86764,41.14326],[16.86791,41.14322],[16.86822,41.14315],[16.86829,41.14313],[16.86867,41.143],[16.86881,41.14295],[16.8691,41.14287],[16.86937,41.14276],[16.86963,41.14264],[16.86997,41.14249],[16.87028,41.14234],[16.87057,41.14216],[16.8707,41.14209],[16.87099,41.1419],[16.87158,41.14137],[16.87177,41.14117],[16.87203,41.14088],[16.87216,41.1407],[16.87224,41.14056],[16.87238,41.14031],[16.87242,41.1402],[16.87255,41.13972],[16.87257,41.13944],[16.87257,41.13929],[16.87261,41.13896],[16.87261,41.13879],[16.87259,41.13853],[16.87261,41.13834],[16.87257,41.1381],[16.87257,41.13788],[16.87258,41.13774],[16.87255,41.13757],[16.87255,41.13726],[16.87254,41.13707],[16.87252,41.13682],[16.87248,41.13662],[16.87248,41.13644],[16.87251,41.13623],[16.8725,41.13602],[16.87249,41.1359],[16.87246,41.13572],[16.87243,41.13556],[16.87238,41.1354],[16.87234,41.13516],[16.87232,41.1351],[16.87227,41.13491],[16.87225,41.13475],[16.87223,41.13451],[16.8722,41.13437],[16.87217,41.13422],[16.87214,41.13412],[16.87203,41.13393],[16.87195,41.13384],[16.87223,41.13364],[16.87235,41.13354],[16.87249,41.13344],[16.87257,41.13338],[16.87248,41.13334],[16.87232,41.13342],[16.87213,41.13358],[16.87203,41.13364],[16.87184,41.13355],[16.87185,41.13345],[16.87185,41.13338],[16.87186,41.13321],[16.87186,41.13296],[16.87183,41.13269],[16.87183,41.13257],[16.87181,41.13245],[16.87183,41.13214],[16.87181,41.13198],[16.87171,41.13176],[16.87166,41.1316],[16.87158,41.13142],[16.87153,41.13118],[16.87151,41.131],[16.87149,41.13091],[16.87147,41.13079],[16.87148,41.13069],[16.87151,41.13053],[16.87157,41.13037],[16.87163,41.13024],[16.87171,41.13013],[16.87185,41.12998],[16.87194,41.12991],[16.87204,41.12978],[16.87223,41.12965],[16.87263,41.12946],[16.87291,41.12935],[16.87311,41.12922],[16.87326,41.12914],[16.87349,41.12904],[16.87371,41.12895],[16.874,41.12882],[16.87411,41.12875],[16.87423,41.12866],[16.87434,41.1286],[16.87453,41.12857],[16.87471,41.12855],[16.8749,41.12854],[16.87516,41.12852],[16.87556,41.12851],[16.87563,41.12852],[16.87672,41.1285],[16.87684,41.12849],[16.87701,41.12845],[16.87746,41.12833],[16.87795,41.12809],[16.87828,41.12794],[16.87852,41.12784],[16.87869,41.12779],[16.87882,41.12774],[16.87902,41.12759],[16.87922,41.12737],[16.87933,41.12721],[16.87939,41.12713],[16.87947,41.12702],[16.87955,41.12688],[16.87959,41.12682],[16.87957,41.12676],[16.87955,41.12673],[16.87951,41.12672],[16.87947,41.12673],[16.87942,41.12673],[16.87938,41.12672],[16.87928,41.12684],[16.87936,41.12687],[16.879,41.12743],[16.87786,41.12794],[16.87756,41.12807],[16.87759,41.12809],[16.8774,41.12819],[16.87729,41.12822],[16.8771,41.12825],[16.87687,41.12826],[16.87647,41.12826],[16.87607,41.12825],[16.87606,41.12806],[16.87611,41.12805],[16.87612,41.12802],[16.87563,41.12803],[16.87561,41.12799],[16.87532,41.128],[16.87533,41.12809],[16.87522,41.1281],[16.87522,41.12803],[16.87515,41.12803],[16.87515,41.1281],[16.87461,41.12811],[16.87461,41.12802],[16.87401,41.12802],[16.87401,41.12796],[16.87385,41.1279],[16.87376,41.12787],[16.87315,41.12761],[16.87312,41.12764],[16.8728,41.12751],[16.87262,41.12721],[16.87258,41.12706],[16.87255,41.12676],[16.87274,41.12676],[16.87272,41.127],[16.87296,41.12699],[16.87296,41.12705],[16.87331,41.12705],[16.87331,41.12698],[16.87306,41.12696],[16.87305,41.12675],[16.87345,41.12677],[16.87365,41.1271],[16.87374,41.12707],[16.8735,41.12671],[16.8731,41.12669],[16.87307,41.1266],[16.87314,41.12659],[16.87313,41.12644],[16.87347,41.12644],[16.87346,41.1264],[16.87314,41.12639],[16.87313,41.1263],[16.8733,41.1263],[16.8733,41.12609],[16.87313,41.1261],[16.87312,41.12603],[16.87269,41.12604],[16.87268,41.12598],[16.87244,41.12593],[16.87243,41.12599],[16.87242,41.12603],[16.87229,41.12607],[16.87191,41.12621],[16.87192,41.12594],[16.87193,41.12586],[16.87195,41.1255],[16.87202,41.12488],[16.87207,41.12449],[16.87207,41.12422],[16.8721,41.12392],[16.87214,41.12353],[16.87218,41.12318],[16.87222,41.12289],[16.87232,41.12221],[16.87239,41.12162],[16.87248,41.12086],[16.87256,41.12006],[16.8728,41.11837],[16.87273,41.11834],[16.87279,41.11812],[16.8728,41.11805],[16.87281,41.11797],[16.87286,41.11767],[16.87293,41.11729],[16.87193,41.11718],[16.87016,41.11704],[16.8686,41.11698],[16.86631,41.11678],[16.86535,41.11676],[16.86531,41.11676],[16.8649,41.11674],[16.86489,41.11693],[16.86473,41.11819],[16.86469,41.11838],[16.8646,41.11961],[16.86452,41.12036],[16.86445,41.12111],[16.86438,41.12175],[16.86431,41.12241],[16.86424,41.12309],[16.86417,41.12377],[16.8641,41.12435],[16.86403,41.12504],[16.86396,41.12573],[16.8639,41.12646],[16.86389,41.12652],[16.86388,41.12661],[16.86388,41.12668],[16.86387,41.12677],[16.86378,41.1276],[16.86374,41.12798],[16.86366,41.12867],[16.86359,41.12866],[16.86334,41.12862],[16.8631,41.12942],[16.86308,41.12959],[16.86298,41.13031],[16.86332,41.13033],[16.86537,41.13054],[16.86641,41.1317],[16.86648,41.13167],[16.86553,41.13058],[16.86557,41.13058],[16.86547,41.13046],[16.86575,41.13032],[16.8667,41.13135],[16.86679,41.13154],[16.86686,41.13174],[16.86684,41.13197],[16.86677,41.1321],[16.86663,41.13196],[16.86648,41.13205],[16.86648,41.13213],[16.86616,41.13237],[16.86629,41.13248],[16.8655,41.13309],[16.86574,41.13327],[16.86471,41.13403],[16.86506,41.13434],[16.8665,41.13331],[16.86667,41.13343],[16.8675,41.13282],[16.86819,41.13339],[16.86903,41.13404],[16.86871,41.13466],[16.86801,41.13517],[16.86661,41.13619],[16.86601,41.13662],[16.86584,41.13668],[16.86566,41.1367],[16.86357,41.13679],[16.86151,41.1369],[16.86147,41.13688],[16.86136,41.13685],[16.86124,41.13688],[16.8611,41.13685],[16.86101,41.13694],[16.86101,41.13705],[16.8611,41.13713],[16.86131,41.13717],[16.86242,41.1371],[16.86381,41.13705],[16.86398,41.13708],[16.8643,41.13714],[16.86482,41.13723],[16.86482,41.13728],[16.86503,41.13727],[16.86503,41.13723],[16.86551,41.1373],[16.86576,41.14029],[16.86601,41.14028],[16.86599,41.14015],[16.86589,41.14014],[16.86575,41.13864],[16.86568,41.13767],[16.86633,41.13764],[16.86752,41.1368],[16.86892,41.13576],[16.87089,41.13571],[16.87094,41.1364],[16.87106,41.13818],[16.87117,41.13983],[16.86932,41.14118],[16.86685,41.14299],[16.86675,41.14294],[16.86663,41.14303],[16.86668,41.14309],[16.86614,41.14311],[16.86608,41.14231],[16.866,41.14231],[16.86605,41.1431],[16.86588,41.14321],[16.86581,41.1432],[16.86504,41.14323],[16.86494,41.14328],[16.86436,41.14331],[16.86434,41.1432],[16.86417,41.14322],[16.86416,41.1433],[16.86396,41.14331],[16.86356,41.14335],[16.86316,41.14336],[16.86051,41.14349],[16.85988,41.14352],[16.85986,41.14344],[16.85953,41.14345],[16.85953,41.14355],[16.8571,41.14368],[16.85707,41.14354],[16.85498,41.14364],[16.85398,41.14474],[16.85299,41.14587],[16.85284,41.14602],[16.85258,41.14615],[16.84928,41.14738],[16.84833,41.14774],[16.84828,41.14766],[16.84819,41.14763],[16.84808,41.14761],[16.8479,41.14765],[16.84781,41.14773],[16.84784,41.14786],[16.84807,41.14812]]]]}}]}