{"type":"FeatureCollection","name":"ITA_R42602","crs":{"type":"name","properties":{"name":"urn:ogc:def:crs:OGC:1.3:CRS84"}},"features":[{"type":"Feature","properties":{"nbhd_name":"Centro Storico","uesi_id":"ITA_R42602","nbhd_code":"ITA_R42602_2"},"geometry":{"type":"MultiPolygon","coordinates":[[[[11.20207,43.79087],[11.20222,43.79084],[11.20232,43.79084],[11.20247,43.79083],[11.20266,43.7908],[11.20277,43.79076],[11.20291,43.79074],[11.20303,43.79069],[11.2031,43.79068],[11.20323,43.79065],[11.2033,43.79063],[11.20343,43.79062],[11.20353,43.7906],[11.20368,43.79055],[11.2038,43.79054],[11.20386,43.79052],[11.20396,43.79049],[11.20403,43.79048],[11.20415,43.79046],[11.20439,43.79044],[11.20451,43.7904],[11.20456,43.79037],[11.2047,43.79035],[11.20497,43.79029],[11.20512,43.79027],[11.20533,43.79024],[11.20544,43.79024],[11.2055,43.79026],[11.20571,43.79026],[11.20585,43.79023],[11.20594,43.79025],[11.20608,43.79024],[11.20622,43.79023],[11.20637,43.79024],[11.20647,43.79024],[11.20684,43.79024],[11.207,43.79025],[11.20739,43.79025],[11.2084,43.79027],[11.20879,43.79028],[11.20898,43.79029],[11.20908,43.7903],[11.20941,43.79031],[11.20964,43.79031],[11.20979,43.79031],[11.21029,43.79034],[11.21046,43.79035],[11.21091,43.79034],[11.21122,43.79034],[11.21146,43.79036],[11.21153,43.79037],[11.21161,43.79037],[11.21195,43.79046],[11.21207,43.79049],[11.2129,43.79028],[11.21351,43.79014],[11.21355,43.79013],[11.21366,43.79012],[11.2137,43.7901],[11.21488,43.78978],[11.21582,43.78951],[11.21636,43.78937],[11.21654,43.78932],[11.21663,43.78928],[11.21672,43.78926],[11.21679,43.78925],[11.21687,43.78922],[11.21701,43.78917],[11.21715,43.78913],[11.21745,43.78906],[11.21781,43.78896],[11.21803,43.7889],[11.21814,43.78888],[11.21828,43.78883],[11.21837,43.78881],[11.21849,43.78878],[11.21858,43.78875],[11.21862,43.78873],[11.21895,43.78863],[11.21914,43.78858],[11.21938,43.78852],[11.21975,43.78843],[11.21981,43.78841],[11.21997,43.78835],[11.22013,43.78831],[11.22027,43.78826],[11.22045,43.78822],[11.22056,43.78818],[11.22078,43.78815],[11.22098,43.78809],[11.2212,43.78803],[11.22176,43.78787],[11.22233,43.78774],[11.22244,43.7877],[11.22259,43.78767],[11.22276,43.78763],[11.22295,43.78758],[11.22317,43.78753],[11.22334,43.78749],[11.22349,43.78743],[11.22373,43.78738],[11.22398,43.78732],[11.22418,43.78725],[11.2243,43.78724],[11.22446,43.7872],[11.22453,43.78716],[11.22464,43.78714],[11.22473,43.78713],[11.22482,43.7871],[11.22495,43.78706],[11.22511,43.78701],[11.22529,43.78697],[11.2255,43.7869],[11.22556,43.78689],[11.22573,43.78685],[11.22583,43.78683],[11.22591,43.78682],[11.22602,43.78683],[11.22609,43.78684],[11.22615,43.78684],[11.22623,43.78685],[11.22631,43.78688],[11.22643,43.78698],[11.22682,43.78674],[11.22693,43.78669],[11.22755,43.78723],[11.22758,43.78725],[11.22761,43.78727],[11.22793,43.78757],[11.22796,43.7876],[11.22799,43.78762],[11.22878,43.78836],[11.2288,43.78838],[11.22875,43.78842],[11.22841,43.78837],[11.22934,43.78919],[11.2294,43.78925],[11.22945,43.78928],[11.2296,43.78935],[11.22969,43.78939],[11.2298,43.78943],[11.22998,43.78949],[11.23022,43.78954],[11.23028,43.78956],[11.23057,43.78959],[11.23064,43.7896],[11.23075,43.78959],[11.23088,43.78958],[11.23117,43.7896],[11.23141,43.78956],[11.23168,43.78949],[11.23174,43.78947],[11.23182,43.78945],[11.23194,43.78942],[11.23217,43.78937],[11.23223,43.78934],[11.23227,43.78936],[11.23254,43.78922],[11.23271,43.78915],[11.23284,43.7891],[11.23319,43.78897],[11.23335,43.7889],[11.23348,43.78887],[11.23368,43.7888],[11.23374,43.78879],[11.23384,43.78873],[11.23394,43.7887],[11.23406,43.78866],[11.23422,43.7886],[11.23444,43.78852],[11.23453,43.7885],[11.23462,43.78845],[11.2349,43.78834],[11.23496,43.78833],[11.23508,43.78828],[11.23519,43.78824],[11.2353,43.7882],[11.23552,43.7881],[11.23563,43.78806],[11.23577,43.788],[11.23589,43.78795],[11.23596,43.78792],[11.23617,43.78784],[11.23625,43.7878],[11.23645,43.78773],[11.23655,43.7877],[11.2367,43.78764],[11.2369,43.78757],[11.237,43.78754],[11.2372,43.78746],[11.23736,43.78741],[11.23746,43.78738],[11.23753,43.78736],[11.23768,43.78729],[11.23774,43.78726],[11.23781,43.78723],[11.23794,43.78719],[11.23801,43.78716],[11.23816,43.78711],[11.23839,43.78701],[11.23849,43.78697],[11.23861,43.78692],[11.23873,43.78689],[11.2388,43.78686],[11.23894,43.78681],[11.23904,43.78678],[11.23919,43.78672],[11.23928,43.78669],[11.23942,43.78664],[11.23948,43.78661],[11.23955,43.78657],[11.2397,43.7865],[11.23976,43.78647],[11.23989,43.78642],[11.2401,43.78634],[11.24036,43.78626],[11.24051,43.7862],[11.24063,43.78615],[11.24081,43.78608],[11.24124,43.78591],[11.24137,43.78586],[11.24149,43.78581],[11.24159,43.78578],[11.24179,43.78571],[11.24187,43.78565],[11.24194,43.78564],[11.24379,43.7855],[11.24473,43.78339],[11.24475,43.78334],[11.24483,43.78312],[11.24492,43.78314],[11.24498,43.78315],[11.24496,43.78335],[11.2449,43.78383],[11.24494,43.78429],[11.24549,43.78412],[11.24605,43.78403],[11.24648,43.784],[11.24654,43.78399],[11.24676,43.78399],[11.24695,43.784],[11.24729,43.78399],[11.24743,43.78399],[11.24813,43.78395],[11.24884,43.78392],[11.24905,43.7839],[11.24936,43.7839],[11.24951,43.78388],[11.24964,43.78389],[11.24972,43.7839],[11.24981,43.78391],[11.25007,43.78388],[11.25013,43.78391],[11.25074,43.78389],[11.25089,43.7839],[11.25097,43.7839],[11.25105,43.78389],[11.25121,43.78387],[11.25146,43.78386],[11.25167,43.78388],[11.25173,43.78377],[11.25179,43.7836],[11.25194,43.78358],[11.25204,43.78354],[11.25208,43.78349],[11.25237,43.78272],[11.25241,43.7826],[11.25243,43.78257],[11.25263,43.78197],[11.25274,43.78194],[11.25292,43.78189],[11.25355,43.78204],[11.25362,43.78205],[11.25368,43.78207],[11.25502,43.78239],[11.25506,43.7824],[11.25511,43.78241],[11.25673,43.78275],[11.25681,43.78278],[11.2569,43.78282],[11.25707,43.78286],[11.25716,43.78287],[11.25726,43.78288],[11.25787,43.78303],[11.25791,43.78303],[11.25795,43.78304],[11.25851,43.78317],[11.25855,43.78318],[11.25859,43.78319],[11.25888,43.78328],[11.25893,43.78329],[11.25897,43.7833],[11.26094,43.7838],[11.26157,43.78352],[11.26245,43.78325],[11.26315,43.78265],[11.26321,43.78259],[11.26326,43.78254],[11.2644,43.78132],[11.26444,43.78127],[11.26449,43.78122],[11.26499,43.78069],[11.26531,43.78036],[11.26534,43.78034],[11.26537,43.78031],[11.26543,43.78025],[11.26556,43.78008],[11.26597,43.77965],[11.26626,43.77934],[11.26646,43.77912],[11.26661,43.77896],[11.26695,43.77858],[11.26718,43.77833],[11.26724,43.77837],[11.26742,43.77835],[11.26774,43.77825],[11.26777,43.77838],[11.26795,43.77862],[11.26811,43.77891],[11.26963,43.77731],[11.26913,43.77705],[11.26892,43.77695],[11.26889,43.77678],[11.26881,43.77657],[11.26896,43.77642],[11.26908,43.7763],[11.26929,43.77607],[11.26931,43.77605],[11.26934,43.77602],[11.26986,43.77546],[11.26991,43.7754],[11.26997,43.77534],[11.27004,43.77527],[11.27017,43.77513],[11.27019,43.7751],[11.27032,43.77497],[11.27036,43.77493],[11.27048,43.7748],[11.2706,43.77468],[11.27065,43.77461],[11.27067,43.77459],[11.27076,43.77447],[11.27078,43.77444],[11.27094,43.77416],[11.27101,43.77396],[11.27097,43.77395],[11.27099,43.77391],[11.27104,43.77379],[11.27105,43.77375],[11.27107,43.77371],[11.27108,43.77357],[11.27111,43.77344],[11.27113,43.77331],[11.27112,43.77313],[11.27111,43.7731],[11.2711,43.77307],[11.27107,43.77295],[11.27105,43.77281],[11.27105,43.77269],[11.27104,43.77257],[11.27104,43.77249],[11.27098,43.77127],[11.2711,43.77115],[11.27122,43.77102],[11.2714,43.77096],[11.27151,43.77087],[11.27157,43.77077],[11.27157,43.77068],[11.27156,43.77059],[11.27147,43.77048],[11.27134,43.77041],[11.27123,43.77038],[11.27104,43.77042],[11.27086,43.77045],[11.27063,43.77046],[11.27047,43.77009],[11.27044,43.77002],[11.27026,43.76973],[11.27025,43.76971],[11.27022,43.76967],[11.27011,43.76948],[11.26998,43.76924],[11.26991,43.76915],[11.26973,43.7688],[11.26964,43.76862],[11.26962,43.76858],[11.26968,43.76852],[11.26996,43.7685],[11.26982,43.76844],[11.26963,43.76829],[11.26969,43.76828],[11.27052,43.76813],[11.27069,43.766],[11.27074,43.76598],[11.2709,43.76598],[11.27096,43.76598],[11.27107,43.76598],[11.27116,43.76587],[11.27104,43.76516],[11.27103,43.76511],[11.27102,43.76504],[11.27099,43.7649],[11.27098,43.76486],[11.27097,43.7648],[11.27094,43.76467],[11.27085,43.76427],[11.27071,43.7641],[11.27064,43.76406],[11.2705,43.76373],[11.27091,43.76356],[11.27063,43.7633],[11.27071,43.76326],[11.2708,43.76321],[11.27085,43.76318],[11.2709,43.76316],[11.27105,43.76308],[11.27111,43.76305],[11.27121,43.763],[11.27125,43.76298],[11.2713,43.76295],[11.27145,43.76287],[11.27152,43.76283],[11.27167,43.76273],[11.27173,43.76268],[11.2718,43.7626],[11.27185,43.76252],[11.27186,43.76249],[11.2719,43.76243],[11.27199,43.76227],[11.27212,43.76222],[11.27221,43.76217],[11.27211,43.76215],[11.27195,43.76218],[11.27183,43.76221],[11.2717,43.76226],[11.27154,43.76235],[11.27137,43.76248],[11.27129,43.76253],[11.27122,43.76253],[11.27117,43.76254],[11.27111,43.76253],[11.27099,43.76254],[11.27087,43.76254],[11.27078,43.76254],[11.27067,43.76254],[11.27059,43.76254],[11.27047,43.76254],[11.27039,43.76254],[11.2703,43.76254],[11.27023,43.76255],[11.27018,43.76255],[11.27013,43.76256],[11.27006,43.76257],[11.26998,43.76259],[11.26986,43.76263],[11.26974,43.76267],[11.26968,43.76269],[11.26963,43.76271],[11.26958,43.76273],[11.26954,43.76275],[11.2695,43.76276],[11.26944,43.76278],[11.2694,43.76279],[11.26931,43.76279],[11.26925,43.76278],[11.26922,43.76277],[11.26917,43.76274],[11.26914,43.76272],[11.26912,43.76269],[11.26909,43.76266],[11.26908,43.76261],[11.26908,43.76257],[11.26909,43.76252],[11.26909,43.76249],[11.26909,43.76244],[11.26909,43.76241],[11.26909,43.76238],[11.26909,43.76236],[11.26909,43.76231],[11.26908,43.76227],[11.26906,43.76222],[11.26905,43.76218],[11.26901,43.76209],[11.26898,43.76203],[11.26895,43.76198],[11.26892,43.76193],[11.26887,43.76186],[11.26886,43.76183],[11.26883,43.76179],[11.26881,43.76175],[11.26877,43.76169],[11.26873,43.76162],[11.2687,43.76157],[11.26867,43.76153],[11.26866,43.7615],[11.26865,43.76142],[11.26872,43.76132],[11.26879,43.76133],[11.26904,43.76134],[11.26919,43.76134],[11.26949,43.7613],[11.26962,43.76126],[11.26968,43.76123],[11.26975,43.7612],[11.26978,43.76118],[11.26982,43.76116],[11.26987,43.76113],[11.2699,43.76111],[11.26994,43.76109],[11.26997,43.76106],[11.27,43.76104],[11.27003,43.76101],[11.27007,43.76097],[11.27011,43.76093],[11.27016,43.76088],[11.27023,43.76078],[11.27025,43.76074],[11.27028,43.76058],[11.27028,43.76055],[11.27028,43.76046],[11.27027,43.76039],[11.27026,43.76035],[11.27024,43.7603],[11.27015,43.76004],[11.27011,43.75996],[11.27001,43.75983],[11.26987,43.75963],[11.26962,43.75932],[11.26923,43.75882],[11.26901,43.75854],[11.26893,43.75845],[11.26891,43.75842],[11.26888,43.75838],[11.2688,43.75842],[11.26874,43.75842],[11.26864,43.75835],[11.26856,43.75829],[11.26848,43.75821],[11.26846,43.75819],[11.26827,43.75801],[11.26823,43.75796],[11.26817,43.7579],[11.26808,43.7578],[11.26799,43.7577],[11.26791,43.75759],[11.26786,43.75748],[11.26785,43.75742],[11.26782,43.75727],[11.26781,43.75721],[11.26779,43.75714],[11.26776,43.75709],[11.26774,43.75712],[11.26773,43.75721],[11.26772,43.75729],[11.2677,43.75738],[11.26769,43.75741],[11.26767,43.75746],[11.26762,43.75754],[11.26757,43.75763],[11.26754,43.75766],[11.26744,43.75772],[11.26741,43.75774],[11.26725,43.75783],[11.26717,43.75788],[11.26713,43.7579],[11.26706,43.75795],[11.26701,43.758],[11.26698,43.75802],[11.2665,43.75819],[11.26622,43.75828],[11.26616,43.7583],[11.26613,43.7581],[11.26611,43.75807],[11.26585,43.75756],[11.26563,43.75738],[11.26521,43.7573],[11.26479,43.75732],[11.26434,43.75746],[11.26391,43.75764],[11.26326,43.75765],[11.26309,43.75761],[11.26263,43.75674],[11.26245,43.75638],[11.26245,43.7563],[11.26207,43.75639],[11.26206,43.75646],[11.26201,43.75641],[11.26198,43.75639],[11.26194,43.75637],[11.26189,43.75636],[11.26184,43.75636],[11.26176,43.75636],[11.26171,43.75636],[11.26164,43.75637],[11.26159,43.75639],[11.26151,43.75642],[11.26138,43.75645],[11.26129,43.75647],[11.26122,43.75635],[11.26105,43.75595],[11.25983,43.75616],[11.25984,43.75621],[11.25986,43.75624],[11.25989,43.75631],[11.25994,43.75643],[11.25999,43.75649],[11.26003,43.75679],[11.25998,43.75681],[11.25993,43.75683],[11.25989,43.75684],[11.25979,43.75688],[11.25974,43.7569],[11.25944,43.75699],[11.25894,43.75718],[11.25862,43.75729],[11.25858,43.75732],[11.25855,43.75734],[11.25854,43.75737],[11.25853,43.7574],[11.25852,43.75744],[11.25852,43.75747],[11.25853,43.7575],[11.25855,43.75753],[11.2586,43.75759],[11.25868,43.75764],[11.25881,43.75768],[11.25886,43.75768],[11.25892,43.75768],[11.25896,43.75768],[11.259,43.75767],[11.25903,43.75765],[11.25918,43.75756],[11.25923,43.75752],[11.25928,43.75748],[11.25934,43.75744],[11.25943,43.75739],[11.25948,43.75737],[11.25955,43.75736],[11.25962,43.75735],[11.25966,43.75735],[11.25972,43.75736],[11.25977,43.75738],[11.25985,43.75742],[11.25988,43.75745],[11.25991,43.75753],[11.25994,43.75764],[11.25989,43.75763],[11.25983,43.75763],[11.2596,43.75765],[11.25953,43.75767],[11.25947,43.75771],[11.25942,43.75773],[11.25938,43.75776],[11.25934,43.75778],[11.25931,43.75781],[11.25927,43.75783],[11.25923,43.75786],[11.25918,43.7579],[11.25913,43.75793],[11.25909,43.75796],[11.25905,43.75798],[11.25901,43.758],[11.25896,43.75802],[11.25889,43.75804],[11.25885,43.75805],[11.2588,43.75806],[11.25874,43.75807],[11.25868,43.75807],[11.25864,43.75807],[11.2586,43.75807],[11.25845,43.75808],[11.25834,43.75806],[11.25827,43.75802],[11.25824,43.75799],[11.25821,43.75796],[11.25817,43.75793],[11.25811,43.75788],[11.25808,43.75786],[11.25803,43.75782],[11.25799,43.75778],[11.2577,43.75752],[11.25766,43.7575],[11.25762,43.75746],[11.25759,43.75743],[11.25742,43.75728],[11.25733,43.75721],[11.25717,43.75706],[11.25625,43.75618],[11.25615,43.75611],[11.25606,43.756],[11.25601,43.75593],[11.25598,43.75587],[11.25594,43.7558],[11.2559,43.75573],[11.25586,43.75562],[11.25585,43.75557],[11.25583,43.75541],[11.25583,43.7553],[11.25585,43.75516],[11.25588,43.75509],[11.25591,43.75502],[11.256,43.75477],[11.25602,43.7547],[11.25603,43.75465],[11.25604,43.75458],[11.25603,43.75454],[11.25593,43.75443],[11.25588,43.75438],[11.25585,43.75435],[11.2558,43.75431],[11.25575,43.75428],[11.25567,43.75422],[11.25554,43.75415],[11.25548,43.75413],[11.25539,43.75412],[11.25528,43.75411],[11.25522,43.75411],[11.25511,43.75415],[11.25476,43.75424],[11.25461,43.75429],[11.25351,43.75458],[11.25258,43.7548],[11.25234,43.75483],[11.25223,43.75484],[11.25213,43.75484],[11.25206,43.75484],[11.25193,43.75484],[11.25181,43.75484],[11.25178,43.75472],[11.2518,43.75465],[11.25183,43.75456],[11.2519,43.75441],[11.25195,43.75431],[11.25197,43.75427],[11.252,43.75421],[11.25204,43.75415],[11.25208,43.75407],[11.25209,43.75403],[11.2521,43.754],[11.25209,43.75396],[11.25208,43.75392],[11.25206,43.75389],[11.25205,43.75385],[11.25204,43.75381],[11.25204,43.75378],[11.25204,43.75374],[11.25204,43.7537],[11.25207,43.7536],[11.25209,43.75357],[11.25214,43.75351],[11.25221,43.75344],[11.25224,43.75341],[11.25227,43.75338],[11.2523,43.75336],[11.25234,43.75333],[11.2523,43.75325],[11.25229,43.75322],[11.25227,43.75319],[11.25225,43.75316],[11.25222,43.75314],[11.25219,43.75313],[11.25215,43.75311],[11.25196,43.75301],[11.25171,43.75287],[11.25162,43.75281],[11.25146,43.75272],[11.25128,43.75263],[11.25118,43.75258],[11.25116,43.75256],[11.25112,43.75253],[11.25109,43.75249],[11.25107,43.75246],[11.25106,43.75243],[11.25104,43.75239],[11.25103,43.75234],[11.25102,43.7523],[11.25101,43.75227],[11.251,43.75224],[11.25099,43.75221],[11.25097,43.75218],[11.25094,43.75215],[11.2509,43.75213],[11.25085,43.7521],[11.25076,43.75205],[11.25068,43.752],[11.25063,43.75196],[11.25051,43.75188],[11.25045,43.75184],[11.25042,43.75182],[11.2504,43.75179],[11.25036,43.75175],[11.25032,43.7517],[11.25026,43.75157],[11.25025,43.75154],[11.25024,43.75132],[11.25024,43.75123],[11.25023,43.75113],[11.25022,43.7511],[11.25017,43.75106],[11.25009,43.75099],[11.24991,43.75084],[11.24972,43.75069],[11.2496,43.75059],[11.24953,43.75054],[11.24945,43.75046],[11.24916,43.7502],[11.24899,43.75007],[11.24874,43.74998],[11.24868,43.74996],[11.24855,43.74992],[11.24892,43.74926],[11.24907,43.74898],[11.24892,43.74858],[11.24888,43.74848],[11.24885,43.74839],[11.24653,43.74765],[11.24603,43.74803],[11.24598,43.74812],[11.24559,43.74882],[11.24653,43.74909],[11.24678,43.74916],[11.24668,43.74937],[11.24668,43.74942],[11.24667,43.74945],[11.24666,43.7495],[11.24664,43.74957],[11.24663,43.74965],[11.24664,43.74975],[11.24668,43.74984],[11.24674,43.74994],[11.2468,43.75001],[11.24692,43.7501],[11.24703,43.75016],[11.24716,43.7502],[11.24714,43.75024],[11.24594,43.75243],[11.24592,43.75246],[11.24588,43.75249],[11.24569,43.75295],[11.24563,43.7531],[11.24531,43.75304],[11.2448,43.75381],[11.24411,43.75484],[11.24387,43.7552],[11.243,43.75618],[11.24276,43.75648],[11.24241,43.75656],[11.24255,43.75679],[11.24245,43.75682],[11.24208,43.75693],[11.24211,43.75702],[11.24212,43.75709],[11.24189,43.75713],[11.2413,43.75731],[11.24132,43.75743],[11.24124,43.75744],[11.2411,43.75746],[11.24111,43.75753],[11.2412,43.7578],[11.2408,43.75786],[11.24082,43.7579],[11.24083,43.75794],[11.24058,43.758],[11.23896,43.75831],[11.23751,43.75839],[11.23746,43.7584],[11.23736,43.75832],[11.23724,43.75824],[11.23719,43.75821],[11.23716,43.75818],[11.23703,43.75813],[11.23691,43.75809],[11.23681,43.75805],[11.23675,43.75803],[11.23671,43.75801],[11.23664,43.75798],[11.23656,43.75797],[11.2365,43.75795],[11.23645,43.75793],[11.23635,43.75791],[11.2363,43.75789],[11.23624,43.75787],[11.23619,43.75786],[11.23614,43.75785],[11.23607,43.75785],[11.23601,43.75785],[11.23594,43.75786],[11.2359,43.75787],[11.23586,43.75788],[11.23579,43.7579],[11.23572,43.75791],[11.23566,43.75792],[11.2356,43.75793],[11.23552,43.75794],[11.23548,43.75795],[11.2354,43.75795],[11.23532,43.75795],[11.23525,43.75795],[11.23518,43.75794],[11.23513,43.75794],[11.23502,43.75818],[11.23461,43.75826],[11.2346,43.75823],[11.23435,43.75831],[11.23416,43.75849],[11.23426,43.7586],[11.23385,43.7589],[11.23379,43.75884],[11.23375,43.75881],[11.23366,43.75875],[11.23352,43.75863],[11.23347,43.75865],[11.23333,43.75865],[11.2327,43.75862],[11.23251,43.7586],[11.23243,43.75859],[11.23236,43.75858],[11.2323,43.75858],[11.23224,43.75858],[11.23216,43.75857],[11.2321,43.75856],[11.23201,43.75856],[11.232,43.75839],[11.232,43.75824],[11.23159,43.7582],[11.23039,43.75883],[11.23056,43.75922],[11.23066,43.75945],[11.2307,43.75955],[11.23098,43.76016],[11.23122,43.76073],[11.23066,43.76213],[11.23082,43.76262],[11.23084,43.76268],[11.23094,43.76299],[11.23089,43.76302],[11.23016,43.76337],[11.22992,43.76368],[11.22984,43.76371],[11.23045,43.76421],[11.23065,43.7641],[11.23134,43.76489],[11.23139,43.76495],[11.23183,43.76545],[11.23252,43.76611],[11.23281,43.7662],[11.23327,43.76622],[11.23364,43.76621],[11.23392,43.76614],[11.23485,43.76584],[11.23511,43.7658],[11.23596,43.76566],[11.2368,43.76535],[11.23742,43.76548],[11.23788,43.76571],[11.23831,43.76592],[11.23862,43.7661],[11.23875,43.76598],[11.2388,43.76604],[11.23896,43.76628],[11.23898,43.7663],[11.23895,43.76632],[11.2382,43.76697],[11.23818,43.76699],[11.23825,43.76703],[11.23901,43.76782],[11.23901,43.76792],[11.23901,43.76807],[11.2393,43.7686],[11.23933,43.76866],[11.23959,43.76933],[11.23964,43.76934],[11.2397,43.76935],[11.24011,43.77032],[11.23998,43.77037],[11.24004,43.77047],[11.24015,43.77075],[11.24025,43.77074],[11.24039,43.77105],[11.24046,43.77122],[11.24048,43.77128],[11.24071,43.77184],[11.24082,43.7718],[11.24094,43.77177],[11.24103,43.77174],[11.24108,43.77173],[11.24223,43.77133],[11.24233,43.77129],[11.24237,43.77134],[11.2427,43.77169],[11.24297,43.77197],[11.24242,43.77219],[11.241,43.77277],[11.23919,43.77345],[11.23816,43.77381],[11.2378,43.77394],[11.23716,43.77411],[11.23452,43.77483],[11.22942,43.77631],[11.22642,43.77717],[11.22511,43.77758],[11.2221,43.77862],[11.21824,43.77999],[11.21507,43.78128],[11.21453,43.78167],[11.2145,43.78169],[11.21221,43.78264],[11.21122,43.7832],[11.21072,43.78343],[11.21066,43.78346],[11.20939,43.78404],[11.20725,43.78501],[11.2051,43.78593],[11.19882,43.78895],[11.19805,43.78932],[11.19738,43.78959],[11.19716,43.78965],[11.19701,43.78971],[11.19634,43.78987],[11.19608,43.78994],[11.19631,43.79019],[11.19664,43.79064],[11.19669,43.79062],[11.19722,43.7905],[11.19746,43.79051],[11.19807,43.79081],[11.19853,43.79086],[11.19865,43.79087],[11.19879,43.79088],[11.1991,43.79089],[11.19921,43.79089],[11.19937,43.7909],[11.19952,43.79089],[11.19969,43.7909],[11.19975,43.7909],[11.19979,43.79091],[11.19985,43.7909],[11.1999,43.79091],[11.20001,43.7909],[11.20044,43.79089],[11.20057,43.79087],[11.20079,43.79087],[11.20091,43.79087],[11.20172,43.79086],[11.20183,43.79088],[11.20196,43.79088],[11.20207,43.79087]]]]}},{"type":"Feature","properties":{"nbhd_name":"Campo di Marte","uesi_id":"ITA_R42602","nbhd_code":"ITA_R42602_3"},"geometry":{"type":"MultiPolygon","coordinates":[[[[11.28752,43.83132],[11.28753,43.83125],[11.28763,43.8313],[11.28766,43.83132],[11.28814,43.83161],[11.28816,43.83163],[11.28828,43.83182],[11.28829,43.83185],[11.28832,43.83189],[11.28833,43.83193],[11.28838,43.83202],[11.28838,43.83244],[11.28843,43.83247],[11.28847,43.83249],[11.28873,43.83263],[11.28876,43.83265],[11.28916,43.83275],[11.2892,43.83277],[11.28975,43.83294],[11.29001,43.83271],[11.29019,43.83241],[11.29056,43.8319],[11.29129,43.83158],[11.29197,43.83149],[11.2924,43.8314],[11.29315,43.83092],[11.29398,43.83043],[11.29469,43.83009],[11.29561,43.82955],[11.29624,43.82933],[11.29663,43.82896],[11.29686,43.82846],[11.29732,43.82849],[11.29775,43.82842],[11.29777,43.82799],[11.29822,43.82745],[11.29877,43.8271],[11.29903,43.82655],[11.29897,43.82564],[11.29892,43.82506],[11.29891,43.82493],[11.29866,43.82456],[11.29864,43.82454],[11.29818,43.82401],[11.29816,43.82399],[11.29765,43.82362],[11.29762,43.8236],[11.29712,43.82337],[11.29709,43.82336],[11.29682,43.82323],[11.29679,43.82321],[11.29621,43.82282],[11.2962,43.82279],[11.2958,43.82237],[11.29577,43.82234],[11.29565,43.82165],[11.29537,43.82121],[11.29535,43.82118],[11.29485,43.82084],[11.29481,43.82083],[11.29418,43.82051],[11.29414,43.8205],[11.29372,43.82021],[11.29369,43.82019],[11.29346,43.81978],[11.29345,43.81975],[11.29326,43.81888],[11.29317,43.81818],[11.29289,43.81789],[11.29287,43.81786],[11.29259,43.81751],[11.29257,43.81748],[11.29222,43.81689],[11.2922,43.81687],[11.29176,43.81643],[11.29173,43.81641],[11.29129,43.81625],[11.29126,43.81623],[11.29053,43.8159],[11.2905,43.81588],[11.28983,43.81548],[11.2898,43.81546],[11.28925,43.81509],[11.28923,43.81506],[11.28904,43.81475],[11.28903,43.81471],[11.28886,43.81442],[11.28885,43.8144],[11.28857,43.81392],[11.28854,43.81389],[11.2879,43.81355],[11.28787,43.81354],[11.28711,43.81336],[11.28708,43.81335],[11.28635,43.81311],[11.28631,43.81309],[11.28564,43.81256],[11.28561,43.81253],[11.28552,43.81245],[11.28549,43.81242],[11.2849,43.81189],[11.28488,43.81186],[11.28436,43.81117],[11.28434,43.81115],[11.28378,43.81073],[11.28375,43.81071],[11.28333,43.81035],[11.2833,43.81033],[11.28327,43.8103],[11.2832,43.80969],[11.28313,43.80892],[11.28281,43.80846],[11.28279,43.80844],[11.28213,43.80834],[11.28139,43.80844],[11.28058,43.8084],[11.27992,43.80804],[11.27989,43.80803],[11.27971,43.80712],[11.2797,43.80677],[11.27968,43.8061],[11.27968,43.80583],[11.27967,43.8052],[11.27947,43.80481],[11.27945,43.80477],[11.27943,43.80473],[11.27935,43.80457],[11.27923,43.80435],[11.27922,43.80432],[11.27907,43.80401],[11.27906,43.80399],[11.27913,43.8037],[11.27914,43.80366],[11.27916,43.80361],[11.27921,43.80347],[11.27923,43.80341],[11.2793,43.80321],[11.27982,43.80291],[11.28004,43.80285],[11.28056,43.80271],[11.28131,43.80243],[11.2815,43.80237],[11.28207,43.80215],[11.28243,43.80202],[11.28282,43.80187],[11.28383,43.80155],[11.28417,43.80138],[11.28425,43.80134],[11.28432,43.8013],[11.28467,43.80113],[11.28474,43.8011],[11.28492,43.80101],[11.28513,43.80088],[11.28519,43.80085],[11.28528,43.80079],[11.28588,43.80043],[11.28607,43.80032],[11.28658,43.79982],[11.28676,43.79963],[11.28678,43.7996],[11.2869,43.79946],[11.28706,43.79925],[11.28779,43.79864],[11.28811,43.79841],[11.28814,43.79838],[11.28855,43.79808],[11.28921,43.79739],[11.29011,43.79664],[11.29104,43.79582],[11.29199,43.79502],[11.29276,43.79435],[11.29286,43.79427],[11.29289,43.79422],[11.29292,43.79418],[11.29347,43.79339],[11.29383,43.79237],[11.29415,43.79121],[11.29425,43.79095],[11.29444,43.79042],[11.29464,43.79005],[11.29493,43.78945],[11.29501,43.78924],[11.29515,43.78888],[11.2953,43.78835],[11.29532,43.78827],[11.29535,43.78819],[11.29537,43.78809],[11.29543,43.78786],[11.29558,43.78726],[11.29582,43.78674],[11.29587,43.78662],[11.29598,43.78637],[11.29601,43.78631],[11.29616,43.78588],[11.2963,43.78553],[11.29665,43.78461],[11.29696,43.78368],[11.297,43.78358],[11.29701,43.78355],[11.29702,43.78352],[11.29713,43.78323],[11.29726,43.78291],[11.29771,43.78251],[11.29777,43.78246],[11.29799,43.78233],[11.29873,43.78193],[11.29956,43.78135],[11.2996,43.78138],[11.30004,43.78162],[11.30014,43.78167],[11.30024,43.78172],[11.30027,43.78174],[11.30078,43.78197],[11.30134,43.78207],[11.3016,43.78211],[11.30164,43.78211],[11.30208,43.78217],[11.30217,43.78218],[11.30301,43.78226],[11.30408,43.78242],[11.30479,43.7825],[11.30507,43.78256],[11.30552,43.78268],[11.30558,43.78269],[11.30573,43.78274],[11.30609,43.78282],[11.30613,43.78284],[11.30662,43.78308],[11.3067,43.78311],[11.30675,43.78313],[11.30697,43.78323],[11.30701,43.78324],[11.30744,43.78343],[11.30748,43.78344],[11.30756,43.78347],[11.3077,43.78353],[11.30774,43.78354],[11.30815,43.78377],[11.30817,43.78379],[11.30848,43.78414],[11.3085,43.78416],[11.30868,43.78435],[11.30871,43.78438],[11.30885,43.78453],[11.30887,43.78455],[11.30913,43.78484],[11.30915,43.78487],[11.30939,43.78506],[11.30942,43.78508],[11.30962,43.78519],[11.30966,43.78521],[11.30977,43.78527],[11.3098,43.78529],[11.31011,43.78547],[11.31014,43.7855],[11.31042,43.78582],[11.31044,43.78584],[11.31075,43.78638],[11.31077,43.78641],[11.31099,43.78698],[11.31102,43.78705],[11.31141,43.788],[11.31153,43.78829],[11.31158,43.78842],[11.31176,43.78907],[11.31177,43.7891],[11.31194,43.78945],[11.31196,43.78948],[11.31243,43.79002],[11.31246,43.79004],[11.31279,43.79032],[11.31282,43.79034],[11.3129,43.79041],[11.31293,43.79044],[11.31319,43.79082],[11.31321,43.79085],[11.31366,43.79121],[11.31369,43.79123],[11.31428,43.79142],[11.31432,43.79143],[11.31512,43.79156],[11.3159,43.79148],[11.3167,43.79122],[11.31738,43.79121],[11.3179,43.79132],[11.31838,43.79132],[11.31896,43.79127],[11.3195,43.79129],[11.31948,43.79103],[11.31946,43.79058],[11.31971,43.7903],[11.31974,43.79032],[11.32036,43.79072],[11.32039,43.79075],[11.32101,43.79135],[11.32103,43.79137],[11.32157,43.79193],[11.32159,43.79195],[11.32248,43.79272],[11.32251,43.79275],[11.32283,43.79299],[11.32286,43.79301],[11.32348,43.79357],[11.3235,43.79359],[11.32381,43.79406],[11.32383,43.79409],[11.32397,43.7946],[11.32399,43.7947],[11.32406,43.79493],[11.32412,43.79513],[11.32434,43.79568],[11.32437,43.7957],[11.32465,43.79585],[11.32526,43.79591],[11.32608,43.79594],[11.32706,43.796],[11.32815,43.79562],[11.32862,43.79522],[11.32912,43.79478],[11.32973,43.79425],[11.32985,43.79414],[11.33002,43.7938],[11.33035,43.79312],[11.3313,43.79209],[11.33242,43.79113],[11.33284,43.79063],[11.3337,43.79058],[11.33378,43.79023],[11.33366,43.78933],[11.3338,43.78881],[11.33405,43.78862],[11.33411,43.78857],[11.33467,43.78815],[11.33496,43.78793],[11.33533,43.78765],[11.33629,43.78703],[11.33676,43.78681],[11.33699,43.7867],[11.33726,43.78658],[11.33813,43.78594],[11.33882,43.78549],[11.33887,43.78547],[11.33912,43.78535],[11.33884,43.785],[11.33882,43.78498],[11.33851,43.7846],[11.33849,43.78457],[11.33801,43.7841],[11.33799,43.78408],[11.33733,43.78352],[11.3373,43.7835],[11.33657,43.78323],[11.33653,43.78321],[11.33558,43.78292],[11.33554,43.7829],[11.33481,43.78233],[11.33479,43.78231],[11.33438,43.78179],[11.33435,43.78176],[11.33418,43.78119],[11.3341,43.78085],[11.3341,43.78081],[11.3341,43.78077],[11.33408,43.78066],[11.33409,43.78043],[11.3341,43.78032],[11.33411,43.78022],[11.33411,43.78007],[11.33415,43.78009],[11.33463,43.7803],[11.33581,43.78034],[11.33661,43.78014],[11.33679,43.77915],[11.33679,43.77912],[11.3368,43.77909],[11.33681,43.77904],[11.33674,43.77849],[11.33708,43.77806],[11.33758,43.77763],[11.33766,43.77728],[11.33804,43.77693],[11.33814,43.77658],[11.33773,43.77583],[11.33772,43.7758],[11.33734,43.77541],[11.33731,43.77539],[11.33686,43.77509],[11.33683,43.77507],[11.33604,43.775],[11.33492,43.77445],[11.33489,43.77443],[11.33435,43.7738],[11.33433,43.77377],[11.33402,43.77302],[11.334,43.77299],[11.33355,43.77241],[11.33353,43.77238],[11.33299,43.77194],[11.33297,43.77192],[11.3323,43.77129],[11.33227,43.77126],[11.33185,43.77074],[11.33183,43.77071],[11.33174,43.77046],[11.33171,43.77028],[11.3317,43.77014],[11.33166,43.76988],[11.33098,43.76951],[11.33094,43.7695],[11.33012,43.76915],[11.32956,43.76891],[11.32905,43.7687],[11.32887,43.76863],[11.32883,43.76861],[11.32826,43.76827],[11.32791,43.76808],[11.3272,43.7677],[11.32716,43.76768],[11.32713,43.76766],[11.32706,43.76762],[11.327,43.76758],[11.32689,43.7675],[11.32668,43.76736],[11.32665,43.76734],[11.32645,43.76725],[11.32633,43.76719],[11.3263,43.76717],[11.32586,43.76681],[11.32583,43.76679],[11.32545,43.76649],[11.32542,43.76647],[11.32501,43.76627],[11.32498,43.76625],[11.3245,43.76604],[11.32445,43.76601],[11.32442,43.76599],[11.32416,43.76577],[11.32413,43.76575],[11.32386,43.76558],[11.32377,43.76554],[11.32374,43.76552],[11.32358,43.76527],[11.32355,43.76523],[11.32346,43.76514],[11.32297,43.76465],[11.32294,43.76462],[11.32245,43.76431],[11.32235,43.76426],[11.32187,43.76406],[11.32167,43.76398],[11.32162,43.76396],[11.32128,43.76384],[11.32103,43.76375],[11.3207,43.7636],[11.3203,43.76343],[11.32021,43.76338],[11.31995,43.76328],[11.3198,43.76322],[11.31976,43.76321],[11.31961,43.76314],[11.31958,43.76313],[11.3187,43.76312],[11.31815,43.76318],[11.31725,43.76328],[11.31701,43.76322],[11.31697,43.76321],[11.31506,43.76275],[11.31478,43.76269],[11.3127,43.76255],[11.31246,43.76256],[11.31158,43.76262],[11.30997,43.76272],[11.30829,43.76294],[11.3063,43.7632],[11.30488,43.76347],[11.30379,43.76371],[11.30338,43.76379],[11.30134,43.76433],[11.29937,43.76492],[11.29856,43.76514],[11.29682,43.7656],[11.29524,43.76608],[11.29414,43.76635],[11.29326,43.76647],[11.29231,43.76651],[11.29147,43.76648],[11.29046,43.76632],[11.2878,43.76591],[11.28468,43.76546],[11.28267,43.76516],[11.28176,43.76508],[11.28159,43.76507],[11.27931,43.76491],[11.277,43.76473],[11.27387,43.76479],[11.272,43.76482],[11.27098,43.76486],[11.27099,43.7649],[11.27102,43.76504],[11.27103,43.76511],[11.27104,43.76516],[11.27116,43.76587],[11.27107,43.76598],[11.27096,43.76598],[11.2709,43.76598],[11.27074,43.76598],[11.27069,43.766],[11.27052,43.76813],[11.26969,43.76828],[11.26963,43.76829],[11.26982,43.76844],[11.26996,43.7685],[11.26968,43.76852],[11.26962,43.76858],[11.26964,43.76862],[11.26973,43.7688],[11.26991,43.76915],[11.26998,43.76924],[11.27011,43.76948],[11.27022,43.76967],[11.27025,43.76971],[11.27026,43.76973],[11.27044,43.77002],[11.27047,43.77009],[11.27063,43.77046],[11.27086,43.77045],[11.27104,43.77042],[11.27123,43.77038],[11.27134,43.77041],[11.27147,43.77048],[11.27156,43.77059],[11.27157,43.77068],[11.27157,43.77077],[11.27151,43.77087],[11.2714,43.77096],[11.27122,43.77102],[11.2711,43.77115],[11.27098,43.77127],[11.27104,43.77249],[11.27104,43.77257],[11.27105,43.77269],[11.27105,43.77281],[11.27107,43.77295],[11.2711,43.77307],[11.27111,43.7731],[11.27112,43.77313],[11.27113,43.77331],[11.27111,43.77344],[11.27108,43.77357],[11.27107,43.77371],[11.27105,43.77375],[11.27104,43.77379],[11.27099,43.77391],[11.27097,43.77395],[11.27101,43.77396],[11.27094,43.77416],[11.27078,43.77444],[11.27076,43.77447],[11.27067,43.77459],[11.27065,43.77461],[11.2706,43.77468],[11.27048,43.7748],[11.27036,43.77493],[11.27032,43.77497],[11.27019,43.7751],[11.27017,43.77513],[11.27004,43.77527],[11.26997,43.77534],[11.26991,43.7754],[11.26986,43.77546],[11.26934,43.77602],[11.26931,43.77605],[11.26929,43.77607],[11.26908,43.7763],[11.26896,43.77642],[11.26881,43.77657],[11.26889,43.77678],[11.26892,43.77695],[11.26913,43.77705],[11.26963,43.77731],[11.26811,43.77891],[11.26795,43.77862],[11.26777,43.77838],[11.26774,43.77825],[11.26742,43.77835],[11.26724,43.77837],[11.26718,43.77833],[11.26695,43.77858],[11.26661,43.77896],[11.26646,43.77912],[11.26626,43.77934],[11.26597,43.77965],[11.26556,43.78008],[11.26543,43.78025],[11.26537,43.78031],[11.26534,43.78034],[11.26531,43.78036],[11.26499,43.78069],[11.26449,43.78122],[11.26444,43.78127],[11.2644,43.78132],[11.26326,43.78254],[11.26321,43.78259],[11.26315,43.78265],[11.26245,43.78325],[11.26157,43.78352],[11.26094,43.7838],[11.2609,43.7842],[11.26132,43.78466],[11.26125,43.7849],[11.26104,43.78571],[11.26176,43.78589],[11.26208,43.78591],[11.2623,43.78594],[11.26232,43.78609],[11.26235,43.78631],[11.26235,43.78638],[11.26236,43.78646],[11.2625,43.78718],[11.26263,43.78798],[11.26263,43.78801],[11.26264,43.78816],[11.26335,43.78818],[11.26336,43.78834],[11.26337,43.78871],[11.26332,43.78945],[11.26312,43.78985],[11.26301,43.79017],[11.26284,43.79045],[11.26261,43.79069],[11.26252,43.79129],[11.26228,43.79207],[11.26219,43.7928],[11.26241,43.79331],[11.26308,43.79366],[11.26334,43.79403],[11.26321,43.79432],[11.26225,43.79452],[11.26302,43.79684],[11.26319,43.7974],[11.2634,43.79856],[11.26346,43.79864],[11.26367,43.79884],[11.26419,43.7992],[11.26439,43.79934],[11.26419,43.79963],[11.26425,43.79976],[11.26434,43.79995],[11.26428,43.80026],[11.26419,43.80078],[11.26418,43.80082],[11.26414,43.80103],[11.26331,43.80187],[11.26322,43.80185],[11.26295,43.8018],[11.26285,43.80177],[11.26252,43.80169],[11.2625,43.80171],[11.26249,43.80174],[11.26236,43.80183],[11.26241,43.80185],[11.26246,43.8019],[11.26245,43.80194],[11.26244,43.80201],[11.26238,43.80225],[11.26228,43.80244],[11.26239,43.80329],[11.2626,43.80459],[11.26265,43.80488],[11.26287,43.8063],[11.26307,43.80717],[11.2631,43.80735],[11.26313,43.80751],[11.26302,43.80811],[11.26153,43.80869],[11.26159,43.80873],[11.2617,43.80879],[11.26183,43.80883],[11.26191,43.80886],[11.26205,43.8089],[11.2626,43.80904],[11.26317,43.80917],[11.26356,43.80929],[11.26379,43.80934],[11.26418,43.81059],[11.26477,43.8125],[11.2653,43.81305],[11.26535,43.81305],[11.26535,43.81308],[11.26544,43.81324],[11.26557,43.81345],[11.26569,43.81365],[11.26572,43.81368],[11.2658,43.81375],[11.26607,43.81395],[11.26678,43.81455],[11.26716,43.81488],[11.26744,43.81505],[11.26802,43.81539],[11.26833,43.81566],[11.26933,43.81654],[11.26946,43.81664],[11.26934,43.81757],[11.26924,43.81828],[11.2692,43.81855],[11.26904,43.81975],[11.26907,43.81978],[11.26924,43.82],[11.26943,43.82029],[11.26952,43.82045],[11.26959,43.82056],[11.26988,43.82078],[11.27009,43.82108],[11.27012,43.82113],[11.27036,43.8214],[11.27052,43.82151],[11.27071,43.82163],[11.27084,43.82164],[11.27169,43.8221],[11.27218,43.82236],[11.27228,43.82252],[11.27235,43.82265],[11.27243,43.82267],[11.27256,43.82271],[11.27301,43.8226],[11.27307,43.82258],[11.27324,43.82254],[11.27344,43.82272],[11.27366,43.82293],[11.27399,43.82306],[11.2747,43.82357],[11.27486,43.82394],[11.2749,43.82401],[11.27492,43.82407],[11.27505,43.82421],[11.27518,43.82429],[11.27551,43.82448],[11.27605,43.82458],[11.27615,43.82462],[11.27634,43.82471],[11.2764,43.82474],[11.27684,43.82515],[11.27704,43.82545],[11.27715,43.82564],[11.2772,43.82566],[11.27727,43.82565],[11.27736,43.82565],[11.27741,43.82568],[11.27743,43.82572],[11.27746,43.82578],[11.27749,43.82585],[11.27752,43.82591],[11.27757,43.82601],[11.2776,43.82607],[11.27762,43.82614],[11.27763,43.8262],[11.27769,43.82627],[11.27769,43.82633],[11.2776,43.8266],[11.27756,43.8267],[11.27756,43.82673],[11.27753,43.8269],[11.27754,43.82693],[11.27723,43.82714],[11.27716,43.8276],[11.2771,43.82814],[11.27712,43.8286],[11.27708,43.82915],[11.27724,43.82967],[11.27712,43.83042],[11.27731,43.8308],[11.27747,43.83121],[11.27762,43.83182],[11.2781,43.83191],[11.27814,43.83193],[11.27864,43.83213],[11.27867,43.83215],[11.27904,43.83252],[11.27906,43.83254],[11.27938,43.83295],[11.2794,43.83298],[11.27992,43.83337],[11.27995,43.83339],[11.2807,43.83366],[11.28074,43.83367],[11.28165,43.83393],[11.28253,43.83405],[11.28256,43.83407],[11.28298,43.83422],[11.28301,43.83423],[11.28347,43.83436],[11.28361,43.8344],[11.28364,43.83441],[11.28374,43.83444],[11.28378,43.83445],[11.28457,43.83461],[11.28544,43.83486],[11.28547,43.83487],[11.28604,43.83507],[11.28714,43.83517],[11.28644,43.83465],[11.28642,43.83462],[11.28627,43.83432],[11.28625,43.83429],[11.2862,43.83368],[11.2867,43.83301],[11.28677,43.83295],[11.28717,43.83262],[11.28736,43.83231],[11.28747,43.83211],[11.28756,43.83166],[11.28752,43.83132]]]]}},{"type":"Feature","properties":{"nbhd_name":"Gavinana-Galluzzo","uesi_id":"ITA_R42602","nbhd_code":"ITA_R42602_4"},"geometry":{"type":"MultiPolygon","coordinates":[[[[11.30134,43.76433],[11.30338,43.76379],[11.30379,43.76371],[11.30488,43.76347],[11.3063,43.7632],[11.30829,43.76294],[11.30997,43.76272],[11.31158,43.76262],[11.31246,43.76256],[11.3127,43.76255],[11.31478,43.76269],[11.31506,43.76275],[11.31697,43.76321],[11.31701,43.76322],[11.31725,43.76328],[11.31815,43.76318],[11.3187,43.76312],[11.31958,43.76313],[11.31983,43.76285],[11.31989,43.76279],[11.31996,43.76272],[11.32003,43.76264],[11.32034,43.76233],[11.32064,43.76197],[11.32121,43.76167],[11.32119,43.76163],[11.32112,43.76151],[11.32101,43.76134],[11.32099,43.76131],[11.32097,43.76129],[11.32094,43.76127],[11.32061,43.76098],[11.32051,43.7609],[11.32049,43.76087],[11.31996,43.76045],[11.31994,43.76042],[11.31958,43.75983],[11.31957,43.7598],[11.31948,43.75966],[11.31929,43.75936],[11.31927,43.75933],[11.31885,43.75902],[11.31882,43.759],[11.31817,43.75882],[11.31813,43.7588],[11.31769,43.75889],[11.31748,43.75933],[11.31647,43.75947],[11.31605,43.75945],[11.31599,43.75945],[11.31554,43.75943],[11.31506,43.75955],[11.31488,43.75948],[11.31485,43.75946],[11.31465,43.75938],[11.31461,43.75936],[11.31432,43.75911],[11.31429,43.75909],[11.3138,43.75896],[11.31339,43.75898],[11.31327,43.75857],[11.31311,43.75804],[11.31309,43.75801],[11.31275,43.75819],[11.31245,43.7584],[11.3123,43.75851],[11.31176,43.75788],[11.31174,43.75785],[11.31166,43.75768],[11.31164,43.75764],[11.31131,43.757],[11.31129,43.75697],[11.31079,43.75664],[11.31076,43.75661],[11.3104,43.7567],[11.30992,43.75681],[11.30918,43.75704],[11.30878,43.75714],[11.3087,43.75716],[11.30816,43.75729],[11.30778,43.75729],[11.30774,43.75722],[11.30754,43.75673],[11.30694,43.75663],[11.3067,43.75601],[11.30656,43.75554],[11.30653,43.75541],[11.30653,43.75538],[11.3065,43.7553],[11.30649,43.75527],[11.30645,43.75506],[11.30643,43.75501],[11.3063,43.75436],[11.30628,43.75427],[11.30627,43.75424],[11.30626,43.75421],[11.30621,43.75402],[11.30619,43.75391],[11.30615,43.7536],[11.30608,43.75307],[11.30606,43.75286],[11.30605,43.75281],[11.30584,43.75169],[11.30584,43.75158],[11.30584,43.75154],[11.3058,43.75071],[11.30593,43.75052],[11.30595,43.75049],[11.30614,43.7502],[11.30631,43.74995],[11.30641,43.7498],[11.30644,43.74974],[11.30647,43.74952],[11.30648,43.74937],[11.3065,43.74918],[11.30651,43.7491],[11.30652,43.74899],[11.30654,43.74882],[11.30657,43.74863],[11.30662,43.74792],[11.30645,43.74753],[11.30635,43.74707],[11.3062,43.74662],[11.30623,43.74595],[11.30615,43.7456],[11.3055,43.74522],[11.30542,43.74482],[11.30551,43.74464],[11.30563,43.74441],[11.30531,43.7441],[11.30528,43.74408],[11.30493,43.74392],[11.3049,43.74391],[11.30444,43.74372],[11.30441,43.74371],[11.30386,43.74358],[11.30382,43.74356],[11.30408,43.74321],[11.30461,43.74241],[11.30485,43.74162],[11.30452,43.74149],[11.30448,43.74148],[11.30352,43.74124],[11.30307,43.74112],[11.30276,43.74077],[11.30273,43.74075],[11.30281,43.74025],[11.30295,43.73994],[11.30315,43.73973],[11.30327,43.7397],[11.30351,43.73965],[11.30358,43.73964],[11.30419,43.73958],[11.30493,43.7395],[11.30534,43.73946],[11.30536,43.7394],[11.30537,43.73938],[11.30537,43.73935],[11.30549,43.7389],[11.30545,43.73842],[11.30546,43.73831],[11.30538,43.7383],[11.30453,43.73835],[11.30375,43.7385],[11.30287,43.73852],[11.30238,43.73847],[11.30232,43.73847],[11.30186,43.73852],[11.30083,43.73864],[11.29959,43.73889],[11.2988,43.73905],[11.29801,43.73914],[11.29778,43.73917],[11.29768,43.73917],[11.29763,43.73918],[11.29679,43.73925],[11.29588,43.73951],[11.29525,43.73994],[11.2951,43.73999],[11.29433,43.74029],[11.29419,43.74026],[11.29399,43.74021],[11.29376,43.74017],[11.29373,43.74016],[11.29293,43.73984],[11.2929,43.73982],[11.29283,43.73981],[11.29201,43.7397],[11.29195,43.73969],[11.29091,43.73965],[11.28994,43.73976],[11.28929,43.74035],[11.28882,43.74078],[11.28783,43.74108],[11.28717,43.74139],[11.28712,43.74142],[11.28704,43.74146],[11.28609,43.74185],[11.28517,43.74212],[11.28428,43.74267],[11.28358,43.74299],[11.28335,43.74309],[11.28208,43.74341],[11.28185,43.74343],[11.28142,43.74346],[11.28091,43.74349],[11.28068,43.74346],[11.28062,43.74346],[11.28037,43.74343],[11.28001,43.74338],[11.27951,43.74331],[11.27944,43.74327],[11.27941,43.74324],[11.27877,43.7428],[11.27874,43.74278],[11.27813,43.74229],[11.2781,43.74227],[11.2776,43.74192],[11.27756,43.7419],[11.27707,43.74171],[11.27704,43.74169],[11.27638,43.74161],[11.27603,43.74164],[11.27574,43.74167],[11.27513,43.74174],[11.27465,43.74142],[11.27462,43.74139],[11.27401,43.74102],[11.27398,43.741],[11.27344,43.74088],[11.27289,43.74111],[11.27257,43.74135],[11.27241,43.74146],[11.27184,43.74188],[11.27126,43.74193],[11.27111,43.74188],[11.27104,43.74184],[11.271,43.74183],[11.27082,43.74175],[11.27079,43.74174],[11.27047,43.74163],[11.27044,43.74162],[11.26981,43.74142],[11.26977,43.74141],[11.26931,43.74128],[11.26867,43.74111],[11.26863,43.7411],[11.26805,43.74084],[11.26801,43.74082],[11.26766,43.74051],[11.26763,43.74049],[11.26728,43.74011],[11.26726,43.74008],[11.26706,43.73975],[11.26705,43.73972],[11.26684,43.73922],[11.26683,43.7392],[11.26645,43.73871],[11.26643,43.73868],[11.26592,43.73811],[11.2659,43.73808],[11.26523,43.73753],[11.26521,43.73751],[11.26458,43.73704],[11.26455,43.73702],[11.26375,43.73677],[11.26371,43.73676],[11.26287,43.73637],[11.26284,43.73635],[11.26205,43.73564],[11.26202,43.73562],[11.26148,43.73509],[11.26145,43.73507],[11.2611,43.73484],[11.26107,43.73482],[11.26051,43.73527],[11.25986,43.73537],[11.25901,43.73517],[11.25898,43.73516],[11.25881,43.73506],[11.25869,43.73501],[11.25865,43.73499],[11.25829,43.7348],[11.25826,43.73478],[11.25716,43.73462],[11.25673,43.73496],[11.25668,43.73501],[11.25665,43.735],[11.25639,43.7348],[11.25637,43.73478],[11.25633,43.73476],[11.25619,43.73471],[11.25616,43.7347],[11.25588,43.73458],[11.25584,43.73456],[11.25581,43.73455],[11.25538,43.73431],[11.25536,43.73429],[11.25497,43.73376],[11.25494,43.73357],[11.25493,43.73351],[11.25493,43.73347],[11.25461,43.73352],[11.25454,43.73354],[11.25395,43.73357],[11.25348,43.73337],[11.25345,43.73335],[11.25277,43.73275],[11.25275,43.73272],[11.25219,43.73217],[11.25216,43.73215],[11.25157,43.73191],[11.25153,43.7319],[11.25086,43.73158],[11.25082,43.73156],[11.25079,43.73154],[11.24999,43.73104],[11.24996,43.73102],[11.24932,43.73059],[11.24929,43.73057],[11.24895,43.73037],[11.24892,43.73036],[11.24888,43.73034],[11.24876,43.7303],[11.24844,43.73019],[11.24839,43.73018],[11.24836,43.73014],[11.24823,43.72988],[11.24821,43.72985],[11.24797,43.72923],[11.24795,43.72915],[11.24781,43.72857],[11.24765,43.72795],[11.24764,43.72789],[11.24761,43.72785],[11.24744,43.72754],[11.24742,43.72752],[11.24715,43.72728],[11.24698,43.72714],[11.24695,43.72711],[11.24633,43.72671],[11.2463,43.72669],[11.24586,43.7264],[11.24583,43.72638],[11.24569,43.72625],[11.24567,43.72623],[11.24564,43.7262],[11.24548,43.72606],[11.24546,43.72603],[11.24509,43.72598],[11.24454,43.72592],[11.24442,43.7259],[11.24421,43.72588],[11.24407,43.72585],[11.24392,43.7259],[11.24372,43.72597],[11.24365,43.726],[11.2436,43.72602],[11.24328,43.72616],[11.24313,43.72623],[11.24302,43.72625],[11.24254,43.72636],[11.24213,43.72638],[11.24139,43.72633],[11.24096,43.72654],[11.24083,43.72667],[11.24052,43.72697],[11.24026,43.72734],[11.23977,43.72762],[11.23958,43.72789],[11.23955,43.72793],[11.23952,43.72795],[11.2393,43.72811],[11.23857,43.72827],[11.23779,43.72834],[11.23748,43.72834],[11.23689,43.72836],[11.23596,43.72843],[11.23539,43.72888],[11.23524,43.72905],[11.23511,43.7292],[11.23459,43.72954],[11.23403,43.73008],[11.23389,43.73017],[11.23383,43.7302],[11.23368,43.73029],[11.23364,43.73032],[11.23341,43.73046],[11.23286,43.73042],[11.23275,43.73042],[11.23271,43.73041],[11.23265,43.73039],[11.23242,43.73034],[11.2318,43.73031],[11.23133,43.73025],[11.23115,43.73023],[11.23091,43.73019],[11.23058,43.73015],[11.23046,43.73014],[11.2298,43.73001],[11.2289,43.72995],[11.22848,43.73008],[11.22782,43.73038],[11.22704,43.7306],[11.22599,43.73069],[11.22461,43.73047],[11.22418,43.73039],[11.22415,43.73038],[11.22373,43.73029],[11.22369,43.73027],[11.22359,43.73018],[11.2235,43.7301],[11.22347,43.73007],[11.22343,43.72989],[11.22343,43.72986],[11.22338,43.72971],[11.22337,43.72966],[11.22344,43.72924],[11.22361,43.72869],[11.22366,43.72855],[11.22397,43.72792],[11.2242,43.72741],[11.22418,43.72738],[11.22383,43.72734],[11.22358,43.72731],[11.22349,43.7273],[11.22302,43.72724],[11.22271,43.72718],[11.22239,43.72712],[11.22183,43.72702],[11.22171,43.727],[11.22165,43.727],[11.22125,43.7271],[11.22076,43.72721],[11.22013,43.72727],[11.22004,43.72728],[11.22,43.72728],[11.2197,43.7273],[11.21863,43.72722],[11.21742,43.72694],[11.21635,43.72667],[11.21532,43.72649],[11.21437,43.72633],[11.21347,43.7263],[11.21266,43.72638],[11.21223,43.72655],[11.21188,43.72705],[11.21144,43.72764],[11.21105,43.72838],[11.21073,43.7291],[11.21051,43.72958],[11.21011,43.73026],[11.20993,43.73046],[11.20989,43.7305],[11.20971,43.73068],[11.2092,43.73106],[11.20852,43.73172],[11.20741,43.73205],[11.20736,43.73207],[11.20707,43.73177],[11.20704,43.73175],[11.20697,43.73172],[11.20671,43.7316],[11.20665,43.73157],[11.20658,43.73153],[11.20649,43.73149],[11.20646,43.73148],[11.20639,43.73202],[11.20633,43.73241],[11.20623,43.73305],[11.20618,43.73344],[11.20615,43.73392],[11.20626,43.73426],[11.20636,43.73458],[11.20632,43.73508],[11.20606,43.73547],[11.2055,43.73586],[11.20501,43.73633],[11.20484,43.7368],[11.20481,43.73688],[11.20474,43.73706],[11.20466,43.73725],[11.20436,43.73756],[11.20385,43.73787],[11.20382,43.73797],[11.20368,43.73848],[11.20366,43.73865],[11.20363,43.73896],[11.20369,43.73955],[11.20382,43.74021],[11.20372,43.74052],[11.20353,43.74093],[11.20355,43.74096],[11.20373,43.74116],[11.20375,43.74119],[11.20407,43.74148],[11.20417,43.74158],[11.2042,43.7416],[11.20449,43.74191],[11.20463,43.74205],[11.20517,43.74203],[11.20566,43.74211],[11.20569,43.74212],[11.20619,43.74233],[11.20654,43.74236],[11.20708,43.74241],[11.20717,43.742],[11.2078,43.74192],[11.20852,43.74185],[11.20895,43.74192],[11.20974,43.74207],[11.21045,43.74228],[11.21089,43.74238],[11.21131,43.74248],[11.21175,43.74246],[11.21179,43.74246],[11.21183,43.74247],[11.21246,43.7427],[11.21249,43.74271],[11.21309,43.74281],[11.21357,43.74269],[11.21375,43.74265],[11.2142,43.74256],[11.21417,43.74279],[11.21416,43.74285],[11.21414,43.74299],[11.21361,43.74311],[11.2135,43.74316],[11.21347,43.74318],[11.21342,43.74321],[11.21323,43.74329],[11.21276,43.74353],[11.21223,43.74381],[11.21163,43.7442],[11.21146,43.74427],[11.21112,43.74441],[11.21095,43.74448],[11.21075,43.74457],[11.20968,43.74494],[11.20883,43.74539],[11.20821,43.74588],[11.2079,43.74654],[11.20769,43.74713],[11.20751,43.7479],[11.20737,43.74839],[11.2073,43.74865],[11.20723,43.74888],[11.20716,43.74909],[11.20719,43.74911],[11.20743,43.7493],[11.20754,43.74939],[11.2077,43.74943],[11.20772,43.74939],[11.20775,43.74935],[11.20778,43.7493],[11.20782,43.74925],[11.20784,43.7492],[11.21167,43.75029],[11.21354,43.75023],[11.21467,43.75097],[11.21522,43.75189],[11.21848,43.75538],[11.21884,43.75576],[11.219,43.75605],[11.21918,43.75638],[11.21932,43.75697],[11.21933,43.75703],[11.21933,43.75711],[11.21971,43.75755],[11.21984,43.75767],[11.2204,43.75789],[11.22058,43.75824],[11.22157,43.75902],[11.22361,43.75963],[11.22491,43.76009],[11.22622,43.76063],[11.22762,43.76052],[11.22867,43.76033],[11.22942,43.76011],[11.2303,43.75975],[11.23042,43.75969],[11.2307,43.75955],[11.23066,43.75945],[11.23056,43.75922],[11.23039,43.75883],[11.23159,43.7582],[11.232,43.75824],[11.232,43.75839],[11.23201,43.75856],[11.2321,43.75856],[11.23216,43.75857],[11.23224,43.75858],[11.2323,43.75858],[11.23236,43.75858],[11.23243,43.75859],[11.23251,43.7586],[11.2327,43.75862],[11.23333,43.75865],[11.23347,43.75865],[11.23352,43.75863],[11.23366,43.75875],[11.23375,43.75881],[11.23379,43.75884],[11.23385,43.7589],[11.23426,43.7586],[11.23416,43.75849],[11.23435,43.75831],[11.2346,43.75823],[11.23461,43.75826],[11.23502,43.75818],[11.23513,43.75794],[11.23518,43.75794],[11.23525,43.75795],[11.23532,43.75795],[11.2354,43.75795],[11.23548,43.75795],[11.23552,43.75794],[11.2356,43.75793],[11.23566,43.75792],[11.23572,43.75791],[11.23579,43.7579],[11.23586,43.75788],[11.2359,43.75787],[11.23594,43.75786],[11.23601,43.75785],[11.23607,43.75785],[11.23614,43.75785],[11.23619,43.75786],[11.23624,43.75787],[11.2363,43.75789],[11.23635,43.75791],[11.23645,43.75793],[11.2365,43.75795],[11.23656,43.75797],[11.23664,43.75798],[11.23671,43.75801],[11.23675,43.75803],[11.23681,43.75805],[11.23691,43.75809],[11.23703,43.75813],[11.23716,43.75818],[11.23719,43.75821],[11.23724,43.75824],[11.23736,43.75832],[11.23746,43.7584],[11.23751,43.75839],[11.23896,43.75831],[11.24058,43.758],[11.24083,43.75794],[11.24082,43.7579],[11.2408,43.75786],[11.2412,43.7578],[11.24111,43.75753],[11.2411,43.75746],[11.24124,43.75744],[11.24132,43.75743],[11.2413,43.75731],[11.24189,43.75713],[11.24212,43.75709],[11.24211,43.75702],[11.24208,43.75693],[11.24245,43.75682],[11.24255,43.75679],[11.24241,43.75656],[11.24276,43.75648],[11.243,43.75618],[11.24387,43.7552],[11.24411,43.75484],[11.2448,43.75381],[11.24531,43.75304],[11.24563,43.7531],[11.24569,43.75295],[11.24588,43.75249],[11.24592,43.75246],[11.24594,43.75243],[11.24714,43.75024],[11.24716,43.7502],[11.24703,43.75016],[11.24692,43.7501],[11.2468,43.75001],[11.24674,43.74994],[11.24668,43.74984],[11.24664,43.74975],[11.24663,43.74965],[11.24664,43.74957],[11.24666,43.7495],[11.24667,43.74945],[11.24668,43.74942],[11.24668,43.74937],[11.24678,43.74916],[11.24653,43.74909],[11.24559,43.74882],[11.24598,43.74812],[11.24603,43.74803],[11.24653,43.74765],[11.24885,43.74839],[11.24888,43.74848],[11.24892,43.74858],[11.24907,43.74898],[11.24892,43.74926],[11.24855,43.74992],[11.24868,43.74996],[11.24874,43.74998],[11.24899,43.75007],[11.24916,43.7502],[11.24945,43.75046],[11.24953,43.75054],[11.2496,43.75059],[11.24972,43.75069],[11.24991,43.75084],[11.25009,43.75099],[11.25017,43.75106],[11.25022,43.7511],[11.25023,43.75113],[11.25024,43.75123],[11.25024,43.75132],[11.25025,43.75154],[11.25026,43.75157],[11.25032,43.7517],[11.25036,43.75175],[11.2504,43.75179],[11.25042,43.75182],[11.25045,43.75184],[11.25051,43.75188],[11.25063,43.75196],[11.25068,43.752],[11.25076,43.75205],[11.25085,43.7521],[11.2509,43.75213],[11.25094,43.75215],[11.25097,43.75218],[11.25099,43.75221],[11.251,43.75224],[11.25101,43.75227],[11.25102,43.7523],[11.25103,43.75234],[11.25104,43.75239],[11.25106,43.75243],[11.25107,43.75246],[11.25109,43.75249],[11.25112,43.75253],[11.25116,43.75256],[11.25118,43.75258],[11.25128,43.75263],[11.25146,43.75272],[11.25162,43.75281],[11.25171,43.75287],[11.25196,43.75301],[11.25215,43.75311],[11.25219,43.75313],[11.25222,43.75314],[11.25225,43.75316],[11.25227,43.75319],[11.25229,43.75322],[11.2523,43.75325],[11.25234,43.75333],[11.2523,43.75336],[11.25227,43.75338],[11.25224,43.75341],[11.25221,43.75344],[11.25214,43.75351],[11.25209,43.75357],[11.25207,43.7536],[11.25204,43.7537],[11.25204,43.75374],[11.25204,43.75378],[11.25204,43.75381],[11.25205,43.75385],[11.25206,43.75389],[11.25208,43.75392],[11.25209,43.75396],[11.2521,43.754],[11.25209,43.75403],[11.25208,43.75407],[11.25204,43.75415],[11.252,43.75421],[11.25197,43.75427],[11.25195,43.75431],[11.2519,43.75441],[11.25183,43.75456],[11.2518,43.75465],[11.25178,43.75472],[11.25181,43.75484],[11.25193,43.75484],[11.25206,43.75484],[11.25213,43.75484],[11.25223,43.75484],[11.25234,43.75483],[11.25258,43.7548],[11.25351,43.75458],[11.25461,43.75429],[11.25476,43.75424],[11.25511,43.75415],[11.25522,43.75411],[11.25528,43.75411],[11.25539,43.75412],[11.25548,43.75413],[11.25554,43.75415],[11.25567,43.75422],[11.25575,43.75428],[11.2558,43.75431],[11.25585,43.75435],[11.25588,43.75438],[11.25593,43.75443],[11.25603,43.75454],[11.25604,43.75458],[11.25603,43.75465],[11.25602,43.7547],[11.256,43.75477],[11.25591,43.75502],[11.25588,43.75509],[11.25585,43.75516],[11.25583,43.7553],[11.25583,43.75541],[11.25585,43.75557],[11.25586,43.75562],[11.2559,43.75573],[11.25594,43.7558],[11.25598,43.75587],[11.25601,43.75593],[11.25606,43.756],[11.25615,43.75611],[11.25625,43.75618],[11.25717,43.75706],[11.25733,43.75721],[11.25742,43.75728],[11.25759,43.75743],[11.25762,43.75746],[11.25766,43.7575],[11.2577,43.75752],[11.25799,43.75778],[11.25803,43.75782],[11.25808,43.75786],[11.25811,43.75788],[11.25817,43.75793],[11.25821,43.75796],[11.25824,43.75799],[11.25827,43.75802],[11.25834,43.75806],[11.25845,43.75808],[11.2586,43.75807],[11.25864,43.75807],[11.25868,43.75807],[11.25874,43.75807],[11.2588,43.75806],[11.25885,43.75805],[11.25889,43.75804],[11.25896,43.75802],[11.25901,43.758],[11.25905,43.75798],[11.25909,43.75796],[11.25913,43.75793],[11.25918,43.7579],[11.25923,43.75786],[11.25927,43.75783],[11.25931,43.75781],[11.25934,43.75778],[11.25938,43.75776],[11.25942,43.75773],[11.25947,43.75771],[11.25953,43.75767],[11.2596,43.75765],[11.25983,43.75763],[11.25989,43.75763],[11.25994,43.75764],[11.25991,43.75753],[11.25988,43.75745],[11.25985,43.75742],[11.25977,43.75738],[11.25972,43.75736],[11.25966,43.75735],[11.25962,43.75735],[11.25955,43.75736],[11.25948,43.75737],[11.25943,43.75739],[11.25934,43.75744],[11.25928,43.75748],[11.25923,43.75752],[11.25918,43.75756],[11.25903,43.75765],[11.259,43.75767],[11.25896,43.75768],[11.25892,43.75768],[11.25886,43.75768],[11.25881,43.75768],[11.25868,43.75764],[11.2586,43.75759],[11.25855,43.75753],[11.25853,43.7575],[11.25852,43.75747],[11.25852,43.75744],[11.25853,43.7574],[11.25854,43.75737],[11.25855,43.75734],[11.25858,43.75732],[11.25862,43.75729],[11.25894,43.75718],[11.25944,43.75699],[11.25974,43.7569],[11.25979,43.75688],[11.25989,43.75684],[11.25993,43.75683],[11.25998,43.75681],[11.26003,43.75679],[11.25999,43.75649],[11.25994,43.75643],[11.25989,43.75631],[11.25986,43.75624],[11.25984,43.75621],[11.25983,43.75616],[11.26105,43.75595],[11.26122,43.75635],[11.26129,43.75647],[11.26138,43.75645],[11.26151,43.75642],[11.26159,43.75639],[11.26164,43.75637],[11.26171,43.75636],[11.26176,43.75636],[11.26184,43.75636],[11.26189,43.75636],[11.26194,43.75637],[11.26198,43.75639],[11.26201,43.75641],[11.26206,43.75646],[11.26207,43.75639],[11.26245,43.7563],[11.26245,43.75638],[11.26263,43.75674],[11.26309,43.75761],[11.26326,43.75765],[11.26391,43.75764],[11.26434,43.75746],[11.26479,43.75732],[11.26521,43.7573],[11.26563,43.75738],[11.26585,43.75756],[11.26611,43.75807],[11.26613,43.7581],[11.26616,43.7583],[11.26622,43.75828],[11.2665,43.75819],[11.26698,43.75802],[11.26701,43.758],[11.26706,43.75795],[11.26713,43.7579],[11.26717,43.75788],[11.26725,43.75783],[11.26741,43.75774],[11.26744,43.75772],[11.26754,43.75766],[11.26757,43.75763],[11.26762,43.75754],[11.26767,43.75746],[11.26769,43.75741],[11.2677,43.75738],[11.26772,43.75729],[11.26773,43.75721],[11.26774,43.75712],[11.26776,43.75709],[11.26779,43.75714],[11.26781,43.75721],[11.26782,43.75727],[11.26785,43.75742],[11.26786,43.75748],[11.26791,43.75759],[11.26799,43.7577],[11.26808,43.7578],[11.26817,43.7579],[11.26823,43.75796],[11.26827,43.75801],[11.26846,43.75819],[11.26848,43.75821],[11.26856,43.75829],[11.26864,43.75835],[11.26874,43.75842],[11.2688,43.75842],[11.26888,43.75838],[11.26891,43.75842],[11.26893,43.75845],[11.26901,43.75854],[11.26923,43.75882],[11.26962,43.75932],[11.26987,43.75963],[11.27001,43.75983],[11.27011,43.75996],[11.27015,43.76004],[11.27024,43.7603],[11.27026,43.76035],[11.27027,43.76039],[11.27028,43.76046],[11.27028,43.76055],[11.27028,43.76058],[11.27025,43.76074],[11.27023,43.76078],[11.27016,43.76088],[11.27011,43.76093],[11.27007,43.76097],[11.27003,43.76101],[11.27,43.76104],[11.26997,43.76106],[11.26994,43.76109],[11.2699,43.76111],[11.26987,43.76113],[11.26982,43.76116],[11.26978,43.76118],[11.26975,43.7612],[11.26968,43.76123],[11.26962,43.76126],[11.26949,43.7613],[11.26919,43.76134],[11.26904,43.76134],[11.26879,43.76133],[11.26872,43.76132],[11.26865,43.76142],[11.26866,43.7615],[11.26867,43.76153],[11.2687,43.76157],[11.26873,43.76162],[11.26877,43.76169],[11.26881,43.76175],[11.26883,43.76179],[11.26886,43.76183],[11.26887,43.76186],[11.26892,43.76193],[11.26895,43.76198],[11.26898,43.76203],[11.26901,43.76209],[11.26905,43.76218],[11.26906,43.76222],[11.26908,43.76227],[11.26909,43.76231],[11.26909,43.76236],[11.26909,43.76238],[11.26909,43.76241],[11.26909,43.76244],[11.26909,43.76249],[11.26909,43.76252],[11.26908,43.76257],[11.26908,43.76261],[11.26909,43.76266],[11.26912,43.76269],[11.26914,43.76272],[11.26917,43.76274],[11.26922,43.76277],[11.26925,43.76278],[11.26931,43.76279],[11.2694,43.76279],[11.26944,43.76278],[11.2695,43.76276],[11.26954,43.76275],[11.26958,43.76273],[11.26963,43.76271],[11.26968,43.76269],[11.26974,43.76267],[11.26986,43.76263],[11.26998,43.76259],[11.27006,43.76257],[11.27013,43.76256],[11.27018,43.76255],[11.27023,43.76255],[11.2703,43.76254],[11.27039,43.76254],[11.27047,43.76254],[11.27059,43.76254],[11.27067,43.76254],[11.27078,43.76254],[11.27087,43.76254],[11.27099,43.76254],[11.27111,43.76253],[11.27117,43.76254],[11.27122,43.76253],[11.27129,43.76253],[11.27137,43.76248],[11.27154,43.76235],[11.2717,43.76226],[11.27183,43.76221],[11.27195,43.76218],[11.27211,43.76215],[11.27221,43.76217],[11.27212,43.76222],[11.27199,43.76227],[11.2719,43.76243],[11.27186,43.76249],[11.27185,43.76252],[11.2718,43.7626],[11.27173,43.76268],[11.27167,43.76273],[11.27152,43.76283],[11.27145,43.76287],[11.2713,43.76295],[11.27125,43.76298],[11.27121,43.763],[11.27111,43.76305],[11.27105,43.76308],[11.2709,43.76316],[11.27085,43.76318],[11.2708,43.76321],[11.27071,43.76326],[11.27063,43.7633],[11.27091,43.76356],[11.2705,43.76373],[11.27064,43.76406],[11.27071,43.7641],[11.27085,43.76427],[11.27094,43.76467],[11.27097,43.7648],[11.27098,43.76486],[11.272,43.76482],[11.27387,43.76479],[11.277,43.76473],[11.27931,43.76491],[11.28159,43.76507],[11.28176,43.76508],[11.28267,43.76516],[11.28468,43.76546],[11.2878,43.76591],[11.29046,43.76632],[11.29147,43.76648],[11.29231,43.76651],[11.29326,43.76647],[11.29414,43.76635],[11.29524,43.76608],[11.29682,43.7656],[11.29856,43.76514],[11.29937,43.76492],[11.30134,43.76433]]]]}},{"type":"Feature","properties":{"nbhd_name":"Isolotto- Legnaia","uesi_id":"ITA_R42602","nbhd_code":"ITA_R42602_5"},"geometry":{"type":"MultiPolygon","coordinates":[[[[11.24297,43.77197],[11.2427,43.77169],[11.24237,43.77134],[11.24233,43.77129],[11.24223,43.77133],[11.24108,43.77173],[11.24103,43.77174],[11.24094,43.77177],[11.24082,43.7718],[11.24071,43.77184],[11.24048,43.77128],[11.24046,43.77122],[11.24039,43.77105],[11.24025,43.77074],[11.24015,43.77075],[11.24004,43.77047],[11.23998,43.77037],[11.24011,43.77032],[11.2397,43.76935],[11.23964,43.76934],[11.23959,43.76933],[11.23933,43.76866],[11.2393,43.7686],[11.23901,43.76807],[11.23901,43.76792],[11.23901,43.76782],[11.23825,43.76703],[11.23818,43.76699],[11.2382,43.76697],[11.23895,43.76632],[11.23898,43.7663],[11.23896,43.76628],[11.2388,43.76604],[11.23875,43.76598],[11.23862,43.7661],[11.23831,43.76592],[11.23788,43.76571],[11.23742,43.76548],[11.2368,43.76535],[11.23596,43.76566],[11.23511,43.7658],[11.23485,43.76584],[11.23392,43.76614],[11.23364,43.76621],[11.23327,43.76622],[11.23281,43.7662],[11.23252,43.76611],[11.23183,43.76545],[11.23139,43.76495],[11.23134,43.76489],[11.23065,43.7641],[11.23045,43.76421],[11.22984,43.76371],[11.22992,43.76368],[11.23016,43.76337],[11.23089,43.76302],[11.23094,43.76299],[11.23084,43.76268],[11.23082,43.76262],[11.23066,43.76213],[11.23122,43.76073],[11.23098,43.76016],[11.2307,43.75955],[11.23042,43.75969],[11.2303,43.75975],[11.22942,43.76011],[11.22867,43.76033],[11.22762,43.76052],[11.22622,43.76063],[11.22491,43.76009],[11.22361,43.75963],[11.22157,43.75902],[11.22058,43.75824],[11.2204,43.75789],[11.21984,43.75767],[11.21971,43.75755],[11.21933,43.75711],[11.21933,43.75703],[11.21932,43.75697],[11.21918,43.75638],[11.219,43.75605],[11.21884,43.75576],[11.21848,43.75538],[11.21522,43.75189],[11.21467,43.75097],[11.21354,43.75023],[11.21167,43.75029],[11.20784,43.7492],[11.20782,43.74925],[11.20778,43.7493],[11.20775,43.74935],[11.20772,43.74939],[11.2077,43.74943],[11.20754,43.74939],[11.2074,43.74961],[11.20718,43.74996],[11.20687,43.75042],[11.20674,43.75074],[11.20657,43.75103],[11.20653,43.75107],[11.20621,43.75142],[11.20602,43.75158],[11.20597,43.75164],[11.20538,43.75192],[11.20455,43.75207],[11.20352,43.75227],[11.20331,43.75236],[11.20296,43.75251],[11.20276,43.75276],[11.20265,43.75289],[11.20243,43.75291],[11.20181,43.75299],[11.20136,43.7533],[11.20111,43.75355],[11.20103,43.75363],[11.20093,43.75399],[11.20087,43.75416],[11.20076,43.75445],[11.20066,43.75473],[11.20038,43.75544],[11.20031,43.75552],[11.20003,43.7559],[11.19991,43.75606],[11.19942,43.75641],[11.19936,43.75646],[11.19924,43.75657],[11.1992,43.7566],[11.199,43.75667],[11.19886,43.75675],[11.19872,43.75685],[11.19859,43.75698],[11.1989,43.75714],[11.19904,43.75723],[11.19943,43.75738],[11.19962,43.75746],[11.19992,43.7576],[11.19996,43.75761],[11.20033,43.75788],[11.20063,43.75809],[11.20067,43.75811],[11.20072,43.75813],[11.20076,43.75816],[11.20122,43.7584],[11.2013,43.75844],[11.20134,43.75846],[11.20146,43.75851],[11.20205,43.75876],[11.20211,43.75878],[11.20215,43.7588],[11.20243,43.75892],[11.20247,43.75893],[11.20264,43.75902],[11.20267,43.75903],[11.20285,43.75913],[11.20289,43.75915],[11.20254,43.75924],[11.20219,43.75933],[11.20126,43.75962],[11.2009,43.75973],[11.20054,43.75985],[11.2005,43.75986],[11.20021,43.75995],[11.19975,43.76012],[11.19974,43.76016],[11.20001,43.76053],[11.20003,43.76059],[11.19997,43.7607],[11.19998,43.76076],[11.20017,43.76095],[11.20015,43.761],[11.19966,43.76121],[11.19913,43.76144],[11.19909,43.76146],[11.19905,43.76149],[11.19898,43.76153],[11.19881,43.76162],[11.19867,43.76168],[11.19824,43.76191],[11.19785,43.76207],[11.19772,43.76213],[11.19749,43.76225],[11.19734,43.76233],[11.19719,43.76241],[11.19695,43.76254],[11.19671,43.76265],[11.19609,43.76292],[11.19592,43.763],[11.19582,43.76308],[11.19563,43.76339],[11.19559,43.76344],[11.19551,43.76354],[11.19535,43.76366],[11.19505,43.76381],[11.19497,43.76387],[11.1949,43.76393],[11.19476,43.76403],[11.19456,43.76414],[11.19412,43.7643],[11.1937,43.76446],[11.19366,43.76447],[11.19363,43.76448],[11.19342,43.76457],[11.19327,43.76465],[11.19313,43.76475],[11.19308,43.76478],[11.19304,43.76481],[11.19298,43.76485],[11.1929,43.76483],[11.19258,43.76449],[11.19225,43.76429],[11.19211,43.76445],[11.19205,43.76453],[11.19172,43.76506],[11.19117,43.76588],[11.19082,43.7666],[11.19079,43.76668],[11.1906,43.76724],[11.19,43.76731],[11.18993,43.76732],[11.1898,43.7673],[11.18976,43.76729],[11.1896,43.76727],[11.18921,43.76718],[11.18911,43.76717],[11.18898,43.76715],[11.18874,43.76706],[11.1886,43.76702],[11.18857,43.76701],[11.18837,43.76694],[11.18833,43.76692],[11.18793,43.76679],[11.18774,43.76672],[11.1877,43.76671],[11.18714,43.76652],[11.1871,43.7665],[11.18704,43.76648],[11.18657,43.76631],[11.18653,43.7663],[11.18641,43.76625],[11.18637,43.76623],[11.18632,43.76621],[11.1861,43.76609],[11.18561,43.76589],[11.18533,43.7658],[11.1849,43.76566],[11.18432,43.76542],[11.18364,43.76517],[11.18358,43.76515],[11.18304,43.76494],[11.18267,43.76486],[11.1825,43.7648],[11.18217,43.76467],[11.18214,43.76465],[11.18099,43.76452],[11.18083,43.76452],[11.18071,43.76451],[11.18023,43.7645],[11.18018,43.7645],[11.1799,43.7645],[11.17978,43.76459],[11.17942,43.76486],[11.17916,43.7651],[11.17911,43.76513],[11.17896,43.76523],[11.17861,43.76546],[11.17833,43.76563],[11.1778,43.76603],[11.17766,43.7661],[11.1776,43.76613],[11.17746,43.7662],[11.17713,43.76636],[11.17646,43.76673],[11.17638,43.76677],[11.17575,43.76711],[11.17561,43.76705],[11.17558,43.76703],[11.17546,43.76697],[11.17543,43.76695],[11.17498,43.76659],[11.17495,43.76656],[11.17446,43.76664],[11.1739,43.76666],[11.17383,43.76666],[11.17368,43.76667],[11.17316,43.76681],[11.17299,43.76686],[11.17258,43.767],[11.17249,43.76703],[11.17229,43.76709],[11.17172,43.76732],[11.17153,43.76739],[11.17086,43.76774],[11.17025,43.76828],[11.16948,43.76887],[11.16903,43.76914],[11.16889,43.76923],[11.16813,43.76933],[11.16759,43.7694],[11.16723,43.76945],[11.16714,43.76946],[11.16677,43.76951],[11.16638,43.76958],[11.1662,43.76961],[11.16565,43.76972],[11.1656,43.76973],[11.16547,43.76976],[11.16489,43.76992],[11.16478,43.76995],[11.16462,43.77],[11.16434,43.77009],[11.16428,43.77011],[11.16403,43.77019],[11.16343,43.77035],[11.16326,43.7704],[11.16305,43.77049],[11.16264,43.77067],[11.16254,43.77073],[11.16247,43.77076],[11.16232,43.77085],[11.16227,43.77088],[11.16198,43.77104],[11.16185,43.77111],[11.16139,43.77136],[11.16119,43.77147],[11.16052,43.77191],[11.16033,43.77215],[11.16025,43.77225],[11.15992,43.77253],[11.15975,43.77257],[11.15967,43.77258],[11.15926,43.77267],[11.15911,43.77275],[11.15882,43.7729],[11.15872,43.77295],[11.15817,43.77325],[11.1576,43.77351],[11.15751,43.77356],[11.15673,43.77387],[11.1564,43.77405],[11.15634,43.77408],[11.15617,43.77418],[11.15591,43.77426],[11.15571,43.77432],[11.15555,43.77436],[11.15512,43.77449],[11.15433,43.77471],[11.1542,43.77479],[11.15359,43.77519],[11.15294,43.7757],[11.15266,43.77588],[11.1524,43.77607],[11.15214,43.77656],[11.15211,43.77664],[11.1521,43.77673],[11.1521,43.77684],[11.1521,43.77709],[11.15212,43.77711],[11.15245,43.77757],[11.15247,43.77759],[11.15278,43.77795],[11.15296,43.77807],[11.15328,43.77828],[11.15332,43.7783],[11.15382,43.77842],[11.15385,43.77844],[11.15449,43.77888],[11.15448,43.77894],[11.15445,43.77929],[11.15411,43.77962],[11.15354,43.78016],[11.15341,43.78042],[11.15338,43.78047],[11.15335,43.78054],[11.1533,43.78062],[11.15315,43.78072],[11.15304,43.78079],[11.15265,43.78104],[11.15177,43.78134],[11.15173,43.78136],[11.15174,43.78139],[11.15188,43.78171],[11.1519,43.78174],[11.15234,43.78241],[11.15236,43.78244],[11.15245,43.78254],[11.15254,43.78265],[11.15256,43.78267],[11.1528,43.78296],[11.15281,43.78299],[11.15328,43.7837],[11.1533,43.78373],[11.15336,43.78379],[11.15338,43.78382],[11.1536,43.78409],[11.15374,43.78426],[11.15376,43.78429],[11.15416,43.78495],[11.15417,43.78498],[11.15429,43.78536],[11.15424,43.78547],[11.15405,43.78584],[11.15383,43.78593],[11.15373,43.78598],[11.15368,43.786],[11.15366,43.78602],[11.15324,43.78603],[11.15305,43.78604],[11.15274,43.78606],[11.15186,43.7861],[11.1515,43.78612],[11.15234,43.78621],[11.15266,43.78625],[11.15315,43.7863],[11.15399,43.7864],[11.15426,43.78643],[11.1559,43.78642],[11.15609,43.78644],[11.15747,43.78664],[11.15868,43.7868],[11.15867,43.78683],[11.15875,43.78683],[11.15886,43.78683],[11.1589,43.78684],[11.16277,43.78745],[11.16308,43.78751],[11.16419,43.78775],[11.16462,43.78784],[11.16581,43.78807],[11.16639,43.78822],[11.1673,43.78833],[11.16838,43.78847],[11.17057,43.78867],[11.17213,43.78882],[11.17464,43.78905],[11.17715,43.78923],[11.17844,43.78929],[11.17949,43.78934],[11.18056,43.78944],[11.1822,43.78967],[11.18434,43.78982],[11.18555,43.78991],[11.18566,43.78992],[11.18681,43.79005],[11.18873,43.79023],[11.18988,43.79031],[11.1907,43.79036],[11.19155,43.79036],[11.19303,43.79036],[11.19438,43.79026],[11.19525,43.79013],[11.196,43.78995],[11.19608,43.78994],[11.19634,43.78987],[11.19701,43.78971],[11.19716,43.78965],[11.19738,43.78959],[11.19805,43.78932],[11.19882,43.78895],[11.2051,43.78593],[11.20725,43.78501],[11.20939,43.78404],[11.21066,43.78346],[11.21072,43.78343],[11.21122,43.7832],[11.21221,43.78264],[11.2145,43.78169],[11.21453,43.78167],[11.21507,43.78128],[11.21824,43.77999],[11.2221,43.77862],[11.22511,43.77758],[11.22642,43.77717],[11.22942,43.77631],[11.23452,43.77483],[11.23716,43.77411],[11.2378,43.77394],[11.23816,43.77381],[11.23919,43.77345],[11.241,43.77277],[11.24242,43.77219],[11.24297,43.77197]]]]}},{"type":"Feature","properties":{"nbhd_name":"Rifredi","uesi_id":"ITA_R42602","nbhd_code":"ITA_R42602_6"},"geometry":{"type":"MultiPolygon","coordinates":[[[[11.25421,43.83522],[11.25481,43.83504],[11.25555,43.83481],[11.25628,43.83457],[11.25693,43.83445],[11.25747,43.83448],[11.25795,43.83459],[11.25854,43.83429],[11.25895,43.83426],[11.25974,43.83437],[11.26023,43.83421],[11.26027,43.8342],[11.26058,43.83405],[11.26054,43.83392],[11.26049,43.83372],[11.26076,43.83352],[11.26116,43.83303],[11.26145,43.83261],[11.26192,43.8322],[11.2624,43.832],[11.26269,43.83188],[11.26286,43.83178],[11.26332,43.83155],[11.26358,43.83111],[11.26405,43.83124],[11.26438,43.83125],[11.26447,43.83126],[11.2646,43.83126],[11.26481,43.83062],[11.26489,43.83034],[11.2654,43.83001],[11.26547,43.82961],[11.26533,43.8294],[11.26531,43.82937],[11.26549,43.82914],[11.2665,43.82843],[11.26654,43.82845],[11.26697,43.82863],[11.267,43.82864],[11.2677,43.82878],[11.26829,43.82868],[11.2686,43.82805],[11.26877,43.82747],[11.26883,43.8274],[11.26906,43.82738],[11.26939,43.82735],[11.26987,43.82731],[11.27047,43.82721],[11.27067,43.82718],[11.27202,43.82706],[11.27299,43.82704],[11.27379,43.82691],[11.27456,43.82679],[11.27461,43.82679],[11.27523,43.8268],[11.27628,43.82679],[11.27633,43.8268],[11.27727,43.82675],[11.27723,43.82714],[11.27754,43.82693],[11.27753,43.8269],[11.27756,43.82673],[11.27756,43.8267],[11.2776,43.8266],[11.27769,43.82633],[11.27769,43.82627],[11.27763,43.8262],[11.27762,43.82614],[11.2776,43.82607],[11.27757,43.82601],[11.27752,43.82591],[11.27749,43.82585],[11.27746,43.82578],[11.27743,43.82572],[11.27741,43.82568],[11.27736,43.82565],[11.27727,43.82565],[11.2772,43.82566],[11.27715,43.82564],[11.27704,43.82545],[11.27684,43.82515],[11.2764,43.82474],[11.27634,43.82471],[11.27615,43.82462],[11.27605,43.82458],[11.27551,43.82448],[11.27518,43.82429],[11.27505,43.82421],[11.27492,43.82407],[11.2749,43.82401],[11.27486,43.82394],[11.2747,43.82357],[11.27399,43.82306],[11.27366,43.82293],[11.27344,43.82272],[11.27324,43.82254],[11.27307,43.82258],[11.27301,43.8226],[11.27256,43.82271],[11.27243,43.82267],[11.27235,43.82265],[11.27228,43.82252],[11.27218,43.82236],[11.27169,43.8221],[11.27084,43.82164],[11.27071,43.82163],[11.27052,43.82151],[11.27036,43.8214],[11.27012,43.82113],[11.27009,43.82108],[11.26988,43.82078],[11.26959,43.82056],[11.26952,43.82045],[11.26943,43.82029],[11.26924,43.82],[11.26907,43.81978],[11.26904,43.81975],[11.2692,43.81855],[11.26924,43.81828],[11.26934,43.81757],[11.26946,43.81664],[11.26933,43.81654],[11.26833,43.81566],[11.26802,43.81539],[11.26744,43.81505],[11.26716,43.81488],[11.26678,43.81455],[11.26607,43.81395],[11.2658,43.81375],[11.26572,43.81368],[11.26569,43.81365],[11.26557,43.81345],[11.26544,43.81324],[11.26535,43.81308],[11.26535,43.81305],[11.2653,43.81305],[11.26477,43.8125],[11.26418,43.81059],[11.26379,43.80934],[11.26356,43.80929],[11.26317,43.80917],[11.2626,43.80904],[11.26205,43.8089],[11.26191,43.80886],[11.26183,43.80883],[11.2617,43.80879],[11.26159,43.80873],[11.26153,43.80869],[11.26302,43.80811],[11.26313,43.80751],[11.2631,43.80735],[11.26307,43.80717],[11.26287,43.8063],[11.26265,43.80488],[11.2626,43.80459],[11.26239,43.80329],[11.26228,43.80244],[11.26238,43.80225],[11.26244,43.80201],[11.26245,43.80194],[11.26246,43.8019],[11.26241,43.80185],[11.26236,43.80183],[11.26249,43.80174],[11.2625,43.80171],[11.26252,43.80169],[11.26285,43.80177],[11.26295,43.8018],[11.26322,43.80185],[11.26331,43.80187],[11.26414,43.80103],[11.26418,43.80082],[11.26419,43.80078],[11.26428,43.80026],[11.26434,43.79995],[11.26425,43.79976],[11.26419,43.79963],[11.26439,43.79934],[11.26419,43.7992],[11.26367,43.79884],[11.26346,43.79864],[11.2634,43.79856],[11.26319,43.7974],[11.26302,43.79684],[11.26225,43.79452],[11.26321,43.79432],[11.26334,43.79403],[11.26308,43.79366],[11.26241,43.79331],[11.26219,43.7928],[11.26228,43.79207],[11.26252,43.79129],[11.26261,43.79069],[11.26284,43.79045],[11.26301,43.79017],[11.26312,43.78985],[11.26332,43.78945],[11.26337,43.78871],[11.26336,43.78834],[11.26335,43.78818],[11.26264,43.78816],[11.26263,43.78801],[11.26263,43.78798],[11.2625,43.78718],[11.26236,43.78646],[11.26235,43.78638],[11.26235,43.78631],[11.26232,43.78609],[11.2623,43.78594],[11.26208,43.78591],[11.26176,43.78589],[11.26104,43.78571],[11.26125,43.7849],[11.26132,43.78466],[11.2609,43.7842],[11.26094,43.7838],[11.25897,43.7833],[11.25893,43.78329],[11.25888,43.78328],[11.25859,43.78319],[11.25855,43.78318],[11.25851,43.78317],[11.25795,43.78304],[11.25791,43.78303],[11.25787,43.78303],[11.25726,43.78288],[11.25716,43.78287],[11.25707,43.78286],[11.2569,43.78282],[11.25681,43.78278],[11.25673,43.78275],[11.25511,43.78241],[11.25506,43.7824],[11.25502,43.78239],[11.25368,43.78207],[11.25362,43.78205],[11.25355,43.78204],[11.25292,43.78189],[11.25274,43.78194],[11.25263,43.78197],[11.25243,43.78257],[11.25241,43.7826],[11.25237,43.78272],[11.25208,43.78349],[11.25204,43.78354],[11.25194,43.78358],[11.25179,43.7836],[11.25173,43.78377],[11.25167,43.78388],[11.25146,43.78386],[11.25121,43.78387],[11.25105,43.78389],[11.25097,43.7839],[11.25089,43.7839],[11.25074,43.78389],[11.25013,43.78391],[11.25007,43.78388],[11.24981,43.78391],[11.24972,43.7839],[11.24964,43.78389],[11.24951,43.78388],[11.24936,43.7839],[11.24905,43.7839],[11.24884,43.78392],[11.24813,43.78395],[11.24743,43.78399],[11.24729,43.78399],[11.24695,43.784],[11.24676,43.78399],[11.24654,43.78399],[11.24648,43.784],[11.24605,43.78403],[11.24549,43.78412],[11.24494,43.78429],[11.2449,43.78383],[11.24496,43.78335],[11.24498,43.78315],[11.24492,43.78314],[11.24483,43.78312],[11.24475,43.78334],[11.24473,43.78339],[11.24379,43.7855],[11.24194,43.78564],[11.24187,43.78565],[11.24179,43.78571],[11.24159,43.78578],[11.24149,43.78581],[11.24137,43.78586],[11.24124,43.78591],[11.24081,43.78608],[11.24063,43.78615],[11.24051,43.7862],[11.24036,43.78626],[11.2401,43.78634],[11.23989,43.78642],[11.23976,43.78647],[11.2397,43.7865],[11.23955,43.78657],[11.23948,43.78661],[11.23942,43.78664],[11.23928,43.78669],[11.23919,43.78672],[11.23904,43.78678],[11.23894,43.78681],[11.2388,43.78686],[11.23873,43.78689],[11.23861,43.78692],[11.23849,43.78697],[11.23839,43.78701],[11.23816,43.78711],[11.23801,43.78716],[11.23794,43.78719],[11.23781,43.78723],[11.23774,43.78726],[11.23768,43.78729],[11.23753,43.78736],[11.23746,43.78738],[11.23736,43.78741],[11.2372,43.78746],[11.237,43.78754],[11.2369,43.78757],[11.2367,43.78764],[11.23655,43.7877],[11.23645,43.78773],[11.23625,43.7878],[11.23617,43.78784],[11.23596,43.78792],[11.23589,43.78795],[11.23577,43.788],[11.23563,43.78806],[11.23552,43.7881],[11.2353,43.7882],[11.23519,43.78824],[11.23508,43.78828],[11.23496,43.78833],[11.2349,43.78834],[11.23462,43.78845],[11.23453,43.7885],[11.23444,43.78852],[11.23422,43.7886],[11.23406,43.78866],[11.23394,43.7887],[11.23384,43.78873],[11.23374,43.78879],[11.23368,43.7888],[11.23348,43.78887],[11.23335,43.7889],[11.23319,43.78897],[11.23284,43.7891],[11.23271,43.78915],[11.23254,43.78922],[11.23227,43.78936],[11.23223,43.78934],[11.23217,43.78937],[11.23194,43.78942],[11.23182,43.78945],[11.23174,43.78947],[11.23168,43.78949],[11.23141,43.78956],[11.23117,43.7896],[11.23088,43.78958],[11.23075,43.78959],[11.23064,43.7896],[11.23057,43.78959],[11.23028,43.78956],[11.23022,43.78954],[11.22998,43.78949],[11.2298,43.78943],[11.22969,43.78939],[11.2296,43.78935],[11.22945,43.78928],[11.2294,43.78925],[11.22934,43.78919],[11.22841,43.78837],[11.22875,43.78842],[11.2288,43.78838],[11.22878,43.78836],[11.22799,43.78762],[11.22796,43.7876],[11.22793,43.78757],[11.22761,43.78727],[11.22758,43.78725],[11.22755,43.78723],[11.22693,43.78669],[11.22682,43.78674],[11.22643,43.78698],[11.22631,43.78688],[11.22623,43.78685],[11.22615,43.78684],[11.22609,43.78684],[11.22602,43.78683],[11.22591,43.78682],[11.22583,43.78683],[11.22573,43.78685],[11.22556,43.78689],[11.2255,43.7869],[11.22529,43.78697],[11.22511,43.78701],[11.22495,43.78706],[11.22482,43.7871],[11.22473,43.78713],[11.22464,43.78714],[11.22453,43.78716],[11.22446,43.7872],[11.2243,43.78724],[11.22418,43.78725],[11.22398,43.78732],[11.22373,43.78738],[11.22349,43.78743],[11.22334,43.78749],[11.22317,43.78753],[11.22295,43.78758],[11.22276,43.78763],[11.22259,43.78767],[11.22244,43.7877],[11.22233,43.78774],[11.22176,43.78787],[11.2212,43.78803],[11.22098,43.78809],[11.22078,43.78815],[11.22056,43.78818],[11.22045,43.78822],[11.22027,43.78826],[11.22013,43.78831],[11.21997,43.78835],[11.21981,43.78841],[11.21975,43.78843],[11.21938,43.78852],[11.21914,43.78858],[11.21895,43.78863],[11.21862,43.78873],[11.21858,43.78875],[11.21849,43.78878],[11.21837,43.78881],[11.21828,43.78883],[11.21814,43.78888],[11.21803,43.7889],[11.21781,43.78896],[11.21745,43.78906],[11.21715,43.78913],[11.21701,43.78917],[11.21687,43.78922],[11.21679,43.78925],[11.21672,43.78926],[11.21663,43.78928],[11.21654,43.78932],[11.21636,43.78937],[11.21582,43.78951],[11.21488,43.78978],[11.2137,43.7901],[11.21366,43.79012],[11.21355,43.79013],[11.21351,43.79014],[11.2129,43.79028],[11.21207,43.79049],[11.21195,43.79046],[11.21161,43.79037],[11.21153,43.79037],[11.21146,43.79036],[11.21122,43.79034],[11.21091,43.79034],[11.21046,43.79035],[11.21029,43.79034],[11.20979,43.79031],[11.20964,43.79031],[11.20941,43.79031],[11.20908,43.7903],[11.20898,43.79029],[11.20879,43.79028],[11.2084,43.79027],[11.20739,43.79025],[11.207,43.79025],[11.20684,43.79024],[11.20647,43.79024],[11.20637,43.79024],[11.20622,43.79023],[11.20608,43.79024],[11.20594,43.79025],[11.20585,43.79023],[11.20571,43.79026],[11.2055,43.79026],[11.20544,43.79024],[11.20533,43.79024],[11.20512,43.79027],[11.20497,43.79029],[11.2047,43.79035],[11.20456,43.79037],[11.20451,43.7904],[11.20439,43.79044],[11.20415,43.79046],[11.20403,43.79048],[11.20396,43.79049],[11.20386,43.79052],[11.2038,43.79054],[11.20368,43.79055],[11.20353,43.7906],[11.20343,43.79062],[11.2033,43.79063],[11.20323,43.79065],[11.2031,43.79068],[11.20303,43.79069],[11.20291,43.79074],[11.20277,43.79076],[11.20266,43.7908],[11.20247,43.79083],[11.20232,43.79084],[11.20222,43.79084],[11.20207,43.79087],[11.20196,43.79088],[11.20183,43.79088],[11.20172,43.79086],[11.20091,43.79087],[11.20079,43.79087],[11.20057,43.79087],[11.20044,43.79089],[11.20001,43.7909],[11.1999,43.79091],[11.19985,43.7909],[11.19979,43.79091],[11.19975,43.7909],[11.19969,43.7909],[11.19952,43.79089],[11.19937,43.7909],[11.19921,43.79089],[11.1991,43.79089],[11.19879,43.79088],[11.19865,43.79087],[11.19853,43.79086],[11.19807,43.79081],[11.19746,43.79051],[11.19722,43.7905],[11.19669,43.79062],[11.19664,43.79064],[11.19631,43.79019],[11.19608,43.78994],[11.196,43.78995],[11.19525,43.79013],[11.19438,43.79026],[11.19303,43.79036],[11.19155,43.79036],[11.1907,43.79036],[11.18988,43.79031],[11.18873,43.79023],[11.18681,43.79005],[11.18566,43.78992],[11.18555,43.78991],[11.18434,43.78982],[11.1822,43.78967],[11.18056,43.78944],[11.17949,43.78934],[11.17844,43.78929],[11.17715,43.78923],[11.17464,43.78905],[11.17213,43.78882],[11.17057,43.78867],[11.16838,43.78847],[11.1673,43.78833],[11.16639,43.78822],[11.16581,43.78807],[11.16462,43.78784],[11.16419,43.78775],[11.16308,43.78751],[11.16277,43.78745],[11.1589,43.78684],[11.15886,43.78683],[11.15875,43.78683],[11.15867,43.78683],[11.15868,43.7868],[11.15747,43.78664],[11.15609,43.78644],[11.1559,43.78642],[11.15426,43.78643],[11.15399,43.7864],[11.15315,43.7863],[11.15266,43.78625],[11.15234,43.78621],[11.1515,43.78612],[11.15121,43.78613],[11.15112,43.78613],[11.15063,43.78622],[11.15059,43.78623],[11.15061,43.78658],[11.15068,43.78682],[11.15076,43.78703],[11.15077,43.78706],[11.151,43.78752],[11.15101,43.78755],[11.15136,43.78815],[11.15138,43.78818],[11.15146,43.78828],[11.15149,43.78831],[11.15182,43.78872],[11.15184,43.78874],[11.15215,43.78952],[11.15217,43.78955],[11.15257,43.79016],[11.15259,43.79018],[11.15268,43.79031],[11.1527,43.79034],[11.15314,43.7909],[11.15316,43.79092],[11.15355,43.79165],[11.15356,43.79168],[11.15371,43.79197],[11.15388,43.79229],[11.15389,43.79231],[11.15403,43.79261],[11.15405,43.79265],[11.1542,43.79325],[11.15445,43.79321],[11.15465,43.79316],[11.15501,43.79401],[11.15503,43.79405],[11.15513,43.79417],[11.15514,43.79421],[11.15525,43.79463],[11.15527,43.79466],[11.15532,43.79475],[11.15536,43.79484],[11.15537,43.79487],[11.15541,43.79494],[11.15549,43.79508],[11.15551,43.79512],[11.15553,43.79515],[11.15558,43.79524],[11.15559,43.79527],[11.15598,43.796],[11.15599,43.79604],[11.15608,43.7962],[11.15609,43.79623],[11.15634,43.7967],[11.1565,43.79715],[11.15662,43.79747],[11.15663,43.79755],[11.15663,43.79764],[11.1566,43.79794],[11.15596,43.79826],[11.15549,43.79841],[11.15545,43.79842],[11.15536,43.79845],[11.15493,43.79858],[11.15382,43.79902],[11.15356,43.79937],[11.15359,43.79939],[11.15431,43.79988],[11.15433,43.7999],[11.15451,43.80009],[11.15489,43.80047],[11.15491,43.8005],[11.15512,43.80071],[11.15515,43.80073],[11.15585,43.80133],[11.15588,43.80135],[11.15641,43.80203],[11.15643,43.80205],[11.15676,43.80261],[11.15677,43.80264],[11.15686,43.80288],[11.15815,43.80258],[11.15947,43.80244],[11.16107,43.80233],[11.16296,43.80219],[11.16347,43.80216],[11.16489,43.80207],[11.16665,43.80192],[11.1674,43.80184],[11.16833,43.80174],[11.16999,43.80148],[11.17163,43.80122],[11.17223,43.80116],[11.17298,43.80108],[11.17311,43.80106],[11.17466,43.80089],[11.17556,43.80079],[11.176,43.80074],[11.17743,43.80059],[11.17873,43.80043],[11.17984,43.8003],[11.18045,43.8002],[11.18129,43.80001],[11.18168,43.79983],[11.1818,43.79977],[11.18183,43.7998],[11.18201,43.8],[11.18203,43.80003],[11.18219,43.80021],[11.18221,43.80023],[11.18261,43.80068],[11.18272,43.80081],[11.18275,43.80084],[11.18304,43.80117],[11.18309,43.80122],[11.18311,43.80125],[11.18333,43.80156],[11.18376,43.80216],[11.18377,43.80219],[11.18386,43.80231],[11.18388,43.80234],[11.18403,43.80253],[11.18407,43.80258],[11.18453,43.80318],[11.18455,43.8032],[11.18513,43.8036],[11.18568,43.80351],[11.18576,43.80355],[11.18585,43.80359],[11.18589,43.8036],[11.18607,43.80369],[11.18655,43.80448],[11.18662,43.80458],[11.18702,43.80512],[11.18743,43.80554],[11.18749,43.80561],[11.18752,43.80564],[11.18763,43.8058],[11.18798,43.80631],[11.188,43.80634],[11.18806,43.80642],[11.18812,43.80649],[11.18836,43.80683],[11.18839,43.80685],[11.18852,43.80695],[11.18857,43.80699],[11.1886,43.80701],[11.18867,43.80706],[11.18882,43.80717],[11.18886,43.8072],[11.18889,43.80722],[11.18913,43.80741],[11.18918,43.80744],[11.18927,43.80749],[11.18943,43.80758],[11.18969,43.80773],[11.18973,43.80776],[11.18993,43.80794],[11.19002,43.80801],[11.19008,43.80806],[11.19012,43.80808],[11.19023,43.80827],[11.19024,43.8083],[11.19061,43.80894],[11.19062,43.80897],[11.19125,43.81001],[11.19127,43.81003],[11.19193,43.81085],[11.19195,43.81087],[11.19258,43.81149],[11.19261,43.81152],[11.19327,43.81239],[11.19329,43.81241],[11.19338,43.81249],[11.19341,43.81251],[11.19397,43.81295],[11.19473,43.81253],[11.19604,43.812],[11.19664,43.81169],[11.19714,43.81144],[11.19818,43.81115],[11.19915,43.81092],[11.20025,43.81048],[11.20096,43.81016],[11.2016,43.80989],[11.20206,43.80967],[11.20289,43.80936],[11.20341,43.80912],[11.2041,43.8087],[11.20442,43.80857],[11.20446,43.80855],[11.20484,43.80839],[11.20487,43.80841],[11.20518,43.80878],[11.2052,43.8088],[11.20542,43.80914],[11.20544,43.80916],[11.20589,43.80953],[11.20592,43.80955],[11.20645,43.8101],[11.20647,43.81013],[11.20711,43.81082],[11.20713,43.81084],[11.20788,43.81153],[11.2079,43.81156],[11.20846,43.81207],[11.20848,43.8121],[11.20918,43.81276],[11.20921,43.81278],[11.21002,43.81358],[11.21004,43.81361],[11.21092,43.8144],[11.21094,43.81443],[11.21122,43.81474],[11.21124,43.81476],[11.21161,43.81518],[11.21164,43.81521],[11.21167,43.81524],[11.21227,43.81582],[11.21232,43.81586],[11.21234,43.81588],[11.21295,43.81659],[11.21298,43.81662],[11.21307,43.81672],[11.2131,43.81676],[11.21312,43.81678],[11.21336,43.81704],[11.21338,43.81707],[11.2135,43.8172],[11.21352,43.81723],[11.21412,43.81774],[11.21415,43.81777],[11.21463,43.81831],[11.21466,43.81833],[11.21531,43.81887],[11.21534,43.81889],[11.21598,43.81928],[11.21602,43.8193],[11.21645,43.81946],[11.21681,43.8196],[11.21685,43.81962],[11.2172,43.81975],[11.21724,43.81976],[11.21755,43.81988],[11.21758,43.81989],[11.21773,43.81998],[11.21776,43.81999],[11.21791,43.82008],[11.21795,43.8201],[11.21809,43.82018],[11.21813,43.8202],[11.21875,43.82058],[11.21879,43.8206],[11.21894,43.82067],[11.21909,43.82073],[11.21912,43.82075],[11.21954,43.82094],[11.21957,43.82095],[11.22031,43.82116],[11.22048,43.82122],[11.22052,43.82124],[11.22057,43.82126],[11.22096,43.82146],[11.22099,43.82149],[11.22131,43.82177],[11.22188,43.82194],[11.22286,43.82199],[11.2232,43.82205],[11.22352,43.82211],[11.22375,43.82215],[11.22442,43.82238],[11.22466,43.82236],[11.2248,43.82235],[11.22535,43.82231],[11.22579,43.82221],[11.22638,43.82235],[11.22685,43.82244],[11.22687,43.82246],[11.22698,43.82254],[11.22707,43.8226],[11.2271,43.82263],[11.22719,43.8227],[11.22725,43.82275],[11.22728,43.82277],[11.22757,43.82296],[11.2276,43.82298],[11.22781,43.82312],[11.22791,43.82321],[11.22793,43.82323],[11.22818,43.82347],[11.22819,43.8235],[11.22836,43.82381],[11.22837,43.82385],[11.22845,43.82409],[11.22847,43.82413],[11.22853,43.82428],[11.22856,43.82431],[11.22894,43.82454],[11.22897,43.82456],[11.22936,43.82472],[11.2294,43.82474],[11.22982,43.8251],[11.22984,43.82512],[11.23004,43.82531],[11.23039,43.82564],[11.23041,43.82566],[11.23097,43.82626],[11.23099,43.82628],[11.23141,43.82689],[11.23143,43.82692],[11.23192,43.82738],[11.23195,43.8274],[11.23255,43.8278],[11.23258,43.82782],[11.23273,43.82797],[11.23275,43.82799],[11.23311,43.82836],[11.23314,43.82838],[11.23378,43.82882],[11.2339,43.82875],[11.2341,43.82863],[11.23462,43.82845],[11.23482,43.82835],[11.23502,43.82825],[11.23535,43.82784],[11.23551,43.82742],[11.23576,43.82706],[11.23587,43.82697],[11.23593,43.82692],[11.23603,43.82684],[11.23625,43.82666],[11.23674,43.82594],[11.23701,43.82557],[11.23711,43.82544],[11.23766,43.82508],[11.23825,43.82473],[11.23889,43.82418],[11.2392,43.82395],[11.23923,43.82397],[11.23977,43.82428],[11.2398,43.82429],[11.24045,43.82459],[11.24049,43.8246],[11.24125,43.82493],[11.24137,43.82498],[11.24141,43.825],[11.24188,43.82525],[11.24194,43.82528],[11.24197,43.8253],[11.24241,43.82552],[11.24252,43.82558],[11.24248,43.82564],[11.24231,43.82594],[11.24235,43.82616],[11.24239,43.82638],[11.24241,43.82641],[11.24262,43.82663],[11.24291,43.82694],[11.24293,43.82697],[11.24342,43.82751],[11.24344,43.82754],[11.24385,43.82819],[11.24387,43.82829],[11.24395,43.82865],[11.24398,43.8288],[11.24401,43.82897],[11.24415,43.82966],[11.24424,43.83012],[11.24429,43.83042],[11.24432,43.83045],[11.24447,43.83067],[11.24453,43.83075],[11.24481,43.83115],[11.24509,43.83107],[11.24522,43.83103],[11.24552,43.83095],[11.24616,43.83073],[11.24665,43.83083],[11.24678,43.83085],[11.24681,43.83088],[11.2469,43.83095],[11.24702,43.83104],[11.24709,43.8311],[11.24713,43.83114],[11.24724,43.83138],[11.24725,43.83141],[11.24726,43.83147],[11.24717,43.83169],[11.2471,43.83184],[11.24689,43.83198],[11.24683,43.83202],[11.24676,43.83233],[11.24671,43.83256],[11.24673,43.83258],[11.24684,43.83278],[11.2469,43.83289],[11.24692,43.83292],[11.24713,43.83311],[11.24716,43.83313],[11.2476,43.83335],[11.24824,43.83348],[11.24856,43.83354],[11.2486,43.83355],[11.24891,43.83366],[11.24924,43.83377],[11.24927,43.83379],[11.24958,43.83405],[11.24961,43.83407],[11.24995,43.83437],[11.24998,43.8344],[11.25052,43.83483],[11.25055,43.83485],[11.25106,43.83513],[11.25127,43.83516],[11.25176,43.83521],[11.25256,43.83516],[11.25279,43.83515],[11.25344,43.83515],[11.25403,43.83521],[11.25421,43.83522]]]]}}]}