{"type":"FeatureCollection","name":"ITA_R39230","crs":{"type":"name","properties":{"name":"urn:ogc:def:crs:OGC:1.3:CRS84"}},"features":[{"type":"Feature","properties":{"nbhd_name":"Centro","uesi_id":"ITA_R39230","nbhd_code":"ITA_R39230_2"},"geometry":{"type":"MultiPolygon","coordinates":[[[[15.08555,37.50977],[15.0856,37.50958],[15.0864,37.50973],[15.08645,37.50974],[15.08687,37.50982],[15.08732,37.5099],[15.08839,37.5101],[15.08837,37.51037],[15.08869,37.5104],[15.0896,37.51053],[15.09072,37.51065],[15.09243,37.51088],[15.09359,37.51105],[15.09411,37.51111],[15.09421,37.5105],[15.09445,37.50913],[15.09451,37.50886],[15.09462,37.50824],[15.09562,37.5083],[15.09607,37.50832],[15.0969,37.50839],[15.09715,37.50839],[15.09767,37.50842],[15.09769,37.50767],[15.0977,37.50713],[15.09771,37.5068],[15.09861,37.50683],[15.09818,37.50636],[15.09794,37.50611],[15.10027,37.50599],[15.10026,37.50596],[15.10019,37.50596],[15.10017,37.50593],[15.10013,37.50591],[15.10008,37.5059],[15.10005,37.50596],[15.09989,37.50594],[15.09981,37.50591],[15.09963,37.50583],[15.09963,37.50577],[15.0996,37.50574],[15.09954,37.50573],[15.0995,37.50575],[15.09946,37.50575],[15.09945,37.50571],[15.09938,37.5057],[15.09877,37.50542],[15.09828,37.50513],[15.09798,37.50493],[15.09756,37.50457],[15.09725,37.50414],[15.09718,37.50403],[15.09718,37.50326],[15.09712,37.50325],[15.09714,37.5026],[15.09721,37.50253],[15.09732,37.50243],[15.09741,37.50236],[15.09747,37.50233],[15.09748,37.50229],[15.09751,37.50223],[15.09757,37.50217],[15.09764,37.50215],[15.09774,37.50202],[15.09787,37.50189],[15.098,37.50175],[15.09816,37.50162],[15.09826,37.50154],[15.09847,37.50127],[15.09857,37.50112],[15.09868,37.50097],[15.09875,37.50093],[15.09885,37.50083],[15.09892,37.50075],[15.09912,37.50051],[15.09914,37.50043],[15.09916,37.50025],[15.09916,37.50015],[15.09919,37.50011],[15.0992,37.50004],[15.09924,37.49986],[15.09927,37.49966],[15.09924,37.49946],[15.09923,37.4994],[15.09928,37.49925],[15.09931,37.49913],[15.09928,37.49904],[15.09928,37.49894],[15.09932,37.49879],[15.09934,37.49861],[15.09935,37.4985],[15.09933,37.49837],[15.09937,37.49816],[15.09943,37.49792],[15.09942,37.49784],[15.09949,37.49772],[15.0995,37.49745],[15.09956,37.49715],[15.09956,37.49705],[15.09965,37.49689],[15.09967,37.49676],[15.09965,37.49651],[15.09965,37.49644],[15.09963,37.49636],[15.09965,37.49617],[15.0997,37.49589],[15.09969,37.49577],[15.09971,37.49566],[15.09975,37.49557],[15.09973,37.49551],[15.09973,37.4954],[15.09974,37.49535],[15.09977,37.49528],[15.09978,37.4952],[15.0998,37.49513],[15.09984,37.49506],[15.09985,37.49474],[15.09989,37.49447],[15.09989,37.49435],[15.09989,37.4943],[15.09996,37.49417],[15.1,37.49405],[15.09999,37.49397],[15.09998,37.4939],[15.09999,37.49382],[15.10002,37.49373],[15.10002,37.49367],[15.09998,37.49362],[15.1,37.49344],[15.10003,37.49326],[15.10014,37.49315],[15.10017,37.49282],[15.10015,37.49266],[15.10013,37.49256],[15.10016,37.49233],[15.10015,37.49209],[15.10016,37.49189],[15.10017,37.49167],[15.10022,37.49145],[15.10025,37.49132],[15.10026,37.49125],[15.1002,37.49118],[15.10012,37.49112],[15.10005,37.49108],[15.10006,37.4909],[15.10004,37.49072],[15.10003,37.49063],[15.10003,37.49047],[15.10006,37.49037],[15.10005,37.49029],[15.10002,37.49013],[15.10002,37.49008],[15.10008,37.4899],[15.10016,37.48952],[15.10022,37.48925],[15.10025,37.48894],[15.10026,37.48884],[15.10028,37.48865],[15.10029,37.48843],[15.10034,37.4883],[15.10034,37.48819],[15.10026,37.4881],[15.10017,37.48799],[15.10007,37.48786],[15.10003,37.48781],[15.09997,37.48772],[15.09989,37.48761],[15.09983,37.48756],[15.09972,37.48751],[15.09961,37.48749],[15.09954,37.48747],[15.09898,37.4868],[15.09859,37.48698],[15.09873,37.48713],[15.09886,37.48707],[15.099,37.4871],[15.09985,37.48819],[15.09982,37.48821],[15.09985,37.48825],[15.09989,37.48824],[15.09991,37.48843],[15.09967,37.49026],[15.09953,37.49131],[15.09957,37.49134],[15.09953,37.49138],[15.09947,37.4914],[15.09934,37.4915],[15.09908,37.49152],[15.09899,37.49147],[15.09891,37.49146],[15.09883,37.49144],[15.0987,37.49146],[15.09861,37.49149],[15.09851,37.49161],[15.09851,37.49168],[15.09858,37.49168],[15.09893,37.49211],[15.09897,37.49211],[15.0994,37.49264],[15.09958,37.49297],[15.09962,37.49318],[15.09962,37.4934],[15.09917,37.49683],[15.09901,37.49808],[15.09889,37.49809],[15.09888,37.4984],[15.09876,37.49917],[15.09814,37.49914],[15.09811,37.49934],[15.09879,37.4994],[15.09866,37.50043],[15.09864,37.50046],[15.09861,37.50046],[15.09749,37.50163],[15.09715,37.5016],[15.09577,37.50149],[15.09505,37.5004],[15.09517,37.4991],[15.09581,37.49914],[15.09581,37.49907],[15.09581,37.49904],[15.09584,37.49895],[15.0952,37.49887],[15.09526,37.49828],[15.09536,37.49741],[15.09628,37.4959],[15.09505,37.4954],[15.09351,37.49787],[15.09333,37.49797],[15.09328,37.498],[15.09332,37.49801],[15.09346,37.49813],[15.09352,37.49815],[15.09355,37.49813],[15.09351,37.49809],[15.09363,37.49803],[15.09442,37.49884],[15.09428,37.49997],[15.09413,37.50008],[15.09399,37.50007],[15.09389,37.50034],[15.09336,37.50031],[15.09228,37.50023],[15.09204,37.50021],[15.09201,37.50024],[15.09194,37.50023],[15.09193,37.5002],[15.09035,37.50012],[15.09027,37.50009],[15.09013,37.49972],[15.09044,37.49923],[15.09166,37.49729],[15.09227,37.49634],[15.09224,37.49499],[15.09196,37.49497],[15.09195,37.49344],[15.09183,37.49342],[15.09184,37.49349],[15.09189,37.49348],[15.09191,37.49496],[15.09109,37.49497],[15.091,37.49464],[15.09092,37.49464],[15.09082,37.49421],[15.09091,37.49421],[15.09089,37.49405],[15.09079,37.49406],[15.09064,37.4933],[15.09097,37.49324],[15.09097,37.49316],[15.09091,37.49316],[15.0909,37.49308],[15.09096,37.49306],[15.09095,37.49249],[15.09248,37.49242],[15.09504,37.49229],[15.09503,37.49226],[15.09482,37.49226],[15.09477,37.49169],[15.09506,37.49164],[15.09505,37.49155],[15.09563,37.49152],[15.09564,37.49155],[15.09577,37.49155],[15.09578,37.49145],[15.09565,37.49145],[15.09561,37.49139],[15.09553,37.4914],[15.09535,37.49141],[15.09524,37.49143],[15.09512,37.49141],[15.09504,37.49142],[15.09496,37.49144],[15.09486,37.49142],[15.09469,37.49138],[15.0946,37.49137],[15.09456,37.49139],[15.09451,37.49143],[15.09438,37.49145],[15.09421,37.49144],[15.09398,37.49144],[15.09383,37.49143],[15.09367,37.49146],[15.09356,37.49145],[15.0935,37.49145],[15.09337,37.4915],[15.09322,37.49148],[15.09315,37.49148],[15.09284,37.49151],[15.09256,37.49151],[15.09244,37.49153],[15.09216,37.49155],[15.09212,37.49151],[15.09202,37.49143],[15.0919,37.49129],[15.09183,37.49122],[15.0917,37.49118],[15.09161,37.49113],[15.09155,37.49107],[15.0914,37.49104],[15.09126,37.49103],[15.09111,37.49105],[15.09097,37.49108],[15.09091,37.49107],[15.09085,37.49103],[15.0908,37.49098],[15.09074,37.49087],[15.09071,37.49073],[15.09066,37.49054],[15.09066,37.49043],[15.09066,37.49025],[15.09071,37.49011],[15.0907,37.48999],[15.09074,37.48981],[15.0908,37.48968],[15.09082,37.48958],[15.09085,37.48942],[15.09088,37.48934],[15.09113,37.48931],[15.09267,37.48908],[15.0939,37.48891],[15.09416,37.48887],[15.09419,37.48888],[15.09424,37.48887],[15.0943,37.48884],[15.09432,37.48882],[15.09431,37.48878],[15.09427,37.48876],[15.09419,37.48873],[15.09414,37.48873],[15.09405,37.48876],[15.09397,37.48873],[15.09379,37.48875],[15.09363,37.48877],[15.09357,37.48879],[15.09352,37.48879],[15.09312,37.48886],[15.09306,37.48887],[15.09303,37.48887],[15.09289,37.48887],[15.0928,37.48889],[15.09268,37.48894],[15.09261,37.48894],[15.09242,37.48895],[15.09222,37.489],[15.09212,37.48899],[15.09202,37.489],[15.09199,37.48903],[15.09195,37.48906],[15.09188,37.48909],[15.09177,37.4891],[15.09174,37.48912],[15.09168,37.48913],[15.09161,37.48913],[15.09156,37.48914],[15.09145,37.48916],[15.09136,37.48916],[15.09124,37.48919],[15.09106,37.48922],[15.09081,37.48924],[15.0906,37.48924],[15.09051,37.48928],[15.09039,37.4893],[15.09017,37.48934],[15.08993,37.48937],[15.08991,37.48941],[15.08941,37.48949],[15.08936,37.48942],[15.08927,37.48937],[15.08916,37.48929],[15.08907,37.4892],[15.08899,37.48914],[15.08891,37.48905],[15.08882,37.48887],[15.08871,37.48875],[15.08861,37.48867],[15.0885,37.48851],[15.0884,37.48838],[15.08611,37.48865],[15.08549,37.48873],[15.085,37.4888],[15.08391,37.48892],[15.07856,37.48956],[15.07537,37.48997],[15.07524,37.48998],[15.0752,37.48994],[15.07476,37.48957],[15.07447,37.48933],[15.07418,37.48908],[15.074,37.48886],[15.07385,37.48865],[15.07375,37.48839],[15.07372,37.48815],[15.07345,37.48825],[15.0723,37.48875],[15.07208,37.48886],[15.0731,37.49256],[15.07312,37.49385],[15.07178,37.49417],[15.07072,37.49437],[15.07056,37.49502],[15.07039,37.49507],[15.07029,37.49514],[15.07019,37.49521],[15.0701,37.49526],[15.07001,37.49537],[15.06995,37.49544],[15.06989,37.49553],[15.06982,37.49566],[15.06977,37.49576],[15.06973,37.49587],[15.06973,37.49603],[15.06995,37.49615],[15.07009,37.49624],[15.07017,37.49628],[15.07012,37.4964],[15.0694,37.49839],[15.07067,37.49863],[15.07181,37.49885],[15.07205,37.49905],[15.07217,37.49919],[15.07218,37.49942],[15.07218,37.49967],[15.0722,37.49985],[15.07219,37.5],[15.07218,37.50019],[15.07217,37.50122],[15.07187,37.50158],[15.07166,37.50178],[15.07148,37.50199],[15.07142,37.50205],[15.07098,37.50248],[15.0706,37.5026],[15.07023,37.5027],[15.0701,37.5038],[15.07002,37.50445],[15.07001,37.50461],[15.06995,37.50508],[15.06989,37.50546],[15.06979,37.50599],[15.06954,37.50798],[15.06926,37.50818],[15.06893,37.50822],[15.06842,37.5085],[15.06746,37.50828],[15.0673,37.50943],[15.06725,37.50971],[15.06724,37.50975],[15.06716,37.51051],[15.06765,37.51061],[15.06856,37.51074],[15.06882,37.51079],[15.06973,37.51094],[15.07047,37.51105],[15.07124,37.51117],[15.07235,37.51135],[15.07242,37.51137],[15.0738,37.51158],[15.07472,37.51173],[15.07509,37.51176],[15.07585,37.51189],[15.07806,37.51227],[15.07879,37.51235],[15.07898,37.51238],[15.0799,37.51251],[15.08106,37.51272],[15.08206,37.51288],[15.08352,37.51312],[15.08358,37.51312],[15.08473,37.51332],[15.08495,37.51231],[15.08501,37.51204],[15.08507,37.5118],[15.08509,37.51172],[15.08523,37.51112],[15.08527,37.51103],[15.08537,37.51055],[15.08555,37.50977]]]]}},{"type":"Feature","properties":{"nbhd_name":"Ognina-Picanello","uesi_id":"ITA_R39230","nbhd_code":"ITA_R39230_3"},"geometry":{"type":"MultiPolygon","coordinates":[[[[15.12487,37.53468],[15.12466,37.53467],[15.12442,37.53469],[15.12419,37.53466],[15.12403,37.53462],[15.12388,37.53455],[15.12368,37.53444],[15.12357,37.53439],[15.12357,37.53435],[15.12361,37.53424],[15.1236,37.5341],[15.12354,37.53406],[15.12316,37.53418],[15.12309,37.5342],[15.12297,37.53418],[15.12299,37.53408],[15.12305,37.53395],[15.12303,37.53385],[15.12288,37.53381],[15.12269,37.53384],[15.12255,37.53391],[15.12249,37.53388],[15.12255,37.53373],[15.12277,37.53362],[15.12285,37.53341],[15.12283,37.53335],[15.12266,37.53339],[15.12241,37.53349],[15.12218,37.53349],[15.12205,37.53345],[15.12191,37.53345],[15.12184,37.5334],[15.12173,37.53319],[15.12171,37.53313],[15.12164,37.53306],[15.12158,37.53302],[15.12147,37.53295],[15.1214,37.53285],[15.12137,37.53268],[15.12133,37.53248],[15.12125,37.53235],[15.12101,37.53224],[15.12077,37.53217],[15.12065,37.53211],[15.12065,37.53206],[15.12067,37.53188],[15.12064,37.5318],[15.12052,37.53171],[15.1203,37.53159],[15.12011,37.53152],[15.12006,37.5315],[15.11985,37.53139],[15.11962,37.53127],[15.11942,37.53125],[15.11909,37.53133],[15.11889,37.53141],[15.11863,37.53139],[15.11839,37.53143],[15.11811,37.53152],[15.11787,37.53151],[15.11763,37.53147],[15.11738,37.53152],[15.11718,37.5316],[15.11701,37.53159],[15.11691,37.53156],[15.11682,37.53154],[15.11654,37.53154],[15.11631,37.53164],[15.11628,37.53166],[15.11622,37.53169],[15.11611,37.53168],[15.11602,37.53163],[15.11592,37.53156],[15.11572,37.5316],[15.11552,37.53163],[15.1153,37.5316],[15.11517,37.53165],[15.11508,37.53159],[15.11499,37.53151],[15.11483,37.53154],[15.11474,37.53145],[15.11464,37.53137],[15.11451,37.53147],[15.1142,37.53162],[15.11416,37.53163],[15.11403,37.53165],[15.11388,37.53163],[15.11376,37.53171],[15.1137,37.53181],[15.11361,37.53179],[15.11353,37.53169],[15.11349,37.53175],[15.11341,37.5318],[15.11326,37.5317],[15.11312,37.53163],[15.11304,37.53162],[15.11288,37.53169],[15.11271,37.53174],[15.11256,37.53171],[15.1125,37.53171],[15.11234,37.53161],[15.11222,37.53154],[15.11221,37.53147],[15.11224,37.53139],[15.11237,37.53143],[15.11253,37.53154],[15.11271,37.53161],[15.11286,37.53163],[15.11298,37.53159],[15.11302,37.53149],[15.11306,37.53142],[15.11312,37.53137],[15.11316,37.53135],[15.11315,37.53132],[15.11291,37.53133],[15.11265,37.53136],[15.11245,37.53131],[15.11235,37.53124],[15.11231,37.53115],[15.11248,37.53114],[15.11281,37.53115],[15.1129,37.53106],[15.11275,37.53092],[15.11256,37.53075],[15.11251,37.53062],[15.11254,37.53059],[15.11264,37.53062],[15.11285,37.53083],[15.11299,37.53097],[15.1131,37.53098],[15.11319,37.53081],[15.11322,37.53069],[15.11327,37.53047],[15.11327,37.53032],[15.11338,37.53023],[15.11333,37.53009],[15.11347,37.52996],[15.11347,37.52982],[15.11343,37.52973],[15.11339,37.52955],[15.11352,37.52937],[15.1136,37.5294],[15.11378,37.52961],[15.11381,37.52964],[15.11387,37.52954],[15.11398,37.52954],[15.11407,37.52969],[15.11407,37.52985],[15.114,37.52999],[15.11402,37.53009],[15.11411,37.53011],[15.11437,37.52991],[15.11458,37.52976],[15.11476,37.52965],[15.11493,37.5296],[15.115,37.52951],[15.11514,37.52942],[15.11529,37.52951],[15.11548,37.5297],[15.11529,37.52984],[15.11512,37.52996],[15.11496,37.53025],[15.11483,37.5304],[15.11475,37.53055],[15.11477,37.53067],[15.1149,37.53072],[15.11515,37.53068],[15.11544,37.53053],[15.11562,37.53036],[15.11571,37.53014],[15.11583,37.52989],[15.11599,37.52967],[15.11609,37.5295],[15.11616,37.52938],[15.11617,37.52912],[15.11618,37.5289],[15.11608,37.52871],[15.11599,37.52859],[15.11605,37.52842],[15.11606,37.52823],[15.11622,37.52804],[15.11636,37.52794],[15.11652,37.52785],[15.11666,37.52779],[15.11668,37.52766],[15.11666,37.52761],[15.11663,37.52759],[15.11657,37.52754],[15.11656,37.52746],[15.11657,37.52742],[15.11668,37.52726],[15.11676,37.52721],[15.11676,37.52716],[15.11676,37.5271],[15.11687,37.52702],[15.11693,37.52702],[15.11693,37.52695],[15.11675,37.52695],[15.11657,37.52695],[15.11645,37.52694],[15.11642,37.52684],[15.11641,37.52669],[15.11643,37.52662],[15.1164,37.52657],[15.11641,37.52655],[15.11643,37.52644],[15.11642,37.52634],[15.11645,37.52624],[15.11652,37.52616],[15.11658,37.52612],[15.11661,37.52607],[15.1166,37.526],[15.1166,37.52597],[15.11674,37.52594],[15.11682,37.52592],[15.11686,37.52587],[15.11686,37.52583],[15.11686,37.52575],[15.11686,37.52571],[15.11695,37.52565],[15.11697,37.5256],[15.1169,37.52553],[15.11682,37.5255],[15.11666,37.52546],[15.11663,37.52543],[15.11662,37.52539],[15.11682,37.52537],[15.11685,37.52535],[15.11691,37.52532],[15.11698,37.52526],[15.11706,37.52518],[15.11711,37.52506],[15.1171,37.525],[15.11711,37.52491],[15.1172,37.52481],[15.1172,37.52473],[15.11723,37.52469],[15.11726,37.52463],[15.11732,37.5246],[15.1173,37.52457],[15.11722,37.52455],[15.11715,37.52438],[15.11705,37.52431],[15.117,37.5243],[15.11698,37.52428],[15.11697,37.52421],[15.11701,37.52418],[15.11709,37.5241],[15.1171,37.52404],[15.11717,37.52391],[15.11724,37.52388],[15.1173,37.52384],[15.11741,37.52379],[15.11745,37.52373],[15.11743,37.52366],[15.11746,37.52362],[15.1175,37.5236],[15.1176,37.52358],[15.11753,37.52351],[15.11741,37.52353],[15.11732,37.52353],[15.1171,37.52353],[15.11703,37.5235],[15.11704,37.5234],[15.11717,37.52327],[15.11731,37.52316],[15.11731,37.52311],[15.11726,37.52309],[15.11721,37.5231],[15.11712,37.52314],[15.11706,37.52317],[15.11704,37.52313],[15.11693,37.52312],[15.11677,37.52313],[15.11675,37.5231],[15.11672,37.52306],[15.11664,37.52299],[15.11656,37.52298],[15.11648,37.52299],[15.11641,37.52292],[15.11651,37.52287],[15.11652,37.5228],[15.11644,37.52278],[15.11638,37.52279],[15.11631,37.52278],[15.11625,37.52276],[15.1162,37.52273],[15.11617,37.52268],[15.11617,37.52264],[15.11618,37.5226],[15.11615,37.52258],[15.11611,37.52257],[15.116,37.52255],[15.11596,37.52252],[15.11594,37.52243],[15.11592,37.52237],[15.11587,37.52233],[15.11578,37.52232],[15.11569,37.52234],[15.11564,37.52232],[15.11568,37.52222],[15.11572,37.5222],[15.11575,37.52222],[15.1158,37.52221],[15.11579,37.52217],[15.11576,37.52216],[15.11567,37.52217],[15.11564,37.52215],[15.11563,37.5221],[15.11557,37.52212],[15.11552,37.52216],[15.11543,37.52217],[15.11538,37.52215],[15.1154,37.5221],[15.11544,37.52201],[15.11534,37.52197],[15.1153,37.52198],[15.1153,37.52192],[15.11524,37.52191],[15.11515,37.52186],[15.11506,37.52181],[15.11512,37.52178],[15.11513,37.52174],[15.11506,37.5217],[15.11483,37.52165],[15.11489,37.52161],[15.11486,37.52154],[15.11476,37.52152],[15.11477,37.52145],[15.1147,37.52145],[15.1146,37.52151],[15.11455,37.52147],[15.11432,37.52145],[15.11427,37.52132],[15.11419,37.52122],[15.11418,37.52114],[15.11399,37.5212],[15.11393,37.52118],[15.11392,37.52112],[15.11389,37.5211],[15.1138,37.52115],[15.11375,37.52111],[15.11366,37.52108],[15.11361,37.52102],[15.11364,37.52095],[15.1136,37.5209],[15.1135,37.52092],[15.11342,37.52088],[15.11339,37.52082],[15.11335,37.52078],[15.11332,37.52074],[15.11336,37.5207],[15.11331,37.52067],[15.11323,37.52075],[15.11313,37.52069],[15.11314,37.52065],[15.11306,37.52059],[15.11315,37.52052],[15.11311,37.52046],[15.11303,37.52048],[15.11277,37.52023],[15.11284,37.52017],[15.1128,37.52014],[15.11276,37.52017],[15.11259,37.52003],[15.11248,37.52002],[15.11245,37.51997],[15.11239,37.51995],[15.11232,37.51996],[15.11224,37.51984],[15.11219,37.51983],[15.11216,37.51981],[15.1122,37.51976],[15.11221,37.51966],[15.11214,37.51967],[15.11201,37.51981],[15.11194,37.51983],[15.11192,37.51974],[15.11187,37.5197],[15.1118,37.51974],[15.11175,37.51975],[15.11163,37.51978],[15.11158,37.51973],[15.11153,37.51964],[15.11145,37.51963],[15.11141,37.51966],[15.11141,37.5197],[15.11136,37.51968],[15.1113,37.5197],[15.11122,37.51967],[15.11114,37.51967],[15.11106,37.51966],[15.11104,37.51972],[15.11095,37.51975],[15.11074,37.51977],[15.11059,37.51975],[15.11046,37.5197],[15.1104,37.51964],[15.11031,37.51961],[15.1103,37.51956],[15.11021,37.51952],[15.11013,37.51954],[15.11009,37.51955],[15.10982,37.5196],[15.10974,37.51964],[15.10957,37.51969],[15.10943,37.51972],[15.1093,37.51972],[15.10922,37.51969],[15.1091,37.51962],[15.10882,37.51943],[15.10865,37.51929],[15.10852,37.51921],[15.10839,37.51904],[15.1082,37.51882],[15.10813,37.5187],[15.10804,37.51854],[15.10804,37.51846],[15.10803,37.51828],[15.108,37.51817],[15.10799,37.51806],[15.10801,37.51797],[15.1081,37.51766],[15.1082,37.5176],[15.10829,37.51735],[15.10843,37.51731],[15.10852,37.51718],[15.10854,37.51714],[15.10859,37.51715],[15.10863,37.51715],[15.10864,37.51709],[15.10874,37.51705],[15.10881,37.51689],[15.10891,37.51681],[15.109,37.5168],[15.10903,37.51673],[15.109,37.51667],[15.10902,37.51661],[15.10907,37.51652],[15.10922,37.51646],[15.10923,37.51642],[15.1092,37.5164],[15.10912,37.5164],[15.10907,37.51613],[15.10898,37.51588],[15.10891,37.51569],[15.10886,37.51559],[15.10875,37.51536],[15.10871,37.5153],[15.1086,37.51506],[15.10851,37.51504],[15.10846,37.51496],[15.10841,37.51484],[15.10838,37.51477],[15.10815,37.51447],[15.10785,37.51408],[15.10748,37.51368],[15.10737,37.51361],[15.10735,37.51354],[15.10723,37.51347],[15.10702,37.51323],[15.10668,37.51316],[15.1066,37.51307],[15.10633,37.51306],[15.10612,37.51303],[15.10607,37.51306],[15.1058,37.51306],[15.10567,37.51304],[15.10552,37.513],[15.10539,37.51296],[15.1053,37.51292],[15.10517,37.51279],[15.10505,37.51257],[15.10509,37.51238],[15.10503,37.51233],[15.10499,37.51234],[15.10493,37.51227],[15.10493,37.51224],[15.10502,37.51222],[15.10513,37.51213],[15.1052,37.5121],[15.1052,37.51205],[15.10519,37.51201],[15.10517,37.51196],[15.10489,37.51198],[15.10485,37.51192],[15.10488,37.51178],[15.10502,37.51175],[15.10505,37.51172],[15.10513,37.51173],[15.10532,37.51165],[15.10538,37.51167],[15.10545,37.51165],[15.10543,37.51159],[15.10528,37.51155],[15.10516,37.51159],[15.10505,37.51153],[15.10483,37.51153],[15.10478,37.51149],[15.10482,37.51144],[15.10497,37.51143],[15.1051,37.51136],[15.1053,37.51124],[15.10516,37.51125],[15.10517,37.5112],[15.10526,37.5112],[15.10534,37.51117],[15.10534,37.51114],[15.10529,37.51112],[15.10524,37.51115],[15.10518,37.51114],[15.10524,37.51107],[15.10527,37.51105],[15.10528,37.51101],[15.10527,37.51098],[15.10532,37.51096],[15.1053,37.51094],[15.10519,37.51093],[15.10516,37.51084],[15.10511,37.51083],[15.10506,37.51087],[15.10502,37.51085],[15.105,37.51079],[15.10507,37.51074],[15.10506,37.51069],[15.105,37.51067],[15.10497,37.51069],[15.10485,37.51071],[15.10478,37.51058],[15.10478,37.51051],[15.10476,37.5104],[15.10476,37.51037],[15.10483,37.5103],[15.10486,37.51024],[15.10495,37.5101],[15.10494,37.51006],[15.10489,37.51005],[15.10488,37.51001],[15.10485,37.50999],[15.10485,37.50964],[15.10487,37.5096],[15.10494,37.50956],[15.10495,37.50949],[15.10495,37.50941],[15.10497,37.50932],[15.10493,37.50929],[15.10488,37.50925],[15.1049,37.50908],[15.10504,37.50901],[15.10498,37.509],[15.10497,37.50896],[15.10491,37.50891],[15.1048,37.50882],[15.10476,37.50876],[15.10477,37.50871],[15.10482,37.50869],[15.10489,37.50866],[15.10495,37.50862],[15.10493,37.50859],[15.10484,37.50855],[15.10481,37.50849],[15.10493,37.50848],[15.10498,37.50843],[15.10498,37.5084],[15.10493,37.50839],[15.1049,37.50821],[15.10478,37.50822],[15.10478,37.50827],[15.10476,37.5083],[15.10469,37.5083],[15.10468,37.50822],[15.10461,37.50818],[15.10455,37.50815],[15.10454,37.50808],[15.10449,37.50797],[15.1045,37.50792],[15.1046,37.50779],[15.10432,37.50774],[15.10423,37.50769],[15.10405,37.50769],[15.1041,37.50764],[15.10401,37.50759],[15.104,37.50752],[15.10392,37.50753],[15.10387,37.5075],[15.10393,37.50743],[15.1039,37.50741],[15.10395,37.50734],[15.10388,37.50732],[15.10379,37.50737],[15.10374,37.50735],[15.10374,37.50723],[15.10362,37.5071],[15.10356,37.5071],[15.10355,37.50707],[15.1036,37.50701],[15.10366,37.507],[15.10375,37.50692],[15.10375,37.50687],[15.10353,37.50689],[15.10349,37.50692],[15.10343,37.50689],[15.10325,37.50685],[15.10316,37.50685],[15.10312,37.50679],[15.10304,37.50673],[15.103,37.50673],[15.103,37.50665],[15.10308,37.50659],[15.10304,37.50655],[15.10296,37.50657],[15.10287,37.5065],[15.10277,37.50645],[15.10274,37.50633],[15.10267,37.50632],[15.1026,37.50634],[15.10254,37.50635],[15.10248,37.50634],[15.10244,37.50632],[15.10239,37.50625],[15.10239,37.50621],[15.10235,37.50613],[15.10231,37.50611],[15.10221,37.50608],[15.10215,37.50611],[15.10211,37.50612],[15.10202,37.50603],[15.10186,37.50607],[15.10184,37.50605],[15.1018,37.50604],[15.10167,37.50601],[15.10161,37.50606],[15.10148,37.5061],[15.10132,37.50603],[15.10127,37.50608],[15.10122,37.50607],[15.10115,37.50605],[15.1011,37.50602],[15.10107,37.50599],[15.10111,37.50592],[15.10123,37.50595],[15.10122,37.50585],[15.10115,37.50587],[15.10107,37.50583],[15.10089,37.50587],[15.10092,37.50577],[15.10078,37.50579],[15.10079,37.50586],[15.10071,37.50591],[15.10071,37.50599],[15.10067,37.50603],[15.10058,37.50605],[15.10053,37.50604],[15.10048,37.50601],[15.10036,37.50603],[15.10031,37.50602],[15.10027,37.50599],[15.09794,37.50611],[15.09818,37.50636],[15.09861,37.50683],[15.09771,37.5068],[15.0977,37.50713],[15.09769,37.50767],[15.09767,37.50842],[15.09715,37.50839],[15.0969,37.50839],[15.09607,37.50832],[15.09562,37.5083],[15.09462,37.50824],[15.09451,37.50886],[15.09445,37.50913],[15.09421,37.5105],[15.09411,37.51111],[15.09402,37.51153],[15.09396,37.51198],[15.09387,37.51239],[15.09375,37.51305],[15.09364,37.51358],[15.0934,37.5148],[15.09441,37.51496],[15.09603,37.51523],[15.09616,37.51524],[15.09716,37.51545],[15.09723,37.51545],[15.09794,37.51556],[15.09843,37.51564],[15.0987,37.5157],[15.09852,37.51646],[15.09836,37.51711],[15.09822,37.51771],[15.09806,37.51838],[15.09759,37.51831],[15.09716,37.51825],[15.09681,37.51821],[15.09674,37.51877],[15.09673,37.51894],[15.09667,37.5193],[15.09659,37.51985],[15.0965,37.52035],[15.0965,37.52038],[15.09643,37.5209],[15.09635,37.52145],[15.09635,37.52148],[15.09628,37.52201],[15.09627,37.52204],[15.09619,37.52252],[15.09618,37.52255],[15.0961,37.52316],[15.09592,37.52427],[15.09576,37.5252],[15.09575,37.52527],[15.09567,37.52577],[15.0956,37.52616],[15.09542,37.52721],[15.09524,37.52762],[15.09465,37.52853],[15.09277,37.52832],[15.09254,37.52863],[15.09233,37.52859],[15.09198,37.52923],[15.09179,37.52957],[15.09135,37.53006],[15.09109,37.53017],[15.09233,37.53072],[15.09264,37.53112],[15.09454,37.53344],[15.09536,37.53424],[15.09583,37.53468],[15.0972,37.53605],[15.09734,37.5362],[15.09757,37.53639],[15.09798,37.53676],[15.09828,37.53662],[15.09841,37.53656],[15.09879,37.53642],[15.09895,37.5362],[15.09909,37.53585],[15.09937,37.53557],[15.09942,37.53551],[15.0999,37.53538],[15.10031,37.53521],[15.10068,37.535],[15.10089,37.53519],[15.10107,37.53535],[15.10099,37.53593],[15.10111,37.53638],[15.10134,37.53667],[15.10173,37.53691],[15.10213,37.5375],[15.10221,37.53763],[15.10232,37.53795],[15.10238,37.53817],[15.10242,37.53901],[15.10243,37.5393],[15.10245,37.53982],[15.10363,37.54018],[15.10378,37.54023],[15.10394,37.54029],[15.1043,37.54042],[15.10494,37.54061],[15.10526,37.54077],[15.10559,37.541],[15.10591,37.54115],[15.10599,37.54118],[15.10628,37.54128],[15.10655,37.54137],[15.10713,37.54154],[15.10774,37.54178],[15.10809,37.54193],[15.1084,37.54205],[15.10871,37.54237],[15.10911,37.5429],[15.10933,37.54325],[15.10939,37.54333],[15.10991,37.54396],[15.11003,37.5441],[15.11046,37.54437],[15.11108,37.54453],[15.11152,37.54466],[15.11199,37.54501],[15.11226,37.54526],[15.1124,37.5454],[15.11255,37.54554],[15.11272,37.54583],[15.11284,37.54602],[15.11299,37.54627],[15.1132,37.54667],[15.11348,37.54721],[15.11377,37.54741],[15.11417,37.54759],[15.11484,37.54794],[15.11548,37.54832],[15.11579,37.54853],[15.11627,37.54842],[15.1164,37.54839],[15.11688,37.54828],[15.11798,37.54811],[15.11841,37.54779],[15.11842,37.54724],[15.11837,37.54674],[15.11886,37.5465],[15.11889,37.54611],[15.11886,37.54549],[15.11932,37.54501],[15.11961,37.54466],[15.11965,37.54458],[15.11987,37.54409],[15.11996,37.5434],[15.12003,37.54283],[15.12007,37.5425],[15.12044,37.54229],[15.12056,37.54224],[15.12084,37.54212],[15.121,37.54206],[15.12107,37.54183],[15.12112,37.54164],[15.12114,37.54157],[15.1216,37.54078],[15.12186,37.54051],[15.1222,37.54016],[15.12223,37.54013],[15.12269,37.53969],[15.12283,37.53959],[15.12285,37.53958],[15.12331,37.53922],[15.12388,37.53867],[15.12389,37.53864],[15.12425,37.538],[15.12489,37.53736],[15.12495,37.53729],[15.12542,37.53673],[15.12564,37.53629],[15.12569,37.53578],[15.12582,37.53526],[15.12585,37.53512],[15.12594,37.53465],[15.12581,37.53465],[15.12493,37.53468],[15.12487,37.53468]]]]}},{"type":"Feature","properties":{"nbhd_name":"Borgo-Sanzio","uesi_id":"ITA_R39230","nbhd_code":"ITA_R39230_4"},"geometry":{"type":"MultiPolygon","coordinates":[[[[15.09674,37.51877],[15.09681,37.51821],[15.09716,37.51825],[15.09759,37.51831],[15.09806,37.51838],[15.09822,37.51771],[15.09836,37.51711],[15.09852,37.51646],[15.0987,37.5157],[15.09843,37.51564],[15.09794,37.51556],[15.09723,37.51545],[15.09716,37.51545],[15.09616,37.51524],[15.09603,37.51523],[15.09441,37.51496],[15.0934,37.5148],[15.09364,37.51358],[15.09375,37.51305],[15.09387,37.51239],[15.09396,37.51198],[15.09402,37.51153],[15.09411,37.51111],[15.09359,37.51105],[15.09243,37.51088],[15.09072,37.51065],[15.0896,37.51053],[15.08869,37.5104],[15.08837,37.51037],[15.08839,37.5101],[15.08732,37.5099],[15.08687,37.50982],[15.08645,37.50974],[15.0864,37.50973],[15.0856,37.50958],[15.08555,37.50977],[15.08537,37.51055],[15.08527,37.51103],[15.08523,37.51112],[15.08509,37.51172],[15.08507,37.5118],[15.08501,37.51204],[15.08495,37.51231],[15.08473,37.51332],[15.08358,37.51312],[15.08352,37.51312],[15.08206,37.51288],[15.08106,37.51272],[15.0799,37.51251],[15.07898,37.51238],[15.07879,37.51235],[15.07806,37.51227],[15.07735,37.51261],[15.07685,37.51285],[15.07604,37.5132],[15.07609,37.51321],[15.07602,37.51334],[15.07578,37.51358],[15.07569,37.51369],[15.07538,37.51397],[15.07472,37.5145],[15.07469,37.51455],[15.07415,37.51494],[15.07243,37.51642],[15.07213,37.51654],[15.07072,37.51713],[15.07003,37.51742],[15.06964,37.51753],[15.06919,37.51777],[15.0691,37.51782],[15.06898,37.51798],[15.06873,37.5179],[15.06865,37.51789],[15.06859,37.51808],[15.06849,37.51831],[15.06853,37.51831],[15.06875,37.51836],[15.06896,37.51827],[15.06897,37.51884],[15.06898,37.51936],[15.06912,37.51986],[15.06916,37.51999],[15.06909,37.51998],[15.0689,37.52038],[15.06894,37.52043],[15.06914,37.52068],[15.06991,37.52106],[15.07001,37.52135],[15.06979,37.52204],[15.06977,37.52209],[15.06976,37.52214],[15.06967,37.52242],[15.06967,37.52261],[15.06974,37.52279],[15.06986,37.52313],[15.07048,37.52324],[15.07098,37.52335],[15.07138,37.52347],[15.07172,37.52362],[15.07193,37.52372],[15.07197,37.52374],[15.07343,37.52441],[15.07432,37.52481],[15.07499,37.52513],[15.07549,37.52534],[15.07585,37.52548],[15.07608,37.52557],[15.07625,37.52562],[15.07672,37.52574],[15.07779,37.52599],[15.07842,37.52617],[15.07862,37.52624],[15.07874,37.52624],[15.07939,37.52642],[15.07957,37.52649],[15.07984,37.52653],[15.08005,37.52659],[15.08039,37.52664],[15.08087,37.52673],[15.08129,37.5268],[15.08141,37.52682],[15.08247,37.52701],[15.08274,37.52704],[15.08283,37.52706],[15.08288,37.52715],[15.08362,37.52741],[15.08419,37.52763],[15.08431,37.52768],[15.0845,37.52776],[15.0848,37.52787],[15.08517,37.52797],[15.0857,37.52804],[15.08591,37.52806],[15.08624,37.52809],[15.08746,37.5281],[15.08849,37.52814],[15.08907,37.52815],[15.09172,37.5282],[15.09277,37.52832],[15.09465,37.52853],[15.09524,37.52762],[15.09542,37.52721],[15.0956,37.52616],[15.09567,37.52577],[15.09575,37.52527],[15.09576,37.5252],[15.09592,37.52427],[15.0961,37.52316],[15.09618,37.52255],[15.09619,37.52252],[15.09627,37.52204],[15.09628,37.52201],[15.09635,37.52148],[15.09635,37.52145],[15.09643,37.5209],[15.0965,37.52038],[15.0965,37.52035],[15.09659,37.51985],[15.09667,37.5193],[15.09673,37.51894],[15.09674,37.51877]]]]}},{"type":"Feature","properties":{"nbhd_name":"Barriera-Canalicchio","uesi_id":"ITA_R39230","nbhd_code":"ITA_R39230_5"},"geometry":{"type":"MultiPolygon","coordinates":[[[[15.0852,37.54584],[15.08567,37.54576],[15.08598,37.54579],[15.08605,37.54579],[15.08652,37.54553],[15.08726,37.54525],[15.08805,37.54509],[15.0887,37.54508],[15.08881,37.54508],[15.08921,37.54496],[15.08922,37.54459],[15.08954,37.54425],[15.09028,37.5435],[15.09019,37.5432],[15.09033,37.54273],[15.09035,37.54263],[15.09054,37.54172],[15.09042,37.54096],[15.09042,37.54038],[15.09043,37.54001],[15.09016,37.53977],[15.08992,37.53956],[15.08989,37.53953],[15.08986,37.5395],[15.0897,37.53934],[15.08973,37.53899],[15.08984,37.53873],[15.09018,37.5385],[15.09052,37.53855],[15.09098,37.53862],[15.09154,37.53849],[15.09192,37.53832],[15.09235,37.53802],[15.09284,37.53792],[15.09299,37.53793],[15.09323,37.53795],[15.09334,37.53796],[15.09351,37.53797],[15.0937,37.53797],[15.09373,37.53797],[15.09406,37.53796],[15.09441,37.53788],[15.09475,37.53765],[15.09512,37.5374],[15.09552,37.53714],[15.09611,37.53687],[15.09645,37.53683],[15.09684,37.53685],[15.09729,37.5369],[15.09783,37.53683],[15.09798,37.53676],[15.09757,37.53639],[15.09734,37.5362],[15.0972,37.53605],[15.09583,37.53468],[15.09536,37.53424],[15.09454,37.53344],[15.09264,37.53112],[15.09233,37.53072],[15.09109,37.53017],[15.09135,37.53006],[15.09179,37.52957],[15.09198,37.52923],[15.09233,37.52859],[15.09254,37.52863],[15.09277,37.52832],[15.09172,37.5282],[15.08907,37.52815],[15.08849,37.52814],[15.08746,37.5281],[15.08624,37.52809],[15.08591,37.52806],[15.0857,37.52804],[15.08517,37.52797],[15.0848,37.52787],[15.0845,37.52776],[15.08431,37.52768],[15.08419,37.52763],[15.08362,37.52741],[15.08288,37.52715],[15.08283,37.52706],[15.08274,37.52704],[15.08247,37.52701],[15.08141,37.52682],[15.08129,37.5268],[15.08087,37.52673],[15.08039,37.52664],[15.08005,37.52659],[15.07984,37.52653],[15.07957,37.52649],[15.07939,37.52642],[15.07874,37.52624],[15.07862,37.52624],[15.07842,37.52617],[15.07779,37.52599],[15.07672,37.52574],[15.07625,37.52562],[15.07608,37.52557],[15.07585,37.52548],[15.07549,37.52534],[15.07499,37.52513],[15.07432,37.52481],[15.07343,37.52441],[15.07197,37.52374],[15.07193,37.52372],[15.07172,37.52362],[15.07138,37.52347],[15.07098,37.52335],[15.07048,37.52324],[15.06986,37.52313],[15.06986,37.5232],[15.06984,37.52334],[15.0698,37.52354],[15.0698,37.52378],[15.06974,37.52393],[15.06964,37.52416],[15.06949,37.52442],[15.06942,37.52455],[15.06929,37.52482],[15.06929,37.52495],[15.06936,37.52532],[15.06935,37.52537],[15.06933,37.52543],[15.06931,37.52555],[15.06925,37.52567],[15.06925,37.5258],[15.06931,37.52594],[15.06954,37.52644],[15.06952,37.52649],[15.0695,37.52655],[15.06952,37.52667],[15.06954,37.52729],[15.06956,37.52764],[15.06957,37.52773],[15.06955,37.52788],[15.06954,37.52802],[15.06946,37.52815],[15.06936,37.52828],[15.06925,37.52838],[15.06909,37.52853],[15.06891,37.52872],[15.06883,37.52886],[15.06871,37.52904],[15.0686,37.52917],[15.06853,37.5293],[15.06845,37.5295],[15.06839,37.52969],[15.06827,37.52991],[15.06818,37.5301],[15.06809,37.53022],[15.06785,37.53061],[15.06762,37.53106],[15.06757,37.53117],[15.06746,37.53141],[15.06737,37.53174],[15.06734,37.53191],[15.06738,37.53207],[15.06745,37.53224],[15.06753,37.53241],[15.0676,37.53253],[15.06767,37.53264],[15.06775,37.53272],[15.06784,37.53285],[15.06788,37.53293],[15.06788,37.53302],[15.06788,37.53308],[15.06786,37.53315],[15.0678,37.53326],[15.06769,37.53336],[15.06753,37.53349],[15.06745,37.53353],[15.06732,37.53369],[15.06722,37.53386],[15.06718,37.53409],[15.06716,37.53427],[15.06716,37.53455],[15.06718,37.53468],[15.06721,37.53485],[15.06722,37.53524],[15.06725,37.53546],[15.06727,37.53568],[15.06729,37.53587],[15.06731,37.53606],[15.06741,37.53637],[15.06747,37.53659],[15.06751,37.53673],[15.0675,37.53683],[15.06747,37.53695],[15.06742,37.53715],[15.06738,37.5373],[15.06736,37.53747],[15.06736,37.53762],[15.06738,37.53772],[15.0674,37.53783],[15.06745,37.53799],[15.0675,37.53819],[15.06748,37.53832],[15.06747,37.53843],[15.06744,37.53858],[15.06743,37.53865],[15.06748,37.53865],[15.06763,37.53863],[15.06855,37.53844],[15.06932,37.53822],[15.07008,37.53811],[15.07127,37.53813],[15.07124,37.5382],[15.07122,37.53823],[15.07094,37.53882],[15.07096,37.53894],[15.07103,37.53937],[15.07099,37.5395],[15.07087,37.53995],[15.07085,37.53998],[15.07068,37.54018],[15.07035,37.54057],[15.07021,37.54069],[15.07002,37.54084],[15.06995,37.54091],[15.06969,37.54114],[15.06931,37.54165],[15.06921,37.54187],[15.06918,37.54193],[15.06904,37.54223],[15.06912,37.54264],[15.06937,37.54311],[15.07005,37.54316],[15.07065,37.54301],[15.07072,37.54303],[15.07075,37.54305],[15.0709,37.5431],[15.07116,37.5432],[15.07127,37.54327],[15.07153,37.54343],[15.07167,37.54352],[15.07226,37.54376],[15.07279,37.54387],[15.07337,37.54372],[15.07353,37.54368],[15.07365,37.54364],[15.07465,37.54334],[15.07624,37.54314],[15.07664,37.54316],[15.07692,37.54331],[15.07723,37.54349],[15.07799,37.5437],[15.07846,37.54403],[15.07864,37.54415],[15.07867,37.54417],[15.07866,37.54409],[15.07854,37.54332],[15.07852,37.54312],[15.07845,37.54251],[15.07867,37.54203],[15.07869,37.542],[15.07877,37.54183],[15.0795,37.54121],[15.08045,37.54085],[15.08086,37.54067],[15.08124,37.5405],[15.08156,37.54029],[15.08163,37.54025],[15.08179,37.54062],[15.08184,37.54074],[15.0819,37.54088],[15.08203,37.54115],[15.08219,37.5415],[15.08263,37.54185],[15.08273,37.54194],[15.08337,37.54253],[15.08377,37.54345],[15.08401,37.54411],[15.08412,37.54464],[15.08423,37.54498],[15.0843,37.54525],[15.08461,37.54571],[15.0852,37.54584]]]]}},{"type":"Feature","properties":{"nbhd_name":"San Giovanni Galermo","uesi_id":"ITA_R39230","nbhd_code":"ITA_R39230_6"},"geometry":{"type":"MultiPolygon","coordinates":[[[[15.048,37.56079],[15.04808,37.56053],[15.04817,37.56019],[15.04837,37.55939],[15.04859,37.55877],[15.04867,37.55855],[15.04881,37.55817],[15.04886,37.55817],[15.04977,37.55821],[15.0499,37.55822],[15.05042,37.55823],[15.05047,37.55823],[15.05055,37.55823],[15.0509,37.55824],[15.05094,37.55824],[15.05093,37.5582],[15.05085,37.55797],[15.05082,37.55787],[15.05073,37.55736],[15.05123,37.55722],[15.05169,37.55716],[15.0522,37.55709],[15.0526,37.55695],[15.05292,37.5568],[15.05323,37.55665],[15.05394,37.55619],[15.05433,37.55587],[15.05437,37.55583],[15.05456,37.55532],[15.05461,37.55529],[15.05477,37.55511],[15.05535,37.55492],[15.05586,37.55479],[15.05649,37.5546],[15.05692,37.55397],[15.05695,37.55393],[15.05698,37.55369],[15.05701,37.55354],[15.05676,37.55288],[15.05678,37.55281],[15.05683,37.55272],[15.05696,37.5524],[15.05741,37.55152],[15.0577,37.55104],[15.05816,37.55113],[15.05846,37.55117],[15.05857,37.55118],[15.05881,37.5508],[15.05881,37.55075],[15.0588,37.55045],[15.05883,37.54993],[15.05898,37.54917],[15.05912,37.5485],[15.05919,37.54813],[15.0592,37.54806],[15.05923,37.54792],[15.05916,37.54742],[15.05871,37.54657],[15.05851,37.54602],[15.05861,37.5457],[15.05873,37.54548],[15.05884,37.54527],[15.05914,37.54493],[15.0592,37.54456],[15.05882,37.54452],[15.05838,37.54473],[15.05802,37.5445],[15.0579,37.54442],[15.05763,37.54436],[15.05759,37.54436],[15.05729,37.5443],[15.05687,37.54442],[15.05658,37.54452],[15.05592,37.54452],[15.05566,37.54415],[15.05587,37.54368],[15.05627,37.54316],[15.0565,37.54288],[15.05674,37.54258],[15.05723,37.54189],[15.05774,37.54122],[15.05819,37.54087],[15.05766,37.54105],[15.05743,37.54116],[15.05709,37.54121],[15.05661,37.54129],[15.05643,37.54133],[15.05627,37.54133],[15.05606,37.54132],[15.05585,37.54129],[15.05573,37.54127],[15.05561,37.5412],[15.05554,37.54114],[15.05551,37.54109],[15.05549,37.54106],[15.0555,37.541],[15.0555,37.54096],[15.0555,37.54089],[15.05553,37.54082],[15.05557,37.54074],[15.05561,37.54069],[15.05583,37.54014],[15.05611,37.53927],[15.05522,37.53972],[15.05466,37.54009],[15.05411,37.54027],[15.05356,37.54037],[15.05296,37.54046],[15.05259,37.54045],[15.05161,37.54006],[15.05082,37.53983],[15.05049,37.54001],[15.05013,37.54045],[15.04989,37.54035],[15.0497,37.53993],[15.04961,37.53953],[15.04958,37.53937],[15.04955,37.53915],[15.04954,37.53904],[15.04938,37.53872],[15.04934,37.53866],[15.04925,37.5382],[15.04939,37.53787],[15.04949,37.53763],[15.04943,37.53718],[15.04927,37.53716],[15.04907,37.53715],[15.04854,37.53728],[15.04844,37.53726],[15.04814,37.53722],[15.04808,37.53736],[15.04802,37.53754],[15.04792,37.53787],[15.04779,37.53811],[15.04843,37.53823],[15.04845,37.5385],[15.04843,37.53883],[15.0484,37.53927],[15.04827,37.53956],[15.04822,37.53965],[15.04807,37.54002],[15.04751,37.54057],[15.04735,37.54112],[15.04728,37.54163],[15.04704,37.5421],[15.0467,37.5426],[15.04668,37.54263],[15.0464,37.54307],[15.04639,37.54311],[15.04622,37.54352],[15.04606,37.54356],[15.04579,37.54363],[15.04562,37.54367],[15.04513,37.54371],[15.04475,37.544],[15.04442,37.54421],[15.04421,37.54435],[15.04364,37.54477],[15.04361,37.5448],[15.04299,37.54525],[15.04239,37.54575],[15.04184,37.54611],[15.04151,37.54626],[15.04128,37.54636],[15.04064,37.54656],[15.04026,37.54647],[15.03982,37.54664],[15.03948,37.54692],[15.03907,37.54728],[15.03868,37.54767],[15.03859,37.54812],[15.03817,37.54852],[15.03762,37.54865],[15.03715,37.54879],[15.03715,37.54923],[15.0372,37.54966],[15.03699,37.54984],[15.03655,37.54991],[15.03614,37.55018],[15.03557,37.55043],[15.03617,37.55067],[15.03646,37.55106],[15.03668,37.5514],[15.0371,37.55166],[15.03742,37.55236],[15.0375,37.55263],[15.03755,37.55279],[15.03765,37.5532],[15.03765,37.55334],[15.03772,37.55448],[15.03775,37.55457],[15.03794,37.5551],[15.038,37.55537],[15.03804,37.55555],[15.03853,37.55583],[15.03905,37.55586],[15.03952,37.55584],[15.03992,37.55579],[15.04003,37.55593],[15.04033,37.55629],[15.04041,37.55678],[15.04042,37.55684],[15.0406,37.55753],[15.0407,37.55806],[15.04081,37.55867],[15.04069,37.55917],[15.04031,37.55956],[15.03985,37.56008],[15.03958,37.56061],[15.03961,37.56114],[15.03986,37.56154],[15.04016,37.56172],[15.04082,37.5619],[15.04133,37.56188],[15.04186,37.56174],[15.04218,37.56144],[15.04247,37.56111],[15.04294,37.56068],[15.04328,37.5608],[15.04349,37.56088],[15.04391,37.56076],[15.04396,37.56086],[15.04418,37.56134],[15.04398,37.56189],[15.04364,37.56244],[15.04441,37.56235],[15.04526,37.56231],[15.04588,37.5622],[15.0465,37.56214],[15.04702,37.56209],[15.04732,37.56195],[15.04769,37.56185],[15.04774,37.56168],[15.04789,37.56119],[15.048,37.56079]]]]}},{"type":"Feature","properties":{"nbhd_name":"Trappeto-Cibali","uesi_id":"ITA_R39230","nbhd_code":"ITA_R39230_7"},"geometry":{"type":"MultiPolygon","coordinates":[[[[15.06067,37.53948],[15.06088,37.53891],[15.06089,37.53888],[15.0614,37.53878],[15.06211,37.53871],[15.06222,37.53869],[15.06237,37.53865],[15.06248,37.53862],[15.0629,37.53851],[15.06328,37.53847],[15.06373,37.53843],[15.06469,37.53839],[15.06539,37.53862],[15.06574,37.53866],[15.06656,37.53875],[15.06743,37.53865],[15.06744,37.53858],[15.06747,37.53843],[15.06748,37.53832],[15.0675,37.53819],[15.06745,37.53799],[15.0674,37.53783],[15.06738,37.53772],[15.06736,37.53762],[15.06736,37.53747],[15.06738,37.5373],[15.06742,37.53715],[15.06747,37.53695],[15.0675,37.53683],[15.06751,37.53673],[15.06747,37.53659],[15.06741,37.53637],[15.06731,37.53606],[15.06729,37.53587],[15.06727,37.53568],[15.06725,37.53546],[15.06722,37.53524],[15.06721,37.53485],[15.06718,37.53468],[15.06716,37.53455],[15.06716,37.53427],[15.06718,37.53409],[15.06722,37.53386],[15.06732,37.53369],[15.06745,37.53353],[15.06753,37.53349],[15.06769,37.53336],[15.0678,37.53326],[15.06786,37.53315],[15.06788,37.53308],[15.06788,37.53302],[15.06788,37.53293],[15.06784,37.53285],[15.06775,37.53272],[15.06767,37.53264],[15.0676,37.53253],[15.06753,37.53241],[15.06745,37.53224],[15.06738,37.53207],[15.06734,37.53191],[15.06737,37.53174],[15.06746,37.53141],[15.06757,37.53117],[15.06762,37.53106],[15.06785,37.53061],[15.06809,37.53022],[15.06818,37.5301],[15.06827,37.52991],[15.06839,37.52969],[15.06845,37.5295],[15.06853,37.5293],[15.0686,37.52917],[15.06871,37.52904],[15.06883,37.52886],[15.06891,37.52872],[15.06909,37.52853],[15.06925,37.52838],[15.06936,37.52828],[15.06946,37.52815],[15.06954,37.52802],[15.06955,37.52788],[15.06957,37.52773],[15.06956,37.52764],[15.06954,37.52729],[15.06952,37.52667],[15.0695,37.52655],[15.06952,37.52649],[15.06954,37.52644],[15.06931,37.52594],[15.06925,37.5258],[15.06925,37.52567],[15.06931,37.52555],[15.06933,37.52543],[15.06935,37.52537],[15.06936,37.52532],[15.06929,37.52495],[15.06929,37.52482],[15.06942,37.52455],[15.06949,37.52442],[15.06964,37.52416],[15.06974,37.52393],[15.0698,37.52378],[15.0698,37.52354],[15.06984,37.52334],[15.06986,37.5232],[15.06986,37.52313],[15.06974,37.52279],[15.06967,37.52261],[15.06967,37.52242],[15.06976,37.52214],[15.06977,37.52209],[15.06979,37.52204],[15.07001,37.52135],[15.06991,37.52106],[15.06914,37.52068],[15.06894,37.52043],[15.0689,37.52038],[15.06909,37.51998],[15.06916,37.51999],[15.06912,37.51986],[15.06898,37.51936],[15.06897,37.51884],[15.06896,37.51827],[15.06875,37.51836],[15.06853,37.51831],[15.06849,37.51831],[15.06859,37.51808],[15.06865,37.51789],[15.06873,37.5179],[15.06898,37.51798],[15.0691,37.51782],[15.06919,37.51777],[15.06964,37.51753],[15.07003,37.51742],[15.07072,37.51713],[15.07213,37.51654],[15.07243,37.51642],[15.07415,37.51494],[15.07469,37.51455],[15.07472,37.5145],[15.07538,37.51397],[15.07569,37.51369],[15.07578,37.51358],[15.07602,37.51334],[15.07609,37.51321],[15.07604,37.5132],[15.07685,37.51285],[15.07735,37.51261],[15.07806,37.51227],[15.07585,37.51189],[15.07509,37.51176],[15.07472,37.51173],[15.0738,37.51158],[15.07242,37.51137],[15.07235,37.51135],[15.07124,37.51117],[15.07047,37.51105],[15.06973,37.51094],[15.06882,37.51079],[15.06856,37.51074],[15.06765,37.51061],[15.06741,37.51142],[15.06722,37.51206],[15.06687,37.51187],[15.06638,37.51174],[15.06632,37.51168],[15.06615,37.5115],[15.06559,37.51081],[15.06541,37.51057],[15.06543,37.51022],[15.06518,37.51042],[15.06487,37.51059],[15.06469,37.51067],[15.06453,37.51087],[15.06439,37.51103],[15.06211,37.5131],[15.06173,37.51361],[15.0613,37.51447],[15.06131,37.51458],[15.06103,37.51475],[15.06061,37.51477],[15.06052,37.51487],[15.06062,37.515],[15.0605,37.51524],[15.05925,37.51541],[15.05861,37.51497],[15.0584,37.51487],[15.05835,37.51471],[15.05775,37.51453],[15.05741,37.51444],[15.05723,37.5144],[15.05642,37.51404],[15.05609,37.51401],[15.056,37.51461],[15.05549,37.5146],[15.05559,37.51439],[15.05471,37.51396],[15.05412,37.51371],[15.05517,37.51641],[15.05508,37.51687],[15.05569,37.51706],[15.05565,37.51806],[15.05582,37.51846],[15.05592,37.51852],[15.05612,37.51868],[15.05623,37.51886],[15.05618,37.51908],[15.05621,37.5193],[15.05632,37.51937],[15.05643,37.5195],[15.05643,37.52016],[15.05629,37.52016],[15.05592,37.5201],[15.05384,37.51971],[15.0528,37.51949],[15.05272,37.51949],[15.05255,37.51945],[15.0522,37.51933],[15.05189,37.51912],[15.05167,37.51889],[15.05146,37.51853],[15.05142,37.51838],[15.0513,37.51807],[15.05112,37.51766],[15.05108,37.51761],[15.05097,37.51746],[15.05062,37.51718],[15.05009,37.5169],[15.04992,37.51682],[15.05026,37.51853],[15.05042,37.51937],[15.05071,37.51943],[15.05087,37.51953],[15.05106,37.51975],[15.05104,37.51993],[15.05098,37.52032],[15.05115,37.52069],[15.05114,37.52089],[15.05137,37.52139],[15.05139,37.52147],[15.05124,37.52163],[15.05119,37.5218],[15.0509,37.52193],[15.05077,37.5221],[15.05093,37.52223],[15.05127,37.5224],[15.0518,37.52276],[15.05123,37.52376],[15.05147,37.52502],[15.05151,37.52502],[15.05174,37.52496],[15.05202,37.52488],[15.05275,37.52482],[15.05353,37.52504],[15.05359,37.52505],[15.05372,37.52541],[15.05382,37.52567],[15.0539,37.52589],[15.05402,37.52647],[15.05398,37.52673],[15.05397,37.52676],[15.05396,37.52687],[15.05398,37.52737],[15.05402,37.52771],[15.0539,37.52778],[15.05372,37.5279],[15.05338,37.52812],[15.053,37.52838],[15.05306,37.52859],[15.05304,37.52885],[15.05276,37.52909],[15.05254,37.52943],[15.05257,37.52969],[15.05267,37.52992],[15.05267,37.53003],[15.05268,37.53024],[15.05241,37.53039],[15.05232,37.53044],[15.05198,37.53053],[15.05204,37.53086],[15.05192,37.5311],[15.05177,37.5313],[15.05146,37.53142],[15.05127,37.53148],[15.05113,37.53151],[15.05114,37.53188],[15.05128,37.53196],[15.05152,37.53207],[15.05211,37.53218],[15.05212,37.5323],[15.05215,37.53262],[15.0523,37.53257],[15.05252,37.5325],[15.05271,37.53249],[15.05312,37.53249],[15.05336,37.53249],[15.05376,37.5328],[15.05382,37.53286],[15.05408,37.53318],[15.05414,37.53322],[15.05469,37.5334],[15.05506,37.53353],[15.05522,37.53362],[15.05536,37.5337],[15.0556,37.53349],[15.05565,37.53354],[15.05584,37.53369],[15.05594,37.53378],[15.05613,37.53393],[15.05624,37.53399],[15.0562,37.53406],[15.05602,37.53421],[15.05613,37.53433],[15.05607,37.53469],[15.05551,37.53545],[15.05552,37.53552],[15.05553,37.53561],[15.05554,37.5359],[15.05554,37.53599],[15.05555,37.53608],[15.05556,37.53648],[15.05558,37.53669],[15.0556,37.53692],[15.05559,37.53706],[15.05559,37.53713],[15.05557,37.53753],[15.05557,37.53757],[15.0556,37.53813],[15.0556,37.53883],[15.05559,37.53893],[15.05558,37.53921],[15.05539,37.53948],[15.05522,37.53972],[15.05611,37.53927],[15.05583,37.54014],[15.05561,37.54069],[15.05557,37.54074],[15.05553,37.54082],[15.0555,37.54089],[15.0555,37.54096],[15.0555,37.541],[15.05549,37.54106],[15.05551,37.54109],[15.05554,37.54114],[15.05561,37.5412],[15.05573,37.54127],[15.05585,37.54129],[15.05606,37.54132],[15.05627,37.54133],[15.05643,37.54133],[15.05661,37.54129],[15.05709,37.54121],[15.05743,37.54116],[15.05766,37.54105],[15.05819,37.54087],[15.05821,37.54084],[15.05827,37.54079],[15.05859,37.54063],[15.05884,37.54051],[15.05932,37.54033],[15.05956,37.54024],[15.05995,37.54003],[15.05998,37.54001],[15.06046,37.53965],[15.06067,37.53948]]]]}},{"type":"Feature","properties":{"nbhd_name":"Monte Po-Nesima","uesi_id":"ITA_R39230","nbhd_code":"ITA_R39230_8"},"geometry":{"type":"MultiPolygon","coordinates":[[[[15.05123,37.52376],[15.0518,37.52276],[15.05127,37.5224],[15.05093,37.52223],[15.05077,37.5221],[15.0509,37.52193],[15.05119,37.5218],[15.05124,37.52163],[15.05139,37.52147],[15.05137,37.52139],[15.05114,37.52089],[15.05115,37.52069],[15.05098,37.52032],[15.05104,37.51993],[15.05106,37.51975],[15.05087,37.51953],[15.05071,37.51943],[15.05042,37.51937],[15.05026,37.51853],[15.04992,37.51682],[15.05009,37.5169],[15.05062,37.51718],[15.05097,37.51746],[15.05108,37.51761],[15.05112,37.51766],[15.0513,37.51807],[15.05142,37.51838],[15.05146,37.51853],[15.05167,37.51889],[15.05189,37.51912],[15.0522,37.51933],[15.05255,37.51945],[15.05272,37.51949],[15.0528,37.51949],[15.05384,37.51971],[15.05592,37.5201],[15.05629,37.52016],[15.05643,37.52016],[15.05643,37.5195],[15.05632,37.51937],[15.05621,37.5193],[15.05618,37.51908],[15.05623,37.51886],[15.05612,37.51868],[15.05592,37.51852],[15.05582,37.51846],[15.05565,37.51806],[15.05569,37.51706],[15.05508,37.51687],[15.05517,37.51641],[15.05412,37.51371],[15.0543,37.51337],[15.05441,37.51334],[15.05444,37.51303],[15.05461,37.51236],[15.05471,37.51194],[15.05493,37.51084],[15.05446,37.51077],[15.05267,37.51051],[15.0526,37.5105],[15.05175,37.51038],[15.05146,37.51032],[15.0507,37.51023],[15.05056,37.51022],[15.05057,37.50998],[15.05064,37.50932],[15.05068,37.5088],[15.0508,37.50772],[15.05052,37.50766],[15.04913,37.50745],[15.04897,37.50744],[15.04784,37.50726],[15.04668,37.50708],[15.04648,37.50763],[15.04643,37.50776],[15.04638,37.50791],[15.04625,37.50828],[15.04611,37.50915],[15.04563,37.50928],[15.0446,37.50959],[15.04425,37.50969],[15.04368,37.51005],[15.0433,37.50977],[15.04098,37.50786],[15.03133,37.50114],[15.03111,37.50129],[15.03095,37.5016],[15.03074,37.50199],[15.0306,37.50223],[15.03043,37.50257],[15.03018,37.50322],[15.03002,37.5037],[15.0299,37.50424],[15.0299,37.50428],[15.02995,37.50501],[15.03015,37.50537],[15.03025,37.50553],[15.03061,37.50599],[15.03077,37.50614],[15.03102,37.50637],[15.03153,37.50692],[15.03173,37.50714],[15.0319,37.50726],[15.03202,37.50736],[15.03257,37.50791],[15.03274,37.50828],[15.03279,37.50838],[15.03282,37.50844],[15.03316,37.50905],[15.0336,37.50977],[15.03367,37.50991],[15.0338,37.51017],[15.0342,37.51068],[15.03444,37.51078],[15.03464,37.51085],[15.03505,37.51082],[15.03533,37.51077],[15.03559,37.51072],[15.03618,37.51061],[15.03639,37.51063],[15.03654,37.51064],[15.03655,37.51071],[15.03661,37.51106],[15.03625,37.51123],[15.03561,37.51141],[15.03547,37.51148],[15.03509,37.5117],[15.03489,37.51193],[15.03483,37.51237],[15.03493,37.51275],[15.03531,37.51311],[15.03569,37.51348],[15.036,37.51388],[15.03626,37.51436],[15.03675,37.51457],[15.0371,37.51478],[15.0371,37.51507],[15.03698,37.51547],[15.03694,37.51582],[15.03692,37.51602],[15.03703,37.51665],[15.03717,37.51699],[15.03723,37.51715],[15.03726,37.51757],[15.03727,37.51769],[15.03733,37.5178],[15.03751,37.51812],[15.03809,37.51827],[15.03843,37.51834],[15.03855,37.51836],[15.03895,37.51844],[15.03929,37.51845],[15.03944,37.51846],[15.03952,37.51881],[15.03953,37.51884],[15.03955,37.51897],[15.04025,37.51931],[15.04032,37.51934],[15.04044,37.51941],[15.04112,37.51973],[15.04194,37.52023],[15.04211,37.52033],[15.04215,37.52035],[15.04261,37.52067],[15.04303,37.52103],[15.04328,37.52127],[15.04338,37.52138],[15.04386,37.52168],[15.04484,37.52213],[15.04483,37.52224],[15.04477,37.52266],[15.04474,37.52286],[15.04473,37.52291],[15.0447,37.52315],[15.04466,37.52341],[15.04459,37.52377],[15.04457,37.52436],[15.04451,37.52463],[15.04473,37.52485],[15.04508,37.52472],[15.04544,37.52448],[15.04593,37.52408],[15.04629,37.52361],[15.04651,37.52335],[15.04661,37.52324],[15.04708,37.52318],[15.04752,37.5234],[15.04794,37.52364],[15.04861,37.52397],[15.04935,37.5239],[15.05005,37.52371],[15.05038,37.52393],[15.05048,37.52423],[15.05059,37.52476],[15.05092,37.52503],[15.05147,37.52502],[15.05123,37.52376]]]]}},{"type":"Feature","properties":{"nbhd_name":"San Leone-Rapisardi","uesi_id":"ITA_R39230","nbhd_code":"ITA_R39230_9"},"geometry":{"type":"MultiPolygon","coordinates":[[[[15.06052,37.51487],[15.06061,37.51477],[15.06103,37.51475],[15.06131,37.51458],[15.0613,37.51447],[15.06173,37.51361],[15.06211,37.5131],[15.06439,37.51103],[15.06453,37.51087],[15.06469,37.51067],[15.06487,37.51059],[15.06518,37.51042],[15.06543,37.51022],[15.06541,37.51057],[15.06559,37.51081],[15.06615,37.5115],[15.06632,37.51168],[15.06638,37.51174],[15.06687,37.51187],[15.06722,37.51206],[15.06741,37.51142],[15.06765,37.51061],[15.06716,37.51051],[15.06724,37.50975],[15.06725,37.50971],[15.0673,37.50943],[15.06746,37.50828],[15.06842,37.5085],[15.06893,37.50822],[15.06926,37.50818],[15.06954,37.50798],[15.06979,37.50599],[15.06989,37.50546],[15.06995,37.50508],[15.07001,37.50461],[15.07002,37.50445],[15.0701,37.5038],[15.07023,37.5027],[15.0706,37.5026],[15.07098,37.50248],[15.07142,37.50205],[15.07148,37.50199],[15.07166,37.50178],[15.07187,37.50158],[15.07217,37.50122],[15.07218,37.50019],[15.07219,37.5],[15.0722,37.49985],[15.07218,37.49967],[15.07218,37.49942],[15.07217,37.49919],[15.07205,37.49905],[15.07181,37.49885],[15.07067,37.49863],[15.0694,37.49839],[15.07012,37.4964],[15.07017,37.49628],[15.07009,37.49624],[15.06995,37.49615],[15.06973,37.49603],[15.06973,37.49587],[15.06977,37.49576],[15.06982,37.49566],[15.06989,37.49553],[15.06995,37.49544],[15.07001,37.49537],[15.0701,37.49526],[15.07019,37.49521],[15.07029,37.49514],[15.07039,37.49507],[15.07056,37.49502],[15.07072,37.49437],[15.06906,37.4947],[15.0688,37.49474],[15.06846,37.49475],[15.06813,37.49476],[15.06785,37.4948],[15.06752,37.49491],[15.06729,37.49503],[15.0671,37.49511],[15.06702,37.49515],[15.06673,37.4954],[15.0657,37.49563],[15.06553,37.49591],[15.06425,37.49566],[15.06418,37.49572],[15.06401,37.49608],[15.06389,37.49624],[15.06377,37.49636],[15.0637,37.49646],[15.06349,37.49633],[15.06321,37.49619],[15.06311,37.49616],[15.0627,37.49607],[15.06247,37.49602],[15.06214,37.4959],[15.06168,37.49574],[15.06156,37.49572],[15.06138,37.49565],[15.06109,37.49562],[15.06091,37.49562],[15.05904,37.49548],[15.05821,37.49546],[15.05803,37.49555],[15.05782,37.49562],[15.0576,37.49563],[15.05741,37.49564],[15.05729,37.49563],[15.05724,37.49565],[15.05716,37.49569],[15.057,37.4958],[15.05684,37.49592],[15.05671,37.49604],[15.05656,37.49613],[15.05641,37.49621],[15.05598,37.49637],[15.05565,37.49648],[15.0556,37.49649],[15.05521,37.49659],[15.055,37.49664],[15.05486,37.49667],[15.05468,37.49668],[15.05433,37.49676],[15.05413,37.4968],[15.05385,37.49685],[15.05348,37.49696],[15.05318,37.49703],[15.05286,37.49709],[15.05273,37.49713],[15.05266,37.49714],[15.05217,37.49724],[15.05191,37.49731],[15.05169,37.49737],[15.05157,37.4974],[15.05089,37.49761],[15.05039,37.49777],[15.04982,37.49789],[15.04956,37.49798],[15.04931,37.49805],[15.04915,37.49812],[15.04904,37.49817],[15.04882,37.4982],[15.04858,37.4982],[15.04834,37.49817],[15.04806,37.49814],[15.04781,37.49812],[15.04751,37.49811],[15.04731,37.49811],[15.04706,37.49818],[15.04689,37.49825],[15.0468,37.49824],[15.04658,37.49818],[15.04631,37.49811],[15.04608,37.49808],[15.04589,37.49812],[15.0457,37.49816],[15.04544,37.49815],[15.04522,37.49813],[15.04502,37.49812],[15.04487,37.49818],[15.0447,37.49822],[15.04456,37.49824],[15.04422,37.49819],[15.04392,37.49815],[15.0438,37.49812],[15.04359,37.49816],[15.04337,37.49816],[15.0431,37.49808],[15.04285,37.49805],[15.04262,37.49803],[15.04239,37.49806],[15.04209,37.4982],[15.04206,37.49822],[15.04171,37.49839],[15.04134,37.49864],[15.04081,37.499],[15.04016,37.49941],[15.03989,37.49958],[15.03972,37.49967],[15.03943,37.49978],[15.03919,37.49989],[15.03902,37.5001],[15.03885,37.50027],[15.03865,37.50039],[15.03841,37.5005],[15.03824,37.50057],[15.03815,37.50064],[15.0381,37.50071],[15.03808,37.50079],[15.03808,37.50084],[15.03801,37.50086],[15.03779,37.50094],[15.03775,37.50096],[15.03721,37.50113],[15.03645,37.50132],[15.03598,37.50141],[15.03553,37.50145],[15.03514,37.50144],[15.03478,37.50144],[15.03473,37.50145],[15.03413,37.50143],[15.0336,37.50138],[15.03319,37.50133],[15.03287,37.50131],[15.03247,37.50125],[15.03212,37.50122],[15.0318,37.50113],[15.03157,37.50113],[15.03133,37.50114],[15.04098,37.50786],[15.0433,37.50977],[15.04368,37.51005],[15.04425,37.50969],[15.0446,37.50959],[15.04563,37.50928],[15.04611,37.50915],[15.04625,37.50828],[15.04638,37.50791],[15.04643,37.50776],[15.04648,37.50763],[15.04668,37.50708],[15.04784,37.50726],[15.04897,37.50744],[15.04913,37.50745],[15.05052,37.50766],[15.0508,37.50772],[15.05068,37.5088],[15.05064,37.50932],[15.05057,37.50998],[15.05056,37.51022],[15.0507,37.51023],[15.05146,37.51032],[15.05175,37.51038],[15.0526,37.5105],[15.05267,37.51051],[15.05446,37.51077],[15.05493,37.51084],[15.05471,37.51194],[15.05461,37.51236],[15.05444,37.51303],[15.05441,37.51334],[15.0543,37.51337],[15.05412,37.51371],[15.05471,37.51396],[15.05559,37.51439],[15.05549,37.5146],[15.056,37.51461],[15.05609,37.51401],[15.05642,37.51404],[15.05723,37.5144],[15.05741,37.51444],[15.05775,37.51453],[15.05835,37.51471],[15.0584,37.51487],[15.05861,37.51497],[15.05925,37.51541],[15.0605,37.51524],[15.06062,37.515],[15.06052,37.51487]]]]}},{"type":"Feature","properties":{"nbhd_name":"San Giorgio-Librino","uesi_id":"ITA_R39230","nbhd_code":"ITA_R39230_10"},"geometry":{"type":"MultiPolygon","coordinates":[[[[15.03598,37.50141],[15.03645,37.50132],[15.03721,37.50113],[15.03775,37.50096],[15.03779,37.50094],[15.03801,37.50086],[15.03808,37.50084],[15.03808,37.50079],[15.0381,37.50071],[15.03815,37.50064],[15.03824,37.50057],[15.03841,37.5005],[15.03865,37.50039],[15.03885,37.50027],[15.03902,37.5001],[15.03919,37.49989],[15.03943,37.49978],[15.03972,37.49967],[15.03989,37.49958],[15.04016,37.49941],[15.04081,37.499],[15.04134,37.49864],[15.04171,37.49839],[15.04206,37.49822],[15.04209,37.4982],[15.04239,37.49806],[15.04262,37.49803],[15.04285,37.49805],[15.0431,37.49808],[15.04337,37.49816],[15.04359,37.49816],[15.0438,37.49812],[15.04392,37.49815],[15.04422,37.49819],[15.04456,37.49824],[15.0447,37.49822],[15.04487,37.49818],[15.04502,37.49812],[15.04522,37.49813],[15.04544,37.49815],[15.0457,37.49816],[15.04589,37.49812],[15.04608,37.49808],[15.04631,37.49811],[15.04658,37.49818],[15.0468,37.49824],[15.04689,37.49825],[15.04706,37.49818],[15.04731,37.49811],[15.04751,37.49811],[15.04781,37.49812],[15.04806,37.49814],[15.04834,37.49817],[15.04858,37.4982],[15.04882,37.4982],[15.04904,37.49817],[15.04915,37.49812],[15.04931,37.49805],[15.04956,37.49798],[15.04982,37.49789],[15.05039,37.49777],[15.05089,37.49761],[15.05157,37.4974],[15.05169,37.49737],[15.05191,37.49731],[15.05217,37.49724],[15.05266,37.49714],[15.05273,37.49713],[15.05286,37.49709],[15.05318,37.49703],[15.05348,37.49696],[15.05385,37.49685],[15.05413,37.4968],[15.05433,37.49676],[15.05468,37.49668],[15.05486,37.49667],[15.055,37.49664],[15.05521,37.49659],[15.0556,37.49649],[15.05565,37.49648],[15.05598,37.49637],[15.05641,37.49621],[15.05656,37.49613],[15.05671,37.49604],[15.05684,37.49592],[15.057,37.4958],[15.05716,37.49569],[15.05724,37.49565],[15.05729,37.49563],[15.05741,37.49564],[15.0576,37.49563],[15.05782,37.49562],[15.05803,37.49555],[15.05821,37.49546],[15.05904,37.49548],[15.05904,37.49526],[15.05903,37.49485],[15.05902,37.49449],[15.05903,37.4943],[15.05902,37.49417],[15.05904,37.49398],[15.05906,37.49383],[15.05906,37.49353],[15.05906,37.49329],[15.05892,37.49308],[15.05882,37.49292],[15.05875,37.49281],[15.05871,37.49268],[15.05866,37.49247],[15.05866,37.4923],[15.05868,37.49208],[15.05847,37.49188],[15.0582,37.49162],[15.05813,37.49155],[15.05807,37.49148],[15.05797,37.49141],[15.05786,37.49117],[15.05771,37.49092],[15.05762,37.49064],[15.05751,37.49044],[15.05746,37.49031],[15.05738,37.49013],[15.05631,37.48868],[15.05625,37.48863],[15.05603,37.4885],[15.05579,37.48833],[15.05544,37.48809],[15.05516,37.48783],[15.05499,37.4877],[15.05485,37.48762],[15.05466,37.48754],[15.05446,37.48743],[15.05421,37.4873],[15.05399,37.48721],[15.05382,37.48717],[15.05359,37.48714],[15.05333,37.48707],[15.05369,37.48697],[15.0542,37.48694],[15.05478,37.48683],[15.05512,37.48674],[15.05532,37.48665],[15.05539,37.48661],[15.05577,37.48639],[15.05608,37.48606],[15.0582,37.48452],[15.05824,37.48456],[15.05892,37.48511],[15.05961,37.48513],[15.06023,37.48477],[15.06017,37.48468],[15.06007,37.48439],[15.05985,37.48411],[15.05997,37.48407],[15.06064,37.48354],[15.06103,37.48324],[15.06042,37.48278],[15.06281,37.48045],[15.06229,37.48014],[15.0641,37.4795],[15.06432,37.47953],[15.06471,37.47967],[15.06493,37.47966],[15.06601,37.47973],[15.06601,37.47956],[15.06211,37.47615],[15.05639,37.47125],[15.05295,37.46824],[15.05009,37.4657],[15.04866,37.46442],[15.04848,37.46426],[15.0482,37.4641],[15.04729,37.46333],[15.04671,37.46277],[15.04498,37.46157],[15.04407,37.46069],[15.04386,37.46085],[15.04319,37.45971],[15.04206,37.45879],[15.0418,37.45874],[15.04158,37.45863],[15.04132,37.45853],[15.04116,37.45845],[15.04107,37.45835],[15.04101,37.45825],[15.04094,37.45811],[15.04093,37.45797],[15.04093,37.45789],[15.0409,37.45779],[15.04067,37.45761],[15.04044,37.45746],[15.04014,37.45722],[15.03978,37.45693],[15.03947,37.45669],[15.0387,37.45597],[15.03814,37.45546],[15.03774,37.45511],[15.03719,37.45466],[15.0367,37.45423],[15.03634,37.45396],[15.03585,37.45365],[15.03557,37.45353],[15.03521,37.4534],[15.03503,37.4533],[15.03493,37.45322],[15.03488,37.45312],[15.03488,37.453],[15.03495,37.45279],[15.03506,37.45263],[15.03508,37.45256],[15.03445,37.45196],[15.03389,37.45144],[15.03387,37.45136],[15.03372,37.45089],[15.03354,37.45037],[15.0333,37.44987],[15.03295,37.44928],[15.03251,37.44868],[15.03199,37.44801],[15.03107,37.44688],[15.03091,37.44668],[15.03005,37.44727],[15.02793,37.44106],[15.02755,37.43989],[15.02584,37.4349],[15.02419,37.43005],[15.02316,37.42697],[15.02279,37.42587],[15.02236,37.42469],[15.0215,37.4223],[15.02105,37.42118],[15.02033,37.41951],[15.02017,37.41903],[15.01982,37.41835],[15.01972,37.41815],[15.0197,37.41811],[15.01856,37.41513],[15.01855,37.4151],[15.01566,37.40866],[15.01232,37.40202],[15.01027,37.39786],[15.00615,37.38902],[15.00513,37.38685],[14.99995,37.37624],[14.99812,37.37283],[14.99743,37.37287],[14.99673,37.37262],[14.99614,37.37222],[14.99554,37.37206],[14.99489,37.37202],[14.99431,37.37177],[14.99361,37.37175],[14.99279,37.37208],[14.99225,37.37239],[14.99178,37.37266],[14.99126,37.3731],[14.99028,37.37311],[14.98956,37.37306],[14.98859,37.37318],[14.98825,37.37349],[14.98773,37.37387],[14.98707,37.37412],[14.98629,37.37412],[14.98543,37.37388],[14.98482,37.3737],[14.98407,37.37357],[14.98288,37.3737],[14.98227,37.37383],[14.98141,37.37418],[14.98138,37.37462],[14.98171,37.37521],[14.98146,37.37636],[14.981,37.37677],[14.98032,37.3772],[14.97961,37.37731],[14.97887,37.37759],[14.97849,37.37804],[14.97796,37.37856],[14.97743,37.37893],[14.97684,37.37887],[14.97588,37.37885],[14.97487,37.37883],[14.97412,37.37896],[14.97352,37.3791],[14.9729,37.37926],[14.97217,37.37936],[14.97151,37.37964],[14.97104,37.37993],[14.97068,37.38026],[14.97018,37.38044],[14.96957,37.3807],[14.96891,37.38103],[14.96817,37.38127],[14.96682,37.38161],[14.96629,37.38171],[14.96606,37.38174],[14.9656,37.38179],[14.9649,37.38187],[14.96423,37.38213],[14.96391,37.38235],[14.96308,37.38284],[14.96229,37.38331],[14.96123,37.38373],[14.96034,37.38405],[14.9592,37.38467],[14.95869,37.38499],[14.95783,37.38543],[14.95719,37.38576],[14.95681,37.386],[14.95627,37.38635],[14.95579,37.38696],[14.95553,37.38772],[14.9552,37.38849],[14.95488,37.38904],[14.95458,37.38992],[14.95417,37.39069],[14.95405,37.39122],[14.954,37.39144],[14.95392,37.39176],[14.95371,37.39262],[14.95368,37.39276],[14.95358,37.39323],[14.95304,37.39311],[14.95268,37.39325],[14.95223,37.39333],[14.95158,37.39433],[14.95116,37.39507],[14.95079,37.39551],[14.95036,37.39611],[14.95011,37.39637],[14.94956,37.39668],[14.94887,37.39696],[14.94819,37.39727],[14.94774,37.39766],[14.94717,37.39799],[14.94646,37.39835],[14.94595,37.39857],[14.94556,37.39893],[14.94545,37.39938],[14.94531,37.39987],[14.94524,37.4003],[14.94509,37.40065],[14.94501,37.40116],[14.94484,37.40164],[14.94462,37.40218],[14.94439,37.40256],[14.94409,37.40297],[14.94379,37.40345],[14.94354,37.40391],[14.94349,37.404],[14.94315,37.40456],[14.94294,37.40476],[14.94263,37.40499],[14.94221,37.40519],[14.94178,37.40531],[14.94126,37.40532],[14.94057,37.40525],[14.93979,37.40523],[14.93893,37.4052],[14.93868,37.40522],[14.93804,37.40529],[14.93743,37.40551],[14.93688,37.40594],[14.93662,37.40651],[14.93643,37.40701],[14.93634,37.40747],[14.93613,37.40796],[14.93592,37.40829],[14.9357,37.40842],[14.93587,37.40888],[14.9363,37.40962],[14.93663,37.41028],[14.93688,37.41082],[14.9372,37.4115],[14.93749,37.41204],[14.9379,37.41274],[14.93846,37.4137],[14.93866,37.41432],[14.93903,37.41497],[14.93934,37.41553],[14.9397,37.41606],[14.94004,37.4166],[14.9403,37.41694],[14.94055,37.41729],[14.94073,37.41758],[14.94091,37.41801],[14.94129,37.41869],[14.94172,37.41922],[14.94236,37.41998],[14.9431,37.42077],[14.9436,37.42133],[14.94408,37.42195],[14.94434,37.42245],[14.94443,37.42263],[14.94518,37.42351],[14.94531,37.42367],[14.9458,37.4243],[14.94648,37.42502],[14.94695,37.42563],[14.94752,37.42628],[14.94813,37.42696],[14.94856,37.42757],[14.94912,37.42834],[14.94937,37.42891],[14.94965,37.4299],[14.94982,37.43062],[14.94983,37.43133],[14.9498,37.43238],[14.94966,37.43336],[14.94946,37.434],[14.94926,37.43454],[14.94911,37.4352],[14.94896,37.4359],[14.949,37.43649],[14.94903,37.43659],[14.94912,37.4369],[14.9494,37.43731],[14.94957,37.43758],[14.94911,37.43817],[14.9489,37.43863],[14.9487,37.43899],[14.94858,37.43922],[14.94838,37.43968],[14.94821,37.43987],[14.9479,37.43959],[14.94765,37.43937],[14.94749,37.43913],[14.94741,37.43901],[14.94684,37.43892],[14.94656,37.43907],[14.9464,37.43933],[14.94643,37.43976],[14.94656,37.43999],[14.94662,37.44042],[14.94722,37.44067],[14.94768,37.44096],[14.94805,37.44136],[14.94822,37.44169],[14.94834,37.44235],[14.94859,37.4431],[14.94871,37.44403],[14.94865,37.44489],[14.94871,37.44598],[14.94863,37.44668],[14.94853,37.44731],[14.9495,37.44675],[14.95014,37.44655],[14.95119,37.44647],[14.95158,37.44656],[14.95167,37.4469],[14.95175,37.44733],[14.95183,37.44768],[14.9519,37.44812],[14.95222,37.44859],[14.95276,37.44977],[14.95297,37.45024],[14.95316,37.45069],[14.95321,37.45117],[14.953,37.45157],[14.95279,37.45217],[14.95272,37.4529],[14.95268,37.45355],[14.95287,37.4542],[14.95288,37.45443],[14.95291,37.45484],[14.95272,37.45562],[14.95225,37.45618],[14.95171,37.4565],[14.95136,37.45669],[14.95097,37.45698],[14.95047,37.45732],[14.94994,37.45766],[14.94942,37.45809],[14.94909,37.45844],[14.9487,37.45887],[14.94853,37.45923],[14.94841,37.45959],[14.9483,37.46016],[14.94817,37.46081],[14.94808,37.46129],[14.94771,37.46188],[14.94728,37.46238],[14.94696,37.46275],[14.94667,37.4632],[14.94647,37.46378],[14.9463,37.46423],[14.94636,37.46471],[14.94685,37.46476],[14.94768,37.46474],[14.94853,37.46469],[14.94908,37.46476],[14.94971,37.46503],[14.95043,37.46527],[14.95136,37.46546],[14.9519,37.46558],[14.95223,37.46564],[14.95312,37.46588],[14.9543,37.46628],[14.95557,37.46638],[14.95623,37.46596],[14.95663,37.46546],[14.95709,37.46516],[14.95771,37.46486],[14.95834,37.46455],[14.9585,37.46447],[14.9587,37.46442],[14.95881,37.46439],[14.95969,37.46416],[14.9607,37.46397],[14.96122,37.46392],[14.9616,37.46388],[14.96231,37.46396],[14.96261,37.46399],[14.96315,37.46401],[14.96368,37.46402],[14.96486,37.46405],[14.96597,37.46404],[14.96618,37.46348],[14.96635,37.46323],[14.96653,37.46289],[14.96688,37.46252],[14.96723,37.46219],[14.96771,37.46186],[14.9681,37.46156],[14.96855,37.46112],[14.96904,37.46067],[14.96938,37.46033],[14.96973,37.45972],[14.96998,37.45927],[14.97019,37.45896],[14.97055,37.45849],[14.97119,37.45772],[14.97187,37.45721],[14.9724,37.45676],[14.97269,37.45644],[14.97311,37.45615],[14.97367,37.45598],[14.97404,37.45578],[14.97449,37.45544],[14.97502,37.45503],[14.97533,37.45481],[14.97599,37.45477],[14.97641,37.45458],[14.97694,37.45408],[14.9774,37.45349],[14.97789,37.45304],[14.97797,37.45297],[14.97852,37.4534],[14.97902,37.45376],[14.97975,37.4542],[14.98029,37.45428],[14.9811,37.45433],[14.98176,37.45426],[14.98267,37.45385],[14.98349,37.45374],[14.98446,37.45379],[14.98531,37.45389],[14.98635,37.45411],[14.98748,37.45433],[14.98849,37.45463],[14.9891,37.45454],[14.99004,37.45487],[14.99125,37.45531],[14.99237,37.45586],[14.99301,37.45634],[14.99362,37.45671],[14.99425,37.45709],[14.99557,37.45775],[14.99651,37.45823],[14.9973,37.4585],[14.99788,37.45861],[14.99874,37.45875],[14.99954,37.45891],[15.00014,37.45904],[15.00081,37.45913],[15.00144,37.4592],[15.00214,37.45926],[15.00301,37.45929],[15.00312,37.4593],[15.00431,37.45942],[15.0047,37.45951],[15.00515,37.45965],[15.00566,37.4596],[15.00653,37.45962],[15.00734,37.45961],[15.00842,37.45958],[15.00985,37.4598],[15.01093,37.45999],[15.01225,37.46032],[15.01293,37.46054],[15.01346,37.46087],[15.01433,37.4613],[15.01487,37.46183],[15.01536,37.46236],[15.01582,37.46279],[15.01641,37.46312],[15.01718,37.46342],[15.018,37.46359],[15.01896,37.46388],[15.02,37.46408],[15.02121,37.46449],[15.0226,37.46506],[15.0238,37.46546],[15.02483,37.46583],[15.02605,37.4662],[15.02608,37.46621],[15.02606,37.46624],[15.02583,37.46665],[15.02564,37.46701],[15.02554,37.46727],[15.02543,37.46744],[15.02539,37.46749],[15.02519,37.46764],[15.02483,37.46801],[15.02453,37.46838],[15.02419,37.4686],[15.02371,37.4687],[15.02352,37.46869],[15.02313,37.46868],[15.02305,37.4688],[15.02299,37.46889],[15.02301,37.46924],[15.02302,37.46954],[15.02306,37.47001],[15.02313,37.47046],[15.02329,37.47114],[15.02335,37.4718],[15.02352,37.47228],[15.02382,37.47312],[15.02427,37.47314],[15.02465,37.4732],[15.02502,37.47324],[15.02551,37.47348],[15.02586,37.47385],[15.02615,37.47417],[15.02646,37.4747],[15.02671,37.47529],[15.02679,37.47545],[15.02688,37.47606],[15.02691,37.47665],[15.02698,37.47715],[15.02696,37.47776],[15.0269,37.47831],[15.02687,37.47894],[15.0269,37.47939],[15.02702,37.47988],[15.02706,37.48044],[15.02696,37.48076],[15.02681,37.48107],[15.02654,37.48147],[15.02639,37.48175],[15.02622,37.48208],[15.02612,37.48232],[15.02585,37.48271],[15.02565,37.48318],[15.02537,37.4839],[15.02532,37.48429],[15.02542,37.48474],[15.02518,37.48488],[15.02509,37.48527],[15.02528,37.48566],[15.02534,37.48607],[15.02504,37.48675],[15.02463,37.48669],[15.0245,37.48668],[15.02369,37.48657],[15.02336,37.48658],[15.02283,37.48652],[15.02213,37.48652],[15.02142,37.48661],[15.02074,37.48665],[15.02034,37.48674],[15.02015,37.48705],[15.01979,37.48764],[15.01951,37.48809],[15.01899,37.48876],[15.019,37.4891],[15.01909,37.48948],[15.01936,37.48995],[15.01947,37.49033],[15.01931,37.49091],[15.01937,37.4916],[15.0193,37.49196],[15.01934,37.49227],[15.01952,37.49253],[15.01956,37.49275],[15.01974,37.49294],[15.01955,37.49321],[15.01933,37.4934],[15.01939,37.49353],[15.01952,37.4938],[15.01921,37.4941],[15.01884,37.49434],[15.01885,37.49461],[15.01946,37.49472],[15.02017,37.49471],[15.02103,37.49465],[15.02143,37.49485],[15.02159,37.49574],[15.02171,37.49623],[15.02212,37.49621],[15.02225,37.4968],[15.02246,37.49705],[15.02262,37.49686],[15.02281,37.49658],[15.0234,37.49619],[15.02389,37.49643],[15.02449,37.49676],[15.02507,37.49686],[15.02539,37.49663],[15.02578,37.49643],[15.02594,37.49662],[15.02591,37.49703],[15.02565,37.49747],[15.0258,37.49767],[15.0263,37.49797],[15.02677,37.49804],[15.02676,37.49831],[15.02647,37.49868],[15.0261,37.49903],[15.02623,37.49944],[15.02621,37.49991],[15.02593,37.50034],[15.02817,37.50064],[15.02875,37.5004],[15.02946,37.5004],[15.03026,37.50063],[15.03082,37.50092],[15.03111,37.50129],[15.03133,37.50114],[15.03157,37.50113],[15.0318,37.50113],[15.03212,37.50122],[15.03247,37.50125],[15.03287,37.50131],[15.03319,37.50133],[15.0336,37.50138],[15.03413,37.50143],[15.03473,37.50145],[15.03478,37.50144],[15.03514,37.50144],[15.03553,37.50145],[15.03598,37.50141]]]]}},{"type":"Feature","properties":{"nbhd_name":"San Giuseppe La Rena-Zia Lisa","uesi_id":"ITA_R39230","nbhd_code":"ITA_R39230_11"},"geometry":{"type":"MultiPolygon","coordinates":[[[[15.06418,37.49572],[15.06425,37.49566],[15.06553,37.49591],[15.0657,37.49563],[15.06673,37.4954],[15.06702,37.49515],[15.0671,37.49511],[15.06729,37.49503],[15.06752,37.49491],[15.06785,37.4948],[15.06813,37.49476],[15.06846,37.49475],[15.0688,37.49474],[15.06906,37.4947],[15.07072,37.49437],[15.07178,37.49417],[15.07312,37.49385],[15.0731,37.49256],[15.07208,37.48886],[15.0723,37.48875],[15.07345,37.48825],[15.07372,37.48815],[15.07375,37.48839],[15.07385,37.48865],[15.074,37.48886],[15.07418,37.48908],[15.07447,37.48933],[15.07476,37.48957],[15.0752,37.48994],[15.07524,37.48998],[15.07537,37.48997],[15.07856,37.48956],[15.08391,37.48892],[15.085,37.4888],[15.08549,37.48873],[15.08611,37.48865],[15.0884,37.48838],[15.08834,37.48831],[15.08829,37.48827],[15.08828,37.48822],[15.08826,37.48818],[15.0882,37.48812],[15.08813,37.48807],[15.08803,37.488],[15.08794,37.48788],[15.08784,37.48771],[15.08776,37.48763],[15.08772,37.48761],[15.08768,37.48753],[15.08762,37.4874],[15.08757,37.48727],[15.08749,37.48713],[15.08744,37.48704],[15.08739,37.48702],[15.08738,37.48697],[15.08733,37.48691],[15.08725,37.48682],[15.08719,37.48675],[15.08714,37.48664],[15.08709,37.48656],[15.087,37.48643],[15.08688,37.48627],[15.0868,37.48617],[15.08678,37.48609],[15.08673,37.48604],[15.08659,37.48584],[15.08646,37.48562],[15.08645,37.48553],[15.08644,37.48548],[15.0864,37.48542],[15.08634,37.48532],[15.08629,37.48525],[15.08629,37.48515],[15.08626,37.48512],[15.08621,37.48506],[15.08616,37.48496],[15.08612,37.48488],[15.08608,37.48475],[15.0861,37.48465],[15.08608,37.48458],[15.08604,37.48444],[15.08601,37.48435],[15.08598,37.48425],[15.08589,37.48408],[15.08583,37.48396],[15.08583,37.48379],[15.08585,37.4837],[15.08584,37.48361],[15.0858,37.4835],[15.08571,37.48327],[15.08568,37.48312],[15.08564,37.48282],[15.08559,37.48256],[15.08555,37.48238],[15.08555,37.48231],[15.0855,37.48213],[15.08546,37.48192],[15.08543,37.48178],[15.08542,37.4816],[15.08541,37.48152],[15.08539,37.48131],[15.08538,37.48109],[15.08538,37.48097],[15.08533,37.48082],[15.08527,37.48058],[15.08525,37.4804],[15.08525,37.48022],[15.08524,37.47999],[15.0852,37.47985],[15.08518,37.47977],[15.08524,37.47953],[15.08524,37.4794],[15.08523,37.47931],[15.0852,37.47924],[15.08518,37.47918],[15.08518,37.47882],[15.0852,37.47862],[15.08515,37.47846],[15.08511,37.47829],[15.0851,37.47809],[15.08513,37.47787],[15.08516,37.47769],[15.08513,37.4776],[15.08508,37.47737],[15.08507,37.4772],[15.08509,37.47712],[15.0851,37.47694],[15.08513,37.47671],[15.08513,37.47652],[15.08514,37.47632],[15.08514,37.4762],[15.08513,37.47601],[15.08512,37.4759],[15.08514,37.47574],[15.08517,37.47567],[15.08523,37.47543],[15.08526,37.47535],[15.08521,37.47521],[15.08515,37.4751],[15.08514,37.47499],[15.08516,37.47478],[15.08519,37.47461],[15.08524,37.4745],[15.0852,37.47436],[15.08518,37.47422],[15.08523,37.47409],[15.08527,37.474],[15.08524,37.47386],[15.08521,37.47375],[15.08519,37.47369],[15.08514,37.47367],[15.08513,37.47362],[15.08516,37.47344],[15.08516,37.47333],[15.08518,37.47323],[15.0852,37.47315],[15.0852,37.47299],[15.0852,37.4729],[15.08526,37.4728],[15.08526,37.47268],[15.08519,37.47256],[15.08517,37.47245],[15.08521,37.47234],[15.08523,37.47226],[15.08527,37.47218],[15.08532,37.4721],[15.08532,37.47197],[15.08529,37.4719],[15.08523,37.4718],[15.08525,37.47162],[15.08527,37.47138],[15.08531,37.47113],[15.08532,37.47089],[15.08533,37.47063],[15.08533,37.47043],[15.08541,37.47031],[15.08543,37.47016],[15.08547,37.46991],[15.08549,37.4697],[15.08546,37.46949],[15.08547,37.46933],[15.08553,37.46909],[15.08553,37.4689],[15.08552,37.46869],[15.08553,37.46844],[15.08553,37.46827],[15.08555,37.468],[15.08552,37.46783],[15.08554,37.4676],[15.08552,37.46753],[15.08556,37.46721],[15.08559,37.46706],[15.08557,37.46688],[15.08553,37.46672],[15.08555,37.46656],[15.08557,37.46649],[15.08553,37.46637],[15.08553,37.4663],[15.08557,37.46619],[15.08557,37.46606],[15.08554,37.46586],[15.08555,37.46569],[15.08557,37.46558],[15.0856,37.46549],[15.08564,37.46543],[15.08564,37.46527],[15.08568,37.46503],[15.08568,37.46488],[15.0857,37.46471],[15.08574,37.46459],[15.08571,37.46443],[15.08569,37.46422],[15.08567,37.46404],[15.08571,37.46384],[15.08572,37.46369],[15.0857,37.46359],[15.08569,37.46353],[15.08572,37.46339],[15.08577,37.46321],[15.08579,37.46302],[15.08579,37.46283],[15.08577,37.46277],[15.08577,37.46275],[15.08576,37.46264],[15.08579,37.46248],[15.08581,37.46229],[15.08581,37.46198],[15.08583,37.4615],[15.08588,37.46113],[15.0859,37.46081],[15.08592,37.46068],[15.08591,37.4605],[15.0859,37.46041],[15.08592,37.4603],[15.08593,37.46022],[15.08592,37.46011],[15.08595,37.45983],[15.08598,37.45952],[15.086,37.45927],[15.08604,37.45902],[15.08607,37.45885],[15.08611,37.45871],[15.08611,37.45862],[15.08611,37.45851],[15.08612,37.45839],[15.08608,37.45815],[15.08605,37.45803],[15.08604,37.45792],[15.08607,37.45778],[15.08606,37.45764],[15.08608,37.45743],[15.0861,37.45723],[15.08613,37.45706],[15.08618,37.45687],[15.08619,37.45674],[15.08618,37.45659],[15.08619,37.45643],[15.08617,37.45629],[15.08618,37.45619],[15.08616,37.45606],[15.08614,37.45599],[15.08614,37.45585],[15.08616,37.45569],[15.08618,37.45551],[15.08621,37.45532],[15.08627,37.45517],[15.0863,37.45504],[15.08629,37.45494],[15.08628,37.45487],[15.08628,37.45479],[15.08632,37.45471],[15.08634,37.45464],[15.08633,37.45456],[15.08636,37.45452],[15.08636,37.45447],[15.08635,37.45437],[15.08638,37.45422],[15.08642,37.45407],[15.08646,37.45401],[15.08644,37.45393],[15.08643,37.45382],[15.08643,37.45377],[15.08645,37.45363],[15.08647,37.45354],[15.0865,37.45339],[15.08649,37.45323],[15.0865,37.45314],[15.08647,37.45305],[15.08644,37.45297],[15.08646,37.45288],[15.08645,37.45283],[15.08644,37.45276],[15.08647,37.45258],[15.08649,37.45248],[15.08654,37.4523],[15.0866,37.45208],[15.08662,37.45198],[15.08671,37.45185],[15.08677,37.45173],[15.0868,37.45159],[15.08678,37.45142],[15.08675,37.45126],[15.08668,37.45107],[15.08658,37.45087],[15.08656,37.45078],[15.08655,37.45063],[15.08657,37.4505],[15.08659,37.45044],[15.08662,37.4504],[15.08662,37.45027],[15.0866,37.45015],[15.08662,37.45007],[15.08666,37.44986],[15.08677,37.44966],[15.08684,37.44955],[15.08687,37.44943],[15.0869,37.44925],[15.08688,37.44912],[15.08689,37.44901],[15.0869,37.44887],[15.0869,37.44867],[15.08686,37.44847],[15.08687,37.44835],[15.0869,37.44818],[15.08694,37.44809],[15.08697,37.44802],[15.087,37.44789],[15.08707,37.44778],[15.08717,37.44764],[15.08723,37.44753],[15.08721,37.4473],[15.08716,37.44715],[15.0871,37.44702],[15.08706,37.44687],[15.08705,37.44677],[15.08709,37.44656],[15.08713,37.44648],[15.08719,37.44641],[15.08725,37.44632],[15.08728,37.44621],[15.0873,37.44608],[15.08725,37.4459],[15.08724,37.44571],[15.08722,37.44556],[15.08723,37.4454],[15.08726,37.44531],[15.08732,37.44524],[15.08733,37.4452],[15.08731,37.44499],[15.08733,37.4448],[15.08735,37.4447],[15.08735,37.44451],[15.08735,37.44436],[15.08734,37.44416],[15.08736,37.444],[15.08736,37.44378],[15.08736,37.44358],[15.0874,37.44333],[15.08743,37.44308],[15.08745,37.44294],[15.08746,37.44285],[15.08757,37.44274],[15.08761,37.44266],[15.08761,37.44257],[15.08756,37.44229],[15.08755,37.44218],[15.08755,37.44191],[15.08755,37.4418],[15.08759,37.4416],[15.08766,37.44145],[15.08774,37.44134],[15.08778,37.44123],[15.08781,37.44115],[15.08783,37.4411],[15.08779,37.44104],[15.08773,37.44099],[15.08769,37.44092],[15.08767,37.44089],[15.08766,37.44082],[15.0877,37.4407],[15.08774,37.44058],[15.08776,37.44035],[15.08781,37.44006],[15.08786,37.43996],[15.08792,37.43983],[15.08794,37.43969],[15.08795,37.43952],[15.08798,37.43931],[15.08801,37.43909],[15.08804,37.43899],[15.08803,37.43884],[15.08802,37.43874],[15.08801,37.43861],[15.08804,37.43848],[15.08805,37.43825],[15.08805,37.4381],[15.08807,37.43803],[15.08807,37.43796],[15.08811,37.43781],[15.08812,37.43772],[15.08813,37.43761],[15.08813,37.43753],[15.08813,37.43749],[15.08813,37.43742],[15.08816,37.4373],[15.08819,37.43723],[15.08824,37.43711],[15.08826,37.437],[15.08827,37.43692],[15.0883,37.43682],[15.0883,37.43676],[15.08832,37.43664],[15.08836,37.43653],[15.08838,37.43588],[15.08838,37.43574],[15.08837,37.43522],[15.08839,37.43496],[15.08843,37.43459],[15.08845,37.43441],[15.08853,37.43386],[15.08858,37.43359],[15.08867,37.4331],[15.08875,37.43272],[15.08877,37.43262],[15.08886,37.432],[15.08889,37.4318],[15.08894,37.43149],[15.08901,37.4309],[15.08903,37.43029],[15.08907,37.42975],[15.08919,37.42884],[15.08924,37.42837],[15.08934,37.4279],[15.08936,37.42767],[15.08941,37.42701],[15.08951,37.42637],[15.08956,37.42586],[15.08958,37.42539],[15.08958,37.42519],[15.08959,37.42491],[15.08959,37.42434],[15.08961,37.42361],[15.08965,37.4231],[15.08966,37.42307],[15.08973,37.42232],[15.08975,37.42181],[15.08983,37.42127],[15.08984,37.4212],[15.0899,37.42069],[15.08999,37.42008],[15.09002,37.4195],[15.09017,37.41882],[15.09019,37.41836],[15.09022,37.41792],[15.09029,37.41759],[15.09036,37.41731],[15.09037,37.41698],[15.0905,37.41617],[15.09057,37.41529],[15.09056,37.41451],[15.09066,37.41403],[15.0908,37.4129],[15.09082,37.41208],[15.0908,37.41147],[15.09084,37.41105],[15.09102,37.41077],[15.09093,37.41035],[15.09103,37.4099],[15.0912,37.40957],[15.09124,37.40924],[15.09121,37.4088],[15.09149,37.40818],[15.09158,37.40755],[15.09169,37.40707],[15.09194,37.40677],[15.09223,37.40641],[15.09228,37.40591],[15.09195,37.40566],[15.09155,37.40573],[15.09155,37.40527],[15.09163,37.40456],[15.09186,37.40386],[15.09188,37.40349],[15.09208,37.40327],[15.09182,37.40294],[15.09143,37.40277],[15.0913,37.40249],[15.09123,37.40194],[15.09105,37.4013],[15.09096,37.40099],[15.09108,37.4005],[15.09116,37.39973],[15.09116,37.39909],[15.09136,37.39797],[15.09145,37.39708],[15.09152,37.39644],[15.09167,37.39583],[15.09176,37.39532],[15.09184,37.39478],[15.09187,37.39423],[15.09197,37.39389],[15.0921,37.39339],[15.09205,37.39293],[15.0919,37.39209],[15.09208,37.39123],[15.09209,37.39056],[15.09203,37.38995],[15.09187,37.38939],[15.09177,37.38881],[15.09172,37.38832],[15.09172,37.38792],[15.09164,37.38672],[15.09163,37.38596],[15.09157,37.38512],[15.0915,37.38464],[15.09139,37.38416],[15.09132,37.38376],[15.09126,37.38321],[15.09123,37.38273],[15.09121,37.38226],[15.09098,37.38187],[15.09087,37.38143],[15.09088,37.38074],[15.09073,37.38029],[15.09077,37.3798],[15.09076,37.37916],[15.0907,37.37862],[15.0906,37.37771],[15.09058,37.37727],[15.09032,37.37597],[15.09035,37.37556],[15.09041,37.37482],[15.09042,37.37417],[15.09037,37.3735],[15.0904,37.37279],[15.09035,37.37213],[15.09039,37.37152],[15.09037,37.37099],[15.09031,37.37044],[15.09018,37.36985],[15.09022,37.36946],[15.09038,37.36903],[15.09031,37.36859],[15.09027,37.36814],[15.09045,37.36748],[15.09043,37.36694],[15.0903,37.36647],[15.09036,37.36596],[15.09047,37.36537],[15.0905,37.36491],[15.09042,37.36447],[15.09042,37.36419],[15.09047,37.3637],[15.09042,37.36322],[15.0904,37.36274],[15.09042,37.3623],[15.09051,37.36162],[15.09054,37.36124],[15.09053,37.36093],[15.09057,37.36054],[15.09048,37.36025],[15.09063,37.35987],[15.09081,37.35933],[15.09083,37.35871],[15.08963,37.35862],[15.08958,37.35861],[15.0894,37.3586],[15.08881,37.35857],[15.08786,37.35856],[15.08704,37.35856],[15.08656,37.35856],[15.08578,37.35856],[15.08516,37.35856],[15.08435,37.35847],[15.08336,37.35863],[15.08195,37.35857],[15.08073,37.35855],[15.07923,37.35862],[15.07723,37.35878],[15.07602,37.35889],[15.07461,37.35906],[15.07295,37.35921],[15.07189,37.35942],[15.0703,37.35974],[15.06882,37.35992],[15.06683,37.36032],[15.06498,37.36059],[15.06295,37.36084],[15.06123,37.36111],[15.06008,37.36135],[15.05918,37.36142],[15.05844,37.36164],[15.05771,37.36193],[15.05726,37.36234],[15.05683,37.3627],[15.0563,37.3632],[15.05595,37.36343],[15.05561,37.36367],[15.0548,37.36404],[15.05417,37.36439],[15.05303,37.36511],[15.05228,37.36487],[15.05159,37.36445],[15.05085,37.36402],[15.05014,37.36364],[15.04915,37.36339],[15.04804,37.36323],[15.04682,37.36307],[15.04584,37.3629],[15.04463,37.36276],[15.04347,37.36263],[15.04242,37.36249],[15.04144,37.36241],[15.04038,37.36232],[15.03903,37.36227],[15.03786,37.36223],[15.03685,37.36219],[15.0359,37.36222],[15.03505,37.36218],[15.03419,37.3622],[15.03331,37.36215],[15.03228,37.36252],[15.0323,37.36309],[15.03262,37.3638],[15.03282,37.36439],[15.03286,37.36449],[15.03287,37.36452],[15.0329,37.36532],[15.0328,37.36598],[15.03276,37.36662],[15.03276,37.36722],[15.03278,37.36764],[15.03278,37.36833],[15.03265,37.36928],[15.03259,37.36967],[15.03262,37.37031],[15.03255,37.37085],[15.03242,37.37135],[15.0319,37.37181],[15.03139,37.37224],[15.03098,37.37268],[15.0306,37.37323],[15.03013,37.37381],[15.02947,37.3744],[15.02902,37.37518],[15.02863,37.37558],[15.02823,37.37598],[15.0278,37.3763],[15.02762,37.37643],[15.02685,37.37696],[15.02622,37.37748],[15.02596,37.37787],[15.02586,37.37852],[15.0256,37.37825],[15.02517,37.37775],[15.0249,37.3772],[15.02467,37.37635],[15.02466,37.37565],[15.02468,37.37484],[15.02457,37.374],[15.02446,37.3734],[15.02415,37.37282],[15.02361,37.37228],[15.02328,37.37218],[15.02285,37.37229],[15.02225,37.37243],[15.02152,37.3726],[15.02097,37.37266],[15.0204,37.37254],[15.01957,37.37227],[15.01888,37.37177],[15.01852,37.37144],[15.01772,37.37093],[15.01699,37.37046],[15.01623,37.37002],[15.01551,37.36969],[15.015,37.3695],[15.01451,37.36931],[15.0137,37.36933],[15.01297,37.36946],[15.01213,37.36955],[15.01124,37.36977],[15.0105,37.37],[15.00989,37.37018],[15.00914,37.37031],[15.00863,37.37061],[15.00811,37.37063],[15.00745,37.37039],[15.00678,37.37044],[15.00609,37.37072],[15.00569,37.37098],[15.0051,37.37129],[15.00449,37.37147],[15.00377,37.3716],[15.00295,37.37185],[15.00225,37.37201],[15.00154,37.37223],[15.00111,37.37258],[15.00043,37.37278],[14.99977,37.37276],[14.9991,37.37275],[14.9984,37.37282],[14.99831,37.37283],[14.99823,37.37283],[14.99812,37.37283],[14.99995,37.37624],[15.00513,37.38685],[15.00615,37.38902],[15.01027,37.39786],[15.01232,37.40202],[15.01566,37.40866],[15.01855,37.4151],[15.01856,37.41513],[15.0197,37.41811],[15.01972,37.41815],[15.01982,37.41835],[15.02017,37.41903],[15.02033,37.41951],[15.02105,37.42118],[15.0215,37.4223],[15.02236,37.42469],[15.02279,37.42587],[15.02316,37.42697],[15.02419,37.43005],[15.02584,37.4349],[15.02755,37.43989],[15.02793,37.44106],[15.03005,37.44727],[15.03091,37.44668],[15.03107,37.44688],[15.03199,37.44801],[15.03251,37.44868],[15.03295,37.44928],[15.0333,37.44987],[15.03354,37.45037],[15.03372,37.45089],[15.03387,37.45136],[15.03389,37.45144],[15.03445,37.45196],[15.03508,37.45256],[15.03506,37.45263],[15.03495,37.45279],[15.03488,37.453],[15.03488,37.45312],[15.03493,37.45322],[15.03503,37.4533],[15.03521,37.4534],[15.03557,37.45353],[15.03585,37.45365],[15.03634,37.45396],[15.0367,37.45423],[15.03719,37.45466],[15.03774,37.45511],[15.03814,37.45546],[15.0387,37.45597],[15.03947,37.45669],[15.03978,37.45693],[15.04014,37.45722],[15.04044,37.45746],[15.04067,37.45761],[15.0409,37.45779],[15.04093,37.45789],[15.04093,37.45797],[15.04094,37.45811],[15.04101,37.45825],[15.04107,37.45835],[15.04116,37.45845],[15.04132,37.45853],[15.04158,37.45863],[15.0418,37.45874],[15.04206,37.45879],[15.04319,37.45971],[15.04386,37.46085],[15.04407,37.46069],[15.04498,37.46157],[15.04671,37.46277],[15.04729,37.46333],[15.0482,37.4641],[15.04848,37.46426],[15.04866,37.46442],[15.05009,37.4657],[15.05295,37.46824],[15.05639,37.47125],[15.06211,37.47615],[15.06601,37.47956],[15.06601,37.47973],[15.06493,37.47966],[15.06471,37.47967],[15.06432,37.47953],[15.0641,37.4795],[15.06229,37.48014],[15.06281,37.48045],[15.06042,37.48278],[15.06103,37.48324],[15.06064,37.48354],[15.05997,37.48407],[15.05985,37.48411],[15.06007,37.48439],[15.06017,37.48468],[15.06023,37.48477],[15.05961,37.48513],[15.05892,37.48511],[15.05824,37.48456],[15.0582,37.48452],[15.05608,37.48606],[15.05577,37.48639],[15.05539,37.48661],[15.05532,37.48665],[15.05512,37.48674],[15.05478,37.48683],[15.0542,37.48694],[15.05369,37.48697],[15.05333,37.48707],[15.05359,37.48714],[15.05382,37.48717],[15.05399,37.48721],[15.05421,37.4873],[15.05446,37.48743],[15.05466,37.48754],[15.05485,37.48762],[15.05499,37.4877],[15.05516,37.48783],[15.05544,37.48809],[15.05579,37.48833],[15.05603,37.4885],[15.05625,37.48863],[15.05631,37.48868],[15.05738,37.49013],[15.05746,37.49031],[15.05751,37.49044],[15.05762,37.49064],[15.05771,37.49092],[15.05786,37.49117],[15.05797,37.49141],[15.05807,37.49148],[15.05813,37.49155],[15.0582,37.49162],[15.05847,37.49188],[15.05868,37.49208],[15.05866,37.4923],[15.05866,37.49247],[15.05871,37.49268],[15.05875,37.49281],[15.05882,37.49292],[15.05892,37.49308],[15.05906,37.49329],[15.05906,37.49353],[15.05906,37.49383],[15.05904,37.49398],[15.05902,37.49417],[15.05903,37.4943],[15.05902,37.49449],[15.05903,37.49485],[15.05904,37.49526],[15.05904,37.49548],[15.06091,37.49562],[15.06109,37.49562],[15.06138,37.49565],[15.06156,37.49572],[15.06168,37.49574],[15.06214,37.4959],[15.06247,37.49602],[15.0627,37.49607],[15.06311,37.49616],[15.06321,37.49619],[15.06349,37.49633],[15.0637,37.49646],[15.06377,37.49636],[15.06389,37.49624],[15.06401,37.49608],[15.06418,37.49572]]]]}}]}