{"type":"FeatureCollection","name":"KAZ_R3087155","crs":{"type":"name","properties":{"name":"urn:ogc:def:crs:OGC:1.3:CRS84"}},"features":[{"type":"Feature","properties":{"uesi_id":"KAZ_R3087155","nbhd_code":"KAZ_R3087155_4","nbhd_name":"\u0440\u0430\u0439\u043e\u043d \"\u0415\u0441\u0438\u043b\u044c\""},"geometry":{"type":"MultiPolygon","coordinates":[[[[71.50005,51.10355,0.0],[71.50079,51.10359,0.0],[71.50145,51.10357,0.0],[71.50296,51.10333,0.0],[71.50741,51.10213,0.0],[71.51084,51.10119,0.0],[71.5129,51.10085,0.0],[71.51427,51.10081,0.0],[71.51571,51.10093,0.0],[71.51741,51.10128,0.0],[71.519,51.10176,0.0],[71.52254,51.10295,0.0],[71.52368,51.10327,0.0],[71.52436,51.10337,0.0],[71.52519,51.10344,0.0],[71.52604,51.10345,0.0],[71.52762,51.1034,0.0],[71.53283,51.10284,0.0],[71.58779,51.09719,0.0],[71.59922,51.0941,0.0],[71.60786,51.09054,0.0],[71.60378,51.08578,0.0],[71.5883,51.07464,0.0],[71.57974,51.07032,0.0],[71.56444,51.05729,0.0],[71.55982,51.0531,0.0],[71.55594,51.0489,0.0],[71.5477,51.05091,0.0],[71.54576,51.0487,0.0],[71.53418,51.04719,0.0],[71.50259,51.04547,0.0],[71.49801,51.04258,0.0],[71.50157,51.03915,0.0],[71.49243,51.03436,0.0],[71.47755,51.02499,0.0],[71.47888,51.02413,0.0],[71.47565,51.02158,0.0],[71.47402,51.0224,0.0],[71.46914,51.01967,0.0],[71.46895,51.01982,0.0],[71.4625,51.01659,0.0],[71.45971,51.01232,0.0],[71.45719,51.00695,0.0],[71.45475,51.00491,0.0],[71.45419,51.00068,0.0],[71.43832,51.00354,0.0],[71.43732,51.00294,0.0],[71.43565,51.00392,0.0],[71.41444,51.00712,0.0],[71.40295,51.00906,0.0],[71.40038,51.0101,0.0],[71.38179,51.01298,0.0],[71.38011,51.01299,0.0],[71.33554,51.01909,0.0],[71.33175,51.02147,0.0],[71.31847,51.02375,0.0],[71.31236,51.02331,0.0],[71.30783,51.02221,0.0],[71.30302,51.02272,0.0],[71.2908,51.02173,0.0],[71.28954,51.02158,0.0],[71.28662,51.02242,0.0],[71.28479,51.02373,0.0],[71.27969,51.02639,0.0],[71.27608,51.02997,0.0],[71.27038,51.03383,0.0],[71.26932,51.03505,0.0],[71.26771,51.03962,0.0],[71.26591,51.04091,0.0],[71.26311,51.04243,0.0],[71.26166,51.04456,0.0],[71.25681,51.04728,0.0],[71.25415,51.0494,0.0],[71.25433,51.0509,0.0],[71.25538,51.0534,0.0],[71.25471,51.05502,0.0],[71.25441,51.05739,0.0],[71.25541,51.05981,0.0],[71.25567,51.06269,0.0],[71.25525,51.06439,0.0],[71.25426,51.06534,0.0],[71.25314,51.06627,0.0],[71.25213,51.06663,0.0],[71.25201,51.06667,0.0],[71.25189,51.06672,0.0],[71.25083,51.06804,0.0],[71.24818,51.06848,0.0],[71.24684,51.06827,0.0],[71.22444,51.10016,0.0],[71.22839,51.12096,0.0],[71.23806,51.13471,0.0],[71.23614,51.14955,0.0],[71.23849,51.14962,0.0],[71.23856,51.15223,0.0],[71.24258,51.15231,0.0],[71.24276,51.15756,0.0],[71.25441,51.15814,0.0],[71.2542,51.16282,0.0],[71.25297,51.17589,0.0],[71.26538,51.17426,0.0],[71.2819,51.17931,0.0],[71.28181,51.17961,0.0],[71.28138,51.17968,0.0],[71.28103,51.17983,0.0],[71.28096,51.17987,0.0],[71.28092,51.17998,0.0],[71.28096,51.18012,0.0],[71.28094,51.1802,0.0],[71.28091,51.18041,0.0],[71.28085,51.18052,0.0],[71.28079,51.18064,0.0],[71.2807,51.18071,0.0],[71.28038,51.18094,0.0],[71.28021,51.18108,0.0],[71.28003,51.18111,0.0],[71.27994,51.18112,0.0],[71.27973,51.18115,0.0],[71.27955,51.18111,0.0],[71.27944,51.18094,0.0],[71.27933,51.1808,0.0],[71.27917,51.18066,0.0],[71.27907,51.1806,0.0],[71.2789,51.18053,0.0],[71.27869,51.18046,0.0],[71.27827,51.18041,0.0],[71.27806,51.18043,0.0],[71.27788,51.1805,0.0],[71.27777,51.18068,0.0],[71.27774,51.18075,0.0],[71.27775,51.18095,0.0],[71.27779,51.18112,0.0],[71.27786,51.18119,0.0],[71.27784,51.18125,0.0],[71.27772,51.18135,0.0],[71.27759,51.1814,0.0],[71.27747,51.18137,0.0],[71.2773,51.18131,0.0],[71.27711,51.18124,0.0],[71.27707,51.1812,0.0],[71.27706,51.18111,0.0],[71.27707,51.18089,0.0],[71.27712,51.18081,0.0],[71.27716,51.18067,0.0],[71.27728,51.18043,0.0],[71.27729,51.18035,0.0],[71.27722,51.18032,0.0],[71.27701,51.18033,0.0],[71.27671,51.18037,0.0],[71.27665,51.18034,0.0],[71.27657,51.18026,0.0],[71.27646,51.18019,0.0],[71.27637,51.18016,0.0],[71.2762,51.18021,0.0],[71.276,51.1803,0.0],[71.27586,51.1804,0.0],[71.27586,51.18047,0.0],[71.27589,51.18052,0.0],[71.27597,51.18058,0.0],[71.27604,51.1807,0.0],[71.2762,51.18094,0.0],[71.27623,51.18106,0.0],[71.27621,51.18117,0.0],[71.27613,51.18128,0.0],[71.27606,51.18132,0.0],[71.2761,51.18141,0.0],[71.27619,51.18147,0.0],[71.2763,51.18153,0.0],[71.2763,51.18157,0.0],[71.27621,51.18159,0.0],[71.27606,51.18159,0.0],[71.2758,51.18158,0.0],[71.27562,51.18163,0.0],[71.2756,51.18167,0.0],[71.27565,51.18178,0.0],[71.27571,51.18191,0.0],[71.27574,51.18202,0.0],[71.27566,51.18214,0.0],[71.27554,51.18217,0.0],[71.27535,51.18219,0.0],[71.27517,51.1822,0.0],[71.27493,51.18216,0.0],[71.27481,51.1821,0.0],[71.2747,51.18204,0.0],[71.27465,51.18198,0.0],[71.27462,51.18196,0.0],[71.2746,51.18192,0.0],[71.27458,51.18191,0.0],[71.27456,51.18186,0.0],[71.27452,51.18182,0.0],[71.27449,51.18178,0.0],[71.27442,51.18173,0.0],[71.27433,51.18167,0.0],[71.2742,51.18159,0.0],[71.27384,51.1815,0.0],[71.27356,51.18145,0.0],[71.27331,51.18144,0.0],[71.2731,51.18145,0.0],[71.27297,51.18153,0.0],[71.27287,51.18167,0.0],[71.27267,51.18184,0.0],[71.27254,51.18195,0.0],[71.27244,51.18208,0.0],[71.27229,51.18223,0.0],[71.27217,51.18242,0.0],[71.27188,51.1827,0.0],[71.27179,51.18283,0.0],[71.27178,51.18294,0.0],[71.2718,51.18302,0.0],[71.27189,51.18308,0.0],[71.27201,51.18313,0.0],[71.27222,51.18324,0.0],[71.27246,51.18341,0.0],[71.27257,51.18353,0.0],[71.27257,51.18364,0.0],[71.27249,51.18371,0.0],[71.27232,51.18379,0.0],[71.27217,51.18391,0.0],[71.27197,51.18397,0.0],[71.27174,51.18399,0.0],[71.27152,51.18399,0.0],[71.27144,51.18395,0.0],[71.27133,51.18384,0.0],[71.27126,51.18375,0.0],[71.27115,51.18361,0.0],[71.27103,51.18349,0.0],[71.27084,51.18345,0.0],[71.27071,51.18356,0.0],[71.27062,51.18366,0.0],[71.27057,51.18373,0.0],[71.27059,51.18382,0.0],[71.27066,51.18391,0.0],[71.27071,51.18406,0.0],[71.27083,51.18425,0.0],[71.27094,51.1844,0.0],[71.27093,51.18451,0.0],[71.27085,51.18458,0.0],[71.27071,51.18463,0.0],[71.27051,51.18465,0.0],[71.27031,51.18469,0.0],[71.27006,51.18483,0.0],[71.27,51.18492,0.0],[71.26996,51.18503,0.0],[71.26997,51.18513,0.0],[71.27001,51.18538,0.0],[71.27008,51.18547,0.0],[71.27015,51.18559,0.0],[71.27014,51.18575,0.0],[71.27009,51.18601,0.0],[71.27003,51.18618,0.0],[71.26986,51.18631,0.0],[71.26985,51.18637,0.0],[71.26989,51.18648,0.0],[71.27004,51.18658,0.0],[71.27018,51.18667,0.0],[71.27056,51.18684,0.0],[71.27099,51.18699,0.0],[71.27145,51.18709,0.0],[71.27172,51.18719,0.0],[71.27198,51.18741,0.0],[71.27201,51.18764,0.0],[71.2719,51.18774,0.0],[71.27182,51.18798,0.0],[71.27182,51.18805,0.0],[71.27188,51.18812,0.0],[71.27206,51.18818,0.0],[71.27212,51.18826,0.0],[71.27266,51.18819,0.0],[71.27288,51.18819,0.0],[71.27308,51.18825,0.0],[71.2732,51.18839,0.0],[71.27566,51.18847,0.0],[71.27983,51.18832,0.0],[71.28623,51.18907,0.0],[71.28999,51.18924,0.0],[71.2921,51.18919,0.0],[71.2937,51.18838,0.0],[71.29564,51.18767,0.0],[71.297,51.18683,0.0],[71.29727,51.18566,0.0],[71.29915,51.18326,0.0],[71.30102,51.18295,0.0],[71.30289,51.18239,0.0],[71.30443,51.18213,0.0],[71.30521,51.182,0.0],[71.30562,51.18201,0.0],[71.30629,51.18211,0.0],[71.30674,51.18228,0.0],[71.30703,51.18234,0.0],[71.30721,51.18235,0.0],[71.30759,51.18232,0.0],[71.30779,51.18226,0.0],[71.30787,51.18222,0.0],[71.30794,51.18214,0.0],[71.30797,51.18203,0.0],[71.30797,51.18198,0.0],[71.308,51.18186,0.0],[71.30806,51.18176,0.0],[71.30811,51.18171,0.0],[71.30821,51.18165,0.0],[71.30833,51.18161,0.0],[71.3085,51.1816,0.0],[71.30867,51.18166,0.0],[71.30876,51.18169,0.0],[71.30889,51.18169,0.0],[71.30911,51.18167,0.0],[71.30927,51.18161,0.0],[71.30937,51.18156,0.0],[71.30945,51.18153,0.0],[71.30949,51.18146,0.0],[71.30948,51.18138,0.0],[71.30948,51.18129,0.0],[71.3094,51.18122,0.0],[71.30934,51.18116,0.0],[71.30929,51.18106,0.0],[71.30926,51.18096,0.0],[71.3093,51.18084,0.0],[71.30933,51.18073,0.0],[71.30934,51.18062,0.0],[71.30937,51.18057,0.0],[71.30938,51.18048,0.0],[71.30939,51.18039,0.0],[71.30941,51.18027,0.0],[71.30951,51.18018,0.0],[71.30959,51.18014,0.0],[71.30972,51.18009,0.0],[71.30979,51.18005,0.0],[71.30984,51.18001,0.0],[71.30984,51.17997,0.0],[71.30986,51.17993,0.0],[71.30998,51.17986,0.0],[71.31009,51.17988,0.0],[71.31015,51.17992,0.0],[71.31017,51.17998,0.0],[71.31019,51.18003,0.0],[71.31027,51.18008,0.0],[71.31033,51.1801,0.0],[71.31046,51.18008,0.0],[71.31079,51.18,0.0],[71.3109,51.17997,0.0],[71.31118,51.17997,0.0],[71.31141,51.18001,0.0],[71.31165,51.18003,0.0],[71.31169,51.18,0.0],[71.31172,51.17995,0.0],[71.31171,51.17992,0.0],[71.31166,51.17986,0.0],[71.31153,51.17978,0.0],[71.31133,51.17964,0.0],[71.31131,51.17952,0.0],[71.31142,51.17943,0.0],[71.31158,51.17941,0.0],[71.31184,51.17942,0.0],[71.31208,51.17944,0.0],[71.31238,51.1795,0.0],[71.31255,51.17957,0.0],[71.31267,51.17957,0.0],[71.31279,51.17961,0.0],[71.31295,51.17965,0.0],[71.31325,51.17965,0.0],[71.31347,51.17963,0.0],[71.31372,51.17968,0.0],[71.31395,51.17975,0.0],[71.31412,51.17981,0.0],[71.31439,51.17987,0.0],[71.31474,51.17986,0.0],[71.31493,51.17976,0.0],[71.31516,51.17957,0.0],[71.31525,51.17935,0.0],[71.31526,51.17923,0.0],[71.31528,51.17906,0.0],[71.31551,51.17891,0.0],[71.31582,51.17883,0.0],[71.31615,51.17878,0.0],[71.31667,51.17869,0.0],[71.31706,51.17858,0.0],[71.31725,51.17846,0.0],[71.31735,51.17838,0.0],[71.31738,51.17822,0.0],[71.31734,51.17809,0.0],[71.31735,51.17798,0.0],[71.31742,51.17793,0.0],[71.31758,51.17795,0.0],[71.31766,51.17796,0.0],[71.31783,51.17806,0.0],[71.31785,51.17813,0.0],[71.31805,51.17825,0.0],[71.31822,51.17828,0.0],[71.31839,51.17821,0.0],[71.31874,51.17806,0.0],[71.31905,51.17788,0.0],[71.31928,51.17772,0.0],[71.3194,51.17764,0.0],[71.31947,51.17754,0.0],[71.31953,51.17746,0.0],[71.31963,51.17735,0.0],[71.31981,51.17729,0.0],[71.31996,51.17728,0.0],[71.32013,51.17732,0.0],[71.32024,51.17738,0.0],[71.32036,51.17746,0.0],[71.32043,51.17759,0.0],[71.32047,51.17771,0.0],[71.32054,51.17783,0.0],[71.32063,51.1779,0.0],[71.32075,51.1779,0.0],[71.32092,51.17789,0.0],[71.32117,51.17785,0.0],[71.3214,51.17776,0.0],[71.32148,51.17764,0.0],[71.32156,51.17739,0.0],[71.32168,51.17718,0.0],[71.32184,51.17698,0.0],[71.32201,51.1769,0.0],[71.32254,51.17681,0.0],[71.32289,51.17671,0.0],[71.32306,51.17669,0.0],[71.32323,51.17671,0.0],[71.32339,51.17678,0.0],[71.32353,51.17686,0.0],[71.3236,51.17697,0.0],[71.32367,51.17716,0.0],[71.3237,51.17733,0.0],[71.32395,51.17757,0.0],[71.32446,51.17772,0.0],[71.32498,51.17777,0.0],[71.32563,51.1778,0.0],[71.32657,51.17782,0.0],[71.32711,51.17753,0.0],[71.32744,51.17727,0.0],[71.32762,51.17675,0.0],[71.32754,51.1763,0.0],[71.32705,51.17601,0.0],[71.32675,51.17568,0.0],[71.32698,51.17535,0.0],[71.32771,51.17467,0.0],[71.32824,51.17428,0.0],[71.32839,51.17422,0.0],[71.3289,51.17426,0.0],[71.32967,51.17422,0.0],[71.32993,51.17409,0.0],[71.33053,51.17387,0.0],[71.33094,51.17354,0.0],[71.33097,51.17306,0.0],[71.33109,51.17268,0.0],[71.33195,51.17292,0.0],[71.33237,51.17301,0.0],[71.33274,51.17316,0.0],[71.33305,51.1735,0.0],[71.33347,51.1738,0.0],[71.33397,51.17413,0.0],[71.33425,51.17424,0.0],[71.33446,51.17426,0.0],[71.33507,51.17428,0.0],[71.33542,51.17428,0.0],[71.33586,51.17436,0.0],[71.33611,51.17432,0.0],[71.33641,51.1743,0.0],[71.33662,51.17419,0.0],[71.33748,51.1744,0.0],[71.33841,51.17434,0.0],[71.33937,51.1743,0.0],[71.34031,51.17421,0.0],[71.34109,51.17401,0.0],[71.34174,51.17375,0.0],[71.34272,51.17327,0.0],[71.34309,51.17315,0.0],[71.3444,51.17277,0.0],[71.34543,51.17233,0.0],[71.346,51.17196,0.0],[71.34663,51.17151,0.0],[71.34759,51.17112,0.0],[71.34795,51.17081,0.0],[71.34804,51.1703,0.0],[71.34808,51.16993,0.0],[71.34835,51.16957,0.0],[71.34884,51.16903,0.0],[71.34909,51.16867,0.0],[71.34918,51.16837,0.0],[71.34954,51.16795,0.0],[71.34991,51.16767,0.0],[71.35053,51.16735,0.0],[71.35323,51.16613,0.0],[71.35465,51.16586,0.0],[71.35592,51.16529,0.0],[71.35622,51.16484,0.0],[71.35676,51.16432,0.0],[71.35747,51.16374,0.0],[71.35809,51.1635,0.0],[71.35888,51.1634,0.0],[71.35979,51.16349,0.0],[71.36101,51.16369,0.0],[71.36199,51.16401,0.0],[71.36264,51.16441,0.0],[71.36313,51.16457,0.0],[71.36378,51.16457,0.0],[71.36503,51.16458,0.0],[71.37382,51.16458,0.0],[71.37553,51.16445,0.0],[71.37652,51.16436,0.0],[71.37682,51.16434,0.0],[71.38101,51.16394,0.0],[71.3817,51.16389,0.0],[71.38415,51.16367,0.0],[71.38525,51.16361,0.0],[71.38626,51.16356,0.0],[71.38691,51.16352,0.0],[71.38764,51.16347,0.0],[71.38824,51.16341,0.0],[71.38879,51.16336,0.0],[71.39148,51.1632,0.0],[71.39209,51.16316,0.0],[71.39348,51.16302,0.0],[71.39446,51.16291,0.0],[71.39526,51.16281,0.0],[71.39594,51.16248,0.0],[71.3972,51.16132,0.0],[71.39762,51.16096,0.0],[71.39783,51.16077,0.0],[71.39799,51.16036,0.0],[71.39903,51.15968,0.0],[71.40224,51.1583,0.0],[71.40668,51.15735,0.0],[71.40936,51.15721,0.0],[71.41546,51.15886,0.0],[71.41933,51.16042,0.0],[71.42178,51.16024,0.0],[71.42359,51.15942,0.0],[71.42471,51.15845,0.0],[71.42552,51.15689,0.0],[71.42634,51.15535,0.0],[71.4275,51.1525,0.0],[71.42813,51.15199,0.0],[71.42826,51.15193,0.0],[71.42849,51.1517,0.0],[71.42934,51.15102,0.0],[71.43106,51.15027,0.0],[71.43316,51.15005,0.0],[71.43587,51.14959,0.0],[71.43784,51.14836,0.0],[71.43801,51.14774,0.0],[71.43847,51.14754,0.0],[71.43981,51.14698,0.0],[71.44101,51.1458,0.0],[71.4414,51.14475,0.0],[71.4417,51.14222,0.0],[71.44179,51.14049,0.0],[71.44606,51.13396,0.0],[71.44717,51.13226,0.0],[71.44771,51.13048,0.0],[71.44895,51.12881,0.0],[71.45097,51.12768,0.0],[71.45121,51.12746,0.0],[71.4523,51.12646,0.0],[71.4526,51.12517,0.0],[71.4517,51.12382,0.0],[71.44822,51.12194,0.0],[71.44638,51.1218,0.0],[71.44601,51.11997,0.0],[71.45011,51.1152,0.0],[71.45046,51.1124,0.0],[71.45076,51.10968,0.0],[71.45112,51.10889,0.0],[71.45179,51.1082,0.0],[71.45397,51.10709,0.0],[71.45689,51.10607,0.0],[71.46007,51.10561,0.0],[71.47166,51.10545,0.0],[71.47277,51.10518,0.0],[71.47402,51.10467,0.0],[71.47458,51.10421,0.0],[71.47533,51.10337,0.0],[71.4758,51.10282,0.0],[71.47628,51.10251,0.0],[71.47699,51.10224,0.0],[71.47915,51.10139,0.0],[71.48021,51.10102,0.0],[71.48321,51.10061,0.0],[71.48706,51.10005,0.0],[71.48972,51.09963,0.0],[71.49126,51.10019,0.0],[71.49233,51.10065,0.0],[71.495,51.10182,0.0],[71.49814,51.10315,0.0],[71.49913,51.10341,0.0],[71.50005,51.10355,0.0]]]]}},{"type":"Feature","properties":{"uesi_id":"KAZ_R3087155","nbhd_code":"KAZ_R3087155_5","nbhd_name":"\u0440\u0430\u0439\u043e\u043d \"\u0410\u043b\u043c\u0430\u0442\u044b\""},"geometry":{"type":"MultiPolygon","coordinates":[[[[71.65885,51.08928,0.0],[71.63496,51.09467,0.0],[71.61513,51.09938,0.0],[71.60786,51.09054,0.0],[71.59922,51.0941,0.0],[71.58779,51.09719,0.0],[71.53283,51.10284,0.0],[71.52762,51.1034,0.0],[71.52604,51.10345,0.0],[71.52519,51.10344,0.0],[71.52436,51.10337,0.0],[71.52368,51.10327,0.0],[71.52254,51.10295,0.0],[71.519,51.10176,0.0],[71.51741,51.10128,0.0],[71.51571,51.10093,0.0],[71.51427,51.10081,0.0],[71.5129,51.10085,0.0],[71.51084,51.10119,0.0],[71.50741,51.10213,0.0],[71.50296,51.10333,0.0],[71.50145,51.10357,0.0],[71.50079,51.10359,0.0],[71.50005,51.10355,0.0],[71.49913,51.10341,0.0],[71.49814,51.10315,0.0],[71.495,51.10182,0.0],[71.49233,51.10065,0.0],[71.49126,51.10019,0.0],[71.48972,51.09963,0.0],[71.48706,51.10005,0.0],[71.48321,51.10061,0.0],[71.48021,51.10102,0.0],[71.47915,51.10139,0.0],[71.47699,51.10224,0.0],[71.47628,51.10251,0.0],[71.4758,51.10282,0.0],[71.47533,51.10337,0.0],[71.47458,51.10421,0.0],[71.47402,51.10467,0.0],[71.47277,51.10518,0.0],[71.47166,51.10545,0.0],[71.46007,51.10561,0.0],[71.45689,51.10607,0.0],[71.45397,51.10709,0.0],[71.45179,51.1082,0.0],[71.45112,51.10889,0.0],[71.45076,51.10968,0.0],[71.45046,51.1124,0.0],[71.45011,51.1152,0.0],[71.44601,51.11997,0.0],[71.44638,51.1218,0.0],[71.44822,51.12194,0.0],[71.4517,51.12382,0.0],[71.4526,51.12517,0.0],[71.4523,51.12646,0.0],[71.45121,51.12746,0.0],[71.45097,51.12768,0.0],[71.44895,51.12881,0.0],[71.44771,51.13048,0.0],[71.44717,51.13226,0.0],[71.44606,51.13396,0.0],[71.44179,51.14049,0.0],[71.4417,51.14222,0.0],[71.4414,51.14475,0.0],[71.44101,51.1458,0.0],[71.43981,51.14698,0.0],[71.43847,51.14754,0.0],[71.44075,51.14846,0.0],[71.44314,51.14942,0.0],[71.44427,51.15004,0.0],[71.44569,51.15084,0.0],[71.44763,51.15194,0.0],[71.4504,51.15277,0.0],[71.45162,51.15305,0.0],[71.45239,51.15311,0.0],[71.45314,51.15332,0.0],[71.45362,51.15366,0.0],[71.45365,51.15393,0.0],[71.45468,51.15424,0.0],[71.45499,51.1546,0.0],[71.45958,51.15551,0.0],[71.4654,51.15816,0.0],[71.46711,51.15902,0.0],[71.46892,51.15995,0.0],[71.46964,51.16037,0.0],[71.47,51.16079,0.0],[71.47019,51.16093,0.0],[71.47036,51.16104,0.0],[71.47191,51.1616,0.0],[71.47247,51.16208,0.0],[71.47272,51.16244,0.0],[71.47287,51.16271,0.0],[71.47312,51.16307,0.0],[71.47402,51.16366,0.0],[71.47452,51.16379,0.0],[71.47503,51.16386,0.0],[71.47588,51.1639,0.0],[71.4767,51.16398,0.0],[71.47745,51.1641,0.0],[71.47764,51.16414,0.0],[71.47775,51.16421,0.0],[71.47784,51.16431,0.0],[71.47803,51.16462,0.0],[71.47818,51.1648,0.0],[71.47898,51.1658,0.0],[71.47965,51.1667,0.0],[71.48042,51.16748,0.0],[71.48086,51.1678,0.0],[71.48157,51.16812,0.0],[71.48214,51.16834,0.0],[71.48275,51.16836,0.0],[71.48378,51.16824,0.0],[71.48419,51.1683,0.0],[71.48534,51.16888,0.0],[71.48617,51.16957,0.0],[71.48637,51.1698,0.0],[71.48791,51.17108,0.0],[71.48956,51.17203,0.0],[71.49025,51.17222,0.0],[71.49074,51.17243,0.0],[71.49165,51.17266,0.0],[71.49209,51.17393,0.0],[71.49297,51.17477,0.0],[71.4946,51.17562,0.0],[71.49542,51.17583,0.0],[71.49711,51.17586,0.0],[71.49776,51.17577,0.0],[71.49809,51.17636,0.0],[71.49942,51.1778,0.0],[71.50245,51.18097,0.0],[71.5044,51.18299,0.0],[71.50486,51.18356,0.0],[71.50504,51.18354,0.0],[71.50619,51.18321,0.0],[71.50682,51.18305,0.0],[71.507,51.18301,0.0],[71.50756,51.18291,0.0],[71.50777,51.18287,0.0],[71.50804,51.18284,0.0],[71.50875,51.18276,0.0],[71.50909,51.18273,0.0],[71.50951,51.1827,0.0],[71.50975,51.18268,0.0],[71.51072,51.18269,0.0],[71.5116,51.18265,0.0],[71.51227,51.18257,0.0],[71.51451,51.18218,0.0],[71.51517,51.18201,0.0],[71.51603,51.18172,0.0],[71.51986,51.18027,0.0],[71.52083,51.1799,0.0],[71.52167,51.1795,0.0],[71.52262,51.17898,0.0],[71.52396,51.17824,0.0],[71.52484,51.17867,0.0],[71.52534,51.179,0.0],[71.52711,51.17923,0.0],[71.52838,51.17911,0.0],[71.52984,51.17956,0.0],[71.53104,51.18004,0.0],[71.53138,51.18036,0.0],[71.5334,51.18073,0.0],[71.53376,51.1812,0.0],[71.53329,51.18227,0.0],[71.53338,51.18291,0.0],[71.53391,51.18347,0.0],[71.5352,51.18381,0.0],[71.53673,51.18451,0.0],[71.53773,51.1853,0.0],[71.53844,51.18597,0.0],[71.53956,51.18738,0.0],[71.54097,51.18859,0.0],[71.54252,51.18894,0.0],[71.54447,51.18907,0.0],[71.54608,51.18966,0.0],[71.5478,51.19003,0.0],[71.54923,51.19009,0.0],[71.55009,51.1897,0.0],[71.5522,51.1898,0.0],[71.55398,51.1902,0.0],[71.55704,51.19084,0.0],[71.55788,51.19133,0.0],[71.55802,51.19206,0.0],[71.55918,51.19279,0.0],[71.56027,51.1932,0.0],[71.56106,51.19361,0.0],[71.56186,51.19461,0.0],[71.56261,51.19492,0.0],[71.56295,51.19528,0.0],[71.56357,51.19543,0.0],[71.56863,51.19673,0.0],[71.57206,51.19885,0.0],[71.57469,51.19996,0.0],[71.57582,51.20062,0.0],[71.57751,51.20127,0.0],[71.58003,51.20276,0.0],[71.58142,51.20329,0.0],[71.58306,51.20342,0.0],[71.58348,51.2026,0.0],[71.5879,51.1986,0.0],[71.59363,51.19691,0.0],[71.60473,51.19364,0.0],[71.62187,51.18858,0.0],[71.62388,51.1842,0.0],[71.62416,51.18363,0.0],[71.62459,51.18269,0.0],[71.62553,51.18064,0.0],[71.62571,51.18026,0.0],[71.62711,51.17723,0.0],[71.6276,51.17617,0.0],[71.63077,51.16931,0.0],[71.64312,51.14233,0.0],[71.64539,51.13993,0.0],[71.67324,51.14104,0.0],[71.67329,51.14014,0.0],[71.6849,51.14057,0.0],[71.68897,51.14044,0.0],[71.69212,51.13957,0.0],[71.71106,51.13209,0.0],[71.71366,51.13153,0.0],[71.71491,51.13138,0.0],[71.70447,51.1116,0.0],[71.74103,51.1042,0.0],[71.74233,51.10141,0.0],[71.74189,51.10152,0.0],[71.74021,51.1012,0.0],[71.73897,51.10016,0.0],[71.73891,51.09938,0.0],[71.73852,51.09863,0.0],[71.73915,51.09801,0.0],[71.73904,51.09744,0.0],[71.73733,51.09672,0.0],[71.73566,51.0965,0.0],[71.73429,51.09702,0.0],[71.73294,51.09806,0.0],[71.73152,51.09877,0.0],[71.73113,51.09889,0.0],[71.73001,51.09951,0.0],[71.72893,51.10089,0.0],[71.7287,51.10199,0.0],[71.7286,51.10247,0.0],[71.72811,51.1029,0.0],[71.72683,51.10328,0.0],[71.72579,51.1035,0.0],[71.72517,51.10339,0.0],[71.72443,51.10342,0.0],[71.72327,51.10302,0.0],[71.72259,51.10149,0.0],[71.72113,51.10059,0.0],[71.72076,51.10044,0.0],[71.72056,51.10037,0.0],[71.72036,51.1003,0.0],[71.72002,51.10019,0.0],[71.71799,51.09956,0.0],[71.71658,51.09941,0.0],[71.71408,51.09929,0.0],[71.71327,51.09907,0.0],[71.71206,51.09875,0.0],[71.71096,51.0986,0.0],[71.70953,51.09779,0.0],[71.70851,51.09763,0.0],[71.70769,51.09712,0.0],[71.70674,51.09678,0.0],[71.70764,51.0961,0.0],[71.70823,51.09637,0.0],[71.70926,51.09635,0.0],[71.7099,51.09602,0.0],[71.71019,51.09546,0.0],[71.70943,51.0946,0.0],[71.70878,51.094,0.0],[71.70864,51.09319,0.0],[71.70702,51.0925,0.0],[71.7045,51.0921,0.0],[71.70252,51.09281,0.0],[71.70085,51.09211,0.0],[71.70038,51.09072,0.0],[71.69937,51.08943,0.0],[71.69635,51.0893,0.0],[71.69589,51.09071,0.0],[71.69466,51.09118,0.0],[71.69588,51.09241,0.0],[71.69443,51.09262,0.0],[71.69393,51.09355,0.0],[71.69212,51.09368,0.0],[71.69208,51.09305,0.0],[71.69042,51.09257,0.0],[71.6894,51.09297,0.0],[71.68866,51.09267,0.0],[71.68917,51.09206,0.0],[71.6889,51.09135,0.0],[71.68662,51.09115,0.0],[71.68313,51.0916,0.0],[71.68189,51.09123,0.0],[71.68064,51.0904,0.0],[71.67911,51.08532,0.0],[71.67436,51.08624,0.0],[71.65885,51.08928,0.0]]],[[[71.78519,51.1573,0.0],[71.78242,51.15046,0.0],[71.76614,51.14469,0.0],[71.76088,51.14572,0.0],[71.74686,51.16215,0.0],[71.74039,51.16606,0.0],[71.78511,51.16557,0.0],[71.78519,51.1573,0.0]]]]}},{"type":"Feature","properties":{"uesi_id":"KAZ_R3087155","nbhd_code":"KAZ_R3087155_6","nbhd_name":"\u0440\u0430\u0439\u043e\u043d \"\u0421\u0430\u0440\u044b\u0430\u0440\u043a\u0430\""},"geometry":{"type":"MultiPolygon","coordinates":[[[[71.24447,51.199,0.0],[71.24464,51.1992,0.0],[71.24343,51.20003,0.0],[71.24174,51.20082,0.0],[71.24045,51.20136,0.0],[71.24001,51.20195,0.0],[71.24051,51.2025,0.0],[71.24065,51.20278,0.0],[71.24139,51.20284,0.0],[71.24162,51.20328,0.0],[71.2404,51.20507,0.0],[71.24046,51.20557,0.0],[71.24255,51.20629,0.0],[71.24258,51.20657,0.0],[71.24279,51.20679,0.0],[71.24156,51.20754,0.0],[71.23987,51.20758,0.0],[71.23816,51.20854,0.0],[71.23738,51.20844,0.0],[71.2373,51.20867,0.0],[71.23766,51.20887,0.0],[71.23782,51.20918,0.0],[71.23745,51.20962,0.0],[71.23813,51.20979,0.0],[71.23859,51.20968,0.0],[71.23877,51.21005,0.0],[71.23906,51.21006,0.0],[71.23919,51.20986,0.0],[71.2399,51.21022,0.0],[71.23944,51.21023,0.0],[71.23944,51.21047,0.0],[71.24007,51.21047,0.0],[71.24005,51.21065,0.0],[71.23966,51.21074,0.0],[71.23961,51.21093,0.0],[71.24013,51.2109,0.0],[71.24043,51.21105,0.0],[71.2411,51.21107,0.0],[71.24116,51.21125,0.0],[71.24071,51.21131,0.0],[71.24067,51.21147,0.0],[71.24113,51.21167,0.0],[71.24118,51.21186,0.0],[71.2406,51.21202,0.0],[71.24005,51.21233,0.0],[71.24013,51.21251,0.0],[71.24075,51.21269,0.0],[71.24083,51.2133,0.0],[71.24047,51.21351,0.0],[71.24054,51.21376,0.0],[71.24145,51.21414,0.0],[71.24126,51.21457,0.0],[71.24205,51.21514,0.0],[71.24149,51.21597,0.0],[71.24389,51.21912,0.0],[71.24621,51.22161,0.0],[71.24725,51.22353,0.0],[71.24822,51.22521,0.0],[71.24546,51.22598,0.0],[71.25724,51.24118,0.0],[71.26774,51.24101,0.0],[71.27319,51.24675,0.0],[71.30318,51.2362,0.0],[71.3262,51.22845,0.0],[71.35339,51.21988,0.0],[71.35438,51.2195,0.0],[71.35528,51.21911,0.0],[71.35612,51.21867,0.0],[71.35831,51.21696,0.0],[71.35865,51.21663,0.0],[71.35967,51.21563,0.0],[71.36101,51.21401,0.0],[71.36239,51.21248,0.0],[71.36326,51.21166,0.0],[71.36447,51.2108,0.0],[71.36719,51.20946,0.0],[71.36963,51.20866,0.0],[71.3729,51.20761,0.0],[71.37579,51.20671,0.0],[71.42573,51.19077,0.0],[71.43689,51.18739,0.0],[71.4464,51.18435,0.0],[71.44488,51.18246,0.0],[71.44438,51.18195,0.0],[71.44356,51.18122,0.0],[71.4431,51.18088,0.0],[71.44241,51.18043,0.0],[71.44154,51.17994,0.0],[71.44069,51.17956,0.0],[71.43978,51.17924,0.0],[71.43861,51.17893,0.0],[71.43683,51.17862,0.0],[71.43641,51.17858,0.0],[71.42406,51.1772,0.0],[71.42966,51.15727,0.0],[71.43008,51.15578,0.0],[71.43022,51.15533,0.0],[71.4303,51.15516,0.0],[71.4304,51.15501,0.0],[71.43066,51.15472,0.0],[71.43093,51.15448,0.0],[71.43122,51.15428,0.0],[71.43146,51.15418,0.0],[71.42826,51.15193,0.0],[71.42813,51.15199,0.0],[71.4275,51.1525,0.0],[71.42634,51.15535,0.0],[71.42552,51.15689,0.0],[71.42471,51.15845,0.0],[71.42359,51.15942,0.0],[71.42178,51.16024,0.0],[71.41933,51.16042,0.0],[71.41546,51.15886,0.0],[71.40936,51.15721,0.0],[71.40668,51.15735,0.0],[71.40224,51.1583,0.0],[71.39903,51.15968,0.0],[71.39799,51.16036,0.0],[71.39783,51.16077,0.0],[71.39762,51.16096,0.0],[71.3972,51.16132,0.0],[71.39594,51.16248,0.0],[71.39526,51.16281,0.0],[71.39446,51.16291,0.0],[71.39348,51.16302,0.0],[71.39209,51.16316,0.0],[71.39148,51.1632,0.0],[71.38879,51.16336,0.0],[71.38824,51.16341,0.0],[71.38764,51.16347,0.0],[71.38691,51.16352,0.0],[71.38626,51.16356,0.0],[71.38525,51.16361,0.0],[71.38415,51.16367,0.0],[71.3817,51.16389,0.0],[71.38101,51.16394,0.0],[71.37682,51.16434,0.0],[71.37652,51.16436,0.0],[71.37553,51.16445,0.0],[71.37382,51.16458,0.0],[71.36503,51.16458,0.0],[71.36378,51.16457,0.0],[71.36313,51.16457,0.0],[71.36264,51.16441,0.0],[71.36199,51.16401,0.0],[71.36101,51.16369,0.0],[71.35979,51.16349,0.0],[71.35888,51.1634,0.0],[71.35809,51.1635,0.0],[71.35747,51.16374,0.0],[71.35676,51.16432,0.0],[71.35622,51.16484,0.0],[71.35592,51.16529,0.0],[71.35465,51.16586,0.0],[71.35323,51.16613,0.0],[71.35053,51.16735,0.0],[71.34991,51.16767,0.0],[71.34954,51.16795,0.0],[71.34918,51.16837,0.0],[71.34909,51.16867,0.0],[71.34884,51.16903,0.0],[71.34835,51.16957,0.0],[71.34808,51.16993,0.0],[71.34804,51.1703,0.0],[71.34795,51.17081,0.0],[71.34759,51.17112,0.0],[71.34663,51.17151,0.0],[71.346,51.17196,0.0],[71.34543,51.17233,0.0],[71.3444,51.17277,0.0],[71.34309,51.17315,0.0],[71.34272,51.17327,0.0],[71.34174,51.17375,0.0],[71.34109,51.17401,0.0],[71.34031,51.17421,0.0],[71.33937,51.1743,0.0],[71.33841,51.17434,0.0],[71.33748,51.1744,0.0],[71.33662,51.17419,0.0],[71.33641,51.1743,0.0],[71.33611,51.17432,0.0],[71.33586,51.17436,0.0],[71.33542,51.17428,0.0],[71.33507,51.17428,0.0],[71.33446,51.17426,0.0],[71.33425,51.17424,0.0],[71.33397,51.17413,0.0],[71.33347,51.1738,0.0],[71.33305,51.1735,0.0],[71.33274,51.17316,0.0],[71.33237,51.17301,0.0],[71.33195,51.17292,0.0],[71.33109,51.17268,0.0],[71.33097,51.17306,0.0],[71.33094,51.17354,0.0],[71.33053,51.17387,0.0],[71.32993,51.17409,0.0],[71.32967,51.17422,0.0],[71.3289,51.17426,0.0],[71.32839,51.17422,0.0],[71.32824,51.17428,0.0],[71.32771,51.17467,0.0],[71.32698,51.17535,0.0],[71.32675,51.17568,0.0],[71.32705,51.17601,0.0],[71.32754,51.1763,0.0],[71.32762,51.17675,0.0],[71.32744,51.17727,0.0],[71.32711,51.17753,0.0],[71.32657,51.17782,0.0],[71.32563,51.1778,0.0],[71.32498,51.17777,0.0],[71.32446,51.17772,0.0],[71.32395,51.17757,0.0],[71.3237,51.17733,0.0],[71.32367,51.17716,0.0],[71.3236,51.17697,0.0],[71.32353,51.17686,0.0],[71.32339,51.17678,0.0],[71.32323,51.17671,0.0],[71.32306,51.17669,0.0],[71.32289,51.17671,0.0],[71.32254,51.17681,0.0],[71.32201,51.1769,0.0],[71.32184,51.17698,0.0],[71.32168,51.17718,0.0],[71.32156,51.17739,0.0],[71.32148,51.17764,0.0],[71.3214,51.17776,0.0],[71.32117,51.17785,0.0],[71.32092,51.17789,0.0],[71.32075,51.1779,0.0],[71.32063,51.1779,0.0],[71.32054,51.17783,0.0],[71.32047,51.17771,0.0],[71.32043,51.17759,0.0],[71.32036,51.17746,0.0],[71.32024,51.17738,0.0],[71.32013,51.17732,0.0],[71.31996,51.17728,0.0],[71.31981,51.17729,0.0],[71.31963,51.17735,0.0],[71.31953,51.17746,0.0],[71.31947,51.17754,0.0],[71.3194,51.17764,0.0],[71.31928,51.17772,0.0],[71.31905,51.17788,0.0],[71.31874,51.17806,0.0],[71.31839,51.17821,0.0],[71.31822,51.17828,0.0],[71.31805,51.17825,0.0],[71.31785,51.17813,0.0],[71.31783,51.17806,0.0],[71.31766,51.17796,0.0],[71.31758,51.17795,0.0],[71.31742,51.17793,0.0],[71.31735,51.17798,0.0],[71.31734,51.17809,0.0],[71.31738,51.17822,0.0],[71.31735,51.17838,0.0],[71.31725,51.17846,0.0],[71.31706,51.17858,0.0],[71.31667,51.17869,0.0],[71.31615,51.17878,0.0],[71.31582,51.17883,0.0],[71.31551,51.17891,0.0],[71.31528,51.17906,0.0],[71.31526,51.17923,0.0],[71.31525,51.17935,0.0],[71.31516,51.17957,0.0],[71.31493,51.17976,0.0],[71.31474,51.17986,0.0],[71.31439,51.17987,0.0],[71.31412,51.17981,0.0],[71.31395,51.17975,0.0],[71.31372,51.17968,0.0],[71.31347,51.17963,0.0],[71.31325,51.17965,0.0],[71.31295,51.17965,0.0],[71.31279,51.17961,0.0],[71.31267,51.17957,0.0],[71.31255,51.17957,0.0],[71.31238,51.1795,0.0],[71.31208,51.17944,0.0],[71.31184,51.17942,0.0],[71.31158,51.17941,0.0],[71.31142,51.17943,0.0],[71.31131,51.17952,0.0],[71.31133,51.17964,0.0],[71.31153,51.17978,0.0],[71.31166,51.17986,0.0],[71.31171,51.17992,0.0],[71.31172,51.17995,0.0],[71.31169,51.18,0.0],[71.31165,51.18003,0.0],[71.31141,51.18001,0.0],[71.31118,51.17997,0.0],[71.3109,51.17997,0.0],[71.31079,51.18,0.0],[71.31046,51.18008,0.0],[71.31033,51.1801,0.0],[71.31027,51.18008,0.0],[71.31019,51.18003,0.0],[71.31017,51.17998,0.0],[71.31015,51.17992,0.0],[71.31009,51.17988,0.0],[71.30998,51.17986,0.0],[71.30986,51.17993,0.0],[71.30984,51.17997,0.0],[71.30984,51.18001,0.0],[71.30979,51.18005,0.0],[71.30972,51.18009,0.0],[71.30959,51.18014,0.0],[71.30951,51.18018,0.0],[71.30941,51.18027,0.0],[71.30939,51.18039,0.0],[71.30938,51.18048,0.0],[71.30937,51.18057,0.0],[71.30934,51.18062,0.0],[71.30933,51.18073,0.0],[71.3093,51.18084,0.0],[71.30926,51.18096,0.0],[71.30929,51.18106,0.0],[71.30934,51.18116,0.0],[71.3094,51.18122,0.0],[71.30948,51.18129,0.0],[71.30948,51.18138,0.0],[71.30949,51.18146,0.0],[71.30945,51.18153,0.0],[71.30937,51.18156,0.0],[71.30927,51.18161,0.0],[71.30911,51.18167,0.0],[71.30889,51.18169,0.0],[71.30876,51.18169,0.0],[71.30867,51.18166,0.0],[71.3085,51.1816,0.0],[71.30833,51.18161,0.0],[71.30821,51.18165,0.0],[71.30811,51.18171,0.0],[71.30806,51.18176,0.0],[71.308,51.18186,0.0],[71.30797,51.18198,0.0],[71.30797,51.18203,0.0],[71.30794,51.18214,0.0],[71.30787,51.18222,0.0],[71.30779,51.18226,0.0],[71.30759,51.18232,0.0],[71.30721,51.18235,0.0],[71.30703,51.18234,0.0],[71.30674,51.18228,0.0],[71.30629,51.18211,0.0],[71.30562,51.18201,0.0],[71.30521,51.182,0.0],[71.30443,51.18213,0.0],[71.30289,51.18239,0.0],[71.30102,51.18295,0.0],[71.29915,51.18326,0.0],[71.29727,51.18566,0.0],[71.297,51.18683,0.0],[71.29564,51.18767,0.0],[71.2937,51.18838,0.0],[71.2921,51.18919,0.0],[71.28999,51.18924,0.0],[71.28623,51.18907,0.0],[71.27983,51.18832,0.0],[71.27566,51.18847,0.0],[71.2732,51.18839,0.0],[71.27323,51.1885,0.0],[71.2732,51.1886,0.0],[71.27314,51.18865,0.0],[71.27303,51.18871,0.0],[71.2728,51.18878,0.0],[71.2727,51.18881,0.0],[71.27261,51.18893,0.0],[71.27257,51.18904,0.0],[71.2725,51.18912,0.0],[71.27241,51.18915,0.0],[71.27236,51.18914,0.0],[71.27224,51.18917,0.0],[71.27211,51.18919,0.0],[71.27199,51.18926,0.0],[71.27182,51.18936,0.0],[71.27167,51.18939,0.0],[71.27159,51.18939,0.0],[71.27147,51.18936,0.0],[71.27135,51.18929,0.0],[71.27128,51.18921,0.0],[71.27117,51.1892,0.0],[71.27106,51.18927,0.0],[71.27102,51.18928,0.0],[71.27099,51.18929,0.0],[71.27096,51.18928,0.0],[71.27093,51.18928,0.0],[71.27079,51.18925,0.0],[71.27076,51.18924,0.0],[71.27074,51.1892,0.0],[71.27073,51.18916,0.0],[71.27068,51.1891,0.0],[71.27066,51.18903,0.0],[71.27051,51.18895,0.0],[71.27044,51.18889,0.0],[71.27036,51.18885,0.0],[71.27016,51.18893,0.0],[71.26934,51.18955,0.0],[71.26806,51.18883,0.0],[71.26723,51.18872,0.0],[71.26702,51.18958,0.0],[71.26655,51.18968,0.0],[71.26606,51.18953,0.0],[71.26539,51.18908,0.0],[71.26492,51.18897,0.0],[71.26436,51.18918,0.0],[71.26482,51.18961,0.0],[71.26455,51.18985,0.0],[71.26233,51.18968,0.0],[71.26174,51.19173,0.0],[71.26083,51.19218,0.0],[71.26055,51.19184,0.0],[71.26016,51.19159,0.0],[71.26024,51.19107,0.0],[71.25995,51.1909,0.0],[71.2601,51.19023,0.0],[71.25853,51.19015,0.0],[71.25711,51.19038,0.0],[71.25573,51.18949,0.0],[71.25511,51.18978,0.0],[71.2552,51.19031,0.0],[71.25437,51.19131,0.0],[71.25317,51.19118,0.0],[71.25289,51.19038,0.0],[71.2519,51.19032,0.0],[71.25137,51.19076,0.0],[71.25298,51.19251,0.0],[71.25196,51.19261,0.0],[71.25141,51.19344,0.0],[71.25008,51.19333,0.0],[71.24922,51.19374,0.0],[71.24877,51.19501,0.0],[71.2476,51.19552,0.0],[71.24563,51.19655,0.0],[71.24316,51.19693,0.0],[71.24216,51.19769,0.0],[71.24244,51.19784,0.0],[71.2433,51.19827,0.0],[71.24453,51.19831,0.0],[71.24483,51.19846,0.0],[71.2444,51.19892,0.0],[71.24447,51.199,0.0]]]]}},{"type":"Feature","properties":{"uesi_id":"KAZ_R3087155","nbhd_code":"KAZ_R3087155_7","nbhd_name":"\u0440\u0430\u0439\u043e\u043d \"\u0411\u0430\u0439\u043a\u043e\u043d\u0443\u0440\""},"geometry":{"type":"MultiPolygon","coordinates":[[[[71.31524,51.24927,0.0],[71.31947,51.25351,0.0],[71.335,51.26707,0.0],[71.33827,51.26816,0.0],[71.34092,51.26904,0.0],[71.34219,51.26738,0.0],[71.34616,51.26868,0.0],[71.34706,51.26763,0.0],[71.36639,51.27118,0.0],[71.36421,51.27571,0.0],[71.35878,51.28909,0.0],[71.35558,51.29769,0.0],[71.35655,51.29784,0.0],[71.35676,51.29787,0.0],[71.38509,51.30233,0.0],[71.3898,51.29125,0.0],[71.40011,51.26734,0.0],[71.41377,51.27066,0.0],[71.42813,51.27466,0.0],[71.45039,51.2716,0.0],[71.4685,51.27845,0.0],[71.47588,51.28641,0.0],[71.47735,51.28663,0.0],[71.49088,51.28862,0.0],[71.4985,51.29011,0.0],[71.49838,51.28556,0.0],[71.49833,51.28364,0.0],[71.48611,51.27426,0.0],[71.47247,51.26378,0.0],[71.46953,51.26139,0.0],[71.50336,51.25408,0.0],[71.55224,51.24294,0.0],[71.55506,51.24693,0.0],[71.557,51.24668,0.0],[71.55868,51.24852,0.0],[71.56251,51.24855,0.0],[71.56599,51.25288,0.0],[71.56694,51.25748,0.0],[71.5767,51.26295,0.0],[71.58436,51.26941,0.0],[71.59412,51.27765,0.0],[71.60605,51.26729,0.0],[71.6061,51.26723,0.0],[71.60616,51.26716,0.0],[71.60905,51.26031,0.0],[71.61148,51.25737,0.0],[71.61648,51.25131,0.0],[71.61881,51.24848,0.0],[71.59621,51.23423,0.0],[71.58076,51.22448,0.0],[71.57758,51.22247,0.0],[71.57446,51.2205,0.0],[71.57427,51.22038,0.0],[71.57764,51.21387,0.0],[71.58306,51.20342,0.0],[71.58142,51.20329,0.0],[71.58003,51.20276,0.0],[71.57751,51.20127,0.0],[71.57582,51.20062,0.0],[71.57469,51.19996,0.0],[71.57206,51.19885,0.0],[71.56863,51.19673,0.0],[71.56357,51.19543,0.0],[71.56295,51.19528,0.0],[71.56261,51.19492,0.0],[71.56186,51.19461,0.0],[71.56106,51.19361,0.0],[71.56027,51.1932,0.0],[71.55918,51.19279,0.0],[71.55802,51.19206,0.0],[71.55788,51.19133,0.0],[71.55704,51.19084,0.0],[71.55398,51.1902,0.0],[71.5522,51.1898,0.0],[71.55009,51.1897,0.0],[71.54923,51.19009,0.0],[71.5478,51.19003,0.0],[71.54608,51.18966,0.0],[71.54447,51.18907,0.0],[71.54252,51.18894,0.0],[71.54097,51.18859,0.0],[71.53956,51.18738,0.0],[71.53844,51.18597,0.0],[71.53773,51.1853,0.0],[71.53673,51.18451,0.0],[71.5352,51.18381,0.0],[71.53391,51.18347,0.0],[71.53338,51.18291,0.0],[71.53329,51.18227,0.0],[71.53376,51.1812,0.0],[71.5334,51.18073,0.0],[71.53138,51.18036,0.0],[71.53104,51.18004,0.0],[71.52984,51.17956,0.0],[71.52838,51.17911,0.0],[71.52711,51.17923,0.0],[71.52534,51.179,0.0],[71.52484,51.17867,0.0],[71.52396,51.17824,0.0],[71.52262,51.17898,0.0],[71.52167,51.1795,0.0],[71.52083,51.1799,0.0],[71.51986,51.18027,0.0],[71.51603,51.18172,0.0],[71.51517,51.18201,0.0],[71.51451,51.18218,0.0],[71.51227,51.18257,0.0],[71.5116,51.18265,0.0],[71.51072,51.18269,0.0],[71.50975,51.18268,0.0],[71.50951,51.1827,0.0],[71.50909,51.18273,0.0],[71.50875,51.18276,0.0],[71.50804,51.18284,0.0],[71.50777,51.18287,0.0],[71.50756,51.18291,0.0],[71.507,51.18301,0.0],[71.50682,51.18305,0.0],[71.50619,51.18321,0.0],[71.50504,51.18354,0.0],[71.50486,51.18356,0.0],[71.5044,51.18299,0.0],[71.50245,51.18097,0.0],[71.49942,51.1778,0.0],[71.49809,51.17636,0.0],[71.49776,51.17577,0.0],[71.49711,51.17586,0.0],[71.49542,51.17583,0.0],[71.4946,51.17562,0.0],[71.49297,51.17477,0.0],[71.49209,51.17393,0.0],[71.49165,51.17266,0.0],[71.49074,51.17243,0.0],[71.49025,51.17222,0.0],[71.48956,51.17203,0.0],[71.48791,51.17108,0.0],[71.48637,51.1698,0.0],[71.48617,51.16957,0.0],[71.48534,51.16888,0.0],[71.48419,51.1683,0.0],[71.48378,51.16824,0.0],[71.48275,51.16836,0.0],[71.48214,51.16834,0.0],[71.48157,51.16812,0.0],[71.48086,51.1678,0.0],[71.48042,51.16748,0.0],[71.47965,51.1667,0.0],[71.47898,51.1658,0.0],[71.47818,51.1648,0.0],[71.47803,51.16462,0.0],[71.47784,51.16431,0.0],[71.47775,51.16421,0.0],[71.47764,51.16414,0.0],[71.47745,51.1641,0.0],[71.4767,51.16398,0.0],[71.47588,51.1639,0.0],[71.47503,51.16386,0.0],[71.47452,51.16379,0.0],[71.47402,51.16366,0.0],[71.47312,51.16307,0.0],[71.47287,51.16271,0.0],[71.47272,51.16244,0.0],[71.47247,51.16208,0.0],[71.47191,51.1616,0.0],[71.47036,51.16104,0.0],[71.47019,51.16093,0.0],[71.47,51.16079,0.0],[71.46964,51.16037,0.0],[71.46892,51.15995,0.0],[71.46711,51.15902,0.0],[71.4654,51.15816,0.0],[71.45958,51.15551,0.0],[71.45499,51.1546,0.0],[71.45468,51.15424,0.0],[71.45365,51.15393,0.0],[71.45362,51.15366,0.0],[71.45314,51.15332,0.0],[71.45239,51.15311,0.0],[71.45162,51.15305,0.0],[71.4504,51.15277,0.0],[71.44763,51.15194,0.0],[71.44569,51.15084,0.0],[71.44427,51.15004,0.0],[71.44314,51.14942,0.0],[71.44075,51.14846,0.0],[71.43847,51.14754,0.0],[71.43801,51.14774,0.0],[71.43784,51.14836,0.0],[71.43587,51.14959,0.0],[71.43316,51.15005,0.0],[71.43106,51.15027,0.0],[71.42934,51.15102,0.0],[71.42849,51.1517,0.0],[71.42826,51.15193,0.0],[71.43146,51.15418,0.0],[71.43122,51.15428,0.0],[71.43093,51.15448,0.0],[71.43066,51.15472,0.0],[71.4304,51.15501,0.0],[71.4303,51.15516,0.0],[71.43022,51.15533,0.0],[71.43008,51.15578,0.0],[71.42966,51.15727,0.0],[71.42406,51.1772,0.0],[71.43641,51.17858,0.0],[71.43683,51.17862,0.0],[71.43861,51.17893,0.0],[71.43978,51.17924,0.0],[71.44069,51.17956,0.0],[71.44154,51.17994,0.0],[71.44241,51.18043,0.0],[71.4431,51.18088,0.0],[71.44356,51.18122,0.0],[71.44438,51.18195,0.0],[71.44488,51.18246,0.0],[71.4464,51.18435,0.0],[71.43689,51.18739,0.0],[71.42573,51.19077,0.0],[71.37579,51.20671,0.0],[71.3729,51.20761,0.0],[71.36963,51.20866,0.0],[71.36719,51.20946,0.0],[71.36447,51.2108,0.0],[71.36326,51.21166,0.0],[71.36239,51.21248,0.0],[71.36101,51.21401,0.0],[71.35967,51.21563,0.0],[71.35865,51.21663,0.0],[71.35831,51.21696,0.0],[71.35612,51.21867,0.0],[71.35528,51.21911,0.0],[71.35438,51.2195,0.0],[71.35339,51.21988,0.0],[71.3262,51.22845,0.0],[71.30318,51.2362,0.0],[71.31524,51.24927,0.0]]],[[[71.30925,51.26385,0.0],[71.29809,51.27276,0.0],[71.30788,51.2777,0.0],[71.30612,51.29096,0.0],[71.32019,51.29539,0.0],[71.33622,51.2717,0.0],[71.30925,51.26385,0.0]]],[[[71.64453,51.32837,0.0],[71.64153,51.33167,0.0],[71.66781,51.33988,0.0],[71.68387,51.35094,0.0],[71.6951,51.35111,0.0],[71.69271,51.34888,0.0],[71.69774,51.34659,0.0],[71.70113,51.34977,0.0],[71.70633,51.3476,0.0],[71.70391,51.34283,0.0],[71.69992,51.33888,0.0],[71.69905,51.33787,0.0],[71.69737,51.33534,0.0],[71.69418,51.33353,0.0],[71.69383,51.33371,0.0],[71.6866,51.32889,0.0],[71.68425,51.32565,0.0],[71.67876,51.32174,0.0],[71.67249,51.31745,0.0],[71.6716,51.31656,0.0],[71.67332,51.31566,0.0],[71.67075,51.31399,0.0],[71.67042,51.31377,0.0],[71.67423,51.31115,0.0],[71.67187,51.30943,0.0],[71.67036,51.31038,0.0],[71.66774,51.31219,0.0],[71.66655,51.31302,0.0],[71.65803,51.31716,0.0],[71.65796,51.31719,0.0],[71.65131,51.32152,0.0],[71.64453,51.32837,0.0]]]]}}]}