{"type":"FeatureCollection","name":"KEN_R9185096","crs":{"type":"name","properties":{"name":"urn:ogc:def:crs:OGC:1.3:CRS84"}},"features":[{"type":"Feature","properties":{"uesi_id":"KEN_R9185096","nbhd_code":"KEN_R9185096_1","nbhd_name":"Mathare"},"geometry":{"type":"MultiPolygon","coordinates":[[[[36.87777,-1.24986,0.0],[36.87826,-1.25992,0.0],[36.87518,-1.25998,0.0],[36.87349,-1.25965,0.0],[36.87204,-1.25936,0.0],[36.86897,-1.25899,0.0],[36.8653,-1.26003,0.0],[36.86151,-1.2612,0.0],[36.85928,-1.2621,0.0],[36.85843,-1.26323,0.0],[36.85609,-1.2636,0.0],[36.85146,-1.26362,0.0],[36.85022,-1.2637,0.0],[36.84848,-1.26386,0.0],[36.84759,-1.26404,0.0],[36.84305,-1.26502,0.0],[36.8419,-1.262,0.0],[36.84104,-1.26192,0.0],[36.84007,-1.26185,0.0],[36.83903,-1.26175,0.0],[36.83786,-1.26208,0.0],[36.83708,-1.26189,0.0],[36.83811,-1.26106,0.0],[36.83928,-1.26096,0.0],[36.84054,-1.2599,0.0],[36.84088,-1.25914,0.0],[36.84182,-1.25796,0.0],[36.84297,-1.25788,0.0],[36.84617,-1.25629,0.0],[36.85066,-1.25636,0.0],[36.85183,-1.25735,0.0],[36.85291,-1.25796,0.0],[36.85419,-1.25922,0.0],[36.85576,-1.26059,0.0],[36.85686,-1.26042,0.0],[36.85788,-1.26048,0.0],[36.85895,-1.26046,0.0],[36.85984,-1.2597,0.0],[36.86095,-1.25885,0.0],[36.86106,-1.25756,0.0],[36.86164,-1.25673,0.0],[36.86251,-1.25619,0.0],[36.86333,-1.25571,0.0],[36.86389,-1.25506,0.0],[36.86478,-1.25489,0.0],[36.86582,-1.25476,0.0],[36.86673,-1.2546,0.0],[36.86755,-1.25422,0.0],[36.8686,-1.25378,0.0],[36.86942,-1.25312,0.0],[36.86998,-1.25209,0.0],[36.8709,-1.25173,0.0],[36.87175,-1.25161,0.0],[36.87327,-1.25027,0.0],[36.87453,-1.24983,0.0],[36.87575,-1.24971,0.0],[36.87639,-1.2486,0.0],[36.87641,-1.24735,0.0],[36.87731,-1.24651,0.0],[36.87777,-1.24986,0.0]]]]}},{"type":"Feature","properties":{"uesi_id":"KEN_R9185096","nbhd_code":"KEN_R9185096_2","nbhd_name":"Embakasi Central"},"geometry":{"type":"MultiPolygon","coordinates":[[[[36.93617,-1.25759,0.0],[36.93801,-1.26309,0.0],[36.93706,-1.26367,0.0],[36.93584,-1.26351,0.0],[36.93491,-1.26344,0.0],[36.93393,-1.26346,0.0],[36.93326,-1.26391,0.0],[36.93263,-1.26461,0.0],[36.93168,-1.26417,0.0],[36.93068,-1.26397,0.0],[36.9294,-1.26409,0.0],[36.92854,-1.26468,0.0],[36.92779,-1.26446,0.0],[36.92682,-1.26446,0.0],[36.92552,-1.26497,0.0],[36.92466,-1.26545,0.0],[36.92469,-1.26664,0.0],[36.92457,-1.26774,0.0],[36.92399,-1.2683,0.0],[36.92282,-1.2688,0.0],[36.92182,-1.26921,0.0],[36.9206,-1.26987,0.0],[36.92008,-1.27091,0.0],[36.91999,-1.27189,0.0],[36.92006,-1.27271,0.0],[36.92034,-1.27379,0.0],[36.9206,-1.27466,0.0],[36.91929,-1.27509,0.0],[36.91828,-1.27561,0.0],[36.91772,-1.27638,0.0],[36.91764,-1.27798,0.0],[36.91724,-1.27889,0.0],[36.91786,-1.27972,0.0],[36.91792,-1.28084,0.0],[36.91765,-1.28183,0.0],[36.91709,-1.28256,0.0],[36.91628,-1.2837,0.0],[36.91561,-1.28477,0.0],[36.91477,-1.2851,0.0],[36.91467,-1.28594,0.0],[36.91507,-1.2866,0.0],[36.91547,-1.28733,0.0],[36.91476,-1.28823,0.0],[36.91341,-1.28885,0.0],[36.91214,-1.28853,0.0],[36.90599,-1.27737,0.0],[36.9037,-1.27878,0.0],[36.90208,-1.27948,0.0],[36.8996,-1.27426,0.0],[36.89754,-1.26935,0.0],[36.90031,-1.26703,0.0],[36.90203,-1.26503,0.0],[36.90324,-1.26336,0.0],[36.90554,-1.26091,0.0],[36.90835,-1.25833,0.0],[36.90934,-1.25766,0.0],[36.91076,-1.25706,0.0],[36.91265,-1.25667,0.0],[36.91368,-1.2564,0.0],[36.91655,-1.25595,0.0],[36.92023,-1.25512,0.0],[36.92408,-1.25427,0.0],[36.92595,-1.25369,0.0],[36.92669,-1.25346,0.0],[36.9305,-1.25187,0.0],[36.93221,-1.25116,0.0],[36.93359,-1.25059,0.0],[36.93617,-1.25759,0.0]]]]}},{"type":"Feature","properties":{"uesi_id":"KEN_R9185096","nbhd_code":"KEN_R9185096_3","nbhd_name":"Makadara"},"geometry":{"type":"MultiPolygon","coordinates":[[[[36.88246,-1.27953,0.0],[36.88284,-1.28094,0.0],[36.88345,-1.28319,0.0],[36.8838,-1.28448,0.0],[36.88407,-1.2854,0.0],[36.88501,-1.28891,0.0],[36.88527,-1.29023,0.0],[36.88573,-1.29238,0.0],[36.8859,-1.29371,0.0],[36.88614,-1.29497,0.0],[36.88675,-1.29814,0.0],[36.88695,-1.29911,0.0],[36.8872,-1.3002,0.0],[36.88765,-1.30174,0.0],[36.88794,-1.30259,0.0],[36.88864,-1.30421,0.0],[36.88771,-1.30479,0.0],[36.88661,-1.30498,0.0],[36.88577,-1.30582,0.0],[36.88468,-1.30615,0.0],[36.88354,-1.30694,0.0],[36.88221,-1.30785,0.0],[36.8815,-1.30815,0.0],[36.88044,-1.30829,0.0],[36.87925,-1.30823,0.0],[36.8785,-1.30813,0.0],[36.87736,-1.30821,0.0],[36.87622,-1.30889,0.0],[36.87508,-1.30971,0.0],[36.87378,-1.31043,0.0],[36.87273,-1.31089,0.0],[36.87195,-1.31095,0.0],[36.87168,-1.3102,0.0],[36.87054,-1.31033,0.0],[36.86935,-1.30991,0.0],[36.86836,-1.30983,0.0],[36.86738,-1.30985,0.0],[36.86623,-1.31022,0.0],[36.86558,-1.31106,0.0],[36.86411,-1.3116,0.0],[36.86296,-1.3119,0.0],[36.86229,-1.31252,0.0],[36.86149,-1.31402,0.0],[36.86047,-1.31441,0.0],[36.85882,-1.31452,0.0],[36.85773,-1.31493,0.0],[36.85675,-1.31454,0.0],[36.85594,-1.31388,0.0],[36.85658,-1.31299,0.0],[36.85739,-1.31208,0.0],[36.85868,-1.31114,0.0],[36.85957,-1.31046,0.0],[36.86042,-1.3095,0.0],[36.86054,-1.30815,0.0],[36.8604,-1.30692,0.0],[36.86015,-1.30581,0.0],[36.85952,-1.30485,0.0],[36.8582,-1.30286,0.0],[36.85672,-1.30065,0.0],[36.85585,-1.29932,0.0],[36.856,-1.29829,0.0],[36.85467,-1.29819,0.0],[36.85279,-1.29846,0.0],[36.84995,-1.2989,0.0],[36.8484,-1.29914,0.0],[36.8469,-1.29932,0.0],[36.84571,-1.29933,0.0],[36.84473,-1.29915,0.0],[36.8434,-1.29837,0.0],[36.84246,-1.29748,0.0],[36.84187,-1.29658,0.0],[36.84046,-1.29418,0.0],[36.83969,-1.29288,0.0],[36.83893,-1.29159,0.0],[36.83813,-1.29024,0.0],[36.83766,-1.28951,0.0],[36.84019,-1.28956,0.0],[36.84114,-1.28987,0.0],[36.84305,-1.2903,0.0],[36.84869,-1.29158,0.0],[36.85042,-1.29193,0.0],[36.85152,-1.29072,0.0],[36.85165,-1.28977,0.0],[36.85171,-1.28869,0.0],[36.85163,-1.2877,0.0],[36.85288,-1.28719,0.0],[36.85411,-1.28608,0.0],[36.85481,-1.28553,0.0],[36.856,-1.28536,0.0],[36.85701,-1.28478,0.0],[36.85804,-1.28419,0.0],[36.85901,-1.28364,0.0],[36.8597,-1.28315,0.0],[36.86023,-1.28252,0.0],[36.86126,-1.28174,0.0],[36.86251,-1.28124,0.0],[36.86366,-1.28107,0.0],[36.86452,-1.28084,0.0],[36.86664,-1.28501,0.0],[36.87172,-1.28075,0.0],[36.87392,-1.27868,0.0],[36.8755,-1.28129,0.0],[36.87768,-1.27948,0.0],[36.87917,-1.2796,0.0],[36.8805,-1.27968,0.0],[36.87999,-1.27859,0.0],[36.87959,-1.2779,0.0],[36.87913,-1.27696,0.0],[36.87869,-1.27576,0.0],[36.88055,-1.27486,0.0],[36.88165,-1.27463,0.0],[36.88198,-1.27679,0.0],[36.88226,-1.27826,0.0],[36.88246,-1.27953,0.0]]]]}},{"type":"Feature","properties":{"uesi_id":"KEN_R9185096","nbhd_code":"KEN_R9185096_4","nbhd_name":"Kasarani"},"geometry":{"type":"MultiPolygon","coordinates":[[[[37.10176,-1.25908,0.0],[37.10172,-1.26034,0.0],[37.10269,-1.26114,0.0],[37.10345,-1.26213,0.0],[37.10367,-1.26302,0.0],[37.10355,-1.26396,0.0],[37.10253,-1.26553,0.0],[37.10218,-1.26681,0.0],[37.10224,-1.26771,0.0],[37.10206,-1.26857,0.0],[37.10154,-1.26985,0.0],[37.10126,-1.27108,0.0],[37.10081,-1.27265,0.0],[37.09953,-1.27279,0.0],[37.09869,-1.27187,0.0],[37.09785,-1.27091,0.0],[37.09675,-1.27105,0.0],[37.09595,-1.27184,0.0],[37.09519,-1.27221,0.0],[37.09405,-1.27277,0.0],[37.09311,-1.27319,0.0],[37.09194,-1.27329,0.0],[37.09104,-1.2735,0.0],[37.09012,-1.27408,0.0],[37.08912,-1.27452,0.0],[37.08829,-1.27463,0.0],[37.08739,-1.27479,0.0],[37.08647,-1.2752,0.0],[37.08566,-1.2758,0.0],[37.0846,-1.2767,0.0],[37.08386,-1.27767,0.0],[37.08362,-1.27885,0.0],[37.08348,-1.27975,0.0],[37.08317,-1.281,0.0],[37.08257,-1.28237,0.0],[37.08144,-1.28263,0.0],[37.08039,-1.28205,0.0],[37.07896,-1.28129,0.0],[37.078,-1.28125,0.0],[37.07718,-1.28169,0.0],[37.07644,-1.28284,0.0],[37.07616,-1.28363,0.0],[37.0761,-1.28469,0.0],[37.07616,-1.28623,0.0],[37.07608,-1.28749,0.0],[37.07593,-1.28877,0.0],[37.07515,-1.2897,0.0],[37.07424,-1.29024,0.0],[37.0733,-1.29106,0.0],[37.07264,-1.29194,0.0],[37.0724,-1.29269,0.0],[37.07256,-1.2936,0.0],[37.07269,-1.29475,0.0],[37.07232,-1.29581,0.0],[37.07239,-1.29723,0.0],[37.07347,-1.29814,0.0],[37.07451,-1.29775,0.0],[37.07548,-1.29817,0.0],[37.07603,-1.29901,0.0],[37.07621,-1.29994,0.0],[37.07573,-1.30104,0.0],[37.06544,-1.2989,0.0],[37.05946,-1.29745,0.0],[37.05407,-1.29614,0.0],[37.04355,-1.29359,0.0],[37.02996,-1.29048,0.0],[37.02838,-1.29009,0.0],[37.02596,-1.28951,0.0],[37.02296,-1.29059,0.0],[37.01965,-1.29177,0.0],[37.01534,-1.29335,0.0],[37.00935,-1.29555,0.0],[37.00565,-1.29695,0.0],[37.00194,-1.29835,0.0],[37.0002,-1.29337,0.0],[36.99956,-1.29133,0.0],[36.99481,-1.27906,0.0],[36.99025,-1.28084,0.0],[36.98389,-1.27179,0.0],[36.98181,-1.26887,0.0],[36.97996,-1.26634,0.0],[36.97043,-1.26017,0.0],[36.96748,-1.25837,0.0],[36.95552,-1.258,0.0],[36.94149,-1.25757,0.0],[36.93617,-1.25759,0.0],[36.93359,-1.25059,0.0],[36.93221,-1.25116,0.0],[36.9305,-1.25187,0.0],[36.92669,-1.25346,0.0],[36.92595,-1.25369,0.0],[36.92408,-1.25427,0.0],[36.92023,-1.25512,0.0],[36.91655,-1.25595,0.0],[36.91368,-1.2564,0.0],[36.91258,-1.25586,0.0],[36.91051,-1.25501,0.0],[36.90905,-1.25464,0.0],[36.90742,-1.25443,0.0],[36.90631,-1.25441,0.0],[36.90514,-1.25441,0.0],[36.9041,-1.25456,0.0],[36.90304,-1.25503,0.0],[36.90205,-1.25518,0.0],[36.90079,-1.2548,0.0],[36.89995,-1.25394,0.0],[36.90101,-1.25345,0.0],[36.90195,-1.25302,0.0],[36.90226,-1.25214,0.0],[36.90259,-1.25115,0.0],[36.90311,-1.24998,0.0],[36.90403,-1.24902,0.0],[36.90507,-1.2485,0.0],[36.9065,-1.24752,0.0],[36.90704,-1.24688,0.0],[36.90788,-1.24641,0.0],[36.90873,-1.24567,0.0],[36.90941,-1.24506,0.0],[36.91028,-1.24446,0.0],[36.91147,-1.24416,0.0],[36.91224,-1.24364,0.0],[36.91342,-1.24357,0.0],[36.91443,-1.24287,0.0],[36.91512,-1.24203,0.0],[36.91569,-1.24136,0.0],[36.91682,-1.24049,0.0],[36.91769,-1.24024,0.0],[36.91868,-1.24028,0.0],[36.9198,-1.23997,0.0],[36.9209,-1.23967,0.0],[36.92195,-1.23979,0.0],[36.92404,-1.24012,0.0],[36.92556,-1.24032,0.0],[36.92673,-1.24002,0.0],[36.93017,-1.23761,0.0],[36.92896,-1.2376,0.0],[36.92774,-1.23792,0.0],[36.92717,-1.23852,0.0],[36.92633,-1.23878,0.0],[36.92562,-1.23914,0.0],[36.92445,-1.23909,0.0],[36.92348,-1.23808,0.0],[36.9228,-1.23753,0.0],[36.92192,-1.23756,0.0],[36.92125,-1.23797,0.0],[36.92049,-1.23842,0.0],[36.91953,-1.23854,0.0],[36.91868,-1.2385,0.0],[36.91802,-1.23797,0.0],[36.91734,-1.23734,0.0],[36.91623,-1.23691,0.0],[36.91427,-1.23564,0.0],[36.91315,-1.23519,0.0],[36.91235,-1.23498,0.0],[36.91128,-1.2353,0.0],[36.91094,-1.2344,0.0],[36.90986,-1.23336,0.0],[36.9091,-1.23306,0.0],[36.90832,-1.23274,0.0],[36.90723,-1.2324,0.0],[36.90633,-1.23187,0.0],[36.90577,-1.23119,0.0],[36.90487,-1.23115,0.0],[36.9041,-1.23145,0.0],[36.90318,-1.23175,0.0],[36.90207,-1.23258,0.0],[36.9013,-1.23245,0.0],[36.90026,-1.23223,0.0],[36.89935,-1.23282,0.0],[36.89799,-1.23235,0.0],[36.89706,-1.232,0.0],[36.89671,-1.23284,0.0],[36.89609,-1.23361,0.0],[36.89512,-1.23432,0.0],[36.89424,-1.23482,0.0],[36.89368,-1.23539,0.0],[36.89147,-1.23559,0.0],[36.89063,-1.23553,0.0],[36.88924,-1.23537,0.0],[36.88815,-1.23514,0.0],[36.88701,-1.23475,0.0],[36.88573,-1.23427,0.0],[36.88453,-1.23483,0.0],[36.8836,-1.23503,0.0],[36.88252,-1.23529,0.0],[36.88148,-1.23625,0.0],[36.88078,-1.23678,0.0],[36.87978,-1.23656,0.0],[36.87893,-1.23702,0.0],[36.87755,-1.23699,0.0],[36.8762,-1.23644,0.0],[36.87551,-1.23706,0.0],[36.87521,-1.23793,0.0],[36.87446,-1.23822,0.0],[36.87373,-1.23786,0.0],[36.87315,-1.2371,0.0],[36.87204,-1.23669,0.0],[36.87102,-1.23632,0.0],[36.87024,-1.23607,0.0],[36.86921,-1.23603,0.0],[36.87017,-1.23411,0.0],[36.87196,-1.23223,0.0],[36.87275,-1.23157,0.0],[36.87551,-1.22927,0.0],[36.87968,-1.22606,0.0],[36.88175,-1.22458,0.0],[36.88393,-1.22307,0.0],[36.88583,-1.22139,0.0],[36.88966,-1.21733,0.0],[36.89425,-1.21349,0.0],[36.89593,-1.21192,0.0],[36.89765,-1.21116,0.0],[36.89959,-1.21057,0.0],[36.90142,-1.20996,0.0],[36.90356,-1.20917,0.0],[36.90766,-1.20791,0.0],[36.91027,-1.2068,0.0],[36.91106,-1.20642,0.0],[36.91174,-1.20573,0.0],[36.91243,-1.20505,0.0],[36.91309,-1.20559,0.0],[36.91368,-1.20648,0.0],[36.91381,-1.20728,0.0],[36.91419,-1.20857,0.0],[36.91487,-1.20913,0.0],[36.91552,-1.2101,0.0],[36.91682,-1.21082,0.0],[36.91784,-1.21138,0.0],[36.91843,-1.2119,0.0],[36.919,-1.21245,0.0],[36.92001,-1.21296,0.0],[36.9207,-1.21425,0.0],[36.92134,-1.21476,0.0],[36.92224,-1.21526,0.0],[36.9236,-1.21549,0.0],[36.9245,-1.21558,0.0],[36.92533,-1.2159,0.0],[36.92652,-1.21648,0.0],[36.92727,-1.2173,0.0],[36.92855,-1.21798,0.0],[36.93038,-1.21924,0.0],[36.93118,-1.21995,0.0],[36.93213,-1.21992,0.0],[36.93307,-1.21923,0.0],[36.93433,-1.21912,0.0],[36.93676,-1.21917,0.0],[36.93762,-1.21917,0.0],[36.9395,-1.22023,0.0],[36.94613,-1.22334,0.0],[36.94746,-1.22395,0.0],[36.94899,-1.22465,0.0],[36.95012,-1.22483,0.0],[36.95113,-1.22469,0.0],[36.952,-1.22449,0.0],[36.95314,-1.22424,0.0],[36.95493,-1.22567,0.0],[36.95705,-1.22701,0.0],[36.95812,-1.22638,0.0],[36.95924,-1.22561,0.0],[36.9602,-1.22532,0.0],[36.96117,-1.22523,0.0],[36.96196,-1.22539,0.0],[36.9631,-1.22593,0.0],[36.96441,-1.22665,0.0],[36.96949,-1.22666,0.0],[36.97001,-1.22605,0.0],[36.97118,-1.22553,0.0],[36.97203,-1.22523,0.0],[36.97276,-1.22484,0.0],[36.97375,-1.22415,0.0],[36.97492,-1.22373,0.0],[36.97634,-1.22333,0.0],[36.97769,-1.22227,0.0],[36.97883,-1.22237,0.0],[36.97989,-1.22213,0.0],[36.98102,-1.22189,0.0],[36.98197,-1.22189,0.0],[36.98261,-1.22132,0.0],[36.98343,-1.2212,0.0],[36.98431,-1.22097,0.0],[36.98509,-1.22151,0.0],[36.98576,-1.2211,0.0],[36.98674,-1.22117,0.0],[36.9878,-1.22165,0.0],[36.98913,-1.22205,0.0],[36.99044,-1.22234,0.0],[36.99125,-1.22262,0.0],[36.99185,-1.22347,0.0],[36.99249,-1.22496,0.0],[36.99335,-1.2267,0.0],[36.99406,-1.22808,0.0],[36.99446,-1.22922,0.0],[36.99498,-1.23014,0.0],[36.99707,-1.23098,0.0],[36.99928,-1.23175,0.0],[37.00043,-1.23219,0.0],[37.00124,-1.23287,0.0],[37.0025,-1.2334,0.0],[37.00376,-1.23389,0.0],[37.00489,-1.23407,0.0],[37.00603,-1.23401,0.0],[37.00754,-1.23349,0.0],[37.00868,-1.23335,0.0],[37.00969,-1.23346,0.0],[37.0108,-1.234,0.0],[37.01145,-1.23329,0.0],[37.0122,-1.23306,0.0],[37.01274,-1.23252,0.0],[37.01274,-1.23157,0.0],[37.01265,-1.23027,0.0],[37.01287,-1.22843,0.0],[37.01344,-1.22762,0.0],[37.01479,-1.22653,0.0],[37.01583,-1.22665,0.0],[37.01657,-1.22633,0.0],[37.017,-1.22493,0.0],[37.01873,-1.22445,0.0],[37.01995,-1.22435,0.0],[37.02085,-1.22435,0.0],[37.022,-1.22463,0.0],[37.02242,-1.22364,0.0],[37.02301,-1.22159,0.0],[37.02375,-1.22115,0.0],[37.02647,-1.21993,0.0],[37.02838,-1.21875,0.0],[37.02924,-1.21858,0.0],[37.03016,-1.21844,0.0],[37.03089,-1.21788,0.0],[37.03138,-1.21683,0.0],[37.03228,-1.2157,0.0],[37.03289,-1.21489,0.0],[37.03336,-1.21371,0.0],[37.0343,-1.21285,0.0],[37.03585,-1.21197,0.0],[37.03699,-1.2114,0.0],[37.03777,-1.21035,0.0],[37.03863,-1.21002,0.0],[37.04282,-1.20779,0.0],[37.04359,-1.2078,0.0],[37.04474,-1.20768,0.0],[37.04601,-1.20764,0.0],[37.04712,-1.20751,0.0],[37.04778,-1.20656,0.0],[37.04839,-1.20587,0.0],[37.0495,-1.20592,0.0],[37.05369,-1.20412,0.0],[37.05468,-1.20447,0.0],[37.05622,-1.20589,0.0],[37.0573,-1.20653,0.0],[37.05824,-1.20614,0.0],[37.05888,-1.20543,0.0],[37.05949,-1.20494,0.0],[37.06044,-1.20437,0.0],[37.06146,-1.20361,0.0],[37.06271,-1.2027,0.0],[37.06968,-1.21524,0.0],[37.07295,-1.22132,0.0],[37.07512,-1.22534,0.0],[37.07729,-1.22934,0.0],[37.08029,-1.23488,0.0],[37.08579,-1.23228,0.0],[37.08815,-1.23117,0.0],[37.09061,-1.23499,0.0],[37.09115,-1.23586,0.0],[37.09488,-1.2424,0.0],[37.08624,-1.24627,0.0],[37.08741,-1.24726,0.0],[37.09371,-1.2526,0.0],[37.10176,-1.25908,0.0]]]]}},{"type":"Feature","properties":{"uesi_id":"KEN_R9185096","nbhd_code":"KEN_R9185096_5","nbhd_name":"Embakasi East"},"geometry":{"type":"MultiPolygon","coordinates":[[[[36.97043,-1.26017,0.0],[36.97996,-1.26634,0.0],[36.98181,-1.26887,0.0],[36.98389,-1.27179,0.0],[36.99025,-1.28084,0.0],[36.98672,-1.28221,0.0],[36.98434,-1.28314,0.0],[36.97384,-1.28722,0.0],[36.97637,-1.29369,0.0],[36.97686,-1.29496,0.0],[36.98216,-1.30868,0.0],[36.98357,-1.31245,0.0],[36.97982,-1.32064,0.0],[36.97345,-1.33467,0.0],[36.96644,-1.3504,0.0],[36.96577,-1.35179,0.0],[36.96311,-1.34892,0.0],[36.96041,-1.34602,0.0],[36.95721,-1.34491,0.0],[36.94462,-1.34035,0.0],[36.93392,-1.33638,0.0],[36.92526,-1.3442,0.0],[36.9152,-1.35347,0.0],[36.90722,-1.35991,0.0],[36.90442,-1.35747,0.0],[36.90165,-1.355,0.0],[36.8995,-1.35308,0.0],[36.89788,-1.35124,0.0],[36.89566,-1.34871,0.0],[36.8941,-1.34713,0.0],[36.88505,-1.33763,0.0],[36.88135,-1.33374,0.0],[36.88827,-1.32837,0.0],[36.89091,-1.32633,0.0],[36.89798,-1.32218,0.0],[36.89929,-1.3214,0.0],[36.89871,-1.32046,0.0],[36.89527,-1.3149,0.0],[36.88864,-1.30421,0.0],[36.88794,-1.30259,0.0],[36.88765,-1.30174,0.0],[36.8872,-1.3002,0.0],[36.88695,-1.29911,0.0],[36.88675,-1.29814,0.0],[36.88614,-1.29497,0.0],[36.8859,-1.29371,0.0],[36.88573,-1.29238,0.0],[36.88725,-1.29175,0.0],[36.88802,-1.29141,0.0],[36.88924,-1.29078,0.0],[36.8921,-1.28898,0.0],[36.89843,-1.28355,0.0],[36.89867,-1.28248,0.0],[36.89906,-1.28174,0.0],[36.90208,-1.27948,0.0],[36.9037,-1.27878,0.0],[36.90599,-1.27737,0.0],[36.91214,-1.28853,0.0],[36.91341,-1.28885,0.0],[36.91476,-1.28823,0.0],[36.91547,-1.28733,0.0],[36.91507,-1.2866,0.0],[36.91467,-1.28594,0.0],[36.91477,-1.2851,0.0],[36.91561,-1.28477,0.0],[36.91628,-1.2837,0.0],[36.91709,-1.28256,0.0],[36.91765,-1.28183,0.0],[36.91792,-1.28084,0.0],[36.91786,-1.27972,0.0],[36.91724,-1.27889,0.0],[36.91764,-1.27798,0.0],[36.91772,-1.27638,0.0],[36.91828,-1.27561,0.0],[36.91929,-1.27509,0.0],[36.9206,-1.27466,0.0],[36.92034,-1.27379,0.0],[36.92006,-1.27271,0.0],[36.91999,-1.27189,0.0],[36.92008,-1.27091,0.0],[36.9206,-1.26987,0.0],[36.92182,-1.26921,0.0],[36.92282,-1.2688,0.0],[36.92399,-1.2683,0.0],[36.92457,-1.26774,0.0],[36.92469,-1.26664,0.0],[36.92466,-1.26545,0.0],[36.92552,-1.26497,0.0],[36.92682,-1.26446,0.0],[36.92779,-1.26446,0.0],[36.92854,-1.26468,0.0],[36.9294,-1.26409,0.0],[36.93068,-1.26397,0.0],[36.93168,-1.26417,0.0],[36.93263,-1.26461,0.0],[36.93326,-1.26391,0.0],[36.93393,-1.26346,0.0],[36.93491,-1.26344,0.0],[36.93584,-1.26351,0.0],[36.93706,-1.26367,0.0],[36.93801,-1.26309,0.0],[36.93617,-1.25759,0.0],[36.94149,-1.25757,0.0],[36.95552,-1.258,0.0],[36.96748,-1.25837,0.0],[36.97043,-1.26017,0.0]]]]}},{"type":"Feature","properties":{"uesi_id":"KEN_R9185096","nbhd_code":"KEN_R9185096_6","nbhd_name":"Embakasi North"},"geometry":{"type":"MultiPolygon","coordinates":[[[[36.91315,-1.23519,0.0],[36.91427,-1.23564,0.0],[36.91623,-1.23691,0.0],[36.91734,-1.23734,0.0],[36.91802,-1.23797,0.0],[36.91868,-1.2385,0.0],[36.91953,-1.23854,0.0],[36.92049,-1.23842,0.0],[36.92125,-1.23797,0.0],[36.92192,-1.23756,0.0],[36.9228,-1.23753,0.0],[36.92348,-1.23808,0.0],[36.92445,-1.23909,0.0],[36.92562,-1.23914,0.0],[36.92633,-1.23878,0.0],[36.92717,-1.23852,0.0],[36.92774,-1.23792,0.0],[36.92896,-1.2376,0.0],[36.93017,-1.23761,0.0],[36.92673,-1.24002,0.0],[36.92556,-1.24032,0.0],[36.92404,-1.24012,0.0],[36.92195,-1.23979,0.0],[36.9209,-1.23967,0.0],[36.9198,-1.23997,0.0],[36.91868,-1.24028,0.0],[36.91769,-1.24024,0.0],[36.91682,-1.24049,0.0],[36.91569,-1.24136,0.0],[36.91512,-1.24203,0.0],[36.91443,-1.24287,0.0],[36.91342,-1.24357,0.0],[36.91224,-1.24364,0.0],[36.91147,-1.24416,0.0],[36.91028,-1.24446,0.0],[36.90941,-1.24506,0.0],[36.90873,-1.24567,0.0],[36.90788,-1.24641,0.0],[36.90704,-1.24688,0.0],[36.9065,-1.24752,0.0],[36.90507,-1.2485,0.0],[36.90403,-1.24902,0.0],[36.90311,-1.24998,0.0],[36.90259,-1.25115,0.0],[36.90226,-1.25214,0.0],[36.90195,-1.25302,0.0],[36.90101,-1.25345,0.0],[36.89995,-1.25394,0.0],[36.89841,-1.2542,0.0],[36.89711,-1.25436,0.0],[36.89614,-1.25471,0.0],[36.89494,-1.25513,0.0],[36.89387,-1.25551,0.0],[36.89301,-1.25582,0.0],[36.89212,-1.25633,0.0],[36.89084,-1.25723,0.0],[36.89009,-1.25768,0.0],[36.88839,-1.25829,0.0],[36.88636,-1.25882,0.0],[36.88391,-1.25917,0.0],[36.88239,-1.25953,0.0],[36.87826,-1.25992,0.0],[36.87777,-1.24986,0.0],[36.87731,-1.24651,0.0],[36.87855,-1.24627,0.0],[36.87932,-1.24669,0.0],[36.88019,-1.24679,0.0],[36.88083,-1.246,0.0],[36.88208,-1.24641,0.0],[36.8832,-1.2468,0.0],[36.88396,-1.2465,0.0],[36.88493,-1.24609,0.0],[36.88588,-1.24661,0.0],[36.88935,-1.25204,0.0],[36.89008,-1.25137,0.0],[36.89095,-1.251,0.0],[36.89206,-1.25072,0.0],[36.89278,-1.25016,0.0],[36.89299,-1.24942,0.0],[36.89232,-1.24739,0.0],[36.89289,-1.24615,0.0],[36.89405,-1.24551,0.0],[36.89455,-1.24418,0.0],[36.89467,-1.24342,0.0],[36.89567,-1.24286,0.0],[36.8957,-1.24147,0.0],[36.89668,-1.24094,0.0],[36.89757,-1.24084,0.0],[36.89874,-1.24041,0.0],[36.89946,-1.23961,0.0],[36.90036,-1.2392,0.0],[36.90158,-1.23927,0.0],[36.90166,-1.23816,0.0],[36.90181,-1.23729,0.0],[36.9027,-1.23686,0.0],[36.90355,-1.23622,0.0],[36.90439,-1.23655,0.0],[36.90532,-1.23646,0.0],[36.90607,-1.23596,0.0],[36.90685,-1.23555,0.0],[36.90784,-1.23543,0.0],[36.90862,-1.23573,0.0],[36.90944,-1.236,0.0],[36.9103,-1.23569,0.0],[36.91128,-1.2353,0.0],[36.91235,-1.23498,0.0],[36.91315,-1.23519,0.0]]]]}},{"type":"Feature","properties":{"uesi_id":"KEN_R9185096","nbhd_code":"KEN_R9185096_7","nbhd_name":"Dagoretti North"},"geometry":{"type":"MultiPolygon","coordinates":[[[[36.81181,-1.27208,0.0],[36.81225,-1.27344,0.0],[36.81272,-1.27439,0.0],[36.81306,-1.27538,0.0],[36.81324,-1.27641,0.0],[36.81351,-1.27784,0.0],[36.81423,-1.27948,0.0],[36.81587,-1.28302,0.0],[36.81968,-1.29058,0.0],[36.81546,-1.29143,0.0],[36.81411,-1.29177,0.0],[36.81293,-1.29265,0.0],[36.81175,-1.293,0.0],[36.81047,-1.29314,0.0],[36.8093,-1.29307,0.0],[36.80691,-1.29457,0.0],[36.80217,-1.29557,0.0],[36.80018,-1.29589,0.0],[36.79741,-1.29652,0.0],[36.79546,-1.29687,0.0],[36.79233,-1.29719,0.0],[36.78175,-1.29747,0.0],[36.7735,-1.29777,0.0],[36.77095,-1.29786,0.0],[36.76841,-1.29777,0.0],[36.76287,-1.29663,0.0],[36.7603,-1.29616,0.0],[36.75758,-1.29555,0.0],[36.75622,-1.29507,0.0],[36.75537,-1.29406,0.0],[36.7547,-1.29293,0.0],[36.75381,-1.29179,0.0],[36.75284,-1.29091,0.0],[36.75172,-1.29037,0.0],[36.75022,-1.28993,0.0],[36.74863,-1.28953,0.0],[36.74708,-1.28912,0.0],[36.74411,-1.28723,0.0],[36.74283,-1.28624,0.0],[36.73998,-1.28404,0.0],[36.7379,-1.2826,0.0],[36.73694,-1.28208,0.0],[36.73655,-1.28082,0.0],[36.73609,-1.27945,0.0],[36.73574,-1.27835,0.0],[36.73515,-1.27729,0.0],[36.73501,-1.27642,0.0],[36.73481,-1.27537,0.0],[36.73429,-1.27428,0.0],[36.73341,-1.2729,0.0],[36.73444,-1.2731,0.0],[36.73517,-1.27368,0.0],[36.73594,-1.27422,0.0],[36.73673,-1.27502,0.0],[36.7376,-1.27545,0.0],[36.73862,-1.27554,0.0],[36.7396,-1.2753,0.0],[36.74067,-1.27497,0.0],[36.74151,-1.27467,0.0],[36.7425,-1.27433,0.0],[36.74347,-1.27349,0.0],[36.7444,-1.27283,0.0],[36.74534,-1.27234,0.0],[36.74628,-1.27254,0.0],[36.74746,-1.27228,0.0],[36.74857,-1.27162,0.0],[36.74962,-1.27203,0.0],[36.75058,-1.27256,0.0],[36.75141,-1.27221,0.0],[36.75223,-1.27174,0.0],[36.75295,-1.2713,0.0],[36.75368,-1.271,0.0],[36.75454,-1.27106,0.0],[36.75569,-1.27111,0.0],[36.75706,-1.27109,0.0],[36.75783,-1.27041,0.0],[36.75791,-1.26935,0.0],[36.75789,-1.26847,0.0],[36.75881,-1.26814,0.0],[36.75978,-1.26779,0.0],[36.76046,-1.26831,0.0],[36.76147,-1.26772,0.0],[36.76095,-1.2669,0.0],[36.76023,-1.26607,0.0],[36.75943,-1.26509,0.0],[36.75807,-1.26453,0.0],[36.75723,-1.26449,0.0],[36.75629,-1.26447,0.0],[36.7555,-1.26414,0.0],[36.75423,-1.26332,0.0],[36.75336,-1.2624,0.0],[36.75328,-1.26163,0.0],[36.75782,-1.26124,0.0],[36.76382,-1.26037,0.0],[36.76494,-1.25993,0.0],[36.76669,-1.25865,0.0],[36.76742,-1.25825,0.0],[36.76852,-1.25806,0.0],[36.77513,-1.25694,0.0],[36.77891,-1.25625,0.0],[36.77977,-1.25627,0.0],[36.78463,-1.25698,0.0],[36.78791,-1.25754,0.0],[36.78952,-1.25782,0.0],[36.79096,-1.25815,0.0],[36.79227,-1.25852,0.0],[36.79433,-1.25852,0.0],[36.79868,-1.25911,0.0],[36.80252,-1.26348,0.0],[36.80468,-1.26594,0.0],[36.80553,-1.26692,0.0],[36.8073,-1.26897,0.0],[36.80914,-1.27051,0.0],[36.80996,-1.27096,0.0],[36.81093,-1.27165,0.0],[36.81181,-1.27208,0.0]]]]}},{"type":"Feature","properties":{"uesi_id":"KEN_R9185096","nbhd_code":"KEN_R9185096_8","nbhd_name":"Embakasi South"},"geometry":{"type":"MultiPolygon","coordinates":[[[[36.90722,-1.35991,0.0],[36.9065,-1.36105,0.0],[36.90565,-1.36183,0.0],[36.91351,-1.37084,0.0],[36.90742,-1.37033,0.0],[36.90219,-1.36467,0.0],[36.90012,-1.36242,0.0],[36.89587,-1.35761,0.0],[36.89491,-1.35653,0.0],[36.89232,-1.35857,0.0],[36.88954,-1.35541,0.0],[36.88451,-1.34967,0.0],[36.88369,-1.34886,0.0],[36.88315,-1.34827,0.0],[36.88225,-1.34724,0.0],[36.88102,-1.34644,0.0],[36.87305,-1.34103,0.0],[36.86149,-1.33383,0.0],[36.85106,-1.32691,0.0],[36.85182,-1.32563,0.0],[36.85051,-1.32487,0.0],[36.84945,-1.32421,0.0],[36.84206,-1.3197,0.0],[36.84025,-1.31853,0.0],[36.84138,-1.31808,0.0],[36.84238,-1.31764,0.0],[36.84317,-1.31767,0.0],[36.84408,-1.31776,0.0],[36.8453,-1.31741,0.0],[36.84636,-1.31691,0.0],[36.84755,-1.31669,0.0],[36.84822,-1.31567,0.0],[36.84936,-1.31501,0.0],[36.85053,-1.31458,0.0],[36.85134,-1.31442,0.0],[36.85226,-1.31382,0.0],[36.85373,-1.31414,0.0],[36.8548,-1.31379,0.0],[36.85594,-1.31388,0.0],[36.85675,-1.31454,0.0],[36.85773,-1.31493,0.0],[36.85882,-1.31452,0.0],[36.86047,-1.31441,0.0],[36.86149,-1.31402,0.0],[36.86229,-1.31252,0.0],[36.86296,-1.3119,0.0],[36.86411,-1.3116,0.0],[36.86558,-1.31106,0.0],[36.86623,-1.31022,0.0],[36.86738,-1.30985,0.0],[36.86836,-1.30983,0.0],[36.86935,-1.30991,0.0],[36.87054,-1.31033,0.0],[36.87168,-1.3102,0.0],[36.87195,-1.31095,0.0],[36.87273,-1.31089,0.0],[36.87378,-1.31043,0.0],[36.87508,-1.30971,0.0],[36.87622,-1.30889,0.0],[36.87736,-1.30821,0.0],[36.8785,-1.30813,0.0],[36.87925,-1.30823,0.0],[36.88044,-1.30829,0.0],[36.8815,-1.30815,0.0],[36.88221,-1.30785,0.0],[36.88354,-1.30694,0.0],[36.88468,-1.30615,0.0],[36.88577,-1.30582,0.0],[36.88661,-1.30498,0.0],[36.88771,-1.30479,0.0],[36.88864,-1.30421,0.0],[36.89527,-1.3149,0.0],[36.89871,-1.32046,0.0],[36.89929,-1.3214,0.0],[36.89798,-1.32218,0.0],[36.89091,-1.32633,0.0],[36.88827,-1.32837,0.0],[36.88135,-1.33374,0.0],[36.88505,-1.33763,0.0],[36.8941,-1.34713,0.0],[36.89566,-1.34871,0.0],[36.89788,-1.35124,0.0],[36.8995,-1.35308,0.0],[36.90165,-1.355,0.0],[36.90442,-1.35747,0.0],[36.90722,-1.35991,0.0]]]]}},{"type":"Feature","properties":{"uesi_id":"KEN_R9185096","nbhd_code":"KEN_R9185096_9","nbhd_name":"Embakasi West"},"geometry":{"type":"MultiPolygon","coordinates":[[[[36.90205,-1.25518,0.0],[36.90304,-1.25503,0.0],[36.9041,-1.25456,0.0],[36.90514,-1.25441,0.0],[36.90631,-1.25441,0.0],[36.90742,-1.25443,0.0],[36.90905,-1.25464,0.0],[36.91051,-1.25501,0.0],[36.91258,-1.25586,0.0],[36.91368,-1.2564,0.0],[36.91265,-1.25667,0.0],[36.91076,-1.25706,0.0],[36.90934,-1.25766,0.0],[36.90835,-1.25833,0.0],[36.90554,-1.26091,0.0],[36.90324,-1.26336,0.0],[36.90203,-1.26503,0.0],[36.90031,-1.26703,0.0],[36.89754,-1.26935,0.0],[36.8996,-1.27426,0.0],[36.90208,-1.27948,0.0],[36.89906,-1.28174,0.0],[36.89867,-1.28248,0.0],[36.89843,-1.28355,0.0],[36.8921,-1.28898,0.0],[36.88924,-1.29078,0.0],[36.88802,-1.29141,0.0],[36.88725,-1.29175,0.0],[36.88573,-1.29238,0.0],[36.88527,-1.29023,0.0],[36.88501,-1.28891,0.0],[36.88407,-1.2854,0.0],[36.8838,-1.28448,0.0],[36.88345,-1.28319,0.0],[36.88284,-1.28094,0.0],[36.88246,-1.27953,0.0],[36.88226,-1.27826,0.0],[36.88198,-1.27679,0.0],[36.88165,-1.27463,0.0],[36.88055,-1.27486,0.0],[36.87869,-1.27576,0.0],[36.87913,-1.27696,0.0],[36.87959,-1.2779,0.0],[36.87999,-1.27859,0.0],[36.8805,-1.27968,0.0],[36.87917,-1.2796,0.0],[36.87768,-1.27948,0.0],[36.8755,-1.28129,0.0],[36.87392,-1.27868,0.0],[36.87172,-1.28075,0.0],[36.86664,-1.28501,0.0],[36.86452,-1.28084,0.0],[36.8655,-1.28005,0.0],[36.8667,-1.27997,0.0],[36.8679,-1.27962,0.0],[36.86851,-1.27878,0.0],[36.86966,-1.27831,0.0],[36.87027,-1.27663,0.0],[36.87126,-1.27593,0.0],[36.8715,-1.27491,0.0],[36.87171,-1.27394,0.0],[36.87186,-1.27291,0.0],[36.87196,-1.272,0.0],[36.87237,-1.27077,0.0],[36.87306,-1.26965,0.0],[36.87404,-1.26878,0.0],[36.87422,-1.26791,0.0],[36.8744,-1.26683,0.0],[36.87491,-1.266,0.0],[36.87613,-1.26607,0.0],[36.8771,-1.26557,0.0],[36.87754,-1.26457,0.0],[36.87808,-1.26376,0.0],[36.87841,-1.26306,0.0],[36.8787,-1.26226,0.0],[36.87826,-1.25992,0.0],[36.88239,-1.25953,0.0],[36.88391,-1.25917,0.0],[36.88636,-1.25882,0.0],[36.88839,-1.25829,0.0],[36.89009,-1.25768,0.0],[36.89084,-1.25723,0.0],[36.89212,-1.25633,0.0],[36.89301,-1.25582,0.0],[36.89387,-1.25551,0.0],[36.89494,-1.25513,0.0],[36.89614,-1.25471,0.0],[36.89711,-1.25436,0.0],[36.89841,-1.2542,0.0],[36.89995,-1.25394,0.0],[36.90079,-1.2548,0.0],[36.90205,-1.25518,0.0]]]]}},{"type":"Feature","properties":{"uesi_id":"KEN_R9185096","nbhd_code":"KEN_R9185096_10","nbhd_name":"Langata"},"geometry":{"type":"MultiPolygon","coordinates":[[[[36.73027,-1.29962,0.0],[36.73092,-1.30119,0.0],[36.7312,-1.30594,0.0],[36.73543,-1.30461,0.0],[36.73796,-1.30368,0.0],[36.74004,-1.30351,0.0],[36.7421,-1.30313,0.0],[36.74325,-1.30278,0.0],[36.74743,-1.30109,0.0],[36.74736,-1.3034,0.0],[36.74761,-1.30601,0.0],[36.7527,-1.30468,0.0],[36.75546,-1.30923,0.0],[36.75925,-1.30883,0.0],[36.76659,-1.30785,0.0],[36.76822,-1.31125,0.0],[36.77067,-1.31023,0.0],[36.77254,-1.31392,0.0],[36.77332,-1.31394,0.0],[36.77456,-1.31383,0.0],[36.77601,-1.3138,0.0],[36.77708,-1.31383,0.0],[36.77785,-1.3145,0.0],[36.77837,-1.31509,0.0],[36.77918,-1.3151,0.0],[36.78014,-1.31491,0.0],[36.78104,-1.31482,0.0],[36.78201,-1.31485,0.0],[36.78269,-1.31428,0.0],[36.7834,-1.31391,0.0],[36.78447,-1.31354,0.0],[36.78589,-1.31358,0.0],[36.787,-1.31315,0.0],[36.78767,-1.31247,0.0],[36.78842,-1.31209,0.0],[36.78943,-1.31261,0.0],[36.78951,-1.31414,0.0],[36.79047,-1.31456,0.0],[36.79141,-1.31562,0.0],[36.79235,-1.31599,0.0],[36.79331,-1.31673,0.0],[36.7942,-1.31746,0.0],[36.79488,-1.31687,0.0],[36.79575,-1.31668,0.0],[36.79672,-1.31659,0.0],[36.79761,-1.31661,0.0],[36.79884,-1.31633,0.0],[36.79986,-1.31562,0.0],[36.79993,-1.31477,0.0],[36.79889,-1.31406,0.0],[36.79814,-1.31372,0.0],[36.79708,-1.31379,0.0],[36.79579,-1.31333,0.0],[36.79491,-1.31259,0.0],[36.79444,-1.31181,0.0],[36.79417,-1.31106,0.0],[36.79435,-1.30998,0.0],[36.79438,-1.3088,0.0],[36.79436,-1.30778,0.0],[36.79625,-1.30851,0.0],[36.79859,-1.30986,0.0],[36.7996,-1.31075,0.0],[36.80099,-1.31223,0.0],[36.80168,-1.31268,0.0],[36.80247,-1.31293,0.0],[36.80342,-1.31277,0.0],[36.80408,-1.31227,0.0],[36.80465,-1.31144,0.0],[36.80507,-1.30996,0.0],[36.80541,-1.30736,0.0],[36.806,-1.30638,0.0],[36.80677,-1.30579,0.0],[36.80759,-1.3056,0.0],[36.80864,-1.3056,0.0],[36.80958,-1.30544,0.0],[36.81044,-1.305,0.0],[36.81132,-1.30446,0.0],[36.81264,-1.30396,0.0],[36.81356,-1.30348,0.0],[36.81467,-1.3029,0.0],[36.81577,-1.30279,0.0],[36.81697,-1.30313,0.0],[36.81808,-1.30364,0.0],[36.81916,-1.30345,0.0],[36.82099,-1.30295,0.0],[36.82215,-1.30225,0.0],[36.82276,-1.30137,0.0],[36.82301,-1.30026,0.0],[36.82266,-1.29833,0.0],[36.82215,-1.29751,0.0],[36.82329,-1.29718,0.0],[36.82812,-1.30758,0.0],[36.82895,-1.30934,0.0],[36.83034,-1.31195,0.0],[36.83158,-1.3134,0.0],[36.83364,-1.31478,0.0],[36.83717,-1.31686,0.0],[36.84025,-1.31853,0.0],[36.84206,-1.3197,0.0],[36.84945,-1.32421,0.0],[36.85051,-1.32487,0.0],[36.85182,-1.32563,0.0],[36.85106,-1.32691,0.0],[36.86149,-1.33383,0.0],[36.87305,-1.34103,0.0],[36.88102,-1.34644,0.0],[36.88225,-1.34724,0.0],[36.88315,-1.34827,0.0],[36.88369,-1.34886,0.0],[36.88451,-1.34967,0.0],[36.88954,-1.35541,0.0],[36.89232,-1.35857,0.0],[36.89491,-1.35653,0.0],[36.89587,-1.35761,0.0],[36.90012,-1.36242,0.0],[36.90219,-1.36467,0.0],[36.90742,-1.37033,0.0],[36.91351,-1.37084,0.0],[36.91454,-1.37232,0.0],[36.91623,-1.37533,0.0],[36.92034,-1.38311,0.0],[36.92105,-1.38453,0.0],[36.92144,-1.38582,0.0],[36.92165,-1.38701,0.0],[36.92182,-1.38843,0.0],[36.92191,-1.38962,0.0],[36.92199,-1.39044,0.0],[36.92222,-1.39137,0.0],[36.92272,-1.39202,0.0],[36.92343,-1.39248,0.0],[36.92426,-1.39268,0.0],[36.92512,-1.39245,0.0],[36.92597,-1.392,0.0],[36.92681,-1.39175,0.0],[36.92775,-1.39187,0.0],[36.92877,-1.39277,0.0],[36.93039,-1.39506,0.0],[36.93127,-1.39608,0.0],[36.93238,-1.39648,0.0],[36.93363,-1.3964,0.0],[36.93454,-1.39638,0.0],[36.93538,-1.39644,0.0],[36.93628,-1.39674,0.0],[36.93692,-1.3973,0.0],[36.93727,-1.39803,0.0],[36.93784,-1.39878,0.0],[36.93849,-1.39942,0.0],[36.93913,-1.39992,0.0],[36.93999,-1.40031,0.0],[36.94078,-1.40061,0.0],[36.94174,-1.40098,0.0],[36.94257,-1.40208,0.0],[36.94266,-1.40301,0.0],[36.94297,-1.40419,0.0],[36.94376,-1.40493,0.0],[36.945,-1.4061,0.0],[36.94539,-1.40747,0.0],[36.94623,-1.41392,0.0],[36.94637,-1.41532,0.0],[36.94652,-1.41674,0.0],[36.9467,-1.41878,0.0],[36.94708,-1.41993,0.0],[36.94789,-1.4215,0.0],[36.94855,-1.42216,0.0],[36.95013,-1.42332,0.0],[36.9517,-1.42402,0.0],[36.95277,-1.42461,0.0],[36.95371,-1.42518,0.0],[36.95483,-1.42616,0.0],[36.95572,-1.42764,0.0],[36.95725,-1.43075,0.0],[36.95828,-1.43298,0.0],[36.95891,-1.43425,0.0],[36.95952,-1.43514,0.0],[36.9602,-1.43597,0.0],[36.96106,-1.43637,0.0],[36.96208,-1.43643,0.0],[36.96078,-1.44215,0.0],[36.95977,-1.4419,0.0],[36.95874,-1.44128,0.0],[36.95752,-1.43985,0.0],[36.95714,-1.43829,0.0],[36.95702,-1.4373,0.0],[36.95672,-1.43606,0.0],[36.95621,-1.43534,0.0],[36.95557,-1.4349,0.0],[36.95441,-1.43485,0.0],[36.95311,-1.43519,0.0],[36.95222,-1.43557,0.0],[36.95115,-1.43571,0.0],[36.95007,-1.43555,0.0],[36.94938,-1.43514,0.0],[36.94824,-1.43388,0.0],[36.94725,-1.43301,0.0],[36.94637,-1.43252,0.0],[36.9454,-1.43196,0.0],[36.94447,-1.43161,0.0],[36.94353,-1.43083,0.0],[36.94257,-1.43052,0.0],[36.94042,-1.4305,0.0],[36.93136,-1.43046,0.0],[36.92327,-1.42681,0.0],[36.90895,-1.42055,0.0],[36.89233,-1.41335,0.0],[36.88986,-1.41225,0.0],[36.89018,-1.41051,0.0],[36.89437,-1.41102,0.0],[36.89479,-1.41022,0.0],[36.89488,-1.4092,0.0],[36.89374,-1.40853,0.0],[36.89275,-1.40789,0.0],[36.89174,-1.40783,0.0],[36.89073,-1.4075,0.0],[36.89006,-1.40684,0.0],[36.88891,-1.4068,0.0],[36.88794,-1.40637,0.0],[36.88718,-1.40606,0.0],[36.88612,-1.40523,0.0],[36.88544,-1.40481,0.0],[36.88441,-1.40485,0.0],[36.88344,-1.40429,0.0],[36.88248,-1.4039,0.0],[36.88171,-1.40369,0.0],[36.88023,-1.40364,0.0],[36.87922,-1.40387,0.0],[36.8788,-1.40471,0.0],[36.87757,-1.4047,0.0],[36.87667,-1.40449,0.0],[36.87603,-1.40391,0.0],[36.87504,-1.40382,0.0],[36.87352,-1.40427,0.0],[36.87271,-1.40487,0.0],[36.87153,-1.40524,0.0],[36.87061,-1.40502,0.0],[36.86987,-1.40384,0.0],[36.86979,-1.40219,0.0],[36.86968,-1.40123,0.0],[36.86859,-1.40102,0.0],[36.86712,-1.40184,0.0],[36.86579,-1.40165,0.0],[36.86465,-1.40165,0.0],[36.86363,-1.40166,0.0],[36.86215,-1.40002,0.0],[36.8607,-1.39871,0.0],[36.85933,-1.39786,0.0],[36.85827,-1.39718,0.0],[36.85726,-1.39663,0.0],[36.8562,-1.39623,0.0],[36.85527,-1.39628,0.0],[36.85425,-1.39624,0.0],[36.85283,-1.39558,0.0],[36.85128,-1.39503,0.0],[36.84955,-1.39414,0.0],[36.84833,-1.39259,0.0],[36.84754,-1.39096,0.0],[36.8469,-1.39015,0.0],[36.84612,-1.38995,0.0],[36.84529,-1.3897,0.0],[36.84477,-1.38896,0.0],[36.84425,-1.38767,0.0],[36.84435,-1.3862,0.0],[36.84447,-1.38505,0.0],[36.84347,-1.38438,0.0],[36.84228,-1.38425,0.0],[36.84095,-1.38463,0.0],[36.84018,-1.3856,0.0],[36.83936,-1.38589,0.0],[36.8384,-1.38514,0.0],[36.83766,-1.38457,0.0],[36.83684,-1.38468,0.0],[36.83665,-1.38548,0.0],[36.83648,-1.38629,0.0],[36.83542,-1.3863,0.0],[36.83414,-1.38573,0.0],[36.8329,-1.3854,0.0],[36.83095,-1.38506,0.0],[36.82967,-1.38514,0.0],[36.82883,-1.38545,0.0],[36.82795,-1.38529,0.0],[36.82665,-1.38422,0.0],[36.82555,-1.38356,0.0],[36.82449,-1.38332,0.0],[36.82276,-1.38329,0.0],[36.82195,-1.3826,0.0],[36.82184,-1.38147,0.0],[36.82089,-1.38122,0.0],[36.81996,-1.38103,0.0],[36.82008,-1.37936,0.0],[36.8191,-1.37892,0.0],[36.81815,-1.37907,0.0],[36.81686,-1.37948,0.0],[36.81561,-1.37964,0.0],[36.81468,-1.37986,0.0],[36.81417,-1.38057,0.0],[36.81205,-1.38254,0.0],[36.81153,-1.38316,0.0],[36.81175,-1.38407,0.0],[36.81067,-1.38427,0.0],[36.80991,-1.38355,0.0],[36.80914,-1.38335,0.0],[36.80846,-1.38571,0.0],[36.80704,-1.386,0.0],[36.8064,-1.3867,0.0],[36.80558,-1.38684,0.0],[36.80551,-1.38572,0.0],[36.80561,-1.38487,0.0],[36.8049,-1.38437,0.0],[36.80398,-1.38479,0.0],[36.80366,-1.38588,0.0],[36.80284,-1.38634,0.0],[36.8016,-1.38613,0.0],[36.80045,-1.38511,0.0],[36.79929,-1.38539,0.0],[36.79824,-1.38547,0.0],[36.79701,-1.38567,0.0],[36.79572,-1.38577,0.0],[36.79544,-1.38461,0.0],[36.79535,-1.38357,0.0],[36.79453,-1.38306,0.0],[36.79373,-1.38295,0.0],[36.79254,-1.38304,0.0],[36.79165,-1.38394,0.0],[36.79057,-1.38448,0.0],[36.78987,-1.38535,0.0],[36.78888,-1.38567,0.0],[36.78761,-1.38494,0.0],[36.78663,-1.38491,0.0],[36.78576,-1.38575,0.0],[36.78477,-1.38611,0.0],[36.78369,-1.38654,0.0],[36.78269,-1.38677,0.0],[36.78168,-1.38602,0.0],[36.78135,-1.3846,0.0],[36.78015,-1.38412,0.0],[36.77953,-1.38475,0.0],[36.7787,-1.38418,0.0],[36.77793,-1.38458,0.0],[36.77707,-1.38439,0.0],[36.77643,-1.38484,0.0],[36.7756,-1.3855,0.0],[36.7746,-1.38587,0.0],[36.77351,-1.38604,0.0],[36.7726,-1.38651,0.0],[36.77175,-1.38641,0.0],[36.77102,-1.38616,0.0],[36.77012,-1.38604,0.0],[36.769,-1.38637,0.0],[36.76754,-1.38628,0.0],[36.7661,-1.38596,0.0],[36.76548,-1.38471,0.0],[36.76433,-1.38344,0.0],[36.76312,-1.38347,0.0],[36.76196,-1.38286,0.0],[36.76098,-1.38244,0.0],[36.76022,-1.38223,0.0],[36.75935,-1.3827,0.0],[36.75812,-1.38301,0.0],[36.75724,-1.38283,0.0],[36.75643,-1.38276,0.0],[36.75558,-1.38256,0.0],[36.7545,-1.38229,0.0],[36.75328,-1.38211,0.0],[36.75201,-1.38208,0.0],[36.75094,-1.38195,0.0],[36.75006,-1.38223,0.0],[36.74886,-1.38223,0.0],[36.74759,-1.38138,0.0],[36.74676,-1.38058,0.0],[36.74593,-1.38042,0.0],[36.74479,-1.37905,0.0],[36.74416,-1.37861,0.0],[36.74329,-1.37901,0.0],[36.74231,-1.37955,0.0],[36.74153,-1.37944,0.0],[36.74076,-1.37903,0.0],[36.73983,-1.37812,0.0],[36.73923,-1.3776,0.0],[36.73838,-1.3771,0.0],[36.73761,-1.37726,0.0],[36.73682,-1.37714,0.0],[36.73592,-1.37685,0.0],[36.73491,-1.37642,0.0],[36.73367,-1.37586,0.0],[36.73288,-1.37515,0.0],[36.73187,-1.37469,0.0],[36.73078,-1.37354,0.0],[36.72971,-1.37293,0.0],[36.72907,-1.37231,0.0],[36.72808,-1.37222,0.0],[36.7271,-1.37148,0.0],[36.72609,-1.37091,0.0],[36.7254,-1.37014,0.0],[36.72445,-1.36941,0.0],[36.72389,-1.36827,0.0],[36.72278,-1.36763,0.0],[36.72216,-1.36692,0.0],[36.72122,-1.36675,0.0],[36.72038,-1.36607,0.0],[36.72,-1.36537,0.0],[36.71948,-1.36477,0.0],[36.71837,-1.36449,0.0],[36.71785,-1.36363,0.0],[36.7171,-1.36334,0.0],[36.7169,-1.36257,0.0],[36.7162,-1.36161,0.0],[36.7156,-1.36073,0.0],[36.71502,-1.36017,0.0],[36.71418,-1.35943,0.0],[36.71336,-1.35871,0.0],[36.7124,-1.35788,0.0],[36.7113,-1.35719,0.0],[36.71005,-1.35636,0.0],[36.70885,-1.35579,0.0],[36.70763,-1.35519,0.0],[36.70644,-1.3542,0.0],[36.70563,-1.35331,0.0],[36.70481,-1.35197,0.0],[36.70414,-1.35088,0.0],[36.70309,-1.35032,0.0],[36.70219,-1.34948,0.0],[36.70109,-1.34948,0.0],[36.69666,-1.3497,0.0],[36.69542,-1.35098,0.0],[36.6937,-1.35111,0.0],[36.6928,-1.35065,0.0],[36.68938,-1.3471,0.0],[36.68923,-1.34607,0.0],[36.68896,-1.34407,0.0],[36.68633,-1.34094,0.0],[36.68593,-1.33838,0.0],[36.68585,-1.33739,0.0],[36.68564,-1.33662,0.0],[36.68488,-1.33483,0.0],[36.68446,-1.33413,0.0],[36.68255,-1.33495,0.0],[36.67933,-1.32705,0.0],[36.67889,-1.32598,0.0],[36.67486,-1.32784,0.0],[36.66907,-1.3236,0.0],[36.67279,-1.32191,0.0],[36.66348,-1.31729,0.0],[36.66599,-1.31217,0.0],[36.67022,-1.30358,0.0],[36.67219,-1.30464,0.0],[36.67319,-1.30494,0.0],[36.67431,-1.30475,0.0],[36.6773,-1.29976,0.0],[36.67829,-1.29794,0.0],[36.6846,-1.29816,0.0],[36.68714,-1.29387,0.0],[36.68816,-1.29428,0.0],[36.68892,-1.2948,0.0],[36.68972,-1.29498,0.0],[36.69111,-1.29485,0.0],[36.69198,-1.29519,0.0],[36.69289,-1.29531,0.0],[36.69368,-1.29503,0.0],[36.69497,-1.29563,0.0],[36.69631,-1.29621,0.0],[36.69751,-1.29668,0.0],[36.69868,-1.29737,0.0],[36.69964,-1.2979,0.0],[36.70057,-1.29822,0.0],[36.70135,-1.29861,0.0],[36.70248,-1.29989,0.0],[36.70395,-1.30145,0.0],[36.70463,-1.30214,0.0],[36.70547,-1.3025,0.0],[36.70653,-1.30267,0.0],[36.70848,-1.29511,0.0],[36.71587,-1.2987,0.0],[36.71788,-1.29939,0.0],[36.71899,-1.29972,0.0],[36.72226,-1.30054,0.0],[36.72342,-1.30082,0.0],[36.72518,-1.2971,0.0],[36.72696,-1.29422,0.0],[36.73256,-1.2934,0.0],[36.73397,-1.29372,0.0],[36.73637,-1.29443,0.0],[36.73704,-1.29561,0.0],[36.73707,-1.2966,0.0],[36.737,-1.298,0.0],[36.73027,-1.29962,0.0]]]]}},{"type":"Feature","properties":{"uesi_id":"KEN_R9185096","nbhd_code":"KEN_R9185096_11","nbhd_name":"Roysambu"},"geometry":{"type":"MultiPolygon","coordinates":[[[[36.94164,-1.1733,0.0],[36.94084,-1.1742,0.0],[36.94021,-1.17507,0.0],[36.93937,-1.1762,0.0],[36.93152,-1.18465,0.0],[36.93064,-1.1856,0.0],[36.92592,-1.19049,0.0],[36.92176,-1.19494,0.0],[36.92063,-1.19615,0.0],[36.91996,-1.19686,0.0],[36.91719,-1.19983,0.0],[36.91615,-1.20124,0.0],[36.91545,-1.20201,0.0],[36.91444,-1.20294,0.0],[36.91243,-1.20505,0.0],[36.91174,-1.20573,0.0],[36.91106,-1.20642,0.0],[36.91027,-1.2068,0.0],[36.90766,-1.20791,0.0],[36.90356,-1.20917,0.0],[36.90142,-1.20996,0.0],[36.89959,-1.21057,0.0],[36.89765,-1.21116,0.0],[36.89593,-1.21192,0.0],[36.89425,-1.21349,0.0],[36.88966,-1.21733,0.0],[36.88583,-1.22139,0.0],[36.88393,-1.22307,0.0],[36.88175,-1.22458,0.0],[36.87968,-1.22606,0.0],[36.87551,-1.22927,0.0],[36.87275,-1.23157,0.0],[36.87196,-1.23223,0.0],[36.87017,-1.23411,0.0],[36.86921,-1.23603,0.0],[36.86697,-1.2406,0.0],[36.86606,-1.24194,0.0],[36.86422,-1.24391,0.0],[36.85751,-1.25135,0.0],[36.85497,-1.25387,0.0],[36.8527,-1.25541,0.0],[36.85189,-1.25571,0.0],[36.85066,-1.25636,0.0],[36.84617,-1.25629,0.0],[36.84297,-1.25788,0.0],[36.84182,-1.25796,0.0],[36.84186,-1.25683,0.0],[36.84245,-1.2545,0.0],[36.84476,-1.24944,0.0],[36.84626,-1.24644,0.0],[36.84612,-1.24545,0.0],[36.84559,-1.24475,0.0],[36.84484,-1.24396,0.0],[36.84369,-1.24128,0.0],[36.84362,-1.2403,0.0],[36.84331,-1.23771,0.0],[36.84274,-1.23265,0.0],[36.84223,-1.2297,0.0],[36.84175,-1.22897,0.0],[36.84095,-1.22818,0.0],[36.84021,-1.22726,0.0],[36.83908,-1.22496,0.0],[36.83767,-1.22215,0.0],[36.83683,-1.22101,0.0],[36.83567,-1.2197,0.0],[36.83448,-1.2179,0.0],[36.8349,-1.21488,0.0],[36.83456,-1.21361,0.0],[36.83404,-1.21248,0.0],[36.83121,-1.20721,0.0],[36.83068,-1.20578,0.0],[36.83026,-1.20482,0.0],[36.83025,-1.20381,0.0],[36.83137,-1.20408,0.0],[36.83199,-1.20461,0.0],[36.8329,-1.20558,0.0],[36.83342,-1.20717,0.0],[36.83411,-1.20777,0.0],[36.83536,-1.20821,0.0],[36.83642,-1.2083,0.0],[36.83723,-1.20837,0.0],[36.83799,-1.20811,0.0],[36.8387,-1.20768,0.0],[36.83914,-1.20701,0.0],[36.8453,-1.20959,0.0],[36.84925,-1.21132,0.0],[36.84942,-1.21021,0.0],[36.85005,-1.20613,0.0],[36.85109,-1.20051,0.0],[36.85245,-1.20001,0.0],[36.85373,-1.19978,0.0],[36.85485,-1.19944,0.0],[36.85577,-1.19925,0.0],[36.85708,-1.19955,0.0],[36.85821,-1.20013,0.0],[36.8595,-1.20057,0.0],[36.86011,-1.19854,0.0],[36.86108,-1.19453,0.0],[36.86321,-1.18792,0.0],[36.86445,-1.18877,0.0],[36.86537,-1.18914,0.0],[36.86587,-1.1903,0.0],[36.86698,-1.1907,0.0],[36.86834,-1.19128,0.0],[36.86958,-1.19219,0.0],[36.87061,-1.19267,0.0],[36.87157,-1.19304,0.0],[36.87262,-1.19369,0.0],[36.87363,-1.19381,0.0],[36.87454,-1.19364,0.0],[36.87639,-1.19391,0.0],[36.87826,-1.19398,0.0],[36.87981,-1.19391,0.0],[36.88168,-1.19386,0.0],[36.88321,-1.19362,0.0],[36.88441,-1.19349,0.0],[36.88578,-1.19348,0.0],[36.88698,-1.19316,0.0],[36.88781,-1.19261,0.0],[36.88841,-1.19199,0.0],[36.88933,-1.19132,0.0],[36.89051,-1.1907,0.0],[36.89157,-1.19091,0.0],[36.89282,-1.19132,0.0],[36.89386,-1.19123,0.0],[36.89462,-1.19091,0.0],[36.89569,-1.19042,0.0],[36.89676,-1.19033,0.0],[36.89757,-1.19033,0.0],[36.89842,-1.19037,0.0],[36.89786,-1.18937,0.0],[36.89681,-1.18848,0.0],[36.89611,-1.18756,0.0],[36.89501,-1.18549,0.0],[36.89603,-1.18399,0.0],[36.89513,-1.18287,0.0],[36.8948,-1.18152,0.0],[36.89431,-1.18061,0.0],[36.89347,-1.17939,0.0],[36.89149,-1.17662,0.0],[36.89064,-1.17531,0.0],[36.89013,-1.17446,0.0],[36.8896,-1.17358,0.0],[36.88917,-1.17282,0.0],[36.88869,-1.17211,0.0],[36.888,-1.17135,0.0],[36.89291,-1.1676,0.0],[36.89355,-1.16685,0.0],[36.89449,-1.1652,0.0],[36.89696,-1.16016,0.0],[36.89747,-1.15821,0.0],[36.89873,-1.15882,0.0],[36.89968,-1.15863,0.0],[36.90053,-1.15815,0.0],[36.90163,-1.15801,0.0],[36.90317,-1.15798,0.0],[36.90542,-1.15898,0.0],[36.90668,-1.15926,0.0],[36.90799,-1.15938,0.0],[36.90937,-1.15924,0.0],[36.91072,-1.15902,0.0],[36.91163,-1.15907,0.0],[36.91249,-1.15921,0.0],[36.91352,-1.1591,0.0],[36.91476,-1.1591,0.0],[36.9158,-1.15905,0.0],[36.91658,-1.15917,0.0],[36.9174,-1.15941,0.0],[36.91824,-1.15959,0.0],[36.91908,-1.15987,0.0],[36.91993,-1.16018,0.0],[36.92046,-1.16171,0.0],[36.92098,-1.16241,0.0],[36.92218,-1.16307,0.0],[36.92303,-1.1631,0.0],[36.92415,-1.1634,0.0],[36.92494,-1.16444,0.0],[36.92522,-1.16537,0.0],[36.92596,-1.16565,0.0],[36.927,-1.1665,0.0],[36.92788,-1.16663,0.0],[36.92875,-1.1664,0.0],[36.92986,-1.16632,0.0],[36.93095,-1.16649,0.0],[36.9334,-1.16738,0.0],[36.93447,-1.16801,0.0],[36.93673,-1.16919,0.0],[36.93802,-1.16967,0.0],[36.93895,-1.17013,0.0],[36.93947,-1.17085,0.0],[36.94029,-1.1718,0.0],[36.9412,-1.17261,0.0],[36.94164,-1.1733,0.0]]]]}},{"type":"Feature","properties":{"uesi_id":"KEN_R9185096","nbhd_code":"KEN_R9185096_12","nbhd_name":"Ruaraka"},"geometry":{"type":"MultiPolygon","coordinates":[[[[36.90633,-1.23187,0.0],[36.90723,-1.2324,0.0],[36.90832,-1.23274,0.0],[36.9091,-1.23306,0.0],[36.90986,-1.23336,0.0],[36.91094,-1.2344,0.0],[36.91128,-1.2353,0.0],[36.9103,-1.23569,0.0],[36.90944,-1.236,0.0],[36.90862,-1.23573,0.0],[36.90784,-1.23543,0.0],[36.90685,-1.23555,0.0],[36.90607,-1.23596,0.0],[36.90532,-1.23646,0.0],[36.90439,-1.23655,0.0],[36.90355,-1.23622,0.0],[36.9027,-1.23686,0.0],[36.90181,-1.23729,0.0],[36.90166,-1.23816,0.0],[36.90158,-1.23927,0.0],[36.90036,-1.2392,0.0],[36.89946,-1.23961,0.0],[36.89874,-1.24041,0.0],[36.89757,-1.24084,0.0],[36.89668,-1.24094,0.0],[36.8957,-1.24147,0.0],[36.89567,-1.24286,0.0],[36.89467,-1.24342,0.0],[36.89455,-1.24418,0.0],[36.89405,-1.24551,0.0],[36.89289,-1.24615,0.0],[36.89232,-1.24739,0.0],[36.89299,-1.24942,0.0],[36.89278,-1.25016,0.0],[36.89206,-1.25072,0.0],[36.89095,-1.251,0.0],[36.89008,-1.25137,0.0],[36.88935,-1.25204,0.0],[36.88588,-1.24661,0.0],[36.88493,-1.24609,0.0],[36.88396,-1.2465,0.0],[36.8832,-1.2468,0.0],[36.88208,-1.24641,0.0],[36.88083,-1.246,0.0],[36.88019,-1.24679,0.0],[36.87932,-1.24669,0.0],[36.87855,-1.24627,0.0],[36.87731,-1.24651,0.0],[36.87641,-1.24735,0.0],[36.87639,-1.2486,0.0],[36.87575,-1.24971,0.0],[36.87453,-1.24983,0.0],[36.87327,-1.25027,0.0],[36.87175,-1.25161,0.0],[36.8709,-1.25173,0.0],[36.86998,-1.25209,0.0],[36.86942,-1.25312,0.0],[36.8686,-1.25378,0.0],[36.86755,-1.25422,0.0],[36.86673,-1.2546,0.0],[36.86582,-1.25476,0.0],[36.86478,-1.25489,0.0],[36.86389,-1.25506,0.0],[36.86333,-1.25571,0.0],[36.86251,-1.25619,0.0],[36.86164,-1.25673,0.0],[36.86106,-1.25756,0.0],[36.86095,-1.25885,0.0],[36.85984,-1.2597,0.0],[36.85895,-1.26046,0.0],[36.85788,-1.26048,0.0],[36.85686,-1.26042,0.0],[36.85576,-1.26059,0.0],[36.85419,-1.25922,0.0],[36.85291,-1.25796,0.0],[36.85183,-1.25735,0.0],[36.85066,-1.25636,0.0],[36.85189,-1.25571,0.0],[36.8527,-1.25541,0.0],[36.85497,-1.25387,0.0],[36.85751,-1.25135,0.0],[36.86422,-1.24391,0.0],[36.86606,-1.24194,0.0],[36.86697,-1.2406,0.0],[36.86921,-1.23603,0.0],[36.87024,-1.23607,0.0],[36.87102,-1.23632,0.0],[36.87204,-1.23669,0.0],[36.87315,-1.2371,0.0],[36.87373,-1.23786,0.0],[36.87446,-1.23822,0.0],[36.87521,-1.23793,0.0],[36.87551,-1.23706,0.0],[36.8762,-1.23644,0.0],[36.87755,-1.23699,0.0],[36.87893,-1.23702,0.0],[36.87978,-1.23656,0.0],[36.88078,-1.23678,0.0],[36.88148,-1.23625,0.0],[36.88252,-1.23529,0.0],[36.8836,-1.23503,0.0],[36.88453,-1.23483,0.0],[36.88573,-1.23427,0.0],[36.88701,-1.23475,0.0],[36.88815,-1.23514,0.0],[36.88924,-1.23537,0.0],[36.89063,-1.23553,0.0],[36.89147,-1.23559,0.0],[36.89368,-1.23539,0.0],[36.89424,-1.23482,0.0],[36.89512,-1.23432,0.0],[36.89609,-1.23361,0.0],[36.89671,-1.23284,0.0],[36.89706,-1.232,0.0],[36.89799,-1.23235,0.0],[36.89935,-1.23282,0.0],[36.90026,-1.23223,0.0],[36.9013,-1.23245,0.0],[36.90207,-1.23258,0.0],[36.90318,-1.23175,0.0],[36.9041,-1.23145,0.0],[36.90487,-1.23115,0.0],[36.90577,-1.23119,0.0],[36.90633,-1.23187,0.0]]]]}},{"type":"Feature","properties":{"uesi_id":"KEN_R9185096","nbhd_code":"KEN_R9185096_13","nbhd_name":"Starehe"},"geometry":{"type":"MultiPolygon","coordinates":[[[[36.8419,-1.262,0.0],[36.84305,-1.26502,0.0],[36.84337,-1.26691,0.0],[36.84575,-1.27782,0.0],[36.84377,-1.27789,0.0],[36.84371,-1.27925,0.0],[36.84361,-1.28052,0.0],[36.84284,-1.28071,0.0],[36.84091,-1.28109,0.0],[36.83997,-1.2818,0.0],[36.8392,-1.28229,0.0],[36.83816,-1.28262,0.0],[36.83868,-1.2832,0.0],[36.83901,-1.28416,0.0],[36.83796,-1.28437,0.0],[36.83702,-1.28437,0.0],[36.83591,-1.28396,0.0],[36.83481,-1.28345,0.0],[36.83398,-1.28324,0.0],[36.83155,-1.28342,0.0],[36.83574,-1.285,0.0],[36.83808,-1.28588,0.0],[36.83956,-1.2866,0.0],[36.84021,-1.28727,0.0],[36.84042,-1.28813,0.0],[36.84019,-1.28956,0.0],[36.83766,-1.28951,0.0],[36.83813,-1.29024,0.0],[36.83893,-1.29159,0.0],[36.83969,-1.29288,0.0],[36.84046,-1.29418,0.0],[36.84187,-1.29658,0.0],[36.84246,-1.29748,0.0],[36.8434,-1.29837,0.0],[36.84473,-1.29915,0.0],[36.84571,-1.29933,0.0],[36.8469,-1.29932,0.0],[36.8484,-1.29914,0.0],[36.84995,-1.2989,0.0],[36.85279,-1.29846,0.0],[36.85467,-1.29819,0.0],[36.856,-1.29829,0.0],[36.85585,-1.29932,0.0],[36.85672,-1.30065,0.0],[36.8582,-1.30286,0.0],[36.85952,-1.30485,0.0],[36.86015,-1.30581,0.0],[36.8604,-1.30692,0.0],[36.86054,-1.30815,0.0],[36.86042,-1.3095,0.0],[36.85957,-1.31046,0.0],[36.85868,-1.31114,0.0],[36.85739,-1.31208,0.0],[36.85658,-1.31299,0.0],[36.85594,-1.31388,0.0],[36.8548,-1.31379,0.0],[36.85373,-1.31414,0.0],[36.85226,-1.31382,0.0],[36.85134,-1.31442,0.0],[36.85053,-1.31458,0.0],[36.84936,-1.31501,0.0],[36.84822,-1.31567,0.0],[36.84755,-1.31669,0.0],[36.84636,-1.31691,0.0],[36.8453,-1.31741,0.0],[36.84408,-1.31776,0.0],[36.84317,-1.31767,0.0],[36.84238,-1.31764,0.0],[36.84138,-1.31808,0.0],[36.84025,-1.31853,0.0],[36.83717,-1.31686,0.0],[36.83364,-1.31478,0.0],[36.83158,-1.3134,0.0],[36.83034,-1.31195,0.0],[36.82895,-1.30934,0.0],[36.82812,-1.30758,0.0],[36.82329,-1.29718,0.0],[36.82273,-1.29564,0.0],[36.82177,-1.29393,0.0],[36.82121,-1.29295,0.0],[36.82037,-1.29152,0.0],[36.81968,-1.29058,0.0],[36.81587,-1.28302,0.0],[36.81423,-1.27948,0.0],[36.81351,-1.27784,0.0],[36.81324,-1.27641,0.0],[36.81306,-1.27538,0.0],[36.81272,-1.27439,0.0],[36.81225,-1.27344,0.0],[36.81181,-1.27208,0.0],[36.81288,-1.27086,0.0],[36.81376,-1.27054,0.0],[36.81379,-1.2692,0.0],[36.81416,-1.26823,0.0],[36.8152,-1.26707,0.0],[36.81699,-1.26687,0.0],[36.81968,-1.26662,0.0],[36.82257,-1.26644,0.0],[36.82717,-1.26589,0.0],[36.8317,-1.26487,0.0],[36.83361,-1.26437,0.0],[36.83533,-1.26297,0.0],[36.83708,-1.26189,0.0],[36.83786,-1.26208,0.0],[36.83903,-1.26175,0.0],[36.84007,-1.26185,0.0],[36.84104,-1.26192,0.0],[36.8419,-1.262,0.0]]]]}},{"type":"Feature","properties":{"uesi_id":"KEN_R9185096","nbhd_code":"KEN_R9185096_14","nbhd_name":"Kibra"},"geometry":{"type":"MultiPolygon","coordinates":[[[[36.82329,-1.29718,0.0],[36.82215,-1.29751,0.0],[36.82266,-1.29833,0.0],[36.82301,-1.30026,0.0],[36.82276,-1.30137,0.0],[36.82215,-1.30225,0.0],[36.82099,-1.30295,0.0],[36.81916,-1.30345,0.0],[36.81808,-1.30364,0.0],[36.81697,-1.30313,0.0],[36.81577,-1.30279,0.0],[36.81467,-1.3029,0.0],[36.81356,-1.30348,0.0],[36.81264,-1.30396,0.0],[36.81132,-1.30446,0.0],[36.81044,-1.305,0.0],[36.80958,-1.30544,0.0],[36.80864,-1.3056,0.0],[36.80759,-1.3056,0.0],[36.80677,-1.30579,0.0],[36.806,-1.30638,0.0],[36.80541,-1.30736,0.0],[36.80507,-1.30996,0.0],[36.80465,-1.31144,0.0],[36.80408,-1.31227,0.0],[36.80342,-1.31277,0.0],[36.80247,-1.31293,0.0],[36.80168,-1.31268,0.0],[36.80099,-1.31223,0.0],[36.7996,-1.31075,0.0],[36.79859,-1.30986,0.0],[36.79625,-1.30851,0.0],[36.79436,-1.30778,0.0],[36.79438,-1.3088,0.0],[36.79435,-1.30998,0.0],[36.79417,-1.31106,0.0],[36.79444,-1.31181,0.0],[36.79491,-1.31259,0.0],[36.79579,-1.31333,0.0],[36.79708,-1.31379,0.0],[36.79814,-1.31372,0.0],[36.79889,-1.31406,0.0],[36.79993,-1.31477,0.0],[36.79986,-1.31562,0.0],[36.79884,-1.31633,0.0],[36.79761,-1.31661,0.0],[36.79672,-1.31659,0.0],[36.79575,-1.31668,0.0],[36.79488,-1.31687,0.0],[36.7942,-1.31746,0.0],[36.79331,-1.31673,0.0],[36.79235,-1.31599,0.0],[36.79141,-1.31562,0.0],[36.79047,-1.31456,0.0],[36.78951,-1.31414,0.0],[36.78943,-1.31261,0.0],[36.78842,-1.31209,0.0],[36.78767,-1.31247,0.0],[36.787,-1.31315,0.0],[36.78589,-1.31358,0.0],[36.78447,-1.31354,0.0],[36.7834,-1.31391,0.0],[36.78269,-1.31428,0.0],[36.78201,-1.31485,0.0],[36.78104,-1.31482,0.0],[36.78014,-1.31491,0.0],[36.77918,-1.3151,0.0],[36.77837,-1.31509,0.0],[36.77785,-1.3145,0.0],[36.77708,-1.31383,0.0],[36.77601,-1.3138,0.0],[36.77456,-1.31383,0.0],[36.77332,-1.31394,0.0],[36.77254,-1.31392,0.0],[36.77067,-1.31023,0.0],[36.76822,-1.31125,0.0],[36.76659,-1.30785,0.0],[36.75925,-1.30883,0.0],[36.75546,-1.30923,0.0],[36.7527,-1.30468,0.0],[36.74761,-1.30601,0.0],[36.74736,-1.3034,0.0],[36.74743,-1.30109,0.0],[36.75859,-1.29694,0.0],[36.7603,-1.29616,0.0],[36.76287,-1.29663,0.0],[36.76841,-1.29777,0.0],[36.77095,-1.29786,0.0],[36.7735,-1.29777,0.0],[36.78175,-1.29747,0.0],[36.79233,-1.29719,0.0],[36.79546,-1.29687,0.0],[36.79741,-1.29652,0.0],[36.80018,-1.29589,0.0],[36.80217,-1.29557,0.0],[36.80691,-1.29457,0.0],[36.8093,-1.29307,0.0],[36.81047,-1.29314,0.0],[36.81175,-1.293,0.0],[36.81293,-1.29265,0.0],[36.81411,-1.29177,0.0],[36.81546,-1.29143,0.0],[36.81968,-1.29058,0.0],[36.82037,-1.29152,0.0],[36.82121,-1.29295,0.0],[36.82177,-1.29393,0.0],[36.82273,-1.29564,0.0],[36.82329,-1.29718,0.0]]]]}},{"type":"Feature","properties":{"uesi_id":"KEN_R9185096","nbhd_code":"KEN_R9185096_15","nbhd_name":"Kamukunji"},"geometry":{"type":"MultiPolygon","coordinates":[[[[36.87826,-1.25992,0.0],[36.8787,-1.26226,0.0],[36.87841,-1.26306,0.0],[36.87808,-1.26376,0.0],[36.87754,-1.26457,0.0],[36.8771,-1.26557,0.0],[36.87613,-1.26607,0.0],[36.87491,-1.266,0.0],[36.8744,-1.26683,0.0],[36.87422,-1.26791,0.0],[36.87404,-1.26878,0.0],[36.87306,-1.26965,0.0],[36.87237,-1.27077,0.0],[36.87196,-1.272,0.0],[36.87186,-1.27291,0.0],[36.87171,-1.27394,0.0],[36.8715,-1.27491,0.0],[36.87126,-1.27593,0.0],[36.87027,-1.27663,0.0],[36.86966,-1.27831,0.0],[36.86851,-1.27878,0.0],[36.8679,-1.27962,0.0],[36.8667,-1.27997,0.0],[36.8655,-1.28005,0.0],[36.86452,-1.28084,0.0],[36.86366,-1.28107,0.0],[36.86251,-1.28124,0.0],[36.86126,-1.28174,0.0],[36.86023,-1.28252,0.0],[36.8597,-1.28315,0.0],[36.85901,-1.28364,0.0],[36.85804,-1.28419,0.0],[36.85701,-1.28478,0.0],[36.856,-1.28536,0.0],[36.85481,-1.28553,0.0],[36.85411,-1.28608,0.0],[36.85288,-1.28719,0.0],[36.85163,-1.2877,0.0],[36.85171,-1.28869,0.0],[36.85165,-1.28977,0.0],[36.85152,-1.29072,0.0],[36.85042,-1.29193,0.0],[36.84869,-1.29158,0.0],[36.84305,-1.2903,0.0],[36.84114,-1.28987,0.0],[36.84019,-1.28956,0.0],[36.84042,-1.28813,0.0],[36.84021,-1.28727,0.0],[36.83956,-1.2866,0.0],[36.83808,-1.28588,0.0],[36.83574,-1.285,0.0],[36.83155,-1.28342,0.0],[36.83398,-1.28324,0.0],[36.83481,-1.28345,0.0],[36.83591,-1.28396,0.0],[36.83702,-1.28437,0.0],[36.83796,-1.28437,0.0],[36.83901,-1.28416,0.0],[36.83868,-1.2832,0.0],[36.83816,-1.28262,0.0],[36.8392,-1.28229,0.0],[36.83997,-1.2818,0.0],[36.84091,-1.28109,0.0],[36.84284,-1.28071,0.0],[36.84361,-1.28052,0.0],[36.84371,-1.27925,0.0],[36.84377,-1.27789,0.0],[36.84575,-1.27782,0.0],[36.84337,-1.26691,0.0],[36.84305,-1.26502,0.0],[36.84759,-1.26404,0.0],[36.84848,-1.26386,0.0],[36.85022,-1.2637,0.0],[36.85146,-1.26362,0.0],[36.85609,-1.2636,0.0],[36.85843,-1.26323,0.0],[36.85928,-1.2621,0.0],[36.86151,-1.2612,0.0],[36.8653,-1.26003,0.0],[36.86897,-1.25899,0.0],[36.87204,-1.25936,0.0],[36.87349,-1.25965,0.0],[36.87518,-1.25998,0.0],[36.87826,-1.25992,0.0]]]]}},{"type":"Feature","properties":{"uesi_id":"KEN_R9185096","nbhd_code":"KEN_R9185096_16","nbhd_name":"Westlands"},"geometry":{"type":"MultiPolygon","coordinates":[[[[36.7987,-1.19291,0.0],[36.80208,-1.1947,0.0],[36.82542,-1.20766,0.0],[36.83404,-1.21248,0.0],[36.83456,-1.21361,0.0],[36.8349,-1.21488,0.0],[36.83448,-1.2179,0.0],[36.83567,-1.2197,0.0],[36.83683,-1.22101,0.0],[36.83767,-1.22215,0.0],[36.83908,-1.22496,0.0],[36.84021,-1.22726,0.0],[36.84095,-1.22818,0.0],[36.84175,-1.22897,0.0],[36.84223,-1.2297,0.0],[36.84274,-1.23265,0.0],[36.84331,-1.23771,0.0],[36.84362,-1.2403,0.0],[36.84369,-1.24128,0.0],[36.84484,-1.24396,0.0],[36.84559,-1.24475,0.0],[36.84612,-1.24545,0.0],[36.84626,-1.24644,0.0],[36.84476,-1.24944,0.0],[36.84245,-1.2545,0.0],[36.84186,-1.25683,0.0],[36.84182,-1.25796,0.0],[36.84088,-1.25914,0.0],[36.84054,-1.2599,0.0],[36.83928,-1.26096,0.0],[36.83811,-1.26106,0.0],[36.83708,-1.26189,0.0],[36.83533,-1.26297,0.0],[36.83361,-1.26437,0.0],[36.8317,-1.26487,0.0],[36.82717,-1.26589,0.0],[36.82257,-1.26644,0.0],[36.81968,-1.26662,0.0],[36.81699,-1.26687,0.0],[36.8152,-1.26707,0.0],[36.81416,-1.26823,0.0],[36.81379,-1.2692,0.0],[36.81376,-1.27054,0.0],[36.81288,-1.27086,0.0],[36.81181,-1.27208,0.0],[36.81093,-1.27165,0.0],[36.80996,-1.27096,0.0],[36.80914,-1.27051,0.0],[36.8073,-1.26897,0.0],[36.80553,-1.26692,0.0],[36.80468,-1.26594,0.0],[36.80252,-1.26348,0.0],[36.79868,-1.25911,0.0],[36.79433,-1.25852,0.0],[36.79227,-1.25852,0.0],[36.79096,-1.25815,0.0],[36.78952,-1.25782,0.0],[36.78791,-1.25754,0.0],[36.78463,-1.25698,0.0],[36.77977,-1.25627,0.0],[36.77891,-1.25625,0.0],[36.77513,-1.25694,0.0],[36.76852,-1.25806,0.0],[36.76742,-1.25825,0.0],[36.76669,-1.25865,0.0],[36.76494,-1.25993,0.0],[36.76382,-1.26037,0.0],[36.75782,-1.26124,0.0],[36.75328,-1.26163,0.0],[36.75336,-1.2624,0.0],[36.75423,-1.26332,0.0],[36.7555,-1.26414,0.0],[36.75629,-1.26447,0.0],[36.75723,-1.26449,0.0],[36.75807,-1.26453,0.0],[36.75943,-1.26509,0.0],[36.76023,-1.26607,0.0],[36.76095,-1.2669,0.0],[36.76147,-1.26772,0.0],[36.76046,-1.26831,0.0],[36.75978,-1.26779,0.0],[36.75881,-1.26814,0.0],[36.75789,-1.26847,0.0],[36.75791,-1.26935,0.0],[36.75783,-1.27041,0.0],[36.75706,-1.27109,0.0],[36.75569,-1.27111,0.0],[36.75454,-1.27106,0.0],[36.75368,-1.271,0.0],[36.75295,-1.2713,0.0],[36.75223,-1.27174,0.0],[36.75141,-1.27221,0.0],[36.75058,-1.27256,0.0],[36.74962,-1.27203,0.0],[36.74857,-1.27162,0.0],[36.74746,-1.27228,0.0],[36.74628,-1.27254,0.0],[36.74534,-1.27234,0.0],[36.7444,-1.27283,0.0],[36.74347,-1.27349,0.0],[36.7425,-1.27433,0.0],[36.74151,-1.27467,0.0],[36.74067,-1.27497,0.0],[36.7396,-1.2753,0.0],[36.73862,-1.27554,0.0],[36.7376,-1.27545,0.0],[36.73673,-1.27502,0.0],[36.73594,-1.27422,0.0],[36.73517,-1.27368,0.0],[36.73444,-1.2731,0.0],[36.73341,-1.2729,0.0],[36.73222,-1.27202,0.0],[36.73182,-1.27119,0.0],[36.73082,-1.27058,0.0],[36.72976,-1.27024,0.0],[36.72892,-1.26974,0.0],[36.72773,-1.26873,0.0],[36.72667,-1.26785,0.0],[36.7255,-1.26709,0.0],[36.72454,-1.26649,0.0],[36.72381,-1.26602,0.0],[36.72301,-1.26535,0.0],[36.7223,-1.26471,0.0],[36.72156,-1.26406,0.0],[36.72044,-1.26326,0.0],[36.71963,-1.26219,0.0],[36.71854,-1.26081,0.0],[36.721,-1.25567,0.0],[36.72361,-1.2506,0.0],[36.72436,-1.2496,0.0],[36.72495,-1.24898,0.0],[36.72552,-1.24829,0.0],[36.7254,-1.24691,0.0],[36.72504,-1.24608,0.0],[36.72504,-1.2452,0.0],[36.72545,-1.24402,0.0],[36.72604,-1.24347,0.0],[36.72728,-1.24322,0.0],[36.72787,-1.23923,0.0],[36.72866,-1.2324,0.0],[36.72973,-1.23172,0.0],[36.73126,-1.23279,0.0],[36.73214,-1.23272,0.0],[36.73307,-1.2327,0.0],[36.73395,-1.23313,0.0],[36.73498,-1.23358,0.0],[36.73623,-1.23363,0.0],[36.73746,-1.23381,0.0],[36.73828,-1.23388,0.0],[36.73996,-1.23433,0.0],[36.74095,-1.23442,0.0],[36.74186,-1.23407,0.0],[36.74271,-1.23413,0.0],[36.74344,-1.23447,0.0],[36.74444,-1.23477,0.0],[36.7456,-1.2346,0.0],[36.7467,-1.23468,0.0],[36.7525,-1.22395,0.0],[36.75534,-1.21857,0.0],[36.75583,-1.21781,0.0],[36.7565,-1.21678,0.0],[36.76059,-1.21866,0.0],[36.76199,-1.21945,0.0],[36.76625,-1.22188,0.0],[36.76989,-1.22387,0.0],[36.7716,-1.22098,0.0],[36.7783,-1.22434,0.0],[36.78112,-1.21936,0.0],[36.78439,-1.21307,0.0],[36.78376,-1.21254,0.0],[36.78964,-1.2064,0.0],[36.78882,-1.20581,0.0],[36.7881,-1.20537,0.0],[36.78752,-1.20486,0.0],[36.78686,-1.20412,0.0],[36.78596,-1.20396,0.0],[36.78514,-1.20394,0.0],[36.78424,-1.20322,0.0],[36.78413,-1.20202,0.0],[36.78446,-1.20124,0.0],[36.78696,-1.19616,0.0],[36.79091,-1.18905,0.0],[36.7987,-1.19291,0.0]]]]}},{"type":"Feature","properties":{"uesi_id":"KEN_R9185096","nbhd_code":"KEN_R9185096_17","nbhd_name":"Dagoretti South"},"geometry":{"type":"MultiPolygon","coordinates":[[[[36.71748,-1.25983,0.0],[36.71854,-1.26081,0.0],[36.71963,-1.26219,0.0],[36.72044,-1.26326,0.0],[36.72156,-1.26406,0.0],[36.7223,-1.26471,0.0],[36.72301,-1.26535,0.0],[36.72381,-1.26602,0.0],[36.72454,-1.26649,0.0],[36.7255,-1.26709,0.0],[36.72667,-1.26785,0.0],[36.72773,-1.26873,0.0],[36.72892,-1.26974,0.0],[36.72976,-1.27024,0.0],[36.73082,-1.27058,0.0],[36.73182,-1.27119,0.0],[36.73222,-1.27202,0.0],[36.73341,-1.2729,0.0],[36.73429,-1.27428,0.0],[36.73481,-1.27537,0.0],[36.73501,-1.27642,0.0],[36.73515,-1.27729,0.0],[36.73574,-1.27835,0.0],[36.73609,-1.27945,0.0],[36.73655,-1.28082,0.0],[36.73694,-1.28208,0.0],[36.7379,-1.2826,0.0],[36.73998,-1.28404,0.0],[36.74283,-1.28624,0.0],[36.74411,-1.28723,0.0],[36.74708,-1.28912,0.0],[36.74863,-1.28953,0.0],[36.75022,-1.28993,0.0],[36.75172,-1.29037,0.0],[36.75284,-1.29091,0.0],[36.75381,-1.29179,0.0],[36.7547,-1.29293,0.0],[36.75537,-1.29406,0.0],[36.75622,-1.29507,0.0],[36.75758,-1.29555,0.0],[36.7603,-1.29616,0.0],[36.75859,-1.29694,0.0],[36.74743,-1.30109,0.0],[36.74325,-1.30278,0.0],[36.7421,-1.30313,0.0],[36.74004,-1.30351,0.0],[36.73796,-1.30368,0.0],[36.73543,-1.30461,0.0],[36.7312,-1.30594,0.0],[36.73092,-1.30119,0.0],[36.73027,-1.29962,0.0],[36.737,-1.298,0.0],[36.73707,-1.2966,0.0],[36.73704,-1.29561,0.0],[36.73637,-1.29443,0.0],[36.73397,-1.29372,0.0],[36.73256,-1.2934,0.0],[36.72696,-1.29422,0.0],[36.72518,-1.2971,0.0],[36.72342,-1.30082,0.0],[36.72226,-1.30054,0.0],[36.71899,-1.29972,0.0],[36.71788,-1.29939,0.0],[36.71587,-1.2987,0.0],[36.70848,-1.29511,0.0],[36.70653,-1.30267,0.0],[36.70547,-1.3025,0.0],[36.70463,-1.30214,0.0],[36.70395,-1.30145,0.0],[36.70248,-1.29989,0.0],[36.70135,-1.29861,0.0],[36.70057,-1.29822,0.0],[36.69964,-1.2979,0.0],[36.69868,-1.29737,0.0],[36.69751,-1.29668,0.0],[36.69631,-1.29621,0.0],[36.69497,-1.29563,0.0],[36.69368,-1.29503,0.0],[36.69289,-1.29531,0.0],[36.69198,-1.29519,0.0],[36.69111,-1.29485,0.0],[36.68972,-1.29498,0.0],[36.68892,-1.2948,0.0],[36.68816,-1.29428,0.0],[36.68714,-1.29387,0.0],[36.6846,-1.29816,0.0],[36.67829,-1.29794,0.0],[36.67993,-1.2966,0.0],[36.68081,-1.2962,0.0],[36.6813,-1.29497,0.0],[36.68179,-1.29408,0.0],[36.68242,-1.29287,0.0],[36.68284,-1.29196,0.0],[36.6834,-1.29038,0.0],[36.68379,-1.28928,0.0],[36.68474,-1.28671,0.0],[36.68535,-1.28571,0.0],[36.68557,-1.28461,0.0],[36.68592,-1.28322,0.0],[36.68634,-1.2823,0.0],[36.68746,-1.28129,0.0],[36.68851,-1.28023,0.0],[36.68929,-1.27926,0.0],[36.6894,-1.27805,0.0],[36.68932,-1.27715,0.0],[36.68853,-1.27631,0.0],[36.68838,-1.27531,0.0],[36.68851,-1.27417,0.0],[36.68795,-1.27331,0.0],[36.68766,-1.2725,0.0],[36.68887,-1.2728,0.0],[36.6899,-1.27329,0.0],[36.69103,-1.2734,0.0],[36.69139,-1.27246,0.0],[36.69026,-1.27044,0.0],[36.6901,-1.26943,0.0],[36.69082,-1.26861,0.0],[36.69195,-1.2683,0.0],[36.6931,-1.2683,0.0],[36.69436,-1.26819,0.0],[36.69365,-1.26705,0.0],[36.69318,-1.26633,0.0],[36.69476,-1.26641,0.0],[36.69587,-1.26648,0.0],[36.69657,-1.266,0.0],[36.69672,-1.26508,0.0],[36.69582,-1.26406,0.0],[36.69498,-1.26358,0.0],[36.69335,-1.26164,0.0],[36.69413,-1.26098,0.0],[36.69493,-1.2594,0.0],[36.69448,-1.25871,0.0],[36.69394,-1.2579,0.0],[36.69531,-1.25757,0.0],[36.69637,-1.2576,0.0],[36.69749,-1.25811,0.0],[36.70068,-1.25982,0.0],[36.70098,-1.25892,0.0],[36.70138,-1.25806,0.0],[36.7026,-1.25578,0.0],[36.70347,-1.25602,0.0],[36.70462,-1.25634,0.0],[36.70653,-1.25689,0.0],[36.71325,-1.25804,0.0],[36.71586,-1.25842,0.0],[36.71748,-1.25983,0.0]]]]}}]}