{"type":"FeatureCollection","name":"KOR_R2409182","crs":{"type":"name","properties":{"name":"urn:ogc:def:crs:OGC:1.3:CRS84"}},"features":[{"type":"Feature","properties":{"uesi_id":"KOR_R2409182","nbhd_code":"KOR_R2409182_2","nbhd_name":"\uad8c\uc120\uad6c"},"geometry":{"type":"MultiPolygon","coordinates":[[[[127.03669,37.25648,0.0],[127.03607,37.25505,0.0],[127.03726,37.25484,0.0],[127.03869,37.25461,0.0],[127.03936,37.25407,0.0],[127.03999,37.2539,0.0],[127.04047,37.25244,0.0],[127.0413,37.25145,0.0],[127.04216,37.25088,0.0],[127.04116,37.24985,0.0],[127.04131,37.24923,0.0],[127.04136,37.24856,0.0],[127.04117,37.24813,0.0],[127.03969,37.24758,0.0],[127.03925,37.24702,0.0],[127.03924,37.24656,0.0],[127.03941,37.24626,0.0],[127.0401,37.24562,0.0],[127.04074,37.24515,0.0],[127.04063,37.24457,0.0],[127.04084,37.24408,0.0],[127.04064,37.24368,0.0],[127.04027,37.2435,0.0],[127.04026,37.24382,0.0],[127.0403,37.24461,0.0],[127.03977,37.24408,0.0],[127.03938,37.2435,0.0],[127.03897,37.2435,0.0],[127.03917,37.24262,0.0],[127.03844,37.24213,0.0],[127.03827,37.24183,0.0],[127.03872,37.24136,0.0],[127.03809,37.24075,0.0],[127.03785,37.24049,0.0],[127.03701,37.2408,0.0],[127.03654,37.24048,0.0],[127.0365,37.24,0.0],[127.03629,37.23949,0.0],[127.03649,37.23892,0.0],[127.03736,37.23888,0.0],[127.03736,37.23832,0.0],[127.03738,37.23821,0.0],[127.03747,37.23746,0.0],[127.03745,37.23696,0.0],[127.0372,37.23672,0.0],[127.03683,37.23664,0.0],[127.03638,37.23657,0.0],[127.03592,37.23667,0.0],[127.0355,37.23669,0.0],[127.0349,37.23669,0.0],[127.03464,37.23645,0.0],[127.03489,37.23597,0.0],[127.03403,37.23587,0.0],[127.0326,37.23494,0.0],[127.03237,37.23421,0.0],[127.03167,37.23394,0.0],[127.03122,37.23345,0.0],[127.03095,37.23346,0.0],[127.0305,37.23344,0.0],[127.03004,37.23286,0.0],[127.02974,37.23249,0.0],[127.02998,37.23111,0.0],[127.02892,37.23107,0.0],[127.02839,37.23116,0.0],[127.0281,37.23101,0.0],[127.02781,37.23077,0.0],[127.0272,37.23074,0.0],[127.02665,37.23063,0.0],[127.02633,37.23062,0.0],[127.02594,37.23074,0.0],[127.02552,37.23095,0.0],[127.0249,37.23086,0.0],[127.02432,37.23086,0.0],[127.02385,37.2309,0.0],[127.02324,37.23087,0.0],[127.02427,37.22861,0.0],[127.02414,37.22842,0.0],[127.02389,37.22806,0.0],[127.02426,37.22732,0.0],[127.02395,37.2269,0.0],[127.02328,37.22627,0.0],[127.02283,37.2259,0.0],[127.02267,37.22501,0.0],[127.02215,37.22464,0.0],[127.02131,37.22453,0.0],[127.02109,37.22494,0.0],[127.02073,37.22533,0.0],[127.02,37.22561,0.0],[127.01904,37.22574,0.0],[127.01699,37.22586,0.0],[127.01587,37.22569,0.0],[127.01537,37.22589,0.0],[127.0139,37.22663,0.0],[127.0124,37.22637,0.0],[127.01115,37.2263,0.0],[127.00802,37.22719,0.0],[127.00722,37.22748,0.0],[127.00718,37.22802,0.0],[127.00656,37.22829,0.0],[127.00643,37.22898,0.0],[127.00586,37.22875,0.0],[127.00422,37.22906,0.0],[127.00388,37.2293,0.0],[127.0038,37.22982,0.0],[127.00351,37.23001,0.0],[127.0031,37.23007,0.0],[127.00274,37.22981,0.0],[127.00278,37.22954,0.0],[127.0032,37.22933,0.0],[127.00327,37.22885,0.0],[127.00223,37.22891,0.0],[127.00187,37.22782,0.0],[127.00118,37.22756,0.0],[127.00113,37.22644,0.0],[126.99824,37.22557,0.0],[126.99801,37.22628,0.0],[126.99823,37.22679,0.0],[126.99746,37.22714,0.0],[126.99759,37.22751,0.0],[126.99671,37.2276,0.0],[126.99657,37.22795,0.0],[126.99671,37.22834,0.0],[126.9975,37.2283,0.0],[126.99787,37.22888,0.0],[126.99756,37.22912,0.0],[126.99705,37.22923,0.0],[126.99581,37.22956,0.0],[126.99511,37.23036,0.0],[126.99383,37.2305,0.0],[126.99335,37.23061,0.0],[126.99245,37.23133,0.0],[126.99157,37.23088,0.0],[126.991,37.23124,0.0],[126.99043,37.23132,0.0],[126.99049,37.23172,0.0],[126.99041,37.23214,0.0],[126.98991,37.23215,0.0],[126.98978,37.23163,0.0],[126.98937,37.23166,0.0],[126.98928,37.23218,0.0],[126.98959,37.23266,0.0],[126.98946,37.23343,0.0],[126.98808,37.23396,0.0],[126.98762,37.23418,0.0],[126.98722,37.23384,0.0],[126.98741,37.23333,0.0],[126.98655,37.23352,0.0],[126.98663,37.23387,0.0],[126.98664,37.23419,0.0],[126.98613,37.23409,0.0],[126.98601,37.23328,0.0],[126.98614,37.2328,0.0],[126.98553,37.23259,0.0],[126.98511,37.23219,0.0],[126.98509,37.23175,0.0],[126.98466,37.23066,0.0],[126.98424,37.23074,0.0],[126.98368,37.2313,0.0],[126.9828,37.23155,0.0],[126.98264,37.23174,0.0],[126.98262,37.23214,0.0],[126.98252,37.23225,0.0],[126.98191,37.23225,0.0],[126.98112,37.23249,0.0],[126.97833,37.22983,0.0],[126.97752,37.22977,0.0],[126.9763,37.23038,0.0],[126.9736,37.22888,0.0],[126.9728,37.2287,0.0],[126.97128,37.22908,0.0],[126.97084,37.2292,0.0],[126.97056,37.22921,0.0],[126.96998,37.22978,0.0],[126.96951,37.23042,0.0],[126.96934,37.23088,0.0],[126.9681,37.23439,0.0],[126.96769,37.23506,0.0],[126.96726,37.23559,0.0],[126.96641,37.2361,0.0],[126.96391,37.23734,0.0],[126.96048,37.23832,0.0],[126.959,37.23912,0.0],[126.95775,37.23975,0.0],[126.95734,37.24031,0.0],[126.95786,37.24096,0.0],[126.95805,37.24196,0.0],[126.95798,37.24276,0.0],[126.95747,37.24361,0.0],[126.95682,37.24465,0.0],[126.95605,37.24655,0.0],[126.95333,37.24808,0.0],[126.95274,37.24884,0.0],[126.95263,37.24947,0.0],[126.9523,37.25168,0.0],[126.95045,37.25292,0.0],[126.95,37.25562,0.0],[126.948,37.25703,0.0],[126.94654,37.25743,0.0],[126.94426,37.25691,0.0],[126.93982,37.25657,0.0],[126.93528,37.25708,0.0],[126.93374,37.25866,0.0],[126.93197,37.26039,0.0],[126.93066,37.26084,0.0],[126.93007,37.26302,0.0],[126.92931,37.26625,0.0],[126.92967,37.26678,0.0],[126.92913,37.26705,0.0],[126.92883,37.26797,0.0],[126.92818,37.2689,0.0],[126.92896,37.26954,0.0],[126.92951,37.27048,0.0],[126.92848,37.27063,0.0],[126.92852,37.27117,0.0],[126.92701,37.27135,0.0],[126.92697,37.27211,0.0],[126.92729,37.27262,0.0],[126.92726,37.27336,0.0],[126.92812,37.27396,0.0],[126.928,37.27519,0.0],[126.92842,37.27629,0.0],[126.92842,37.27674,0.0],[126.92762,37.27729,0.0],[126.92773,37.2782,0.0],[126.92735,37.27873,0.0],[126.92803,37.28051,0.0],[126.92795,37.28238,0.0],[126.9288,37.28423,0.0],[126.92907,37.28592,0.0],[126.93045,37.28623,0.0],[126.93134,37.28699,0.0],[126.93248,37.2895,0.0],[126.93307,37.29166,0.0],[126.93373,37.29214,0.0],[126.93439,37.29249,0.0],[126.93714,37.29335,0.0],[126.93791,37.29417,0.0],[126.93876,37.29465,0.0],[126.93941,37.29508,0.0],[126.93955,37.2955,0.0],[126.93951,37.2961,0.0],[126.9394,37.29651,0.0],[126.93803,37.29678,0.0],[126.93543,37.29814,0.0],[126.93503,37.29861,0.0],[126.93402,37.29901,0.0],[126.93354,37.3003,0.0],[126.93317,37.30047,0.0],[126.93235,37.30085,0.0],[126.93295,37.30307,0.0],[126.93447,37.30331,0.0],[126.93542,37.30287,0.0],[126.93687,37.30282,0.0],[126.9374,37.30219,0.0],[126.93895,37.30207,0.0],[126.93999,37.30167,0.0],[126.94121,37.3015,0.0],[126.94296,37.3004,0.0],[126.94402,37.30038,0.0],[126.94467,37.30037,0.0],[126.94494,37.30065,0.0],[126.94536,37.30064,0.0],[126.95088,37.30044,0.0],[126.95115,37.30071,0.0],[126.95129,37.3009,0.0],[126.95193,37.30109,0.0],[126.95285,37.3013,0.0],[126.95319,37.3019,0.0],[126.95283,37.30259,0.0],[126.95291,37.30263,0.0],[126.95333,37.30287,0.0],[126.95376,37.30301,0.0],[126.95424,37.30306,0.0],[126.95434,37.3031,0.0],[126.95561,37.30282,0.0],[126.9557,37.30277,0.0],[126.95593,37.30255,0.0],[126.95609,37.30227,0.0],[126.95619,37.30208,0.0],[126.95637,37.30216,0.0],[126.95776,37.30216,0.0],[126.95797,37.30216,0.0],[126.95849,37.30218,0.0],[126.95982,37.30221,0.0],[126.96068,37.30222,0.0],[126.96153,37.30159,0.0],[126.96379,37.30091,0.0],[126.96354,37.3005,0.0],[126.96363,37.29874,0.0],[126.9646,37.29788,0.0],[126.96472,37.29767,0.0],[126.96476,37.29725,0.0],[126.96483,37.29696,0.0],[126.9652,37.29673,0.0],[126.96585,37.29665,0.0],[126.96637,37.29566,0.0],[126.96683,37.29545,0.0],[126.96797,37.29431,0.0],[126.96824,37.29245,0.0],[126.96882,37.2913,0.0],[126.96853,37.28982,0.0],[126.96972,37.28903,0.0],[126.96989,37.28835,0.0],[126.96962,37.28662,0.0],[126.97172,37.28679,0.0],[126.9723,37.28739,0.0],[126.97269,37.2874,0.0],[126.9731,37.28719,0.0],[126.9736,37.28641,0.0],[126.97363,37.28585,0.0],[126.97522,37.28552,0.0],[126.97841,37.28658,0.0],[126.98134,37.28367,0.0],[126.98344,37.28396,0.0],[126.98478,37.28278,0.0],[126.98631,37.28283,0.0],[126.98697,37.28259,0.0],[126.98718,37.28225,0.0],[126.98723,37.28199,0.0],[126.98664,37.2815,0.0],[126.98623,37.2808,0.0],[126.98631,37.27987,0.0],[126.9866,37.27941,0.0],[126.98581,37.27761,0.0],[126.98504,37.27658,0.0],[126.9853,37.27637,0.0],[126.98522,37.27549,0.0],[126.98584,37.27495,0.0],[126.98728,37.27459,0.0],[126.98738,37.27482,0.0],[126.98767,37.27499,0.0],[126.99323,37.27723,0.0],[126.99325,37.2772,0.0],[126.99732,37.27012,0.0],[126.99489,37.27063,0.0],[126.99496,37.27045,0.0],[126.99807,37.26968,0.0],[126.99809,37.26951,0.0],[126.99788,37.26937,0.0],[126.99786,37.2689,0.0],[126.99852,37.26645,0.0],[127.00121,37.26366,0.0],[127.00229,37.26441,0.0],[127.00695,37.26387,0.0],[127.00715,37.26428,0.0],[127.0071,37.2647,0.0],[127.00639,37.26488,0.0],[127.00638,37.2652,0.0],[127.00608,37.26537,0.0],[127.00643,37.26563,0.0],[127.00669,37.26535,0.0],[127.00718,37.26529,0.0],[127.00754,37.2651,0.0],[127.00811,37.2648,0.0],[127.00823,37.26547,0.0],[127.00837,37.26573,0.0],[127.00964,37.26702,0.0],[127.00984,37.26777,0.0],[127.01017,37.26747,0.0],[127.01077,37.26714,0.0],[127.01237,37.26627,0.0],[127.01398,37.26576,0.0],[127.01317,37.26466,0.0],[127.0136,37.26437,0.0],[127.01378,37.26387,0.0],[127.01475,37.26391,0.0],[127.01545,37.26505,0.0],[127.01628,37.26482,0.0],[127.01735,37.26433,0.0],[127.02027,37.26457,0.0],[127.02066,37.2645,0.0],[127.03183,37.26165,0.0],[127.03046,37.25821,0.0],[127.03669,37.25648,0.0]]]]}},{"type":"Feature","properties":{"uesi_id":"KOR_R2409182","nbhd_code":"KOR_R2409182_3","nbhd_name":"\ud314\ub2ec\uad6c"},"geometry":{"type":"MultiPolygon","coordinates":[[[[127.03669,37.25648,0.0],[127.03046,37.25821,0.0],[127.03183,37.26165,0.0],[127.02066,37.2645,0.0],[127.02027,37.26457,0.0],[127.01735,37.26433,0.0],[127.01628,37.26482,0.0],[127.01545,37.26505,0.0],[127.01475,37.26391,0.0],[127.01378,37.26387,0.0],[127.0136,37.26437,0.0],[127.01317,37.26466,0.0],[127.01398,37.26576,0.0],[127.01237,37.26627,0.0],[127.01077,37.26714,0.0],[127.01017,37.26747,0.0],[127.00984,37.26777,0.0],[127.00964,37.26702,0.0],[127.00837,37.26573,0.0],[127.00823,37.26547,0.0],[127.00811,37.2648,0.0],[127.00754,37.2651,0.0],[127.00718,37.26529,0.0],[127.00669,37.26535,0.0],[127.00643,37.26563,0.0],[127.00608,37.26537,0.0],[127.00638,37.2652,0.0],[127.00639,37.26488,0.0],[127.0071,37.2647,0.0],[127.00715,37.26428,0.0],[127.00695,37.26387,0.0],[127.00229,37.26441,0.0],[127.00121,37.26366,0.0],[126.99852,37.26645,0.0],[126.99786,37.2689,0.0],[126.99788,37.26937,0.0],[126.99809,37.26951,0.0],[126.99807,37.26968,0.0],[126.99496,37.27045,0.0],[126.99489,37.27063,0.0],[126.99732,37.27012,0.0],[126.99325,37.2772,0.0],[126.99323,37.27723,0.0],[126.98767,37.27499,0.0],[126.98738,37.27482,0.0],[126.98728,37.27459,0.0],[126.98584,37.27495,0.0],[126.98522,37.27549,0.0],[126.9853,37.27637,0.0],[126.98504,37.27658,0.0],[126.98581,37.27761,0.0],[126.9866,37.27941,0.0],[126.98631,37.27987,0.0],[126.98623,37.2808,0.0],[126.98664,37.2815,0.0],[126.98723,37.28199,0.0],[126.98718,37.28225,0.0],[126.98697,37.28259,0.0],[126.98631,37.28283,0.0],[126.98478,37.28278,0.0],[126.98344,37.28396,0.0],[126.98134,37.28367,0.0],[126.97841,37.28658,0.0],[126.9774,37.28838,0.0],[126.9844,37.29109,0.0],[126.98457,37.29089,0.0],[126.98622,37.28904,0.0],[126.9865,37.2889,0.0],[126.9876,37.28962,0.0],[126.98779,37.28993,0.0],[126.98845,37.28954,0.0],[126.99025,37.28638,0.0],[126.99058,37.28619,0.0],[126.99717,37.28868,0.0],[127.00066,37.28979,0.0],[127.00257,37.28793,0.0],[127.00561,37.28633,0.0],[127.0062,37.28593,0.0],[127.00656,37.28583,0.0],[127.00692,37.28563,0.0],[127.00699,37.2853,0.0],[127.00722,37.28522,0.0],[127.00747,37.28536,0.0],[127.00785,37.28567,0.0],[127.00907,37.28551,0.0],[127.00953,37.28542,0.0],[127.00958,37.28552,0.0],[127.00953,37.28555,0.0],[127.00951,37.2856,0.0],[127.00951,37.28565,0.0],[127.00954,37.28569,0.0],[127.00959,37.28572,0.0],[127.00964,37.28574,0.0],[127.0097,37.28574,0.0],[127.00968,37.2858,0.0],[127.00965,37.28584,0.0],[127.00964,37.28583,0.0],[127.00961,37.28589,0.0],[127.00968,37.28591,0.0],[127.00971,37.28586,0.0],[127.00972,37.28585,0.0],[127.00978,37.28587,0.0],[127.00985,37.2859,0.0],[127.00994,37.28594,0.0],[127.01004,37.28598,0.0],[127.01015,37.28605,0.0],[127.01026,37.2861,0.0],[127.01038,37.28616,0.0],[127.01049,37.2862,0.0],[127.01055,37.28624,0.0],[127.01066,37.28628,0.0],[127.01075,37.28632,0.0],[127.01086,37.28636,0.0],[127.01083,37.28641,0.0],[127.01091,37.28644,0.0],[127.01094,37.28639,0.0],[127.01102,37.28642,0.0],[127.01112,37.28646,0.0],[127.01128,37.28655,0.0],[127.01143,37.28663,0.0],[127.0115,37.28668,0.0],[127.01156,37.28673,0.0],[127.01166,37.28681,0.0],[127.01176,37.28687,0.0],[127.01186,37.28692,0.0],[127.01196,37.28697,0.0],[127.01208,37.28703,0.0],[127.01219,37.28709,0.0],[127.01234,37.2872,0.0],[127.01228,37.28726,0.0],[127.01233,37.2873,0.0],[127.0124,37.28724,0.0],[127.01248,37.2873,0.0],[127.01263,37.2874,0.0],[127.01272,37.28747,0.0],[127.01283,37.28758,0.0],[127.01293,37.28769,0.0],[127.01302,37.28781,0.0],[127.01309,37.28794,0.0],[127.01317,37.28808,0.0],[127.01327,37.28819,0.0],[127.01341,37.28832,0.0],[127.01345,37.28842,0.0],[127.01351,37.28852,0.0],[127.01352,37.28856,0.0],[127.01354,37.28862,0.0],[127.01349,37.28868,0.0],[127.01354,37.28871,0.0],[127.01359,37.28865,0.0],[127.01368,37.28864,0.0],[127.01377,37.28867,0.0],[127.01387,37.28872,0.0],[127.01405,37.28881,0.0],[127.01402,37.28885,0.0],[127.014,37.28889,0.0],[127.01399,37.28893,0.0],[127.01399,37.28896,0.0],[127.014,37.289,0.0],[127.01401,37.28903,0.0],[127.01403,37.28905,0.0],[127.01406,37.28907,0.0],[127.01409,37.28909,0.0],[127.01413,37.28911,0.0],[127.01418,37.28912,0.0],[127.01421,37.28912,0.0],[127.01427,37.28911,0.0],[127.01432,37.2891,0.0],[127.01436,37.28908,0.0],[127.01439,37.28906,0.0],[127.01441,37.28903,0.0],[127.01443,37.28901,0.0],[127.01474,37.28917,0.0],[127.01479,37.28921,0.0],[127.01482,37.28928,0.0],[127.01478,37.28934,0.0],[127.01483,37.28936,0.0],[127.01488,37.2893,0.0],[127.01496,37.28934,0.0],[127.015,37.2893,0.0],[127.01495,37.28927,0.0],[127.01493,37.28925,0.0],[127.01492,37.28923,0.0],[127.01493,37.28921,0.0],[127.01495,37.28918,0.0],[127.01499,37.28915,0.0],[127.01505,37.28913,0.0],[127.01526,37.28906,0.0],[127.01538,37.28902,0.0],[127.01551,37.28895,0.0],[127.01571,37.28886,0.0],[127.0158,37.28883,0.0],[127.01592,37.2888,0.0],[127.01606,37.28875,0.0],[127.01617,37.2887,0.0],[127.01628,37.28867,0.0],[127.01635,37.28865,0.0],[127.0164,37.28863,0.0],[127.01645,37.2886,0.0],[127.01651,37.28866,0.0],[127.01657,37.28863,0.0],[127.0165,37.28857,0.0],[127.01657,37.28852,0.0],[127.01672,37.28842,0.0],[127.01687,37.28831,0.0],[127.01703,37.28817,0.0],[127.01714,37.28804,0.0],[127.01721,37.28785,0.0],[127.01725,37.28775,0.0],[127.01727,37.28773,0.0],[127.01731,37.2877,0.0],[127.01736,37.2877,0.0],[127.01749,37.2877,0.0],[127.01749,37.28761,0.0],[127.0176,37.28761,0.0],[127.01764,37.28761,0.0],[127.01776,37.28761,0.0],[127.01785,37.28761,0.0],[127.01785,37.28768,0.0],[127.01815,37.28767,0.0],[127.01815,37.28761,0.0],[127.01827,37.28761,0.0],[127.01836,37.28755,0.0],[127.01836,37.28747,0.0],[127.01858,37.28725,0.0],[127.01867,37.28717,0.0],[127.01873,37.28713,0.0],[127.01879,37.28712,0.0],[127.01885,37.28711,0.0],[127.01894,37.28711,0.0],[127.01903,37.28712,0.0],[127.01911,37.28715,0.0],[127.0192,37.28719,0.0],[127.01927,37.28725,0.0],[127.01932,37.2873,0.0],[127.0194,37.28734,0.0],[127.01954,37.28737,0.0],[127.01958,37.28739,0.0],[127.01964,37.28739,0.0],[127.01964,37.28745,0.0],[127.01971,37.28745,0.0],[127.01972,37.2874,0.0],[127.01977,37.28739,0.0],[127.01986,37.28738,0.0],[127.01994,37.28736,0.0],[127.02007,37.28731,0.0],[127.02022,37.28724,0.0],[127.02038,37.28718,0.0],[127.02044,37.28717,0.0],[127.02051,37.28716,0.0],[127.02058,37.28717,0.0],[127.02066,37.2872,0.0],[127.02082,37.28727,0.0],[127.02098,37.28734,0.0],[127.02116,37.2874,0.0],[127.02132,37.28745,0.0],[127.02135,37.2874,0.0],[127.02141,37.28742,0.0],[127.02141,37.28747,0.0],[127.02166,37.28755,0.0],[127.02182,37.28762,0.0],[127.02192,37.28766,0.0],[127.02201,37.2877,0.0],[127.02211,37.28778,0.0],[127.02221,37.28785,0.0],[127.02237,37.28796,0.0],[127.02242,37.288,0.0],[127.02249,37.28803,0.0],[127.02254,37.28807,0.0],[127.0226,37.28815,0.0],[127.02269,37.2883,0.0],[127.02277,37.2884,0.0],[127.0228,37.28842,0.0],[127.02281,37.28846,0.0],[127.02282,37.28849,0.0],[127.02284,37.28852,0.0],[127.02288,37.28856,0.0],[127.02292,37.28858,0.0],[127.02296,37.2886,0.0],[127.02302,37.28862,0.0],[127.02307,37.28863,0.0],[127.02312,37.28863,0.0],[127.02316,37.28862,0.0],[127.0232,37.28863,0.0],[127.02325,37.28867,0.0],[127.0233,37.28871,0.0],[127.02341,37.28879,0.0],[127.02344,37.28883,0.0],[127.02346,37.28885,0.0],[127.02349,37.28887,0.0],[127.02354,37.2889,0.0],[127.02363,37.28898,0.0],[127.02367,37.28903,0.0],[127.02366,37.28907,0.0],[127.02367,37.28909,0.0],[127.02369,37.28911,0.0],[127.02371,37.28912,0.0],[127.02374,37.28913,0.0],[127.02379,37.28912,0.0],[127.02384,37.28912,0.0],[127.02389,37.28913,0.0],[127.02394,37.28915,0.0],[127.02401,37.28919,0.0],[127.02408,37.28924,0.0],[127.02412,37.28927,0.0],[127.02415,37.28928,0.0],[127.0242,37.28929,0.0],[127.02428,37.28933,0.0],[127.02432,37.28935,0.0],[127.02433,37.28938,0.0],[127.02434,37.28939,0.0],[127.02438,37.2894,0.0],[127.02442,37.28939,0.0],[127.02448,37.28939,0.0],[127.0245,37.28941,0.0],[127.02453,37.28941,0.0],[127.02458,37.2894,0.0],[127.02461,37.28939,0.0],[127.02462,37.28936,0.0],[127.02464,37.28933,0.0],[127.02466,37.28927,0.0],[127.02472,37.2892,0.0],[127.02481,37.28916,0.0],[127.02491,37.28912,0.0],[127.02505,37.28937,0.0],[127.02542,37.29008,0.0],[127.02578,37.29057,0.0],[127.02635,37.29118,0.0],[127.02711,37.29147,0.0],[127.03102,37.29234,0.0],[127.03297,37.29255,0.0],[127.03391,37.29328,0.0],[127.03601,37.29334,0.0],[127.03597,37.29352,0.0],[127.03702,37.29311,0.0],[127.03791,37.29301,0.0],[127.03849,37.29286,0.0],[127.03878,37.2927,0.0],[127.03965,37.29219,0.0],[127.04063,37.29142,0.0],[127.04115,37.29073,0.0],[127.04054,37.29052,0.0],[127.03993,37.2915,0.0],[127.03932,37.2917,0.0],[127.03895,37.29164,0.0],[127.03894,37.29144,0.0],[127.03925,37.29122,0.0],[127.0394,37.29076,0.0],[127.03903,37.29057,0.0],[127.03865,37.29057,0.0],[127.03824,37.29036,0.0],[127.03823,37.29012,0.0],[127.03836,37.29006,0.0],[127.04044,37.28993,0.0],[127.04243,37.28835,0.0],[127.04184,37.28791,0.0],[127.03916,37.28562,0.0],[127.03877,37.28459,0.0],[127.03868,37.28355,0.0],[127.04008,37.2838,0.0],[127.04041,37.2849,0.0],[127.04123,37.2856,0.0],[127.04212,37.28591,0.0],[127.0433,37.28586,0.0],[127.04333,37.28534,0.0],[127.04267,37.28466,0.0],[127.04226,37.28463,0.0],[127.04179,37.28412,0.0],[127.04184,37.28361,0.0],[127.0421,37.28318,0.0],[127.04189,37.28288,0.0],[127.04204,37.28245,0.0],[127.0427,37.28157,0.0],[127.04274,37.28014,0.0],[127.04349,37.27965,0.0],[127.04356,37.27894,0.0],[127.04385,37.2759,0.0],[127.04353,37.27592,0.0],[127.04354,37.27579,0.0],[127.04382,37.27574,0.0],[127.044,37.27506,0.0],[127.04588,37.27431,0.0],[127.04572,37.27407,0.0],[127.04079,37.2755,0.0],[127.04053,37.27509,0.0],[127.03979,37.27511,0.0],[127.03945,37.27476,0.0],[127.03842,37.27471,0.0],[127.03779,37.275,0.0],[127.03722,37.27495,0.0],[127.0368,37.27378,0.0],[127.03855,37.27234,0.0],[127.03833,37.27223,0.0],[127.03695,37.27155,0.0],[127.03831,37.26943,0.0],[127.03402,37.26758,0.0],[127.03382,37.26706,0.0],[127.03341,37.2671,0.0],[127.03324,37.26695,0.0],[127.04052,37.26528,0.0],[127.03669,37.25648,0.0]]]]}},{"type":"Feature","properties":{"uesi_id":"KOR_R2409182","nbhd_code":"KOR_R2409182_4","nbhd_name":"\uc601\ud1b5\uad6c"},"geometry":{"type":"MultiPolygon","coordinates":[[[[127.03936,37.32056,0.0],[127.04024,37.32059,0.0],[127.04214,37.31892,0.0],[127.04547,37.3181,0.0],[127.046,37.3172,0.0],[127.0474,37.31664,0.0],[127.04781,37.31684,0.0],[127.04864,37.3165,0.0],[127.04897,37.31607,0.0],[127.05079,37.31579,0.0],[127.05407,37.31608,0.0],[127.05545,37.31553,0.0],[127.05748,37.31556,0.0],[127.0576,37.31442,0.0],[127.05833,37.31384,0.0],[127.05867,37.3125,0.0],[127.06048,37.31095,0.0],[127.06008,37.30984,0.0],[127.06105,37.3089,0.0],[127.05938,37.30668,0.0],[127.05796,37.30475,0.0],[127.06105,37.30426,0.0],[127.06089,37.30124,0.0],[127.06054,37.30071,0.0],[127.06006,37.29979,0.0],[127.06054,37.29866,0.0],[127.06038,37.29661,0.0],[127.07094,37.29483,0.0],[127.07376,37.29414,0.0],[127.07905,37.29304,0.0],[127.07937,37.2942,0.0],[127.07961,37.29504,0.0],[127.08058,37.29528,0.0],[127.08101,37.29594,0.0],[127.08126,37.29601,0.0],[127.08138,37.29604,0.0],[127.08159,37.29609,0.0],[127.08198,37.29662,0.0],[127.08263,37.29704,0.0],[127.08285,37.29761,0.0],[127.08343,37.29768,0.0],[127.08469,37.29725,0.0],[127.08552,37.29785,0.0],[127.08578,37.29855,0.0],[127.08725,37.29803,0.0],[127.08764,37.29782,0.0],[127.08883,37.29784,0.0],[127.0893,37.29799,0.0],[127.08987,37.29834,0.0],[127.08908,37.29733,0.0],[127.08884,37.29625,0.0],[127.08955,37.29481,0.0],[127.08905,37.29421,0.0],[127.08942,37.29362,0.0],[127.08933,37.29342,0.0],[127.08902,37.29324,0.0],[127.08834,37.2932,0.0],[127.08815,37.29203,0.0],[127.08825,37.29113,0.0],[127.08797,37.29056,0.0],[127.08797,37.28973,0.0],[127.08852,37.28865,0.0],[127.08891,37.2884,0.0],[127.08888,37.28804,0.0],[127.08932,37.28684,0.0],[127.08793,37.2858,0.0],[127.08764,37.28556,0.0],[127.08635,37.28563,0.0],[127.08571,37.285,0.0],[127.08445,37.28554,0.0],[127.08262,37.28515,0.0],[127.08174,37.28471,0.0],[127.08141,37.28429,0.0],[127.08136,37.28369,0.0],[127.08004,37.28373,0.0],[127.07971,37.28343,0.0],[127.07833,37.28361,0.0],[127.07683,37.28303,0.0],[127.07581,37.28279,0.0],[127.07491,37.28216,0.0],[127.0752,37.28144,0.0],[127.0736,37.28069,0.0],[127.07293,37.28064,0.0],[127.07243,37.28088,0.0],[127.07127,37.28063,0.0],[127.07067,37.27972,0.0],[127.07041,37.27931,0.0],[127.07019,37.27915,0.0],[127.06961,37.27873,0.0],[127.06888,37.27864,0.0],[127.06927,37.27714,0.0],[127.06913,37.27669,0.0],[127.06803,37.27559,0.0],[127.06792,37.27445,0.0],[127.06722,37.2741,0.0],[127.06682,37.27383,0.0],[127.06685,37.2733,0.0],[127.06565,37.27257,0.0],[127.06507,37.27138,0.0],[127.06472,37.27037,0.0],[127.06429,37.26992,0.0],[127.06412,37.26933,0.0],[127.06524,37.26914,0.0],[127.06651,37.26894,0.0],[127.0679,37.2687,0.0],[127.06862,37.26858,0.0],[127.06882,37.26853,0.0],[127.06882,37.26799,0.0],[127.06928,37.26771,0.0],[127.06966,37.26758,0.0],[127.06985,37.2671,0.0],[127.07017,37.26674,0.0],[127.07041,37.26657,0.0],[127.07112,37.2665,0.0],[127.07142,37.26647,0.0],[127.07159,37.26645,0.0],[127.07179,37.26633,0.0],[127.07218,37.26615,0.0],[127.07237,37.26612,0.0],[127.07286,37.26611,0.0],[127.07321,37.26608,0.0],[127.07389,37.2662,0.0],[127.07441,37.26619,0.0],[127.07471,37.2661,0.0],[127.07485,37.26595,0.0],[127.07512,37.26589,0.0],[127.07545,37.2659,0.0],[127.07617,37.26604,0.0],[127.07748,37.26601,0.0],[127.07738,37.26713,0.0],[127.079,37.26728,0.0],[127.08112,37.26791,0.0],[127.08298,37.2689,0.0],[127.08462,37.27005,0.0],[127.08557,37.2707,0.0],[127.08535,37.26952,0.0],[127.08553,37.26893,0.0],[127.0857,37.26834,0.0],[127.08585,37.26765,0.0],[127.08593,37.26731,0.0],[127.08576,37.2669,0.0],[127.08625,37.2649,0.0],[127.08554,37.26389,0.0],[127.08454,37.26255,0.0],[127.08209,37.26205,0.0],[127.08129,37.26062,0.0],[127.08082,37.26,0.0],[127.081,37.25846,0.0],[127.08284,37.25846,0.0],[127.08334,37.25874,0.0],[127.08371,37.25866,0.0],[127.08392,37.25751,0.0],[127.08444,37.25713,0.0],[127.08469,37.25657,0.0],[127.08465,37.25629,0.0],[127.08429,37.25613,0.0],[127.084,37.25572,0.0],[127.08331,37.25487,0.0],[127.08238,37.25434,0.0],[127.08176,37.25234,0.0],[127.08246,37.25147,0.0],[127.0821,37.25087,0.0],[127.0824,37.25023,0.0],[127.0822,37.24938,0.0],[127.08142,37.24836,0.0],[127.08007,37.24759,0.0],[127.07957,37.24745,0.0],[127.07838,37.24736,0.0],[127.07578,37.24736,0.0],[127.07085,37.24647,0.0],[127.06975,37.24619,0.0],[127.06925,37.24576,0.0],[127.06855,37.24507,0.0],[127.06685,37.24411,0.0],[127.06629,37.24386,0.0],[127.0656,37.24382,0.0],[127.06584,37.24356,0.0],[127.06638,37.24364,0.0],[127.06652,37.24305,0.0],[127.06619,37.24203,0.0],[127.06617,37.24106,0.0],[127.06686,37.24088,0.0],[127.06701,37.24014,0.0],[127.06514,37.24003,0.0],[127.06443,37.23932,0.0],[127.06437,37.2391,0.0],[127.06325,37.23879,0.0],[127.06284,37.23846,0.0],[127.06237,37.23809,0.0],[127.06142,37.23735,0.0],[127.06002,37.23686,0.0],[127.06002,37.23613,0.0],[127.05928,37.23498,0.0],[127.05787,37.23389,0.0],[127.05715,37.23339,0.0],[127.05629,37.23286,0.0],[127.05431,37.23183,0.0],[127.05356,37.23166,0.0],[127.053,37.23133,0.0],[127.05264,37.23119,0.0],[127.05253,37.23146,0.0],[127.05373,37.23232,0.0],[127.0536,37.23341,0.0],[127.05357,37.23367,0.0],[127.05216,37.23415,0.0],[127.05166,37.23431,0.0],[127.05136,37.23427,0.0],[127.04944,37.23407,0.0],[127.04937,37.23408,0.0],[127.04871,37.23378,0.0],[127.04819,37.23351,0.0],[127.04789,37.23344,0.0],[127.04779,37.23331,0.0],[127.04636,37.23286,0.0],[127.04606,37.23282,0.0],[127.04603,37.23417,0.0],[127.046,37.23518,0.0],[127.04575,37.235,0.0],[127.04572,37.2354,0.0],[127.04483,37.23539,0.0],[127.04375,37.23689,0.0],[127.04374,37.23822,0.0],[127.04156,37.23856,0.0],[127.03966,37.23851,0.0],[127.03738,37.23821,0.0],[127.03736,37.23832,0.0],[127.03736,37.23888,0.0],[127.03649,37.23892,0.0],[127.03629,37.23949,0.0],[127.0365,37.24,0.0],[127.03654,37.24048,0.0],[127.03701,37.2408,0.0],[127.03785,37.24049,0.0],[127.03809,37.24075,0.0],[127.03872,37.24136,0.0],[127.03827,37.24183,0.0],[127.03844,37.24213,0.0],[127.03917,37.24262,0.0],[127.03897,37.2435,0.0],[127.03938,37.2435,0.0],[127.03977,37.24408,0.0],[127.0403,37.24461,0.0],[127.04026,37.24382,0.0],[127.04027,37.2435,0.0],[127.04064,37.24368,0.0],[127.04084,37.24408,0.0],[127.04063,37.24457,0.0],[127.04074,37.24515,0.0],[127.0401,37.24562,0.0],[127.03941,37.24626,0.0],[127.03924,37.24656,0.0],[127.03925,37.24702,0.0],[127.03969,37.24758,0.0],[127.04117,37.24813,0.0],[127.04136,37.24856,0.0],[127.04131,37.24923,0.0],[127.04116,37.24985,0.0],[127.04216,37.25088,0.0],[127.0413,37.25145,0.0],[127.04047,37.25244,0.0],[127.03999,37.2539,0.0],[127.03936,37.25407,0.0],[127.03869,37.25461,0.0],[127.03726,37.25484,0.0],[127.03607,37.25505,0.0],[127.03669,37.25648,0.0],[127.04052,37.26528,0.0],[127.03324,37.26695,0.0],[127.03341,37.2671,0.0],[127.03382,37.26706,0.0],[127.03402,37.26758,0.0],[127.03831,37.26943,0.0],[127.03695,37.27155,0.0],[127.03833,37.27223,0.0],[127.03855,37.27234,0.0],[127.0368,37.27378,0.0],[127.03722,37.27495,0.0],[127.03779,37.275,0.0],[127.03842,37.27471,0.0],[127.03945,37.27476,0.0],[127.03979,37.27511,0.0],[127.04053,37.27509,0.0],[127.04079,37.2755,0.0],[127.04572,37.27407,0.0],[127.04588,37.27431,0.0],[127.044,37.27506,0.0],[127.04382,37.27574,0.0],[127.04354,37.27579,0.0],[127.04353,37.27592,0.0],[127.04385,37.2759,0.0],[127.04356,37.27894,0.0],[127.04349,37.27965,0.0],[127.04274,37.28014,0.0],[127.0427,37.28157,0.0],[127.04204,37.28245,0.0],[127.04189,37.28288,0.0],[127.0421,37.28318,0.0],[127.04184,37.28361,0.0],[127.04179,37.28412,0.0],[127.04226,37.28463,0.0],[127.04267,37.28466,0.0],[127.04333,37.28534,0.0],[127.0433,37.28586,0.0],[127.04212,37.28591,0.0],[127.04123,37.2856,0.0],[127.04041,37.2849,0.0],[127.04008,37.2838,0.0],[127.03868,37.28355,0.0],[127.03877,37.28459,0.0],[127.03916,37.28562,0.0],[127.04184,37.28791,0.0],[127.04243,37.28835,0.0],[127.04044,37.28993,0.0],[127.03836,37.29006,0.0],[127.03823,37.29012,0.0],[127.03824,37.29036,0.0],[127.03865,37.29057,0.0],[127.03903,37.29057,0.0],[127.0394,37.29076,0.0],[127.03925,37.29122,0.0],[127.03894,37.29144,0.0],[127.03895,37.29164,0.0],[127.03932,37.2917,0.0],[127.03993,37.2915,0.0],[127.04054,37.29052,0.0],[127.04115,37.29073,0.0],[127.04063,37.29142,0.0],[127.03965,37.29219,0.0],[127.03878,37.2927,0.0],[127.03849,37.29286,0.0],[127.03791,37.29301,0.0],[127.03702,37.29311,0.0],[127.03597,37.29352,0.0],[127.03601,37.29334,0.0],[127.03391,37.29328,0.0],[127.03422,37.29352,0.0],[127.03516,37.29416,0.0],[127.0338,37.29658,0.0],[127.03413,37.29783,0.0],[127.03368,37.29813,0.0],[127.03344,37.29902,0.0],[127.0325,37.30052,0.0],[127.03284,37.30115,0.0],[127.03293,37.30159,0.0],[127.03306,37.3022,0.0],[127.03302,37.30302,0.0],[127.03325,37.30506,0.0],[127.03303,37.30545,0.0],[127.03295,37.30612,0.0],[127.03326,37.30644,0.0],[127.03287,37.30732,0.0],[127.03318,37.30748,0.0],[127.033,37.30787,0.0],[127.03282,37.30817,0.0],[127.03278,37.3087,0.0],[127.03273,37.30924,0.0],[127.03237,37.30965,0.0],[127.03305,37.31077,0.0],[127.03299,37.31172,0.0],[127.0337,37.31229,0.0],[127.03405,37.31309,0.0],[127.03427,37.31358,0.0],[127.0353,37.31412,0.0],[127.0359,37.31446,0.0],[127.03661,37.31522,0.0],[127.03771,37.31567,0.0],[127.03834,37.31623,0.0],[127.03883,37.31739,0.0],[127.03862,37.31778,0.0],[127.0386,37.31886,0.0],[127.03897,37.31911,0.0],[127.03906,37.3202,0.0],[127.03936,37.32056,0.0]]]]}},{"type":"Feature","properties":{"uesi_id":"KOR_R2409182","nbhd_code":"KOR_R2409182_5","nbhd_name":"\uc7a5\uc548\uad6c"},"geometry":{"type":"MultiPolygon","coordinates":[[[[126.96839,37.32614,0.0],[126.96878,37.32659,0.0],[126.96879,37.32713,0.0],[126.96902,37.3281,0.0],[126.96969,37.3282,0.0],[126.97022,37.32865,0.0],[126.97074,37.32982,0.0],[126.9713,37.3317,0.0],[126.97427,37.3297,0.0],[126.97603,37.3286,0.0],[126.97853,37.328,0.0],[126.97867,37.32771,0.0],[126.97963,37.32734,0.0],[126.98081,37.32663,0.0],[126.9827,37.32681,0.0],[126.98389,37.32808,0.0],[126.9845,37.32846,0.0],[126.98496,37.32874,0.0],[126.9866,37.32941,0.0],[126.98911,37.32989,0.0],[126.98979,37.3311,0.0],[126.98959,37.33237,0.0],[126.99144,37.33402,0.0],[126.99437,37.33475,0.0],[126.99483,37.33562,0.0],[126.99674,37.33649,0.0],[126.99885,37.33702,0.0],[127.00007,37.33854,0.0],[127.00224,37.33856,0.0],[127.00594,37.33819,0.0],[127.00606,37.33817,0.0],[127.00671,37.33869,0.0],[127.00897,37.33885,0.0],[127.00939,37.33987,0.0],[127.01009,37.34077,0.0],[127.01022,37.34179,0.0],[127.01093,37.3426,0.0],[127.01205,37.34434,0.0],[127.01271,37.34531,0.0],[127.01284,37.34769,0.0],[127.0142,37.34829,0.0],[127.01501,37.34951,0.0],[127.01792,37.35062,0.0],[127.01803,37.35098,0.0],[127.0191,37.35105,0.0],[127.02385,37.34859,0.0],[127.02387,37.34859,0.0],[127.02779,37.3477,0.0],[127.03026,37.3463,0.0],[127.03168,37.34523,0.0],[127.03324,37.34442,0.0],[127.0318,37.34194,0.0],[127.03128,37.33863,0.0],[127.03204,37.33662,0.0],[127.03275,37.33506,0.0],[127.03508,37.33306,0.0],[127.0358,37.33071,0.0],[127.03685,37.32889,0.0],[127.03764,37.32831,0.0],[127.03778,37.32796,0.0],[127.03767,37.32754,0.0],[127.03683,37.32695,0.0],[127.03656,37.32592,0.0],[127.037,37.32555,0.0],[127.03726,37.32424,0.0],[127.03806,37.32402,0.0],[127.03919,37.32308,0.0],[127.03919,37.32267,0.0],[127.03892,37.32242,0.0],[127.03897,37.32124,0.0],[127.03936,37.32056,0.0],[127.03906,37.3202,0.0],[127.03897,37.31911,0.0],[127.0386,37.31886,0.0],[127.03862,37.31778,0.0],[127.03883,37.31739,0.0],[127.03834,37.31623,0.0],[127.03771,37.31567,0.0],[127.03661,37.31522,0.0],[127.0359,37.31446,0.0],[127.0353,37.31412,0.0],[127.03427,37.31358,0.0],[127.03405,37.31309,0.0],[127.0337,37.31229,0.0],[127.03299,37.31172,0.0],[127.03305,37.31077,0.0],[127.03237,37.30965,0.0],[127.03273,37.30924,0.0],[127.03278,37.3087,0.0],[127.03282,37.30817,0.0],[127.033,37.30787,0.0],[127.03318,37.30748,0.0],[127.03287,37.30732,0.0],[127.03326,37.30644,0.0],[127.03295,37.30612,0.0],[127.03303,37.30545,0.0],[127.03325,37.30506,0.0],[127.03302,37.30302,0.0],[127.03306,37.3022,0.0],[127.03293,37.30159,0.0],[127.03284,37.30115,0.0],[127.0325,37.30052,0.0],[127.03344,37.29902,0.0],[127.03368,37.29813,0.0],[127.03413,37.29783,0.0],[127.0338,37.29658,0.0],[127.03516,37.29416,0.0],[127.03422,37.29352,0.0],[127.03391,37.29328,0.0],[127.03297,37.29255,0.0],[127.03102,37.29234,0.0],[127.02711,37.29147,0.0],[127.02635,37.29118,0.0],[127.02578,37.29057,0.0],[127.02542,37.29008,0.0],[127.02505,37.28937,0.0],[127.02491,37.28912,0.0],[127.02481,37.28916,0.0],[127.02472,37.2892,0.0],[127.02466,37.28927,0.0],[127.02464,37.28933,0.0],[127.02462,37.28936,0.0],[127.02461,37.28939,0.0],[127.02458,37.2894,0.0],[127.02453,37.28941,0.0],[127.0245,37.28941,0.0],[127.02448,37.28939,0.0],[127.02442,37.28939,0.0],[127.02438,37.2894,0.0],[127.02434,37.28939,0.0],[127.02433,37.28938,0.0],[127.02432,37.28935,0.0],[127.02428,37.28933,0.0],[127.0242,37.28929,0.0],[127.02415,37.28928,0.0],[127.02412,37.28927,0.0],[127.02408,37.28924,0.0],[127.02401,37.28919,0.0],[127.02394,37.28915,0.0],[127.02389,37.28913,0.0],[127.02384,37.28912,0.0],[127.02379,37.28912,0.0],[127.02374,37.28913,0.0],[127.02371,37.28912,0.0],[127.02369,37.28911,0.0],[127.02367,37.28909,0.0],[127.02366,37.28907,0.0],[127.02367,37.28903,0.0],[127.02363,37.28898,0.0],[127.02354,37.2889,0.0],[127.02349,37.28887,0.0],[127.02346,37.28885,0.0],[127.02344,37.28883,0.0],[127.02341,37.28879,0.0],[127.0233,37.28871,0.0],[127.02325,37.28867,0.0],[127.0232,37.28863,0.0],[127.02316,37.28862,0.0],[127.02312,37.28863,0.0],[127.02307,37.28863,0.0],[127.02302,37.28862,0.0],[127.02296,37.2886,0.0],[127.02292,37.28858,0.0],[127.02288,37.28856,0.0],[127.02284,37.28852,0.0],[127.02282,37.28849,0.0],[127.02281,37.28846,0.0],[127.0228,37.28842,0.0],[127.02277,37.2884,0.0],[127.02269,37.2883,0.0],[127.0226,37.28815,0.0],[127.02254,37.28807,0.0],[127.02249,37.28803,0.0],[127.02242,37.288,0.0],[127.02237,37.28796,0.0],[127.02221,37.28785,0.0],[127.02211,37.28778,0.0],[127.02201,37.2877,0.0],[127.02192,37.28766,0.0],[127.02182,37.28762,0.0],[127.02166,37.28755,0.0],[127.02141,37.28747,0.0],[127.02141,37.28742,0.0],[127.02135,37.2874,0.0],[127.02132,37.28745,0.0],[127.02116,37.2874,0.0],[127.02098,37.28734,0.0],[127.02082,37.28727,0.0],[127.02066,37.2872,0.0],[127.02058,37.28717,0.0],[127.02051,37.28716,0.0],[127.02044,37.28717,0.0],[127.02038,37.28718,0.0],[127.02022,37.28724,0.0],[127.02007,37.28731,0.0],[127.01994,37.28736,0.0],[127.01986,37.28738,0.0],[127.01977,37.28739,0.0],[127.01972,37.2874,0.0],[127.01971,37.28745,0.0],[127.01964,37.28745,0.0],[127.01964,37.28739,0.0],[127.01958,37.28739,0.0],[127.01954,37.28737,0.0],[127.0194,37.28734,0.0],[127.01932,37.2873,0.0],[127.01927,37.28725,0.0],[127.0192,37.28719,0.0],[127.01911,37.28715,0.0],[127.01903,37.28712,0.0],[127.01894,37.28711,0.0],[127.01885,37.28711,0.0],[127.01879,37.28712,0.0],[127.01873,37.28713,0.0],[127.01867,37.28717,0.0],[127.01858,37.28725,0.0],[127.01836,37.28747,0.0],[127.01836,37.28755,0.0],[127.01827,37.28761,0.0],[127.01815,37.28761,0.0],[127.01815,37.28767,0.0],[127.01785,37.28768,0.0],[127.01785,37.28761,0.0],[127.01776,37.28761,0.0],[127.01764,37.28761,0.0],[127.0176,37.28761,0.0],[127.01749,37.28761,0.0],[127.01749,37.2877,0.0],[127.01736,37.2877,0.0],[127.01731,37.2877,0.0],[127.01727,37.28773,0.0],[127.01725,37.28775,0.0],[127.01721,37.28785,0.0],[127.01714,37.28804,0.0],[127.01703,37.28817,0.0],[127.01687,37.28831,0.0],[127.01672,37.28842,0.0],[127.01657,37.28852,0.0],[127.0165,37.28857,0.0],[127.01657,37.28863,0.0],[127.01651,37.28866,0.0],[127.01645,37.2886,0.0],[127.0164,37.28863,0.0],[127.01635,37.28865,0.0],[127.01628,37.28867,0.0],[127.01617,37.2887,0.0],[127.01606,37.28875,0.0],[127.01592,37.2888,0.0],[127.0158,37.28883,0.0],[127.01571,37.28886,0.0],[127.01551,37.28895,0.0],[127.01538,37.28902,0.0],[127.01526,37.28906,0.0],[127.01505,37.28913,0.0],[127.01499,37.28915,0.0],[127.01495,37.28918,0.0],[127.01493,37.28921,0.0],[127.01492,37.28923,0.0],[127.01493,37.28925,0.0],[127.01495,37.28927,0.0],[127.015,37.2893,0.0],[127.01496,37.28934,0.0],[127.01488,37.2893,0.0],[127.01483,37.28936,0.0],[127.01478,37.28934,0.0],[127.01482,37.28928,0.0],[127.01479,37.28921,0.0],[127.01474,37.28917,0.0],[127.01443,37.28901,0.0],[127.01441,37.28903,0.0],[127.01439,37.28906,0.0],[127.01436,37.28908,0.0],[127.01432,37.2891,0.0],[127.01427,37.28911,0.0],[127.01421,37.28912,0.0],[127.01418,37.28912,0.0],[127.01413,37.28911,0.0],[127.01409,37.28909,0.0],[127.01406,37.28907,0.0],[127.01403,37.28905,0.0],[127.01401,37.28903,0.0],[127.014,37.289,0.0],[127.01399,37.28896,0.0],[127.01399,37.28893,0.0],[127.014,37.28889,0.0],[127.01402,37.28885,0.0],[127.01405,37.28881,0.0],[127.01387,37.28872,0.0],[127.01377,37.28867,0.0],[127.01368,37.28864,0.0],[127.01359,37.28865,0.0],[127.01354,37.28871,0.0],[127.01349,37.28868,0.0],[127.01354,37.28862,0.0],[127.01352,37.28856,0.0],[127.01351,37.28852,0.0],[127.01345,37.28842,0.0],[127.01341,37.28832,0.0],[127.01327,37.28819,0.0],[127.01317,37.28808,0.0],[127.01309,37.28794,0.0],[127.01302,37.28781,0.0],[127.01293,37.28769,0.0],[127.01283,37.28758,0.0],[127.01272,37.28747,0.0],[127.01263,37.2874,0.0],[127.01248,37.2873,0.0],[127.0124,37.28724,0.0],[127.01233,37.2873,0.0],[127.01228,37.28726,0.0],[127.01234,37.2872,0.0],[127.01219,37.28709,0.0],[127.01208,37.28703,0.0],[127.01196,37.28697,0.0],[127.01186,37.28692,0.0],[127.01176,37.28687,0.0],[127.01166,37.28681,0.0],[127.01156,37.28673,0.0],[127.0115,37.28668,0.0],[127.01143,37.28663,0.0],[127.01128,37.28655,0.0],[127.01112,37.28646,0.0],[127.01102,37.28642,0.0],[127.01094,37.28639,0.0],[127.01091,37.28644,0.0],[127.01083,37.28641,0.0],[127.01086,37.28636,0.0],[127.01075,37.28632,0.0],[127.01066,37.28628,0.0],[127.01055,37.28624,0.0],[127.01049,37.2862,0.0],[127.01038,37.28616,0.0],[127.01026,37.2861,0.0],[127.01015,37.28605,0.0],[127.01004,37.28598,0.0],[127.00994,37.28594,0.0],[127.00985,37.2859,0.0],[127.00978,37.28587,0.0],[127.00972,37.28585,0.0],[127.00971,37.28586,0.0],[127.00968,37.28591,0.0],[127.00961,37.28589,0.0],[127.00964,37.28583,0.0],[127.00965,37.28584,0.0],[127.00968,37.2858,0.0],[127.0097,37.28574,0.0],[127.00964,37.28574,0.0],[127.00959,37.28572,0.0],[127.00954,37.28569,0.0],[127.00951,37.28565,0.0],[127.00951,37.2856,0.0],[127.00953,37.28555,0.0],[127.00958,37.28552,0.0],[127.00953,37.28542,0.0],[127.00907,37.28551,0.0],[127.00785,37.28567,0.0],[127.00747,37.28536,0.0],[127.00722,37.28522,0.0],[127.00699,37.2853,0.0],[127.00692,37.28563,0.0],[127.00656,37.28583,0.0],[127.0062,37.28593,0.0],[127.00561,37.28633,0.0],[127.00257,37.28793,0.0],[127.00066,37.28979,0.0],[126.99717,37.28868,0.0],[126.99058,37.28619,0.0],[126.99025,37.28638,0.0],[126.98845,37.28954,0.0],[126.98779,37.28993,0.0],[126.9876,37.28962,0.0],[126.9865,37.2889,0.0],[126.98622,37.28904,0.0],[126.98457,37.29089,0.0],[126.9844,37.29109,0.0],[126.9774,37.28838,0.0],[126.97841,37.28658,0.0],[126.97522,37.28552,0.0],[126.97363,37.28585,0.0],[126.9736,37.28641,0.0],[126.9731,37.28719,0.0],[126.97269,37.2874,0.0],[126.9723,37.28739,0.0],[126.97172,37.28679,0.0],[126.96962,37.28662,0.0],[126.96989,37.28835,0.0],[126.96972,37.28903,0.0],[126.96853,37.28982,0.0],[126.96882,37.2913,0.0],[126.96824,37.29245,0.0],[126.96797,37.29431,0.0],[126.96683,37.29545,0.0],[126.96637,37.29566,0.0],[126.96585,37.29665,0.0],[126.9652,37.29673,0.0],[126.96483,37.29696,0.0],[126.96476,37.29725,0.0],[126.96472,37.29767,0.0],[126.9646,37.29788,0.0],[126.96363,37.29874,0.0],[126.96354,37.3005,0.0],[126.96379,37.30091,0.0],[126.96153,37.30159,0.0],[126.96068,37.30222,0.0],[126.96166,37.30228,0.0],[126.96232,37.30272,0.0],[126.96346,37.30373,0.0],[126.96386,37.30417,0.0],[126.96515,37.30555,0.0],[126.96622,37.30774,0.0],[126.96681,37.30986,0.0],[126.96685,37.31236,0.0],[126.96678,37.3141,0.0],[126.9665,37.31745,0.0],[126.96747,37.31809,0.0],[126.96798,37.31821,0.0],[126.96834,37.31859,0.0],[126.96855,37.31882,0.0],[126.96936,37.32049,0.0],[126.96677,37.32316,0.0],[126.96712,37.32426,0.0],[126.96779,37.32489,0.0],[126.96862,37.32557,0.0],[126.96839,37.32614,0.0]]]]}}]}