{"type":"FeatureCollection","name":"LAO_R6979808","crs":{"type":"name","properties":{"name":"urn:ogc:def:crs:OGC:1.3:CRS84"}},"features":[{"type":"Feature","properties":{"uesi_id":"LAO_R6979808","nbhd_code":"LAO_R6979808_1","nbhd_name":"Chanthabuly"},"geometry":{"type":"MultiPolygon","coordinates":[[[[102.62613,18.00801,0.0],[102.62801,18.00638,0.0],[102.62682,18.00328,0.0],[102.62575,17.99981,0.0],[102.63009,17.99773,0.0],[102.63016,17.99268,0.0],[102.63003,17.98874,0.0],[102.62855,17.9863,0.0],[102.62712,17.9847,0.0],[102.62598,17.98236,0.0],[102.62517,17.98067,0.0],[102.62474,17.9794,0.0],[102.62447,17.9786,0.0],[102.62418,17.9768,0.0],[102.62415,17.97599,0.0],[102.6217,17.97397,0.0],[102.62097,17.97343,0.0],[102.62043,17.97303,0.0],[102.62061,17.97269,0.0],[102.62072,17.97243,0.0],[102.62031,17.97231,0.0],[102.61986,17.97217,0.0],[102.61919,17.97159,0.0],[102.61873,17.97113,0.0],[102.61839,17.97072,0.0],[102.61776,17.97021,0.0],[102.61831,17.9696,0.0],[102.61852,17.96929,0.0],[102.61863,17.96895,0.0],[102.61877,17.96822,0.0],[102.61879,17.96784,0.0],[102.61795,17.9676,0.0],[102.61686,17.96708,0.0],[102.61646,17.96676,0.0],[102.61645,17.96675,0.0],[102.61599,17.96624,0.0],[102.61543,17.96553,0.0],[102.61516,17.96519,0.0],[102.61431,17.96408,0.0],[102.61345,17.9632,0.0],[102.61185,17.96187,0.0],[102.60851,17.95924,0.0],[102.60584,17.95741,0.0],[102.60318,17.95549,0.0],[102.60092,17.95751,0.0],[102.60077,17.95766,0.0],[102.60026,17.95816,0.0],[102.59749,17.95954,0.0],[102.59953,17.96436,0.0],[102.59998,17.96542,0.0],[102.60019,17.96598,0.0],[102.59996,17.96639,0.0],[102.59929,17.96665,0.0],[102.59908,17.96707,0.0],[102.59826,17.96841,0.0],[102.59825,17.96939,0.0],[102.59864,17.97037,0.0],[102.59952,17.97123,0.0],[102.60046,17.97221,0.0],[102.60044,17.97352,0.0],[102.60103,17.97483,0.0],[102.60115,17.97619,0.0],[102.60161,17.97744,0.0],[102.60241,17.97875,0.0],[102.60382,17.98046,0.0],[102.60535,17.98256,0.0],[102.60676,17.98434,0.0],[102.60762,17.98565,0.0],[102.60761,17.98702,0.0],[102.60745,17.98832,0.0],[102.60723,17.98994,0.0],[102.60618,17.99149,0.0],[102.60457,17.99345,0.0],[102.6045,17.99409,0.0],[102.6053,17.9947,0.0],[102.60568,17.99542,0.0],[102.60566,17.99688,0.0],[102.60518,17.99778,0.0],[102.60483,17.99812,0.0],[102.60472,17.99825,0.0],[102.60455,17.99832,0.0],[102.60433,17.99826,0.0],[102.60422,17.99811,0.0],[102.60401,17.99811,0.0],[102.60388,17.99838,0.0],[102.604,17.99858,0.0],[102.60439,17.99872,0.0],[102.60461,17.99884,0.0],[102.60452,17.99902,0.0],[102.60437,17.99933,0.0],[102.60408,17.99976,0.0],[102.60335,18.00006,0.0],[102.6031,18.00016,0.0],[102.60157,17.99931,0.0],[102.60003,17.99823,0.0],[102.59748,17.99653,0.0],[102.59625,17.99573,0.0],[102.59498,17.99487,0.0],[102.59403,17.99403,0.0],[102.59424,17.99197,0.0],[102.59439,17.99078,0.0],[102.59463,17.98977,0.0],[102.59119,17.98947,0.0],[102.58881,17.98896,0.0],[102.58731,17.98841,0.0],[102.58725,17.98955,0.0],[102.58635,17.99099,0.0],[102.58468,17.99302,0.0],[102.58463,17.99308,0.0],[102.58463,17.99309,0.0],[102.58563,17.99508,0.0],[102.58505,17.99583,0.0],[102.58497,17.99637,0.0],[102.58588,17.99776,0.0],[102.5848,17.99857,0.0],[102.58427,18.00062,0.0],[102.58525,18.00201,0.0],[102.58646,18.00305,0.0],[102.58766,18.00403,0.0],[102.58686,18.00518,0.0],[102.58684,18.00621,0.0],[102.58724,18.00848,0.0],[102.58711,18.00984,0.0],[102.58663,18.01105,0.0],[102.5859,18.01214,0.0],[102.58459,18.01377,0.0],[102.58327,18.01581,0.0],[102.58171,18.0195,0.0],[102.5838,18.02032,0.0],[102.58709,18.02101,0.0],[102.588,18.02137,0.0],[102.58961,18.02348,0.0],[102.59111,18.02507,0.0],[102.59267,18.02648,0.0],[102.59375,18.02696,0.0],[102.59448,18.02703,0.0],[102.5954,18.02681,0.0],[102.59601,18.02658,0.0],[102.59716,18.02677,0.0],[102.59885,18.02784,0.0],[102.60059,18.02891,0.0],[102.60158,18.03169,0.0],[102.60233,18.03373,0.0],[102.60364,18.03632,0.0],[102.60567,18.03485,0.0],[102.60726,18.03315,0.0],[102.60849,18.03317,0.0],[102.60951,18.03454,0.0],[102.61107,18.0363,0.0],[102.61272,18.03741,0.0],[102.61519,18.03887,0.0],[102.61703,18.03855,0.0],[102.61803,18.0367,0.0],[102.61875,18.03485,0.0],[102.61975,18.0326,0.0],[102.62257,18.02957,0.0],[102.62566,18.02762,0.0],[102.62557,18.02362,0.0],[102.6251,18.0179,0.0],[102.62544,18.01485,0.0],[102.62381,18.01003,0.0],[102.62613,18.00801,0.0]]]]}},{"type":"Feature","properties":{"uesi_id":"LAO_R6979808","nbhd_code":"LAO_R6979808_2","nbhd_name":"Sikhottabong"},"geometry":{"type":"MultiPolygon","coordinates":[[[[102.59267,18.02648,0.0],[102.59111,18.02507,0.0],[102.58961,18.02348,0.0],[102.588,18.02137,0.0],[102.58709,18.02101,0.0],[102.5838,18.02032,0.0],[102.58171,18.0195,0.0],[102.58327,18.01581,0.0],[102.58459,18.01377,0.0],[102.5859,18.01214,0.0],[102.58663,18.01105,0.0],[102.58711,18.00984,0.0],[102.58724,18.00848,0.0],[102.58684,18.00621,0.0],[102.58686,18.00518,0.0],[102.58766,18.00403,0.0],[102.58646,18.00305,0.0],[102.58525,18.00201,0.0],[102.58427,18.00062,0.0],[102.5848,17.99857,0.0],[102.58588,17.99776,0.0],[102.58497,17.99637,0.0],[102.58505,17.99583,0.0],[102.58563,17.99508,0.0],[102.58463,17.99309,0.0],[102.58463,17.99308,0.0],[102.58468,17.99302,0.0],[102.58635,17.99099,0.0],[102.58725,17.98955,0.0],[102.58731,17.98841,0.0],[102.58881,17.98896,0.0],[102.59119,17.98947,0.0],[102.59463,17.98977,0.0],[102.59439,17.99078,0.0],[102.59424,17.99197,0.0],[102.59403,17.99403,0.0],[102.59498,17.99487,0.0],[102.59625,17.99573,0.0],[102.59748,17.99653,0.0],[102.60003,17.99823,0.0],[102.60157,17.99931,0.0],[102.6031,18.00016,0.0],[102.60335,18.00006,0.0],[102.60408,17.99976,0.0],[102.60437,17.99933,0.0],[102.60452,17.99902,0.0],[102.60461,17.99884,0.0],[102.60439,17.99872,0.0],[102.604,17.99858,0.0],[102.60388,17.99838,0.0],[102.60401,17.99811,0.0],[102.60422,17.99811,0.0],[102.60433,17.99826,0.0],[102.60455,17.99832,0.0],[102.60472,17.99825,0.0],[102.60483,17.99812,0.0],[102.60518,17.99778,0.0],[102.60566,17.99688,0.0],[102.60568,17.99542,0.0],[102.6053,17.9947,0.0],[102.6045,17.99409,0.0],[102.60457,17.99345,0.0],[102.60618,17.99149,0.0],[102.60723,17.98994,0.0],[102.60745,17.98832,0.0],[102.60761,17.98702,0.0],[102.60762,17.98565,0.0],[102.60676,17.98434,0.0],[102.60535,17.98256,0.0],[102.60382,17.98046,0.0],[102.60241,17.97875,0.0],[102.60161,17.97744,0.0],[102.60115,17.97619,0.0],[102.60103,17.97483,0.0],[102.60044,17.97352,0.0],[102.60046,17.97221,0.0],[102.59952,17.97123,0.0],[102.59864,17.97037,0.0],[102.59825,17.96939,0.0],[102.59826,17.96841,0.0],[102.59908,17.96707,0.0],[102.59929,17.96665,0.0],[102.59996,17.96639,0.0],[102.60019,17.96598,0.0],[102.59998,17.96542,0.0],[102.59953,17.96436,0.0],[102.59749,17.95954,0.0],[102.59467,17.96022,0.0],[102.59413,17.96029,0.0],[102.59111,17.96077,0.0],[102.58897,17.96125,0.0],[102.58548,17.96242,0.0],[102.57987,17.96412,0.0],[102.57943,17.96417,0.0],[102.57501,17.96511,0.0],[102.56308,17.96742,0.0],[102.55768,17.969,0.0],[102.55514,17.97001,0.0],[102.55423,17.97014,0.0],[102.55146,17.96919,0.0],[102.54895,17.96799,0.0],[102.54532,17.96628,0.0],[102.54142,17.96506,0.0],[102.53969,17.96479,0.0],[102.53813,17.96419,0.0],[102.53631,17.96383,0.0],[102.53274,17.96362,0.0],[102.52953,17.96325,0.0],[102.52678,17.96354,0.0],[102.52376,17.9644,0.0],[102.5214,17.96596,0.0],[102.51877,17.9674,0.0],[102.51688,17.96885,0.0],[102.51583,17.9709,0.0],[102.51579,17.97092,0.0],[102.51557,17.97097,0.0],[102.51482,17.97104,0.0],[102.50729,17.97114,0.0],[102.5044,17.97098,0.0],[102.50185,17.9705,0.0],[102.49986,17.96965,0.0],[102.49576,17.968,0.0],[102.49374,17.96664,0.0],[102.48954,17.96594,0.0],[102.48641,17.96615,0.0],[102.48185,17.96634,0.0],[102.47651,17.96647,0.0],[102.47319,17.96694,0.0],[102.45763,17.97254,0.0],[102.45166,17.97473,0.0],[102.45001,17.97576,0.0],[102.44899,17.97743,0.0],[102.44708,17.97804,0.0],[102.4371,17.98101,0.0],[102.43356,17.98277,0.0],[102.42754,17.98585,0.0],[102.42259,17.98865,0.0],[102.41957,17.99075,0.0],[102.41386,17.99466,0.0],[102.41126,17.99718,0.0],[102.4076,17.99917,0.0],[102.40686,18.00016,0.0],[102.40564,18.00139,0.0],[102.40424,18.00259,0.0],[102.40309,18.0026,0.0],[102.40223,18.00285,0.0],[102.39943,18.005,0.0],[102.39753,18.00655,0.0],[102.39649,18.00737,0.0],[102.39589,18.00854,0.0],[102.3959,18.01011,0.0],[102.39632,18.01153,0.0],[102.3949,18.01292,0.0],[102.393,18.01425,0.0],[102.38748,18.01762,0.0],[102.38286,18.02091,0.0],[102.3806,18.02189,0.0],[102.37898,18.02285,0.0],[102.37655,18.02438,0.0],[102.37459,18.02595,0.0],[102.3734,18.02726,0.0],[102.37043,18.0292,0.0],[102.36798,18.03087,0.0],[102.36358,18.03424,0.0],[102.36104,18.0364,0.0],[102.35914,18.03763,0.0],[102.35933,18.03795,0.0],[102.36175,18.03885,0.0],[102.36395,18.03962,0.0],[102.36786,18.04022,0.0],[102.37211,18.04029,0.0],[102.37523,18.03987,0.0],[102.38126,18.03927,0.0],[102.38798,18.03808,0.0],[102.39148,18.03757,0.0],[102.40014,18.03715,0.0],[102.40526,18.03685,0.0],[102.41038,18.03642,0.0],[102.41629,18.03619,0.0],[102.42951,18.03716,0.0],[102.44236,18.03687,0.0],[102.45616,18.0369,0.0],[102.47559,18.03716,0.0],[102.4883,18.03563,0.0],[102.50004,18.03347,0.0],[102.5046,18.03276,0.0],[102.51364,18.03134,0.0],[102.52491,18.03088,0.0],[102.53135,18.02973,0.0],[102.54131,18.02924,0.0],[102.54865,18.02858,0.0],[102.56595,18.0288,0.0],[102.58337,18.02902,0.0],[102.58593,18.02956,0.0],[102.58594,18.02957,0.0],[102.58756,18.02952,0.0],[102.59267,18.02648,0.0]]]]}},{"type":"Feature","properties":{"uesi_id":"LAO_R6979808","nbhd_code":"LAO_R6979808_3","nbhd_name":"Xaysetha"},"geometry":{"type":"MultiPolygon","coordinates":[[[[102.78322,17.98816,0.0],[102.77702,17.98404,0.0],[102.77198,17.98084,0.0],[102.76959,17.979,0.0],[102.76507,17.97565,0.0],[102.76166,17.97322,0.0],[102.75984,17.9724,0.0],[102.75464,17.96928,0.0],[102.75177,17.96736,0.0],[102.74862,17.96465,0.0],[102.74537,17.96162,0.0],[102.74232,17.9585,0.0],[102.73932,17.95557,0.0],[102.73632,17.95264,0.0],[102.73369,17.94965,0.0],[102.7314,17.94741,0.0],[102.72891,17.94456,0.0],[102.72577,17.94121,0.0],[102.72258,17.93668,0.0],[102.72095,17.93406,0.0],[102.71837,17.93048,0.0],[102.71575,17.9264,0.0],[102.7138,17.92352,0.0],[102.70743,17.92012,0.0],[102.70088,17.91907,0.0],[102.69157,17.91679,0.0],[102.68351,17.91524,0.0],[102.67216,17.91534,0.0],[102.6719,17.91535,0.0],[102.66507,17.91647,0.0],[102.6583,17.91804,0.0],[102.65891,17.92175,0.0],[102.65901,17.92404,0.0],[102.6591,17.92652,0.0],[102.6592,17.92917,0.0],[102.65928,17.93257,0.0],[102.65927,17.93618,0.0],[102.65922,17.94136,0.0],[102.65884,17.9448,0.0],[102.6527,17.94512,0.0],[102.64339,17.94471,0.0],[102.64309,17.94887,0.0],[102.64285,17.95133,0.0],[102.64133,17.95131,0.0],[102.63912,17.95164,0.0],[102.63822,17.95218,0.0],[102.6382,17.95334,0.0],[102.63826,17.95711,0.0],[102.63631,17.95718,0.0],[102.63618,17.95894,0.0],[102.63613,17.95931,0.0],[102.63535,17.95914,0.0],[102.63493,17.95915,0.0],[102.63437,17.95928,0.0],[102.63408,17.95935,0.0],[102.63324,17.95965,0.0],[102.63246,17.95988,0.0],[102.63115,17.96051,0.0],[102.6314,17.96253,0.0],[102.63095,17.96544,0.0],[102.63023,17.96659,0.0],[102.62882,17.96663,0.0],[102.62715,17.9668,0.0],[102.62602,17.96668,0.0],[102.62468,17.96679,0.0],[102.62363,17.96533,0.0],[102.62274,17.96612,0.0],[102.62098,17.96504,0.0],[102.62045,17.9645,0.0],[102.61934,17.96476,0.0],[102.61865,17.96554,0.0],[102.61795,17.9676,0.0],[102.61879,17.96784,0.0],[102.61877,17.96822,0.0],[102.61863,17.96895,0.0],[102.61852,17.96929,0.0],[102.61831,17.9696,0.0],[102.61776,17.97021,0.0],[102.61839,17.97072,0.0],[102.61873,17.97113,0.0],[102.61919,17.97159,0.0],[102.61986,17.97217,0.0],[102.62031,17.97231,0.0],[102.62072,17.97243,0.0],[102.62061,17.97269,0.0],[102.62043,17.97303,0.0],[102.62097,17.97343,0.0],[102.6217,17.97397,0.0],[102.62415,17.97599,0.0],[102.62418,17.9768,0.0],[102.62447,17.9786,0.0],[102.62474,17.9794,0.0],[102.62517,17.98067,0.0],[102.62598,17.98236,0.0],[102.62712,17.9847,0.0],[102.62855,17.9863,0.0],[102.63003,17.98874,0.0],[102.63016,17.99268,0.0],[102.63009,17.99773,0.0],[102.62575,17.99981,0.0],[102.62682,18.00328,0.0],[102.62801,18.00638,0.0],[102.62613,18.00801,0.0],[102.63218,18.008,0.0],[102.64008,18.00996,0.0],[102.64367,18.012,0.0],[102.647,18.01285,0.0],[102.64725,18.01285,0.0],[102.64933,18.01283,0.0],[102.65085,18.01363,0.0],[102.6518,18.0147,0.0],[102.65311,18.01706,0.0],[102.65372,18.01826,0.0],[102.65408,18.01918,0.0],[102.65502,18.0208,0.0],[102.65632,18.02256,0.0],[102.65801,18.02614,0.0],[102.65928,18.02778,0.0],[102.66047,18.02875,0.0],[102.66456,18.02956,0.0],[102.66855,18.02999,0.0],[102.67415,18.02939,0.0],[102.67834,18.02912,0.0],[102.6817,18.02931,0.0],[102.68581,18.02936,0.0],[102.68887,18.02926,0.0],[102.69462,18.02827,0.0],[102.69837,18.02758,0.0],[102.70469,18.02606,0.0],[102.70819,18.02509,0.0],[102.71189,18.02403,0.0],[102.71627,18.02257,0.0],[102.71958,18.02142,0.0],[102.72169,18.02071,0.0],[102.72773,18.01895,0.0],[102.73083,18.01747,0.0],[102.73509,18.01624,0.0],[102.73966,18.01469,0.0],[102.74542,18.01292,0.0],[102.74859,18.01159,0.0],[102.75657,18.00879,0.0],[102.75982,18.00562,0.0],[102.76,18.00542,0.0],[102.7632,18.00194,0.0],[102.76645,18.00044,0.0],[102.76667,18.00022,0.0],[102.76682,18.00006,0.0],[102.76865,17.99816,0.0],[102.77191,17.99596,0.0],[102.77443,17.99455,0.0],[102.77875,17.99102,0.0],[102.78095,17.98979,0.0],[102.78322,17.98816,0.0]]]]}},{"type":"Feature","properties":{"uesi_id":"LAO_R6979808","nbhd_code":"LAO_R6979808_4","nbhd_name":"Sisattanak"},"geometry":{"type":"MultiPolygon","coordinates":[[[[102.6583,17.91804,0.0],[102.6462,17.91684,0.0],[102.6453,17.91268,0.0],[102.64511,17.9118,0.0],[102.64229,17.91188,0.0],[102.64195,17.90832,0.0],[102.64224,17.90624,0.0],[102.63948,17.9061,0.0],[102.63891,17.90608,0.0],[102.63887,17.9089,0.0],[102.63963,17.91206,0.0],[102.63984,17.91296,0.0],[102.63815,17.91466,0.0],[102.63582,17.91622,0.0],[102.63464,17.91613,0.0],[102.63372,17.91453,0.0],[102.63332,17.91218,0.0],[102.63284,17.91072,0.0],[102.63214,17.90902,0.0],[102.63267,17.90716,0.0],[102.6325,17.90357,0.0],[102.6313,17.90142,0.0],[102.62771,17.9041,0.0],[102.62693,17.90468,0.0],[102.62466,17.90748,0.0],[102.62393,17.9083,0.0],[102.62234,17.90848,0.0],[102.62075,17.90909,0.0],[102.61969,17.90707,0.0],[102.6193,17.9041,0.0],[102.61811,17.90139,0.0],[102.61741,17.9,0.0],[102.61721,17.89862,0.0],[102.61596,17.898,0.0],[102.61426,17.898,0.0],[102.61133,17.89822,0.0],[102.61023,17.89814,0.0],[102.61039,17.89849,0.0],[102.61032,17.89959,0.0],[102.61095,17.90216,0.0],[102.61272,17.90614,0.0],[102.61309,17.91228,0.0],[102.61311,17.91902,0.0],[102.61271,17.9269,0.0],[102.61274,17.92923,0.0],[102.61277,17.93218,0.0],[102.61335,17.93554,0.0],[102.61382,17.9388,0.0],[102.61395,17.93961,0.0],[102.61239,17.94435,0.0],[102.6121,17.94481,0.0],[102.60823,17.95099,0.0],[102.60318,17.95549,0.0],[102.60584,17.95741,0.0],[102.60851,17.95924,0.0],[102.61185,17.96187,0.0],[102.61345,17.9632,0.0],[102.61431,17.96408,0.0],[102.61516,17.96519,0.0],[102.61543,17.96553,0.0],[102.61599,17.96624,0.0],[102.61645,17.96675,0.0],[102.61646,17.96676,0.0],[102.61686,17.96708,0.0],[102.61795,17.9676,0.0],[102.61865,17.96554,0.0],[102.61934,17.96476,0.0],[102.62045,17.9645,0.0],[102.62098,17.96504,0.0],[102.62274,17.96612,0.0],[102.62363,17.96533,0.0],[102.62468,17.96679,0.0],[102.62602,17.96668,0.0],[102.62715,17.9668,0.0],[102.62882,17.96663,0.0],[102.63023,17.96659,0.0],[102.63095,17.96544,0.0],[102.6314,17.96253,0.0],[102.63115,17.96051,0.0],[102.63246,17.95988,0.0],[102.63324,17.95965,0.0],[102.63408,17.95935,0.0],[102.63437,17.95928,0.0],[102.63493,17.95915,0.0],[102.63535,17.95914,0.0],[102.63613,17.95931,0.0],[102.63618,17.95894,0.0],[102.63631,17.95718,0.0],[102.63826,17.95711,0.0],[102.6382,17.95334,0.0],[102.63822,17.95218,0.0],[102.63912,17.95164,0.0],[102.64133,17.95131,0.0],[102.64285,17.95133,0.0],[102.64309,17.94887,0.0],[102.64339,17.94471,0.0],[102.6527,17.94512,0.0],[102.65884,17.9448,0.0],[102.65922,17.94136,0.0],[102.65927,17.93618,0.0],[102.65928,17.93257,0.0],[102.6592,17.92917,0.0],[102.6591,17.92652,0.0],[102.65901,17.92404,0.0],[102.65891,17.92175,0.0],[102.6583,17.91804,0.0]]]]}},{"type":"Feature","properties":{"uesi_id":"LAO_R6979808","nbhd_code":"LAO_R6979808_5","nbhd_name":"Hadxaifong"},"geometry":{"type":"MultiPolygon","coordinates":[[[[102.87625,18.01246,0.0],[102.8772,18.01186,0.0],[102.87793,18.01158,0.0],[102.8786,18.01165,0.0],[102.87937,18.01168,0.0],[102.88036,18.01222,0.0],[102.88117,18.0124,0.0],[102.8817,18.0124,0.0],[102.88214,18.01218,0.0],[102.8824,18.01166,0.0],[102.88282,18.01057,0.0],[102.88353,18.00965,0.0],[102.88363,18.00918,0.0],[102.8836,18.00862,0.0],[102.88326,18.00783,0.0],[102.88268,18.0074,0.0],[102.88225,18.00689,0.0],[102.88234,18.00631,0.0],[102.8827,18.00611,0.0],[102.88325,18.00651,0.0],[102.88357,18.00693,0.0],[102.88383,18.00727,0.0],[102.88443,18.00798,0.0],[102.88493,18.00785,0.0],[102.88529,18.00761,0.0],[102.88549,18.00724,0.0],[102.88591,18.0071,0.0],[102.88632,18.0071,0.0],[102.88667,18.007,0.0],[102.88676,18.00669,0.0],[102.8873,18.00594,0.0],[102.88771,18.00575,0.0],[102.88815,18.00539,0.0],[102.88856,18.00537,0.0],[102.889,18.00565,0.0],[102.8895,18.00557,0.0],[102.88933,18.0047,0.0],[102.88896,18.00414,0.0],[102.88893,18.00374,0.0],[102.88917,18.0033,0.0],[102.88967,18.00294,0.0],[102.88998,18.00202,0.0],[102.8906,18.00152,0.0],[102.89115,18.00144,0.0],[102.89139,18.00151,0.0],[102.89202,18.00202,0.0],[102.89228,18.0021,0.0],[102.89281,18.0023,0.0],[102.89333,18.0029,0.0],[102.89377,18.00304,0.0],[102.89415,18.00274,0.0],[102.89445,18.00215,0.0],[102.89504,18.00207,0.0],[102.89568,18.00217,0.0],[102.89611,18.00215,0.0],[102.89668,18.00204,0.0],[102.89697,18.0024,0.0],[102.89711,18.00291,0.0],[102.89746,18.00306,0.0],[102.89768,18.00305,0.0],[102.89798,18.0029,0.0],[102.89801,18.00268,0.0],[102.89801,18.00247,0.0],[102.89799,18.00192,0.0],[102.89802,18.00149,0.0],[102.8982,18.0013,0.0],[102.89849,18.00122,0.0],[102.89962,18.00207,0.0],[102.90008,18.00258,0.0],[102.90058,18.00289,0.0],[102.90042,18.00367,0.0],[102.90007,18.00406,0.0],[102.90073,18.00446,0.0],[102.9015,18.0045,0.0],[102.90232,18.00439,0.0],[102.90279,18.00437,0.0],[102.90349,18.00427,0.0],[102.90385,18.00309,0.0],[102.90357,18.00194,0.0],[102.90376,18.00137,0.0],[102.90392,18.00098,0.0],[102.90416,18.00016,0.0],[102.90442,17.99953,0.0],[102.9048,17.99898,0.0],[102.90551,17.99903,0.0],[102.90613,17.99939,0.0],[102.90661,18.00016,0.0],[102.90665,18.00022,0.0],[102.90718,18.00059,0.0],[102.90754,18.00073,0.0],[102.9079,18.00078,0.0],[102.90817,18.00071,0.0],[102.90829,18.00044,0.0],[102.90804,18.00016,0.0],[102.90796,18.00007,0.0],[102.90786,17.99986,0.0],[102.90769,17.99944,0.0],[102.90705,17.99901,0.0],[102.9065,17.99858,0.0],[102.90615,17.9981,0.0],[102.90607,17.99766,0.0],[102.9061,17.99727,0.0],[102.90639,17.99682,0.0],[102.90702,17.99522,0.0],[102.91043,17.99229,0.0],[102.91353,17.98958,0.0],[102.90929,17.98718,0.0],[102.89971,17.98254,0.0],[102.89406,17.98085,0.0],[102.8861,17.97875,0.0],[102.87769,17.97756,0.0],[102.86973,17.97621,0.0],[102.86358,17.97477,0.0],[102.85829,17.97288,0.0],[102.85512,17.97139,0.0],[102.85311,17.97092,0.0],[102.85017,17.97044,0.0],[102.84802,17.97017,0.0],[102.84769,17.96833,0.0],[102.84629,17.96599,0.0],[102.84513,17.96461,0.0],[102.84375,17.96289,0.0],[102.84263,17.96203,0.0],[102.84096,17.96083,0.0],[102.83784,17.95875,0.0],[102.83581,17.95827,0.0],[102.8346,17.95561,0.0],[102.8322,17.9523,0.0],[102.82872,17.94894,0.0],[102.8237,17.9453,0.0],[102.81912,17.94214,0.0],[102.81451,17.94035,0.0],[102.8113,17.93972,0.0],[102.80764,17.93946,0.0],[102.80131,17.93975,0.0],[102.79673,17.93948,0.0],[102.79465,17.9389,0.0],[102.79293,17.93842,0.0],[102.78975,17.93699,0.0],[102.7855,17.93475,0.0],[102.78354,17.9326,0.0],[102.78019,17.92916,0.0],[102.77928,17.92821,0.0],[102.77802,17.92587,0.0],[102.77569,17.92055,0.0],[102.77376,17.916,0.0],[102.77161,17.91211,0.0],[102.76995,17.90835,0.0],[102.76527,17.90039,0.0],[102.76097,17.89671,0.0],[102.75513,17.89248,0.0],[102.74416,17.88761,0.0],[102.73925,17.88588,0.0],[102.73055,17.8838,0.0],[102.72293,17.88194,0.0],[102.71712,17.88097,0.0],[102.70905,17.87933,0.0],[102.70168,17.87805,0.0],[102.69941,17.87697,0.0],[102.69528,17.87498,0.0],[102.6943,17.87441,0.0],[102.68884,17.87121,0.0],[102.68672,17.86919,0.0],[102.68346,17.86551,0.0],[102.68098,17.86211,0.0],[102.68038,17.86089,0.0],[102.679,17.85809,0.0],[102.67851,17.85708,0.0],[102.67809,17.85602,0.0],[102.67692,17.85253,0.0],[102.67589,17.84714,0.0],[102.6769,17.84136,0.0],[102.67887,17.83807,0.0],[102.68221,17.83479,0.0],[102.6851,17.8324,0.0],[102.68998,17.82935,0.0],[102.69007,17.82929,0.0],[102.6926,17.82817,0.0],[102.69507,17.82586,0.0],[102.69561,17.82412,0.0],[102.69564,17.82162,0.0],[102.69568,17.81854,0.0],[102.69502,17.81594,0.0],[102.69254,17.81266,0.0],[102.68592,17.80675,0.0],[102.68116,17.80478,0.0],[102.67525,17.80396,0.0],[102.66993,17.80481,0.0],[102.66564,17.80651,0.0],[102.6603,17.80952,0.0],[102.65776,17.81115,0.0],[102.65582,17.81442,0.0],[102.65205,17.82086,0.0],[102.64736,17.82547,0.0],[102.63838,17.83161,0.0],[102.63324,17.83349,0.0],[102.63135,17.83346,0.0],[102.62851,17.83275,0.0],[102.6233,17.83132,0.0],[102.61891,17.83092,0.0],[102.61642,17.83138,0.0],[102.61508,17.83214,0.0],[102.61385,17.83248,0.0],[102.60878,17.83341,0.0],[102.60275,17.83462,0.0],[102.59662,17.83644,0.0],[102.59405,17.83899,0.0],[102.5921,17.84123,0.0],[102.59007,17.84484,0.0],[102.5894,17.84941,0.0],[102.59011,17.85411,0.0],[102.59249,17.86083,0.0],[102.59673,17.86911,0.0],[102.60194,17.87932,0.0],[102.60351,17.8822,0.0],[102.60406,17.88322,0.0],[102.60468,17.88436,0.0],[102.60588,17.88786,0.0],[102.60699,17.89135,0.0],[102.60784,17.89367,0.0],[102.60929,17.89617,0.0],[102.61023,17.89814,0.0],[102.61133,17.89822,0.0],[102.61426,17.898,0.0],[102.61596,17.898,0.0],[102.61721,17.89862,0.0],[102.61741,17.9,0.0],[102.61811,17.90139,0.0],[102.6193,17.9041,0.0],[102.61969,17.90707,0.0],[102.62075,17.90909,0.0],[102.62234,17.90848,0.0],[102.62393,17.9083,0.0],[102.62466,17.90748,0.0],[102.62693,17.90468,0.0],[102.62771,17.9041,0.0],[102.6313,17.90142,0.0],[102.6325,17.90357,0.0],[102.63267,17.90716,0.0],[102.63214,17.90902,0.0],[102.63284,17.91072,0.0],[102.63332,17.91218,0.0],[102.63372,17.91453,0.0],[102.63464,17.91613,0.0],[102.63582,17.91622,0.0],[102.63815,17.91466,0.0],[102.63984,17.91296,0.0],[102.63963,17.91206,0.0],[102.63887,17.9089,0.0],[102.63891,17.90608,0.0],[102.63948,17.9061,0.0],[102.64224,17.90624,0.0],[102.64195,17.90832,0.0],[102.64229,17.91188,0.0],[102.64511,17.9118,0.0],[102.6453,17.91268,0.0],[102.6462,17.91684,0.0],[102.6583,17.91804,0.0],[102.66507,17.91647,0.0],[102.6719,17.91535,0.0],[102.67216,17.91534,0.0],[102.68351,17.91524,0.0],[102.69157,17.91679,0.0],[102.70088,17.91907,0.0],[102.70743,17.92012,0.0],[102.7138,17.92352,0.0],[102.71575,17.9264,0.0],[102.71837,17.93048,0.0],[102.72095,17.93406,0.0],[102.72258,17.93668,0.0],[102.72577,17.94121,0.0],[102.72891,17.94456,0.0],[102.7314,17.94741,0.0],[102.73369,17.94965,0.0],[102.73632,17.95264,0.0],[102.73932,17.95557,0.0],[102.74232,17.9585,0.0],[102.74537,17.96162,0.0],[102.74862,17.96465,0.0],[102.75177,17.96736,0.0],[102.75464,17.96928,0.0],[102.75984,17.9724,0.0],[102.76166,17.97322,0.0],[102.76507,17.97565,0.0],[102.76959,17.979,0.0],[102.77198,17.98084,0.0],[102.77702,17.98404,0.0],[102.78322,17.98816,0.0],[102.78339,17.98844,0.0],[102.78331,17.98945,0.0],[102.7837,17.9897,0.0],[102.78411,17.98963,0.0],[102.78479,17.98947,0.0],[102.78519,17.98926,0.0],[102.78555,17.98912,0.0],[102.78595,17.98921,0.0],[102.78629,17.98929,0.0],[102.78673,17.98923,0.0],[102.78756,17.98909,0.0],[102.78831,17.98903,0.0],[102.78865,17.98958,0.0],[102.78878,17.98991,0.0],[102.78903,17.99027,0.0],[102.78924,17.99041,0.0],[102.78953,17.99103,0.0],[102.78952,17.99134,0.0],[102.78983,17.99189,0.0],[102.78997,17.99204,0.0],[102.79037,17.99198,0.0],[102.79063,17.99203,0.0],[102.7906,17.99225,0.0],[102.79065,17.99257,0.0],[102.79102,17.99266,0.0],[102.79138,17.99239,0.0],[102.7919,17.99228,0.0],[102.79211,17.99253,0.0],[102.79206,17.99296,0.0],[102.79194,17.99348,0.0],[102.79217,17.99373,0.0],[102.79253,17.99373,0.0],[102.79298,17.99321,0.0],[102.79316,17.99286,0.0],[102.79368,17.99284,0.0],[102.7938,17.99339,0.0],[102.79422,17.99385,0.0],[102.7945,17.99412,0.0],[102.79472,17.99436,0.0],[102.79497,17.99454,0.0],[102.79539,17.99458,0.0],[102.79575,17.99466,0.0],[102.79584,17.99491,0.0],[102.79579,17.99538,0.0],[102.79565,17.99608,0.0],[102.79581,17.99657,0.0],[102.79609,17.99703,0.0],[102.79654,17.99693,0.0],[102.79664,17.99641,0.0],[102.79678,17.99592,0.0],[102.79704,17.99569,0.0],[102.79759,17.99589,0.0],[102.79782,17.99688,0.0],[102.79797,17.99737,0.0],[102.79832,17.99745,0.0],[102.79891,17.99722,0.0],[102.79917,17.99729,0.0],[102.79919,17.99739,0.0],[102.79929,17.99788,0.0],[102.79945,17.99806,0.0],[102.79993,17.99806,0.0],[102.80028,17.99792,0.0],[102.80048,17.99805,0.0],[102.80043,17.99849,0.0],[102.80044,17.99897,0.0],[102.80064,17.99926,0.0],[102.80094,17.99941,0.0],[102.80118,17.9994,0.0],[102.80138,17.9993,0.0],[102.80155,17.99897,0.0],[102.80173,17.99867,0.0],[102.80215,17.99857,0.0],[102.80254,17.99866,0.0],[102.8027,17.99904,0.0],[102.80284,17.99935,0.0],[102.80294,17.99971,0.0],[102.80308,18.00021,0.0],[102.80311,18.0003,0.0],[102.80319,18.0007,0.0],[102.80309,18.00098,0.0],[102.80292,18.00113,0.0],[102.80222,18.00138,0.0],[102.80179,18.00161,0.0],[102.80157,18.0018,0.0],[102.80132,18.00198,0.0],[102.80126,18.00218,0.0],[102.80132,18.0024,0.0],[102.80165,18.00248,0.0],[102.80196,18.0024,0.0],[102.80241,18.00209,0.0],[102.80289,18.00183,0.0],[102.80315,18.00199,0.0],[102.8033,18.00226,0.0],[102.80342,18.00235,0.0],[102.80358,18.00227,0.0],[102.80374,18.00192,0.0],[102.80383,18.00167,0.0],[102.80411,18.00157,0.0],[102.80419,18.00176,0.0],[102.80428,18.00203,0.0],[102.80431,18.00231,0.0],[102.80428,18.00259,0.0],[102.80415,18.00287,0.0],[102.80399,18.00305,0.0],[102.80376,18.00314,0.0],[102.80354,18.00328,0.0],[102.80337,18.00351,0.0],[102.8033,18.00386,0.0],[102.80336,18.00404,0.0],[102.80342,18.00419,0.0],[102.80351,18.0044,0.0],[102.80355,18.00459,0.0],[102.80368,18.00482,0.0],[102.80388,18.00498,0.0],[102.80414,18.00509,0.0],[102.80435,18.00513,0.0],[102.80458,18.00514,0.0],[102.80495,18.00501,0.0],[102.80511,18.00488,0.0],[102.8053,18.00468,0.0],[102.80562,18.00469,0.0],[102.80573,18.00488,0.0],[102.80579,18.00519,0.0],[102.80592,18.00528,0.0],[102.80611,18.00531,0.0],[102.80643,18.00524,0.0],[102.80641,18.00547,0.0],[102.80624,18.00559,0.0],[102.80584,18.00591,0.0],[102.80582,18.00622,0.0],[102.80611,18.00628,0.0],[102.80631,18.00625,0.0],[102.80656,18.00608,0.0],[102.80712,18.00581,0.0],[102.80722,18.00603,0.0],[102.8072,18.00639,0.0],[102.80713,18.00669,0.0],[102.80695,18.00696,0.0],[102.80654,18.00762,0.0],[102.80703,18.00802,0.0],[102.80729,18.00843,0.0],[102.80786,18.00884,0.0],[102.8079,18.00888,0.0],[102.81324,18.0116,0.0],[102.81381,18.01205,0.0],[102.81856,18.01477,0.0],[102.8221,18.01721,0.0],[102.82269,18.01772,0.0],[102.82339,18.01833,0.0],[102.82418,18.01848,0.0],[102.82491,18.01821,0.0],[102.82571,18.01791,0.0],[102.82641,18.01722,0.0],[102.82717,18.01706,0.0],[102.82803,18.01724,0.0],[102.82835,18.01752,0.0],[102.8282,18.01838,0.0],[102.82856,18.01866,0.0],[102.82892,18.01856,0.0],[102.82907,18.01815,0.0],[102.82907,18.01763,0.0],[102.82919,18.01722,0.0],[102.8298,18.01724,0.0],[102.83,18.01719,0.0],[102.83055,18.0172,0.0],[102.83146,18.01776,0.0],[102.83265,18.01767,0.0],[102.83295,18.01691,0.0],[102.83299,18.01633,0.0],[102.83298,18.01608,0.0],[102.83302,18.01586,0.0],[102.83298,18.01564,0.0],[102.83274,18.01555,0.0],[102.83226,18.01556,0.0],[102.83202,18.01554,0.0],[102.83205,18.0152,0.0],[102.83237,18.01509,0.0],[102.83257,18.01498,0.0],[102.83269,18.01481,0.0],[102.83275,18.01453,0.0],[102.83269,18.01421,0.0],[102.8326,18.01394,0.0],[102.83266,18.01352,0.0],[102.83285,18.01314,0.0],[102.83365,18.01326,0.0],[102.83423,18.01313,0.0],[102.83431,18.0124,0.0],[102.83421,18.01174,0.0],[102.8349,18.0112,0.0],[102.83562,18.01134,0.0],[102.83606,18.01107,0.0],[102.83621,18.01017,0.0],[102.83658,18.0098,0.0],[102.83723,18.00949,0.0],[102.83831,18.00928,0.0],[102.83854,18.00921,0.0],[102.8388,18.00899,0.0],[102.83883,18.00832,0.0],[102.83902,18.00809,0.0],[102.83934,18.00792,0.0],[102.83958,18.00804,0.0],[102.83979,18.00829,0.0],[102.83989,18.00881,0.0],[102.84006,18.00891,0.0],[102.84033,18.00887,0.0],[102.84047,18.00855,0.0],[102.8404,18.00792,0.0],[102.84056,18.00773,0.0],[102.84084,18.00779,0.0],[102.84104,18.00796,0.0],[102.84132,18.00869,0.0],[102.84154,18.00885,0.0],[102.84187,18.00874,0.0],[102.84209,18.00851,0.0],[102.84235,18.00855,0.0],[102.84252,18.0088,0.0],[102.84256,18.00913,0.0],[102.84272,18.00934,0.0],[102.84304,18.00936,0.0],[102.84336,18.00923,0.0],[102.84366,18.00941,0.0],[102.84373,18.00975,0.0],[102.84387,18.01019,0.0],[102.84404,18.01081,0.0],[102.84409,18.01119,0.0],[102.84429,18.01134,0.0],[102.84463,18.01133,0.0],[102.84493,18.01105,0.0],[102.84549,18.01109,0.0],[102.84573,18.01121,0.0],[102.84593,18.01102,0.0],[102.84598,18.01079,0.0],[102.84622,18.01066,0.0],[102.84647,18.01095,0.0],[102.84685,18.01133,0.0],[102.84694,18.0118,0.0],[102.84682,18.0121,0.0],[102.84648,18.01227,0.0],[102.84626,18.01253,0.0],[102.84637,18.01278,0.0],[102.84665,18.0128,0.0],[102.84703,18.01258,0.0],[102.84746,18.01232,0.0],[102.8478,18.01228,0.0],[102.8481,18.01234,0.0],[102.84833,18.01275,0.0],[102.84904,18.01298,0.0],[102.84972,18.01307,0.0],[102.8505,18.01302,0.0],[102.85136,18.01276,0.0],[102.85206,18.01239,0.0],[102.85294,18.01228,0.0],[102.85316,18.0124,0.0],[102.85338,18.01263,0.0],[102.85356,18.01279,0.0],[102.8538,18.01248,0.0],[102.85373,18.01201,0.0],[102.85388,18.0118,0.0],[102.85408,18.01167,0.0],[102.85446,18.01158,0.0],[102.85463,18.01141,0.0],[102.85455,18.01119,0.0],[102.85439,18.01087,0.0],[102.85422,18.01044,0.0],[102.85349,18.00989,0.0],[102.85338,18.0093,0.0],[102.85309,18.00877,0.0],[102.85291,18.00819,0.0],[102.8527,18.00762,0.0],[102.8528,18.00736,0.0],[102.85315,18.00722,0.0],[102.85364,18.0072,0.0],[102.85395,18.00737,0.0],[102.85404,18.0075,0.0],[102.85407,18.00776,0.0],[102.85378,18.00813,0.0],[102.8536,18.00853,0.0],[102.85377,18.00886,0.0],[102.8541,18.00928,0.0],[102.85452,18.0095,0.0],[102.85482,18.0095,0.0],[102.85517,18.00926,0.0],[102.85554,18.00887,0.0],[102.85556,18.00854,0.0],[102.85573,18.00804,0.0],[102.85608,18.00765,0.0],[102.85646,18.00736,0.0],[102.85675,18.00722,0.0],[102.85699,18.00698,0.0],[102.85741,18.0067,0.0],[102.85767,18.00649,0.0],[102.85769,18.00623,0.0],[102.85747,18.00604,0.0],[102.85712,18.00603,0.0],[102.8566,18.00595,0.0],[102.8562,18.00563,0.0],[102.85582,18.00517,0.0],[102.85547,18.00453,0.0],[102.85551,18.00419,0.0],[102.85563,18.00388,0.0],[102.85589,18.00365,0.0],[102.85596,18.00337,0.0],[102.85586,18.00324,0.0],[102.85556,18.00324,0.0],[102.85542,18.00317,0.0],[102.85548,18.00299,0.0],[102.8565,18.00236,0.0],[102.85705,18.00203,0.0],[102.85735,18.00187,0.0],[102.85754,18.00165,0.0],[102.85767,18.00139,0.0],[102.85783,18.00125,0.0],[102.85806,18.00135,0.0],[102.85819,18.00185,0.0],[102.85841,18.00241,0.0],[102.85863,18.00325,0.0],[102.85905,18.00383,0.0],[102.85938,18.00429,0.0],[102.85963,18.00445,0.0],[102.86001,18.00425,0.0],[102.86034,18.00384,0.0],[102.86057,18.00358,0.0],[102.86096,18.00362,0.0],[102.86122,18.00399,0.0],[102.86138,18.00442,0.0],[102.86148,18.0049,0.0],[102.86167,18.00519,0.0],[102.86151,18.00553,0.0],[102.86123,18.00583,0.0],[102.86081,18.0062,0.0],[102.86058,18.00658,0.0],[102.8605,18.00692,0.0],[102.86049,18.00731,0.0],[102.8608,18.00776,0.0],[102.86131,18.00797,0.0],[102.86176,18.0081,0.0],[102.8624,18.00806,0.0],[102.86278,18.00781,0.0],[102.86307,18.00751,0.0],[102.86342,18.00697,0.0],[102.86365,18.00652,0.0],[102.86394,18.00592,0.0],[102.86402,18.00553,0.0],[102.86413,18.0052,0.0],[102.86444,18.00493,0.0],[102.86483,18.00484,0.0],[102.86497,18.00497,0.0],[102.865,18.00517,0.0],[102.86492,18.00557,0.0],[102.86378,18.0074,0.0],[102.86367,18.00781,0.0],[102.86383,18.00822,0.0],[102.86418,18.00857,0.0],[102.86461,18.00926,0.0],[102.86486,18.00987,0.0],[102.86504,18.01047,0.0],[102.86525,18.01085,0.0],[102.86558,18.01102,0.0],[102.8663,18.01102,0.0],[102.86703,18.0108,0.0],[102.86814,18.01033,0.0],[102.86868,18.00981,0.0],[102.8688,18.0093,0.0],[102.86872,18.00902,0.0],[102.86839,18.00847,0.0],[102.86828,18.00799,0.0],[102.86849,18.00774,0.0],[102.86908,18.00765,0.0],[102.86931,18.00755,0.0],[102.86937,18.00711,0.0],[102.86958,18.00705,0.0],[102.86985,18.00727,0.0],[102.86998,18.00746,0.0],[102.87021,18.00743,0.0],[102.87036,18.00716,0.0],[102.87066,18.00711,0.0],[102.87088,18.00731,0.0],[102.87079,18.00757,0.0],[102.8705,18.00797,0.0],[102.87035,18.00818,0.0],[102.87043,18.00843,0.0],[102.87072,18.00851,0.0],[102.87143,18.00806,0.0],[102.87182,18.00788,0.0],[102.87193,18.00767,0.0],[102.8719,18.00725,0.0],[102.87201,18.00698,0.0],[102.87219,18.00691,0.0],[102.87265,18.0071,0.0],[102.87313,18.00736,0.0],[102.8734,18.00735,0.0],[102.87381,18.00713,0.0],[102.87435,18.00718,0.0],[102.87475,18.00738,0.0],[102.87519,18.00785,0.0],[102.87537,18.00824,0.0],[102.87548,18.00887,0.0],[102.87559,18.00949,0.0],[102.87597,18.01025,0.0],[102.87612,18.01068,0.0],[102.87612,18.01103,0.0],[102.87576,18.01144,0.0],[102.87531,18.01185,0.0],[102.87567,18.01231,0.0],[102.87625,18.01246,0.0]]]]}}]}