{"type":"FeatureCollection","name":"LTU_R1567544","crs":{"type":"name","properties":{"name":"urn:ogc:def:crs:OGC:1.3:CRS84"}},"features":[{"type":"Feature","properties":{"uesi_id":"LTU_R1567544","nbhd_code":"LTU_R1567544_1","nbhd_name":"Dainavos seni\u016bnija"},"geometry":{"type":"MultiPolygon","coordinates":[[[[23.99878,54.92531,0.0],[23.99878,54.92524,0.0],[23.99874,54.92463,0.0],[23.99869,54.92384,0.0],[23.99868,54.92362,0.0],[23.99866,54.92338,0.0],[23.99865,54.92317,0.0],[23.99862,54.92267,0.0],[23.9986,54.92231,0.0],[23.99859,54.9221,0.0],[23.99859,54.92202,0.0],[23.99858,54.9217,0.0],[23.99855,54.92116,0.0],[23.99853,54.92086,0.0],[23.99851,54.92055,0.0],[23.99847,54.91986,0.0],[23.99846,54.9198,0.0],[23.99843,54.91931,0.0],[23.9984,54.91891,0.0],[23.9984,54.91889,0.0],[23.99838,54.91877,0.0],[23.99837,54.91869,0.0],[23.99713,54.91872,0.0],[23.99646,54.91873,0.0],[23.99573,54.91873,0.0],[23.99465,54.91875,0.0],[23.99184,54.9188,0.0],[23.99172,54.9188,0.0],[23.99151,54.91879,0.0],[23.99102,54.91875,0.0],[23.99053,54.91872,0.0],[23.99003,54.91865,0.0],[23.98944,54.91852,0.0],[23.98897,54.91839,0.0],[23.98796,54.91807,0.0],[23.98706,54.91767,0.0],[23.98656,54.91743,0.0],[23.98636,54.91733,0.0],[23.98614,54.91718,0.0],[23.9861,54.91714,0.0],[23.98604,54.91709,0.0],[23.98597,54.91701,0.0],[23.98593,54.91696,0.0],[23.98583,54.91683,0.0],[23.9858,54.91675,0.0],[23.98575,54.91669,0.0],[23.98568,54.91649,0.0],[23.98565,54.91636,0.0],[23.9856,54.91616,0.0],[23.98559,54.916,0.0],[23.98557,54.91576,0.0],[23.98556,54.91568,0.0],[23.98554,54.91549,0.0],[23.98552,54.91523,0.0],[23.98552,54.91508,0.0],[23.98551,54.91479,0.0],[23.98549,54.91451,0.0],[23.98549,54.91441,0.0],[23.98547,54.91393,0.0],[23.98546,54.91381,0.0],[23.98543,54.9137,0.0],[23.98541,54.91359,0.0],[23.98532,54.91344,0.0],[23.98521,54.91326,0.0],[23.98517,54.91321,0.0],[23.98479,54.91266,0.0],[23.98475,54.91261,0.0],[23.98438,54.91204,0.0],[23.98422,54.91181,0.0],[23.98414,54.91169,0.0],[23.9839,54.91131,0.0],[23.98372,54.91106,0.0],[23.98365,54.91095,0.0],[23.98354,54.91078,0.0],[23.98321,54.91087,0.0],[23.98309,54.91089,0.0],[23.98271,54.91097,0.0],[23.98255,54.911,0.0],[23.98175,54.91118,0.0],[23.9813,54.91128,0.0],[23.98106,54.91134,0.0],[23.98097,54.91135,0.0],[23.9808,54.91137,0.0],[23.98054,54.9114,0.0],[23.9803,54.91141,0.0],[23.98004,54.91141,0.0],[23.97985,54.91141,0.0],[23.97966,54.91142,0.0],[23.97882,54.91142,0.0],[23.97794,54.91143,0.0],[23.97786,54.91143,0.0],[23.97741,54.91147,0.0],[23.97724,54.91149,0.0],[23.97713,54.91151,0.0],[23.97684,54.91154,0.0],[23.9767,54.91155,0.0],[23.97663,54.91157,0.0],[23.9757,54.91173,0.0],[23.97547,54.91177,0.0],[23.9751,54.9118,0.0],[23.97456,54.9118,0.0],[23.97424,54.91178,0.0],[23.97376,54.91179,0.0],[23.97304,54.91179,0.0],[23.97279,54.91179,0.0],[23.97248,54.91181,0.0],[23.9721,54.91179,0.0],[23.97167,54.91179,0.0],[23.9706,54.91176,0.0],[23.97039,54.91176,0.0],[23.96983,54.91175,0.0],[23.96955,54.91173,0.0],[23.9692,54.91171,0.0],[23.96881,54.9117,0.0],[23.96861,54.9117,0.0],[23.96774,54.91174,0.0],[23.96704,54.91177,0.0],[23.96625,54.91181,0.0],[23.96505,54.91188,0.0],[23.96404,54.91193,0.0],[23.96365,54.91197,0.0],[23.96155,54.91209,0.0],[23.96065,54.91214,0.0],[23.95999,54.91217,0.0],[23.95862,54.91225,0.0],[23.95761,54.91229,0.0],[23.95629,54.91239,0.0],[23.95566,54.91241,0.0],[23.95522,54.9124,0.0],[23.95377,54.91222,0.0],[23.95292,54.91211,0.0],[23.95121,54.9119,0.0],[23.9502,54.91178,0.0],[23.94956,54.91169,0.0],[23.94796,54.9115,0.0],[23.94709,54.91139,0.0],[23.94637,54.9113,0.0],[23.94619,54.91127,0.0],[23.94608,54.91127,0.0],[23.94561,54.91126,0.0],[23.94546,54.91126,0.0],[23.94493,54.91127,0.0],[23.94414,54.91125,0.0],[23.9425,54.91127,0.0],[23.94233,54.91128,0.0],[23.94201,54.91128,0.0],[23.94186,54.91128,0.0],[23.94048,54.91131,0.0],[23.94008,54.91132,0.0],[23.93956,54.91137,0.0],[23.93905,54.91145,0.0],[23.93866,54.91152,0.0],[23.93787,54.9117,0.0],[23.93631,54.91205,0.0],[23.9364,54.91209,0.0],[23.93737,54.91254,0.0],[23.93816,54.9129,0.0],[23.93862,54.91311,0.0],[23.93881,54.91319,0.0],[23.9398,54.91364,0.0],[23.94043,54.91393,0.0],[23.94057,54.91399,0.0],[23.94078,54.91409,0.0],[23.94139,54.91437,0.0],[23.9416,54.91447,0.0],[23.94205,54.91467,0.0],[23.94291,54.91506,0.0],[23.94312,54.91515,0.0],[23.94319,54.91518,0.0],[23.94391,54.91551,0.0],[23.94405,54.91557,0.0],[23.94471,54.91588,0.0],[23.94508,54.91605,0.0],[23.94573,54.91634,0.0],[23.94601,54.91647,0.0],[23.94683,54.91684,0.0],[23.94694,54.91689,0.0],[23.94709,54.91696,0.0],[23.94724,54.91702,0.0],[23.94731,54.91706,0.0],[23.9474,54.9171,0.0],[23.94809,54.91741,0.0],[23.94902,54.91783,0.0],[23.94919,54.91791,0.0],[23.94943,54.91802,0.0],[23.94994,54.91826,0.0],[23.95003,54.9183,0.0],[23.95026,54.9184,0.0],[23.95067,54.91859,0.0],[23.95088,54.91868,0.0],[23.95114,54.9188,0.0],[23.9518,54.9191,0.0],[23.95237,54.91936,0.0],[23.95271,54.91951,0.0],[23.9528,54.91955,0.0],[23.95344,54.91984,0.0],[23.95373,54.91998,0.0],[23.95399,54.92009,0.0],[23.95415,54.92016,0.0],[23.95432,54.92024,0.0],[23.95442,54.92029,0.0],[23.95466,54.92039,0.0],[23.95546,54.92075,0.0],[23.95625,54.92111,0.0],[23.9566,54.92127,0.0],[23.95702,54.92146,0.0],[23.95796,54.92188,0.0],[23.95846,54.9221,0.0],[23.95951,54.92258,0.0],[23.95962,54.92263,0.0],[23.96162,54.92354,0.0],[23.9621,54.92375,0.0],[23.96239,54.92388,0.0],[23.96255,54.92395,0.0],[23.96282,54.92407,0.0],[23.96305,54.92417,0.0],[23.96323,54.92426,0.0],[23.96345,54.92435,0.0],[23.96408,54.92464,0.0],[23.96557,54.92532,0.0],[23.96572,54.92539,0.0],[23.96588,54.92547,0.0],[23.96603,54.92553,0.0],[23.96617,54.92559,0.0],[23.9662,54.92561,0.0],[23.96677,54.92586,0.0],[23.96778,54.92632,0.0],[23.96863,54.9267,0.0],[23.96879,54.92677,0.0],[23.96892,54.92683,0.0],[23.96903,54.92688,0.0],[23.96948,54.92709,0.0],[23.96998,54.92731,0.0],[23.97003,54.92734,0.0],[23.97162,54.92805,0.0],[23.97248,54.92846,0.0],[23.97329,54.92879,0.0],[23.97499,54.92956,0.0],[23.97584,54.92995,0.0],[23.97624,54.93013,0.0],[23.9766,54.9303,0.0],[23.97681,54.93015,0.0],[23.97738,54.93031,0.0],[23.97847,54.93051,0.0],[23.98002,54.93075,0.0],[23.98194,54.93113,0.0],[23.98387,54.93147,0.0],[23.98469,54.93163,0.0],[23.98539,54.9318,0.0],[23.98651,54.93209,0.0],[23.98674,54.9321,0.0],[23.98726,54.93217,0.0],[23.98775,54.9322,0.0],[23.98979,54.93201,0.0],[23.98992,54.93193,0.0],[23.99002,54.93192,0.0],[23.99023,54.9319,0.0],[23.99067,54.93183,0.0],[23.99077,54.93184,0.0],[23.99102,54.93187,0.0],[23.99124,54.93185,0.0],[23.99141,54.93184,0.0],[23.99184,54.93178,0.0],[23.99227,54.93174,0.0],[23.99281,54.93168,0.0],[23.99383,54.93157,0.0],[23.99761,54.9311,0.0],[23.99942,54.93088,0.0],[24.00139,54.93062,0.0],[24.0035,54.93036,0.0],[24.00036,54.92861,0.0],[24.0002,54.9285,0.0],[23.99981,54.92829,0.0],[23.999,54.92798,0.0],[23.99879,54.92792,0.0],[23.99867,54.92789,0.0],[23.99873,54.92777,0.0],[23.99878,54.92763,0.0],[23.99882,54.9275,0.0],[23.99884,54.92742,0.0],[23.99886,54.92731,0.0],[23.99887,54.9271,0.0],[23.99886,54.92683,0.0],[23.99884,54.92653,0.0],[23.99884,54.92643,0.0],[23.99878,54.92542,0.0],[23.99878,54.92531,0.0]]]]}},{"type":"Feature","properties":{"uesi_id":"LTU_R1567544","nbhd_code":"LTU_R1567544_2","nbhd_name":"Gri\u010diupio seni\u016bnija"},"geometry":{"type":"MultiPolygon","coordinates":[[[[23.94222,54.91077,0.0],[23.94232,54.9111,0.0],[23.94232,54.91112,0.0],[23.94233,54.91122,0.0],[23.94233,54.91128,0.0],[23.9425,54.91127,0.0],[23.94414,54.91125,0.0],[23.94493,54.91127,0.0],[23.94546,54.91126,0.0],[23.94561,54.91126,0.0],[23.94608,54.91127,0.0],[23.94619,54.91127,0.0],[23.94637,54.9113,0.0],[23.94709,54.91139,0.0],[23.94796,54.9115,0.0],[23.94956,54.91169,0.0],[23.9502,54.91178,0.0],[23.95121,54.9119,0.0],[23.95292,54.91211,0.0],[23.95377,54.91222,0.0],[23.95522,54.9124,0.0],[23.95566,54.91241,0.0],[23.95629,54.91239,0.0],[23.95761,54.91229,0.0],[23.95862,54.91225,0.0],[23.95999,54.91217,0.0],[23.96065,54.91214,0.0],[23.96155,54.91209,0.0],[23.96365,54.91197,0.0],[23.96404,54.91193,0.0],[23.96505,54.91188,0.0],[23.96625,54.91181,0.0],[23.96704,54.91177,0.0],[23.96774,54.91174,0.0],[23.96861,54.9117,0.0],[23.96881,54.9117,0.0],[23.9692,54.91171,0.0],[23.96955,54.91173,0.0],[23.96983,54.91175,0.0],[23.97039,54.91176,0.0],[23.9706,54.91176,0.0],[23.97167,54.91179,0.0],[23.9721,54.91179,0.0],[23.97248,54.91181,0.0],[23.97279,54.91179,0.0],[23.97304,54.91179,0.0],[23.97376,54.91179,0.0],[23.97424,54.91178,0.0],[23.97456,54.9118,0.0],[23.9751,54.9118,0.0],[23.97547,54.91177,0.0],[23.9757,54.91173,0.0],[23.97663,54.91157,0.0],[23.9767,54.91155,0.0],[23.97684,54.91154,0.0],[23.97713,54.91151,0.0],[23.97724,54.91149,0.0],[23.97741,54.91147,0.0],[23.97786,54.91143,0.0],[23.97794,54.91143,0.0],[23.97882,54.91142,0.0],[23.97966,54.91142,0.0],[23.97985,54.91141,0.0],[23.98004,54.91141,0.0],[23.9803,54.91141,0.0],[23.98054,54.9114,0.0],[23.9808,54.91137,0.0],[23.98097,54.91135,0.0],[23.98106,54.91134,0.0],[23.9813,54.91128,0.0],[23.98175,54.91118,0.0],[23.98255,54.911,0.0],[23.98271,54.91097,0.0],[23.98309,54.91089,0.0],[23.98321,54.91087,0.0],[23.98354,54.91078,0.0],[23.98337,54.91059,0.0],[23.98322,54.91037,0.0],[23.98294,54.90996,0.0],[23.98266,54.90948,0.0],[23.98189,54.90842,0.0],[23.98173,54.9082,0.0],[23.9812,54.9074,0.0],[23.98086,54.9069,0.0],[23.98044,54.90629,0.0],[23.98029,54.90607,0.0],[23.98013,54.90583,0.0],[23.97997,54.90561,0.0],[23.97995,54.90557,0.0],[23.97989,54.90548,0.0],[23.97977,54.90534,0.0],[23.97966,54.90526,0.0],[23.97946,54.90512,0.0],[23.97903,54.90483,0.0],[23.97879,54.9046,0.0],[23.97847,54.90439,0.0],[23.97837,54.90433,0.0],[23.97809,54.90415,0.0],[23.97793,54.90403,0.0],[23.9778,54.90393,0.0],[23.97766,54.90382,0.0],[23.97549,54.90221,0.0],[23.97509,54.90191,0.0],[23.9744,54.90132,0.0],[23.97517,54.90071,0.0],[23.9758,54.90041,0.0],[23.97657,54.90004,0.0],[23.97684,54.89991,0.0],[23.97704,54.8998,0.0],[23.97723,54.89969,0.0],[23.97741,54.89956,0.0],[23.97761,54.89939,0.0],[23.97776,54.89924,0.0],[23.97791,54.89906,0.0],[23.97805,54.89884,0.0],[23.97835,54.89812,0.0],[23.97845,54.8979,0.0],[23.97858,54.89768,0.0],[23.97866,54.89757,0.0],[23.97597,54.89433,0.0],[23.97404,54.89458,0.0],[23.97201,54.89464,0.0],[23.97038,54.89459,0.0],[23.96903,54.89441,0.0],[23.9674,54.89406,0.0],[23.96588,54.89365,0.0],[23.96392,54.89304,0.0],[23.96227,54.89243,0.0],[23.96141,54.89325,0.0],[23.96009,54.89462,0.0],[23.95901,54.89587,0.0],[23.95881,54.89612,0.0],[23.95793,54.89742,0.0],[23.95759,54.89786,0.0],[23.95754,54.89792,0.0],[23.95748,54.89803,0.0],[23.95637,54.89775,0.0],[23.95634,54.89775,0.0],[23.95576,54.89762,0.0],[23.95566,54.8976,0.0],[23.95482,54.89738,0.0],[23.95435,54.89726,0.0],[23.95388,54.89714,0.0],[23.95343,54.89702,0.0],[23.95292,54.89685,0.0],[23.95265,54.89676,0.0],[23.95227,54.8966,0.0],[23.95197,54.89648,0.0],[23.9517,54.89636,0.0],[23.95128,54.89615,0.0],[23.95054,54.89575,0.0],[23.9503,54.89564,0.0],[23.9501,54.89555,0.0],[23.94985,54.89547,0.0],[23.94958,54.8954,0.0],[23.94922,54.89532,0.0],[23.94907,54.8953,0.0],[23.94906,54.8953,0.0],[23.94875,54.89527,0.0],[23.94876,54.89532,0.0],[23.94882,54.89543,0.0],[23.94907,54.89565,0.0],[23.94912,54.89575,0.0],[23.94914,54.89587,0.0],[23.94908,54.89607,0.0],[23.94897,54.89622,0.0],[23.94824,54.89667,0.0],[23.94803,54.89689,0.0],[23.94794,54.89704,0.0],[23.9479,54.89723,0.0],[23.94788,54.8978,0.0],[23.94788,54.89793,0.0],[23.94791,54.89804,0.0],[23.94797,54.89815,0.0],[23.94811,54.89829,0.0],[23.94829,54.89843,0.0],[23.94848,54.89852,0.0],[23.94998,54.89902,0.0],[23.95012,54.89912,0.0],[23.95026,54.89927,0.0],[23.95034,54.89942,0.0],[23.95034,54.89955,0.0],[23.95031,54.89968,0.0],[23.95027,54.8998,0.0],[23.95008,54.90006,0.0],[23.95001,54.90022,0.0],[23.95,54.90051,0.0],[23.94998,54.90091,0.0],[23.94994,54.90115,0.0],[23.94969,54.90275,0.0],[23.94966,54.90295,0.0],[23.94963,54.90313,0.0],[23.94962,54.90324,0.0],[23.94947,54.90402,0.0],[23.94946,54.90408,0.0],[23.94944,54.90416,0.0],[23.94941,54.90427,0.0],[23.94936,54.90436,0.0],[23.94931,54.90442,0.0],[23.94924,54.90447,0.0],[23.94891,54.90464,0.0],[23.94865,54.90475,0.0],[23.9486,54.90477,0.0],[23.94854,54.90479,0.0],[23.94839,54.90486,0.0],[23.94808,54.90501,0.0],[23.94804,54.90503,0.0],[23.94752,54.90528,0.0],[23.94715,54.90545,0.0],[23.94712,54.90547,0.0],[23.94641,54.9058,0.0],[23.9462,54.9059,0.0],[23.94596,54.90602,0.0],[23.94559,54.90619,0.0],[23.94524,54.90636,0.0],[23.94494,54.90651,0.0],[23.94478,54.90658,0.0],[23.94475,54.9066,0.0],[23.94414,54.90689,0.0],[23.9437,54.90709,0.0],[23.94358,54.90715,0.0],[23.94268,54.90758,0.0],[23.94259,54.90763,0.0],[23.9417,54.90805,0.0],[23.9415,54.90821,0.0],[23.94149,54.9084,0.0],[23.9415,54.90847,0.0],[23.94169,54.90906,0.0],[23.94175,54.90925,0.0],[23.94177,54.90931,0.0],[23.942,54.91005,0.0],[23.94204,54.9102,0.0],[23.94212,54.91046,0.0],[23.94214,54.91053,0.0],[23.94221,54.91074,0.0],[23.94222,54.91077,0.0]]]]}},{"type":"Feature","properties":{"uesi_id":"LTU_R1567544","nbhd_code":"LTU_R1567544_3","nbhd_name":"Centro seni\u016bnija"},"geometry":{"type":"MultiPolygon","coordinates":[[[[23.91284,54.90291,0.0],[23.913,54.90297,0.0],[23.91334,54.9031,0.0],[23.91361,54.90277,0.0],[23.91386,54.90246,0.0],[23.91393,54.90238,0.0],[23.91402,54.90227,0.0],[23.91427,54.90216,0.0],[23.91514,54.90181,0.0],[23.91568,54.90173,0.0],[23.91638,54.9018,0.0],[23.91686,54.90187,0.0],[23.91737,54.902,0.0],[23.9179,54.90212,0.0],[23.91809,54.90217,0.0],[23.91814,54.90218,0.0],[23.91817,54.90219,0.0],[23.91827,54.90221,0.0],[23.91863,54.90229,0.0],[23.91878,54.90233,0.0],[23.91886,54.90227,0.0],[23.91905,54.90233,0.0],[23.91915,54.90237,0.0],[23.91966,54.90255,0.0],[23.92025,54.90275,0.0],[23.9203,54.90269,0.0],[23.92037,54.90265,0.0],[23.92066,54.90259,0.0],[23.92166,54.90238,0.0],[23.92253,54.90219,0.0],[23.92302,54.90209,0.0],[23.92373,54.90195,0.0],[23.92417,54.90185,0.0],[23.92441,54.9018,0.0],[23.92496,54.90169,0.0],[23.92523,54.90163,0.0],[23.92566,54.90154,0.0],[23.92569,54.90153,0.0],[23.92571,54.90153,0.0],[23.92579,54.90151,0.0],[23.92583,54.90149,0.0],[23.92595,54.90145,0.0],[23.9261,54.90141,0.0],[23.92612,54.9014,0.0],[23.92618,54.90138,0.0],[23.92623,54.90136,0.0],[23.9263,54.90132,0.0],[23.92671,54.90089,0.0],[23.92706,54.90049,0.0],[23.92716,54.90037,0.0],[23.92753,54.89995,0.0],[23.92838,54.90014,0.0],[23.92845,54.90015,0.0],[23.92981,54.90044,0.0],[23.93105,54.9007,0.0],[23.93144,54.90077,0.0],[23.93164,54.90076,0.0],[23.93194,54.89993,0.0],[23.93199,54.89977,0.0],[23.93203,54.89961,0.0],[23.93207,54.89943,0.0],[23.93207,54.89924,0.0],[23.93206,54.89904,0.0],[23.93205,54.89885,0.0],[23.93205,54.8987,0.0],[23.93206,54.89848,0.0],[23.93215,54.8982,0.0],[23.93268,54.89754,0.0],[23.93274,54.89748,0.0],[23.93285,54.89738,0.0],[23.93296,54.89729,0.0],[23.93294,54.89723,0.0],[23.93261,54.89646,0.0],[23.93281,54.89622,0.0],[23.93288,54.89614,0.0],[23.93297,54.89603,0.0],[23.93299,54.89601,0.0],[23.93318,54.8958,0.0],[23.93324,54.89572,0.0],[23.93339,54.89553,0.0],[23.93372,54.89512,0.0],[23.93393,54.89485,0.0],[23.93396,54.89482,0.0],[23.93398,54.89479,0.0],[23.93417,54.89455,0.0],[23.93375,54.89444,0.0],[23.93266,54.89414,0.0],[23.9327,54.8941,0.0],[23.93274,54.89404,0.0],[23.93273,54.89397,0.0],[23.93267,54.89391,0.0],[23.93249,54.89382,0.0],[23.93228,54.89375,0.0],[23.93232,54.89363,0.0],[23.93259,54.89333,0.0],[23.93264,54.89329,0.0],[23.93347,54.89244,0.0],[23.93392,54.892,0.0],[23.93409,54.89183,0.0],[23.9343,54.89163,0.0],[23.93457,54.89136,0.0],[23.93519,54.89079,0.0],[23.93522,54.89075,0.0],[23.93525,54.89071,0.0],[23.93538,54.89055,0.0],[23.93473,54.89037,0.0],[23.93403,54.89017,0.0],[23.93405,54.88999,0.0],[23.93417,54.88922,0.0],[23.93418,54.88918,0.0],[23.93425,54.88876,0.0],[23.93403,54.8882,0.0],[23.93373,54.88793,0.0],[23.93359,54.88784,0.0],[23.93342,54.8878,0.0],[23.93268,54.88763,0.0],[23.93236,54.88752,0.0],[23.93208,54.8874,0.0],[23.93161,54.88717,0.0],[23.93148,54.88711,0.0],[23.93106,54.88688,0.0],[23.93067,54.88669,0.0],[23.93043,54.88657,0.0],[23.92931,54.88598,0.0],[23.92898,54.88582,0.0],[23.92861,54.88562,0.0],[23.92845,54.88551,0.0],[23.92825,54.88539,0.0],[23.92783,54.88517,0.0],[23.92706,54.88474,0.0],[23.92668,54.88451,0.0],[23.92635,54.88429,0.0],[23.92591,54.884,0.0],[23.92551,54.88366,0.0],[23.9243,54.88251,0.0],[23.9227,54.88416,0.0],[23.92161,54.88522,0.0],[23.91952,54.88678,0.0],[23.91896,54.88713,0.0],[23.91868,54.88731,0.0],[23.91751,54.8878,0.0],[23.91537,54.88844,0.0],[23.91249,54.88918,0.0],[23.91073,54.88945,0.0],[23.90912,54.88966,0.0],[23.90739,54.89,0.0],[23.90496,54.89072,0.0],[23.90132,54.89219,0.0],[23.89923,54.89298,0.0],[23.89757,54.89345,0.0],[23.89546,54.89379,0.0],[23.89275,54.89398,0.0],[23.8899,54.89408,0.0],[23.88815,54.89408,0.0],[23.88609,54.89397,0.0],[23.88399,54.89396,0.0],[23.88267,54.89417,0.0],[23.88105,54.89451,0.0],[23.87931,54.89503,0.0],[23.87795,54.89558,0.0],[23.87645,54.89628,0.0],[23.87475,54.89736,0.0],[23.87313,54.89843,0.0],[23.87142,54.89968,0.0],[23.87036,54.90055,0.0],[23.87233,54.90035,0.0],[23.87456,54.90012,0.0],[23.87654,54.9001,0.0],[23.87812,54.90011,0.0],[23.87976,54.90023,0.0],[23.88192,54.90048,0.0],[23.88659,54.90128,0.0],[23.88812,54.90167,0.0],[23.88941,54.90235,0.0],[23.89089,54.90319,0.0],[23.89284,54.90234,0.0],[23.89306,54.90224,0.0],[23.89347,54.90205,0.0],[23.89356,54.90202,0.0],[23.89375,54.9019,0.0],[23.89388,54.90182,0.0],[23.89394,54.90176,0.0],[23.89398,54.9017,0.0],[23.894,54.90162,0.0],[23.89402,54.90161,0.0],[23.8942,54.90148,0.0],[23.89428,54.90145,0.0],[23.8949,54.90135,0.0],[23.89576,54.90176,0.0],[23.89617,54.90154,0.0],[23.89675,54.90121,0.0],[23.89748,54.90108,0.0],[23.89761,54.90081,0.0],[23.89766,54.90077,0.0],[23.89776,54.90079,0.0],[23.89864,54.90091,0.0],[23.89894,54.90071,0.0],[23.89906,54.90066,0.0],[23.89914,54.90059,0.0],[23.89914,54.90049,0.0],[23.89914,54.90047,0.0],[23.89914,54.90041,0.0],[23.89917,54.90028,0.0],[23.8992,54.90021,0.0],[23.89924,54.90012,0.0],[23.8993,54.90002,0.0],[23.89938,54.89993,0.0],[23.89955,54.89984,0.0],[23.89971,54.8998,0.0],[23.89988,54.89976,0.0],[23.90009,54.89974,0.0],[23.90024,54.89974,0.0],[23.90036,54.89974,0.0],[23.90058,54.89975,0.0],[23.90082,54.89975,0.0],[23.90195,54.90035,0.0],[23.90207,54.90043,0.0],[23.90249,54.90059,0.0],[23.90284,54.90072,0.0],[23.90301,54.90079,0.0],[23.90329,54.90088,0.0],[23.90361,54.90099,0.0],[23.90364,54.901,0.0],[23.90446,54.90129,0.0],[23.90484,54.90142,0.0],[23.90501,54.90149,0.0],[23.90509,54.90152,0.0],[23.9052,54.90156,0.0],[23.90538,54.90163,0.0],[23.90586,54.90181,0.0],[23.90616,54.90191,0.0],[23.90624,54.90194,0.0],[23.90651,54.90205,0.0],[23.90682,54.90217,0.0],[23.90708,54.90227,0.0],[23.90732,54.90237,0.0],[23.90763,54.90249,0.0],[23.90785,54.90258,0.0],[23.9081,54.90268,0.0],[23.90856,54.90286,0.0],[23.90948,54.90322,0.0],[23.90954,54.90324,0.0],[23.90969,54.9033,0.0],[23.90986,54.90334,0.0],[23.91004,54.90337,0.0],[23.91036,54.90341,0.0],[23.9105,54.90343,0.0],[23.91092,54.90348,0.0],[23.91127,54.90348,0.0],[23.91135,54.90347,0.0],[23.91144,54.90346,0.0],[23.9115,54.90344,0.0],[23.91156,54.9034,0.0],[23.9117,54.90327,0.0],[23.91214,54.90283,0.0],[23.91219,54.90278,0.0],[23.91226,54.9027,0.0],[23.9126,54.90283,0.0],[23.91284,54.90291,0.0]]]]}},{"type":"Feature","properties":{"uesi_id":"LTU_R1567544","nbhd_code":"LTU_R1567544_4","nbhd_name":"\u0160an\u010di\u0173 seni\u016bnija"},"geometry":{"type":"MultiPolygon","coordinates":[[[[23.94861,54.89527,0.0],[23.94875,54.89527,0.0],[23.94906,54.8953,0.0],[23.94907,54.8953,0.0],[23.94922,54.89532,0.0],[23.94958,54.8954,0.0],[23.94985,54.89547,0.0],[23.9501,54.89555,0.0],[23.9503,54.89564,0.0],[23.95054,54.89575,0.0],[23.95128,54.89615,0.0],[23.9517,54.89636,0.0],[23.95197,54.89648,0.0],[23.95227,54.8966,0.0],[23.95265,54.89676,0.0],[23.95292,54.89685,0.0],[23.95343,54.89702,0.0],[23.95388,54.89714,0.0],[23.95435,54.89726,0.0],[23.95482,54.89738,0.0],[23.95566,54.8976,0.0],[23.95576,54.89762,0.0],[23.95634,54.89775,0.0],[23.95637,54.89775,0.0],[23.95748,54.89803,0.0],[23.95754,54.89792,0.0],[23.95759,54.89786,0.0],[23.95793,54.89742,0.0],[23.95881,54.89612,0.0],[23.95901,54.89587,0.0],[23.96009,54.89462,0.0],[23.96141,54.89325,0.0],[23.96227,54.89243,0.0],[23.96119,54.89195,0.0],[23.95997,54.8911,0.0],[23.95899,54.88985,0.0],[23.95845,54.88852,0.0],[23.95807,54.88696,0.0],[23.95795,54.88548,0.0],[23.95817,54.88399,0.0],[23.9587,54.88282,0.0],[23.95942,54.8815,0.0],[23.9614,54.87886,0.0],[23.96258,54.8775,0.0],[23.96317,54.87642,0.0],[23.96342,54.87528,0.0],[23.96334,54.87414,0.0],[23.96298,54.87316,0.0],[23.96206,54.87148,0.0],[23.96068,54.86938,0.0],[23.96022,54.8689,0.0],[23.95938,54.86799,0.0],[23.95854,54.86729,0.0],[23.95754,54.86668,0.0],[23.95624,54.86598,0.0],[23.95531,54.8654,0.0],[23.95446,54.8647,0.0],[23.9539,54.864,0.0],[23.95302,54.86243,0.0],[23.95239,54.8615,0.0],[23.95143,54.86076,0.0],[23.94965,54.86003,0.0],[23.94728,54.85943,0.0],[23.94586,54.85917,0.0],[23.94396,54.8589,0.0],[23.94205,54.85882,0.0],[23.94002,54.85887,0.0],[23.93836,54.85906,0.0],[23.93555,54.85954,0.0],[23.93379,54.85996,0.0],[23.93318,54.86019,0.0],[23.93205,54.86069,0.0],[23.93109,54.86128,0.0],[23.93016,54.86207,0.0],[23.92966,54.8628,0.0],[23.92912,54.8641,0.0],[23.9288,54.8653,0.0],[23.92843,54.86644,0.0],[23.92784,54.86777,0.0],[23.92742,54.869,0.0],[23.92708,54.87077,0.0],[23.92703,54.87264,0.0],[23.92721,54.8747,0.0],[23.9275,54.87698,0.0],[23.92758,54.87811,0.0],[23.9274,54.87924,0.0],[23.92694,54.88014,0.0],[23.92597,54.88125,0.0],[23.9243,54.88251,0.0],[23.92551,54.88366,0.0],[23.92591,54.884,0.0],[23.92635,54.88429,0.0],[23.92668,54.88451,0.0],[23.92706,54.88474,0.0],[23.92783,54.88517,0.0],[23.92825,54.88539,0.0],[23.92845,54.88551,0.0],[23.92861,54.88562,0.0],[23.92898,54.88582,0.0],[23.92931,54.88598,0.0],[23.93043,54.88657,0.0],[23.93067,54.88669,0.0],[23.93106,54.88688,0.0],[23.93148,54.88711,0.0],[23.93161,54.88717,0.0],[23.93208,54.8874,0.0],[23.93236,54.88752,0.0],[23.93268,54.88763,0.0],[23.93342,54.8878,0.0],[23.93359,54.88784,0.0],[23.93395,54.88793,0.0],[23.93416,54.88798,0.0],[23.93435,54.88804,0.0],[23.93482,54.88823,0.0],[23.9367,54.88923,0.0],[23.93823,54.89005,0.0],[23.93839,54.89013,0.0],[23.93847,54.89017,0.0],[23.94018,54.89117,0.0],[23.9405,54.89139,0.0],[23.94091,54.8917,0.0],[23.94171,54.89244,0.0],[23.94229,54.89299,0.0],[23.94286,54.89352,0.0],[23.94306,54.89377,0.0],[23.94322,54.89401,0.0],[23.94323,54.89404,0.0],[23.94325,54.89407,0.0],[23.94332,54.89419,0.0],[23.94342,54.89439,0.0],[23.94345,54.89446,0.0],[23.94355,54.89466,0.0],[23.94374,54.89484,0.0],[23.94414,54.89512,0.0],[23.94448,54.89529,0.0],[23.94507,54.89543,0.0],[23.94526,54.89546,0.0],[23.94553,54.89547,0.0],[23.9457,54.89547,0.0],[23.94593,54.89546,0.0],[23.94672,54.89539,0.0],[23.94755,54.89532,0.0],[23.9481,54.89527,0.0],[23.94861,54.89527,0.0]]]]}},{"type":"Feature","properties":{"uesi_id":"LTU_R1567544","nbhd_code":"LTU_R1567544_5","nbhd_name":"Aleksoto seni\u016bnija"},"geometry":{"type":"MultiPolygon","coordinates":[[[[23.82086,54.90295,0.0],[23.82322,54.90596,0.0],[23.82453,54.90592,0.0],[23.82705,54.90571,0.0],[23.82936,54.90575,0.0],[23.83073,54.90595,0.0],[23.83488,54.9067,0.0],[23.83715,54.907,0.0],[23.83909,54.90698,0.0],[23.84104,54.90672,0.0],[23.84306,54.90635,0.0],[23.8455,54.9061,0.0],[23.849,54.90599,0.0],[23.8522,54.90588,0.0],[23.85446,54.90556,0.0],[23.85628,54.90516,0.0],[23.85868,54.90463,0.0],[23.86089,54.90401,0.0],[23.86438,54.90304,0.0],[23.86616,54.90232,0.0],[23.86782,54.90151,0.0],[23.86936,54.90088,0.0],[23.87036,54.90055,0.0],[23.87142,54.89968,0.0],[23.87313,54.89843,0.0],[23.87475,54.89736,0.0],[23.87645,54.89628,0.0],[23.87795,54.89558,0.0],[23.87931,54.89503,0.0],[23.88105,54.89451,0.0],[23.88267,54.89417,0.0],[23.88399,54.89396,0.0],[23.88609,54.89397,0.0],[23.88815,54.89408,0.0],[23.8899,54.89408,0.0],[23.89275,54.89398,0.0],[23.89546,54.89379,0.0],[23.89757,54.89345,0.0],[23.89923,54.89298,0.0],[23.90132,54.89219,0.0],[23.90496,54.89072,0.0],[23.90739,54.89,0.0],[23.90912,54.88966,0.0],[23.91073,54.88945,0.0],[23.91249,54.88918,0.0],[23.91537,54.88844,0.0],[23.91751,54.8878,0.0],[23.91868,54.88731,0.0],[23.91896,54.88713,0.0],[23.91952,54.88678,0.0],[23.92161,54.88522,0.0],[23.9227,54.88416,0.0],[23.9243,54.88251,0.0],[23.92597,54.88125,0.0],[23.92694,54.88014,0.0],[23.9274,54.87924,0.0],[23.92758,54.87811,0.0],[23.9275,54.87698,0.0],[23.92721,54.8747,0.0],[23.92703,54.87264,0.0],[23.92708,54.87077,0.0],[23.92742,54.869,0.0],[23.92784,54.86777,0.0],[23.92843,54.86644,0.0],[23.9288,54.8653,0.0],[23.92912,54.8641,0.0],[23.92966,54.8628,0.0],[23.93016,54.86207,0.0],[23.93109,54.86128,0.0],[23.93205,54.86069,0.0],[23.93318,54.86019,0.0],[23.93184,54.85913,0.0],[23.93172,54.8588,0.0],[23.93197,54.85825,0.0],[23.93199,54.85799,0.0],[23.93193,54.85788,0.0],[23.93172,54.8578,0.0],[23.93143,54.85762,0.0],[23.93109,54.85737,0.0],[23.93105,54.8573,0.0],[23.93098,54.85714,0.0],[23.93099,54.85688,0.0],[23.93093,54.85674,0.0],[23.93084,54.85661,0.0],[23.93068,54.85645,0.0],[23.93043,54.85624,0.0],[23.93031,54.85616,0.0],[23.93018,54.85613,0.0],[23.92998,54.8561,0.0],[23.92983,54.85611,0.0],[23.92927,54.85628,0.0],[23.92883,54.85643,0.0],[23.92851,54.85648,0.0],[23.92822,54.85649,0.0],[23.92791,54.85645,0.0],[23.9277,54.85636,0.0],[23.92757,54.85618,0.0],[23.92754,54.856,0.0],[23.92762,54.85585,0.0],[23.92819,54.8554,0.0],[23.92871,54.85508,0.0],[23.92887,54.85495,0.0],[23.92901,54.85488,0.0],[23.92916,54.85486,0.0],[23.92929,54.85488,0.0],[23.92946,54.8549,0.0],[23.92964,54.85491,0.0],[23.92997,54.85483,0.0],[23.93076,54.85438,0.0],[23.93107,54.85417,0.0],[23.93124,54.85393,0.0],[23.9314,54.85374,0.0],[23.93165,54.8535,0.0],[23.93218,54.85316,0.0],[23.93252,54.85309,0.0],[23.93283,54.85298,0.0],[23.93314,54.85284,0.0],[23.93353,54.85269,0.0],[23.93377,54.85265,0.0],[23.93401,54.85265,0.0],[23.93429,54.8527,0.0],[23.93453,54.85279,0.0],[23.93471,54.85291,0.0],[23.93511,54.85314,0.0],[23.93563,54.85344,0.0],[23.9361,54.85354,0.0],[23.93643,54.85358,0.0],[23.93678,54.85357,0.0],[23.93699,54.85353,0.0],[23.93713,54.85348,0.0],[23.93724,54.85342,0.0],[23.93735,54.85316,0.0],[23.93737,54.85295,0.0],[23.93739,54.85281,0.0],[23.93743,54.85269,0.0],[23.93752,54.85264,0.0],[23.93829,54.85213,0.0],[23.93852,54.85199,0.0],[23.93887,54.85177,0.0],[23.93896,54.85167,0.0],[23.93901,54.85153,0.0],[23.93909,54.85105,0.0],[23.93902,54.85093,0.0],[23.93885,54.85086,0.0],[23.93853,54.8508,0.0],[23.93791,54.8507,0.0],[23.93732,54.85063,0.0],[23.93683,54.85054,0.0],[23.93646,54.85044,0.0],[23.93625,54.85035,0.0],[23.93602,54.85023,0.0],[23.93596,54.85015,0.0],[23.93597,54.85005,0.0],[23.93586,54.8498,0.0],[23.93578,54.84961,0.0],[23.93568,54.84949,0.0],[23.93561,54.84942,0.0],[23.93545,54.84938,0.0],[23.93517,54.84941,0.0],[23.93498,54.84951,0.0],[23.93483,54.84961,0.0],[23.93468,54.84972,0.0],[23.93445,54.84983,0.0],[23.93404,54.85003,0.0],[23.93355,54.85015,0.0],[23.93316,54.8502,0.0],[23.93276,54.85021,0.0],[23.9321,54.85012,0.0],[23.93145,54.85,0.0],[23.93094,54.84984,0.0],[23.93043,54.8496,0.0],[23.9301,54.84937,0.0],[23.9299,54.84912,0.0],[23.92984,54.84901,0.0],[23.9298,54.84883,0.0],[23.92982,54.84848,0.0],[23.92988,54.84817,0.0],[23.92993,54.84796,0.0],[23.92997,54.84775,0.0],[23.93007,54.84737,0.0],[23.93024,54.84705,0.0],[23.93042,54.84687,0.0],[23.9307,54.84672,0.0],[23.93116,54.84658,0.0],[23.93173,54.84663,0.0],[23.93229,54.84691,0.0],[23.93262,54.84701,0.0],[23.93313,54.84707,0.0],[23.9343,54.84697,0.0],[23.93476,54.84693,0.0],[23.93501,54.84683,0.0],[23.93527,54.84665,0.0],[23.93532,54.84651,0.0],[23.93532,54.84631,0.0],[23.93526,54.84612,0.0],[23.93578,54.8456,0.0],[23.93612,54.84524,0.0],[23.93617,54.84517,0.0],[23.93616,54.84505,0.0],[23.93596,54.84491,0.0],[23.93583,54.84488,0.0],[23.93529,54.84499,0.0],[23.93496,54.84497,0.0],[23.9346,54.84489,0.0],[23.93414,54.84466,0.0],[23.93301,54.84373,0.0],[23.93292,54.84351,0.0],[23.93286,54.84328,0.0],[23.93292,54.84302,0.0],[23.93313,54.84244,0.0],[23.93325,54.84213,0.0],[23.93399,54.84001,0.0],[23.93404,54.83995,0.0],[23.93416,54.83988,0.0],[23.93434,54.83985,0.0],[23.93509,54.83984,0.0],[23.9355,54.83982,0.0],[23.93587,54.83965,0.0],[23.93607,54.83953,0.0],[23.93622,54.83939,0.0],[23.93668,54.83884,0.0],[23.93682,54.8387,0.0],[23.93691,54.83859,0.0],[23.93706,54.83837,0.0],[23.93728,54.83778,0.0],[23.93737,54.83727,0.0],[23.93738,54.83699,0.0],[23.93733,54.83674,0.0],[23.93725,54.83657,0.0],[23.93708,54.83645,0.0],[23.93682,54.83639,0.0],[23.93632,54.83632,0.0],[23.93531,54.83626,0.0],[23.93507,54.83675,0.0],[23.93465,54.83828,0.0],[23.93449,54.83929,0.0],[23.93397,54.83996,0.0],[23.93315,54.84195,0.0],[23.93271,54.84323,0.0],[23.93164,54.84324,0.0],[23.93071,54.84409,0.0],[23.93066,54.84484,0.0],[23.92968,54.846,0.0],[23.92767,54.85094,0.0],[23.92617,54.85089,0.0],[23.92562,54.85068,0.0],[23.92499,54.85081,0.0],[23.92478,54.85109,0.0],[23.92447,54.85107,0.0],[23.92437,54.85081,0.0],[23.92256,54.85031,0.0],[23.92156,54.85053,0.0],[23.91986,54.8505,0.0],[23.91887,54.85083,0.0],[23.91551,54.85088,0.0],[23.91471,54.85126,0.0],[23.91473,54.85155,0.0],[23.91474,54.85181,0.0],[23.91425,54.85236,0.0],[23.91369,54.85254,0.0],[23.91251,54.85254,0.0],[23.91146,54.85283,0.0],[23.91128,54.85312,0.0],[23.91073,54.85334,0.0],[23.90899,54.85343,0.0],[23.90761,54.85335,0.0],[23.9009,54.85432,0.0],[23.90031,54.85441,0.0],[23.89686,54.85446,0.0],[23.89517,54.85449,0.0],[23.89378,54.85449,0.0],[23.89305,54.85498,0.0],[23.89253,54.85507,0.0],[23.8916,54.85499,0.0],[23.89018,54.85507,0.0],[23.88767,54.85579,0.0],[23.8848,54.85667,0.0],[23.88477,54.85659,0.0],[23.88434,54.85687,0.0],[23.88092,54.84807,0.0],[23.88026,54.84625,0.0],[23.87444,54.84701,0.0],[23.86872,54.84776,0.0],[23.86457,54.84829,0.0],[23.86661,54.85216,0.0],[23.86744,54.85375,0.0],[23.86086,54.85616,0.0],[23.85988,54.8565,0.0],[23.85797,54.85716,0.0],[23.85625,54.8577,0.0],[23.84999,54.85504,0.0],[23.84734,54.85319,0.0],[23.84443,54.85112,0.0],[23.8427,54.85057,0.0],[23.84143,54.85237,0.0],[23.83413,54.86228,0.0],[23.82967,54.86818,0.0],[23.85294,54.87481,0.0],[23.85434,54.87481,0.0],[23.85466,54.87481,0.0],[23.85435,54.874,0.0],[23.85845,54.87425,0.0],[23.85921,54.87438,0.0],[23.86433,54.87524,0.0],[23.86801,54.87628,0.0],[23.86963,54.87662,0.0],[23.86931,54.877,0.0],[23.86863,54.87705,0.0],[23.86848,54.87718,0.0],[23.86833,54.8773,0.0],[23.8683,54.87738,0.0],[23.86815,54.87772,0.0],[23.86815,54.87796,0.0],[23.86816,54.87838,0.0],[23.86859,54.87881,0.0],[23.86858,54.87923,0.0],[23.86803,54.87976,0.0],[23.86798,54.88007,0.0],[23.86812,54.88028,0.0],[23.86885,54.88077,0.0],[23.86879,54.88137,0.0],[23.86867,54.88171,0.0],[23.86873,54.88291,0.0],[23.86841,54.88374,0.0],[23.86869,54.88445,0.0],[23.86852,54.88519,0.0],[23.86909,54.88735,0.0],[23.87004,54.88782,0.0],[23.86952,54.88836,0.0],[23.86898,54.88851,0.0],[23.86871,54.88928,0.0],[23.86859,54.88952,0.0],[23.86872,54.88977,0.0],[23.86884,54.89027,0.0],[23.86874,54.89051,0.0],[23.86779,54.89128,0.0],[23.86769,54.8916,0.0],[23.8675,54.89162,0.0],[23.86724,54.89194,0.0],[23.86628,54.89174,0.0],[23.86585,54.89237,0.0],[23.86587,54.89291,0.0],[23.86527,54.89339,0.0],[23.8658,54.89362,0.0],[23.86483,54.89412,0.0],[23.86448,54.8946,0.0],[23.86384,54.89471,0.0],[23.86376,54.89638,0.0],[23.86409,54.89762,0.0],[23.85824,54.89839,0.0],[23.85857,54.89771,0.0],[23.85767,54.89732,0.0],[23.85703,54.89844,0.0],[23.8535,54.89835,0.0],[23.84905,54.89889,0.0],[23.84024,54.89913,0.0],[23.8398,54.89914,0.0],[23.83995,54.89949,0.0],[23.83638,54.89981,0.0],[23.8342,54.90034,0.0],[23.83252,54.90094,0.0],[23.82496,54.90212,0.0],[23.82086,54.90295,0.0]]]]}},{"type":"Feature","properties":{"uesi_id":"LTU_R1567544","nbhd_code":"LTU_R1567544_6","nbhd_name":"Panemun\u0117s seni\u016bnija"},"geometry":{"type":"MultiPolygon","coordinates":[[[[23.93531,54.83626,0.0],[23.93632,54.83632,0.0],[23.93682,54.83639,0.0],[23.93708,54.83645,0.0],[23.93725,54.83657,0.0],[23.93733,54.83674,0.0],[23.93738,54.83699,0.0],[23.93737,54.83727,0.0],[23.93728,54.83778,0.0],[23.93706,54.83837,0.0],[23.93691,54.83859,0.0],[23.93682,54.8387,0.0],[23.93668,54.83884,0.0],[23.93622,54.83939,0.0],[23.93607,54.83953,0.0],[23.93587,54.83965,0.0],[23.9355,54.83982,0.0],[23.93509,54.83984,0.0],[23.93434,54.83985,0.0],[23.93416,54.83988,0.0],[23.93404,54.83995,0.0],[23.93399,54.84001,0.0],[23.93325,54.84213,0.0],[23.93313,54.84244,0.0],[23.93292,54.84302,0.0],[23.93286,54.84328,0.0],[23.93292,54.84351,0.0],[23.93301,54.84373,0.0],[23.93414,54.84466,0.0],[23.9346,54.84489,0.0],[23.93496,54.84497,0.0],[23.93529,54.84499,0.0],[23.93583,54.84488,0.0],[23.93596,54.84491,0.0],[23.93616,54.84505,0.0],[23.93617,54.84517,0.0],[23.93612,54.84524,0.0],[23.93578,54.8456,0.0],[23.93526,54.84612,0.0],[23.93532,54.84631,0.0],[23.93532,54.84651,0.0],[23.93527,54.84665,0.0],[23.93501,54.84683,0.0],[23.93476,54.84693,0.0],[23.9343,54.84697,0.0],[23.93313,54.84707,0.0],[23.93262,54.84701,0.0],[23.93229,54.84691,0.0],[23.93173,54.84663,0.0],[23.93116,54.84658,0.0],[23.9307,54.84672,0.0],[23.93042,54.84687,0.0],[23.93024,54.84705,0.0],[23.93007,54.84737,0.0],[23.92997,54.84775,0.0],[23.92993,54.84796,0.0],[23.92988,54.84817,0.0],[23.92982,54.84848,0.0],[23.9298,54.84883,0.0],[23.92984,54.84901,0.0],[23.9299,54.84912,0.0],[23.9301,54.84937,0.0],[23.93043,54.8496,0.0],[23.93094,54.84984,0.0],[23.93145,54.85,0.0],[23.9321,54.85012,0.0],[23.93276,54.85021,0.0],[23.93316,54.8502,0.0],[23.93355,54.85015,0.0],[23.93404,54.85003,0.0],[23.93445,54.84983,0.0],[23.93468,54.84972,0.0],[23.93483,54.84961,0.0],[23.93498,54.84951,0.0],[23.93517,54.84941,0.0],[23.93545,54.84938,0.0],[23.93561,54.84942,0.0],[23.93568,54.84949,0.0],[23.93578,54.84961,0.0],[23.93586,54.8498,0.0],[23.93597,54.85005,0.0],[23.93596,54.85015,0.0],[23.93602,54.85023,0.0],[23.93625,54.85035,0.0],[23.93646,54.85044,0.0],[23.93683,54.85054,0.0],[23.93732,54.85063,0.0],[23.93791,54.8507,0.0],[23.93853,54.8508,0.0],[23.93885,54.85086,0.0],[23.93902,54.85093,0.0],[23.93909,54.85105,0.0],[23.93901,54.85153,0.0],[23.93896,54.85167,0.0],[23.93887,54.85177,0.0],[23.93852,54.85199,0.0],[23.93829,54.85213,0.0],[23.93752,54.85264,0.0],[23.93743,54.85269,0.0],[23.93739,54.85281,0.0],[23.93737,54.85295,0.0],[23.93735,54.85316,0.0],[23.93724,54.85342,0.0],[23.93713,54.85348,0.0],[23.93699,54.85353,0.0],[23.93678,54.85357,0.0],[23.93643,54.85358,0.0],[23.9361,54.85354,0.0],[23.93563,54.85344,0.0],[23.93511,54.85314,0.0],[23.93471,54.85291,0.0],[23.93453,54.85279,0.0],[23.93429,54.8527,0.0],[23.93401,54.85265,0.0],[23.93377,54.85265,0.0],[23.93353,54.85269,0.0],[23.93314,54.85284,0.0],[23.93283,54.85298,0.0],[23.93252,54.85309,0.0],[23.93218,54.85316,0.0],[23.93165,54.8535,0.0],[23.9314,54.85374,0.0],[23.93124,54.85393,0.0],[23.93107,54.85417,0.0],[23.93076,54.85438,0.0],[23.92997,54.85483,0.0],[23.92964,54.85491,0.0],[23.92946,54.8549,0.0],[23.92929,54.85488,0.0],[23.92916,54.85486,0.0],[23.92901,54.85488,0.0],[23.92887,54.85495,0.0],[23.92871,54.85508,0.0],[23.92819,54.8554,0.0],[23.92762,54.85585,0.0],[23.92754,54.856,0.0],[23.92757,54.85618,0.0],[23.9277,54.85636,0.0],[23.92791,54.85645,0.0],[23.92822,54.85649,0.0],[23.92851,54.85648,0.0],[23.92883,54.85643,0.0],[23.92927,54.85628,0.0],[23.92983,54.85611,0.0],[23.92998,54.8561,0.0],[23.93018,54.85613,0.0],[23.93031,54.85616,0.0],[23.93043,54.85624,0.0],[23.93068,54.85645,0.0],[23.93084,54.85661,0.0],[23.93093,54.85674,0.0],[23.93099,54.85688,0.0],[23.93098,54.85714,0.0],[23.93105,54.8573,0.0],[23.93109,54.85737,0.0],[23.93143,54.85762,0.0],[23.93172,54.8578,0.0],[23.93193,54.85788,0.0],[23.93199,54.85799,0.0],[23.93197,54.85825,0.0],[23.93172,54.8588,0.0],[23.93184,54.85913,0.0],[23.93318,54.86019,0.0],[23.93379,54.85996,0.0],[23.93555,54.85954,0.0],[23.93836,54.85906,0.0],[23.94002,54.85887,0.0],[23.94205,54.85882,0.0],[23.94396,54.8589,0.0],[23.94586,54.85917,0.0],[23.94728,54.85943,0.0],[23.94965,54.86003,0.0],[23.95143,54.86076,0.0],[23.95239,54.8615,0.0],[23.95302,54.86243,0.0],[23.9539,54.864,0.0],[23.95446,54.8647,0.0],[23.95531,54.8654,0.0],[23.95624,54.86598,0.0],[23.95754,54.86668,0.0],[23.95854,54.86729,0.0],[23.95938,54.86799,0.0],[23.96022,54.8689,0.0],[23.96068,54.86938,0.0],[23.96206,54.87148,0.0],[23.96298,54.87316,0.0],[23.96334,54.87414,0.0],[23.96342,54.87528,0.0],[23.96317,54.87642,0.0],[23.96258,54.8775,0.0],[23.9614,54.87886,0.0],[23.95942,54.8815,0.0],[23.9587,54.88282,0.0],[23.95817,54.88399,0.0],[23.95795,54.88548,0.0],[23.95807,54.88696,0.0],[23.95845,54.88852,0.0],[23.95899,54.88985,0.0],[23.95997,54.8911,0.0],[23.96119,54.89195,0.0],[23.96227,54.89243,0.0],[23.96392,54.89304,0.0],[23.96588,54.89365,0.0],[23.9674,54.89406,0.0],[23.96903,54.89441,0.0],[23.97038,54.89459,0.0],[23.97201,54.89464,0.0],[23.97404,54.89458,0.0],[23.97597,54.89433,0.0],[23.97779,54.894,0.0],[23.97955,54.89358,0.0],[23.98124,54.89301,0.0],[23.98296,54.89219,0.0],[23.98529,54.89082,0.0],[23.98668,54.88986,0.0],[23.98777,54.88898,0.0],[23.98863,54.88802,0.0],[23.98914,54.88722,0.0],[23.98944,54.88648,0.0],[23.98964,54.88583,0.0],[23.98996,54.8853,0.0],[23.99032,54.88464,0.0],[23.99187,54.88061,0.0],[23.99278,54.87931,0.0],[23.99384,54.87823,0.0],[23.99525,54.87734,0.0],[23.99684,54.87646,0.0],[23.99775,54.87595,0.0],[23.99855,54.8755,0.0],[23.99997,54.87463,0.0],[24.0004,54.87424,0.0],[24.00372,54.87167,0.0],[24.00911,54.86859,0.0],[24.0151,54.86572,0.0],[24.0203,54.86428,0.0],[24.01522,54.85823,0.0],[24.01427,54.85698,0.0],[24.01419,54.85684,0.0],[24.01631,54.85587,0.0],[24.01817,54.85454,0.0],[24.01933,54.85347,0.0],[24.02111,54.85306,0.0],[24.026,54.85343,0.0],[24.03324,54.85168,0.0],[24.03569,54.84981,0.0],[24.03212,54.84948,0.0],[24.03188,54.84929,0.0],[24.03247,54.84907,0.0],[24.04174,54.84406,0.0],[24.04005,54.84302,0.0],[24.0384,54.84326,0.0],[24.03745,54.84242,0.0],[24.03714,54.84233,0.0],[24.03652,54.84184,0.0],[24.03647,54.84167,0.0],[24.03628,54.84151,0.0],[24.03639,54.84131,0.0],[24.03537,54.84063,0.0],[24.03464,54.84094,0.0],[24.02683,54.83524,0.0],[24.02614,54.83558,0.0],[24.01085,54.84267,0.0],[24.0073,54.84183,0.0],[24.00527,54.84161,0.0],[23.99798,54.84003,0.0],[23.99687,54.83941,0.0],[23.99582,54.83881,0.0],[23.99434,54.83788,0.0],[23.99423,54.83782,0.0],[23.99374,54.83781,0.0],[23.99362,54.8378,0.0],[23.99196,54.83741,0.0],[23.99141,54.83714,0.0],[23.99113,54.83652,0.0],[23.99112,54.8359,0.0],[23.98953,54.83543,0.0],[23.98842,54.8344,0.0],[23.98834,54.83431,0.0],[23.98831,54.83427,0.0],[23.98809,54.83416,0.0],[23.98798,54.83413,0.0],[23.9877,54.83408,0.0],[23.98726,54.8341,0.0],[23.98625,54.8346,0.0],[23.98334,54.83476,0.0],[23.98285,54.83496,0.0],[23.98345,54.8356,0.0],[23.98318,54.83567,0.0],[23.98136,54.83564,0.0],[23.97949,54.83565,0.0],[23.97631,54.83595,0.0],[23.97587,54.83683,0.0],[23.975,54.83791,0.0],[23.97161,54.84141,0.0],[23.9704,54.84264,0.0],[23.96914,54.84395,0.0],[23.96658,54.84111,0.0],[23.96471,54.8401,0.0],[23.96213,54.83869,0.0],[23.9624,54.83826,0.0],[23.95853,54.83613,0.0],[23.947,54.83262,0.0],[23.9448,54.83182,0.0],[23.94353,54.83118,0.0],[23.94215,54.83023,0.0],[23.94051,54.83056,0.0],[23.94013,54.83031,0.0],[23.94092,54.82995,0.0],[23.94023,54.82886,0.0],[23.93907,54.82779,0.0],[23.93921,54.82755,0.0],[23.93715,54.82629,0.0],[23.93593,54.82574,0.0],[23.93511,54.82559,0.0],[23.92972,54.82336,0.0],[23.92954,54.8231,0.0],[23.92852,54.82271,0.0],[23.92585,54.82169,0.0],[23.92546,54.82144,0.0],[23.92226,54.82075,0.0],[23.92455,54.82205,0.0],[23.93034,54.82472,0.0],[23.93208,54.82581,0.0],[23.93356,54.82702,0.0],[23.93394,54.82716,0.0],[23.93482,54.8287,0.0],[23.93534,54.82975,0.0],[23.93556,54.83076,0.0],[23.93517,54.83517,0.0],[23.93567,54.83564,0.0],[23.93531,54.83626,0.0]]]]}},{"type":"Feature","properties":{"uesi_id":"LTU_R1567544","nbhd_code":"LTU_R1567544_7","nbhd_name":"\u0160ilaini\u0173 seni\u016bnija"},"geometry":{"type":"MultiPolygon","coordinates":[[[[23.92619,54.95695,0.0],[23.92461,54.9563,0.0],[23.92336,54.95535,0.0],[23.92077,54.95318,0.0],[23.91918,54.95167,0.0],[23.91774,54.95019,0.0],[23.91768,54.95013,0.0],[23.91612,54.94841,0.0],[23.91519,54.94726,0.0],[23.91448,54.94607,0.0],[23.91288,54.94237,0.0],[23.913,54.94101,0.0],[23.91337,54.93978,0.0],[23.91359,54.93876,0.0],[23.91315,54.93651,0.0],[23.90797,54.93682,0.0],[23.90804,54.93473,0.0],[23.9068,54.93259,0.0],[23.90291,54.92853,0.0],[23.8983,54.92399,0.0],[23.89803,54.92376,0.0],[23.89664,54.92278,0.0],[23.89609,54.92239,0.0],[23.89536,54.92192,0.0],[23.89467,54.92154,0.0],[23.89342,54.92122,0.0],[23.89309,54.92113,0.0],[23.88991,54.91741,0.0],[23.88848,54.91595,0.0],[23.88479,54.91483,0.0],[23.88145,54.91367,0.0],[23.87914,54.91323,0.0],[23.87718,54.91286,0.0],[23.87687,54.91353,0.0],[23.87668,54.91362,0.0],[23.87595,54.91357,0.0],[23.87572,54.91366,0.0],[23.87547,54.9146,0.0],[23.87494,54.91517,0.0],[23.87373,54.91536,0.0],[23.87359,54.91558,0.0],[23.87355,54.91611,0.0],[23.87393,54.91642,0.0],[23.87542,54.91709,0.0],[23.87415,54.91781,0.0],[23.87237,54.91703,0.0],[23.87123,54.91654,0.0],[23.87031,54.91619,0.0],[23.86953,54.91603,0.0],[23.86818,54.91586,0.0],[23.86661,54.91578,0.0],[23.86412,54.91577,0.0],[23.86235,54.91603,0.0],[23.86209,54.91601,0.0],[23.86193,54.9155,0.0],[23.85931,54.91548,0.0],[23.85936,54.91497,0.0],[23.85564,54.91386,0.0],[23.85224,54.9146,0.0],[23.85021,54.91589,0.0],[23.84922,54.91613,0.0],[23.8456,54.91569,0.0],[23.84255,54.91609,0.0],[23.83863,54.91685,0.0],[23.83563,54.91839,0.0],[23.83448,54.91921,0.0],[23.83311,54.92019,0.0],[23.8305,54.9211,0.0],[23.82384,54.92398,0.0],[23.82164,54.92471,0.0],[23.81673,54.92541,0.0],[23.81374,54.92497,0.0],[23.81091,54.92453,0.0],[23.8092,54.92393,0.0],[23.80732,54.9233,0.0],[23.80283,54.92263,0.0],[23.80041,54.9226,0.0],[23.79796,54.92255,0.0],[23.79619,54.92302,0.0],[23.79497,54.92389,0.0],[23.79415,54.92517,0.0],[23.79341,54.92608,0.0],[23.79325,54.92627,0.0],[23.79298,54.92738,0.0],[23.79279,54.92802,0.0],[23.79292,54.92803,0.0],[23.79311,54.92857,0.0],[23.79332,54.92911,0.0],[23.79367,54.93015,0.0],[23.79378,54.93044,0.0],[23.79421,54.9314,0.0],[23.79528,54.93317,0.0],[23.79537,54.93345,0.0],[23.79548,54.93396,0.0],[23.79561,54.93437,0.0],[23.79652,54.93638,0.0],[23.79679,54.93901,0.0],[23.79675,54.94045,0.0],[23.79678,54.941,0.0],[23.79695,54.94199,0.0],[23.7975,54.94356,0.0],[23.79781,54.94423,0.0],[23.7994,54.94867,0.0],[23.80204,54.95398,0.0],[23.8031,54.95519,0.0],[23.8035,54.95584,0.0],[23.80374,54.95627,0.0],[23.80409,54.957,0.0],[23.80424,54.9565,0.0],[23.80423,54.95634,0.0],[23.80413,54.95469,0.0],[23.80414,54.95459,0.0],[23.80416,54.95448,0.0],[23.8042,54.95436,0.0],[23.80477,54.95366,0.0],[23.80531,54.95301,0.0],[23.80591,54.95231,0.0],[23.80641,54.95171,0.0],[23.80658,54.95152,0.0],[23.80708,54.95094,0.0],[23.80749,54.95045,0.0],[23.8076,54.95032,0.0],[23.80801,54.94986,0.0],[23.80866,54.94909,0.0],[23.80882,54.94891,0.0],[23.80918,54.94848,0.0],[23.80971,54.94786,0.0],[23.81201,54.94517,0.0],[23.81328,54.94539,0.0],[23.81589,54.94584,0.0],[23.8181,54.94623,0.0],[23.81852,54.94631,0.0],[23.82857,54.94807,0.0],[23.82887,54.94336,0.0],[23.82889,54.94305,0.0],[23.82893,54.94267,0.0],[23.82897,54.94221,0.0],[23.82901,54.94182,0.0],[23.82901,54.94179,0.0],[23.82904,54.9415,0.0],[23.8384,54.94151,0.0],[23.83837,54.94121,0.0],[23.84386,54.94129,0.0],[23.84605,54.94136,0.0],[23.85088,54.94142,0.0],[23.85565,54.9415,0.0],[23.85574,54.9415,0.0],[23.8564,54.94079,0.0],[23.8608,54.9425,0.0],[23.86498,54.94417,0.0],[23.86557,54.94563,0.0],[23.86597,54.94584,0.0],[23.86703,54.94644,0.0],[23.86874,54.94664,0.0],[23.87045,54.94684,0.0],[23.87481,54.9464,0.0],[23.87519,54.94655,0.0],[23.87545,54.94665,0.0],[23.87575,54.94677,0.0],[23.87599,54.94687,0.0],[23.87879,54.94745,0.0],[23.87747,54.94898,0.0],[23.87851,54.95027,0.0],[23.88068,54.95314,0.0],[23.88098,54.95307,0.0],[23.88155,54.9532,0.0],[23.88198,54.95346,0.0],[23.88224,54.95334,0.0],[23.88274,54.95347,0.0],[23.88675,54.95444,0.0],[23.88701,54.95404,0.0],[23.88678,54.95398,0.0],[23.88713,54.95345,0.0],[23.88752,54.95348,0.0],[23.88756,54.95315,0.0],[23.88797,54.95236,0.0],[23.89024,54.95046,0.0],[23.89105,54.95106,0.0],[23.89115,54.95142,0.0],[23.89152,54.95157,0.0],[23.89272,54.95166,0.0],[23.89552,54.95321,0.0],[23.89653,54.95381,0.0],[23.90131,54.9512,0.0],[23.90214,54.95191,0.0],[23.90226,54.95199,0.0],[23.90605,54.9545,0.0],[23.90752,54.95548,0.0],[23.91025,54.9575,0.0],[23.9135,54.95956,0.0],[23.91821,54.95828,0.0],[23.91909,54.95833,0.0],[23.91944,54.95855,0.0],[23.91973,54.95837,0.0],[23.92093,54.95893,0.0],[23.92161,54.95886,0.0],[23.92153,54.95914,0.0],[23.92196,54.95917,0.0],[23.92206,54.95915,0.0],[23.92227,54.95905,0.0],[23.92247,54.959,0.0],[23.92264,54.95892,0.0],[23.9227,54.95886,0.0],[23.92323,54.95862,0.0],[23.92373,54.95846,0.0],[23.92426,54.95819,0.0],[23.92451,54.95796,0.0],[23.92545,54.9576,0.0],[23.92575,54.95752,0.0],[23.92619,54.95695,0.0]]]]}},{"type":"Feature","properties":{"uesi_id":"LTU_R1567544","nbhd_code":"LTU_R1567544_8","nbhd_name":"Vilijampol\u0117s seni\u016bnija"},"geometry":{"type":"MultiPolygon","coordinates":[[[[23.82322,54.90596,0.0],[23.81887,54.90615,0.0],[23.81611,54.90635,0.0],[23.81282,54.90679,0.0],[23.81033,54.90722,0.0],[23.80774,54.90802,0.0],[23.80557,54.90894,0.0],[23.80355,54.90993,0.0],[23.80063,54.91139,0.0],[23.79782,54.91279,0.0],[23.79552,54.91361,0.0],[23.79358,54.91417,0.0],[23.79123,54.91471,0.0],[23.78794,54.91568,0.0],[23.78531,54.91668,0.0],[23.78011,54.91913,0.0],[23.7769,54.9207,0.0],[23.77339,54.92254,0.0],[23.77097,54.92417,0.0],[23.76796,54.92599,0.0],[23.76533,54.92739,0.0],[23.76265,54.92861,0.0],[23.76007,54.92949,0.0],[23.75731,54.93023,0.0],[23.75357,54.931,0.0],[23.75353,54.93101,0.0],[23.7536,54.93105,0.0],[23.75396,54.9312,0.0],[23.7552,54.93174,0.0],[23.75671,54.93209,0.0],[23.75978,54.9324,0.0],[23.76085,54.93243,0.0],[23.76251,54.93233,0.0],[23.76349,54.93225,0.0],[23.76452,54.93211,0.0],[23.76835,54.93125,0.0],[23.77363,54.92986,0.0],[23.77843,54.92922,0.0],[23.77944,54.92903,0.0],[23.7799,54.9289,0.0],[23.78042,54.92861,0.0],[23.78111,54.92776,0.0],[23.78164,54.92721,0.0],[23.78237,54.92684,0.0],[23.78333,54.92642,0.0],[23.78397,54.92623,0.0],[23.7848,54.92604,0.0],[23.78589,54.92599,0.0],[23.78681,54.92624,0.0],[23.7878,54.92681,0.0],[23.79053,54.92911,0.0],[23.79237,54.92836,0.0],[23.79267,54.92802,0.0],[23.79279,54.92802,0.0],[23.79298,54.92738,0.0],[23.79325,54.92627,0.0],[23.79341,54.92608,0.0],[23.79415,54.92517,0.0],[23.79497,54.92389,0.0],[23.79619,54.92302,0.0],[23.79796,54.92255,0.0],[23.80041,54.9226,0.0],[23.80283,54.92263,0.0],[23.80732,54.9233,0.0],[23.8092,54.92393,0.0],[23.81091,54.92453,0.0],[23.81374,54.92497,0.0],[23.81673,54.92541,0.0],[23.82164,54.92471,0.0],[23.82384,54.92398,0.0],[23.8305,54.9211,0.0],[23.83311,54.92019,0.0],[23.83448,54.91921,0.0],[23.83563,54.91839,0.0],[23.83863,54.91685,0.0],[23.84255,54.91609,0.0],[23.8456,54.91569,0.0],[23.84922,54.91613,0.0],[23.85021,54.91589,0.0],[23.85224,54.9146,0.0],[23.85564,54.91386,0.0],[23.85936,54.91497,0.0],[23.85931,54.91548,0.0],[23.86193,54.9155,0.0],[23.86209,54.91601,0.0],[23.86235,54.91603,0.0],[23.86412,54.91577,0.0],[23.86661,54.91578,0.0],[23.86818,54.91586,0.0],[23.86953,54.91603,0.0],[23.87031,54.91619,0.0],[23.87123,54.91654,0.0],[23.87237,54.91703,0.0],[23.87415,54.91781,0.0],[23.87542,54.91709,0.0],[23.87393,54.91642,0.0],[23.87355,54.91611,0.0],[23.87359,54.91558,0.0],[23.87373,54.91536,0.0],[23.87494,54.91517,0.0],[23.87547,54.9146,0.0],[23.87572,54.91366,0.0],[23.87595,54.91357,0.0],[23.87668,54.91362,0.0],[23.87687,54.91353,0.0],[23.87718,54.91286,0.0],[23.87914,54.91323,0.0],[23.88145,54.91367,0.0],[23.88479,54.91483,0.0],[23.88848,54.91595,0.0],[23.88991,54.91741,0.0],[23.89309,54.92113,0.0],[23.89342,54.92122,0.0],[23.89467,54.92154,0.0],[23.89536,54.92192,0.0],[23.89609,54.92239,0.0],[23.89664,54.92278,0.0],[23.89803,54.92376,0.0],[23.8983,54.92399,0.0],[23.90291,54.92853,0.0],[23.9068,54.93259,0.0],[23.90804,54.93473,0.0],[23.90797,54.93682,0.0],[23.91315,54.93651,0.0],[23.9128,54.93459,0.0],[23.91261,54.93191,0.0],[23.91228,54.92664,0.0],[23.91236,54.92532,0.0],[23.91237,54.92382,0.0],[23.91196,54.92271,0.0],[23.90943,54.91649,0.0],[23.90947,54.91419,0.0],[23.9089,54.91287,0.0],[23.9075,54.91151,0.0],[23.90592,54.91059,0.0],[23.9036,54.90967,0.0],[23.90101,54.90864,0.0],[23.8985,54.90758,0.0],[23.89625,54.90678,0.0],[23.89161,54.90362,0.0],[23.89089,54.90319,0.0],[23.88941,54.90235,0.0],[23.88812,54.90167,0.0],[23.88659,54.90128,0.0],[23.88192,54.90048,0.0],[23.87976,54.90023,0.0],[23.87812,54.90011,0.0],[23.87654,54.9001,0.0],[23.87456,54.90012,0.0],[23.87233,54.90035,0.0],[23.87036,54.90055,0.0],[23.86936,54.90088,0.0],[23.86782,54.90151,0.0],[23.86616,54.90232,0.0],[23.86438,54.90304,0.0],[23.86089,54.90401,0.0],[23.85868,54.90463,0.0],[23.85628,54.90516,0.0],[23.85446,54.90556,0.0],[23.8522,54.90588,0.0],[23.849,54.90599,0.0],[23.8455,54.9061,0.0],[23.84306,54.90635,0.0],[23.84104,54.90672,0.0],[23.83909,54.90698,0.0],[23.83715,54.907,0.0],[23.83488,54.9067,0.0],[23.83073,54.90595,0.0],[23.82936,54.90575,0.0],[23.82705,54.90571,0.0],[23.82453,54.90592,0.0],[23.82322,54.90596,0.0]]]]}},{"type":"Feature","properties":{"uesi_id":"LTU_R1567544","nbhd_code":"LTU_R1567544_9","nbhd_name":"\u017daliakalnio seni\u016bnija"},"geometry":{"type":"MultiPolygon","coordinates":[[[[23.89766,54.90077,0.0],[23.89761,54.90081,0.0],[23.89748,54.90108,0.0],[23.89675,54.90121,0.0],[23.89617,54.90154,0.0],[23.89576,54.90176,0.0],[23.8949,54.90135,0.0],[23.89428,54.90145,0.0],[23.8942,54.90148,0.0],[23.89402,54.90161,0.0],[23.894,54.90162,0.0],[23.89398,54.9017,0.0],[23.89394,54.90176,0.0],[23.89388,54.90182,0.0],[23.89375,54.9019,0.0],[23.89356,54.90202,0.0],[23.89347,54.90205,0.0],[23.89306,54.90224,0.0],[23.89284,54.90234,0.0],[23.89089,54.90319,0.0],[23.89161,54.90362,0.0],[23.89625,54.90678,0.0],[23.8985,54.90758,0.0],[23.90101,54.90864,0.0],[23.9036,54.90967,0.0],[23.90592,54.91059,0.0],[23.9075,54.91151,0.0],[23.9089,54.91287,0.0],[23.90947,54.91419,0.0],[23.90943,54.91649,0.0],[23.91196,54.92271,0.0],[23.91237,54.92382,0.0],[23.91236,54.92532,0.0],[23.91929,54.92451,0.0],[23.91928,54.92449,0.0],[23.92007,54.92442,0.0],[23.92056,54.92437,0.0],[23.92089,54.92434,0.0],[23.92155,54.92427,0.0],[23.92163,54.92426,0.0],[23.92162,54.92421,0.0],[23.92159,54.92406,0.0],[23.92152,54.92348,0.0],[23.92216,54.92345,0.0],[23.92215,54.9234,0.0],[23.92211,54.92312,0.0],[23.92206,54.92278,0.0],[23.92205,54.92267,0.0],[23.92254,54.92262,0.0],[23.92286,54.92258,0.0],[23.92316,54.92254,0.0],[23.92322,54.92253,0.0],[23.92345,54.92249,0.0],[23.92364,54.92247,0.0],[23.92433,54.92237,0.0],[23.92511,54.92224,0.0],[23.92658,54.92202,0.0],[23.92713,54.92194,0.0],[23.92747,54.92189,0.0],[23.92808,54.92179,0.0],[23.92823,54.92177,0.0],[23.92829,54.92213,0.0],[23.92832,54.92235,0.0],[23.92833,54.92242,0.0],[23.92835,54.92256,0.0],[23.92835,54.9226,0.0],[23.92837,54.92271,0.0],[23.92849,54.92359,0.0],[23.9285,54.92364,0.0],[23.92851,54.92372,0.0],[23.92853,54.92381,0.0],[23.92854,54.92391,0.0],[23.92878,54.92388,0.0],[23.92888,54.92386,0.0],[23.93063,54.9236,0.0],[23.93074,54.92359,0.0],[23.93087,54.92357,0.0],[23.93249,54.92333,0.0],[23.93293,54.92326,0.0],[23.93343,54.92318,0.0],[23.93371,54.92313,0.0],[23.93382,54.92335,0.0],[23.93418,54.92404,0.0],[23.9361,54.92375,0.0],[23.93745,54.92355,0.0],[23.93841,54.9234,0.0],[23.93859,54.92339,0.0],[23.93871,54.92343,0.0],[23.93891,54.92326,0.0],[23.93905,54.92318,0.0],[23.93916,54.92312,0.0],[23.93926,54.92308,0.0],[23.93911,54.92294,0.0],[23.93897,54.92282,0.0],[23.93865,54.92249,0.0],[23.93854,54.92234,0.0],[23.93859,54.92234,0.0],[23.93866,54.92233,0.0],[23.93869,54.92232,0.0],[23.93886,54.9223,0.0],[23.93931,54.92224,0.0],[23.93991,54.92215,0.0],[23.94051,54.92207,0.0],[23.94137,54.92195,0.0],[23.94225,54.92182,0.0],[23.94284,54.92174,0.0],[23.94343,54.92165,0.0],[23.94374,54.92157,0.0],[23.94398,54.92153,0.0],[23.9443,54.9215,0.0],[23.94456,54.92147,0.0],[23.94468,54.92147,0.0],[23.94501,54.92141,0.0],[23.94597,54.92129,0.0],[23.94823,54.92096,0.0],[23.94868,54.92062,0.0],[23.9493,54.92016,0.0],[23.94946,54.92005,0.0],[23.94963,54.91993,0.0],[23.95043,54.91934,0.0],[23.95057,54.91924,0.0],[23.95097,54.91894,0.0],[23.95114,54.9188,0.0],[23.95088,54.91868,0.0],[23.95067,54.91859,0.0],[23.95026,54.9184,0.0],[23.95003,54.9183,0.0],[23.94994,54.91826,0.0],[23.94943,54.91802,0.0],[23.94919,54.91791,0.0],[23.94902,54.91783,0.0],[23.94809,54.91741,0.0],[23.9474,54.9171,0.0],[23.94731,54.91706,0.0],[23.94724,54.91702,0.0],[23.94709,54.91696,0.0],[23.94694,54.91689,0.0],[23.94683,54.91684,0.0],[23.94601,54.91647,0.0],[23.94573,54.91634,0.0],[23.94508,54.91605,0.0],[23.94471,54.91588,0.0],[23.94405,54.91557,0.0],[23.94391,54.91551,0.0],[23.94319,54.91518,0.0],[23.94312,54.91515,0.0],[23.94291,54.91506,0.0],[23.94205,54.91467,0.0],[23.9416,54.91447,0.0],[23.94139,54.91437,0.0],[23.94078,54.91409,0.0],[23.94057,54.91399,0.0],[23.94043,54.91393,0.0],[23.9398,54.91364,0.0],[23.93881,54.91319,0.0],[23.93862,54.91311,0.0],[23.93816,54.9129,0.0],[23.93737,54.91254,0.0],[23.9364,54.91209,0.0],[23.93631,54.91205,0.0],[23.93787,54.9117,0.0],[23.93866,54.91152,0.0],[23.93905,54.91145,0.0],[23.93956,54.91137,0.0],[23.94008,54.91132,0.0],[23.94048,54.91131,0.0],[23.94186,54.91128,0.0],[23.94201,54.91128,0.0],[23.94233,54.91128,0.0],[23.94233,54.91122,0.0],[23.94232,54.91112,0.0],[23.94232,54.9111,0.0],[23.94222,54.91077,0.0],[23.94221,54.91074,0.0],[23.94214,54.91053,0.0],[23.94212,54.91046,0.0],[23.94204,54.9102,0.0],[23.942,54.91005,0.0],[23.94177,54.90931,0.0],[23.94175,54.90925,0.0],[23.94169,54.90906,0.0],[23.9415,54.90847,0.0],[23.94149,54.9084,0.0],[23.9415,54.90821,0.0],[23.9417,54.90805,0.0],[23.94259,54.90763,0.0],[23.94268,54.90758,0.0],[23.94358,54.90715,0.0],[23.9437,54.90709,0.0],[23.94414,54.90689,0.0],[23.94475,54.9066,0.0],[23.94478,54.90658,0.0],[23.94494,54.90651,0.0],[23.94524,54.90636,0.0],[23.94559,54.90619,0.0],[23.94596,54.90602,0.0],[23.9462,54.9059,0.0],[23.94641,54.9058,0.0],[23.94712,54.90547,0.0],[23.94715,54.90545,0.0],[23.94752,54.90528,0.0],[23.94804,54.90503,0.0],[23.94808,54.90501,0.0],[23.94839,54.90486,0.0],[23.94854,54.90479,0.0],[23.9486,54.90477,0.0],[23.94865,54.90475,0.0],[23.94891,54.90464,0.0],[23.94924,54.90447,0.0],[23.94931,54.90442,0.0],[23.94936,54.90436,0.0],[23.94941,54.90427,0.0],[23.94944,54.90416,0.0],[23.94946,54.90408,0.0],[23.94947,54.90402,0.0],[23.94962,54.90324,0.0],[23.94963,54.90313,0.0],[23.94966,54.90295,0.0],[23.94969,54.90275,0.0],[23.94994,54.90115,0.0],[23.94998,54.90091,0.0],[23.95,54.90051,0.0],[23.95001,54.90022,0.0],[23.95008,54.90006,0.0],[23.95027,54.8998,0.0],[23.95031,54.89968,0.0],[23.95034,54.89955,0.0],[23.95034,54.89942,0.0],[23.95026,54.89927,0.0],[23.95012,54.89912,0.0],[23.94998,54.89902,0.0],[23.94848,54.89852,0.0],[23.94829,54.89843,0.0],[23.94811,54.89829,0.0],[23.94797,54.89815,0.0],[23.94791,54.89804,0.0],[23.94788,54.89793,0.0],[23.94788,54.8978,0.0],[23.9479,54.89723,0.0],[23.94794,54.89704,0.0],[23.94803,54.89689,0.0],[23.94824,54.89667,0.0],[23.94897,54.89622,0.0],[23.94908,54.89607,0.0],[23.94914,54.89587,0.0],[23.94912,54.89575,0.0],[23.94907,54.89565,0.0],[23.94882,54.89543,0.0],[23.94876,54.89532,0.0],[23.94875,54.89527,0.0],[23.94861,54.89527,0.0],[23.9481,54.89527,0.0],[23.94755,54.89532,0.0],[23.94672,54.89539,0.0],[23.94593,54.89546,0.0],[23.9457,54.89547,0.0],[23.94553,54.89547,0.0],[23.94526,54.89546,0.0],[23.94507,54.89543,0.0],[23.94448,54.89529,0.0],[23.94414,54.89512,0.0],[23.94374,54.89484,0.0],[23.94355,54.89466,0.0],[23.94345,54.89446,0.0],[23.94342,54.89439,0.0],[23.94332,54.89419,0.0],[23.94325,54.89407,0.0],[23.94323,54.89404,0.0],[23.94322,54.89401,0.0],[23.94306,54.89377,0.0],[23.94286,54.89352,0.0],[23.94229,54.89299,0.0],[23.94171,54.89244,0.0],[23.94091,54.8917,0.0],[23.9405,54.89139,0.0],[23.94018,54.89117,0.0],[23.93847,54.89017,0.0],[23.93839,54.89013,0.0],[23.93823,54.89005,0.0],[23.9367,54.88923,0.0],[23.93482,54.88823,0.0],[23.93435,54.88804,0.0],[23.93416,54.88798,0.0],[23.93395,54.88793,0.0],[23.93359,54.88784,0.0],[23.93373,54.88793,0.0],[23.93403,54.8882,0.0],[23.93425,54.88876,0.0],[23.93418,54.88918,0.0],[23.93417,54.88922,0.0],[23.93405,54.88999,0.0],[23.93403,54.89017,0.0],[23.93473,54.89037,0.0],[23.93538,54.89055,0.0],[23.93525,54.89071,0.0],[23.93522,54.89075,0.0],[23.93519,54.89079,0.0],[23.93457,54.89136,0.0],[23.9343,54.89163,0.0],[23.93409,54.89183,0.0],[23.93392,54.892,0.0],[23.93347,54.89244,0.0],[23.93264,54.89329,0.0],[23.93259,54.89333,0.0],[23.93232,54.89363,0.0],[23.93228,54.89375,0.0],[23.93249,54.89382,0.0],[23.93267,54.89391,0.0],[23.93273,54.89397,0.0],[23.93274,54.89404,0.0],[23.9327,54.8941,0.0],[23.93266,54.89414,0.0],[23.93375,54.89444,0.0],[23.93417,54.89455,0.0],[23.93398,54.89479,0.0],[23.93396,54.89482,0.0],[23.93393,54.89485,0.0],[23.93372,54.89512,0.0],[23.93339,54.89553,0.0],[23.93324,54.89572,0.0],[23.93318,54.8958,0.0],[23.93299,54.89601,0.0],[23.93297,54.89603,0.0],[23.93288,54.89614,0.0],[23.93281,54.89622,0.0],[23.93261,54.89646,0.0],[23.93294,54.89723,0.0],[23.93296,54.89729,0.0],[23.93285,54.89738,0.0],[23.93274,54.89748,0.0],[23.93268,54.89754,0.0],[23.93215,54.8982,0.0],[23.93206,54.89848,0.0],[23.93205,54.8987,0.0],[23.93205,54.89885,0.0],[23.93206,54.89904,0.0],[23.93207,54.89924,0.0],[23.93207,54.89943,0.0],[23.93203,54.89961,0.0],[23.93199,54.89977,0.0],[23.93194,54.89993,0.0],[23.93164,54.90076,0.0],[23.93144,54.90077,0.0],[23.93105,54.9007,0.0],[23.92981,54.90044,0.0],[23.92845,54.90015,0.0],[23.92838,54.90014,0.0],[23.92753,54.89995,0.0],[23.92716,54.90037,0.0],[23.92706,54.90049,0.0],[23.92671,54.90089,0.0],[23.9263,54.90132,0.0],[23.92623,54.90136,0.0],[23.92618,54.90138,0.0],[23.92612,54.9014,0.0],[23.9261,54.90141,0.0],[23.92595,54.90145,0.0],[23.92583,54.90149,0.0],[23.92579,54.90151,0.0],[23.92571,54.90153,0.0],[23.92569,54.90153,0.0],[23.92566,54.90154,0.0],[23.92523,54.90163,0.0],[23.92496,54.90169,0.0],[23.92441,54.9018,0.0],[23.92417,54.90185,0.0],[23.92373,54.90195,0.0],[23.92302,54.90209,0.0],[23.92253,54.90219,0.0],[23.92166,54.90238,0.0],[23.92066,54.90259,0.0],[23.92037,54.90265,0.0],[23.9203,54.90269,0.0],[23.92025,54.90275,0.0],[23.91966,54.90255,0.0],[23.91915,54.90237,0.0],[23.91905,54.90233,0.0],[23.91886,54.90227,0.0],[23.91878,54.90233,0.0],[23.91863,54.90229,0.0],[23.91827,54.90221,0.0],[23.91817,54.90219,0.0],[23.91814,54.90218,0.0],[23.91809,54.90217,0.0],[23.9179,54.90212,0.0],[23.91737,54.902,0.0],[23.91686,54.90187,0.0],[23.91638,54.9018,0.0],[23.91568,54.90173,0.0],[23.91514,54.90181,0.0],[23.91427,54.90216,0.0],[23.91402,54.90227,0.0],[23.91393,54.90238,0.0],[23.91386,54.90246,0.0],[23.91361,54.90277,0.0],[23.91334,54.9031,0.0],[23.913,54.90297,0.0],[23.91284,54.90291,0.0],[23.9126,54.90283,0.0],[23.91226,54.9027,0.0],[23.91219,54.90278,0.0],[23.91214,54.90283,0.0],[23.9117,54.90327,0.0],[23.91156,54.9034,0.0],[23.9115,54.90344,0.0],[23.91144,54.90346,0.0],[23.91135,54.90347,0.0],[23.91127,54.90348,0.0],[23.91092,54.90348,0.0],[23.9105,54.90343,0.0],[23.91036,54.90341,0.0],[23.91004,54.90337,0.0],[23.90986,54.90334,0.0],[23.90969,54.9033,0.0],[23.90954,54.90324,0.0],[23.90948,54.90322,0.0],[23.90856,54.90286,0.0],[23.9081,54.90268,0.0],[23.90785,54.90258,0.0],[23.90763,54.90249,0.0],[23.90732,54.90237,0.0],[23.90708,54.90227,0.0],[23.90682,54.90217,0.0],[23.90651,54.90205,0.0],[23.90624,54.90194,0.0],[23.90616,54.90191,0.0],[23.90586,54.90181,0.0],[23.90538,54.90163,0.0],[23.9052,54.90156,0.0],[23.90509,54.90152,0.0],[23.90501,54.90149,0.0],[23.90484,54.90142,0.0],[23.90446,54.90129,0.0],[23.90364,54.901,0.0],[23.90361,54.90099,0.0],[23.90329,54.90088,0.0],[23.90301,54.90079,0.0],[23.90284,54.90072,0.0],[23.90249,54.90059,0.0],[23.90207,54.90043,0.0],[23.90195,54.90035,0.0],[23.90082,54.89975,0.0],[23.90058,54.89975,0.0],[23.90036,54.89974,0.0],[23.90024,54.89974,0.0],[23.90009,54.89974,0.0],[23.89988,54.89976,0.0],[23.89971,54.8998,0.0],[23.89955,54.89984,0.0],[23.89938,54.89993,0.0],[23.8993,54.90002,0.0],[23.89924,54.90012,0.0],[23.8992,54.90021,0.0],[23.89917,54.90028,0.0],[23.89914,54.90041,0.0],[23.89914,54.90047,0.0],[23.89914,54.90049,0.0],[23.89914,54.90059,0.0],[23.89906,54.90066,0.0],[23.89894,54.90071,0.0],[23.89864,54.90091,0.0],[23.89776,54.90079,0.0],[23.89766,54.90077,0.0]]]]}},{"type":"Feature","properties":{"uesi_id":"LTU_R1567544","nbhd_code":"LTU_R1567544_10","nbhd_name":"Petra\u0161i\u016bn\u0173 seni\u016bnija"},"geometry":{"type":"MultiPolygon","coordinates":[[[[23.97509,54.90191,0.0],[23.97549,54.90221,0.0],[23.97766,54.90382,0.0],[23.9778,54.90393,0.0],[23.97793,54.90403,0.0],[23.97809,54.90415,0.0],[23.97837,54.90433,0.0],[23.97847,54.90439,0.0],[23.97879,54.9046,0.0],[23.97903,54.90483,0.0],[23.97946,54.90512,0.0],[23.97966,54.90526,0.0],[23.97977,54.90534,0.0],[23.97989,54.90548,0.0],[23.97995,54.90557,0.0],[23.97997,54.90561,0.0],[23.98013,54.90583,0.0],[23.98029,54.90607,0.0],[23.98044,54.90629,0.0],[23.98086,54.9069,0.0],[23.9812,54.9074,0.0],[23.98173,54.9082,0.0],[23.98189,54.90842,0.0],[23.98266,54.90948,0.0],[23.98294,54.90996,0.0],[23.98322,54.91037,0.0],[23.98337,54.91059,0.0],[23.98354,54.91078,0.0],[23.98365,54.91095,0.0],[23.98372,54.91106,0.0],[23.9839,54.91131,0.0],[23.98414,54.91169,0.0],[23.98422,54.91181,0.0],[23.98438,54.91204,0.0],[23.98475,54.91261,0.0],[23.98479,54.91266,0.0],[23.98517,54.91321,0.0],[23.98521,54.91326,0.0],[23.98532,54.91344,0.0],[23.98541,54.91359,0.0],[23.98543,54.9137,0.0],[23.98546,54.91381,0.0],[23.98547,54.91393,0.0],[23.98549,54.91441,0.0],[23.98549,54.91451,0.0],[23.98551,54.91479,0.0],[23.98552,54.91508,0.0],[23.98552,54.91523,0.0],[23.98554,54.91549,0.0],[23.98556,54.91568,0.0],[23.98557,54.91576,0.0],[23.98559,54.916,0.0],[23.9856,54.91616,0.0],[23.98565,54.91636,0.0],[23.98568,54.91649,0.0],[23.98575,54.91669,0.0],[23.9858,54.91675,0.0],[23.98583,54.91683,0.0],[23.98593,54.91696,0.0],[23.98597,54.91701,0.0],[23.98604,54.91709,0.0],[23.9861,54.91714,0.0],[23.98614,54.91718,0.0],[23.98636,54.91733,0.0],[23.98656,54.91743,0.0],[23.98706,54.91767,0.0],[23.98796,54.91807,0.0],[23.98897,54.91839,0.0],[23.98944,54.91852,0.0],[23.99003,54.91865,0.0],[23.99053,54.91872,0.0],[23.99102,54.91875,0.0],[23.99151,54.91879,0.0],[23.99172,54.9188,0.0],[23.99184,54.9188,0.0],[23.99465,54.91875,0.0],[23.99573,54.91873,0.0],[23.99646,54.91873,0.0],[23.99713,54.91872,0.0],[23.99837,54.91869,0.0],[23.99838,54.91877,0.0],[23.9984,54.91889,0.0],[23.9984,54.91891,0.0],[23.99843,54.91931,0.0],[23.99846,54.9198,0.0],[23.99847,54.91986,0.0],[23.99851,54.92055,0.0],[23.99853,54.92086,0.0],[23.99855,54.92116,0.0],[23.99858,54.9217,0.0],[23.99859,54.92202,0.0],[23.99859,54.9221,0.0],[23.9986,54.92231,0.0],[23.99862,54.92267,0.0],[23.99865,54.92317,0.0],[23.99866,54.92338,0.0],[23.99868,54.92362,0.0],[23.99869,54.92384,0.0],[23.99874,54.92463,0.0],[23.99878,54.92524,0.0],[23.99878,54.92531,0.0],[23.99878,54.92542,0.0],[23.99884,54.92643,0.0],[23.99884,54.92653,0.0],[23.99886,54.92683,0.0],[23.99887,54.9271,0.0],[23.99886,54.92731,0.0],[23.99884,54.92742,0.0],[23.99882,54.9275,0.0],[23.99878,54.92763,0.0],[23.99873,54.92777,0.0],[23.99867,54.92789,0.0],[23.99879,54.92792,0.0],[23.999,54.92798,0.0],[23.99981,54.92829,0.0],[24.0002,54.9285,0.0],[24.00036,54.92861,0.0],[24.0035,54.93036,0.0],[24.00639,54.93016,0.0],[24.0083,54.93,0.0],[24.00949,54.92993,0.0],[24.01166,54.92981,0.0],[24.01193,54.92974,0.0],[24.01293,54.9297,0.0],[24.01392,54.9296,0.0],[24.01403,54.92959,0.0],[24.01493,54.92959,0.0],[24.01604,54.92956,0.0],[24.01736,54.92947,0.0],[24.01767,54.92946,0.0],[24.02241,54.92912,0.0],[24.02707,54.92878,0.0],[24.03182,54.92847,0.0],[24.04096,54.92781,0.0],[24.04256,54.92766,0.0],[24.04392,54.92756,0.0],[24.04497,54.92749,0.0],[24.04569,54.92739,0.0],[24.04586,54.92737,0.0],[24.04693,54.92716,0.0],[24.0471,54.92709,0.0],[24.04765,54.9268,0.0],[24.04784,54.92665,0.0],[24.04834,54.9262,0.0],[24.04853,54.92601,0.0],[24.04873,54.92581,0.0],[24.04892,54.9256,0.0],[24.04905,54.92541,0.0],[24.04919,54.92519,0.0],[24.04926,54.92495,0.0],[24.04929,54.92474,0.0],[24.04929,54.9244,0.0],[24.04918,54.92402,0.0],[24.04904,54.92376,0.0],[24.0489,54.92356,0.0],[24.04864,54.92329,0.0],[24.04856,54.92321,0.0],[24.04911,54.92309,0.0],[24.05121,54.9245,0.0],[24.05334,54.92593,0.0],[24.05381,54.92615,0.0],[24.05439,54.92651,0.0],[24.05489,54.92667,0.0],[24.05538,54.92673,0.0],[24.05674,54.92675,0.0],[24.0571,54.92672,0.0],[24.05777,54.92669,0.0],[24.05844,54.92662,0.0],[24.05927,54.92653,0.0],[24.05986,54.9265,0.0],[24.06012,54.92651,0.0],[24.06117,54.92642,0.0],[24.0621,54.9264,0.0],[24.06669,54.92606,0.0],[24.06777,54.92593,0.0],[24.06861,54.92584,0.0],[24.06951,54.92568,0.0],[24.0699,54.92552,0.0],[24.07152,54.92518,0.0],[24.07298,54.92471,0.0],[24.07319,54.92464,0.0],[24.07402,54.92433,0.0],[24.07574,54.92357,0.0],[24.07578,54.92358,0.0],[24.07726,54.92292,0.0],[24.07763,54.92274,0.0],[24.07839,54.92237,0.0],[24.0788,54.92219,0.0],[24.0792,54.92218,0.0],[24.07961,54.922,0.0],[24.08005,54.92181,0.0],[24.08023,54.92161,0.0],[24.08111,54.92119,0.0],[24.08198,54.92078,0.0],[24.08245,54.92055,0.0],[24.08276,54.92036,0.0],[24.0833,54.92016,0.0],[24.0838,54.91985,0.0],[24.08413,54.91974,0.0],[24.08522,54.91928,0.0],[24.08646,54.91884,0.0],[24.08901,54.91766,0.0],[24.09222,54.9162,0.0],[24.09297,54.91588,0.0],[24.09393,54.91544,0.0],[24.09422,54.9153,0.0],[24.09509,54.9149,0.0],[24.097,54.91405,0.0],[24.09959,54.91295,0.0],[24.09974,54.91289,0.0],[24.09981,54.91287,0.0],[24.1001,54.91275,0.0],[24.10017,54.91273,0.0],[24.10038,54.91264,0.0],[24.09881,54.91173,0.0],[24.09866,54.91182,0.0],[24.09849,54.91187,0.0],[24.09836,54.91189,0.0],[24.09821,54.91189,0.0],[24.09808,54.91188,0.0],[24.0979,54.91184,0.0],[24.09774,54.91181,0.0],[24.09753,54.91181,0.0],[24.09725,54.91185,0.0],[24.09686,54.91196,0.0],[24.09647,54.91208,0.0],[24.09581,54.91231,0.0],[24.09408,54.913,0.0],[24.09223,54.91367,0.0],[24.09163,54.91385,0.0],[24.09107,54.91397,0.0],[24.09069,54.91403,0.0],[24.08996,54.91411,0.0],[24.08944,54.91419,0.0],[24.08918,54.91421,0.0],[24.08888,54.9142,0.0],[24.08869,54.91419,0.0],[24.08849,54.91421,0.0],[24.08817,54.91425,0.0],[24.08764,54.91436,0.0],[24.08734,54.91442,0.0],[24.08705,54.91445,0.0],[24.08648,54.91444,0.0],[24.08527,54.91439,0.0],[24.08426,54.91433,0.0],[24.08344,54.91432,0.0],[24.08241,54.91433,0.0],[24.08097,54.9143,0.0],[24.07962,54.91423,0.0],[24.07941,54.91422,0.0],[24.07912,54.91419,0.0],[24.07837,54.91406,0.0],[24.07758,54.91391,0.0],[24.07709,54.91378,0.0],[24.07661,54.9136,0.0],[24.07596,54.91327,0.0],[24.07522,54.91292,0.0],[24.07485,54.91278,0.0],[24.07466,54.91271,0.0],[24.07441,54.91258,0.0],[24.07425,54.91251,0.0],[24.07409,54.91245,0.0],[24.07362,54.91231,0.0],[24.0733,54.91219,0.0],[24.07309,54.91209,0.0],[24.0729,54.91195,0.0],[24.07265,54.91172,0.0],[24.07258,54.91168,0.0],[24.07248,54.91165,0.0],[24.07232,54.91165,0.0],[24.07202,54.91163,0.0],[24.07157,54.91154,0.0],[24.07099,54.91139,0.0],[24.07037,54.91121,0.0],[24.06931,54.91096,0.0],[24.06869,54.91079,0.0],[24.06823,54.91066,0.0],[24.06793,54.91058,0.0],[24.06639,54.90999,0.0],[24.06559,54.90966,0.0],[24.06503,54.90948,0.0],[24.06476,54.9094,0.0],[24.06454,54.9093,0.0],[24.06434,54.90916,0.0],[24.06419,54.90903,0.0],[24.06335,54.90863,0.0],[24.06286,54.90835,0.0],[24.06264,54.90819,0.0],[24.06248,54.90808,0.0],[24.06229,54.90788,0.0],[24.06221,54.90782,0.0],[24.06213,54.90772,0.0],[24.06208,54.90758,0.0],[24.06201,54.90743,0.0],[24.06191,54.90725,0.0],[24.06184,54.90713,0.0],[24.06177,54.90707,0.0],[24.06168,54.90702,0.0],[24.06153,54.90694,0.0],[24.06137,54.9068,0.0],[24.06116,54.90661,0.0],[24.06051,54.90584,0.0],[24.05992,54.90507,0.0],[24.05891,54.90368,0.0],[24.05871,54.90333,0.0],[24.05833,54.9028,0.0],[24.05817,54.90255,0.0],[24.05804,54.90235,0.0],[24.05737,54.90152,0.0],[24.05709,54.90124,0.0],[24.05689,54.90112,0.0],[24.05578,54.90063,0.0],[24.05518,54.90037,0.0],[24.05374,54.89995,0.0],[24.05214,54.89958,0.0],[24.05168,54.89952,0.0],[24.05159,54.8995,0.0],[24.05154,54.89944,0.0],[24.05146,54.89938,0.0],[24.0507,54.8991,0.0],[24.0203,54.86428,0.0],[24.0151,54.86572,0.0],[24.00911,54.86859,0.0],[24.00372,54.87167,0.0],[24.0004,54.87424,0.0],[23.99997,54.87463,0.0],[23.99855,54.8755,0.0],[23.99775,54.87595,0.0],[23.99684,54.87646,0.0],[23.99525,54.87734,0.0],[23.99384,54.87823,0.0],[23.99278,54.87931,0.0],[23.99187,54.88061,0.0],[23.99032,54.88464,0.0],[23.98996,54.8853,0.0],[23.98964,54.88583,0.0],[23.98944,54.88648,0.0],[23.98914,54.88722,0.0],[23.98863,54.88802,0.0],[23.98777,54.88898,0.0],[23.98668,54.88986,0.0],[23.98529,54.89082,0.0],[23.98296,54.89219,0.0],[23.98124,54.89301,0.0],[23.97955,54.89358,0.0],[23.97779,54.894,0.0],[23.97597,54.89433,0.0],[23.97866,54.89757,0.0],[23.97858,54.89768,0.0],[23.97845,54.8979,0.0],[23.97835,54.89812,0.0],[23.97805,54.89884,0.0],[23.97791,54.89906,0.0],[23.97776,54.89924,0.0],[23.97761,54.89939,0.0],[23.97741,54.89956,0.0],[23.97723,54.89969,0.0],[23.97704,54.8998,0.0],[23.97684,54.89991,0.0],[23.97657,54.90004,0.0],[23.9758,54.90041,0.0],[23.97517,54.90071,0.0],[23.9744,54.90132,0.0],[23.97509,54.90191,0.0]]]]}},{"type":"Feature","properties":{"uesi_id":"LTU_R1567544","nbhd_code":"LTU_R1567544_11","nbhd_name":"Eiguli\u0173 seni\u016bnija"},"geometry":{"type":"MultiPolygon","coordinates":[[[[23.96921,54.94539,0.0],[23.96961,54.94369,0.0],[23.97025,54.94181,0.0],[23.97058,54.94134,0.0],[23.9734,54.93969,0.0],[23.97531,54.93861,0.0],[23.97855,54.93686,0.0],[23.98325,54.93735,0.0],[23.98562,54.93756,0.0],[23.98798,54.93777,0.0],[23.98892,54.93789,0.0],[23.98943,54.93796,0.0],[23.98977,54.938,0.0],[23.99482,54.93884,0.0],[23.9942,54.93852,0.0],[23.99392,54.93838,0.0],[23.99386,54.9383,0.0],[23.99378,54.93826,0.0],[23.99347,54.93809,0.0],[23.99336,54.93804,0.0],[23.99325,54.938,0.0],[23.99281,54.9378,0.0],[23.99263,54.93778,0.0],[23.99169,54.93737,0.0],[23.98918,54.93627,0.0],[23.9888,54.9361,0.0],[23.98857,54.93603,0.0],[23.98811,54.9359,0.0],[23.98802,54.93586,0.0],[23.98797,54.93578,0.0],[23.97693,54.93435,0.0],[23.97593,54.93431,0.0],[23.97582,54.93359,0.0],[23.97672,54.93338,0.0],[23.97735,54.93309,0.0],[23.97757,54.93293,0.0],[23.97774,54.93274,0.0],[23.97789,54.9324,0.0],[23.97796,54.93204,0.0],[23.9779,54.93159,0.0],[23.97775,54.93124,0.0],[23.97753,54.93104,0.0],[23.97716,54.93085,0.0],[23.97665,54.93062,0.0],[23.9767,54.93058,0.0],[23.97662,54.93054,0.0],[23.97664,54.93053,0.0],[23.97666,54.93051,0.0],[23.97643,54.93041,0.0],[23.9766,54.9303,0.0],[23.97624,54.93013,0.0],[23.97584,54.92995,0.0],[23.97499,54.92956,0.0],[23.97329,54.92879,0.0],[23.97248,54.92846,0.0],[23.97162,54.92805,0.0],[23.97003,54.92734,0.0],[23.96998,54.92731,0.0],[23.96948,54.92709,0.0],[23.96903,54.92688,0.0],[23.96892,54.92683,0.0],[23.96879,54.92677,0.0],[23.96863,54.9267,0.0],[23.96778,54.92632,0.0],[23.96677,54.92586,0.0],[23.9662,54.92561,0.0],[23.96617,54.92559,0.0],[23.96603,54.92553,0.0],[23.96588,54.92547,0.0],[23.96572,54.92539,0.0],[23.96557,54.92532,0.0],[23.96408,54.92464,0.0],[23.96345,54.92435,0.0],[23.96323,54.92426,0.0],[23.96305,54.92417,0.0],[23.96282,54.92407,0.0],[23.96255,54.92395,0.0],[23.96239,54.92388,0.0],[23.9621,54.92375,0.0],[23.96162,54.92354,0.0],[23.95962,54.92263,0.0],[23.95951,54.92258,0.0],[23.95846,54.9221,0.0],[23.95796,54.92188,0.0],[23.95702,54.92146,0.0],[23.9566,54.92127,0.0],[23.95625,54.92111,0.0],[23.95546,54.92075,0.0],[23.95466,54.92039,0.0],[23.95442,54.92029,0.0],[23.95432,54.92024,0.0],[23.95415,54.92016,0.0],[23.95399,54.92009,0.0],[23.95373,54.91998,0.0],[23.95344,54.91984,0.0],[23.9528,54.91955,0.0],[23.95271,54.91951,0.0],[23.95237,54.91936,0.0],[23.9518,54.9191,0.0],[23.95114,54.9188,0.0],[23.95097,54.91894,0.0],[23.95057,54.91924,0.0],[23.95043,54.91934,0.0],[23.94963,54.91993,0.0],[23.94946,54.92005,0.0],[23.9493,54.92016,0.0],[23.94868,54.92062,0.0],[23.94823,54.92096,0.0],[23.94597,54.92129,0.0],[23.94501,54.92141,0.0],[23.94468,54.92147,0.0],[23.94456,54.92147,0.0],[23.9443,54.9215,0.0],[23.94398,54.92153,0.0],[23.94374,54.92157,0.0],[23.94343,54.92165,0.0],[23.94284,54.92174,0.0],[23.94225,54.92182,0.0],[23.94137,54.92195,0.0],[23.94051,54.92207,0.0],[23.93991,54.92215,0.0],[23.93931,54.92224,0.0],[23.93886,54.9223,0.0],[23.93869,54.92232,0.0],[23.93866,54.92233,0.0],[23.93859,54.92234,0.0],[23.93854,54.92234,0.0],[23.93865,54.92249,0.0],[23.93897,54.92282,0.0],[23.93911,54.92294,0.0],[23.93926,54.92308,0.0],[23.93916,54.92312,0.0],[23.93905,54.92318,0.0],[23.93891,54.92326,0.0],[23.93871,54.92343,0.0],[23.93859,54.92339,0.0],[23.93841,54.9234,0.0],[23.93745,54.92355,0.0],[23.9361,54.92375,0.0],[23.93418,54.92404,0.0],[23.93382,54.92335,0.0],[23.93371,54.92313,0.0],[23.93343,54.92318,0.0],[23.93293,54.92326,0.0],[23.93249,54.92333,0.0],[23.93087,54.92357,0.0],[23.93074,54.92359,0.0],[23.93063,54.9236,0.0],[23.92888,54.92386,0.0],[23.92878,54.92388,0.0],[23.92854,54.92391,0.0],[23.92853,54.92381,0.0],[23.92851,54.92372,0.0],[23.9285,54.92364,0.0],[23.92849,54.92359,0.0],[23.92837,54.92271,0.0],[23.92835,54.9226,0.0],[23.92835,54.92256,0.0],[23.92833,54.92242,0.0],[23.92832,54.92235,0.0],[23.92829,54.92213,0.0],[23.92823,54.92177,0.0],[23.92808,54.92179,0.0],[23.92747,54.92189,0.0],[23.92713,54.92194,0.0],[23.92658,54.92202,0.0],[23.92511,54.92224,0.0],[23.92433,54.92237,0.0],[23.92364,54.92247,0.0],[23.92345,54.92249,0.0],[23.92322,54.92253,0.0],[23.92316,54.92254,0.0],[23.92286,54.92258,0.0],[23.92254,54.92262,0.0],[23.92205,54.92267,0.0],[23.92206,54.92278,0.0],[23.92211,54.92312,0.0],[23.92215,54.9234,0.0],[23.92216,54.92345,0.0],[23.92152,54.92348,0.0],[23.92159,54.92406,0.0],[23.92162,54.92421,0.0],[23.92163,54.92426,0.0],[23.92155,54.92427,0.0],[23.92089,54.92434,0.0],[23.92056,54.92437,0.0],[23.92007,54.92442,0.0],[23.91928,54.92449,0.0],[23.91929,54.92451,0.0],[23.91236,54.92532,0.0],[23.91228,54.92664,0.0],[23.91261,54.93191,0.0],[23.9128,54.93459,0.0],[23.91315,54.93651,0.0],[23.91359,54.93876,0.0],[23.91337,54.93978,0.0],[23.913,54.94101,0.0],[23.91288,54.94237,0.0],[23.91448,54.94607,0.0],[23.91519,54.94726,0.0],[23.91612,54.94841,0.0],[23.91768,54.95013,0.0],[23.91774,54.95019,0.0],[23.91918,54.95167,0.0],[23.92077,54.95318,0.0],[23.92336,54.95535,0.0],[23.92461,54.9563,0.0],[23.92619,54.95695,0.0],[23.92785,54.95708,0.0],[23.9296,54.95729,0.0],[23.93219,54.95755,0.0],[23.93424,54.95794,0.0],[23.93657,54.95824,0.0],[23.94258,54.9588,0.0],[23.94681,54.95946,0.0],[23.94874,54.95956,0.0],[23.951,54.9595,0.0],[23.95236,54.95941,0.0],[23.95371,54.95922,0.0],[23.95507,54.95869,0.0],[23.95488,54.95707,0.0],[23.95487,54.95554,0.0],[23.95486,54.95551,0.0],[23.95484,54.95538,0.0],[23.95479,54.95513,0.0],[23.95476,54.95387,0.0],[23.95395,54.95392,0.0],[23.95377,54.95374,0.0],[23.95378,54.95334,0.0],[23.95404,54.95303,0.0],[23.95373,54.95285,0.0],[23.9538,54.95259,0.0],[23.95404,54.95232,0.0],[23.95388,54.95184,0.0],[23.95453,54.95148,0.0],[23.95521,54.95096,0.0],[23.95533,54.95093,0.0],[23.95623,54.9507,0.0],[23.95676,54.95069,0.0],[23.95808,54.95074,0.0],[23.95862,54.95047,0.0],[23.95918,54.94977,0.0],[23.9593,54.94944,0.0],[23.95976,54.94912,0.0],[23.95992,54.94894,0.0],[23.96007,54.94881,0.0],[23.95766,54.94747,0.0],[23.95896,54.94702,0.0],[23.96596,54.94567,0.0],[23.96919,54.94551,0.0],[23.96921,54.94539,0.0]]]]}}]}