{"type":"FeatureCollection","name":"MAR_R4072985","crs":{"type":"name","properties":{"name":"urn:ogc:def:crs:OGC:1.3:CRS84"}},"features":[{"type":"Feature","properties":{"uesi_id":"MAR_R4072985","nbhd_code":"MAR_R4072985_011","nbhd_name":"Bouskoura"},"geometry":{"type":"MultiPolygon","coordinates":[[[[-7.55749,33.50779,0.0],[-7.55685,33.50668,0.0],[-7.55539,33.50354,0.0],[-7.54577,33.49824,0.0],[-7.5442,33.49511,0.0],[-7.5429,33.49218,0.0],[-7.54592,33.48942,0.0],[-7.55177,33.48606,0.0],[-7.5553,33.48294,0.0],[-7.55887,33.48038,0.0],[-7.56149,33.48233,0.0],[-7.56393,33.48221,0.0],[-7.56425,33.4822,0.0],[-7.57655,33.47353,0.0],[-7.58009,33.47063,0.0],[-7.585,33.46744,0.0],[-7.58815,33.46479,0.0],[-7.59561,33.46056,0.0],[-7.5966,33.45858,0.0],[-7.59525,33.45715,0.0],[-7.5926,33.45657,0.0],[-7.59128,33.45549,0.0],[-7.59252,33.45326,0.0],[-7.59824,33.44981,0.0],[-7.60039,33.44662,0.0],[-7.60012,33.44469,0.0],[-7.59644,33.44554,0.0],[-7.59445,33.44482,0.0],[-7.59146,33.43923,0.0],[-7.58947,33.4383,0.0],[-7.58557,33.43972,0.0],[-7.58223,33.43964,0.0],[-7.56967,33.42909,0.0],[-7.56597,33.42937,0.0],[-7.56149,33.42842,0.0],[-7.55938,33.42554,0.0],[-7.55923,33.42314,0.0],[-7.56141,33.42075,0.0],[-7.56089,33.41906,0.0],[-7.5581,33.41661,0.0],[-7.56183,33.41856,0.0],[-7.56601,33.41908,0.0],[-7.57092,33.42046,0.0],[-7.57601,33.42229,0.0],[-7.58195,33.42226,0.0],[-7.58836,33.42107,0.0],[-7.5953,33.42144,0.0],[-7.60255,33.42272,0.0],[-7.6068,33.42413,0.0],[-7.61025,33.42421,0.0],[-7.61394,33.42337,0.0],[-7.61796,33.41941,0.0],[-7.6219,33.41626,0.0],[-7.6251,33.41451,0.0],[-7.62866,33.41379,0.0],[-7.63225,33.41591,0.0],[-7.6335,33.41826,0.0],[-7.63546,33.42275,0.0],[-7.63883,33.42775,0.0],[-7.64347,33.42891,0.0],[-7.64657,33.42894,0.0],[-7.64984,33.42897,0.0],[-7.65884,33.42708,0.0],[-7.66649,33.42365,0.0],[-7.67179,33.4201,0.0],[-7.67799,33.41536,0.0],[-7.6829,33.41251,0.0],[-7.68792,33.41272,0.0],[-7.68806,33.41307,0.0],[-7.69137,33.41693,0.0],[-7.69334,33.41971,0.0],[-7.69305,33.42384,0.0],[-7.69138,33.42987,0.0],[-7.69244,33.43325,0.0],[-7.69772,33.43576,0.0],[-7.70864,33.43757,0.0],[-7.71615,33.4401,0.0],[-7.72232,33.44371,0.0],[-7.7276,33.45012,0.0],[-7.73017,33.45517,0.0],[-7.73352,33.458,0.0],[-7.73563,33.45837,0.0],[-7.73926,33.45694,0.0],[-7.74333,33.45355,0.0],[-7.74751,33.45199,0.0],[-7.75416,33.45192,0.0],[-7.75812,33.45335,0.0],[-7.76263,33.45875,0.0],[-7.76529,33.45921,0.0],[-7.76684,33.45884,0.0],[-7.75827,33.464,0.0],[-7.74938,33.46761,0.0],[-7.73307,33.47601,0.0],[-7.72346,33.48137,0.0],[-7.71547,33.48619,0.0],[-7.71097,33.48925,0.0],[-7.70845,33.49293,0.0],[-7.70571,33.49775,0.0],[-7.70321,33.49897,0.0],[-7.70262,33.49926,0.0],[-7.69978,33.49789,0.0],[-7.69862,33.49083,0.0],[-7.69761,33.48389,0.0],[-7.69553,33.48168,0.0],[-7.69042,33.48191,0.0],[-7.68682,33.48401,0.0],[-7.68433,33.48618,0.0],[-7.68269,33.49073,0.0],[-7.68107,33.49332,0.0],[-7.67786,33.49495,0.0],[-7.6777,33.4949,0.0],[-7.67502,33.49394,0.0],[-7.67415,33.49121,0.0],[-7.67502,33.48751,0.0],[-7.67829,33.48462,0.0],[-7.67794,33.48142,0.0],[-7.6764,33.47908,0.0],[-7.67728,33.47572,0.0],[-7.67945,33.473,0.0],[-7.68017,33.46918,0.0],[-7.67899,33.46602,0.0],[-7.67592,33.46559,0.0],[-7.66345,33.46751,0.0],[-7.65428,33.46894,0.0],[-7.64324,33.4715,0.0],[-7.62895,33.47522,0.0],[-7.62379,33.47465,0.0],[-7.62141,33.47624,0.0],[-7.62159,33.48105,0.0],[-7.62272,33.48774,0.0],[-7.626,33.49334,0.0],[-7.6288,33.50042,0.0],[-7.62846,33.5056,0.0],[-7.62709,33.51013,0.0],[-7.6253,33.51177,0.0],[-7.62461,33.51241,0.0],[-7.61886,33.51553,0.0],[-7.60864,33.51804,0.0],[-7.60039,33.52092,0.0],[-7.59192,33.52256,0.0],[-7.58562,33.52364,0.0],[-7.58148,33.5237,0.0],[-7.5775,33.52416,0.0],[-7.57646,33.52334,0.0],[-7.57278,33.52009,0.0],[-7.57251,33.51984,0.0],[-7.56854,33.51637,0.0],[-7.56234,33.51251,0.0],[-7.55918,33.5107,0.0],[-7.55749,33.50779,0.0]]]]}},{"type":"Feature","properties":{"uesi_id":"MAR_R4072985","nbhd_code":"MAR_R4072985_012","nbhd_name":"Dar Bouazza"},"geometry":{"type":"MultiPolygon","coordinates":[[[[-7.6777,33.4949,0.0],[-7.67786,33.49495,0.0],[-7.68107,33.49332,0.0],[-7.68269,33.49073,0.0],[-7.68433,33.48618,0.0],[-7.68682,33.48401,0.0],[-7.69042,33.48191,0.0],[-7.69553,33.48168,0.0],[-7.69761,33.48389,0.0],[-7.69862,33.49083,0.0],[-7.69978,33.49789,0.0],[-7.70262,33.49926,0.0],[-7.70321,33.49897,0.0],[-7.70571,33.49775,0.0],[-7.70845,33.49293,0.0],[-7.71097,33.48925,0.0],[-7.71547,33.48619,0.0],[-7.72346,33.48137,0.0],[-7.73307,33.47601,0.0],[-7.74938,33.46761,0.0],[-7.75827,33.464,0.0],[-7.76684,33.45884,0.0],[-7.77442,33.45698,0.0],[-7.77992,33.45455,0.0],[-7.78461,33.45227,0.0],[-7.79042,33.45431,0.0],[-7.79742,33.46149,0.0],[-7.79844,33.46254,0.0],[-7.80207,33.46707,0.0],[-7.80487,33.46762,0.0],[-7.80912,33.46699,0.0],[-7.8134,33.46473,0.0],[-7.81778,33.46407,0.0],[-7.82308,33.46462,0.0],[-7.83758,33.47003,0.0],[-7.84195,33.46925,0.0],[-7.84443,33.4689,0.0],[-7.84752,33.46739,0.0],[-7.8476,33.46475,0.0],[-7.84868,33.46229,0.0],[-7.85736,33.45937,0.0],[-7.86218,33.45879,0.0],[-7.86696,33.45983,0.0],[-7.87334,33.46799,0.0],[-7.8774,33.47258,0.0],[-7.8811,33.47594,0.0],[-7.88591,33.47718,0.0],[-7.88967,33.47923,0.0],[-7.89084,33.4821,0.0],[-7.89431,33.49566,0.0],[-7.89449,33.49621,0.0],[-7.89486,33.49736,0.0],[-7.89375,33.49736,0.0],[-7.89375,33.49764,0.0],[-7.89347,33.49764,0.0],[-7.89347,33.49792,0.0],[-7.8932,33.49792,0.0],[-7.89319,33.4982,0.0],[-7.89264,33.4982,0.0],[-7.89264,33.49847,0.0],[-7.89236,33.49847,0.0],[-7.89236,33.49958,0.0],[-7.89264,33.49958,0.0],[-7.89264,33.50042,0.0],[-7.89236,33.50042,0.0],[-7.89236,33.50069,0.0],[-7.89097,33.50069,0.0],[-7.89097,33.50097,0.0],[-7.8907,33.50097,0.0],[-7.8907,33.50125,0.0],[-7.89042,33.50125,0.0],[-7.89042,33.50069,0.0],[-7.89014,33.50069,0.0],[-7.89014,33.50042,0.0],[-7.88958,33.50042,0.0],[-7.88958,33.50069,0.0],[-7.88931,33.50069,0.0],[-7.88931,33.50097,0.0],[-7.88875,33.50097,0.0],[-7.88875,33.50125,0.0],[-7.88847,33.50125,0.0],[-7.88847,33.50208,0.0],[-7.8882,33.50208,0.0],[-7.8882,33.50319,0.0],[-7.88792,33.50319,0.0],[-7.88792,33.50347,0.0],[-7.88764,33.50347,0.0],[-7.88764,33.50375,0.0],[-7.88708,33.50375,0.0],[-7.88708,33.50403,0.0],[-7.88597,33.50403,0.0],[-7.88597,33.50431,0.0],[-7.88403,33.50431,0.0],[-7.88403,33.50458,0.0],[-7.88375,33.50458,0.0],[-7.88375,33.50431,0.0],[-7.88208,33.50431,0.0],[-7.88208,33.50458,0.0],[-7.88125,33.50458,0.0],[-7.88125,33.50486,0.0],[-7.88097,33.50486,0.0],[-7.88097,33.50514,0.0],[-7.88042,33.50514,0.0],[-7.88042,33.50542,0.0],[-7.87958,33.50542,0.0],[-7.87958,33.5057,0.0],[-7.87792,33.5057,0.0],[-7.87792,33.50597,0.0],[-7.87736,33.50597,0.0],[-7.87736,33.50625,0.0],[-7.87708,33.50625,0.0],[-7.87708,33.50681,0.0],[-7.87681,33.50681,0.0],[-7.8768,33.50708,0.0],[-7.87653,33.50708,0.0],[-7.87653,33.50764,0.0],[-7.87625,33.50764,0.0],[-7.87625,33.50792,0.0],[-7.87597,33.50792,0.0],[-7.87597,33.50819,0.0],[-7.87569,33.50819,0.0],[-7.87569,33.50847,0.0],[-7.87597,33.50847,0.0],[-7.87597,33.50875,0.0],[-7.87569,33.50875,0.0],[-7.87569,33.50903,0.0],[-7.87542,33.50903,0.0],[-7.87542,33.5093,0.0],[-7.87514,33.5093,0.0],[-7.87514,33.50986,0.0],[-7.87486,33.50986,0.0],[-7.87486,33.51014,0.0],[-7.87458,33.51014,0.0],[-7.87458,33.51042,0.0],[-7.87403,33.51042,0.0],[-7.87403,33.51069,0.0],[-7.87319,33.51069,0.0],[-7.87319,33.51097,0.0],[-7.87264,33.51097,0.0],[-7.87264,33.51125,0.0],[-7.87181,33.51125,0.0],[-7.87181,33.51153,0.0],[-7.8713,33.51153,0.0],[-7.87125,33.51159,0.0],[-7.87125,33.51181,0.0],[-7.87108,33.51181,0.0],[-7.87069,33.51181,0.0],[-7.87069,33.51208,0.0],[-7.86986,33.51208,0.0],[-7.86986,33.51236,0.0],[-7.86931,33.51236,0.0],[-7.86931,33.51297,0.0],[-7.86931,33.51347,0.0],[-7.86903,33.51347,0.0],[-7.86903,33.51458,0.0],[-7.86736,33.51458,0.0],[-7.86736,33.51431,0.0],[-7.86681,33.51431,0.0],[-7.86681,33.51403,0.0],[-7.86458,33.51403,0.0],[-7.86458,33.51431,0.0],[-7.8618,33.51431,0.0],[-7.8618,33.51458,0.0],[-7.86097,33.51458,0.0],[-7.86097,33.51486,0.0],[-7.86014,33.51486,0.0],[-7.86014,33.51514,0.0],[-7.85903,33.51514,0.0],[-7.85903,33.51542,0.0],[-7.85819,33.51542,0.0],[-7.85819,33.51569,0.0],[-7.85736,33.51569,0.0],[-7.85736,33.51597,0.0],[-7.85532,33.51597,0.0],[-7.85431,33.51597,0.0],[-7.85431,33.51625,0.0],[-7.85403,33.51625,0.0],[-7.85403,33.51664,0.0],[-7.85403,33.5168,0.0],[-7.85371,33.5168,0.0],[-7.85347,33.5168,0.0],[-7.85347,33.51693,0.0],[-7.85347,33.51736,0.0],[-7.8532,33.51736,0.0],[-7.8532,33.5182,0.0],[-7.85292,33.5182,0.0],[-7.85292,33.51875,0.0],[-7.85264,33.51875,0.0],[-7.85264,33.51903,0.0],[-7.85208,33.51903,0.0],[-7.85208,33.51931,0.0],[-7.85181,33.51931,0.0],[-7.85181,33.51958,0.0],[-7.85125,33.51958,0.0],[-7.85125,33.51986,0.0],[-7.85097,33.51986,0.0],[-7.85097,33.52069,0.0],[-7.85014,33.52069,0.0],[-7.85014,33.52097,0.0],[-7.84958,33.52097,0.0],[-7.84958,33.52125,0.0],[-7.84931,33.52125,0.0],[-7.84931,33.5218,0.0],[-7.84903,33.5218,0.0],[-7.84903,33.52208,0.0],[-7.84875,33.52208,0.0],[-7.84875,33.52264,0.0],[-7.84847,33.52264,0.0],[-7.84847,33.52291,0.0],[-7.84486,33.52291,0.0],[-7.84486,33.52319,0.0],[-7.84375,33.52319,0.0],[-7.84375,33.52403,0.0],[-7.84264,33.52403,0.0],[-7.84264,33.52431,0.0],[-7.84208,33.52431,0.0],[-7.84208,33.52458,0.0],[-7.84153,33.52458,0.0],[-7.84153,33.52486,0.0],[-7.84125,33.52486,0.0],[-7.84125,33.52514,0.0],[-7.84065,33.52514,0.0],[-7.83986,33.52514,0.0],[-7.83986,33.52542,0.0],[-7.8393,33.52542,0.0],[-7.8393,33.5257,0.0],[-7.83903,33.5257,0.0],[-7.83903,33.52597,0.0],[-7.83847,33.52597,0.0],[-7.83847,33.52625,0.0],[-7.83819,33.52625,0.0],[-7.83819,33.52661,0.0],[-7.83819,33.52681,0.0],[-7.83785,33.52681,0.0],[-7.83653,33.52681,0.0],[-7.83653,33.52708,0.0],[-7.83542,33.52708,0.0],[-7.83542,33.52736,0.0],[-7.83514,33.52736,0.0],[-7.83514,33.52792,0.0],[-7.83486,33.52792,0.0],[-7.83486,33.52819,0.0],[-7.83403,33.52819,0.0],[-7.83403,33.52847,0.0],[-7.8332,33.52847,0.0],[-7.8332,33.52875,0.0],[-7.83236,33.52875,0.0],[-7.83236,33.52903,0.0],[-7.83153,33.52903,0.0],[-7.83153,33.53042,0.0],[-7.83181,33.53042,0.0],[-7.83181,33.53069,0.0],[-7.83153,33.53069,0.0],[-7.83153,33.53097,0.0],[-7.83125,33.53097,0.0],[-7.83125,33.53153,0.0],[-7.83097,33.53153,0.0],[-7.83097,33.53192,0.0],[-7.83097,33.53236,0.0],[-7.83125,33.53236,0.0],[-7.83125,33.53264,0.0],[-7.83153,33.53264,0.0],[-7.83153,33.53292,0.0],[-7.83125,33.53292,0.0],[-7.83125,33.5332,0.0],[-7.8307,33.5332,0.0],[-7.8307,33.53347,0.0],[-7.83014,33.53347,0.0],[-7.83014,33.53375,0.0],[-7.82986,33.53375,0.0],[-7.82986,33.53403,0.0],[-7.82875,33.53403,0.0],[-7.82875,33.53431,0.0],[-7.82816,33.53431,0.0],[-7.82625,33.53431,0.0],[-7.82625,33.53486,0.0],[-7.82597,33.53486,0.0],[-7.82597,33.536,0.0],[-7.82597,33.53625,0.0],[-7.82625,33.53625,0.0],[-7.82625,33.5368,0.0],[-7.82486,33.5368,0.0],[-7.82486,33.53708,0.0],[-7.82458,33.53708,0.0],[-7.82458,33.53736,0.0],[-7.82431,33.53736,0.0],[-7.82431,33.53764,0.0],[-7.82403,33.53764,0.0],[-7.82403,33.53792,0.0],[-7.82375,33.53792,0.0],[-7.82375,33.53819,0.0],[-7.82347,33.53819,0.0],[-7.82347,33.53792,0.0],[-7.82319,33.53792,0.0],[-7.82319,33.53776,0.0],[-7.82319,33.53764,0.0],[-7.82264,33.53764,0.0],[-7.82264,33.53708,0.0],[-7.82236,33.53708,0.0],[-7.82236,33.5368,0.0],[-7.82153,33.5368,0.0],[-7.82153,33.53653,0.0],[-7.82125,33.53653,0.0],[-7.82125,33.53625,0.0],[-7.82042,33.53625,0.0],[-7.82042,33.53597,0.0],[-7.81986,33.53597,0.0],[-7.81986,33.53569,0.0],[-7.81958,33.53569,0.0],[-7.81958,33.53486,0.0],[-7.81931,33.53486,0.0],[-7.81931,33.53403,0.0],[-7.81903,33.53403,0.0],[-7.81903,33.53375,0.0],[-7.81875,33.53375,0.0],[-7.81875,33.5332,0.0],[-7.81847,33.5332,0.0],[-7.81847,33.53208,0.0],[-7.81819,33.53208,0.0],[-7.81819,33.5293,0.0],[-7.81792,33.5293,0.0],[-7.81792,33.52847,0.0],[-7.81764,33.52847,0.0],[-7.81764,33.52819,0.0],[-7.81736,33.52819,0.0],[-7.81736,33.52792,0.0],[-7.81403,33.52792,0.0],[-7.81403,33.52764,0.0],[-7.81375,33.52764,0.0],[-7.81375,33.52792,0.0],[-7.81208,33.52792,0.0],[-7.81208,33.52764,0.0],[-7.80986,33.52764,0.0],[-7.80986,33.52792,0.0],[-7.80903,33.52792,0.0],[-7.80903,33.52819,0.0],[-7.8082,33.52819,0.0],[-7.8082,33.52792,0.0],[-7.80792,33.52792,0.0],[-7.80792,33.52764,0.0],[-7.80625,33.52764,0.0],[-7.80625,33.52792,0.0],[-7.80542,33.52792,0.0],[-7.80542,33.52819,0.0],[-7.80486,33.52819,0.0],[-7.80486,33.52847,0.0],[-7.80375,33.52847,0.0],[-7.80375,33.52875,0.0],[-7.80264,33.52875,0.0],[-7.80264,33.52847,0.0],[-7.80181,33.52847,0.0],[-7.80181,33.52819,0.0],[-7.80125,33.52819,0.0],[-7.80125,33.52847,0.0],[-7.80097,33.52847,0.0],[-7.80097,33.52875,0.0],[-7.80042,33.52875,0.0],[-7.80042,33.52903,0.0],[-7.79958,33.52903,0.0],[-7.79958,33.5293,0.0],[-7.7993,33.5293,0.0],[-7.7993,33.52958,0.0],[-7.79903,33.52958,0.0],[-7.79903,33.52986,0.0],[-7.79847,33.52986,0.0],[-7.79847,33.53014,0.0],[-7.79819,33.53014,0.0],[-7.79819,33.53042,0.0],[-7.79792,33.53042,0.0],[-7.79792,33.53069,0.0],[-7.79681,33.53069,0.0],[-7.79681,33.53097,0.0],[-7.79653,33.53097,0.0],[-7.79653,33.53208,0.0],[-7.79597,33.53208,0.0],[-7.79597,33.53236,0.0],[-7.79403,33.53236,0.0],[-7.79403,33.53264,0.0],[-7.79375,33.53264,0.0],[-7.79375,33.53292,0.0],[-7.79347,33.53292,0.0],[-7.79347,33.5332,0.0],[-7.79375,33.5332,0.0],[-7.79375,33.53347,0.0],[-7.79403,33.53347,0.0],[-7.79403,33.53375,0.0],[-7.79431,33.53375,0.0],[-7.79431,33.53403,0.0],[-7.79486,33.53403,0.0],[-7.79486,33.53431,0.0],[-7.79514,33.53431,0.0],[-7.79514,33.53486,0.0],[-7.79542,33.53486,0.0],[-7.79542,33.53787,0.0],[-7.79542,33.53819,0.0],[-7.79514,33.53824,0.0],[-7.79514,33.53903,0.0],[-7.79542,33.53903,0.0],[-7.79542,33.54014,0.0],[-7.79403,33.54014,0.0],[-7.79403,33.53986,0.0],[-7.79375,33.53986,0.0],[-7.79375,33.53875,0.0],[-7.79347,33.53875,0.0],[-7.79347,33.53739,0.0],[-7.79347,33.53708,0.0],[-7.79375,33.53708,0.0],[-7.79375,33.53486,0.0],[-7.79347,33.53486,0.0],[-7.79347,33.53458,0.0],[-7.79292,33.53458,0.0],[-7.79292,33.53431,0.0],[-7.79264,33.53431,0.0],[-7.79264,33.53403,0.0],[-7.79208,33.53403,0.0],[-7.79208,33.53375,0.0],[-7.79069,33.53375,0.0],[-7.79069,33.53431,0.0],[-7.79042,33.53431,0.0],[-7.79042,33.53486,0.0],[-7.79014,33.53486,0.0],[-7.79014,33.53514,0.0],[-7.78708,33.53514,0.0],[-7.78708,33.53542,0.0],[-7.78597,33.53542,0.0],[-7.78597,33.53569,0.0],[-7.78542,33.53569,0.0],[-7.78542,33.53597,0.0],[-7.78486,33.53597,0.0],[-7.78486,33.53625,0.0],[-7.78431,33.53625,0.0],[-7.78431,33.53653,0.0],[-7.78375,33.53653,0.0],[-7.78375,33.5368,0.0],[-7.78292,33.5368,0.0],[-7.78292,33.53708,0.0],[-7.78236,33.53708,0.0],[-7.78236,33.53764,0.0],[-7.78208,33.53764,0.0],[-7.78208,33.53792,0.0],[-7.78153,33.53792,0.0],[-7.78153,33.53819,0.0],[-7.78097,33.53819,0.0],[-7.78097,33.53847,0.0],[-7.78042,33.53847,0.0],[-7.78042,33.53875,0.0],[-7.77986,33.53875,0.0],[-7.77986,33.53903,0.0],[-7.77903,33.53903,0.0],[-7.77903,33.53931,0.0],[-7.77847,33.53931,0.0],[-7.77847,33.53959,0.0],[-7.77792,33.53959,0.0],[-7.77792,33.53986,0.0],[-7.77708,33.53986,0.0],[-7.77708,33.54014,0.0],[-7.77653,33.54014,0.0],[-7.77653,33.54042,0.0],[-7.77597,33.54042,0.0],[-7.77597,33.5407,0.0],[-7.77514,33.5407,0.0],[-7.77514,33.54097,0.0],[-7.77458,33.54097,0.0],[-7.77458,33.54125,0.0],[-7.77403,33.54125,0.0],[-7.77403,33.54153,0.0],[-7.77319,33.54153,0.0],[-7.77319,33.54181,0.0],[-7.77264,33.54181,0.0],[-7.77264,33.54208,0.0],[-7.77208,33.54208,0.0],[-7.77208,33.54236,0.0],[-7.77125,33.54236,0.0],[-7.77125,33.54264,0.0],[-7.77069,33.54264,0.0],[-7.77069,33.54292,0.0],[-7.77014,33.54292,0.0],[-7.77014,33.54319,0.0],[-7.76931,33.54319,0.0],[-7.76931,33.54347,0.0],[-7.76875,33.54347,0.0],[-7.76875,33.54375,0.0],[-7.76819,33.54375,0.0],[-7.76819,33.54403,0.0],[-7.76736,33.54403,0.0],[-7.76736,33.5443,0.0],[-7.76681,33.5443,0.0],[-7.76681,33.54458,0.0],[-7.76625,33.54458,0.0],[-7.76625,33.54486,0.0],[-7.76542,33.54486,0.0],[-7.76542,33.54514,0.0],[-7.76486,33.54514,0.0],[-7.76486,33.54542,0.0],[-7.76403,33.54542,0.0],[-7.76403,33.5457,0.0],[-7.76347,33.5457,0.0],[-7.76347,33.54597,0.0],[-7.76264,33.54597,0.0],[-7.76264,33.54625,0.0],[-7.76208,33.54625,0.0],[-7.76208,33.54653,0.0],[-7.76125,33.54653,0.0],[-7.76125,33.54681,0.0],[-7.76069,33.54681,0.0],[-7.76069,33.54708,0.0],[-7.75986,33.54708,0.0],[-7.75986,33.54736,0.0],[-7.75931,33.54736,0.0],[-7.75931,33.54764,0.0],[-7.75847,33.54764,0.0],[-7.75847,33.54792,0.0],[-7.75792,33.54792,0.0],[-7.75792,33.54819,0.0],[-7.75736,33.54819,0.0],[-7.75736,33.54847,0.0],[-7.75653,33.54847,0.0],[-7.75653,33.54875,0.0],[-7.75597,33.54875,0.0],[-7.75597,33.54903,0.0],[-7.75514,33.54903,0.0],[-7.75514,33.5493,0.0],[-7.75458,33.5493,0.0],[-7.75458,33.54958,0.0],[-7.7543,33.54958,0.0],[-7.7543,33.55014,0.0],[-7.75403,33.55014,0.0],[-7.75403,33.55042,0.0],[-7.75375,33.55042,0.0],[-7.75375,33.55097,0.0],[-7.75347,33.55097,0.0],[-7.75347,33.55153,0.0],[-7.75319,33.55153,0.0],[-7.75319,33.55181,0.0],[-7.75264,33.55181,0.0],[-7.75264,33.55208,0.0],[-7.75208,33.55208,0.0],[-7.75208,33.55236,0.0],[-7.75125,33.55236,0.0],[-7.75125,33.55264,0.0],[-7.7507,33.55264,0.0],[-7.7507,33.55292,0.0],[-7.75014,33.55292,0.0],[-7.75014,33.5532,0.0],[-7.74958,33.5532,0.0],[-7.74958,33.55347,0.0],[-7.74903,33.55347,0.0],[-7.74903,33.55375,0.0],[-7.74875,33.55375,0.0],[-7.74875,33.55403,0.0],[-7.7482,33.55403,0.0],[-7.7482,33.55431,0.0],[-7.74764,33.55431,0.0],[-7.74764,33.55458,0.0],[-7.74708,33.55458,0.0],[-7.74708,33.55486,0.0],[-7.74681,33.55486,0.0],[-7.74681,33.55514,0.0],[-7.74625,33.55514,0.0],[-7.74625,33.55542,0.0],[-7.7457,33.55542,0.0],[-7.7457,33.55569,0.0],[-7.74514,33.55569,0.0],[-7.74514,33.55597,0.0],[-7.74486,33.55597,0.0],[-7.74486,33.55625,0.0],[-7.74431,33.55625,0.0],[-7.74431,33.55653,0.0],[-7.74403,33.55653,0.0],[-7.74403,33.5568,0.0],[-7.74375,33.5568,0.0],[-7.74375,33.55708,0.0],[-7.74347,33.55708,0.0],[-7.74347,33.55736,0.0],[-7.7432,33.55736,0.0],[-7.7432,33.55764,0.0],[-7.74292,33.55764,0.0],[-7.74292,33.55791,0.0],[-7.74264,33.55792,0.0],[-7.74264,33.55819,0.0],[-7.74236,33.55819,0.0],[-7.74236,33.55847,0.0],[-7.74208,33.55847,0.0],[-7.74208,33.55875,0.0],[-7.74153,33.55875,0.0],[-7.74153,33.55903,0.0],[-7.74125,33.55903,0.0],[-7.74125,33.55931,0.0],[-7.74097,33.55931,0.0],[-7.74097,33.55958,0.0],[-7.74069,33.55958,0.0],[-7.74069,33.55986,0.0],[-7.74014,33.55986,0.0],[-7.74014,33.56014,0.0],[-7.73958,33.56014,0.0],[-7.73958,33.56042,0.0],[-7.73903,33.56042,0.0],[-7.73903,33.5607,0.0],[-7.73847,33.5607,0.0],[-7.73847,33.56097,0.0],[-7.73764,33.56097,0.0],[-7.73764,33.56125,0.0],[-7.73708,33.56125,0.0],[-7.73708,33.56153,0.0],[-7.73653,33.56153,0.0],[-7.73653,33.56181,0.0],[-7.73597,33.56181,0.0],[-7.73597,33.56208,0.0],[-7.73542,33.56208,0.0],[-7.73542,33.56236,0.0],[-7.73486,33.56236,0.0],[-7.73486,33.56264,0.0],[-7.73347,33.56264,0.0],[-7.73347,33.56292,0.0],[-7.73208,33.56292,0.0],[-7.73208,33.56319,0.0],[-7.73042,33.56319,0.0],[-7.73042,33.56347,0.0],[-7.72903,33.56347,0.0],[-7.72903,33.56375,0.0],[-7.72764,33.56375,0.0],[-7.72764,33.56403,0.0],[-7.72708,33.56403,0.0],[-7.72708,33.5643,0.0],[-7.72653,33.5643,0.0],[-7.72653,33.56458,0.0],[-7.72625,33.56458,0.0],[-7.72625,33.56486,0.0],[-7.7257,33.56486,0.0],[-7.7257,33.56514,0.0],[-7.72514,33.56514,0.0],[-7.72514,33.56542,0.0],[-7.72458,33.56542,0.0],[-7.72458,33.56569,0.0],[-7.72403,33.56569,0.0],[-7.72403,33.56597,0.0],[-7.72347,33.56597,0.0],[-7.72347,33.56625,0.0],[-7.72264,33.56625,0.0],[-7.72264,33.56653,0.0],[-7.72208,33.56653,0.0],[-7.72208,33.56681,0.0],[-7.72153,33.56681,0.0],[-7.72153,33.56708,0.0],[-7.72097,33.56708,0.0],[-7.72097,33.56736,0.0],[-7.72042,33.56736,0.0],[-7.72042,33.56764,0.0],[-7.71986,33.56764,0.0],[-7.71986,33.56792,0.0],[-7.71958,33.56792,0.0],[-7.71958,33.5682,0.0],[-7.71903,33.5682,0.0],[-7.71903,33.56847,0.0],[-7.71875,33.56847,0.0],[-7.71875,33.56875,0.0],[-7.71819,33.56875,0.0],[-7.71819,33.56903,0.0],[-7.71514,33.56903,0.0],[-7.71514,33.56931,0.0],[-7.71486,33.56931,0.0],[-7.71486,33.56958,0.0],[-7.71431,33.56958,0.0],[-7.71431,33.56986,0.0],[-7.71375,33.56986,0.0],[-7.71375,33.57014,0.0],[-7.71319,33.57014,0.0],[-7.71319,33.57042,0.0],[-7.71292,33.57042,0.0],[-7.71292,33.57069,0.0],[-7.71236,33.57069,0.0],[-7.71236,33.57097,0.0],[-7.71181,33.57097,0.0],[-7.71181,33.57125,0.0],[-7.71125,33.57125,0.0],[-7.71125,33.57153,0.0],[-7.71097,33.57153,0.0],[-7.71097,33.5718,0.0],[-7.71042,33.5718,0.0],[-7.71042,33.57236,0.0],[-7.71014,33.57235,0.0],[-7.71014,33.57347,0.0],[-7.70986,33.57347,0.0],[-7.70986,33.57431,0.0],[-7.70958,33.57431,0.0],[-7.70958,33.57439,0.0],[-7.70233,33.57004,0.0],[-7.69455,33.56311,0.0],[-7.69117,33.56415,0.0],[-7.69066,33.55858,0.0],[-7.69064,33.55225,0.0],[-7.68811,33.5462,0.0],[-7.68363,33.53785,0.0],[-7.68219,33.53584,0.0],[-7.68031,33.53325,0.0],[-7.67627,33.52823,0.0],[-7.67686,33.52451,0.0],[-7.67818,33.52123,0.0],[-7.6842,33.51591,0.0],[-7.68673,33.51201,0.0],[-7.68512,33.50875,0.0],[-7.68038,33.50827,0.0],[-7.67338,33.50696,0.0],[-7.67241,33.50471,0.0],[-7.67279,33.50195,0.0],[-7.67409,33.50015,0.0],[-7.67545,33.49827,0.0],[-7.6777,33.4949,0.0]]]]}},{"type":"Feature","properties":{"uesi_id":"MAR_R4072985","nbhd_code":"MAR_R4072985_015","nbhd_name":"El Majjatia Oulad Taleb"},"geometry":{"type":"MultiPolygon","coordinates":[[[[-7.52772,33.40506,0.0],[-7.53161,33.40764,0.0],[-7.53631,33.40995,0.0],[-7.54159,33.41292,0.0],[-7.54888,33.41455,0.0],[-7.55598,33.4155,0.0],[-7.5581,33.41661,0.0],[-7.56089,33.41906,0.0],[-7.56141,33.42075,0.0],[-7.55923,33.42314,0.0],[-7.55938,33.42554,0.0],[-7.56149,33.42842,0.0],[-7.56597,33.42937,0.0],[-7.56967,33.42909,0.0],[-7.58223,33.43964,0.0],[-7.58557,33.43972,0.0],[-7.58947,33.4383,0.0],[-7.59146,33.43923,0.0],[-7.59445,33.44482,0.0],[-7.59644,33.44554,0.0],[-7.60012,33.44469,0.0],[-7.60039,33.44662,0.0],[-7.59824,33.44981,0.0],[-7.59252,33.45326,0.0],[-7.59128,33.45549,0.0],[-7.5926,33.45657,0.0],[-7.59525,33.45715,0.0],[-7.5966,33.45858,0.0],[-7.59561,33.46056,0.0],[-7.58815,33.46479,0.0],[-7.585,33.46744,0.0],[-7.58009,33.47063,0.0],[-7.57655,33.47353,0.0],[-7.56425,33.4822,0.0],[-7.56393,33.48221,0.0],[-7.56149,33.48233,0.0],[-7.55887,33.48038,0.0],[-7.5553,33.48294,0.0],[-7.55177,33.48606,0.0],[-7.54592,33.48942,0.0],[-7.5429,33.49218,0.0],[-7.5442,33.49511,0.0],[-7.54577,33.49824,0.0],[-7.55539,33.50354,0.0],[-7.55685,33.50668,0.0],[-7.55749,33.50779,0.0],[-7.55447,33.51067,0.0],[-7.55116,33.51494,0.0],[-7.54699,33.51635,0.0],[-7.54412,33.51731,0.0],[-7.53673,33.5189,0.0],[-7.53303,33.5207,0.0],[-7.52868,33.51616,0.0],[-7.52372,33.50996,0.0],[-7.51727,33.50863,0.0],[-7.51269,33.50826,0.0],[-7.50727,33.50792,0.0],[-7.50182,33.5069,0.0],[-7.4977,33.50524,0.0],[-7.49778,33.49962,0.0],[-7.50059,33.49377,0.0],[-7.50121,33.49044,0.0],[-7.49831,33.4885,0.0],[-7.49318,33.48586,0.0],[-7.48731,33.48027,0.0],[-7.47849,33.47595,0.0],[-7.47335,33.4733,0.0],[-7.46808,33.46839,0.0],[-7.4625,33.46302,0.0],[-7.45841,33.45918,0.0],[-7.45581,33.45518,0.0],[-7.44921,33.44627,0.0],[-7.45099,33.44429,0.0],[-7.44872,33.44119,0.0],[-7.44757,33.43826,0.0],[-7.45044,33.43539,0.0],[-7.45964,33.43454,0.0],[-7.46757,33.43362,0.0],[-7.47287,33.43237,0.0],[-7.4768,33.43129,0.0],[-7.47965,33.42831,0.0],[-7.48199,33.42592,0.0],[-7.49139,33.41967,0.0],[-7.49896,33.41478,0.0],[-7.50384,33.41124,0.0],[-7.50899,33.40771,0.0],[-7.51364,33.40565,0.0],[-7.51503,33.40504,0.0],[-7.52025,33.40199,0.0],[-7.52672,33.40465,0.0],[-7.52772,33.40506,0.0]],[[-7.52769,33.45224,0.0],[-7.52997,33.44924,0.0],[-7.53075,33.4345,0.0],[-7.5278,33.43456,0.0],[-7.52605,33.43509,0.0],[-7.52428,33.43513,0.0],[-7.52311,33.43563,0.0],[-7.52194,33.43615,0.0],[-7.52138,33.43715,0.0],[-7.51542,33.43531,0.0],[-7.51305,33.43487,0.0],[-7.51068,33.43443,0.0],[-7.50834,33.43546,0.0],[-7.50839,33.43742,0.0],[-7.50611,33.44041,0.0],[-7.50795,33.44283,0.0],[-7.50804,33.44626,0.0],[-7.50989,33.44917,0.0],[-7.51406,33.45056,0.0],[-7.51642,33.45051,0.0],[-7.51876,33.44947,0.0],[-7.52288,33.44889,0.0],[-7.52353,33.45134,0.0],[-7.52769,33.45224,0.0]]]]}},{"type":"Feature","properties":{"uesi_id":"MAR_R4072985","nbhd_code":"MAR_R4072985_018","nbhd_name":"Lahraouyine"},"geometry":{"type":"MultiPolygon","coordinates":[[[[-7.53303,33.5207,0.0],[-7.53416,33.52188,0.0],[-7.54158,33.52739,0.0],[-7.54624,33.53314,0.0],[-7.54743,33.53653,0.0],[-7.5466,33.53852,0.0],[-7.54546,33.53971,0.0],[-7.5427,33.54259,0.0],[-7.53322,33.54998,0.0],[-7.52536,33.55748,0.0],[-7.52427,33.55715,0.0],[-7.51908,33.55622,0.0],[-7.51579,33.55671,0.0],[-7.5114,33.55901,0.0],[-7.5075,33.55696,0.0],[-7.50156,33.55503,0.0],[-7.49482,33.55348,0.0],[-7.49485,33.54741,0.0],[-7.49501,33.54361,0.0],[-7.49575,33.53762,0.0],[-7.49945,33.53942,0.0],[-7.50017,33.53767,0.0],[-7.49949,33.53563,0.0],[-7.49973,33.53298,0.0],[-7.50409,33.53189,0.0],[-7.50481,33.53002,0.0],[-7.5043,33.5266,0.0],[-7.50389,33.52433,0.0],[-7.50303,33.52369,0.0],[-7.49853,33.52479,0.0],[-7.48923,33.52544,0.0],[-7.48926,33.52485,0.0],[-7.4895,33.52197,0.0],[-7.49231,33.51371,0.0],[-7.4952,33.50936,0.0],[-7.4977,33.50524,0.0],[-7.50182,33.5069,0.0],[-7.50727,33.50792,0.0],[-7.51269,33.50826,0.0],[-7.51727,33.50863,0.0],[-7.52372,33.50996,0.0],[-7.52868,33.51616,0.0],[-7.53303,33.5207,0.0]]]]}},{"type":"Feature","properties":{"uesi_id":"MAR_R4072985","nbhd_code":"MAR_R4072985_001","nbhd_name":"Ahl Laghlam"},"geometry":{"type":"MultiPolygon","coordinates":[[[[-7.49482,33.55348,0.0],[-7.50156,33.55503,0.0],[-7.5075,33.55696,0.0],[-7.5114,33.55901,0.0],[-7.51124,33.55909,0.0],[-7.50712,33.56615,0.0],[-7.50406,33.57226,0.0],[-7.50062,33.57906,0.0],[-7.49677,33.58383,0.0],[-7.49426,33.58773,0.0],[-7.49212,33.59113,0.0],[-7.49088,33.59324,0.0],[-7.48759,33.5918,0.0],[-7.48613,33.59047,0.0],[-7.47284,33.58633,0.0],[-7.46909,33.58821,0.0],[-7.4671,33.58759,0.0],[-7.46636,33.58475,0.0],[-7.46774,33.5817,0.0],[-7.46831,33.58043,0.0],[-7.47147,33.57581,0.0],[-7.47302,33.57209,0.0],[-7.47516,33.56637,0.0],[-7.47654,33.56195,0.0],[-7.47922,33.55548,0.0],[-7.48041,33.55547,0.0],[-7.48506,33.55436,0.0],[-7.48982,33.55313,0.0],[-7.49482,33.55348,0.0]]]]}},{"type":"Feature","properties":{"uesi_id":"MAR_R4072985","nbhd_code":"MAR_R4072985_002","nbhd_name":"Ain Chock"},"geometry":{"type":"MultiPolygon","coordinates":[[[[-7.58489,33.53019,0.0],[-7.58392,33.52921,0.0],[-7.5775,33.52416,0.0],[-7.58148,33.5237,0.0],[-7.58562,33.52364,0.0],[-7.59192,33.52256,0.0],[-7.60039,33.52092,0.0],[-7.60864,33.51804,0.0],[-7.61886,33.51553,0.0],[-7.62461,33.51241,0.0],[-7.6253,33.51177,0.0],[-7.63127,33.52544,0.0],[-7.63407,33.53026,0.0],[-7.63554,33.53455,0.0],[-7.63578,33.53524,0.0],[-7.63745,33.53993,0.0],[-7.63785,33.54103,0.0],[-7.63583,33.54112,0.0],[-7.63133,33.54131,0.0],[-7.62348,33.54221,0.0],[-7.61413,33.54284,0.0],[-7.60751,33.54551,0.0],[-7.60711,33.54567,0.0],[-7.60414,33.54671,0.0],[-7.60026,33.54794,0.0],[-7.59969,33.54812,0.0],[-7.59557,33.54271,0.0],[-7.58953,33.53482,0.0],[-7.58489,33.53019,0.0]]]]}},{"type":"Feature","properties":{"uesi_id":"MAR_R4072985","nbhd_code":"MAR_R4072985_003","nbhd_name":"Ain Harrouda"},"geometry":{"type":"MultiPolygon","coordinates":[[[[-7.47337,33.61143,0.0],[-7.47617,33.61371,0.0],[-7.47947,33.6154,0.0],[-7.48349,33.61535,0.0],[-7.48843,33.61877,0.0],[-7.49563,33.62422,0.0],[-7.50371,33.6288,0.0],[-7.51042,33.6343,0.0],[-7.51042,33.63458,0.0],[-7.51014,33.63458,0.0],[-7.51014,33.63486,0.0],[-7.50958,33.63486,0.0],[-7.50958,33.63514,0.0],[-7.50931,33.63514,0.0],[-7.50931,33.63542,0.0],[-7.50875,33.63542,0.0],[-7.50875,33.63569,0.0],[-7.50847,33.63569,0.0],[-7.50847,33.63597,0.0],[-7.50792,33.63597,0.0],[-7.50792,33.63625,0.0],[-7.50764,33.63625,0.0],[-7.50764,33.63653,0.0],[-7.50736,33.63653,0.0],[-7.50736,33.63681,0.0],[-7.50708,33.63681,0.0],[-7.50708,33.63708,0.0],[-7.50653,33.63708,0.0],[-7.50653,33.63736,0.0],[-7.50625,33.63736,0.0],[-7.50625,33.63764,0.0],[-7.50597,33.63764,0.0],[-7.50597,33.6382,0.0],[-7.50542,33.6382,0.0],[-7.50542,33.63847,0.0],[-7.50514,33.63847,0.0],[-7.50514,33.63875,0.0],[-7.50458,33.63875,0.0],[-7.50458,33.63897,0.0],[-7.50444,33.63903,0.0],[-7.5043,33.63908,0.0],[-7.50375,33.63931,0.0],[-7.50159,33.64017,0.0],[-7.49589,33.64278,0.0],[-7.49501,33.6432,0.0],[-7.49458,33.6432,0.0],[-7.49458,33.64339,0.0],[-7.49442,33.64347,0.0],[-7.49431,33.64352,0.0],[-7.49382,33.64375,0.0],[-7.49181,33.64375,0.0],[-7.49181,33.64403,0.0],[-7.49153,33.64403,0.0],[-7.49153,33.64431,0.0],[-7.49097,33.64431,0.0],[-7.49097,33.64458,0.0],[-7.49069,33.64458,0.0],[-7.49069,33.64486,0.0],[-7.49042,33.64486,0.0],[-7.49042,33.64514,0.0],[-7.49014,33.64514,0.0],[-7.49014,33.64562,0.0],[-7.49,33.64569,0.0],[-7.48986,33.64569,0.0],[-7.48986,33.64577,0.0],[-7.48949,33.64597,0.0],[-7.48931,33.64597,0.0],[-7.48931,33.64607,0.0],[-7.48898,33.64625,0.0],[-7.48847,33.64625,0.0],[-7.48847,33.64653,0.0],[-7.48792,33.64653,0.0],[-7.48792,33.6468,0.0],[-7.48764,33.6468,0.0],[-7.48764,33.64698,0.0],[-7.48744,33.64708,0.0],[-7.48708,33.64708,0.0],[-7.48708,33.64728,0.0],[-7.48693,33.64736,0.0],[-7.48653,33.64736,0.0],[-7.48653,33.64758,0.0],[-7.48641,33.64764,0.0],[-7.48625,33.64764,0.0],[-7.48625,33.64773,0.0],[-7.48625,33.64791,0.0],[-7.48597,33.64791,0.0],[-7.48597,33.64819,0.0],[-7.48569,33.64819,0.0],[-7.48569,33.64847,0.0],[-7.48542,33.64847,0.0],[-7.48542,33.64875,0.0],[-7.48514,33.64875,0.0],[-7.48514,33.64903,0.0],[-7.48486,33.64903,0.0],[-7.48486,33.64931,0.0],[-7.48458,33.64931,0.0],[-7.48458,33.64958,0.0],[-7.4843,33.64958,0.0],[-7.4843,33.65014,0.0],[-7.48403,33.65014,0.0],[-7.48403,33.6507,0.0],[-7.48375,33.6507,0.0],[-7.48375,33.65125,0.0],[-7.48347,33.65125,0.0],[-7.48347,33.65153,0.0],[-7.48292,33.65153,0.0],[-7.48292,33.65181,0.0],[-7.48264,33.65181,0.0],[-7.48264,33.65208,0.0],[-7.48208,33.65208,0.0],[-7.48208,33.65236,0.0],[-7.4818,33.65236,0.0],[-7.4818,33.65264,0.0],[-7.48153,33.65264,0.0],[-7.48153,33.65292,0.0],[-7.48125,33.65292,0.0],[-7.48125,33.65347,0.0],[-7.48097,33.65347,0.0],[-7.48097,33.65375,0.0],[-7.47986,33.65375,0.0],[-7.47986,33.65403,0.0],[-7.4793,33.65403,0.0],[-7.4793,33.6543,0.0],[-7.47903,33.6543,0.0],[-7.47903,33.65458,0.0],[-7.47875,33.65458,0.0],[-7.47875,33.65486,0.0],[-7.4782,33.65486,0.0],[-7.4782,33.65514,0.0],[-7.47736,33.65514,0.0],[-7.47736,33.65542,0.0],[-7.47681,33.65542,0.0],[-7.47681,33.65569,0.0],[-7.47653,33.65569,0.0],[-7.47653,33.65625,0.0],[-7.47625,33.65625,0.0],[-7.47625,33.65681,0.0],[-7.47542,33.65681,0.0],[-7.47542,33.65708,0.0],[-7.47486,33.65708,0.0],[-7.47486,33.65736,0.0],[-7.47431,33.65736,0.0],[-7.47431,33.65764,0.0],[-7.47403,33.65764,0.0],[-7.47403,33.65792,0.0],[-7.47347,33.65792,0.0],[-7.47347,33.6582,0.0],[-7.47319,33.6582,0.0],[-7.47319,33.65847,0.0],[-7.47264,33.65847,0.0],[-7.47264,33.65875,0.0],[-7.47236,33.65875,0.0],[-7.47236,33.65903,0.0],[-7.47181,33.65903,0.0],[-7.47181,33.65931,0.0],[-7.47125,33.65931,0.0],[-7.47125,33.65958,0.0],[-7.47097,33.65958,0.0],[-7.47097,33.65986,0.0],[-7.47042,33.65986,0.0],[-7.47042,33.66014,0.0],[-7.46986,33.66014,0.0],[-7.46986,33.66042,0.0],[-7.46931,33.66042,0.0],[-7.46931,33.66069,0.0],[-7.46903,33.66069,0.0],[-7.46903,33.66097,0.0],[-7.46875,33.66097,0.0],[-7.46875,33.66125,0.0],[-7.46847,33.66125,0.0],[-7.46847,33.66153,0.0],[-7.46792,33.66153,0.0],[-7.46792,33.6618,0.0],[-7.46764,33.6618,0.0],[-7.46764,33.66208,0.0],[-7.46736,33.66208,0.0],[-7.46736,33.66236,0.0],[-7.46681,33.66236,0.0],[-7.46681,33.66264,0.0],[-7.46653,33.66264,0.0],[-7.46653,33.66292,0.0],[-7.46625,33.66291,0.0],[-7.46625,33.66319,0.0],[-7.46597,33.66322,0.0],[-7.46597,33.66347,0.0],[-7.46575,33.66347,0.0],[-7.46569,33.66354,0.0],[-7.46569,33.66375,0.0],[-7.46597,33.66375,0.0],[-7.46597,33.66403,0.0],[-7.46625,33.66403,0.0],[-7.46625,33.66431,0.0],[-7.46653,33.66431,0.0],[-7.46653,33.66459,0.0],[-7.46681,33.66459,0.0],[-7.46681,33.66514,0.0],[-7.46625,33.66514,0.0],[-7.46625,33.66542,0.0],[-7.46597,33.66542,0.0],[-7.46597,33.6657,0.0],[-7.46569,33.6657,0.0],[-7.46569,33.66597,0.0],[-7.46542,33.66597,0.0],[-7.46542,33.66625,0.0],[-7.46514,33.66625,0.0],[-7.46514,33.66653,0.0],[-7.46486,33.66653,0.0],[-7.46486,33.66681,0.0],[-7.46375,33.66681,0.0],[-7.46375,33.66653,0.0],[-7.46319,33.66653,0.0],[-7.46319,33.66681,0.0],[-7.46265,33.66681,0.0],[-7.4618,33.66681,0.0],[-7.4618,33.66708,0.0],[-7.46097,33.66708,0.0],[-7.46097,33.66736,0.0],[-7.46014,33.66736,0.0],[-7.46014,33.66764,0.0],[-7.45958,33.66764,0.0],[-7.45958,33.66792,0.0],[-7.45875,33.66792,0.0],[-7.45875,33.66847,0.0],[-7.45847,33.66847,0.0],[-7.45847,33.66903,0.0],[-7.45792,33.66903,0.0],[-7.45792,33.6693,0.0],[-7.45736,33.6693,0.0],[-7.45736,33.66958,0.0],[-7.45681,33.66958,0.0],[-7.45681,33.66986,0.0],[-7.45635,33.66986,0.0],[-7.45012,33.6645,0.0],[-7.44488,33.66039,0.0],[-7.44301,33.65793,0.0],[-7.44098,33.65675,0.0],[-7.43903,33.65672,0.0],[-7.43647,33.65959,0.0],[-7.43452,33.65955,0.0],[-7.43266,33.65894,0.0],[-7.42883,33.65215,0.0],[-7.41802,33.64466,0.0],[-7.42225,33.642,0.0],[-7.426,33.63992,0.0],[-7.4317,33.63616,0.0],[-7.43942,33.63163,0.0],[-7.44899,33.6276,0.0],[-7.46286,33.6178,0.0],[-7.47153,33.61276,0.0],[-7.47337,33.61143,0.0]]]]}},{"type":"Feature","properties":{"uesi_id":"MAR_R4072985","nbhd_code":"MAR_R4072985_004","nbhd_name":"Ain Sebaa"},"geometry":{"type":"MultiPolygon","coordinates":[[[[-7.50851,33.58771,0.0],[-7.51678,33.58483,0.0],[-7.5169,33.58477,0.0],[-7.52581,33.58111,0.0],[-7.53379,33.57628,0.0],[-7.54158,33.57304,0.0],[-7.54335,33.57415,0.0],[-7.54605,33.57542,0.0],[-7.54578,33.57774,0.0],[-7.54907,33.57713,0.0],[-7.5519,33.58036,0.0],[-7.5549,33.57977,0.0],[-7.55636,33.57868,0.0],[-7.55878,33.57766,0.0],[-7.56541,33.57762,0.0],[-7.56551,33.57761,0.0],[-7.56631,33.58081,0.0],[-7.56609,33.58393,0.0],[-7.56391,33.58459,0.0],[-7.56474,33.58895,0.0],[-7.57189,33.58833,0.0],[-7.57742,33.58835,0.0],[-7.57981,33.59396,0.0],[-7.57985,33.59404,0.0],[-7.58215,33.60625,0.0],[-7.58153,33.60625,0.0],[-7.58153,33.60653,0.0],[-7.58125,33.60653,0.0],[-7.58125,33.6068,0.0],[-7.58097,33.6068,0.0],[-7.58097,33.60708,0.0],[-7.57792,33.60708,0.0],[-7.57792,33.60736,0.0],[-7.57736,33.60736,0.0],[-7.57736,33.60764,0.0],[-7.57625,33.60764,0.0],[-7.57625,33.60792,0.0],[-7.57569,33.60792,0.0],[-7.57569,33.6082,0.0],[-7.57542,33.6082,0.0],[-7.57542,33.60875,0.0],[-7.57514,33.60875,0.0],[-7.57514,33.60931,0.0],[-7.57486,33.60931,0.0],[-7.57486,33.60958,0.0],[-7.57458,33.60958,0.0],[-7.57458,33.60978,0.0],[-7.57458,33.61014,0.0],[-7.57431,33.61014,0.0],[-7.57431,33.61042,0.0],[-7.57347,33.61042,0.0],[-7.57347,33.61014,0.0],[-7.57236,33.61014,0.0],[-7.57236,33.60958,0.0],[-7.57208,33.60958,0.0],[-7.57208,33.60931,0.0],[-7.57181,33.60931,0.0],[-7.57181,33.60903,0.0],[-7.57097,33.60903,0.0],[-7.57097,33.60931,0.0],[-7.57069,33.60931,0.0],[-7.57069,33.60958,0.0],[-7.57042,33.60958,0.0],[-7.57042,33.60986,0.0],[-7.57014,33.60986,0.0],[-7.57014,33.61014,0.0],[-7.56986,33.61014,0.0],[-7.56986,33.61042,0.0],[-7.56958,33.61042,0.0],[-7.56958,33.61069,0.0],[-7.56875,33.61069,0.0],[-7.56875,33.61125,0.0],[-7.56847,33.61125,0.0],[-7.56847,33.6118,0.0],[-7.56708,33.6118,0.0],[-7.56708,33.61208,0.0],[-7.56653,33.61208,0.0],[-7.56653,33.61236,0.0],[-7.56597,33.61236,0.0],[-7.56597,33.61208,0.0],[-7.56514,33.61208,0.0],[-7.56514,33.61292,0.0],[-7.5643,33.61292,0.0],[-7.5643,33.61403,0.0],[-7.5632,33.61403,0.0],[-7.5632,33.61375,0.0],[-7.56208,33.61375,0.0],[-7.56208,33.61347,0.0],[-7.56125,33.61347,0.0],[-7.56125,33.61319,0.0],[-7.56097,33.61319,0.0],[-7.56097,33.61347,0.0],[-7.5607,33.61347,0.0],[-7.5607,33.61375,0.0],[-7.56014,33.61375,0.0],[-7.56014,33.61403,0.0],[-7.55986,33.61403,0.0],[-7.55986,33.61431,0.0],[-7.55958,33.61431,0.0],[-7.55958,33.61458,0.0],[-7.55931,33.61458,0.0],[-7.55931,33.61486,0.0],[-7.55875,33.61486,0.0],[-7.55875,33.61514,0.0],[-7.55847,33.61514,0.0],[-7.55847,33.61542,0.0],[-7.5582,33.61542,0.0],[-7.5582,33.61625,0.0],[-7.55792,33.61625,0.0],[-7.55792,33.6166,0.0],[-7.55792,33.61708,0.0],[-7.55674,33.61708,0.0],[-7.55625,33.61708,0.0],[-7.55625,33.61736,0.0],[-7.55618,33.61736,0.0],[-7.55597,33.61736,0.0],[-7.55597,33.61746,0.0],[-7.55597,33.61764,0.0],[-7.55562,33.61764,0.0],[-7.55542,33.61764,0.0],[-7.55542,33.61774,0.0],[-7.55542,33.61792,0.0],[-7.55514,33.61792,0.0],[-7.55514,33.61819,0.0],[-7.55486,33.61819,0.0],[-7.55486,33.61847,0.0],[-7.55458,33.61847,0.0],[-7.55458,33.61875,0.0],[-7.55431,33.61875,0.0],[-7.55431,33.61903,0.0],[-7.55403,33.61903,0.0],[-7.55403,33.6193,0.0],[-7.55375,33.6193,0.0],[-7.55375,33.61958,0.0],[-7.55236,33.61958,0.0],[-7.55236,33.61986,0.0],[-7.55153,33.61986,0.0],[-7.55153,33.62014,0.0],[-7.55069,33.62014,0.0],[-7.55069,33.62041,0.0],[-7.54931,33.62041,0.0],[-7.54931,33.62014,0.0],[-7.54903,33.62014,0.0],[-7.54903,33.61986,0.0],[-7.54875,33.61986,0.0],[-7.54875,33.61958,0.0],[-7.54847,33.61958,0.0],[-7.54847,33.61933,0.0],[-7.54847,33.61903,0.0],[-7.54819,33.61903,0.0],[-7.54819,33.61875,0.0],[-7.54681,33.61875,0.0],[-7.54681,33.61903,0.0],[-7.54625,33.61903,0.0],[-7.54625,33.6193,0.0],[-7.54597,33.6193,0.0],[-7.54597,33.61957,0.0],[-7.54569,33.61959,0.0],[-7.54569,33.62041,0.0],[-7.54542,33.62042,0.0],[-7.54542,33.62097,0.0],[-7.54514,33.62097,0.0],[-7.54514,33.62153,0.0],[-7.54264,33.62153,0.0],[-7.54264,33.62025,0.0],[-7.54264,33.62014,0.0],[-7.54332,33.62014,0.0],[-7.54431,33.62014,0.0],[-7.54431,33.6199,0.0],[-7.54375,33.61986,0.0],[-7.54375,33.61958,0.0],[-7.54319,33.61958,0.0],[-7.54319,33.61903,0.0],[-7.54292,33.61903,0.0],[-7.54292,33.61875,0.0],[-7.54236,33.61875,0.0],[-7.54236,33.61903,0.0],[-7.54208,33.61903,0.0],[-7.54208,33.6193,0.0],[-7.54153,33.6193,0.0],[-7.54153,33.61958,0.0],[-7.54125,33.61958,0.0],[-7.54125,33.61986,0.0],[-7.54097,33.61986,0.0],[-7.54097,33.62014,0.0],[-7.53625,33.62014,0.0],[-7.53625,33.62041,0.0],[-7.5357,33.62042,0.0],[-7.5357,33.62069,0.0],[-7.53542,33.62069,0.0],[-7.53542,33.62097,0.0],[-7.53403,33.62097,0.0],[-7.53403,33.62153,0.0],[-7.53375,33.62153,0.0],[-7.53375,33.62181,0.0],[-7.53347,33.62181,0.0],[-7.53347,33.62208,0.0],[-7.53181,33.62208,0.0],[-7.53181,33.62236,0.0],[-7.53014,33.62236,0.0],[-7.53014,33.6232,0.0],[-7.52986,33.6232,0.0],[-7.52986,33.62403,0.0],[-7.52929,33.62403,0.0],[-7.52412,33.61246,0.0],[-7.52409,33.60986,0.0],[-7.52665,33.60691,0.0],[-7.5252,33.60594,0.0],[-7.5216,33.60598,0.0],[-7.51923,33.60345,0.0],[-7.51725,33.60089,0.0],[-7.51834,33.59843,0.0],[-7.51812,33.595,0.0],[-7.5149,33.59019,0.0],[-7.50851,33.58771,0.0]]]]}},{"type":"Feature","properties":{"uesi_id":"MAR_R4072985","nbhd_code":"MAR_R4072985_005","nbhd_name":"Al Fida"},"geometry":{"type":"MultiPolygon","coordinates":[[[[-7.60382,33.56675,0.0],[-7.60015,33.56951,0.0],[-7.59781,33.57153,0.0],[-7.59662,33.57255,0.0],[-7.59429,33.57512,0.0],[-7.59089,33.57162,0.0],[-7.58342,33.56706,0.0],[-7.58091,33.56527,0.0],[-7.59015,33.56401,0.0],[-7.59624,33.56393,0.0],[-7.59899,33.56389,0.0],[-7.60488,33.56076,0.0],[-7.61041,33.55691,0.0],[-7.61162,33.55963,0.0],[-7.60663,33.56462,0.0],[-7.60382,33.56675,0.0]]]]}},{"type":"Feature","properties":{"uesi_id":"MAR_R4072985","nbhd_code":"MAR_R4072985_006","nbhd_name":"Al Idrissia"},"geometry":{"type":"MultiPolygon","coordinates":[[[[-7.58502,33.5544,0.0],[-7.59119,33.55129,0.0],[-7.59349,33.55776,0.0],[-7.59624,33.56393,0.0],[-7.59015,33.56401,0.0],[-7.58091,33.56527,0.0],[-7.57354,33.56004,0.0],[-7.5745,33.55936,0.0],[-7.58471,33.55456,0.0],[-7.58502,33.5544,0.0]]]]}},{"type":"Feature","properties":{"uesi_id":"MAR_R4072985","nbhd_code":"MAR_R4072985_007","nbhd_name":"Anfa"},"geometry":{"type":"MultiPolygon","coordinates":[[[[-7.66048,33.57207,0.0],[-7.66307,33.57141,0.0],[-7.67026,33.5694,0.0],[-7.68025,33.56539,0.0],[-7.68663,33.56403,0.0],[-7.69117,33.56415,0.0],[-7.69455,33.56311,0.0],[-7.70233,33.57004,0.0],[-7.70958,33.57439,0.0],[-7.70958,33.57542,0.0],[-7.70931,33.57542,0.0],[-7.70931,33.57625,0.0],[-7.70903,33.57625,0.0],[-7.70903,33.57682,0.0],[-7.70903,33.57708,0.0],[-7.70875,33.57713,0.0],[-7.70875,33.57764,0.0],[-7.70847,33.57764,0.0],[-7.70847,33.57847,0.0],[-7.70819,33.57847,0.0],[-7.70819,33.5793,0.0],[-7.70792,33.5793,0.0],[-7.70792,33.58014,0.0],[-7.70764,33.58014,0.0],[-7.70764,33.58097,0.0],[-7.70681,33.58097,0.0],[-7.70681,33.58153,0.0],[-7.70653,33.58153,0.0],[-7.70653,33.58208,0.0],[-7.70625,33.58208,0.0],[-7.70625,33.58264,0.0],[-7.70597,33.58264,0.0],[-7.70597,33.58347,0.0],[-7.7057,33.58347,0.0],[-7.70569,33.5843,0.0],[-7.70542,33.5843,0.0],[-7.70542,33.58486,0.0],[-7.70514,33.58486,0.0],[-7.70514,33.58541,0.0],[-7.70403,33.58541,0.0],[-7.70403,33.58569,0.0],[-7.70347,33.58569,0.0],[-7.70347,33.58486,0.0],[-7.70375,33.58486,0.0],[-7.70375,33.58403,0.0],[-7.70347,33.58403,0.0],[-7.70347,33.58361,0.0],[-7.70347,33.58347,0.0],[-7.7032,33.58347,0.0],[-7.7032,33.58319,0.0],[-7.70292,33.58319,0.0],[-7.70292,33.58347,0.0],[-7.70264,33.58347,0.0],[-7.70264,33.58394,0.0],[-7.70264,33.5843,0.0],[-7.70153,33.5843,0.0],[-7.70153,33.58458,0.0],[-7.7007,33.58458,0.0],[-7.7007,33.58486,0.0],[-7.70014,33.58486,0.0],[-7.70014,33.58514,0.0],[-7.69903,33.58514,0.0],[-7.69903,33.58484,0.0],[-7.69903,33.58403,0.0],[-7.69931,33.58403,0.0],[-7.69931,33.58319,0.0],[-7.69458,33.58319,0.0],[-7.69458,33.58347,0.0],[-7.6943,33.58347,0.0],[-7.6943,33.58375,0.0],[-7.69375,33.58375,0.0],[-7.69375,33.58403,0.0],[-7.69347,33.58403,0.0],[-7.69347,33.5843,0.0],[-7.69292,33.5843,0.0],[-7.69292,33.58458,0.0],[-7.69236,33.58458,0.0],[-7.69236,33.58486,0.0],[-7.69208,33.58486,0.0],[-7.69208,33.58514,0.0],[-7.69153,33.58514,0.0],[-7.69153,33.58541,0.0],[-7.69097,33.58541,0.0],[-7.69097,33.58569,0.0],[-7.69069,33.58569,0.0],[-7.69069,33.58597,0.0],[-7.69014,33.58597,0.0],[-7.69014,33.58625,0.0],[-7.68958,33.58625,0.0],[-7.68958,33.58653,0.0],[-7.68875,33.58653,0.0],[-7.68875,33.58681,0.0],[-7.68819,33.58681,0.0],[-7.68819,33.58708,0.0],[-7.68764,33.58708,0.0],[-7.68764,33.58736,0.0],[-7.68681,33.58736,0.0],[-7.68681,33.58764,0.0],[-7.68625,33.58764,0.0],[-7.68625,33.58792,0.0],[-7.68569,33.58792,0.0],[-7.68569,33.5882,0.0],[-7.68542,33.5882,0.0],[-7.68542,33.58847,0.0],[-7.68486,33.58847,0.0],[-7.68486,33.58868,0.0],[-7.68486,33.58875,0.0],[-7.68467,33.58875,0.0],[-7.68431,33.58875,0.0],[-7.68431,33.58888,0.0],[-7.68431,33.58903,0.0],[-7.68403,33.58903,0.0],[-7.68403,33.58931,0.0],[-7.68347,33.58931,0.0],[-7.68347,33.58958,0.0],[-7.68292,33.58958,0.0],[-7.68292,33.58986,0.0],[-7.68264,33.58986,0.0],[-7.68264,33.59014,0.0],[-7.68208,33.59014,0.0],[-7.68208,33.59042,0.0],[-7.68181,33.59042,0.0],[-7.68181,33.59069,0.0],[-7.68153,33.59069,0.0],[-7.68153,33.59097,0.0],[-7.68125,33.59097,0.0],[-7.68125,33.59125,0.0],[-7.68097,33.59125,0.0],[-7.68097,33.59153,0.0],[-7.68069,33.59158,0.0],[-7.68069,33.59208,0.0],[-7.68097,33.59208,0.0],[-7.68097,33.59344,0.0],[-7.68097,33.59403,0.0],[-7.68069,33.59403,0.0],[-7.68069,33.59447,0.0],[-7.68069,33.5957,0.0],[-7.68042,33.5957,0.0],[-7.68042,33.59653,0.0],[-7.67875,33.59653,0.0],[-7.67875,33.59681,0.0],[-7.67805,33.59681,0.0],[-7.67736,33.59681,0.0],[-7.67736,33.59708,0.0],[-7.67569,33.59708,0.0],[-7.67569,33.59736,0.0],[-7.6743,33.59736,0.0],[-7.6743,33.59764,0.0],[-7.67125,33.59764,0.0],[-7.67125,33.59792,0.0],[-7.67044,33.59792,0.0],[-7.66847,33.59792,0.0],[-7.66847,33.59819,0.0],[-7.66764,33.59819,0.0],[-7.66764,33.59847,0.0],[-7.66653,33.59847,0.0],[-7.66653,33.59875,0.0],[-7.6657,33.59875,0.0],[-7.6657,33.59903,0.0],[-7.66514,33.59903,0.0],[-7.66514,33.5993,0.0],[-7.66458,33.5993,0.0],[-7.66458,33.59958,0.0],[-7.66403,33.59958,0.0],[-7.66403,33.59986,0.0],[-7.66375,33.59986,0.0],[-7.66375,33.60014,0.0],[-7.66347,33.60014,0.0],[-7.66347,33.60042,0.0],[-7.6632,33.60042,0.0],[-7.6632,33.60069,0.0],[-7.66292,33.60069,0.0],[-7.66292,33.60097,0.0],[-7.66236,33.60097,0.0],[-7.66236,33.60125,0.0],[-7.66208,33.60125,0.0],[-7.66208,33.60153,0.0],[-7.66181,33.60153,0.0],[-7.66181,33.60181,0.0],[-7.66153,33.60181,0.0],[-7.66153,33.60209,0.0],[-7.66125,33.60209,0.0],[-7.66125,33.60264,0.0],[-7.66097,33.60264,0.0],[-7.66097,33.6032,0.0],[-7.66069,33.6032,0.0],[-7.66069,33.60347,0.0],[-7.66042,33.60347,0.0],[-7.66042,33.60375,0.0],[-7.66014,33.60375,0.0],[-7.66014,33.60403,0.0],[-7.65986,33.60403,0.0],[-7.65986,33.60431,0.0],[-7.65958,33.60431,0.0],[-7.65958,33.60458,0.0],[-7.65931,33.60458,0.0],[-7.65931,33.60514,0.0],[-7.65903,33.60514,0.0],[-7.65903,33.60569,0.0],[-7.65875,33.60569,0.0],[-7.65875,33.60625,0.0],[-7.65847,33.60625,0.0],[-7.65847,33.60653,0.0],[-7.65819,33.60653,0.0],[-7.65819,33.6068,0.0],[-7.65792,33.6068,0.0],[-7.65792,33.60736,0.0],[-7.65764,33.60736,0.0],[-7.65764,33.60764,0.0],[-7.65708,33.60764,0.0],[-7.65708,33.60792,0.0],[-7.65681,33.60792,0.0],[-7.65681,33.6082,0.0],[-7.65625,33.6082,0.0],[-7.65625,33.60931,0.0],[-7.65597,33.60931,0.0],[-7.65597,33.60986,0.0],[-7.65569,33.60986,0.0],[-7.65569,33.61042,0.0],[-7.65542,33.61042,0.0],[-7.65542,33.61097,0.0],[-7.65458,33.61097,0.0],[-7.65458,33.61125,0.0],[-7.65375,33.61125,0.0],[-7.65375,33.61319,0.0],[-7.65347,33.61319,0.0],[-7.65347,33.61375,0.0],[-7.65319,33.61375,0.0],[-7.65319,33.61419,0.0],[-7.65319,33.61431,0.0],[-7.65279,33.61431,0.0],[-7.65264,33.61431,0.0],[-7.65264,33.61375,0.0],[-7.65236,33.61375,0.0],[-7.65236,33.61319,0.0],[-7.65208,33.61319,0.0],[-7.65208,33.61264,0.0],[-7.6518,33.61264,0.0],[-7.6518,33.61236,0.0],[-7.65153,33.61236,0.0],[-7.65153,33.61208,0.0],[-7.65125,33.61208,0.0],[-7.65125,33.6118,0.0],[-7.65086,33.6118,0.0],[-7.65069,33.6118,0.0],[-7.6507,33.61152,0.0],[-7.65042,33.61153,0.0],[-7.65042,33.61125,0.0],[-7.64986,33.61125,0.0],[-7.64986,33.61097,0.0],[-7.64958,33.61097,0.0],[-7.64958,33.60953,0.0],[-7.64958,33.60875,0.0],[-7.6493,33.60875,0.0],[-7.6493,33.6082,0.0],[-7.64958,33.6082,0.0],[-7.64958,33.60792,0.0],[-7.64903,33.60792,0.0],[-7.64903,33.60708,0.0],[-7.64875,33.60708,0.0],[-7.64875,33.6068,0.0],[-7.64847,33.6068,0.0],[-7.64847,33.60625,0.0],[-7.64819,33.60625,0.0],[-7.64819,33.60569,0.0],[-7.64764,33.60569,0.0],[-7.64764,33.60542,0.0],[-7.6468,33.60542,0.0],[-7.6468,33.60514,0.0],[-7.64597,33.60514,0.0],[-7.64597,33.60486,0.0],[-7.64542,33.60486,0.0],[-7.64542,33.60458,0.0],[-7.64458,33.60458,0.0],[-7.64458,33.60403,0.0],[-7.64431,33.60403,0.0],[-7.64431,33.60347,0.0],[-7.64292,33.60347,0.0],[-7.64292,33.60375,0.0],[-7.63958,33.60375,0.0],[-7.63913,33.59988,0.0],[-7.63994,33.59711,0.0],[-7.63982,33.59528,0.0],[-7.63872,33.5943,0.0],[-7.6386,33.59077,0.0],[-7.63801,33.58725,0.0],[-7.63693,33.58587,0.0],[-7.63987,33.5835,0.0],[-7.64759,33.57841,0.0],[-7.65388,33.57465,0.0],[-7.66048,33.57207,0.0]]]]}},{"type":"Feature","properties":{"uesi_id":"MAR_R4072985","nbhd_code":"MAR_R4072985_008","nbhd_name":"Assoukhour Assawda"},"geometry":{"type":"MultiPolygon","coordinates":[[[[-7.55383,33.56623,0.0],[-7.55488,33.56641,0.0],[-7.56018,33.56689,0.0],[-7.56735,33.56439,0.0],[-7.5715,33.56147,0.0],[-7.57354,33.56004,0.0],[-7.58091,33.56527,0.0],[-7.58342,33.56706,0.0],[-7.59089,33.57162,0.0],[-7.59429,33.57512,0.0],[-7.59708,33.578,0.0],[-7.60044,33.58344,0.0],[-7.60056,33.58361,0.0],[-7.60079,33.58793,0.0],[-7.60091,33.59237,0.0],[-7.59847,33.60181,0.0],[-7.59819,33.60181,0.0],[-7.59819,33.60153,0.0],[-7.59792,33.60153,0.0],[-7.59681,33.60153,0.0],[-7.59681,33.60125,0.0],[-7.59537,33.60125,0.0],[-7.59486,33.60125,0.0],[-7.59486,33.60153,0.0],[-7.59431,33.60153,0.0],[-7.59431,33.60181,0.0],[-7.59423,33.60181,0.0],[-7.59403,33.60181,0.0],[-7.59403,33.60191,0.0],[-7.59403,33.60209,0.0],[-7.59367,33.60209,0.0],[-7.59347,33.60209,0.0],[-7.59347,33.60218,0.0],[-7.59347,33.60236,0.0],[-7.59319,33.60236,0.0],[-7.59319,33.60264,0.0],[-7.59264,33.60264,0.0],[-7.59264,33.60292,0.0],[-7.59236,33.60292,0.0],[-7.59236,33.60347,0.0],[-7.59264,33.60347,0.0],[-7.59264,33.60403,0.0],[-7.59319,33.60403,0.0],[-7.59319,33.60431,0.0],[-7.59375,33.60431,0.0],[-7.59375,33.60458,0.0],[-7.59403,33.60458,0.0],[-7.59403,33.60486,0.0],[-7.59458,33.60486,0.0],[-7.59458,33.60514,0.0],[-7.59514,33.60514,0.0],[-7.59514,33.60569,0.0],[-7.59542,33.60569,0.0],[-7.59542,33.60625,0.0],[-7.5957,33.60625,0.0],[-7.5957,33.6068,0.0],[-7.59597,33.6068,0.0],[-7.59597,33.60736,0.0],[-7.59625,33.60736,0.0],[-7.59625,33.60792,0.0],[-7.59653,33.60792,0.0],[-7.59653,33.60847,0.0],[-7.59625,33.60847,0.0],[-7.59625,33.60875,0.0],[-7.59653,33.60875,0.0],[-7.59653,33.60931,0.0],[-7.59681,33.60931,0.0],[-7.59681,33.60986,0.0],[-7.59708,33.60986,0.0],[-7.59708,33.61014,0.0],[-7.59736,33.61014,0.0],[-7.59736,33.61042,0.0],[-7.59681,33.61042,0.0],[-7.59681,33.61069,0.0],[-7.59625,33.61069,0.0],[-7.59625,33.61097,0.0],[-7.5957,33.61097,0.0],[-7.5957,33.61125,0.0],[-7.59542,33.61125,0.0],[-7.59542,33.61153,0.0],[-7.59486,33.61153,0.0],[-7.59486,33.6118,0.0],[-7.59458,33.6118,0.0],[-7.59458,33.61236,0.0],[-7.59347,33.61236,0.0],[-7.59347,33.61208,0.0],[-7.59319,33.61208,0.0],[-7.59319,33.61153,0.0],[-7.59292,33.61153,0.0],[-7.59292,33.61125,0.0],[-7.59264,33.61125,0.0],[-7.59264,33.61069,0.0],[-7.59236,33.61069,0.0],[-7.59236,33.61042,0.0],[-7.59208,33.61042,0.0],[-7.59208,33.60986,0.0],[-7.5918,33.60986,0.0],[-7.5918,33.60931,0.0],[-7.59153,33.60931,0.0],[-7.59153,33.60903,0.0],[-7.59125,33.60903,0.0],[-7.59125,33.60847,0.0],[-7.59097,33.60847,0.0],[-7.59097,33.6082,0.0],[-7.59069,33.6082,0.0],[-7.59069,33.60792,0.0],[-7.59042,33.60792,0.0],[-7.59042,33.60764,0.0],[-7.59014,33.60764,0.0],[-7.59014,33.60736,0.0],[-7.58986,33.60736,0.0],[-7.58986,33.60708,0.0],[-7.58958,33.60708,0.0],[-7.58958,33.60625,0.0],[-7.58903,33.60625,0.0],[-7.58903,33.60597,0.0],[-7.58875,33.60597,0.0],[-7.58875,33.60542,0.0],[-7.58708,33.60542,0.0],[-7.58708,33.60514,0.0],[-7.58653,33.60514,0.0],[-7.58653,33.60491,0.0],[-7.58625,33.60486,0.0],[-7.58625,33.60504,0.0],[-7.58625,33.60514,0.0],[-7.58605,33.60514,0.0],[-7.58569,33.60514,0.0],[-7.58569,33.60486,0.0],[-7.58514,33.60486,0.0],[-7.58514,33.60431,0.0],[-7.58486,33.60431,0.0],[-7.58486,33.60458,0.0],[-7.58431,33.60458,0.0],[-7.58431,33.60514,0.0],[-7.58403,33.60514,0.0],[-7.58403,33.60569,0.0],[-7.58375,33.60569,0.0],[-7.58375,33.60597,0.0],[-7.58292,33.60597,0.0],[-7.58292,33.60625,0.0],[-7.58215,33.60625,0.0],[-7.57985,33.59404,0.0],[-7.57981,33.59396,0.0],[-7.57742,33.58835,0.0],[-7.5799,33.58838,0.0],[-7.58044,33.58833,0.0],[-7.58689,33.5878,0.0],[-7.58501,33.58401,0.0],[-7.58087,33.57943,0.0],[-7.57623,33.57613,0.0],[-7.57133,33.57264,0.0],[-7.56051,33.57008,0.0],[-7.55864,33.5689,0.0],[-7.55383,33.56623,0.0]]]]}},{"type":"Feature","properties":{"uesi_id":"MAR_R4072985","nbhd_code":"MAR_R4072985_009","nbhd_name":"Ben Msick"},"geometry":{"type":"MultiPolygon","coordinates":[[[[-7.5723,33.53833,0.0],[-7.57611,33.53471,0.0],[-7.58489,33.53019,0.0],[-7.58953,33.53482,0.0],[-7.59557,33.54271,0.0],[-7.59969,33.54812,0.0],[-7.59369,33.55003,0.0],[-7.59119,33.55129,0.0],[-7.58502,33.5544,0.0],[-7.58033,33.54877,0.0],[-7.57827,33.54461,0.0],[-7.57564,33.54035,0.0],[-7.57346,33.53895,0.0],[-7.5723,33.53833,0.0]]]]}},{"type":"Feature","properties":{"uesi_id":"MAR_R4072985","nbhd_code":"MAR_R4072985_010","nbhd_name":"Bou Chentouf"},"geometry":{"type":"MultiPolygon","coordinates":[[[[-7.59969,33.54812,0.0],[-7.60026,33.54794,0.0],[-7.60414,33.54671,0.0],[-7.60711,33.54567,0.0],[-7.60751,33.54551,0.0],[-7.60893,33.55251,0.0],[-7.61013,33.55627,0.0],[-7.61041,33.55691,0.0],[-7.60488,33.56076,0.0],[-7.59899,33.56389,0.0],[-7.59624,33.56393,0.0],[-7.59349,33.55776,0.0],[-7.59119,33.55129,0.0],[-7.59369,33.55003,0.0],[-7.59969,33.54812,0.0]]]]}},{"type":"Feature","properties":{"uesi_id":"MAR_R4072985","nbhd_code":"MAR_R4072985_014","nbhd_name":"El Maarif"},"geometry":{"type":"MultiPolygon","coordinates":[[[[-7.61041,33.55691,0.0],[-7.61013,33.55627,0.0],[-7.60893,33.55251,0.0],[-7.60751,33.54551,0.0],[-7.61413,33.54284,0.0],[-7.62348,33.54221,0.0],[-7.63133,33.54131,0.0],[-7.63583,33.54112,0.0],[-7.63785,33.54103,0.0],[-7.63849,33.541,0.0],[-7.64388,33.54321,0.0],[-7.64408,33.54644,0.0],[-7.64227,33.5508,0.0],[-7.64052,33.5561,0.0],[-7.64048,33.56054,0.0],[-7.64357,33.56383,0.0],[-7.64963,33.56905,0.0],[-7.65555,33.57221,0.0],[-7.66048,33.57207,0.0],[-7.65388,33.57465,0.0],[-7.64759,33.57841,0.0],[-7.63987,33.5835,0.0],[-7.63693,33.58587,0.0],[-7.6361,33.58478,0.0],[-7.63236,33.58145,0.0],[-7.62768,33.57862,0.0],[-7.62157,33.57505,0.0],[-7.61668,33.57368,0.0],[-7.61408,33.57264,0.0],[-7.61649,33.57029,0.0],[-7.61683,33.56656,0.0],[-7.61482,33.56303,0.0],[-7.61189,33.56024,0.0],[-7.61162,33.55963,0.0],[-7.61041,33.55691,0.0]]]]}},{"type":"Feature","properties":{"uesi_id":"MAR_R4072985","nbhd_code":"MAR_R4072985_016","nbhd_name":"Hay Hassani"},"geometry":{"type":"MultiPolygon","coordinates":[[[[-7.69117,33.56415,0.0],[-7.68663,33.56403,0.0],[-7.68025,33.56539,0.0],[-7.67026,33.5694,0.0],[-7.66307,33.57141,0.0],[-7.66048,33.57207,0.0],[-7.65555,33.57221,0.0],[-7.64963,33.56905,0.0],[-7.64357,33.56383,0.0],[-7.64048,33.56054,0.0],[-7.64052,33.5561,0.0],[-7.64227,33.5508,0.0],[-7.64408,33.54644,0.0],[-7.64388,33.54321,0.0],[-7.63849,33.541,0.0],[-7.63785,33.54103,0.0],[-7.63745,33.53993,0.0],[-7.64288,33.53598,0.0],[-7.64668,33.53502,0.0],[-7.65067,33.53461,0.0],[-7.6552,33.53615,0.0],[-7.66134,33.53717,0.0],[-7.66886,33.538,0.0],[-7.67504,33.53751,0.0],[-7.68219,33.53584,0.0],[-7.68363,33.53785,0.0],[-7.68811,33.5462,0.0],[-7.69064,33.55225,0.0],[-7.69066,33.55858,0.0],[-7.69117,33.56415,0.0]]]]}},{"type":"Feature","properties":{"uesi_id":"MAR_R4072985","nbhd_code":"MAR_R4072985_017","nbhd_name":"Hay Mohammadi"},"geometry":{"type":"MultiPolygon","coordinates":[[[[-7.57742,33.58835,0.0],[-7.57189,33.58833,0.0],[-7.56474,33.58895,0.0],[-7.56391,33.58459,0.0],[-7.56609,33.58393,0.0],[-7.56631,33.58081,0.0],[-7.56551,33.57761,0.0],[-7.56541,33.57762,0.0],[-7.55878,33.57766,0.0],[-7.55636,33.57868,0.0],[-7.5549,33.57977,0.0],[-7.5519,33.58036,0.0],[-7.54907,33.57713,0.0],[-7.54578,33.57774,0.0],[-7.54605,33.57542,0.0],[-7.54335,33.57415,0.0],[-7.54158,33.57304,0.0],[-7.54457,33.5718,0.0],[-7.55383,33.56623,0.0],[-7.55864,33.5689,0.0],[-7.56051,33.57008,0.0],[-7.57133,33.57264,0.0],[-7.57623,33.57613,0.0],[-7.58087,33.57943,0.0],[-7.58501,33.58401,0.0],[-7.58689,33.5878,0.0],[-7.58044,33.58833,0.0],[-7.5799,33.58838,0.0],[-7.57742,33.58835,0.0]]]]}},{"type":"Feature","properties":{"uesi_id":"MAR_R4072985","nbhd_code":"MAR_R4072985_019","nbhd_name":"Lissasfa"},"geometry":{"type":"MultiPolygon","coordinates":[[[[-7.63554,33.53455,0.0],[-7.64461,33.5328,0.0],[-7.64846,33.5301,0.0],[-7.64935,33.52707,0.0],[-7.64912,33.52328,0.0],[-7.64935,33.51834,0.0],[-7.65051,33.51255,0.0],[-7.6535,33.5076,0.0],[-7.6583,33.50486,0.0],[-7.66574,33.50214,0.0],[-7.67409,33.50015,0.0],[-7.67279,33.50195,0.0],[-7.67241,33.50471,0.0],[-7.67338,33.50696,0.0],[-7.68038,33.50827,0.0],[-7.68512,33.50875,0.0],[-7.68673,33.51201,0.0],[-7.6842,33.51591,0.0],[-7.67818,33.52123,0.0],[-7.67686,33.52451,0.0],[-7.67627,33.52823,0.0],[-7.68031,33.53325,0.0],[-7.68219,33.53584,0.0],[-7.67504,33.53751,0.0],[-7.66886,33.538,0.0],[-7.66134,33.53717,0.0],[-7.6552,33.53615,0.0],[-7.65067,33.53461,0.0],[-7.64668,33.53502,0.0],[-7.64288,33.53598,0.0],[-7.63745,33.53993,0.0],[-7.63578,33.53524,0.0],[-7.63554,33.53455,0.0]]]]}},{"type":"Feature","properties":{"uesi_id":"MAR_R4072985","nbhd_code":"MAR_R4072985_020","nbhd_name":"Machouar Casablanca"},"geometry":{"type":"MultiPolygon","coordinates":[[[[-7.59781,33.57153,0.0],[-7.60015,33.56951,0.0],[-7.60382,33.56675,0.0],[-7.6074,33.56807,0.0],[-7.61008,33.56913,0.0],[-7.60893,33.57069,0.0],[-7.60547,33.57292,0.0],[-7.60337,33.57475,0.0],[-7.60282,33.57443,0.0],[-7.59781,33.57153,0.0]]]]}},{"type":"Feature","properties":{"uesi_id":"MAR_R4072985","nbhd_code":"MAR_R4072985_021","nbhd_name":"Mediouna"},"geometry":{"type":"MultiPolygon","coordinates":[[[[-7.52353,33.45134,0.0],[-7.52288,33.44889,0.0],[-7.51876,33.44947,0.0],[-7.51642,33.45051,0.0],[-7.51406,33.45056,0.0],[-7.50989,33.44917,0.0],[-7.50804,33.44626,0.0],[-7.50795,33.44283,0.0],[-7.50611,33.44041,0.0],[-7.50839,33.43742,0.0],[-7.50834,33.43546,0.0],[-7.51068,33.43443,0.0],[-7.51305,33.43487,0.0],[-7.51542,33.43531,0.0],[-7.52138,33.43715,0.0],[-7.52194,33.43615,0.0],[-7.52311,33.43563,0.0],[-7.52428,33.43513,0.0],[-7.52605,33.43509,0.0],[-7.5278,33.43456,0.0],[-7.53075,33.4345,0.0],[-7.52997,33.44924,0.0],[-7.52769,33.45224,0.0],[-7.52353,33.45134,0.0]]]]}},{"type":"Feature","properties":{"uesi_id":"MAR_R4072985","nbhd_code":"MAR_R4072985_022","nbhd_name":"Mers Sultan"},"geometry":{"type":"MultiPolygon","coordinates":[[[[-7.59781,33.57153,0.0],[-7.60282,33.57443,0.0],[-7.60337,33.57475,0.0],[-7.60547,33.57292,0.0],[-7.60893,33.57069,0.0],[-7.61008,33.56913,0.0],[-7.6074,33.56807,0.0],[-7.60382,33.56675,0.0],[-7.60663,33.56462,0.0],[-7.61162,33.55963,0.0],[-7.61189,33.56024,0.0],[-7.61482,33.56303,0.0],[-7.61683,33.56656,0.0],[-7.61649,33.57029,0.0],[-7.61408,33.57264,0.0],[-7.61375,33.57298,0.0],[-7.61057,33.57542,0.0],[-7.60606,33.5784,0.0],[-7.60044,33.58344,0.0],[-7.59708,33.578,0.0],[-7.59429,33.57512,0.0],[-7.59662,33.57255,0.0],[-7.59781,33.57153,0.0]]]]}},{"type":"Feature","properties":{"uesi_id":"MAR_R4072985","nbhd_code":"MAR_R4072985_023","nbhd_name":"Moulay Rachid"},"geometry":{"type":"MultiPolygon","coordinates":[[[[-7.52536,33.55748,0.0],[-7.53322,33.54998,0.0],[-7.5427,33.54259,0.0],[-7.54546,33.53971,0.0],[-7.55696,33.55138,0.0],[-7.56483,33.55748,0.0],[-7.5715,33.56147,0.0],[-7.56735,33.56439,0.0],[-7.56018,33.56689,0.0],[-7.55488,33.56641,0.0],[-7.55383,33.56623,0.0],[-7.55013,33.56558,0.0],[-7.5447,33.56305,0.0],[-7.5386,33.56055,0.0],[-7.53315,33.55965,0.0],[-7.52821,33.55835,0.0],[-7.52536,33.55748,0.0]]]]}},{"type":"Feature","properties":{"uesi_id":"MAR_R4072985","nbhd_code":"MAR_R4072985_024","nbhd_name":"Moulay Youssef"},"geometry":{"type":"MultiPolygon","coordinates":[[[[-7.63801,33.58725,0.0],[-7.6386,33.59077,0.0],[-7.63872,33.5943,0.0],[-7.63982,33.59528,0.0],[-7.63994,33.59711,0.0],[-7.63913,33.59988,0.0],[-7.63958,33.60375,0.0],[-7.63958,33.60403,0.0],[-7.63847,33.60403,0.0],[-7.63847,33.60431,0.0],[-7.63708,33.60431,0.0],[-7.63708,33.60458,0.0],[-7.63597,33.60458,0.0],[-7.63597,33.60514,0.0],[-7.63569,33.60514,0.0],[-7.63569,33.60597,0.0],[-7.63542,33.60597,0.0],[-7.63542,33.6068,0.0],[-7.63514,33.6068,0.0],[-7.63514,33.60764,0.0],[-7.63486,33.60764,0.0],[-7.63486,33.60823,0.0],[-7.63486,33.60875,0.0],[-7.63458,33.60875,0.0],[-7.63458,33.60931,0.0],[-7.63403,33.60931,0.0],[-7.63403,33.60958,0.0],[-7.63375,33.60958,0.0],[-7.63375,33.60931,0.0],[-7.63347,33.60931,0.0],[-7.63347,33.60903,0.0],[-7.63292,33.60903,0.0],[-7.63292,33.60875,0.0],[-7.63264,33.60875,0.0],[-7.63264,33.60861,0.0],[-7.63264,33.60847,0.0],[-7.63181,33.60847,0.0],[-7.63181,33.60875,0.0],[-7.63042,33.60875,0.0],[-7.63042,33.60847,0.0],[-7.63014,33.60847,0.0],[-7.63014,33.6082,0.0],[-7.62903,33.6082,0.0],[-7.62903,33.60847,0.0],[-7.62875,33.60847,0.0],[-7.62875,33.60875,0.0],[-7.62708,33.60875,0.0],[-7.62708,33.60903,0.0],[-7.62736,33.60903,0.0],[-7.62736,33.60931,0.0],[-7.62764,33.60931,0.0],[-7.62764,33.60958,0.0],[-7.62736,33.60958,0.0],[-7.62736,33.60985,0.0],[-7.62736,33.61014,0.0],[-7.62458,33.61014,0.0],[-7.62458,33.61042,0.0],[-7.62431,33.61042,0.0],[-7.62431,33.61014,0.0],[-7.62403,33.61014,0.0],[-7.62403,33.60986,0.0],[-7.62375,33.60986,0.0],[-7.62375,33.60958,0.0],[-7.62347,33.60958,0.0],[-7.62347,33.60931,0.0],[-7.6232,33.60931,0.0],[-7.62319,33.60906,0.0],[-7.62307,33.60903,0.0],[-7.62264,33.60903,0.0],[-7.62264,33.6089,0.0],[-7.62264,33.60875,0.0],[-7.62209,33.60875,0.0],[-7.62208,33.60847,0.0],[-7.62181,33.60847,0.0],[-7.62181,33.6082,0.0],[-7.62125,33.6082,0.0],[-7.62125,33.60792,0.0],[-7.62097,33.60792,0.0],[-7.62097,33.60764,0.0],[-7.6207,33.60764,0.0],[-7.6207,33.60736,0.0],[-7.62042,33.60736,0.0],[-7.62042,33.60708,0.0],[-7.62014,33.60708,0.0],[-7.62014,33.60653,0.0],[-7.61986,33.60653,0.0],[-7.61986,33.60625,0.0],[-7.61764,33.60625,0.0],[-7.61764,33.60653,0.0],[-7.61736,33.60653,0.0],[-7.61736,33.60792,0.0],[-7.61681,33.60792,0.0],[-7.61681,33.6082,0.0],[-7.61625,33.6082,0.0],[-7.61625,33.60875,0.0],[-7.61542,33.60875,0.0],[-7.61542,33.60903,0.0],[-7.61514,33.60903,0.0],[-7.61514,33.61014,0.0],[-7.61431,33.61014,0.0],[-7.61431,33.61042,0.0],[-7.61375,33.61042,0.0],[-7.61375,33.61069,0.0],[-7.61347,33.61069,0.0],[-7.61347,33.61097,0.0],[-7.61319,33.61097,0.0],[-7.61319,33.61125,0.0],[-7.61292,33.61125,0.0],[-7.61292,33.61153,0.0],[-7.61264,33.61153,0.0],[-7.61264,33.6116,0.0],[-7.61264,33.61208,0.0],[-7.61153,33.61208,0.0],[-7.61153,33.61236,0.0],[-7.61096,33.61236,0.0],[-7.61069,33.61236,0.0],[-7.61069,33.61251,0.0],[-7.61069,33.61264,0.0],[-7.61062,33.61264,0.0],[-7.61047,33.61264,0.0],[-7.61014,33.61264,0.0],[-7.61014,33.61283,0.0],[-7.61014,33.61292,0.0],[-7.60998,33.61292,0.0],[-7.60986,33.61298,0.0],[-7.60986,33.61319,0.0],[-7.60949,33.61319,0.0],[-7.6093,33.61319,0.0],[-7.6093,33.6133,0.0],[-7.6093,33.61347,0.0],[-7.609,33.61347,0.0],[-7.60847,33.61347,0.0],[-7.60847,33.61375,0.0],[-7.60792,33.61375,0.0],[-7.60792,33.6139,0.0],[-7.60792,33.61403,0.0],[-7.60736,33.61403,0.0],[-7.60736,33.6143,0.0],[-7.60681,33.61431,0.0],[-7.60681,33.61458,0.0],[-7.60671,33.61458,0.0],[-7.60625,33.61458,0.0],[-7.60625,33.61478,0.0],[-7.60625,33.61486,0.0],[-7.60607,33.61486,0.0],[-7.60569,33.61486,0.0],[-7.6057,33.61502,0.0],[-7.60569,33.61514,0.0],[-7.60553,33.61514,0.0],[-7.60486,33.61514,0.0],[-7.60486,33.61542,0.0],[-7.60431,33.61542,0.0],[-7.60431,33.6157,0.0],[-7.60375,33.6157,0.0],[-7.60375,33.61597,0.0],[-7.60181,33.61597,0.0],[-7.60181,33.6157,0.0],[-7.60153,33.6157,0.0],[-7.60153,33.61542,0.0],[-7.60125,33.61542,0.0],[-7.60125,33.61503,0.0],[-7.60125,33.61486,0.0],[-7.60153,33.61486,0.0],[-7.60153,33.61458,0.0],[-7.60181,33.61458,0.0],[-7.60181,33.61475,0.0],[-7.60181,33.61486,0.0],[-7.60208,33.61486,0.0],[-7.60208,33.61461,0.0],[-7.60236,33.61458,0.0],[-7.60236,33.61447,0.0],[-7.60236,33.61431,0.0],[-7.60268,33.61431,0.0],[-7.60431,33.61431,0.0],[-7.60431,33.61407,0.0],[-7.60486,33.61404,0.0],[-7.60486,33.61375,0.0],[-7.60514,33.61375,0.0],[-7.60514,33.61347,0.0],[-7.60542,33.61347,0.0],[-7.60542,33.61293,0.0],[-7.60542,33.61264,0.0],[-7.60597,33.61264,0.0],[-7.60597,33.61236,0.0],[-7.60652,33.61237,0.0],[-7.60792,33.61236,0.0],[-7.60792,33.61208,0.0],[-7.60903,33.61208,0.0],[-7.60903,33.6118,0.0],[-7.61014,33.6118,0.0],[-7.61014,33.61153,0.0],[-7.61069,33.61153,0.0],[-7.61069,33.61125,0.0],[-7.61097,33.61125,0.0],[-7.61097,33.61097,0.0],[-7.61125,33.61097,0.0],[-7.61125,33.61075,0.0],[-7.61125,33.61042,0.0],[-7.61136,33.61042,0.0],[-7.61153,33.61042,0.0],[-7.61146,33.61012,0.0],[-7.61236,33.61014,0.0],[-7.61236,33.60986,0.0],[-7.61264,33.60986,0.0],[-7.61264,33.60958,0.0],[-7.61292,33.60958,0.0],[-7.61292,33.60931,0.0],[-7.61319,33.60931,0.0],[-7.61319,33.60875,0.0],[-7.61347,33.60875,0.0],[-7.61347,33.60847,0.0],[-7.61403,33.60847,0.0],[-7.61403,33.6082,0.0],[-7.61458,33.6082,0.0],[-7.61458,33.60792,0.0],[-7.61514,33.60792,0.0],[-7.61514,33.60764,0.0],[-7.61542,33.60764,0.0],[-7.61542,33.60736,0.0],[-7.61569,33.60736,0.0],[-7.61569,33.60708,0.0],[-7.61597,33.60708,0.0],[-7.61597,33.6068,0.0],[-7.61625,33.6068,0.0],[-7.61625,33.60653,0.0],[-7.61597,33.60653,0.0],[-7.61597,33.60597,0.0],[-7.61562,33.60597,0.0],[-7.61594,33.6057,0.0],[-7.61686,33.60419,0.0],[-7.61716,33.60363,0.0],[-7.61717,33.60333,0.0],[-7.62128,33.59902,0.0],[-7.62761,33.59371,0.0],[-7.63693,33.58587,0.0],[-7.63801,33.58725,0.0]]],[[[-7.5918,33.62069,0.0],[-7.59153,33.62069,0.0],[-7.59153,33.62042,0.0],[-7.59208,33.62041,0.0],[-7.59208,33.62014,0.0],[-7.59264,33.62014,0.0],[-7.59264,33.61986,0.0],[-7.59319,33.61986,0.0],[-7.59319,33.61958,0.0],[-7.59347,33.61958,0.0],[-7.59347,33.61903,0.0],[-7.59358,33.61903,0.0],[-7.59375,33.61903,0.0],[-7.59375,33.61875,0.0],[-7.59403,33.61875,0.0],[-7.59403,33.61847,0.0],[-7.59625,33.61847,0.0],[-7.59625,33.61819,0.0],[-7.59653,33.61819,0.0],[-7.59653,33.61792,0.0],[-7.59764,33.61792,0.0],[-7.59764,33.61764,0.0],[-7.59819,33.61764,0.0],[-7.59819,33.61792,0.0],[-7.59847,33.61792,0.0],[-7.59847,33.61819,0.0],[-7.59819,33.61819,0.0],[-7.59819,33.61847,0.0],[-7.59736,33.61847,0.0],[-7.59736,33.6186,0.0],[-7.59736,33.61875,0.0],[-7.59679,33.61875,0.0],[-7.59625,33.61875,0.0],[-7.59625,33.6189,0.0],[-7.59625,33.61903,0.0],[-7.59597,33.61903,0.0],[-7.59597,33.6193,0.0],[-7.59542,33.6193,0.0],[-7.59542,33.61958,0.0],[-7.59514,33.61958,0.0],[-7.59514,33.61986,0.0],[-7.59458,33.61986,0.0],[-7.59458,33.62014,0.0],[-7.59403,33.62014,0.0],[-7.59403,33.62042,0.0],[-7.59375,33.62042,0.0],[-7.59375,33.62069,0.0],[-7.59347,33.62069,0.0],[-7.59347,33.62097,0.0],[-7.5918,33.62097,0.0],[-7.5918,33.62069,0.0]]]]}},{"type":"Feature","properties":{"uesi_id":"MAR_R4072985","nbhd_code":"MAR_R4072985_025","nbhd_name":"Nouaceur"},"geometry":{"type":"MultiPolygon","coordinates":[[[[-7.55565,33.33271,0.0],[-7.55728,33.33121,0.0],[-7.56143,33.32508,0.0],[-7.56363,33.32044,0.0],[-7.56963,33.31968,0.0],[-7.57682,33.31994,0.0],[-7.58588,33.31943,0.0],[-7.59393,33.32227,0.0],[-7.59936,33.32536,0.0],[-7.60207,33.33096,0.0],[-7.60553,33.33778,0.0],[-7.60758,33.34811,0.0],[-7.60809,33.35392,0.0],[-7.60853,33.35872,0.0],[-7.61097,33.3625,0.0],[-7.61405,33.36729,0.0],[-7.61604,33.37475,0.0],[-7.61251,33.37765,0.0],[-7.60785,33.37843,0.0],[-7.6001,33.38232,0.0],[-7.59133,33.38545,0.0],[-7.58184,33.39046,0.0],[-7.57352,33.39185,0.0],[-7.56247,33.39381,0.0],[-7.5544,33.39486,0.0],[-7.54597,33.39694,0.0],[-7.53762,33.40028,0.0],[-7.53404,33.40239,0.0],[-7.53149,33.40364,0.0],[-7.52672,33.40465,0.0],[-7.52025,33.40199,0.0],[-7.52074,33.4017,0.0],[-7.52838,33.39588,0.0],[-7.52711,33.39089,0.0],[-7.52846,33.38603,0.0],[-7.53114,33.38031,0.0],[-7.5345,33.37455,0.0],[-7.53724,33.36998,0.0],[-7.5375,33.36309,0.0],[-7.53973,33.35716,0.0],[-7.54315,33.35198,0.0],[-7.54881,33.34589,0.0],[-7.55018,33.34113,0.0],[-7.55193,33.33614,0.0],[-7.55565,33.33271,0.0]]]]}},{"type":"Feature","properties":{"uesi_id":"MAR_R4072985","nbhd_code":"MAR_R4072985_026","nbhd_name":"Salmia"},"geometry":{"type":"MultiPolygon","coordinates":[[[[-7.53303,33.5207,0.0],[-7.53673,33.5189,0.0],[-7.54412,33.51731,0.0],[-7.54699,33.51635,0.0],[-7.55116,33.51494,0.0],[-7.55447,33.51067,0.0],[-7.55749,33.50779,0.0],[-7.55918,33.5107,0.0],[-7.56234,33.51251,0.0],[-7.56854,33.51637,0.0],[-7.57251,33.51984,0.0],[-7.57278,33.52009,0.0],[-7.56671,33.52426,0.0],[-7.56044,33.52969,0.0],[-7.55586,33.52769,0.0],[-7.55093,33.5301,0.0],[-7.54624,33.53314,0.0],[-7.54158,33.52739,0.0],[-7.53416,33.52188,0.0],[-7.53303,33.5207,0.0]]]]}},{"type":"Feature","properties":{"uesi_id":"MAR_R4072985","nbhd_code":"MAR_R4072985_027","nbhd_name":"Sbata"},"geometry":{"type":"MultiPolygon","coordinates":[[[[-7.56044,33.52969,0.0],[-7.56671,33.52426,0.0],[-7.57278,33.52009,0.0],[-7.57646,33.52334,0.0],[-7.5775,33.52416,0.0],[-7.58392,33.52921,0.0],[-7.58489,33.53019,0.0],[-7.57611,33.53471,0.0],[-7.5723,33.53833,0.0],[-7.57032,33.53725,0.0],[-7.56718,33.53384,0.0],[-7.56466,33.5312,0.0],[-7.56112,33.52998,0.0],[-7.56044,33.52969,0.0]]]]}},{"type":"Feature","properties":{"uesi_id":"MAR_R4072985","nbhd_code":"MAR_R4072985_028","nbhd_name":"Sidi Belyout"},"geometry":{"type":"MultiPolygon","coordinates":[[[[-7.60044,33.58344,0.0],[-7.60606,33.5784,0.0],[-7.61057,33.57542,0.0],[-7.61375,33.57298,0.0],[-7.61408,33.57264,0.0],[-7.61668,33.57368,0.0],[-7.62157,33.57505,0.0],[-7.62768,33.57862,0.0],[-7.63236,33.58145,0.0],[-7.6361,33.58478,0.0],[-7.63693,33.58587,0.0],[-7.62761,33.59371,0.0],[-7.62128,33.59902,0.0],[-7.61717,33.60333,0.0],[-7.61716,33.60363,0.0],[-7.61686,33.60419,0.0],[-7.61594,33.6057,0.0],[-7.61562,33.60597,0.0],[-7.61514,33.60597,0.0],[-7.61514,33.60625,0.0],[-7.61431,33.60625,0.0],[-7.61431,33.60597,0.0],[-7.61375,33.60597,0.0],[-7.61375,33.60569,0.0],[-7.61347,33.60569,0.0],[-7.61347,33.60542,0.0],[-7.61319,33.60542,0.0],[-7.61319,33.60514,0.0],[-7.61299,33.60514,0.0],[-7.61264,33.60514,0.0],[-7.61264,33.60486,0.0],[-7.61236,33.60486,0.0],[-7.61236,33.60458,0.0],[-7.61208,33.60458,0.0],[-7.61208,33.60514,0.0],[-7.61236,33.60514,0.0],[-7.61236,33.60542,0.0],[-7.61264,33.60542,0.0],[-7.61264,33.60569,0.0],[-7.61292,33.60569,0.0],[-7.61287,33.60596,0.0],[-7.61319,33.60597,0.0],[-7.61319,33.60653,0.0],[-7.61347,33.60653,0.0],[-7.61347,33.60764,0.0],[-7.61292,33.60764,0.0],[-7.61292,33.60792,0.0],[-7.61236,33.60792,0.0],[-7.61236,33.6082,0.0],[-7.61213,33.60827,0.0],[-7.61208,33.60875,0.0],[-7.61193,33.60875,0.0],[-7.61125,33.60875,0.0],[-7.61125,33.60847,0.0],[-7.61069,33.60847,0.0],[-7.61069,33.6082,0.0],[-7.61042,33.6082,0.0],[-7.61042,33.60764,0.0],[-7.61014,33.60764,0.0],[-7.61014,33.60708,0.0],[-7.60986,33.60708,0.0],[-7.60986,33.60653,0.0],[-7.60958,33.60653,0.0],[-7.60958,33.60597,0.0],[-7.6093,33.60597,0.0],[-7.6093,33.60542,0.0],[-7.60903,33.60542,0.0],[-7.60903,33.60514,0.0],[-7.60875,33.60514,0.0],[-7.60875,33.60458,0.0],[-7.60847,33.60458,0.0],[-7.60847,33.60403,0.0],[-7.60792,33.60403,0.0],[-7.60792,33.60375,0.0],[-7.60764,33.60375,0.0],[-7.60764,33.6032,0.0],[-7.60736,33.6032,0.0],[-7.60736,33.60292,0.0],[-7.60708,33.60292,0.0],[-7.60708,33.60264,0.0],[-7.60597,33.60264,0.0],[-7.60597,33.60292,0.0],[-7.60625,33.60292,0.0],[-7.60625,33.6032,0.0],[-7.60653,33.6032,0.0],[-7.60653,33.60347,0.0],[-7.60681,33.60347,0.0],[-7.60681,33.60403,0.0],[-7.60708,33.60403,0.0],[-7.60708,33.60431,0.0],[-7.60736,33.60431,0.0],[-7.60736,33.60458,0.0],[-7.60764,33.60458,0.0],[-7.60764,33.60486,0.0],[-7.60792,33.60486,0.0],[-7.60792,33.60542,0.0],[-7.60819,33.60542,0.0],[-7.60819,33.60625,0.0],[-7.60847,33.60625,0.0],[-7.60847,33.6068,0.0],[-7.60819,33.6068,0.0],[-7.60819,33.60708,0.0],[-7.60792,33.60708,0.0],[-7.60792,33.60736,0.0],[-7.60736,33.60736,0.0],[-7.60736,33.60764,0.0],[-7.60681,33.60764,0.0],[-7.60681,33.60792,0.0],[-7.60597,33.60792,0.0],[-7.60597,33.60764,0.0],[-7.60569,33.60764,0.0],[-7.60569,33.60736,0.0],[-7.60542,33.60736,0.0],[-7.60542,33.60708,0.0],[-7.60514,33.60708,0.0],[-7.60514,33.6068,0.0],[-7.60486,33.6068,0.0],[-7.60486,33.60625,0.0],[-7.60458,33.60625,0.0],[-7.60458,33.60597,0.0],[-7.60431,33.60597,0.0],[-7.60431,33.60569,0.0],[-7.60403,33.60569,0.0],[-7.60403,33.60514,0.0],[-7.60375,33.60514,0.0],[-7.60375,33.60486,0.0],[-7.60347,33.60486,0.0],[-7.60347,33.60431,0.0],[-7.60319,33.60431,0.0],[-7.60319,33.60403,0.0],[-7.60292,33.60403,0.0],[-7.60292,33.60347,0.0],[-7.60264,33.60347,0.0],[-7.60264,33.6032,0.0],[-7.60253,33.6032,0.0],[-7.60236,33.6032,0.0],[-7.60236,33.60264,0.0],[-7.60208,33.60264,0.0],[-7.60208,33.60236,0.0],[-7.60097,33.60236,0.0],[-7.60097,33.60264,0.0],[-7.60125,33.60264,0.0],[-7.60125,33.6032,0.0],[-7.60153,33.6032,0.0],[-7.60153,33.60347,0.0],[-7.60181,33.60347,0.0],[-7.60181,33.60403,0.0],[-7.60208,33.60403,0.0],[-7.60208,33.60431,0.0],[-7.60236,33.60431,0.0],[-7.60236,33.60486,0.0],[-7.60264,33.60486,0.0],[-7.60264,33.60542,0.0],[-7.60292,33.60542,0.0],[-7.60292,33.60569,0.0],[-7.60319,33.60569,0.0],[-7.60319,33.60625,0.0],[-7.60347,33.60625,0.0],[-7.60347,33.6068,0.0],[-7.60375,33.6068,0.0],[-7.60375,33.60736,0.0],[-7.60403,33.60736,0.0],[-7.60403,33.60792,0.0],[-7.60431,33.60792,0.0],[-7.60434,33.60847,0.0],[-7.60458,33.60847,0.0],[-7.60458,33.60903,0.0],[-7.60486,33.60903,0.0],[-7.60486,33.60931,0.0],[-7.60514,33.60931,0.0],[-7.60514,33.60958,0.0],[-7.60542,33.60958,0.0],[-7.60542,33.61014,0.0],[-7.60569,33.61014,0.0],[-7.60569,33.61042,0.0],[-7.60403,33.61042,0.0],[-7.60403,33.61014,0.0],[-7.60375,33.61014,0.0],[-7.60375,33.60958,0.0],[-7.60347,33.60958,0.0],[-7.60347,33.60931,0.0],[-7.60319,33.60931,0.0],[-7.60319,33.60893,0.0],[-7.60318,33.60875,0.0],[-7.60292,33.60875,0.0],[-7.60292,33.60847,0.0],[-7.60264,33.60847,0.0],[-7.60264,33.60792,0.0],[-7.60236,33.60792,0.0],[-7.60236,33.60736,0.0],[-7.60208,33.60736,0.0],[-7.60208,33.60708,0.0],[-7.60181,33.60708,0.0],[-7.60181,33.60653,0.0],[-7.60153,33.60653,0.0],[-7.60153,33.60625,0.0],[-7.60125,33.60625,0.0],[-7.60125,33.60597,0.0],[-7.60097,33.60597,0.0],[-7.60097,33.60542,0.0],[-7.60069,33.60542,0.0],[-7.60069,33.60486,0.0],[-7.60042,33.60486,0.0],[-7.60042,33.60431,0.0],[-7.60014,33.60431,0.0],[-7.60014,33.60403,0.0],[-7.59986,33.60403,0.0],[-7.59986,33.60347,0.0],[-7.59958,33.60347,0.0],[-7.59958,33.6032,0.0],[-7.59931,33.6032,0.0],[-7.59931,33.60292,0.0],[-7.59903,33.60292,0.0],[-7.59903,33.60264,0.0],[-7.59875,33.60264,0.0],[-7.59875,33.60209,0.0],[-7.59861,33.60209,0.0],[-7.59847,33.60209,0.0],[-7.59847,33.60181,0.0],[-7.60091,33.59237,0.0],[-7.60079,33.58793,0.0],[-7.60056,33.58361,0.0],[-7.60044,33.58344,0.0]]]]}},{"type":"Feature","properties":{"uesi_id":"MAR_R4072985","nbhd_code":"MAR_R4072985_029","nbhd_name":"Sidi Bernoussi"},"geometry":{"type":"MultiPolygon","coordinates":[[[[-7.48764,33.59893,0.0],[-7.49175,33.59597,0.0],[-7.49241,33.59549,0.0],[-7.49392,33.59457,0.0],[-7.4984,33.5918,0.0],[-7.50132,33.58984,0.0],[-7.50698,33.58815,0.0],[-7.5083,33.58776,0.0],[-7.50851,33.58771,0.0],[-7.5149,33.59019,0.0],[-7.51812,33.595,0.0],[-7.51834,33.59843,0.0],[-7.51725,33.60089,0.0],[-7.51923,33.60345,0.0],[-7.5216,33.60598,0.0],[-7.5252,33.60594,0.0],[-7.52665,33.60691,0.0],[-7.52409,33.60986,0.0],[-7.52412,33.61246,0.0],[-7.52929,33.62403,0.0],[-7.52653,33.62403,0.0],[-7.52653,33.62431,0.0],[-7.52486,33.62431,0.0],[-7.52486,33.62458,0.0],[-7.52347,33.62458,0.0],[-7.52347,33.62486,0.0],[-7.52181,33.62486,0.0],[-7.52181,33.62514,0.0],[-7.52153,33.62514,0.0],[-7.52153,33.62542,0.0],[-7.52097,33.62542,0.0],[-7.52097,33.62569,0.0],[-7.52069,33.62569,0.0],[-7.52069,33.62597,0.0],[-7.52042,33.62597,0.0],[-7.52042,33.62625,0.0],[-7.52014,33.62625,0.0],[-7.52014,33.62653,0.0],[-7.51958,33.62653,0.0],[-7.51958,33.6268,0.0],[-7.51931,33.6268,0.0],[-7.51931,33.62708,0.0],[-7.51903,33.62708,0.0],[-7.51903,33.62736,0.0],[-7.51875,33.62736,0.0],[-7.51875,33.62764,0.0],[-7.51819,33.62764,0.0],[-7.51819,33.62792,0.0],[-7.51792,33.62792,0.0],[-7.51792,33.62819,0.0],[-7.51764,33.62819,0.0],[-7.51764,33.62847,0.0],[-7.51736,33.62847,0.0],[-7.51736,33.62875,0.0],[-7.51708,33.62875,0.0],[-7.51708,33.62903,0.0],[-7.51681,33.62903,0.0],[-7.51681,33.62931,0.0],[-7.51653,33.62931,0.0],[-7.51653,33.62958,0.0],[-7.51597,33.62958,0.0],[-7.51597,33.62986,0.0],[-7.5157,33.62986,0.0],[-7.5157,33.63014,0.0],[-7.51542,33.63014,0.0],[-7.51542,33.63042,0.0],[-7.51514,33.63042,0.0],[-7.51514,33.6307,0.0],[-7.51486,33.6307,0.0],[-7.51486,33.63097,0.0],[-7.51458,33.63097,0.0],[-7.51458,33.63125,0.0],[-7.51431,33.63125,0.0],[-7.51431,33.63153,0.0],[-7.51403,33.63153,0.0],[-7.51403,33.63181,0.0],[-7.51375,33.63181,0.0],[-7.51375,33.63208,0.0],[-7.5132,33.63208,0.0],[-7.5132,33.63236,0.0],[-7.51292,33.63236,0.0],[-7.51292,33.63264,0.0],[-7.51264,33.63264,0.0],[-7.51264,33.63292,0.0],[-7.51236,33.63292,0.0],[-7.51236,33.63319,0.0],[-7.51208,33.63319,0.0],[-7.51208,33.63347,0.0],[-7.51181,33.63347,0.0],[-7.51181,33.63375,0.0],[-7.51125,33.63375,0.0],[-7.51125,33.63403,0.0],[-7.51097,33.63403,0.0],[-7.51097,33.6343,0.0],[-7.51042,33.6343,0.0],[-7.50371,33.6288,0.0],[-7.49563,33.62422,0.0],[-7.48843,33.61877,0.0],[-7.48349,33.61535,0.0],[-7.47947,33.6154,0.0],[-7.47617,33.61371,0.0],[-7.47337,33.61143,0.0],[-7.47721,33.60862,0.0],[-7.4815,33.60432,0.0],[-7.48566,33.60036,0.0],[-7.48764,33.59893,0.0]]]]}},{"type":"Feature","properties":{"uesi_id":"MAR_R4072985","nbhd_code":"MAR_R4072985_031","nbhd_name":"Sidi Maarouf"},"geometry":{"type":"MultiPolygon","coordinates":[[[[-7.67409,33.50015,0.0],[-7.66574,33.50214,0.0],[-7.6583,33.50486,0.0],[-7.6535,33.5076,0.0],[-7.65051,33.51255,0.0],[-7.64935,33.51834,0.0],[-7.64912,33.52328,0.0],[-7.64935,33.52707,0.0],[-7.64846,33.5301,0.0],[-7.64461,33.5328,0.0],[-7.63554,33.53455,0.0],[-7.63407,33.53026,0.0],[-7.63127,33.52544,0.0],[-7.6253,33.51177,0.0],[-7.62709,33.51013,0.0],[-7.62846,33.5056,0.0],[-7.6288,33.50042,0.0],[-7.626,33.49334,0.0],[-7.62272,33.48774,0.0],[-7.62159,33.48105,0.0],[-7.62141,33.47624,0.0],[-7.62379,33.47465,0.0],[-7.62895,33.47522,0.0],[-7.64324,33.4715,0.0],[-7.65428,33.46894,0.0],[-7.66345,33.46751,0.0],[-7.67592,33.46559,0.0],[-7.67899,33.46602,0.0],[-7.68017,33.46918,0.0],[-7.67945,33.473,0.0],[-7.67728,33.47572,0.0],[-7.6764,33.47908,0.0],[-7.67794,33.48142,0.0],[-7.67829,33.48462,0.0],[-7.67502,33.48751,0.0],[-7.67415,33.49121,0.0],[-7.67502,33.49394,0.0],[-7.6777,33.4949,0.0],[-7.67545,33.49827,0.0],[-7.67409,33.50015,0.0]]]]}},{"type":"Feature","properties":{"uesi_id":"MAR_R4072985","nbhd_code":"MAR_R4072985_032","nbhd_name":"Sidi Moumen"},"geometry":{"type":"MultiPolygon","coordinates":[[[[-7.49088,33.59324,0.0],[-7.49212,33.59113,0.0],[-7.49426,33.58773,0.0],[-7.49677,33.58383,0.0],[-7.50062,33.57906,0.0],[-7.50406,33.57226,0.0],[-7.50712,33.56615,0.0],[-7.51124,33.55909,0.0],[-7.5114,33.55901,0.0],[-7.51579,33.55671,0.0],[-7.51908,33.55622,0.0],[-7.52427,33.55715,0.0],[-7.52536,33.55748,0.0],[-7.52821,33.55835,0.0],[-7.53315,33.55965,0.0],[-7.5386,33.56055,0.0],[-7.5447,33.56305,0.0],[-7.55013,33.56558,0.0],[-7.55383,33.56623,0.0],[-7.54457,33.5718,0.0],[-7.54158,33.57304,0.0],[-7.53379,33.57628,0.0],[-7.52581,33.58111,0.0],[-7.5169,33.58477,0.0],[-7.51678,33.58483,0.0],[-7.50851,33.58771,0.0],[-7.5083,33.58776,0.0],[-7.50698,33.58815,0.0],[-7.50132,33.58984,0.0],[-7.4984,33.5918,0.0],[-7.49392,33.59457,0.0],[-7.49241,33.59549,0.0],[-7.49175,33.59597,0.0],[-7.48764,33.59893,0.0],[-7.49038,33.59409,0.0],[-7.49088,33.59324,0.0]]]]}},{"type":"Feature","properties":{"uesi_id":"MAR_R4072985","nbhd_code":"MAR_R4072985_033","nbhd_name":"Sidi Othmane"},"geometry":{"type":"MultiPolygon","coordinates":[[[[-7.54546,33.53971,0.0],[-7.5466,33.53852,0.0],[-7.54743,33.53653,0.0],[-7.54624,33.53314,0.0],[-7.55093,33.5301,0.0],[-7.55586,33.52769,0.0],[-7.56044,33.52969,0.0],[-7.56112,33.52998,0.0],[-7.56466,33.5312,0.0],[-7.56718,33.53384,0.0],[-7.57032,33.53725,0.0],[-7.5723,33.53833,0.0],[-7.57346,33.53895,0.0],[-7.57564,33.54035,0.0],[-7.57827,33.54461,0.0],[-7.58033,33.54877,0.0],[-7.58502,33.5544,0.0],[-7.58471,33.55456,0.0],[-7.5745,33.55936,0.0],[-7.57354,33.56004,0.0],[-7.5715,33.56147,0.0],[-7.56483,33.55748,0.0],[-7.55696,33.55138,0.0],[-7.54546,33.53971,0.0]]]]}},{"type":"Feature","properties":{"uesi_id":"MAR_R4072985","nbhd_code":"MAR_R4072985_034","nbhd_name":"Tit Mellil"},"geometry":{"type":"MultiPolygon","coordinates":[[[[-7.49482,33.55348,0.0],[-7.48982,33.55313,0.0],[-7.48506,33.55436,0.0],[-7.48041,33.55547,0.0],[-7.47922,33.55548,0.0],[-7.47751,33.55548,0.0],[-7.47407,33.55344,0.0],[-7.4707,33.55062,0.0],[-7.47219,33.54781,0.0],[-7.47652,33.54418,0.0],[-7.47961,33.54061,0.0],[-7.48241,33.53648,0.0],[-7.48325,33.53244,0.0],[-7.48339,33.53013,0.0],[-7.48372,33.52874,0.0],[-7.48547,33.5281,0.0],[-7.48665,33.52942,0.0],[-7.48702,33.5309,0.0],[-7.48907,33.52817,0.0],[-7.48923,33.52544,0.0],[-7.49853,33.52479,0.0],[-7.50303,33.52369,0.0],[-7.50389,33.52433,0.0],[-7.5043,33.5266,0.0],[-7.50481,33.53002,0.0],[-7.50409,33.53189,0.0],[-7.49973,33.53298,0.0],[-7.49949,33.53563,0.0],[-7.50017,33.53767,0.0],[-7.49945,33.53942,0.0],[-7.49575,33.53762,0.0],[-7.49501,33.54361,0.0],[-7.49485,33.54741,0.0],[-7.49482,33.55348,0.0]]]]}},{"type":"Feature","properties":{"uesi_id":"MAR_R4072985","nbhd_code":"MAR_R4072985_013","nbhd_name":"Echchallalate"},"geometry":{"type":"MultiPolygon","coordinates":[[[[-7.46774,33.5817,0.0],[-7.46636,33.58475,0.0],[-7.4671,33.58759,0.0],[-7.46909,33.58821,0.0],[-7.47284,33.58633,0.0],[-7.48613,33.59047,0.0],[-7.48759,33.5918,0.0],[-7.49088,33.59324,0.0],[-7.49038,33.59409,0.0],[-7.48764,33.59893,0.0],[-7.48566,33.60036,0.0],[-7.4815,33.60432,0.0],[-7.47721,33.60862,0.0],[-7.47337,33.61143,0.0],[-7.47153,33.61276,0.0],[-7.46286,33.6178,0.0],[-7.44899,33.6276,0.0],[-7.43942,33.63163,0.0],[-7.4317,33.63616,0.0],[-7.426,33.63992,0.0],[-7.42225,33.642,0.0],[-7.41802,33.64466,0.0],[-7.41029,33.64954,0.0],[-7.40184,33.65592,0.0],[-7.38932,33.66372,0.0],[-7.37946,33.66779,0.0],[-7.37143,33.67279,0.0],[-7.36906,33.67051,0.0],[-7.36554,33.66769,0.0],[-7.36266,33.66429,0.0],[-7.36173,33.66068,0.0],[-7.36247,33.65724,0.0],[-7.36496,33.65499,0.0],[-7.37553,33.65522,0.0],[-7.38643,33.65408,0.0],[-7.39499,33.65133,0.0],[-7.40011,33.64906,0.0],[-7.40116,33.64619,0.0],[-7.39832,33.64324,0.0],[-7.39453,33.64273,0.0],[-7.39284,33.64031,0.0],[-7.39452,33.63445,0.0],[-7.39626,33.62947,0.0],[-7.40135,33.62241,0.0],[-7.40598,33.61707,0.0],[-7.40544,33.61503,0.0],[-7.40207,33.61425,0.0],[-7.40014,33.61215,0.0],[-7.40089,33.60857,0.0],[-7.40299,33.60447,0.0],[-7.40562,33.60012,0.0],[-7.40604,33.59666,0.0],[-7.40609,33.59632,0.0],[-7.4048,33.59131,0.0],[-7.40106,33.5863,0.0],[-7.39687,33.58327,0.0],[-7.39333,33.58203,0.0],[-7.391,33.57995,0.0],[-7.38983,33.57862,0.0],[-7.3934,33.56689,0.0],[-7.3976,33.56133,0.0],[-7.4014,33.55785,0.0],[-7.40133,33.55224,0.0],[-7.39955,33.54762,0.0],[-7.39682,33.54144,0.0],[-7.39499,33.53813,0.0],[-7.3986,33.53678,0.0],[-7.40225,33.53548,0.0],[-7.4056,33.53397,0.0],[-7.40946,33.53381,0.0],[-7.41429,33.53395,0.0],[-7.41532,33.537,0.0],[-7.41453,33.54001,0.0],[-7.41591,33.54225,0.0],[-7.41846,33.54569,0.0],[-7.41755,33.55111,0.0],[-7.41924,33.55161,0.0],[-7.42266,33.55102,0.0],[-7.42642,33.54936,0.0],[-7.431,33.54758,0.0],[-7.43636,33.54919,0.0],[-7.44219,33.55193,0.0],[-7.44715,33.55401,0.0],[-7.45309,33.55639,0.0],[-7.45474,33.55839,0.0],[-7.45667,33.56279,0.0],[-7.45785,33.56837,0.0],[-7.45707,33.57792,0.0],[-7.45779,33.57835,0.0],[-7.45866,33.57888,0.0],[-7.46007,33.57733,0.0],[-7.4606,33.57479,0.0],[-7.46224,33.57449,0.0],[-7.46305,33.57617,0.0],[-7.46259,33.57769,0.0],[-7.46237,33.58079,0.0],[-7.46558,33.58124,0.0],[-7.46774,33.5817,0.0]]]]}},{"type":"Feature","properties":{"uesi_id":"MAR_R4072985","nbhd_code":"MAR_R4072985_030","nbhd_name":"Sidi Hajjaj Ouad Hassar"},"geometry":{"type":"MultiPolygon","coordinates":[[[[-7.377,33.52026,0.0],[-7.37646,33.52021,0.0],[-7.37393,33.5194,0.0],[-7.37263,33.51638,0.0],[-7.37416,33.51208,0.0],[-7.37504,33.50827,0.0],[-7.3743,33.50534,0.0],[-7.37287,33.50232,0.0],[-7.36794,33.50081,0.0],[-7.36615,33.49622,0.0],[-7.36647,33.49254,0.0],[-7.37097,33.48925,0.0],[-7.37713,33.48842,0.0],[-7.37993,33.48911,0.0],[-7.3856,33.49365,0.0],[-7.38989,33.4938,0.0],[-7.39304,33.49126,0.0],[-7.39432,33.48504,0.0],[-7.39691,33.4823,0.0],[-7.40299,33.48033,0.0],[-7.41282,33.47841,0.0],[-7.41628,33.47655,0.0],[-7.41505,33.47432,0.0],[-7.40826,33.46936,0.0],[-7.40548,33.46478,0.0],[-7.40134,33.45571,0.0],[-7.40248,33.45211,0.0],[-7.40376,33.45158,0.0],[-7.4064,33.45046,0.0],[-7.41317,33.45074,0.0],[-7.41638,33.45092,0.0],[-7.41884,33.45107,0.0],[-7.42227,33.45045,0.0],[-7.42798,33.44918,0.0],[-7.43351,33.44733,0.0],[-7.44098,33.44747,0.0],[-7.44853,33.44703,0.0],[-7.44921,33.44627,0.0],[-7.45581,33.45518,0.0],[-7.45841,33.45918,0.0],[-7.4625,33.46302,0.0],[-7.46808,33.46839,0.0],[-7.47335,33.4733,0.0],[-7.47849,33.47595,0.0],[-7.48731,33.48027,0.0],[-7.49318,33.48586,0.0],[-7.49831,33.4885,0.0],[-7.50121,33.49044,0.0],[-7.50059,33.49377,0.0],[-7.49778,33.49962,0.0],[-7.4977,33.50524,0.0],[-7.4952,33.50936,0.0],[-7.49231,33.51371,0.0],[-7.4895,33.52197,0.0],[-7.48926,33.52485,0.0],[-7.48923,33.52544,0.0],[-7.48907,33.52817,0.0],[-7.48702,33.5309,0.0],[-7.48665,33.52942,0.0],[-7.48547,33.5281,0.0],[-7.48372,33.52874,0.0],[-7.48339,33.53013,0.0],[-7.48325,33.53244,0.0],[-7.48241,33.53648,0.0],[-7.47961,33.54061,0.0],[-7.47652,33.54418,0.0],[-7.47219,33.54781,0.0],[-7.4707,33.55062,0.0],[-7.47407,33.55344,0.0],[-7.47751,33.55548,0.0],[-7.47922,33.55548,0.0],[-7.47654,33.56195,0.0],[-7.47516,33.56637,0.0],[-7.47302,33.57209,0.0],[-7.47147,33.57581,0.0],[-7.46831,33.58043,0.0],[-7.46774,33.5817,0.0],[-7.46558,33.58124,0.0],[-7.46237,33.58079,0.0],[-7.46259,33.57769,0.0],[-7.46305,33.57617,0.0],[-7.46224,33.57449,0.0],[-7.4606,33.57479,0.0],[-7.46007,33.57733,0.0],[-7.45866,33.57888,0.0],[-7.45779,33.57835,0.0],[-7.45707,33.57792,0.0],[-7.45785,33.56837,0.0],[-7.45667,33.56279,0.0],[-7.45474,33.55839,0.0],[-7.45309,33.55639,0.0],[-7.44715,33.55401,0.0],[-7.44219,33.55193,0.0],[-7.43636,33.54919,0.0],[-7.431,33.54758,0.0],[-7.42642,33.54936,0.0],[-7.42266,33.55102,0.0],[-7.41924,33.55161,0.0],[-7.41755,33.55111,0.0],[-7.41846,33.54569,0.0],[-7.41591,33.54225,0.0],[-7.41453,33.54001,0.0],[-7.41532,33.537,0.0],[-7.41429,33.53395,0.0],[-7.40946,33.53381,0.0],[-7.4056,33.53397,0.0],[-7.40225,33.53548,0.0],[-7.3986,33.53678,0.0],[-7.39499,33.53813,0.0],[-7.39293,33.53438,0.0],[-7.3926,33.53143,0.0],[-7.39189,33.52871,0.0],[-7.38665,33.52412,0.0],[-7.38216,33.52077,0.0],[-7.377,33.52026,0.0]]]]}}]}