{"type":"FeatureCollection","name":"MKD_R6966465","crs":{"type":"name","properties":{"name":"urn:ogc:def:crs:OGC:1.3:CRS84"}},"features":[{"type":"Feature","properties":{"uesi_id":"MKD_R6966465","nbhd_code":"MKD_R6966465_1","nbhd_name":"MK00802"},"geometry":{"type":"Polygon","coordinates":[[[21.63822,42.05833],[21.62879,42.05224],[21.6299,42.04322],[21.62197,42.04655],[21.61125,42.0384],[21.59999,42.01993],[21.57136,42.01582],[21.55649,42.00275],[21.5505,42.00766],[21.54696,42.01669],[21.54974,42.02598],[21.55804,42.02961],[21.55554,42.0503],[21.55871,42.05405],[21.55664,42.06036],[21.5591,42.06718],[21.56719,42.06666],[21.59041,42.05529],[21.60426,42.05175],[21.60901,42.05588],[21.61099,42.06646],[21.60708,42.07402],[21.61125,42.08142],[21.62771,42.07941],[21.64301,42.07267],[21.64347,42.06359],[21.63822,42.05833]]]}},{"type":"Feature","properties":{"uesi_id":"MKD_R6966465","nbhd_code":"MKD_R6966465_2","nbhd_name":"MK00803"},"geometry":{"type":"Polygon","coordinates":[[[21.42797,42.04665],[21.43723,42.04452],[21.45012,42.05356],[21.44575,42.05559],[21.44296,42.08294],[21.43698,42.09566],[21.44491,42.11754],[21.4453,42.12972],[21.46172,42.14828],[21.46678,42.1491],[21.47337,42.15568],[21.48915,42.15672],[21.50464,42.14429],[21.51224,42.12616],[21.50911,42.12018],[21.50827,42.11754],[21.49461,42.10934],[21.48039,42.09088],[21.47793,42.0746],[21.46663,42.04604],[21.45219,42.0263],[21.45704,42.01875],[21.45044,42.01689],[21.44703,42.02122],[21.43038,42.02255],[21.40202,42.02731],[21.39249,42.03591],[21.38885,42.04447],[21.39385,42.04887],[21.41239,42.04408],[21.42009,42.02839],[21.43161,42.02772],[21.43371,42.03231],[21.42797,42.04665]]]}},{"type":"Feature","properties":{"uesi_id":"MKD_R6966465","nbhd_code":"MKD_R6966465_3","nbhd_name":"MK00804"},"geometry":{"type":"Polygon","coordinates":[[[21.5505,42.00766],[21.54687,41.99871],[21.53702,41.99478],[21.53515,41.98846],[21.54498,41.9817],[21.572,41.97568],[21.57194,41.97241],[21.57913,41.96977],[21.58456,41.96321],[21.58351,41.9593],[21.58727,41.95043],[21.58468,41.94542],[21.58984,41.93692],[21.5838,41.9313],[21.57045,41.93311],[21.56778,41.93662],[21.57187,41.9416],[21.56197,41.94694],[21.56073,41.95219],[21.55075,41.9569],[21.54811,41.96183],[21.53761,41.96906],[21.52691,41.9692],[21.52186,41.9749],[21.51561,41.97277],[21.51311,41.97841],[21.50244,41.97685],[21.48193,41.99027],[21.46534,41.99414],[21.45639,41.99124],[21.44983,41.99473],[21.45106,41.99905],[21.44691,42.01091],[21.45044,42.01689],[21.45704,42.01875],[21.45219,42.0263],[21.46663,42.04604],[21.47793,42.0746],[21.48039,42.09088],[21.49461,42.10934],[21.50827,42.11754],[21.50911,42.12018],[21.51224,42.12616],[21.51702,42.12238],[21.51837,42.11948],[21.52073,42.11754],[21.53002,42.10602],[21.54583,42.09557],[21.54687,42.08514],[21.5591,42.06718],[21.55664,42.06036],[21.55871,42.05405],[21.55554,42.0503],[21.55804,42.02961],[21.54974,42.02598],[21.54696,42.01669],[21.5505,42.00766]]]}},{"type":"Feature","properties":{"uesi_id":"MKD_R6966465","nbhd_code":"MKD_R6966465_4","nbhd_name":"MK00805"},"geometry":{"type":"Polygon","coordinates":[[[21.36917,42.04515],[21.36508,42.0254],[21.37131,42.01429],[21.36989,42.00659],[21.37606,42.00118],[21.36844,41.99803],[21.36377,42.00061],[21.3536,41.99883],[21.33614,42.00564],[21.32277,42.00702],[21.32373,42.01519],[21.31356,42.02824],[21.31526,42.03073],[21.32071,42.02905],[21.32208,42.03306],[21.31312,42.03985],[21.30528,42.03964],[21.29291,42.04474],[21.27249,42.0644],[21.25097,42.07174],[21.24797,42.08218],[21.24894,42.09075],[21.27246,42.09616],[21.29044,42.10512],[21.29651,42.11144],[21.3044,42.10515],[21.32124,42.10799],[21.32813,42.10377],[21.34032,42.08046],[21.35481,42.07731],[21.36276,42.07039],[21.36321,42.05986],[21.36917,42.04515]]]}},{"type":"Feature","properties":{"uesi_id":"MKD_R6966465","nbhd_code":"MKD_R6966465_5","nbhd_name":"MK00806"},"geometry":{"type":"Polygon","coordinates":[[[21.63883,41.83499],[21.63406,41.83194],[21.63196,41.81974],[21.63958,41.79739],[21.62818,41.78728],[21.62316,41.7741],[21.61391,41.76734],[21.61153,41.76015],[21.60142,41.75874],[21.57863,41.74932],[21.5677,41.7587],[21.52841,41.75451],[21.52712,41.76151],[21.52258,41.76606],[21.50367,41.76537],[21.49301,41.76034],[21.49174,41.77279],[21.47394,41.78843],[21.47941,41.79954],[21.46933,41.8119],[21.46942,41.82416],[21.49128,41.83662],[21.49701,41.84602],[21.50776,41.83655],[21.51599,41.83711],[21.52015,41.84098],[21.524,41.8539],[21.53708,41.86494],[21.53883,41.87494],[21.55249,41.89215],[21.58033,41.90045],[21.59432,41.90984],[21.60513,41.90693],[21.61264,41.91351],[21.62074,41.90814],[21.64258,41.90205],[21.64826,41.89549],[21.64678,41.88721],[21.65226,41.87503],[21.64521,41.86558],[21.65025,41.85627],[21.63883,41.83499]]]}},{"type":"Feature","properties":{"uesi_id":"MKD_R6966465","nbhd_code":"MKD_R6966465_6","nbhd_name":"MK00807"},"geometry":{"type":"Polygon","coordinates":[[[21.58984,41.93692],[21.58468,41.94542],[21.58727,41.95043],[21.58351,41.9593],[21.58456,41.96321],[21.57913,41.96977],[21.57194,41.97241],[21.572,41.97568],[21.54498,41.9817],[21.53515,41.98846],[21.53702,41.99478],[21.54687,41.99871],[21.5505,42.00766],[21.55649,42.00275],[21.57136,42.01582],[21.59999,42.01993],[21.61125,42.0384],[21.62197,42.04655],[21.6299,42.04322],[21.62879,42.05224],[21.63822,42.05833],[21.65099,42.04543],[21.66438,42.04673],[21.66993,42.0345],[21.69997,42.03092],[21.7001,42.01805],[21.6921,42.00684],[21.69435,42.00102],[21.68612,41.99938],[21.68356,41.98604],[21.67856,41.98077],[21.67759,41.96996],[21.68998,41.95663],[21.68192,41.95022],[21.65561,41.95139],[21.65138,41.95707],[21.63353,41.96485],[21.6296,41.96127],[21.62679,41.94995],[21.61683,41.95298],[21.60818,41.94887],[21.60558,41.94471],[21.59684,41.94533],[21.59556,41.93898],[21.58984,41.93692]]]}},{"type":"Feature","properties":{"uesi_id":"MKD_R6966465","nbhd_code":"MKD_R6966465_7","nbhd_name":"MK00808"},"geometry":{"type":"Polygon","coordinates":[[[21.42642,41.97798],[21.43913,41.9693],[21.43508,41.96587],[21.37582,41.96384],[21.36389,41.96363],[21.35859,41.9824],[21.36844,41.99803],[21.37606,42.00118],[21.36989,42.00659],[21.37131,42.01429],[21.36508,42.0254],[21.36917,42.04515],[21.37582,42.04375],[21.38885,42.04447],[21.39249,42.03591],[21.40202,42.02731],[21.43038,42.02255],[21.42991,42.01351],[21.42672,42.01177],[21.42301,42.01177],[21.42286,42.00822],[21.41506,42.00318],[21.40634,41.98982],[21.41377,41.98157],[21.42642,41.97798]]]}},{"type":"Feature","properties":{"uesi_id":"MKD_R6966465","nbhd_code":"MKD_R6966465_8","nbhd_name":"MK00809"},"geometry":{"type":"Polygon","coordinates":[[[21.43508,41.96587],[21.43913,41.9693],[21.42642,41.97798],[21.42918,41.98663],[21.44183,41.98732],[21.44611,41.98178],[21.50446,41.95538],[21.53204,41.94655],[21.54479,41.94797],[21.55226,41.94393],[21.55234,41.94133],[21.54562,41.93424],[21.53969,41.93581],[21.53454,41.93341],[21.51934,41.91609],[21.50753,41.91445],[21.5029,41.91645],[21.494,41.91203],[21.49593,41.92704],[21.48798,41.92637],[21.47729,41.93598],[21.46268,41.93595],[21.45306,41.94005],[21.44659,41.95077],[21.44756,41.9549],[21.43761,41.95837],[21.43508,41.96587]]]}},{"type":"Feature","properties":{"uesi_id":"MKD_R6966465","nbhd_code":"MKD_R6966465_9","nbhd_name":"MK00810"},"geometry":{"type":"Polygon","coordinates":[[[21.58984,41.93692],[21.59556,41.93898],[21.59684,41.94533],[21.60558,41.94471],[21.60818,41.94887],[21.61683,41.95298],[21.62679,41.94995],[21.6296,41.96127],[21.63353,41.96485],[21.65138,41.95707],[21.65561,41.95139],[21.68192,41.95022],[21.68998,41.95663],[21.67759,41.96996],[21.67856,41.98077],[21.68356,41.98604],[21.68612,41.99938],[21.69435,42.00102],[21.7173,41.99661],[21.73724,41.98102],[21.73791,41.97639],[21.74157,41.97412],[21.7951,41.98511],[21.80054,41.9731],[21.82131,41.96057],[21.80882,41.93142],[21.81022,41.92077],[21.80588,41.91852],[21.78864,41.91804],[21.76562,41.9049],[21.75277,41.90447],[21.74755,41.90102],[21.751,41.8732],[21.73506,41.85125],[21.73551,41.82759],[21.73102,41.82048],[21.71543,41.82172],[21.69877,41.83458],[21.68019,41.82387],[21.67492,41.83278],[21.64926,41.82875],[21.63883,41.83499],[21.65025,41.85627],[21.64521,41.86558],[21.65226,41.87503],[21.64678,41.88721],[21.64826,41.89549],[21.64258,41.90205],[21.62074,41.90814],[21.61264,41.91351],[21.60513,41.90693],[21.59432,41.90984],[21.5916,41.91918],[21.58426,41.91448],[21.57138,41.92158],[21.57045,41.93311],[21.5838,41.9313],[21.58984,41.93692]]]}},{"type":"Feature","properties":{"uesi_id":"MKD_R6966465","nbhd_code":"MKD_R6966465_10","nbhd_name":"MK00812"},"geometry":{"type":"Polygon","coordinates":[[[21.36389,41.96363],[21.37582,41.96384],[21.43508,41.96587],[21.43761,41.95837],[21.44756,41.9549],[21.44659,41.95077],[21.45306,41.94005],[21.46268,41.93595],[21.45452,41.93329],[21.45209,41.91448],[21.43872,41.9028],[21.43304,41.90528],[21.42415,41.90334],[21.4149,41.91098],[21.40693,41.91116],[21.40027,41.90703],[21.37582,41.91367],[21.35233,41.90659],[21.34406,41.89437],[21.34905,41.88468],[21.35998,41.87693],[21.36711,41.87443],[21.37582,41.87601],[21.38041,41.87579],[21.3844,41.86943],[21.3825,41.86452],[21.37582,41.86391],[21.36107,41.86064],[21.34702,41.81402],[21.35314,41.79598],[21.34646,41.777],[21.3397,41.77007],[21.34109,41.75968],[21.3378,41.74987],[21.34282,41.73129],[21.31078,41.75474],[21.29579,41.75963],[21.29032,41.77251],[21.26112,41.80666],[21.25573,41.82091],[21.23789,41.83],[21.23617,41.85041],[21.24141,41.86411],[21.24246,41.87934],[21.23791,41.88504],[21.21675,41.89417],[21.22446,41.90195],[21.24287,41.91188],[21.28071,41.92018],[21.28267,41.92703],[21.30446,41.93716],[21.3044,41.94723],[21.31911,41.95254],[21.32394,41.95973],[21.36389,41.96363]]]}},{"type":"Feature","properties":{"uesi_id":"MKD_R6966465","nbhd_code":"MKD_R6966465_11","nbhd_name":"MK00813"},"geometry":{"type":"Polygon","coordinates":[[[21.46268,41.93595],[21.47729,41.93598],[21.48798,41.92637],[21.49593,41.92704],[21.494,41.91203],[21.5029,41.91645],[21.50753,41.91445],[21.51934,41.91609],[21.53454,41.93341],[21.53969,41.93581],[21.54562,41.93424],[21.55234,41.94133],[21.56197,41.94694],[21.57187,41.9416],[21.56778,41.93662],[21.57045,41.93311],[21.57138,41.92158],[21.58426,41.91448],[21.5916,41.91918],[21.59432,41.90984],[21.58033,41.90045],[21.55249,41.89215],[21.53883,41.87494],[21.53708,41.86494],[21.524,41.8539],[21.52015,41.84098],[21.51599,41.83711],[21.50776,41.83655],[21.49701,41.84602],[21.49128,41.83662],[21.46942,41.82416],[21.46933,41.8119],[21.47941,41.79954],[21.47394,41.78843],[21.49174,41.77279],[21.49301,41.76034],[21.47067,41.76188],[21.45369,41.75654],[21.44252,41.7293],[21.43509,41.72692],[21.42972,41.71753],[21.4053,41.7049],[21.39349,41.71797],[21.38073,41.72544],[21.37582,41.73651],[21.37381,41.73745],[21.36998,41.73989],[21.3674,41.74066],[21.35842,41.73887],[21.35277,41.7367],[21.34639,41.73264],[21.34282,41.73129],[21.3378,41.74987],[21.34109,41.75968],[21.3397,41.77007],[21.34646,41.777],[21.35314,41.79598],[21.34702,41.81402],[21.36107,41.86064],[21.37582,41.86391],[21.3825,41.86452],[21.3844,41.86943],[21.38041,41.87579],[21.37582,41.87601],[21.36711,41.87443],[21.35998,41.87693],[21.34905,41.88468],[21.34406,41.89437],[21.35233,41.90659],[21.37582,41.91367],[21.40027,41.90703],[21.40693,41.91116],[21.4149,41.91098],[21.42415,41.90334],[21.43304,41.90528],[21.43872,41.9028],[21.45209,41.91448],[21.45452,41.93329],[21.46268,41.93595]]]}},{"type":"Feature","properties":{"uesi_id":"MKD_R6966465","nbhd_code":"MKD_R6966465_12","nbhd_name":"MK00814"},"geometry":{"type":"Polygon","coordinates":[[[21.45106,41.99905],[21.44983,41.99473],[21.44183,41.98732],[21.42918,41.98663],[21.42642,41.97798],[21.41377,41.98157],[21.40634,41.98982],[21.41506,42.00318],[21.42286,42.00822],[21.42301,42.01177],[21.42672,42.01177],[21.43386,42.00775],[21.43692,41.99936],[21.45106,41.99905]]]}},{"type":"Feature","properties":{"uesi_id":"MKD_R6966465","nbhd_code":"MKD_R6966465_13","nbhd_name":"MK00815"},"geometry":{"type":"Polygon","coordinates":[[[21.43038,42.02255],[21.44703,42.02122],[21.45044,42.01689],[21.44691,42.01091],[21.45106,41.99905],[21.43692,41.99936],[21.43386,42.00775],[21.42672,42.01177],[21.42991,42.01351],[21.43038,42.02255]]]}},{"type":"Feature","properties":{"uesi_id":"MKD_R6966465","nbhd_code":"MKD_R6966465_14","nbhd_name":"MK00816"},"geometry":{"type":"Polygon","coordinates":[[[21.48915,42.15672],[21.47337,42.15568],[21.46678,42.1491],[21.46172,42.14828],[21.4453,42.12972],[21.44491,42.11754],[21.43698,42.09566],[21.44296,42.08294],[21.44575,42.05559],[21.45012,42.05356],[21.43723,42.04452],[21.42797,42.04665],[21.42361,42.05101],[21.42526,42.05749],[21.41676,42.0606],[21.40687,42.0697],[21.39989,42.06202],[21.39343,42.06042],[21.39385,42.04887],[21.38885,42.04447],[21.37582,42.04375],[21.36917,42.04515],[21.36321,42.05986],[21.36276,42.07039],[21.35481,42.07731],[21.34032,42.08046],[21.32813,42.10377],[21.32124,42.10799],[21.30284,42.14038],[21.30965,42.14484],[21.31988,42.16047],[21.3195,42.17304],[21.32705,42.17748],[21.33401,42.18873],[21.33177,42.19922],[21.334,42.20435],[21.34492,42.20534],[21.35924,42.22077],[21.36879,42.22293],[21.37582,42.23618],[21.38399,42.24043],[21.38451,42.24557],[21.39961,42.24842],[21.41853,42.2447],[21.43372,42.23259],[21.44432,42.23493],[21.45912,42.23858],[21.47001,42.23753],[21.48881,42.22387],[21.50233,42.222],[21.50789,42.21342],[21.52039,42.20357],[21.52247,42.19705],[21.51853,42.19355],[21.51327,42.17312],[21.49981,42.16991],[21.49574,42.16375],[21.48835,42.16293],[21.48915,42.15672]]]}},{"type":"Feature","properties":{"uesi_id":"MKD_R6966465","nbhd_code":"MKD_R6966465_15","nbhd_name":"MK00817"},"geometry":{"type":"Polygon","coordinates":[[[21.39385,42.04887],[21.39343,42.06042],[21.39989,42.06202],[21.40687,42.0697],[21.41676,42.0606],[21.42526,42.05749],[21.42361,42.05101],[21.42797,42.04665],[21.43371,42.03231],[21.43161,42.02772],[21.42009,42.02839],[21.41239,42.04408],[21.39385,42.04887]]]}},{"type":"Feature","properties":{"uesi_id":"MKD_R6966465","nbhd_code":"MKD_R6966465_16","nbhd_name":"MK00801"},"geometry":{"type":"Polygon","coordinates":[[[21.56197,41.94694],[21.55234,41.94133],[21.55226,41.94393],[21.54479,41.94797],[21.53204,41.94655],[21.50446,41.95538],[21.44611,41.98178],[21.44183,41.98732],[21.44983,41.99473],[21.45639,41.99124],[21.46534,41.99414],[21.48193,41.99027],[21.50244,41.97685],[21.51311,41.97841],[21.51561,41.97277],[21.52186,41.9749],[21.52691,41.9692],[21.53761,41.96906],[21.54811,41.96183],[21.55075,41.9569],[21.56073,41.95219],[21.56197,41.94694]]]}},{"type":"Feature","properties":{"uesi_id":"MKD_R6966465","nbhd_code":"MKD_R6966465_17","nbhd_name":"MK00811"},"geometry":{"type":"Polygon","coordinates":[[[21.21675,41.89417],[21.19434,41.90275],[21.17795,41.91366],[21.18638,41.92111],[21.18334,41.93011],[21.18532,41.93457],[21.18362,41.94867],[21.18797,41.95926],[21.18823,41.97851],[21.17337,41.98583],[21.15767,41.99923],[21.14987,42.01282],[21.16476,42.02158],[21.17664,42.03307],[21.16787,42.04861],[21.19443,42.06714],[21.19403,42.07523],[21.1893,42.0795],[21.18407,42.09157],[21.17913,42.09126],[21.17417,42.08461],[21.15976,42.07937],[21.16185,42.09409],[21.15762,42.09922],[21.19193,42.1024],[21.2127,42.1107],[21.22359,42.09548],[21.23276,42.09723],[21.24894,42.09075],[21.24797,42.08218],[21.25097,42.07174],[21.27249,42.0644],[21.29291,42.04474],[21.30528,42.03964],[21.31312,42.03985],[21.32208,42.03306],[21.32071,42.02905],[21.31526,42.03073],[21.31356,42.02824],[21.32373,42.01519],[21.32277,42.00702],[21.33614,42.00564],[21.3536,41.99883],[21.36377,42.00061],[21.36844,41.99803],[21.35859,41.9824],[21.36389,41.96363],[21.32394,41.95973],[21.31911,41.95254],[21.3044,41.94723],[21.30446,41.93716],[21.28267,41.92703],[21.28071,41.92018],[21.24287,41.91188],[21.22446,41.90195],[21.21675,41.89417]]]}}]}