{"type":"FeatureCollection","name":"MLI_R3544925","crs":{"type":"name","properties":{"name":"urn:ogc:def:crs:OGC:1.3:CRS84"}},"features":[{"type":"Feature","properties":{"uesi_id":"MLI_R3544925","nbhd_code":"MLI_R3544925_1","nbhd_name":"Commune I"},"geometry":{"type":"MultiPolygon","coordinates":[[[[-7.91643,12.64284,0.0],[-7.91692,12.64272,0.0],[-7.91806,12.64248,0.0],[-7.92039,12.64219,0.0],[-7.9219,12.642,0.0],[-7.92321,12.64196,0.0],[-7.92426,12.64207,0.0],[-7.92571,12.64239,0.0],[-7.92729,12.64275,0.0],[-7.92949,12.64248,0.0],[-7.93065,12.64196,0.0],[-7.93173,12.64122,0.0],[-7.9322,12.64024,0.0],[-7.93242,12.63988,0.0],[-7.93283,12.63974,0.0],[-7.93321,12.63985,0.0],[-7.93405,12.6401,0.0],[-7.93444,12.63997,0.0],[-7.93516,12.63981,0.0],[-7.93572,12.63951,0.0],[-7.93608,12.6387,0.0],[-7.93635,12.63753,0.0],[-7.93646,12.63709,0.0],[-7.93671,12.63672,0.0],[-7.93742,12.63649,0.0],[-7.93804,12.63643,0.0],[-7.93873,12.63633,0.0],[-7.93927,12.63614,0.0],[-7.94116,12.63534,0.0],[-7.94208,12.63496,0.0],[-7.94315,12.63467,0.0],[-7.94387,12.63454,0.0],[-7.94451,12.63449,0.0],[-7.94595,12.6344,0.0],[-7.94712,12.63438,0.0],[-7.94816,12.6343,0.0],[-7.94931,12.63425,0.0],[-7.95045,12.6342,0.0],[-7.95146,12.63413,0.0],[-7.95249,12.63373,0.0],[-7.95286,12.63414,0.0],[-7.95332,12.63515,0.0],[-7.95329,12.636,0.0],[-7.95337,12.63668,0.0],[-7.9533,12.63757,0.0],[-7.95289,12.63864,0.0],[-7.95242,12.6396,0.0],[-7.95194,12.64057,0.0],[-7.95162,12.6415,0.0],[-7.95151,12.64193,0.0],[-7.95174,12.64344,0.0],[-7.9518,12.64379,0.0],[-7.95205,12.64384,0.0],[-7.95225,12.64386,0.0],[-7.95231,12.64393,0.0],[-7.95238,12.64402,0.0],[-7.95235,12.64453,0.0],[-7.95237,12.64475,0.0],[-7.95246,12.64495,0.0],[-7.95284,12.64523,0.0],[-7.95325,12.64557,0.0],[-7.95357,12.64605,0.0],[-7.95395,12.6463,0.0],[-7.95433,12.64672,0.0],[-7.9545,12.64711,0.0],[-7.95463,12.64757,0.0],[-7.95482,12.64795,0.0],[-7.95502,12.64797,0.0],[-7.95521,12.64841,0.0],[-7.95541,12.64887,0.0],[-7.95565,12.64927,0.0],[-7.95576,12.64959,0.0],[-7.9559,12.64988,0.0],[-7.95621,12.6502,0.0],[-7.95636,12.65049,0.0],[-7.95647,12.65059,0.0],[-7.95652,12.65066,0.0],[-7.95669,12.65079,0.0],[-7.95693,12.65104,0.0],[-7.9573,12.65129,0.0],[-7.95746,12.6516,0.0],[-7.95762,12.65208,0.0],[-7.95771,12.65267,0.0],[-7.95806,12.65292,0.0],[-7.95812,12.65302,0.0],[-7.95818,12.65311,0.0],[-7.95831,12.6533,0.0],[-7.95841,12.6536,0.0],[-7.9585,12.65401,0.0],[-7.95859,12.6542,0.0],[-7.95876,12.6543,0.0],[-7.95891,12.65427,0.0],[-7.95914,12.6544,0.0],[-7.95937,12.65463,0.0],[-7.95959,12.65496,0.0],[-7.95952,12.65542,0.0],[-7.95944,12.65576,0.0],[-7.95932,12.65599,0.0],[-7.95927,12.65622,0.0],[-7.95938,12.65664,0.0],[-7.95949,12.65683,0.0],[-7.9598,12.65726,0.0],[-7.96023,12.65771,0.0],[-7.96064,12.65812,0.0],[-7.96062,12.65825,0.0],[-7.96058,12.65846,0.0],[-7.96037,12.65887,0.0],[-7.96039,12.65909,0.0],[-7.9605,12.65929,0.0],[-7.96069,12.65956,0.0],[-7.96092,12.6598,0.0],[-7.96097,12.65984,0.0],[-7.96157,12.66028,0.0],[-7.96157,12.66075,0.0],[-7.9616,12.66089,0.0],[-7.96177,12.66106,0.0],[-7.96197,12.66115,0.0],[-7.96231,12.66139,0.0],[-7.96264,12.66199,0.0],[-7.96288,12.66223,0.0],[-7.9631,12.66258,0.0],[-7.9631,12.66288,0.0],[-7.96297,12.66315,0.0],[-7.96249,12.66345,0.0],[-7.96242,12.66377,0.0],[-7.96248,12.6642,0.0],[-7.96269,12.66439,0.0],[-7.9631,12.66459,0.0],[-7.9637,12.66508,0.0],[-7.96402,12.66534,0.0],[-7.96414,12.66539,0.0],[-7.96465,12.66573,0.0],[-7.96492,12.66607,0.0],[-7.96501,12.66615,0.0],[-7.96535,12.66654,0.0],[-7.96616,12.66642,0.0],[-7.96687,12.66651,0.0],[-7.96708,12.66699,0.0],[-7.96679,12.66729,0.0],[-7.96658,12.66753,0.0],[-7.96664,12.66778,0.0],[-7.96673,12.66806,0.0],[-7.96708,12.66834,0.0],[-7.96748,12.66856,0.0],[-7.96801,12.66883,0.0],[-7.96814,12.66892,0.0],[-7.96847,12.6691,0.0],[-7.96867,12.66924,0.0],[-7.96878,12.66932,0.0],[-7.96889,12.66939,0.0],[-7.96927,12.66965,0.0],[-7.96968,12.66989,0.0],[-7.96998,12.67003,0.0],[-7.97034,12.6701,0.0],[-7.97062,12.67016,0.0],[-7.97089,12.67024,0.0],[-7.97124,12.67043,0.0],[-7.9714,12.67065,0.0],[-7.97164,12.67083,0.0],[-7.97176,12.67131,0.0],[-7.97176,12.67134,0.0],[-7.97185,12.67167,0.0],[-7.97192,12.67177,0.0],[-7.97226,12.67189,0.0],[-7.9724,12.67194,0.0],[-7.97282,12.67205,0.0],[-7.97332,12.6721,0.0],[-7.97376,12.67212,0.0],[-7.97409,12.67212,0.0],[-7.97448,12.67211,0.0],[-7.9751,12.6721,0.0],[-7.97526,12.67213,0.0],[-7.97542,12.67216,0.0],[-7.97574,12.67249,0.0],[-7.9762,12.67267,0.0],[-7.97669,12.67284,0.0],[-7.97713,12.67307,0.0],[-7.97725,12.67314,0.0],[-7.9777,12.67332,0.0],[-7.9779,12.67346,0.0],[-7.97817,12.67368,0.0],[-7.97853,12.67398,0.0],[-7.97868,12.67405,0.0],[-7.97876,12.67407,0.0],[-7.97903,12.67396,0.0],[-7.97927,12.67408,0.0],[-7.97966,12.6743,0.0],[-7.97995,12.67435,0.0],[-7.98036,12.67452,0.0],[-7.98088,12.67465,0.0],[-7.98137,12.67484,0.0],[-7.98171,12.67527,0.0],[-7.98186,12.67542,0.0],[-7.98224,12.67549,0.0],[-7.98273,12.6757,0.0],[-7.98292,12.67576,0.0],[-7.98311,12.67581,0.0],[-7.98364,12.67608,0.0],[-7.98411,12.67629,0.0],[-7.98449,12.67654,0.0],[-7.98492,12.67688,0.0],[-7.98539,12.67716,0.0],[-7.98558,12.6773,0.0],[-7.98577,12.67744,0.0],[-7.98598,12.6777,0.0],[-7.98617,12.67787,0.0],[-7.98647,12.67785,0.0],[-7.9868,12.67774,0.0],[-7.98717,12.67796,0.0],[-7.98775,12.67839,0.0],[-7.98815,12.67864,0.0],[-7.98832,12.67888,0.0],[-7.98858,12.67907,0.0],[-7.98886,12.67923,0.0],[-7.98898,12.67952,0.0],[-7.98903,12.67969,0.0],[-7.989,12.67986,0.0],[-7.98918,12.68017,0.0],[-7.9893,12.68035,0.0],[-7.98583,12.68028,0.0],[-7.98208,12.68018,0.0],[-7.97614,12.68499,0.0],[-7.97221,12.68811,0.0],[-7.96838,12.69119,0.0],[-7.96276,12.69572,0.0],[-7.95689,12.70049,0.0],[-7.95239,12.70403,0.0],[-7.94302,12.71143,0.0],[-7.93871,12.7004,0.0],[-7.93709,12.6961,0.0],[-7.93574,12.6924,0.0],[-7.93508,12.69076,0.0],[-7.93504,12.69058,0.0],[-7.93501,12.69045,0.0],[-7.93546,12.68997,0.0],[-7.93563,12.68963,0.0],[-7.93573,12.68912,0.0],[-7.93569,12.68887,0.0],[-7.9354,12.68849,0.0],[-7.93554,12.68821,0.0],[-7.93537,12.68805,0.0],[-7.93509,12.68777,0.0],[-7.93497,12.68765,0.0],[-7.93416,12.68684,0.0],[-7.93421,12.6863,0.0],[-7.93367,12.6859,0.0],[-7.93341,12.68583,0.0],[-7.93319,12.68543,0.0],[-7.93282,12.68528,0.0],[-7.93212,12.68496,0.0],[-7.9322,12.6848,0.0],[-7.93204,12.68447,0.0],[-7.93179,12.68417,0.0],[-7.93167,12.68335,0.0],[-7.93159,12.68327,0.0],[-7.93134,12.68302,0.0],[-7.93109,12.68255,0.0],[-7.93075,12.68229,0.0],[-7.9305,12.6821,0.0],[-7.92997,12.68198,0.0],[-7.92966,12.68184,0.0],[-7.92938,12.68171,0.0],[-7.92905,12.68149,0.0],[-7.92842,12.68171,0.0],[-7.92794,12.68174,0.0],[-7.92731,12.68238,0.0],[-7.92699,12.68218,0.0],[-7.92635,12.68224,0.0],[-7.92577,12.68208,0.0],[-7.92471,12.68228,0.0],[-7.92432,12.68224,0.0],[-7.92354,12.68212,0.0],[-7.9233,12.68194,0.0],[-7.92272,12.68144,0.0],[-7.9223,12.68121,0.0],[-7.9218,12.68098,0.0],[-7.92132,12.68128,0.0],[-7.92082,12.681,0.0],[-7.91996,12.68128,0.0],[-7.91903,12.68083,0.0],[-7.91872,12.68047,0.0],[-7.91838,12.68038,0.0],[-7.91788,12.68073,0.0],[-7.91763,12.68073,0.0],[-7.91676,12.68048,0.0],[-7.91645,12.68027,0.0],[-7.9161,12.68002,0.0],[-7.9158,12.68007,0.0],[-7.91521,12.68009,0.0],[-7.91447,12.67984,0.0],[-7.91431,12.67968,0.0],[-7.91408,12.67936,0.0],[-7.91389,12.67906,0.0],[-7.91378,12.67873,0.0],[-7.91369,12.67843,0.0],[-7.91366,12.67803,0.0],[-7.91347,12.67754,0.0],[-7.91343,12.677,0.0],[-7.91335,12.67677,0.0],[-7.91328,12.67646,0.0],[-7.91322,12.67622,0.0],[-7.91316,12.67575,0.0],[-7.91308,12.67535,0.0],[-7.91292,12.67488,0.0],[-7.91275,12.67434,0.0],[-7.91273,12.67412,0.0],[-7.91292,12.67379,0.0],[-7.91317,12.67352,0.0],[-7.91336,12.67349,0.0],[-7.91392,12.67354,0.0],[-7.91432,12.6734,0.0],[-7.9142,12.67289,0.0],[-7.914,12.67241,0.0],[-7.91385,12.67196,0.0],[-7.91381,12.6718,0.0],[-7.91381,12.67159,0.0],[-7.91383,12.6714,0.0],[-7.91391,12.67055,0.0],[-7.91381,12.67022,0.0],[-7.91329,12.66888,0.0],[-7.91324,12.66844,0.0],[-7.91323,12.66831,0.0],[-7.91311,12.66713,0.0],[-7.91303,12.66667,0.0],[-7.91301,12.66631,0.0],[-7.91314,12.66563,0.0],[-7.91303,12.66512,0.0],[-7.91297,12.66492,0.0],[-7.9129,12.66468,0.0],[-7.9125,12.66388,0.0],[-7.91215,12.66276,0.0],[-7.91219,12.64332,0.0],[-7.91298,12.64324,0.0],[-7.91381,12.64322,0.0],[-7.91487,12.6432,0.0],[-7.91643,12.64284,0.0]]]]}},{"type":"Feature","properties":{"uesi_id":"MLI_R3544925","nbhd_code":"MLI_R3544925_2","nbhd_name":"Commune IV"},"geometry":{"type":"MultiPolygon","coordinates":[[[[-8.04595,12.58021,0.0],[-8.04544,12.57817,0.0],[-8.04526,12.57758,0.0],[-8.04433,12.575,0.0],[-8.04392,12.57346,0.0],[-8.04315,12.57153,0.0],[-8.04226,12.56931,0.0],[-8.04194,12.5676,0.0],[-8.05054,12.56678,0.0],[-8.05452,12.56639,0.0],[-8.05892,12.56486,0.0],[-8.06111,12.5641,0.0],[-8.06478,12.56281,0.0],[-8.06824,12.56165,0.0],[-8.07,12.563,0.0],[-8.07018,12.56313,0.0],[-8.07032,12.56348,0.0],[-8.07053,12.56397,0.0],[-8.07318,12.56377,0.0],[-8.07554,12.56391,0.0],[-8.07851,12.56371,0.0],[-8.07959,12.56532,0.0],[-8.07945,12.56667,0.0],[-8.07872,12.56818,0.0],[-8.07804,12.56957,0.0],[-8.07709,12.5722,0.0],[-8.07602,12.57463,0.0],[-8.07548,12.57625,0.0],[-8.07588,12.5778,0.0],[-8.07689,12.57881,0.0],[-8.07831,12.57874,0.0],[-8.07966,12.57955,0.0],[-8.08026,12.5807,0.0],[-8.0802,12.58171,0.0],[-8.08067,12.58306,0.0],[-8.08013,12.58468,0.0],[-8.07979,12.58549,0.0],[-8.08026,12.58657,0.0],[-8.08094,12.58764,0.0],[-8.08114,12.58879,0.0],[-8.08134,12.59061,0.0],[-8.08148,12.59236,0.0],[-8.0806,12.59361,0.0],[-8.08013,12.59418,0.0],[-8.07891,12.59513,0.0],[-8.07746,12.59516,0.0],[-8.07622,12.5952,0.0],[-8.07542,12.59435,0.0],[-8.07494,12.59385,0.0],[-8.07379,12.59317,0.0],[-8.07251,12.59331,0.0],[-8.07096,12.59358,0.0],[-8.06987,12.59346,0.0],[-8.06965,12.59433,0.0],[-8.06806,12.60813,0.0],[-8.06641,12.61233,0.0],[-8.06466,12.61775,0.0],[-8.06461,12.61778,0.0],[-8.06331,12.61842,0.0],[-8.06196,12.62363,0.0],[-8.06183,12.6241,0.0],[-8.06159,12.62502,0.0],[-8.06045,12.62935,0.0],[-8.05751,12.64052,0.0],[-8.05679,12.64326,0.0],[-8.05583,12.64699,0.0],[-8.05411,12.65359,0.0],[-8.05278,12.6587,0.0],[-8.04992,12.66633,0.0],[-8.0495,12.66618,0.0],[-8.04925,12.66605,0.0],[-8.04848,12.66573,0.0],[-8.04772,12.66525,0.0],[-8.04612,12.66433,0.0],[-8.04556,12.66418,0.0],[-8.04476,12.66396,0.0],[-8.0445,12.66389,0.0],[-8.0432,12.66366,0.0],[-8.04274,12.66359,0.0],[-8.04161,12.66358,0.0],[-8.04057,12.66362,0.0],[-8.04027,12.66356,0.0],[-8.03977,12.66357,0.0],[-8.03954,12.66344,0.0],[-8.03944,12.66342,0.0],[-8.03866,12.663,0.0],[-8.03741,12.66231,0.0],[-8.03672,12.66195,0.0],[-8.03584,12.66149,0.0],[-8.03583,12.66147,0.0],[-8.03568,12.6614,0.0],[-8.03532,12.66103,0.0],[-8.03405,12.65975,0.0],[-8.03228,12.65876,0.0],[-8.03162,12.65806,0.0],[-8.03163,12.65792,0.0],[-8.03161,12.6579,0.0],[-8.03163,12.65779,0.0],[-8.03165,12.6575,0.0],[-8.03174,12.6573,0.0],[-8.03176,12.65724,0.0],[-8.03187,12.65671,0.0],[-8.03172,12.65639,0.0],[-8.03113,12.65581,0.0],[-8.0303,12.65554,0.0],[-8.03021,12.65541,0.0],[-8.02966,12.65462,0.0],[-8.02949,12.65445,0.0],[-8.0294,12.65435,0.0],[-8.02938,12.6535,0.0],[-8.02931,12.653,0.0],[-8.02907,12.65269,0.0],[-8.02856,12.65251,0.0],[-8.02801,12.65232,0.0],[-8.02788,12.65203,0.0],[-8.02773,12.65166,0.0],[-8.02736,12.65146,0.0],[-8.02657,12.65103,0.0],[-8.02555,12.6505,0.0],[-8.02553,12.65049,0.0],[-8.02523,12.65033,0.0],[-8.02402,12.64942,0.0],[-8.02394,12.6494,0.0],[-8.022,12.64942,0.0],[-8.02175,12.64943,0.0],[-8.02124,12.64943,0.0],[-8.02091,12.64935,0.0],[-8.02059,12.64895,0.0],[-8.02031,12.64862,0.0],[-8.0199,12.64827,0.0],[-8.01967,12.64806,0.0],[-8.01952,12.64779,0.0],[-8.01931,12.64761,0.0],[-8.01856,12.64753,0.0],[-8.01814,12.64724,0.0],[-8.01763,12.6469,0.0],[-8.01741,12.64682,0.0],[-8.01728,12.64677,0.0],[-8.01674,12.64665,0.0],[-8.01662,12.64653,0.0],[-8.01648,12.64648,0.0],[-8.01579,12.64574,0.0],[-8.01419,12.64403,0.0],[-8.01723,12.64317,0.0],[-8.01886,12.64271,0.0],[-8.01949,12.64185,0.0],[-8.02008,12.64094,0.0],[-8.01994,12.64003,0.0],[-8.01916,12.63889,0.0],[-8.018,12.63804,0.0],[-8.01605,12.63675,0.0],[-8.01462,12.63559,0.0],[-8.01063,12.6317,0.0],[-8.01252,12.62961,0.0],[-8.01454,12.62838,0.0],[-8.0112,12.62672,0.0],[-8.0092,12.62573,0.0],[-8.00565,12.62396,0.0],[-8.00414,12.62265,0.0],[-8.0057,12.62032,0.0],[-8.00614,12.6197,0.0],[-8.00623,12.61942,0.0],[-8.00637,12.6192,0.0],[-8.00653,12.61853,0.0],[-8.00656,12.61844,0.0],[-8.00668,12.61809,0.0],[-8.00747,12.61656,0.0],[-8.008,12.61647,0.0],[-8.00939,12.61622,0.0],[-8.0098,12.61576,0.0],[-8.01044,12.61501,0.0],[-8.01081,12.61457,0.0],[-8.01214,12.61352,0.0],[-8.01325,12.61298,0.0],[-8.01419,12.61329,0.0],[-8.01498,12.61329,0.0],[-8.01511,12.61314,0.0],[-8.0153,12.61293,0.0],[-8.01541,12.6128,0.0],[-8.01555,12.61241,0.0],[-8.01562,12.61227,0.0],[-8.01589,12.61171,0.0],[-8.01614,12.61149,0.0],[-8.01671,12.61124,0.0],[-8.01675,12.61123,0.0],[-8.01708,12.61108,0.0],[-8.01774,12.61078,0.0],[-8.01819,12.61056,0.0],[-8.01942,12.60971,0.0],[-8.02012,12.60952,0.0],[-8.02047,12.60932,0.0],[-8.02116,12.60836,0.0],[-8.02151,12.60818,0.0],[-8.0227,12.60801,0.0],[-8.02317,12.60794,0.0],[-8.02398,12.60782,0.0],[-8.02524,12.60763,0.0],[-8.02559,12.60755,0.0],[-8.02602,12.60748,0.0],[-8.02643,12.60737,0.0],[-8.02808,12.60695,0.0],[-8.02906,12.60644,0.0],[-8.03036,12.60555,0.0],[-8.03118,12.60499,0.0],[-8.03205,12.60456,0.0],[-8.03216,12.60444,0.0],[-8.03228,12.60438,0.0],[-8.03246,12.60428,0.0],[-8.03256,12.60415,0.0],[-8.03329,12.60324,0.0],[-8.03384,12.60258,0.0],[-8.03491,12.60173,0.0],[-8.03633,12.59995,0.0],[-8.03766,12.59875,0.0],[-8.03912,12.59747,0.0],[-8.03981,12.59671,0.0],[-8.04006,12.59621,0.0],[-8.04004,12.59572,0.0],[-8.03989,12.5951,0.0],[-8.04131,12.59495,0.0],[-8.04411,12.5914,0.0],[-8.04421,12.59115,0.0],[-8.04478,12.58969,0.0],[-8.04509,12.58832,0.0],[-8.04603,12.58492,0.0],[-8.0462,12.58123,0.0],[-8.04595,12.58021,0.0]]]]}},{"type":"Feature","properties":{"uesi_id":"MLI_R3544925","nbhd_code":"MLI_R3544925_3","nbhd_name":"Commune VI"},"geometry":{"type":"MultiPolygon","coordinates":[[[[-7.92108,12.53619,0.0],[-7.91872,12.51648,0.0],[-7.93484,12.50289,0.0],[-7.95895,12.51268,0.0],[-7.98762,12.52433,0.0],[-7.99725,12.54732,0.0],[-7.9796,12.55821,0.0],[-7.979,12.5586,0.0],[-7.97728,12.55964,0.0],[-7.97722,12.55968,0.0],[-7.97774,12.56027,0.0],[-7.97823,12.56135,0.0],[-7.97822,12.56154,0.0],[-7.97821,12.56172,0.0],[-7.97823,12.56175,0.0],[-7.97822,12.56185,0.0],[-7.97822,12.56203,0.0],[-7.9784,12.56231,0.0],[-7.979,12.56239,0.0],[-7.97909,12.56276,0.0],[-7.97918,12.56303,0.0],[-7.97918,12.5635,0.0],[-7.97922,12.56412,0.0],[-7.97895,12.56473,0.0],[-7.97904,12.56493,0.0],[-7.97904,12.56494,0.0],[-7.97925,12.56539,0.0],[-7.97923,12.56578,0.0],[-7.97907,12.56598,0.0],[-7.97921,12.56657,0.0],[-7.97928,12.56749,0.0],[-7.97888,12.56798,0.0],[-7.9788,12.56822,0.0],[-7.97897,12.56851,0.0],[-7.97907,12.56893,0.0],[-7.97893,12.56929,0.0],[-7.97891,12.56962,0.0],[-7.97923,12.57015,0.0],[-7.97917,12.57067,0.0],[-7.97946,12.57123,0.0],[-7.97946,12.57205,0.0],[-7.97955,12.5732,0.0],[-7.97956,12.57326,0.0],[-7.97956,12.57341,0.0],[-7.97953,12.57349,0.0],[-7.97957,12.5736,0.0],[-7.97957,12.57369,0.0],[-7.97958,12.5739,0.0],[-7.97959,12.57508,0.0],[-7.97969,12.5764,0.0],[-7.97934,12.57667,0.0],[-7.97927,12.57672,0.0],[-7.97883,12.57719,0.0],[-7.97877,12.57726,0.0],[-7.97889,12.57769,0.0],[-7.97902,12.57819,0.0],[-7.97887,12.57847,0.0],[-7.97856,12.57903,0.0],[-7.97846,12.57924,0.0],[-7.97845,12.57927,0.0],[-7.97845,12.57928,0.0],[-7.97833,12.57954,0.0],[-7.97821,12.58008,0.0],[-7.97813,12.58045,0.0],[-7.97811,12.58062,0.0],[-7.97802,12.58078,0.0],[-7.97807,12.58102,0.0],[-7.97805,12.58115,0.0],[-7.97809,12.5813,0.0],[-7.97807,12.58151,0.0],[-7.9782,12.58177,0.0],[-7.97822,12.58184,0.0],[-7.97826,12.58188,0.0],[-7.97827,12.58189,0.0],[-7.97848,12.58215,0.0],[-7.97851,12.58219,0.0],[-7.97891,12.58253,0.0],[-7.97888,12.583,0.0],[-7.97893,12.58301,0.0],[-7.97892,12.58305,0.0],[-7.97919,12.58302,0.0],[-7.9797,12.58304,0.0],[-7.9799,12.5831,0.0],[-7.98014,12.58332,0.0],[-7.98014,12.58332,0.0],[-7.98,12.58387,0.0],[-7.98002,12.5841,0.0],[-7.98001,12.58422,0.0],[-7.98005,12.58432,0.0],[-7.98006,12.58443,0.0],[-7.9803,12.58471,0.0],[-7.98034,12.58486,0.0],[-7.98025,12.58518,0.0],[-7.98023,12.5852,0.0],[-7.97993,12.58543,0.0],[-7.97993,12.5855,0.0],[-7.97985,12.58557,0.0],[-7.97997,12.58587,0.0],[-7.97999,12.586,0.0],[-7.97999,12.58602,0.0],[-7.98002,12.58606,0.0],[-7.97984,12.58638,0.0],[-7.97965,12.5863,0.0],[-7.97926,12.58657,0.0],[-7.97943,12.5868,0.0],[-7.97949,12.5869,0.0],[-7.97959,12.58703,0.0],[-7.97973,12.58722,0.0],[-7.97967,12.58799,0.0],[-7.97899,12.58824,0.0],[-7.97868,12.58847,0.0],[-7.9786,12.58851,0.0],[-7.97838,12.58866,0.0],[-7.97832,12.5887,0.0],[-7.9783,12.58875,0.0],[-7.97821,12.58882,0.0],[-7.97801,12.58945,0.0],[-7.97795,12.58959,0.0],[-7.97795,12.58963,0.0],[-7.97792,12.58973,0.0],[-7.97791,12.59058,0.0],[-7.97738,12.59073,0.0],[-7.97716,12.59117,0.0],[-7.97691,12.59167,0.0],[-7.97638,12.59235,0.0],[-7.97642,12.59252,0.0],[-7.97639,12.59262,0.0],[-7.97646,12.59283,0.0],[-7.97652,12.59295,0.0],[-7.97654,12.59306,0.0],[-7.97624,12.59349,0.0],[-7.97642,12.59456,0.0],[-7.97659,12.59523,0.0],[-7.97685,12.59582,0.0],[-7.97689,12.59607,0.0],[-7.97695,12.59636,0.0],[-7.97624,12.5969,0.0],[-7.9763,12.59715,0.0],[-7.9763,12.59732,0.0],[-7.97635,12.59743,0.0],[-7.97637,12.59751,0.0],[-7.97581,12.59824,0.0],[-7.97513,12.59863,0.0],[-7.97451,12.59892,0.0],[-7.97445,12.59902,0.0],[-7.97433,12.59909,0.0],[-7.97437,12.59948,0.0],[-7.9744,12.59976,0.0],[-7.97437,12.59992,0.0],[-7.97442,12.60002,0.0],[-7.97443,12.60009,0.0],[-7.97448,12.60058,0.0],[-7.97448,12.60069,0.0],[-7.97446,12.60081,0.0],[-7.9745,12.60106,0.0],[-7.97451,12.60115,0.0],[-7.97452,12.60155,0.0],[-7.97362,12.60181,0.0],[-7.97362,12.60201,0.0],[-7.97359,12.60213,0.0],[-7.97363,12.60245,0.0],[-7.97365,12.60318,0.0],[-7.97398,12.60416,0.0],[-7.97366,12.6049,0.0],[-7.97362,12.60492,0.0],[-7.97344,12.60505,0.0],[-7.97348,12.60538,0.0],[-7.97345,12.60546,0.0],[-7.97349,12.60551,0.0],[-7.97349,12.60551,0.0],[-7.9735,12.60551,0.0],[-7.97405,12.60604,0.0],[-7.97413,12.60625,0.0],[-7.97423,12.6065,0.0],[-7.97424,12.60652,0.0],[-7.97459,12.60719,0.0],[-7.97471,12.60766,0.0],[-7.9745,12.60811,0.0],[-7.97446,12.60819,0.0],[-7.97421,12.60858,0.0],[-7.97422,12.60888,0.0],[-7.97415,12.6094,0.0],[-7.97413,12.6095,0.0],[-7.97402,12.60979,0.0],[-7.97418,12.6103,0.0],[-7.9744,12.61096,0.0],[-7.97433,12.61142,0.0],[-7.9736,12.61202,0.0],[-7.97347,12.61215,0.0],[-7.97337,12.61221,0.0],[-7.97336,12.61227,0.0],[-7.97321,12.61243,0.0],[-7.97331,12.61259,0.0],[-7.97329,12.61276,0.0],[-7.97359,12.61312,0.0],[-7.97362,12.61315,0.0],[-7.97426,12.61391,0.0],[-7.97436,12.61404,0.0],[-7.97427,12.61549,0.0],[-7.97401,12.61587,0.0],[-7.97353,12.61658,0.0],[-7.97386,12.61742,0.0],[-7.974,12.61824,0.0],[-7.97376,12.61858,0.0],[-7.97283,12.61894,0.0],[-7.97222,12.61917,0.0],[-7.971,12.62019,0.0],[-7.97041,12.62137,0.0],[-7.97033,12.62151,0.0],[-7.96992,12.62286,0.0],[-7.96959,12.62394,0.0],[-7.96874,12.62494,0.0],[-7.96773,12.62559,0.0],[-7.96676,12.62615,0.0],[-7.96617,12.62661,0.0],[-7.96589,12.62688,0.0],[-7.96571,12.62701,0.0],[-7.96534,12.62741,0.0],[-7.96442,12.62752,0.0],[-7.96346,12.62761,0.0],[-7.96297,12.62776,0.0],[-7.96292,12.62777,0.0],[-7.9623,12.62796,0.0],[-7.96144,12.62847,0.0],[-7.96044,12.62892,0.0],[-7.95971,12.62936,0.0],[-7.95865,12.62989,0.0],[-7.95864,12.6299,0.0],[-7.95862,12.62991,0.0],[-7.95849,12.62998,0.0],[-7.95845,12.63,0.0],[-7.95826,12.63011,0.0],[-7.95772,12.63041,0.0],[-7.95646,12.63112,0.0],[-7.95586,12.63147,0.0],[-7.95557,12.63164,0.0],[-7.95533,12.63179,0.0],[-7.95484,12.63208,0.0],[-7.95376,12.63276,0.0],[-7.95249,12.63373,0.0],[-7.95146,12.63413,0.0],[-7.95045,12.6342,0.0],[-7.94931,12.63425,0.0],[-7.94816,12.6343,0.0],[-7.94712,12.63438,0.0],[-7.94595,12.6344,0.0],[-7.94451,12.63449,0.0],[-7.94387,12.63454,0.0],[-7.94315,12.63467,0.0],[-7.94208,12.63496,0.0],[-7.94116,12.63534,0.0],[-7.93927,12.63614,0.0],[-7.93873,12.63633,0.0],[-7.93804,12.63643,0.0],[-7.93742,12.63649,0.0],[-7.93671,12.63672,0.0],[-7.93646,12.63709,0.0],[-7.93635,12.63753,0.0],[-7.93608,12.6387,0.0],[-7.93572,12.63951,0.0],[-7.93516,12.63981,0.0],[-7.93444,12.63997,0.0],[-7.93405,12.6401,0.0],[-7.93321,12.63985,0.0],[-7.93283,12.63974,0.0],[-7.93242,12.63988,0.0],[-7.9322,12.64024,0.0],[-7.93173,12.64122,0.0],[-7.93065,12.64196,0.0],[-7.92949,12.64248,0.0],[-7.92729,12.64275,0.0],[-7.92571,12.64239,0.0],[-7.92426,12.64207,0.0],[-7.92321,12.64196,0.0],[-7.9219,12.642,0.0],[-7.92039,12.64219,0.0],[-7.91806,12.64248,0.0],[-7.91692,12.64272,0.0],[-7.91643,12.64284,0.0],[-7.91487,12.6432,0.0],[-7.91381,12.64322,0.0],[-7.91298,12.64324,0.0],[-7.91219,12.64332,0.0],[-7.91227,12.60272,0.0],[-7.91937,12.59492,0.0],[-7.92024,12.59397,0.0],[-7.92268,12.59131,0.0],[-7.927,12.58652,0.0],[-7.92553,12.57396,0.0],[-7.92459,12.56597,0.0],[-7.92378,12.55902,0.0],[-7.92321,12.55418,0.0],[-7.92108,12.53619,0.0]]]]}},{"type":"Feature","properties":{"uesi_id":"MLI_R3544925","nbhd_code":"MLI_R3544925_4","nbhd_name":"Commune III"},"geometry":{"type":"MultiPolygon","coordinates":[[[[-7.99946,12.62654,0.0],[-8.00071,12.6259,0.0],[-8.00125,12.62572,0.0],[-8.00217,12.62554,0.0],[-8.00341,12.62373,0.0],[-8.00363,12.6234,0.0],[-8.00414,12.62265,0.0],[-8.00565,12.62396,0.0],[-8.0092,12.62573,0.0],[-8.0112,12.62672,0.0],[-8.01454,12.62838,0.0],[-8.01252,12.62961,0.0],[-8.01063,12.6317,0.0],[-8.01462,12.63559,0.0],[-8.01605,12.63675,0.0],[-8.018,12.63804,0.0],[-8.01916,12.63889,0.0],[-8.01994,12.64003,0.0],[-8.02008,12.64094,0.0],[-8.01949,12.64185,0.0],[-8.01886,12.64271,0.0],[-8.01723,12.64317,0.0],[-8.01419,12.64403,0.0],[-8.01579,12.64574,0.0],[-8.01648,12.64648,0.0],[-8.01662,12.64653,0.0],[-8.01674,12.64665,0.0],[-8.01728,12.64677,0.0],[-8.01741,12.64682,0.0],[-8.01763,12.6469,0.0],[-8.01814,12.64724,0.0],[-8.01856,12.64753,0.0],[-8.01931,12.64761,0.0],[-8.01952,12.64779,0.0],[-8.01967,12.64806,0.0],[-8.0199,12.64827,0.0],[-8.02031,12.64862,0.0],[-8.02059,12.64895,0.0],[-8.02091,12.64935,0.0],[-8.02124,12.64943,0.0],[-8.02175,12.64943,0.0],[-8.022,12.64942,0.0],[-8.02394,12.6494,0.0],[-8.02402,12.64942,0.0],[-8.02523,12.65033,0.0],[-8.02553,12.65049,0.0],[-8.02555,12.6505,0.0],[-8.02657,12.65103,0.0],[-8.02736,12.65146,0.0],[-8.02773,12.65166,0.0],[-8.02788,12.65203,0.0],[-8.02801,12.65232,0.0],[-8.02856,12.65251,0.0],[-8.02907,12.65269,0.0],[-8.02931,12.653,0.0],[-8.02938,12.6535,0.0],[-8.0294,12.65435,0.0],[-8.02949,12.65445,0.0],[-8.02966,12.65462,0.0],[-8.03021,12.65541,0.0],[-8.0303,12.65554,0.0],[-8.03113,12.65581,0.0],[-8.03172,12.65639,0.0],[-8.03187,12.65671,0.0],[-8.03176,12.65724,0.0],[-8.03174,12.6573,0.0],[-8.03165,12.6575,0.0],[-8.03163,12.65779,0.0],[-8.03161,12.6579,0.0],[-8.03163,12.65792,0.0],[-8.03162,12.65806,0.0],[-8.03228,12.65876,0.0],[-8.03405,12.65975,0.0],[-8.03532,12.66103,0.0],[-8.03568,12.6614,0.0],[-8.03583,12.66147,0.0],[-8.03584,12.66149,0.0],[-8.03672,12.66195,0.0],[-8.03741,12.66231,0.0],[-8.03866,12.663,0.0],[-8.03944,12.66342,0.0],[-8.03954,12.66344,0.0],[-8.03977,12.66357,0.0],[-8.04027,12.66356,0.0],[-8.04057,12.66362,0.0],[-8.04161,12.66358,0.0],[-8.04274,12.66359,0.0],[-8.0432,12.66366,0.0],[-8.0445,12.66389,0.0],[-8.04476,12.66396,0.0],[-8.04556,12.66418,0.0],[-8.04612,12.66433,0.0],[-8.04772,12.66525,0.0],[-8.04848,12.66573,0.0],[-8.04925,12.66605,0.0],[-8.0495,12.66618,0.0],[-8.04992,12.66633,0.0],[-8.049,12.66894,0.0],[-8.04875,12.66967,0.0],[-8.04693,12.67484,0.0],[-8.04524,12.67962,0.0],[-8.04483,12.68035,0.0],[-8.04427,12.68044,0.0],[-8.04375,12.68034,0.0],[-8.0432,12.68005,0.0],[-8.04252,12.67929,0.0],[-8.04211,12.67855,0.0],[-8.04134,12.67714,0.0],[-8.04048,12.67559,0.0],[-8.03991,12.67385,0.0],[-8.03938,12.67289,0.0],[-8.03915,12.67262,0.0],[-8.03903,12.67242,0.0],[-8.038,12.67118,0.0],[-8.03757,12.66912,0.0],[-8.03723,12.66675,0.0],[-8.03627,12.66532,0.0],[-8.03616,12.66511,0.0],[-8.03552,12.66385,0.0],[-8.03488,12.66313,0.0],[-8.03441,12.66237,0.0],[-8.03391,12.66158,0.0],[-8.03297,12.66103,0.0],[-8.03233,12.66049,0.0],[-8.03135,12.66051,0.0],[-8.03108,12.66093,0.0],[-8.0308,12.6613,0.0],[-8.03034,12.66107,0.0],[-8.03031,12.66106,0.0],[-8.03003,12.66076,0.0],[-8.02983,12.66056,0.0],[-8.02929,12.66067,0.0],[-8.0292,12.661,0.0],[-8.02894,12.66124,0.0],[-8.02777,12.66137,0.0],[-8.02599,12.6614,0.0],[-8.02497,12.66078,0.0],[-8.02347,12.66018,0.0],[-8.02256,12.65957,0.0],[-8.02138,12.65906,0.0],[-8.02125,12.65913,0.0],[-8.02113,12.65911,0.0],[-8.02042,12.65949,0.0],[-8.019,12.66025,0.0],[-8.01888,12.66041,0.0],[-8.01877,12.66045,0.0],[-8.01876,12.66056,0.0],[-8.01865,12.6607,0.0],[-8.01866,12.66166,0.0],[-8.01846,12.66206,0.0],[-8.01694,12.66281,0.0],[-8.01655,12.66307,0.0],[-8.01582,12.66386,0.0],[-8.01581,12.6639,0.0],[-8.01563,12.6641,0.0],[-8.01565,12.66426,0.0],[-8.01569,12.66454,0.0],[-8.01494,12.66583,0.0],[-8.01484,12.66605,0.0],[-8.01465,12.66639,0.0],[-8.01432,12.66713,0.0],[-8.01401,12.66792,0.0],[-8.01405,12.66854,0.0],[-8.01429,12.66934,0.0],[-8.01432,12.66985,0.0],[-8.01402,12.67125,0.0],[-8.01416,12.67182,0.0],[-8.01443,12.67232,0.0],[-8.0156,12.67398,0.0],[-8.01597,12.67414,0.0],[-8.01633,12.6741,0.0],[-8.01734,12.67383,0.0],[-8.01757,12.67394,0.0],[-8.01705,12.67426,0.0],[-8.01687,12.67466,0.0],[-8.01686,12.67468,0.0],[-8.01675,12.67495,0.0],[-8.01672,12.67542,0.0],[-8.01671,12.67546,0.0],[-8.01671,12.67551,0.0],[-8.01668,12.6759,0.0],[-8.01676,12.67624,0.0],[-8.01705,12.6768,0.0],[-8.01743,12.67731,0.0],[-8.00522,12.68084,0.0],[-8.00369,12.68081,0.0],[-8.00216,12.68077,0.0],[-7.99702,12.68061,0.0],[-7.99361,12.68053,0.0],[-7.99356,12.6801,0.0],[-7.99352,12.67955,0.0],[-7.99348,12.67939,0.0],[-7.99343,12.67919,0.0],[-7.99284,12.67864,0.0],[-7.99272,12.67835,0.0],[-7.99253,12.67799,0.0],[-7.99222,12.67748,0.0],[-7.9917,12.67713,0.0],[-7.99128,12.67684,0.0],[-7.99095,12.67669,0.0],[-7.9903,12.67572,0.0],[-7.98935,12.67536,0.0],[-7.98858,12.67486,0.0],[-7.9884,12.67453,0.0],[-7.98831,12.67449,0.0],[-7.988,12.67407,0.0],[-7.98653,12.67348,0.0],[-7.98563,12.67283,0.0],[-7.98537,12.67256,0.0],[-7.98505,12.67245,0.0],[-7.9839,12.67229,0.0],[-7.98291,12.67201,0.0],[-7.98257,12.67171,0.0],[-7.98218,12.67153,0.0],[-7.98197,12.67139,0.0],[-7.98184,12.67127,0.0],[-7.98154,12.67111,0.0],[-7.9813,12.67071,0.0],[-7.98106,12.6704,0.0],[-7.98127,12.66951,0.0],[-7.98188,12.66898,0.0],[-7.98241,12.66861,0.0],[-7.98262,12.66833,0.0],[-7.98276,12.6679,0.0],[-7.98278,12.66735,0.0],[-7.98287,12.6668,0.0],[-7.98286,12.6665,0.0],[-7.98284,12.66604,0.0],[-7.98308,12.6658,0.0],[-7.98333,12.66553,0.0],[-7.98357,12.66539,0.0],[-7.98358,12.66538,0.0],[-7.98359,12.66538,0.0],[-7.98363,12.66537,0.0],[-7.98416,12.6652,0.0],[-7.98461,12.66497,0.0],[-7.9848,12.66489,0.0],[-7.9865,12.6642,0.0],[-7.98672,12.66413,0.0],[-7.98716,12.66393,0.0],[-7.9882,12.66365,0.0],[-7.98972,12.66277,0.0],[-7.9902,12.66247,0.0],[-7.9909,12.66237,0.0],[-7.99212,12.66155,0.0],[-7.99273,12.66141,0.0],[-7.99304,12.66138,0.0],[-7.99406,12.66134,0.0],[-7.9947,12.66157,0.0],[-7.99479,12.66132,0.0],[-7.99467,12.6608,0.0],[-7.99464,12.66049,0.0],[-7.99494,12.6601,0.0],[-7.99509,12.65998,0.0],[-7.9951,12.66038,0.0],[-7.99754,12.66005,0.0],[-7.99738,12.65938,0.0],[-7.99517,12.65295,0.0],[-7.99436,12.6504,0.0],[-7.99413,12.64966,0.0],[-7.99462,12.64608,0.0],[-7.99468,12.64569,0.0],[-7.99491,12.64403,0.0],[-7.99519,12.64338,0.0],[-7.99549,12.6427,0.0],[-7.99619,12.63957,0.0],[-7.99619,12.63952,0.0],[-7.99627,12.63913,0.0],[-7.99619,12.63879,0.0],[-7.99619,12.63864,0.0],[-7.99611,12.63846,0.0],[-7.99608,12.63834,0.0],[-7.99592,12.63803,0.0],[-7.99591,12.638,0.0],[-7.99471,12.63534,0.0],[-7.99461,12.63514,0.0],[-7.99378,12.63366,0.0],[-7.99195,12.63057,0.0],[-7.99802,12.62728,0.0],[-7.99817,12.62719,0.0],[-7.99946,12.62654,0.0]]]]}},{"type":"Feature","properties":{"uesi_id":"MLI_R3544925","nbhd_code":"MLI_R3544925_5","nbhd_name":"Commune V"},"geometry":{"type":"MultiPolygon","coordinates":[[[[-7.97838,12.58866,0.0],[-7.9786,12.58851,0.0],[-7.97868,12.58847,0.0],[-7.97899,12.58824,0.0],[-7.97967,12.58799,0.0],[-7.97973,12.58722,0.0],[-7.97959,12.58703,0.0],[-7.97949,12.5869,0.0],[-7.97943,12.5868,0.0],[-7.97926,12.58657,0.0],[-7.97965,12.5863,0.0],[-7.97984,12.58638,0.0],[-7.98002,12.58606,0.0],[-7.97999,12.58602,0.0],[-7.97999,12.586,0.0],[-7.97997,12.58587,0.0],[-7.97985,12.58557,0.0],[-7.97993,12.5855,0.0],[-7.97993,12.58543,0.0],[-7.98023,12.5852,0.0],[-7.98025,12.58518,0.0],[-7.98034,12.58486,0.0],[-7.9803,12.58471,0.0],[-7.98006,12.58443,0.0],[-7.98005,12.58432,0.0],[-7.98001,12.58422,0.0],[-7.98002,12.5841,0.0],[-7.98,12.58387,0.0],[-7.98014,12.58332,0.0],[-7.98014,12.58332,0.0],[-7.9799,12.5831,0.0],[-7.9797,12.58304,0.0],[-7.97919,12.58302,0.0],[-7.97892,12.58305,0.0],[-7.97893,12.58301,0.0],[-7.97888,12.583,0.0],[-7.97891,12.58253,0.0],[-7.97851,12.58219,0.0],[-7.97848,12.58215,0.0],[-7.97827,12.58189,0.0],[-7.97826,12.58188,0.0],[-7.97822,12.58184,0.0],[-7.9782,12.58177,0.0],[-7.97807,12.58151,0.0],[-7.97809,12.5813,0.0],[-7.97805,12.58115,0.0],[-7.97807,12.58102,0.0],[-7.97802,12.58078,0.0],[-7.97811,12.58062,0.0],[-7.97813,12.58045,0.0],[-7.97821,12.58008,0.0],[-7.97833,12.57954,0.0],[-7.97845,12.57928,0.0],[-7.97845,12.57927,0.0],[-7.97846,12.57924,0.0],[-7.97856,12.57903,0.0],[-7.97887,12.57847,0.0],[-7.97902,12.57819,0.0],[-7.97889,12.57769,0.0],[-7.97877,12.57726,0.0],[-7.97883,12.57719,0.0],[-7.97927,12.57672,0.0],[-7.97934,12.57667,0.0],[-7.97969,12.5764,0.0],[-7.97959,12.57508,0.0],[-7.97958,12.5739,0.0],[-7.97957,12.57369,0.0],[-7.97957,12.5736,0.0],[-7.97953,12.57349,0.0],[-7.97956,12.57341,0.0],[-7.97956,12.57326,0.0],[-7.97955,12.5732,0.0],[-7.97946,12.57205,0.0],[-7.97946,12.57123,0.0],[-7.97917,12.57067,0.0],[-7.97923,12.57015,0.0],[-7.97891,12.56962,0.0],[-7.97893,12.56929,0.0],[-7.97907,12.56893,0.0],[-7.97897,12.56851,0.0],[-7.9788,12.56822,0.0],[-7.97888,12.56798,0.0],[-7.97928,12.56749,0.0],[-7.97921,12.56657,0.0],[-7.97907,12.56598,0.0],[-7.97923,12.56578,0.0],[-7.97925,12.56539,0.0],[-7.97904,12.56494,0.0],[-7.97904,12.56493,0.0],[-7.97895,12.56473,0.0],[-7.97922,12.56412,0.0],[-7.97918,12.5635,0.0],[-7.97918,12.56303,0.0],[-7.97909,12.56276,0.0],[-7.979,12.56239,0.0],[-7.9784,12.56231,0.0],[-7.97822,12.56203,0.0],[-7.97822,12.56185,0.0],[-7.97823,12.56175,0.0],[-7.97821,12.56172,0.0],[-7.97822,12.56154,0.0],[-7.97823,12.56135,0.0],[-7.97774,12.56027,0.0],[-7.97722,12.55968,0.0],[-7.97728,12.55964,0.0],[-7.979,12.5586,0.0],[-7.9796,12.55821,0.0],[-7.99725,12.54732,0.0],[-7.99725,12.54732,0.0],[-7.99726,12.54734,0.0],[-7.99889,12.5512,0.0],[-8.00731,12.57121,0.0],[-8.00898,12.57518,0.0],[-8.01004,12.57574,0.0],[-8.01051,12.57562,0.0],[-8.0108,12.57554,0.0],[-8.0109,12.57551,0.0],[-8.01164,12.57595,0.0],[-8.01204,12.57599,0.0],[-8.01214,12.576,0.0],[-8.01294,12.5761,0.0],[-8.01372,12.57653,0.0],[-8.01437,12.57665,0.0],[-8.01545,12.5771,0.0],[-8.01644,12.57778,0.0],[-8.01745,12.57824,0.0],[-8.0185,12.57942,0.0],[-8.01954,12.58086,0.0],[-8.02048,12.58174,0.0],[-8.02273,12.58288,0.0],[-8.0231,12.58307,0.0],[-8.02354,12.58329,0.0],[-8.0242,12.5842,0.0],[-8.02567,12.58451,0.0],[-8.0266,12.58489,0.0],[-8.02746,12.58547,0.0],[-8.02763,12.58614,0.0],[-8.02903,12.58735,0.0],[-8.02965,12.5889,0.0],[-8.03048,12.58999,0.0],[-8.03142,12.59067,0.0],[-8.03251,12.59175,0.0],[-8.03399,12.59442,0.0],[-8.03472,12.59473,0.0],[-8.03513,12.59469,0.0],[-8.03555,12.59478,0.0],[-8.03605,12.59489,0.0],[-8.03655,12.5948,0.0],[-8.03693,12.59576,0.0],[-8.03799,12.59571,0.0],[-8.03908,12.59536,0.0],[-8.03989,12.5951,0.0],[-8.04004,12.59572,0.0],[-8.04006,12.59621,0.0],[-8.03981,12.59671,0.0],[-8.03912,12.59747,0.0],[-8.03766,12.59875,0.0],[-8.03633,12.59995,0.0],[-8.03491,12.60173,0.0],[-8.03384,12.60258,0.0],[-8.03329,12.60324,0.0],[-8.03256,12.60415,0.0],[-8.03246,12.60428,0.0],[-8.03228,12.60438,0.0],[-8.03216,12.60444,0.0],[-8.03205,12.60456,0.0],[-8.03118,12.60499,0.0],[-8.03036,12.60555,0.0],[-8.02906,12.60644,0.0],[-8.02808,12.60695,0.0],[-8.02643,12.60737,0.0],[-8.02602,12.60748,0.0],[-8.02559,12.60755,0.0],[-8.02524,12.60763,0.0],[-8.02398,12.60782,0.0],[-8.02317,12.60794,0.0],[-8.0227,12.60801,0.0],[-8.02151,12.60818,0.0],[-8.02116,12.60836,0.0],[-8.02047,12.60932,0.0],[-8.02012,12.60952,0.0],[-8.01942,12.60971,0.0],[-8.01819,12.61056,0.0],[-8.01774,12.61078,0.0],[-8.01708,12.61108,0.0],[-8.01675,12.61123,0.0],[-8.01671,12.61124,0.0],[-8.01614,12.61149,0.0],[-8.01589,12.61171,0.0],[-8.01562,12.61227,0.0],[-8.01555,12.61241,0.0],[-8.01541,12.6128,0.0],[-8.0153,12.61293,0.0],[-8.01511,12.61314,0.0],[-8.01498,12.61329,0.0],[-8.01419,12.61329,0.0],[-8.01325,12.61298,0.0],[-8.01214,12.61352,0.0],[-8.01081,12.61457,0.0],[-8.01044,12.61501,0.0],[-8.0098,12.61576,0.0],[-8.00939,12.61622,0.0],[-8.008,12.61647,0.0],[-8.00747,12.61656,0.0],[-8.00668,12.61809,0.0],[-8.00656,12.61844,0.0],[-8.00653,12.61853,0.0],[-8.00637,12.6192,0.0],[-8.00623,12.61942,0.0],[-8.00614,12.6197,0.0],[-8.0057,12.62032,0.0],[-8.00414,12.62265,0.0],[-8.00363,12.6234,0.0],[-8.00341,12.62373,0.0],[-8.00217,12.62554,0.0],[-8.00125,12.62572,0.0],[-8.00071,12.6259,0.0],[-7.99946,12.62654,0.0],[-7.99817,12.62719,0.0],[-7.99802,12.62728,0.0],[-7.99195,12.63057,0.0],[-7.99067,12.63097,0.0],[-7.9901,12.63104,0.0],[-7.9901,12.63104,0.0],[-7.99008,12.63105,0.0],[-7.99004,12.63105,0.0],[-7.98944,12.63113,0.0],[-7.98916,12.63111,0.0],[-7.9887,12.63114,0.0],[-7.98825,12.63105,0.0],[-7.98795,12.63104,0.0],[-7.98685,12.63078,0.0],[-7.986,12.63043,0.0],[-7.98473,12.62976,0.0],[-7.98397,12.62923,0.0],[-7.98334,12.62853,0.0],[-7.98235,12.62742,0.0],[-7.98187,12.62686,0.0],[-7.98136,12.62626,0.0],[-7.98045,12.62544,0.0],[-7.97975,12.62496,0.0],[-7.97862,12.62476,0.0],[-7.97727,12.62525,0.0],[-7.97529,12.62677,0.0],[-7.97452,12.62756,0.0],[-7.97436,12.62773,0.0],[-7.97331,12.62823,0.0],[-7.97252,12.62846,0.0],[-7.97143,12.62856,0.0],[-7.97104,12.62854,0.0],[-7.97059,12.62856,0.0],[-7.96934,12.62843,0.0],[-7.96879,12.62831,0.0],[-7.96797,12.62813,0.0],[-7.96692,12.62787,0.0],[-7.966,12.62761,0.0],[-7.96534,12.62741,0.0],[-7.96571,12.62701,0.0],[-7.96589,12.62688,0.0],[-7.96617,12.62661,0.0],[-7.96676,12.62615,0.0],[-7.96773,12.62559,0.0],[-7.96874,12.62494,0.0],[-7.96959,12.62394,0.0],[-7.96992,12.62286,0.0],[-7.97033,12.62151,0.0],[-7.97041,12.62137,0.0],[-7.971,12.62019,0.0],[-7.97222,12.61917,0.0],[-7.97283,12.61894,0.0],[-7.97376,12.61858,0.0],[-7.974,12.61824,0.0],[-7.97386,12.61742,0.0],[-7.97353,12.61658,0.0],[-7.97401,12.61587,0.0],[-7.97427,12.61549,0.0],[-7.97436,12.61404,0.0],[-7.97426,12.61391,0.0],[-7.97362,12.61315,0.0],[-7.97359,12.61312,0.0],[-7.97329,12.61276,0.0],[-7.97331,12.61259,0.0],[-7.97321,12.61243,0.0],[-7.97336,12.61227,0.0],[-7.97337,12.61221,0.0],[-7.97347,12.61215,0.0],[-7.9736,12.61202,0.0],[-7.97433,12.61142,0.0],[-7.9744,12.61096,0.0],[-7.97418,12.6103,0.0],[-7.97402,12.60979,0.0],[-7.97413,12.6095,0.0],[-7.97415,12.6094,0.0],[-7.97422,12.60888,0.0],[-7.97421,12.60858,0.0],[-7.97446,12.60819,0.0],[-7.9745,12.60811,0.0],[-7.97471,12.60766,0.0],[-7.97459,12.60719,0.0],[-7.97424,12.60652,0.0],[-7.97423,12.6065,0.0],[-7.97413,12.60625,0.0],[-7.97405,12.60604,0.0],[-7.9735,12.60551,0.0],[-7.97349,12.60551,0.0],[-7.97349,12.60551,0.0],[-7.97345,12.60546,0.0],[-7.97348,12.60538,0.0],[-7.97344,12.60505,0.0],[-7.97362,12.60492,0.0],[-7.97366,12.6049,0.0],[-7.97398,12.60416,0.0],[-7.97365,12.60318,0.0],[-7.97363,12.60245,0.0],[-7.97359,12.60213,0.0],[-7.97362,12.60201,0.0],[-7.97362,12.60181,0.0],[-7.97452,12.60155,0.0],[-7.97451,12.60115,0.0],[-7.9745,12.60106,0.0],[-7.97446,12.60081,0.0],[-7.97448,12.60069,0.0],[-7.97448,12.60058,0.0],[-7.97443,12.60009,0.0],[-7.97442,12.60002,0.0],[-7.97437,12.59992,0.0],[-7.9744,12.59976,0.0],[-7.97437,12.59948,0.0],[-7.97433,12.59909,0.0],[-7.97445,12.59902,0.0],[-7.97451,12.59892,0.0],[-7.97513,12.59863,0.0],[-7.97581,12.59824,0.0],[-7.97637,12.59751,0.0],[-7.97635,12.59743,0.0],[-7.9763,12.59732,0.0],[-7.9763,12.59715,0.0],[-7.97624,12.5969,0.0],[-7.97695,12.59636,0.0],[-7.97689,12.59607,0.0],[-7.97685,12.59582,0.0],[-7.97659,12.59523,0.0],[-7.97642,12.59456,0.0],[-7.97624,12.59349,0.0],[-7.97654,12.59306,0.0],[-7.97652,12.59295,0.0],[-7.97646,12.59283,0.0],[-7.97639,12.59262,0.0],[-7.97642,12.59252,0.0],[-7.97638,12.59235,0.0],[-7.97691,12.59167,0.0],[-7.97716,12.59117,0.0],[-7.97738,12.59073,0.0],[-7.97791,12.59058,0.0],[-7.97792,12.58973,0.0],[-7.97795,12.58963,0.0],[-7.97795,12.58959,0.0],[-7.97801,12.58945,0.0],[-7.97821,12.58882,0.0],[-7.9783,12.58875,0.0],[-7.97832,12.5887,0.0],[-7.97838,12.58866,0.0]]]]}},{"type":"Feature","properties":{"uesi_id":"MLI_R3544925","nbhd_code":"MLI_R3544925_6","nbhd_name":"Commune II"},"geometry":{"type":"MultiPolygon","coordinates":[[[[-7.96346,12.62761,0.0],[-7.96442,12.62752,0.0],[-7.96534,12.62741,0.0],[-7.966,12.62761,0.0],[-7.96692,12.62787,0.0],[-7.96797,12.62813,0.0],[-7.96879,12.62831,0.0],[-7.96934,12.62843,0.0],[-7.97059,12.62856,0.0],[-7.97104,12.62854,0.0],[-7.97143,12.62856,0.0],[-7.97252,12.62846,0.0],[-7.97331,12.62823,0.0],[-7.97436,12.62773,0.0],[-7.97452,12.62756,0.0],[-7.97529,12.62677,0.0],[-7.97727,12.62525,0.0],[-7.97862,12.62476,0.0],[-7.97975,12.62496,0.0],[-7.98045,12.62544,0.0],[-7.98136,12.62626,0.0],[-7.98187,12.62686,0.0],[-7.98235,12.62742,0.0],[-7.98334,12.62853,0.0],[-7.98397,12.62923,0.0],[-7.98473,12.62976,0.0],[-7.986,12.63043,0.0],[-7.98685,12.63078,0.0],[-7.98795,12.63104,0.0],[-7.98825,12.63105,0.0],[-7.9887,12.63114,0.0],[-7.98916,12.63111,0.0],[-7.98944,12.63113,0.0],[-7.99004,12.63105,0.0],[-7.99008,12.63105,0.0],[-7.9901,12.63104,0.0],[-7.9901,12.63104,0.0],[-7.99067,12.63097,0.0],[-7.99195,12.63057,0.0],[-7.99378,12.63366,0.0],[-7.99461,12.63514,0.0],[-7.99471,12.63534,0.0],[-7.99591,12.638,0.0],[-7.99592,12.63803,0.0],[-7.99608,12.63834,0.0],[-7.99611,12.63846,0.0],[-7.99619,12.63864,0.0],[-7.99619,12.63879,0.0],[-7.99627,12.63913,0.0],[-7.99619,12.63952,0.0],[-7.99619,12.63957,0.0],[-7.99549,12.6427,0.0],[-7.99519,12.64338,0.0],[-7.99491,12.64403,0.0],[-7.99468,12.64569,0.0],[-7.99462,12.64608,0.0],[-7.99413,12.64966,0.0],[-7.99436,12.6504,0.0],[-7.99517,12.65295,0.0],[-7.99738,12.65938,0.0],[-7.99754,12.66005,0.0],[-7.9951,12.66038,0.0],[-7.99509,12.65998,0.0],[-7.99494,12.6601,0.0],[-7.99464,12.66049,0.0],[-7.99467,12.6608,0.0],[-7.99479,12.66132,0.0],[-7.9947,12.66157,0.0],[-7.99406,12.66134,0.0],[-7.99304,12.66138,0.0],[-7.99273,12.66141,0.0],[-7.99212,12.66155,0.0],[-7.9909,12.66237,0.0],[-7.9902,12.66247,0.0],[-7.98972,12.66277,0.0],[-7.9882,12.66365,0.0],[-7.98716,12.66393,0.0],[-7.98672,12.66413,0.0],[-7.9865,12.6642,0.0],[-7.9848,12.66489,0.0],[-7.98461,12.66497,0.0],[-7.98416,12.6652,0.0],[-7.98363,12.66537,0.0],[-7.98359,12.66538,0.0],[-7.98358,12.66538,0.0],[-7.98357,12.66539,0.0],[-7.98333,12.66553,0.0],[-7.98308,12.6658,0.0],[-7.98284,12.66604,0.0],[-7.98286,12.6665,0.0],[-7.98287,12.6668,0.0],[-7.98278,12.66735,0.0],[-7.98276,12.6679,0.0],[-7.98262,12.66833,0.0],[-7.98241,12.66861,0.0],[-7.98188,12.66898,0.0],[-7.98127,12.66951,0.0],[-7.98106,12.6704,0.0],[-7.9813,12.67071,0.0],[-7.98154,12.67111,0.0],[-7.98184,12.67127,0.0],[-7.98197,12.67139,0.0],[-7.98218,12.67153,0.0],[-7.98257,12.67171,0.0],[-7.98291,12.67201,0.0],[-7.9839,12.67229,0.0],[-7.98505,12.67245,0.0],[-7.98537,12.67256,0.0],[-7.98563,12.67283,0.0],[-7.98653,12.67348,0.0],[-7.988,12.67407,0.0],[-7.98831,12.67449,0.0],[-7.9884,12.67453,0.0],[-7.98858,12.67486,0.0],[-7.98935,12.67536,0.0],[-7.9903,12.67572,0.0],[-7.99095,12.67669,0.0],[-7.99128,12.67684,0.0],[-7.9917,12.67713,0.0],[-7.99222,12.67748,0.0],[-7.99253,12.67799,0.0],[-7.99272,12.67835,0.0],[-7.99284,12.67864,0.0],[-7.99343,12.67919,0.0],[-7.99348,12.67939,0.0],[-7.99352,12.67955,0.0],[-7.99356,12.6801,0.0],[-7.99361,12.68053,0.0],[-7.9893,12.68035,0.0],[-7.98918,12.68017,0.0],[-7.989,12.67986,0.0],[-7.98903,12.67969,0.0],[-7.98898,12.67952,0.0],[-7.98886,12.67923,0.0],[-7.98858,12.67907,0.0],[-7.98832,12.67888,0.0],[-7.98815,12.67864,0.0],[-7.98775,12.67839,0.0],[-7.98717,12.67796,0.0],[-7.9868,12.67774,0.0],[-7.98647,12.67785,0.0],[-7.98617,12.67787,0.0],[-7.98598,12.6777,0.0],[-7.98577,12.67744,0.0],[-7.98558,12.6773,0.0],[-7.98539,12.67716,0.0],[-7.98492,12.67688,0.0],[-7.98449,12.67654,0.0],[-7.98411,12.67629,0.0],[-7.98364,12.67608,0.0],[-7.98311,12.67581,0.0],[-7.98292,12.67576,0.0],[-7.98273,12.6757,0.0],[-7.98224,12.67549,0.0],[-7.98186,12.67542,0.0],[-7.98171,12.67527,0.0],[-7.98137,12.67484,0.0],[-7.98088,12.67465,0.0],[-7.98036,12.67452,0.0],[-7.97995,12.67435,0.0],[-7.97966,12.6743,0.0],[-7.97927,12.67408,0.0],[-7.97903,12.67396,0.0],[-7.97876,12.67407,0.0],[-7.97868,12.67405,0.0],[-7.97853,12.67398,0.0],[-7.97817,12.67368,0.0],[-7.9779,12.67346,0.0],[-7.9777,12.67332,0.0],[-7.97725,12.67314,0.0],[-7.97713,12.67307,0.0],[-7.97669,12.67284,0.0],[-7.9762,12.67267,0.0],[-7.97574,12.67249,0.0],[-7.97542,12.67216,0.0],[-7.97526,12.67213,0.0],[-7.9751,12.6721,0.0],[-7.97448,12.67211,0.0],[-7.97409,12.67212,0.0],[-7.97376,12.67212,0.0],[-7.97332,12.6721,0.0],[-7.97282,12.67205,0.0],[-7.9724,12.67194,0.0],[-7.97226,12.67189,0.0],[-7.97192,12.67177,0.0],[-7.97185,12.67167,0.0],[-7.97176,12.67134,0.0],[-7.97176,12.67131,0.0],[-7.97164,12.67083,0.0],[-7.9714,12.67065,0.0],[-7.97124,12.67043,0.0],[-7.97089,12.67024,0.0],[-7.97062,12.67016,0.0],[-7.97034,12.6701,0.0],[-7.96998,12.67003,0.0],[-7.96968,12.66989,0.0],[-7.96927,12.66965,0.0],[-7.96889,12.66939,0.0],[-7.96878,12.66932,0.0],[-7.96867,12.66924,0.0],[-7.96847,12.6691,0.0],[-7.96814,12.66892,0.0],[-7.96801,12.66883,0.0],[-7.96748,12.66856,0.0],[-7.96708,12.66834,0.0],[-7.96673,12.66806,0.0],[-7.96664,12.66778,0.0],[-7.96658,12.66753,0.0],[-7.96679,12.66729,0.0],[-7.96708,12.66699,0.0],[-7.96687,12.66651,0.0],[-7.96616,12.66642,0.0],[-7.96535,12.66654,0.0],[-7.96501,12.66615,0.0],[-7.96492,12.66607,0.0],[-7.96465,12.66573,0.0],[-7.96414,12.66539,0.0],[-7.96402,12.66534,0.0],[-7.9637,12.66508,0.0],[-7.9631,12.66459,0.0],[-7.96269,12.66439,0.0],[-7.96248,12.6642,0.0],[-7.96242,12.66377,0.0],[-7.96249,12.66345,0.0],[-7.96297,12.66315,0.0],[-7.9631,12.66288,0.0],[-7.9631,12.66258,0.0],[-7.96288,12.66223,0.0],[-7.96264,12.66199,0.0],[-7.96231,12.66139,0.0],[-7.96197,12.66115,0.0],[-7.96177,12.66106,0.0],[-7.9616,12.66089,0.0],[-7.96157,12.66075,0.0],[-7.96157,12.66028,0.0],[-7.96097,12.65984,0.0],[-7.96092,12.6598,0.0],[-7.96069,12.65956,0.0],[-7.9605,12.65929,0.0],[-7.96039,12.65909,0.0],[-7.96037,12.65887,0.0],[-7.96058,12.65846,0.0],[-7.96062,12.65825,0.0],[-7.96064,12.65812,0.0],[-7.96023,12.65771,0.0],[-7.9598,12.65726,0.0],[-7.95949,12.65683,0.0],[-7.95938,12.65664,0.0],[-7.95927,12.65622,0.0],[-7.95932,12.65599,0.0],[-7.95944,12.65576,0.0],[-7.95952,12.65542,0.0],[-7.95959,12.65496,0.0],[-7.95937,12.65463,0.0],[-7.95914,12.6544,0.0],[-7.95891,12.65427,0.0],[-7.95876,12.6543,0.0],[-7.95859,12.6542,0.0],[-7.9585,12.65401,0.0],[-7.95841,12.6536,0.0],[-7.95831,12.6533,0.0],[-7.95818,12.65311,0.0],[-7.95812,12.65302,0.0],[-7.95806,12.65292,0.0],[-7.95771,12.65267,0.0],[-7.95762,12.65208,0.0],[-7.95746,12.6516,0.0],[-7.9573,12.65129,0.0],[-7.95693,12.65104,0.0],[-7.95669,12.65079,0.0],[-7.95652,12.65066,0.0],[-7.95647,12.65059,0.0],[-7.95636,12.65049,0.0],[-7.95621,12.6502,0.0],[-7.9559,12.64988,0.0],[-7.95576,12.64959,0.0],[-7.95565,12.64927,0.0],[-7.95541,12.64887,0.0],[-7.95521,12.64841,0.0],[-7.95502,12.64797,0.0],[-7.95482,12.64795,0.0],[-7.95463,12.64757,0.0],[-7.9545,12.64711,0.0],[-7.95433,12.64672,0.0],[-7.95395,12.6463,0.0],[-7.95357,12.64605,0.0],[-7.95325,12.64557,0.0],[-7.95284,12.64523,0.0],[-7.95246,12.64495,0.0],[-7.95237,12.64475,0.0],[-7.95235,12.64453,0.0],[-7.95238,12.64402,0.0],[-7.95231,12.64393,0.0],[-7.95225,12.64386,0.0],[-7.95205,12.64384,0.0],[-7.9518,12.64379,0.0],[-7.95174,12.64344,0.0],[-7.95151,12.64193,0.0],[-7.95162,12.6415,0.0],[-7.95194,12.64057,0.0],[-7.95242,12.6396,0.0],[-7.95289,12.63864,0.0],[-7.9533,12.63757,0.0],[-7.95337,12.63668,0.0],[-7.95329,12.636,0.0],[-7.95332,12.63515,0.0],[-7.95286,12.63414,0.0],[-7.95249,12.63373,0.0],[-7.95376,12.63276,0.0],[-7.95484,12.63208,0.0],[-7.95533,12.63179,0.0],[-7.95557,12.63164,0.0],[-7.95586,12.63147,0.0],[-7.95646,12.63112,0.0],[-7.95772,12.63041,0.0],[-7.95826,12.63011,0.0],[-7.95845,12.63,0.0],[-7.95849,12.62998,0.0],[-7.95862,12.62991,0.0],[-7.95864,12.6299,0.0],[-7.95865,12.62989,0.0],[-7.95971,12.62936,0.0],[-7.96044,12.62892,0.0],[-7.96144,12.62847,0.0],[-7.9623,12.62796,0.0],[-7.96292,12.62777,0.0],[-7.96297,12.62776,0.0],[-7.96346,12.62761,0.0]]]]}}]}