{"type":"FeatureCollection","name":"MRT_R3395130","crs":{"type":"name","properties":{"name":"urn:ogc:def:crs:OGC:1.3:CRS84"}},"features":[{"type":"Feature","properties":{"uesi_id":"MRT_R3395130","nbhd_code":"MRT_R3395130_1","nbhd_name":"Arafat"},"geometry":{"type":"MultiPolygon","coordinates":[[[[-15.95084,18.14156,0.0],[-15.9199,18.14172,0.0],[-15.93882,18.11715,0.0],[-15.94698,18.12151,0.0],[-15.95246,18.12364,0.0],[-15.95084,18.14156,0.0]]]]}},{"type":"Feature","properties":{"uesi_id":"MRT_R3395130","nbhd_code":"MRT_R3395130_2","nbhd_name":"Dar Naim"},"geometry":{"type":"MultiPolygon","coordinates":[[[[-16.01316,18.14124,0.0],[-15.95084,18.14156,0.0],[-15.95246,18.12364,0.0],[-15.94698,18.12151,0.0],[-15.93882,18.11715,0.0],[-15.95698,18.09456,0.0],[-15.96311,18.08539,0.0],[-15.96571,18.07952,0.0],[-15.96967,18.07016,0.0],[-15.97617,18.07126,0.0],[-15.97497,18.07757,0.0],[-15.97793,18.07868,0.0],[-15.9769,18.08005,0.0],[-15.97592,18.08483,0.0],[-15.97554,18.0877,0.0],[-15.97225,18.08744,0.0],[-15.97029,18.09841,0.0],[-15.9763,18.09937,0.0],[-15.98068,18.10001,0.0],[-15.98021,18.10369,0.0],[-15.97802,18.11367,0.0],[-15.97688,18.11991,0.0],[-16.01316,18.14124,0.0]]]]}},{"type":"Feature","properties":{"uesi_id":"MRT_R3395130","nbhd_code":"MRT_R3395130_3","nbhd_name":"El Mina"},"geometry":{"type":"MultiPolygon","coordinates":[[[[-16.03371,18.09777,0.0],[-15.99809,18.08446,0.0],[-15.9907,18.08384,0.0],[-15.9884,18.08479,0.0],[-15.98616,18.08184,0.0],[-15.98493,18.08057,0.0],[-15.98433,18.08001,0.0],[-15.9836,18.07869,0.0],[-15.9826,18.07856,0.0],[-15.98323,18.07597,0.0],[-15.99441,18.0689,0.0],[-16.00555,18.06471,0.0],[-16.03268,18.06609,0.0],[-16.03371,18.09777,0.0]]]]}},{"type":"Feature","properties":{"uesi_id":"MRT_R3395130","nbhd_code":"MRT_R3395130_4","nbhd_name":"Ksar"},"geometry":{"type":"MultiPolygon","coordinates":[[[[-15.9826,18.07856,0.0],[-15.97793,18.07868,0.0],[-15.97497,18.07757,0.0],[-15.97617,18.07126,0.0],[-15.96967,18.07016,0.0],[-15.9757,18.05682,0.0],[-15.97591,18.05318,0.0],[-15.97462,18.04824,0.0],[-15.97367,18.04319,0.0],[-15.97308,18.04033,0.0],[-15.9735,18.03226,0.0],[-15.97377,18.02771,0.0],[-15.97582,18.02115,0.0],[-15.97828,18.00833,0.0],[-15.97536,17.99113,0.0],[-15.9732,17.97834,0.0],[-15.97404,17.97683,0.0],[-16.02989,17.97648,0.0],[-16.03268,18.06609,0.0],[-16.00555,18.06471,0.0],[-15.99441,18.0689,0.0],[-15.98323,18.07597,0.0],[-15.9826,18.07856,0.0]]]]}},{"type":"Feature","properties":{"uesi_id":"MRT_R3395130","nbhd_code":"MRT_R3395130_5","nbhd_name":"Ryad"},"geometry":{"type":"MultiPolygon","coordinates":[[[[-15.96571,18.07952,0.0],[-15.93625,18.07112,0.0],[-15.94181,18.03,0.0],[-15.9735,18.03226,0.0],[-15.97308,18.04033,0.0],[-15.97367,18.04319,0.0],[-15.97462,18.04824,0.0],[-15.97591,18.05318,0.0],[-15.9757,18.05682,0.0],[-15.96967,18.07016,0.0],[-15.96571,18.07952,0.0]]]]}},{"type":"Feature","properties":{"uesi_id":"MRT_R3395130","nbhd_code":"MRT_R3395130_6","nbhd_name":"Sebkha"},"geometry":{"type":"MultiPolygon","coordinates":[[[[-15.88932,18.14194,0.0],[-15.88878,18.05946,0.0],[-15.88824,17.97726,0.0],[-15.94597,17.97697,0.0],[-15.94181,18.03,0.0],[-15.93625,18.07112,0.0],[-15.9334,18.0876,0.0],[-15.92156,18.0994,0.0],[-15.88932,18.14194,0.0]]]]}},{"type":"Feature","properties":{"uesi_id":"MRT_R3395130","nbhd_code":"MRT_R3395130_7","nbhd_name":"Tevragh Zeina"},"geometry":{"type":"MultiPolygon","coordinates":[[[[-15.9199,18.14172,0.0],[-15.88932,18.14194,0.0],[-15.92156,18.0994,0.0],[-15.9334,18.0876,0.0],[-15.93625,18.07112,0.0],[-15.96571,18.07952,0.0],[-15.96311,18.08539,0.0],[-15.95698,18.09456,0.0],[-15.93882,18.11715,0.0],[-15.9199,18.14172,0.0]]]]}},{"type":"Feature","properties":{"uesi_id":"MRT_R3395130","nbhd_code":"MRT_R3395130_8","nbhd_name":"Teyaret"},"geometry":{"type":"MultiPolygon","coordinates":[[[[-15.9735,18.03226,0.0],[-15.94181,18.03,0.0],[-15.94597,17.97697,0.0],[-15.97404,17.97683,0.0],[-15.9732,17.97834,0.0],[-15.97536,17.99113,0.0],[-15.97828,18.00833,0.0],[-15.97582,18.02115,0.0],[-15.97377,18.02771,0.0],[-15.9735,18.03226,0.0]]]]}},{"type":"Feature","properties":{"uesi_id":"MRT_R3395130","nbhd_code":"MRT_R3395130_9","nbhd_name":"Toujounine"},"geometry":{"type":"MultiPolygon","coordinates":[[[[-16.03488,18.14127,0.0],[-16.01316,18.14124,0.0],[-15.97688,18.11991,0.0],[-15.97802,18.11367,0.0],[-15.98021,18.10369,0.0],[-15.98068,18.10001,0.0],[-15.9763,18.09937,0.0],[-15.97029,18.09841,0.0],[-15.97225,18.08744,0.0],[-15.97554,18.0877,0.0],[-15.97592,18.08483,0.0],[-15.9769,18.08005,0.0],[-15.97793,18.07868,0.0],[-15.9826,18.07856,0.0],[-15.9836,18.07869,0.0],[-15.98433,18.08001,0.0],[-15.98493,18.08057,0.0],[-15.98616,18.08184,0.0],[-15.9884,18.08479,0.0],[-15.9907,18.08384,0.0],[-15.99809,18.08446,0.0],[-16.03371,18.09777,0.0],[-16.03488,18.14127,0.0]]]]}}]}