{"type":"FeatureCollection","name":"NGA_R3718182","crs":{"type":"name","properties":{"name":"urn:ogc:def:crs:OGC:1.3:CRS84"}},"features":[{"type":"Feature","properties":{"uesi_id":"NGA_R3718182","nbhd_code":"NGA_R3718182_1","nbhd_name":"Lagos Island"},"geometry":{"type":"MultiPolygon","coordinates":[[[[3.40632,6.4645,0.0],[3.40632,6.46048,0.0],[3.40724,6.45716,0.0],[3.40852,6.45356,0.0],[3.40921,6.45162,0.0],[3.40819,6.44715,0.0],[3.40718,6.44369,0.0],[3.40433,6.43861,0.0],[3.40189,6.43617,0.0],[3.39988,6.43439,0.0],[3.39884,6.43678,0.0],[3.39315,6.44186,0.0],[3.38564,6.44602,0.0],[3.37993,6.44918,0.0],[3.37688,6.45223,0.0],[3.376,6.45438,0.0],[3.37505,6.45671,0.0],[3.37668,6.45975,0.0],[3.37879,6.46138,0.0],[3.38116,6.46322,0.0],[3.38725,6.46687,0.0],[3.39404,6.46821,0.0],[3.40281,6.46462,0.0],[3.40632,6.4645,0.0]]]]}},{"type":"Feature","properties":{"uesi_id":"NGA_R3718182","nbhd_code":"NGA_R3718182_2","nbhd_name":"Lagos Mainland"},"geometry":{"type":"MultiPolygon","coordinates":[[[[3.40548,6.52325,0.0],[3.40431,6.51977,0.0],[3.40577,6.51768,0.0],[3.40724,6.5156,0.0],[3.40911,6.51068,0.0],[3.41,6.50851,0.0],[3.41,6.50446,0.0],[3.40697,6.50109,0.0],[3.40231,6.49689,0.0],[3.39921,6.49409,0.0],[3.39716,6.49203,0.0],[3.39732,6.48685,0.0],[3.39772,6.48402,0.0],[3.39641,6.48092,0.0],[3.39518,6.47726,0.0],[3.39493,6.4749,0.0],[3.39534,6.47207,0.0],[3.39404,6.46821,0.0],[3.38725,6.46687,0.0],[3.38116,6.46322,0.0],[3.37928,6.46656,0.0],[3.3771,6.46824,0.0],[3.37442,6.46884,0.0],[3.36966,6.46775,0.0],[3.36664,6.46765,0.0],[3.36648,6.46812,0.0],[3.36577,6.46841,0.0],[3.36499,6.46831,0.0],[3.3644,6.46832,0.0],[3.36371,6.47152,0.0],[3.36506,6.47595,0.0],[3.36488,6.47923,0.0],[3.36456,6.48278,0.0],[3.36399,6.48554,0.0],[3.36448,6.48792,0.0],[3.3659,6.48965,0.0],[3.36811,6.49139,0.0],[3.37006,6.49261,0.0],[3.37109,6.49407,0.0],[3.37133,6.49592,0.0],[3.37051,6.49788,0.0],[3.36888,6.50141,0.0],[3.36922,6.5047,0.0],[3.37115,6.50737,0.0],[3.37203,6.50981,0.0],[3.36834,6.51856,0.0],[3.3681,6.52262,0.0],[3.36841,6.52336,0.0],[3.36887,6.52333,0.0],[3.37039,6.52291,0.0],[3.37171,6.52265,0.0],[3.37281,6.5226,0.0],[3.37388,6.52269,0.0],[3.37494,6.52325,0.0],[3.37549,6.52368,0.0],[3.37623,6.52445,0.0],[3.37698,6.52539,0.0],[3.37742,6.52581,0.0],[3.37807,6.52596,0.0],[3.37883,6.52576,0.0],[3.38002,6.52506,0.0],[3.38076,6.5241,0.0],[3.38132,6.52339,0.0],[3.38206,6.52284,0.0],[3.38969,6.5238,0.0],[3.39884,6.5238,0.0],[3.40548,6.52325,0.0]]]]}},{"type":"Feature","properties":{"uesi_id":"NGA_R3718182","nbhd_code":"NGA_R3718182_3","nbhd_name":"Oshodi-Isolo"},"geometry":{"type":"MultiPolygon","coordinates":[[[[3.35258,6.55478,0.0],[3.34212,6.55043,0.0],[3.33927,6.54819,0.0],[3.33805,6.54535,0.0],[3.33642,6.51831,0.0],[3.33459,6.51465,0.0],[3.33134,6.51262,0.0],[3.32789,6.51038,0.0],[3.32504,6.50753,0.0],[3.32432,6.50483,0.0],[3.32355,6.50192,0.0],[3.32331,6.50103,0.0],[3.32046,6.49777,0.0],[3.31924,6.49533,0.0],[3.31782,6.49106,0.0],[3.31518,6.48781,0.0],[3.30684,6.48573,0.0],[3.30398,6.48695,0.0],[3.30038,6.48653,0.0],[3.29903,6.48373,0.0],[3.29119,6.48151,0.0],[3.29091,6.49566,0.0],[3.29106,6.50039,0.0],[3.29125,6.50291,0.0],[3.2897,6.50523,0.0],[3.28796,6.50659,0.0],[3.28583,6.51143,0.0],[3.28389,6.51879,0.0],[3.28622,6.52402,0.0],[3.28777,6.52615,0.0],[3.28816,6.53119,0.0],[3.28854,6.53467,0.0],[3.28583,6.54687,0.0],[3.28699,6.55404,0.0],[3.28757,6.55617,0.0],[3.293,6.55792,0.0],[3.2959,6.55792,0.0],[3.29803,6.55927,0.0],[3.2997,6.56061,0.0],[3.30031,6.56169,0.0],[3.30091,6.56218,0.0],[3.30191,6.56237,0.0],[3.30481,6.56237,0.0],[3.30733,6.55772,0.0],[3.3114,6.55385,0.0],[3.3114,6.55017,0.0],[3.31354,6.55033,0.0],[3.31827,6.55114,0.0],[3.32176,6.55424,0.0],[3.3237,6.55501,0.0],[3.32215,6.55908,0.0],[3.32215,6.5645,0.0],[3.32544,6.56489,0.0],[3.32893,6.56528,0.0],[3.33474,6.57128,0.0],[3.33493,6.57922,0.0],[3.33403,6.58436,0.0],[3.33718,6.58628,0.0],[3.33971,6.5872,0.0],[3.35258,6.55478,0.0]]]]}},{"type":"Feature","properties":{"uesi_id":"NGA_R3718182","nbhd_code":"NGA_R3718182_4","nbhd_name":"Surulere"},"geometry":{"type":"MultiPolygon","coordinates":[[[[3.36834,6.51856,0.0],[3.37203,6.50981,0.0],[3.37115,6.50737,0.0],[3.36922,6.5047,0.0],[3.36888,6.50141,0.0],[3.37051,6.49788,0.0],[3.37133,6.49592,0.0],[3.37109,6.49407,0.0],[3.37006,6.49261,0.0],[3.36811,6.49139,0.0],[3.3659,6.48965,0.0],[3.36448,6.48792,0.0],[3.36399,6.48554,0.0],[3.36456,6.48278,0.0],[3.36488,6.47923,0.0],[3.36506,6.47595,0.0],[3.36303,6.47649,0.0],[3.36026,6.47729,0.0],[3.3578,6.47856,0.0],[3.35113,6.47864,0.0],[3.34681,6.47781,0.0],[3.34616,6.47806,0.0],[3.34565,6.47826,0.0],[3.34537,6.47787,0.0],[3.34524,6.47731,0.0],[3.34488,6.47679,0.0],[3.34377,6.47598,0.0],[3.34169,6.47491,0.0],[3.3398,6.47339,0.0],[3.33542,6.47046,0.0],[3.33456,6.46986,0.0],[3.33384,6.46995,0.0],[3.33307,6.46994,0.0],[3.33186,6.46926,0.0],[3.33176,6.4687,0.0],[3.3311,6.46847,0.0],[3.33034,6.46824,0.0],[3.32914,6.46712,0.0],[3.32882,6.46645,0.0],[3.32795,6.46589,0.0],[3.32608,6.46553,0.0],[3.3252,6.46529,0.0],[3.32466,6.46451,0.0],[3.32408,6.4625,0.0],[3.32106,6.46039,0.0],[3.31646,6.45904,0.0],[3.31894,6.46362,0.0],[3.32687,6.47195,0.0],[3.32829,6.47785,0.0],[3.32849,6.48131,0.0],[3.32687,6.48476,0.0],[3.32443,6.48964,0.0],[3.3224,6.49513,0.0],[3.32331,6.50103,0.0],[3.32355,6.50192,0.0],[3.32393,6.50118,0.0],[3.32417,6.50071,0.0],[3.32448,6.50023,0.0],[3.32497,6.49999,0.0],[3.32549,6.49962,0.0],[3.32621,6.49961,0.0],[3.32684,6.49989,0.0],[3.32757,6.5002,0.0],[3.32825,6.49983,0.0],[3.33031,6.50213,0.0],[3.33174,6.50341,0.0],[3.33214,6.50386,0.0],[3.33398,6.5053,0.0],[3.33447,6.50617,0.0],[3.33511,6.50794,0.0],[3.33726,6.51016,0.0],[3.33842,6.51076,0.0],[3.34106,6.511,0.0],[3.34354,6.51123,0.0],[3.3459,6.5114,0.0],[3.34679,6.51104,0.0],[3.34847,6.51186,0.0],[3.349,6.51282,0.0],[3.34911,6.51326,0.0],[3.34956,6.51415,0.0],[3.35019,6.51463,0.0],[3.35103,6.51479,0.0],[3.35153,6.5148,0.0],[3.35248,6.51471,0.0],[3.35319,6.51443,0.0],[3.35373,6.51431,0.0],[3.35474,6.51421,0.0],[3.3554,6.5144,0.0],[3.3562,6.5145,0.0],[3.3567,6.51442,0.0],[3.35764,6.5139,0.0],[3.35808,6.51364,0.0],[3.35924,6.51342,0.0],[3.36027,6.5133,0.0],[3.36082,6.51329,0.0],[3.36184,6.51445,0.0],[3.36253,6.51643,0.0],[3.36252,6.51773,0.0],[3.36286,6.51864,0.0],[3.36345,6.51942,0.0],[3.36552,6.51937,0.0],[3.36651,6.51648,0.0],[3.36834,6.51856,0.0]]]]}},{"type":"Feature","properties":{"uesi_id":"NGA_R3718182","nbhd_code":"NGA_R3718182_5","nbhd_name":"Mushin"},"geometry":{"type":"MultiPolygon","coordinates":[[[[3.36772,6.55718,0.0],[3.36778,6.55202,0.0],[3.36785,6.54794,0.0],[3.36792,6.54399,0.0],[3.368,6.53961,0.0],[3.36807,6.53519,0.0],[3.36813,6.53113,0.0],[3.36807,6.52709,0.0],[3.36841,6.52336,0.0],[3.3681,6.52262,0.0],[3.36834,6.51856,0.0],[3.36651,6.51648,0.0],[3.36552,6.51937,0.0],[3.36345,6.51942,0.0],[3.36286,6.51864,0.0],[3.36252,6.51773,0.0],[3.36253,6.51643,0.0],[3.36184,6.51445,0.0],[3.36082,6.51329,0.0],[3.36027,6.5133,0.0],[3.35924,6.51342,0.0],[3.35808,6.51364,0.0],[3.35764,6.5139,0.0],[3.3567,6.51442,0.0],[3.3562,6.5145,0.0],[3.3554,6.5144,0.0],[3.35474,6.51421,0.0],[3.35373,6.51431,0.0],[3.35319,6.51443,0.0],[3.35248,6.51471,0.0],[3.35153,6.5148,0.0],[3.35103,6.51479,0.0],[3.35019,6.51463,0.0],[3.34956,6.51415,0.0],[3.34911,6.51326,0.0],[3.349,6.51282,0.0],[3.34847,6.51186,0.0],[3.34679,6.51104,0.0],[3.3459,6.5114,0.0],[3.34354,6.51123,0.0],[3.34106,6.511,0.0],[3.33842,6.51076,0.0],[3.33726,6.51016,0.0],[3.33511,6.50794,0.0],[3.33447,6.50617,0.0],[3.33398,6.5053,0.0],[3.33214,6.50386,0.0],[3.33174,6.50341,0.0],[3.33031,6.50213,0.0],[3.32825,6.49983,0.0],[3.32757,6.5002,0.0],[3.32684,6.49989,0.0],[3.32621,6.49961,0.0],[3.32549,6.49962,0.0],[3.32497,6.49999,0.0],[3.32448,6.50023,0.0],[3.32417,6.50071,0.0],[3.32393,6.50118,0.0],[3.32355,6.50192,0.0],[3.32432,6.50483,0.0],[3.32504,6.50753,0.0],[3.32789,6.51038,0.0],[3.33134,6.51262,0.0],[3.33459,6.51465,0.0],[3.33642,6.51831,0.0],[3.33805,6.54535,0.0],[3.33927,6.54819,0.0],[3.34212,6.55043,0.0],[3.35258,6.55478,0.0],[3.35533,6.55592,0.0],[3.36123,6.55734,0.0],[3.36772,6.55718,0.0]]]]}},{"type":"Feature","properties":{"uesi_id":"NGA_R3718182","nbhd_code":"NGA_R3718182_6","nbhd_name":"Alimosho"},"geometry":{"type":"MultiPolygon","coordinates":[[[[3.30719,6.64738,0.0],[3.30714,6.64469,0.0],[3.3035,6.63565,0.0],[3.30285,6.63508,0.0],[3.30186,6.6338,0.0],[3.30187,6.63317,0.0],[3.30176,6.63209,0.0],[3.30174,6.63127,0.0],[3.29958,6.6259,0.0],[3.29881,6.623,0.0],[3.30152,6.61932,0.0],[3.30346,6.61705,0.0],[3.30365,6.61644,0.0],[3.30457,6.61449,0.0],[3.3049,6.61348,0.0],[3.30511,6.61246,0.0],[3.30575,6.61178,0.0],[3.30617,6.61138,0.0],[3.30907,6.60866,0.0],[3.31217,6.60634,0.0],[3.31554,6.60474,0.0],[3.31624,6.6044,0.0],[3.31992,6.59665,0.0],[3.31915,6.59356,0.0],[3.3174,6.58891,0.0],[3.31354,6.55033,0.0],[3.3114,6.55017,0.0],[3.3114,6.55385,0.0],[3.30733,6.55772,0.0],[3.30481,6.56237,0.0],[3.30191,6.56237,0.0],[3.30091,6.56218,0.0],[3.30031,6.56169,0.0],[3.2997,6.56061,0.0],[3.29803,6.55927,0.0],[3.2959,6.55792,0.0],[3.293,6.55792,0.0],[3.28757,6.55617,0.0],[3.28699,6.55404,0.0],[3.28583,6.54687,0.0],[3.28854,6.53467,0.0],[3.28816,6.53119,0.0],[3.28777,6.52615,0.0],[3.28622,6.52402,0.0],[3.28389,6.51879,0.0],[3.28583,6.51143,0.0],[3.28796,6.50659,0.0],[3.2897,6.50523,0.0],[3.29125,6.50291,0.0],[3.29106,6.50039,0.0],[3.29091,6.49566,0.0],[3.28834,6.49411,0.0],[3.28448,6.48659,0.0],[3.28184,6.48558,0.0],[3.27533,6.48476,0.0],[3.26801,6.48273,0.0],[3.26476,6.48171,0.0],[3.26211,6.48049,0.0],[3.25297,6.47846,0.0],[3.25048,6.47836,0.0],[3.25083,6.48171,0.0],[3.24046,6.487,0.0],[3.21952,6.49188,0.0],[3.2181,6.4935,0.0],[3.21525,6.50347,0.0],[3.21139,6.51282,0.0],[3.20692,6.51729,0.0],[3.20613,6.52003,0.0],[3.20488,6.52441,0.0],[3.20396,6.52948,0.0],[3.20497,6.53318,0.0],[3.20514,6.5361,0.0],[3.20522,6.53959,0.0],[3.20482,6.54242,0.0],[3.20392,6.54459,0.0],[3.20393,6.54719,0.0],[3.20174,6.55218,0.0],[3.20156,6.5554,0.0],[3.20084,6.55916,0.0],[3.19744,6.56633,0.0],[3.19638,6.57062,0.0],[3.19618,6.57332,0.0],[3.1969,6.57619,0.0],[3.19941,6.58031,0.0],[3.20747,6.58838,0.0],[3.21607,6.59501,0.0],[3.22972,6.60104,0.0],[3.23328,6.60585,0.0],[3.23531,6.60984,0.0],[3.23748,6.61412,0.0],[3.24001,6.61603,0.0],[3.24059,6.6181,0.0],[3.24112,6.62313,0.0],[3.24144,6.62533,0.0],[3.24148,6.62863,0.0],[3.23934,6.63073,0.0],[3.23937,6.63399,0.0],[3.23885,6.64001,0.0],[3.23929,6.64224,0.0],[3.24001,6.64587,0.0],[3.24047,6.6482,0.0],[3.24138,6.65418,0.0],[3.24184,6.65987,0.0],[3.24432,6.66432,0.0],[3.24659,6.66758,0.0],[3.2483,6.67003,0.0],[3.24951,6.67215,0.0],[3.25198,6.67646,0.0],[3.25436,6.68167,0.0],[3.25944,6.69023,0.0],[3.2605,6.6892,0.0],[3.26215,6.68752,0.0],[3.26249,6.68703,0.0],[3.26295,6.68627,0.0],[3.26855,6.68116,0.0],[3.2697,6.68016,0.0],[3.26997,6.67582,0.0],[3.27107,6.67458,0.0],[3.27353,6.67026,0.0],[3.27551,6.66838,0.0],[3.27664,6.66781,0.0],[3.27992,6.66522,0.0],[3.28136,6.66408,0.0],[3.28253,6.66363,0.0],[3.28566,6.66327,0.0],[3.28896,6.66271,0.0],[3.29079,6.66238,0.0],[3.29368,6.65748,0.0],[3.29571,6.65476,0.0],[3.30719,6.64738,0.0]]]]}},{"type":"Feature","properties":{"uesi_id":"NGA_R3718182","nbhd_code":"NGA_R3718182_7","nbhd_name":"Amuwo-Odofin"},"geometry":{"type":"MultiPolygon","coordinates":[[[[3.31646,6.45904,0.0],[3.3165,6.45467,0.0],[3.31772,6.45162,0.0],[3.31914,6.44918,0.0],[3.32057,6.44451,0.0],[3.32321,6.44125,0.0],[3.32971,6.44003,0.0],[3.33561,6.43881,0.0],[3.33883,6.4364,0.0],[3.33439,6.43597,0.0],[3.33134,6.43414,0.0],[3.33236,6.43007,0.0],[3.33581,6.42844,0.0],[3.33907,6.42763,0.0],[3.34293,6.42723,0.0],[3.34598,6.42783,0.0],[3.34923,6.42946,0.0],[3.35167,6.42987,0.0],[3.35432,6.42885,0.0],[3.35755,6.42965,0.0],[3.36299,6.42757,0.0],[3.36626,6.42581,0.0],[3.36879,6.42549,0.0],[3.37204,6.42554,0.0],[3.37346,6.42701,0.0],[3.37452,6.42883,0.0],[3.37448,6.43099,0.0],[3.37588,6.4339,0.0],[3.37914,6.43323,0.0],[3.37813,6.42816,0.0],[3.37673,6.42561,0.0],[3.3775,6.42237,0.0],[3.38006,6.42025,0.0],[3.38095,6.41808,0.0],[3.38319,6.42072,0.0],[3.38339,6.42377,0.0],[3.38278,6.42601,0.0],[3.38156,6.42885,0.0],[3.3842,6.43088,0.0],[3.38806,6.43312,0.0],[3.39213,6.4321,0.0],[3.39599,6.4319,0.0],[3.39988,6.43439,0.0],[3.40291,6.42743,0.0],[3.39803,6.40669,0.0],[3.40235,6.40069,0.0],[3.405,6.39604,0.0],[3.40541,6.39321,0.0],[3.40637,6.39018,0.0],[3.39949,6.39031,0.0],[3.39585,6.3914,0.0],[3.38271,6.39244,0.0],[3.37004,6.39467,0.0],[3.33841,6.3983,0.0],[3.31296,6.40012,0.0],[3.26642,6.40085,0.0],[3.23552,6.40085,0.0],[3.20498,6.40085,0.0],[3.20215,6.40077,0.0],[3.20211,6.40303,0.0],[3.20204,6.40772,0.0],[3.20305,6.41116,0.0],[3.20244,6.41442,0.0],[3.20061,6.41645,0.0],[3.19919,6.4197,0.0],[3.20102,6.4258,0.0],[3.20021,6.42865,0.0],[3.20061,6.4317,0.0],[3.20427,6.43373,0.0],[3.20732,6.43373,0.0],[3.21281,6.43373,0.0],[3.22074,6.43637,0.0],[3.21789,6.44003,0.0],[3.21676,6.44172,0.0],[3.21943,6.44127,0.0],[3.22638,6.44109,0.0],[3.2284,6.44199,0.0],[3.2298,6.44462,0.0],[3.22918,6.44751,0.0],[3.22804,6.45136,0.0],[3.22887,6.45203,0.0],[3.231,6.45628,0.0],[3.23055,6.45663,0.0],[3.22955,6.45717,0.0],[3.22905,6.45732,0.0],[3.22731,6.45742,0.0],[3.22705,6.45828,0.0],[3.22719,6.45912,0.0],[3.22747,6.4595,0.0],[3.22842,6.4597,0.0],[3.23192,6.45914,0.0],[3.23863,6.45711,0.0],[3.23884,6.47195,0.0],[3.24249,6.47663,0.0],[3.25048,6.47836,0.0],[3.25297,6.47846,0.0],[3.26211,6.48049,0.0],[3.26476,6.48171,0.0],[3.26801,6.48273,0.0],[3.27533,6.48476,0.0],[3.28184,6.48558,0.0],[3.28448,6.48659,0.0],[3.28834,6.49411,0.0],[3.29091,6.49566,0.0],[3.29119,6.48151,0.0],[3.29903,6.48373,0.0],[3.30038,6.48653,0.0],[3.30398,6.48695,0.0],[3.30684,6.48573,0.0],[3.31518,6.48781,0.0],[3.31782,6.49106,0.0],[3.31924,6.49533,0.0],[3.32046,6.49777,0.0],[3.32331,6.50103,0.0],[3.3224,6.49513,0.0],[3.32443,6.48964,0.0],[3.32687,6.48476,0.0],[3.32849,6.48131,0.0],[3.32829,6.47785,0.0],[3.32687,6.47195,0.0],[3.31894,6.46362,0.0],[3.31646,6.45904,0.0]]]]}},{"type":"Feature","properties":{"uesi_id":"NGA_R3718182","nbhd_code":"NGA_R3718182_8","nbhd_name":"Eti-Osa"},"geometry":{"type":"MultiPolygon","coordinates":[[[[3.62946,6.51791,0.0],[3.62708,6.51407,0.0],[3.62757,6.51067,0.0],[3.62545,6.5111,0.0],[3.62574,6.50847,0.0],[3.62809,6.50182,0.0],[3.62877,6.49925,0.0],[3.62877,6.496,0.0],[3.62688,6.49433,0.0],[3.62287,6.4932,0.0],[3.62,6.49161,0.0],[3.61947,6.48934,0.0],[3.62015,6.48708,0.0],[3.62219,6.48602,0.0],[3.62631,6.48499,0.0],[3.62896,6.48438,0.0],[3.63414,6.48184,0.0],[3.63688,6.48041,0.0],[3.63972,6.4792,0.0],[3.64206,6.4796,0.0],[3.64429,6.48235,0.0],[3.64632,6.486,0.0],[3.64785,6.48844,0.0],[3.65262,6.49088,0.0],[3.65577,6.49179,0.0],[3.65963,6.49189,0.0],[3.66383,6.4916,0.0],[3.66704,6.49017,0.0],[3.66958,6.48803,0.0],[3.6707,6.48499,0.0],[3.67151,6.47889,0.0],[3.67304,6.47564,0.0],[3.6308,6.42257,0.0],[3.618,6.4223,0.0],[3.57473,6.42121,0.0],[3.53983,6.42157,0.0],[3.50892,6.41939,0.0],[3.48784,6.42012,0.0],[3.46748,6.42012,0.0],[3.44675,6.41939,0.0],[3.41912,6.41866,0.0],[3.41294,6.41721,0.0],[3.40529,6.41212,0.0],[3.40486,6.40933,0.0],[3.4047,6.4064,0.0],[3.40379,6.40453,0.0],[3.40235,6.40069,0.0],[3.39803,6.40669,0.0],[3.40291,6.42743,0.0],[3.39988,6.43439,0.0],[3.40189,6.43617,0.0],[3.40433,6.43861,0.0],[3.40718,6.44369,0.0],[3.40819,6.44715,0.0],[3.40921,6.45162,0.0],[3.40852,6.45356,0.0],[3.40724,6.45716,0.0],[3.40632,6.46048,0.0],[3.40632,6.4645,0.0],[3.41105,6.46432,0.0],[3.42035,6.46803,0.0],[3.4295,6.46908,0.0],[3.44507,6.46954,0.0],[3.45694,6.46886,0.0],[3.46344,6.46659,0.0],[3.471,6.4647,0.0],[3.50029,6.4619,0.0],[3.51239,6.46765,0.0],[3.55922,6.47687,0.0],[3.57218,6.49146,0.0],[3.56946,6.50272,0.0],[3.57037,6.51278,0.0],[3.58946,6.52623,0.0],[3.61584,6.51943,0.0],[3.62946,6.51791,0.0]]]]}},{"type":"Feature","properties":{"uesi_id":"NGA_R3718182","nbhd_code":"NGA_R3718182_9","nbhd_name":"Ikeja"},"geometry":{"type":"MultiPolygon","coordinates":[[[[3.37013,6.64118,0.0],[3.37035,6.64003,0.0],[3.37154,6.63849,0.0],[3.36686,6.63198,0.0],[3.36568,6.63053,0.0],[3.36555,6.62956,0.0],[3.36549,6.62832,0.0],[3.36502,6.62597,0.0],[3.36478,6.62303,0.0],[3.36581,6.61748,0.0],[3.36986,6.6105,0.0],[3.37382,6.60558,0.0],[3.37787,6.6001,0.0],[3.38101,6.59622,0.0],[3.38295,6.59381,0.0],[3.37576,6.58367,0.0],[3.37232,6.57767,0.0],[3.37069,6.57485,0.0],[3.36927,6.57133,0.0],[3.36748,6.56757,0.0],[3.36774,6.56566,0.0],[3.36807,6.5611,0.0],[3.36838,6.55716,0.0],[3.36772,6.55718,0.0],[3.36123,6.55734,0.0],[3.35533,6.55592,0.0],[3.35258,6.55478,0.0],[3.33971,6.5872,0.0],[3.33718,6.58628,0.0],[3.33403,6.58436,0.0],[3.33493,6.57922,0.0],[3.33474,6.57128,0.0],[3.32893,6.56528,0.0],[3.32544,6.56489,0.0],[3.32215,6.5645,0.0],[3.32215,6.55908,0.0],[3.3237,6.55501,0.0],[3.32176,6.55424,0.0],[3.31827,6.55114,0.0],[3.31354,6.55033,0.0],[3.3174,6.58891,0.0],[3.31915,6.59356,0.0],[3.31992,6.59665,0.0],[3.31624,6.6044,0.0],[3.31554,6.60474,0.0],[3.31747,6.60585,0.0],[3.31873,6.60665,0.0],[3.3197,6.60702,0.0],[3.32127,6.6078,0.0],[3.32254,6.60808,0.0],[3.32512,6.60812,0.0],[3.32633,6.60807,0.0],[3.32701,6.60803,0.0],[3.32749,6.60778,0.0],[3.3284,6.60707,0.0],[3.33136,6.60545,0.0],[3.3299,6.61234,0.0],[3.33687,6.61331,0.0],[3.33764,6.61719,0.0],[3.33525,6.62419,0.0],[3.33636,6.62494,0.0],[3.33729,6.6254,0.0],[3.33753,6.62782,0.0],[3.33752,6.6284,0.0],[3.33756,6.62893,0.0],[3.33779,6.62936,0.0],[3.33822,6.62961,0.0],[3.3398,6.63002,0.0],[3.3408,6.63056,0.0],[3.34165,6.63168,0.0],[3.34238,6.63434,0.0],[3.34318,6.63567,0.0],[3.34345,6.63648,0.0],[3.34325,6.63724,0.0],[3.34354,6.63869,0.0],[3.34377,6.63941,0.0],[3.34363,6.64054,0.0],[3.34332,6.64106,0.0],[3.34319,6.64155,0.0],[3.34329,6.64211,0.0],[3.34327,6.64278,0.0],[3.34326,6.64386,0.0],[3.34321,6.64485,0.0],[3.34339,6.64546,0.0],[3.34364,6.64626,0.0],[3.34229,6.65031,0.0],[3.34423,6.65186,0.0],[3.34812,6.65514,0.0],[3.35132,6.65786,0.0],[3.35265,6.65872,0.0],[3.35286,6.65828,0.0],[3.35696,6.65473,0.0],[3.35988,6.65319,0.0],[3.36558,6.64894,0.0],[3.36943,6.64293,0.0],[3.37013,6.64118,0.0]]]]}},{"type":"Feature","properties":{"uesi_id":"NGA_R3718182","nbhd_code":"NGA_R3718182_10","nbhd_name":"Kosofe"},"geometry":{"type":"MultiPolygon","coordinates":[[[[3.43469,6.63914,0.0],[3.43494,6.63197,0.0],[3.43533,6.62054,0.0],[3.43996,6.61522,0.0],[3.43996,6.61082,0.0],[3.44228,6.60943,0.0],[3.44297,6.60735,0.0],[3.44644,6.60735,0.0],[3.45246,6.60156,0.0],[3.45385,6.59971,0.0],[3.45755,6.59925,0.0],[3.4594,6.59693,0.0],[3.46033,6.59416,0.0],[3.46551,6.58547,0.0],[3.45991,6.58459,0.0],[3.45713,6.58358,0.0],[3.45427,6.58313,0.0],[3.45109,6.5809,0.0],[3.45019,6.57902,0.0],[3.44806,6.57753,0.0],[3.44659,6.57557,0.0],[3.44447,6.57408,0.0],[3.44225,6.5691,0.0],[3.44102,6.56544,0.0],[3.44078,6.56308,0.0],[3.43987,6.56121,0.0],[3.43905,6.55876,0.0],[3.43815,6.55689,0.0],[3.43219,6.55364,0.0],[3.42901,6.55546,0.0],[3.42656,6.55623,0.0],[3.42461,6.55766,0.0],[3.42251,6.55896,0.0],[3.42013,6.56043,0.0],[3.41719,6.56056,0.0],[3.41482,6.56076,0.0],[3.41147,6.55966,0.0],[3.40957,6.55763,0.0],[3.41081,6.55203,0.0],[3.41219,6.55052,0.0],[3.41504,6.54691,0.0],[3.41594,6.54473,0.0],[3.41666,6.53964,0.0],[3.41666,6.53559,0.0],[3.41641,6.53323,0.0],[3.41559,6.53079,0.0],[3.41297,6.52865,0.0],[3.40889,6.52629,0.0],[3.40463,6.53202,0.0],[3.40169,6.536,0.0],[3.39762,6.54921,0.0],[3.39625,6.54949,0.0],[3.39513,6.54991,0.0],[3.3939,6.54984,0.0],[3.39089,6.54855,0.0],[3.3842,6.54697,0.0],[3.37953,6.5484,0.0],[3.36889,6.55715,0.0],[3.36838,6.55716,0.0],[3.36807,6.5611,0.0],[3.36774,6.56566,0.0],[3.36748,6.56757,0.0],[3.36927,6.57133,0.0],[3.37069,6.57485,0.0],[3.37232,6.57767,0.0],[3.37576,6.58367,0.0],[3.38295,6.59381,0.0],[3.38101,6.59622,0.0],[3.37787,6.6001,0.0],[3.37382,6.60558,0.0],[3.36986,6.6105,0.0],[3.36581,6.61748,0.0],[3.36478,6.62303,0.0],[3.36502,6.62597,0.0],[3.36549,6.62832,0.0],[3.36555,6.62956,0.0],[3.36568,6.63053,0.0],[3.36686,6.63198,0.0],[3.37154,6.63849,0.0],[3.37035,6.64003,0.0],[3.37013,6.64118,0.0],[3.38033,6.64083,0.0],[3.38342,6.6399,0.0],[3.3863,6.63889,0.0],[3.38735,6.63861,0.0],[3.43469,6.63914,0.0]]]]}},{"type":"Feature","properties":{"uesi_id":"NGA_R3718182","nbhd_code":"NGA_R3718182_11","nbhd_name":"Agege"},"geometry":{"type":"MultiPolygon","coordinates":[[[[3.33525,6.62419,0.0],[3.33764,6.61719,0.0],[3.33687,6.61331,0.0],[3.3299,6.61234,0.0],[3.33136,6.60545,0.0],[3.3284,6.60707,0.0],[3.32749,6.60778,0.0],[3.32701,6.60803,0.0],[3.32633,6.60807,0.0],[3.32512,6.60812,0.0],[3.32254,6.60808,0.0],[3.32127,6.6078,0.0],[3.3197,6.60702,0.0],[3.31873,6.60665,0.0],[3.31747,6.60585,0.0],[3.31554,6.60474,0.0],[3.31217,6.60634,0.0],[3.30907,6.60866,0.0],[3.30617,6.61138,0.0],[3.30575,6.61178,0.0],[3.30511,6.61246,0.0],[3.3049,6.61348,0.0],[3.30457,6.61449,0.0],[3.30365,6.61644,0.0],[3.30346,6.61705,0.0],[3.30152,6.61932,0.0],[3.29881,6.623,0.0],[3.29958,6.6259,0.0],[3.30174,6.63127,0.0],[3.30176,6.63209,0.0],[3.30187,6.63317,0.0],[3.30186,6.6338,0.0],[3.30285,6.63508,0.0],[3.3035,6.63565,0.0],[3.30714,6.64469,0.0],[3.30719,6.64738,0.0],[3.31476,6.64746,0.0],[3.31634,6.64566,0.0],[3.32253,6.62967,0.0],[3.32237,6.62891,0.0],[3.32391,6.62761,0.0],[3.32506,6.62686,0.0],[3.32621,6.62644,0.0],[3.32742,6.62626,0.0],[3.32817,6.62672,0.0],[3.32944,6.6268,0.0],[3.33034,6.62612,0.0],[3.33136,6.62563,0.0],[3.33257,6.62527,0.0],[3.33346,6.62509,0.0],[3.33468,6.62466,0.0],[3.33525,6.62419,0.0]]]]}},{"type":"Feature","properties":{"uesi_id":"NGA_R3718182","nbhd_code":"NGA_R3718182_12","nbhd_name":"Apapa"},"geometry":{"type":"MultiPolygon","coordinates":[[[[3.36506,6.47595,0.0],[3.36371,6.47152,0.0],[3.3644,6.46832,0.0],[3.36499,6.46831,0.0],[3.36577,6.46841,0.0],[3.36648,6.46812,0.0],[3.36664,6.46765,0.0],[3.36966,6.46775,0.0],[3.37442,6.46884,0.0],[3.3771,6.46824,0.0],[3.37928,6.46656,0.0],[3.38116,6.46322,0.0],[3.37879,6.46138,0.0],[3.37668,6.45975,0.0],[3.37505,6.45671,0.0],[3.376,6.45438,0.0],[3.37688,6.45223,0.0],[3.37993,6.44918,0.0],[3.38564,6.44602,0.0],[3.39315,6.44186,0.0],[3.39884,6.43678,0.0],[3.39988,6.43439,0.0],[3.39599,6.4319,0.0],[3.39213,6.4321,0.0],[3.38806,6.43312,0.0],[3.3842,6.43088,0.0],[3.38156,6.42885,0.0],[3.38278,6.42601,0.0],[3.38339,6.42377,0.0],[3.38319,6.42072,0.0],[3.38095,6.41808,0.0],[3.38006,6.42025,0.0],[3.3775,6.42237,0.0],[3.37673,6.42561,0.0],[3.37813,6.42816,0.0],[3.37914,6.43323,0.0],[3.37588,6.4339,0.0],[3.37448,6.43099,0.0],[3.37452,6.42883,0.0],[3.37346,6.42701,0.0],[3.37204,6.42554,0.0],[3.36879,6.42549,0.0],[3.36626,6.42581,0.0],[3.36299,6.42757,0.0],[3.35755,6.42965,0.0],[3.35432,6.42885,0.0],[3.35167,6.42987,0.0],[3.34923,6.42946,0.0],[3.34598,6.42783,0.0],[3.34293,6.42723,0.0],[3.33907,6.42763,0.0],[3.33581,6.42844,0.0],[3.33236,6.43007,0.0],[3.33134,6.43414,0.0],[3.33439,6.43597,0.0],[3.33883,6.4364,0.0],[3.3413,6.43603,0.0],[3.3451,6.43492,0.0],[3.34978,6.4354,0.0],[3.35042,6.44357,0.0],[3.35232,6.44761,0.0],[3.35241,6.45204,0.0],[3.357,6.45353,0.0],[3.3571,6.45489,0.0],[3.35724,6.4569,0.0],[3.35693,6.46253,0.0],[3.35524,6.46266,0.0],[3.35467,6.46293,0.0],[3.35405,6.46328,0.0],[3.35361,6.46371,0.0],[3.35356,6.46416,0.0],[3.35352,6.46505,0.0],[3.35335,6.46575,0.0],[3.35303,6.46611,0.0],[3.35257,6.46628,0.0],[3.35187,6.46588,0.0],[3.35104,6.46569,0.0],[3.35049,6.46598,0.0],[3.34977,6.46683,0.0],[3.34963,6.4673,0.0],[3.34973,6.46776,0.0],[3.3502,6.46874,0.0],[3.35003,6.46926,0.0],[3.34981,6.47014,0.0],[3.3495,6.47087,0.0],[3.35004,6.47165,0.0],[3.3491,6.47172,0.0],[3.34864,6.47146,0.0],[3.34814,6.47116,0.0],[3.34751,6.47077,0.0],[3.34711,6.4704,0.0],[3.34572,6.47029,0.0],[3.34439,6.47118,0.0],[3.34169,6.47491,0.0],[3.34377,6.47598,0.0],[3.34488,6.47679,0.0],[3.34524,6.47731,0.0],[3.34537,6.47787,0.0],[3.34565,6.47826,0.0],[3.34616,6.47806,0.0],[3.34681,6.47781,0.0],[3.35113,6.47864,0.0],[3.3578,6.47856,0.0],[3.36026,6.47729,0.0],[3.36303,6.47649,0.0],[3.36506,6.47595,0.0]]]]}},{"type":"Feature","properties":{"uesi_id":"NGA_R3718182","nbhd_code":"NGA_R3718182_13","nbhd_name":"Shomolu"},"geometry":{"type":"MultiPolygon","coordinates":[[[[3.36838,6.55716,0.0],[3.36889,6.55715,0.0],[3.37953,6.5484,0.0],[3.3842,6.54697,0.0],[3.39089,6.54855,0.0],[3.3939,6.54984,0.0],[3.39513,6.54991,0.0],[3.39625,6.54949,0.0],[3.39762,6.54921,0.0],[3.40169,6.536,0.0],[3.40463,6.53202,0.0],[3.40889,6.52629,0.0],[3.40548,6.52325,0.0],[3.39884,6.5238,0.0],[3.38969,6.5238,0.0],[3.38206,6.52284,0.0],[3.38132,6.52339,0.0],[3.38076,6.5241,0.0],[3.38002,6.52506,0.0],[3.37883,6.52576,0.0],[3.37807,6.52596,0.0],[3.37742,6.52581,0.0],[3.37698,6.52539,0.0],[3.37623,6.52445,0.0],[3.37549,6.52368,0.0],[3.37494,6.52325,0.0],[3.37388,6.52269,0.0],[3.37281,6.5226,0.0],[3.37171,6.52265,0.0],[3.37039,6.52291,0.0],[3.36887,6.52333,0.0],[3.36841,6.52336,0.0],[3.36807,6.52709,0.0],[3.36813,6.53113,0.0],[3.36807,6.53519,0.0],[3.368,6.53961,0.0],[3.36792,6.54399,0.0],[3.36785,6.54794,0.0],[3.36778,6.55202,0.0],[3.36772,6.55718,0.0],[3.36838,6.55716,0.0]]]]}},{"type":"Feature","properties":{"uesi_id":"NGA_R3718182","nbhd_code":"NGA_R3718182_14","nbhd_name":"Ifako-Ijaye"},"geometry":{"type":"MultiPolygon","coordinates":[[[[3.28786,6.68703,0.0],[3.28848,6.68662,0.0],[3.29052,6.68579,0.0],[3.29605,6.68327,0.0],[3.29837,6.68244,0.0],[3.30244,6.68091,0.0],[3.31131,6.67758,0.0],[3.31466,6.67547,0.0],[3.32387,6.67388,0.0],[3.32879,6.67337,0.0],[3.335,6.67361,0.0],[3.3428,6.67374,0.0],[3.34484,6.67276,0.0],[3.34764,6.66919,0.0],[3.35265,6.65872,0.0],[3.35132,6.65786,0.0],[3.34812,6.65514,0.0],[3.34423,6.65186,0.0],[3.34229,6.65031,0.0],[3.34364,6.64626,0.0],[3.34339,6.64546,0.0],[3.34321,6.64485,0.0],[3.34326,6.64386,0.0],[3.34327,6.64278,0.0],[3.34329,6.64211,0.0],[3.34319,6.64155,0.0],[3.34332,6.64106,0.0],[3.34363,6.64054,0.0],[3.34377,6.63941,0.0],[3.34354,6.63869,0.0],[3.34325,6.63724,0.0],[3.34345,6.63648,0.0],[3.34318,6.63567,0.0],[3.34238,6.63434,0.0],[3.34165,6.63168,0.0],[3.3408,6.63056,0.0],[3.3398,6.63002,0.0],[3.33822,6.62961,0.0],[3.33779,6.62936,0.0],[3.33756,6.62893,0.0],[3.33752,6.6284,0.0],[3.33753,6.62782,0.0],[3.33729,6.6254,0.0],[3.33636,6.62494,0.0],[3.33525,6.62419,0.0],[3.33468,6.62466,0.0],[3.33346,6.62509,0.0],[3.33257,6.62527,0.0],[3.33136,6.62563,0.0],[3.33034,6.62612,0.0],[3.32944,6.6268,0.0],[3.32817,6.62672,0.0],[3.32742,6.62626,0.0],[3.32621,6.62644,0.0],[3.32506,6.62686,0.0],[3.32391,6.62761,0.0],[3.32237,6.62891,0.0],[3.32253,6.62967,0.0],[3.31634,6.64566,0.0],[3.31476,6.64746,0.0],[3.30719,6.64738,0.0],[3.29571,6.65476,0.0],[3.29368,6.65748,0.0],[3.29079,6.66238,0.0],[3.28896,6.66271,0.0],[3.28566,6.66327,0.0],[3.28253,6.66363,0.0],[3.28136,6.66408,0.0],[3.27992,6.66522,0.0],[3.27664,6.66781,0.0],[3.27551,6.66838,0.0],[3.27353,6.67026,0.0],[3.27107,6.67458,0.0],[3.26997,6.67582,0.0],[3.2697,6.68016,0.0],[3.26855,6.68116,0.0],[3.26295,6.68627,0.0],[3.26249,6.68703,0.0],[3.26215,6.68752,0.0],[3.2605,6.6892,0.0],[3.25944,6.69023,0.0],[3.25986,6.69093,0.0],[3.26113,6.69312,0.0],[3.26254,6.69592,0.0],[3.2625,6.6964,0.0],[3.262,6.69791,0.0],[3.26243,6.69835,0.0],[3.2646,6.69824,0.0],[3.26794,6.69728,0.0],[3.27185,6.69662,0.0],[3.27417,6.69593,0.0],[3.28235,6.69072,0.0],[3.28786,6.68703,0.0]]]]}},{"type":"Feature","properties":{"uesi_id":"NGA_R3718182","nbhd_code":"NGA_R3718182_15","nbhd_name":"Ajeromi-Ifelodun"},"geometry":{"type":"MultiPolygon","coordinates":[[[[3.33883,6.4364,0.0],[3.33561,6.43881,0.0],[3.32971,6.44003,0.0],[3.32321,6.44125,0.0],[3.32057,6.44451,0.0],[3.31914,6.44918,0.0],[3.31772,6.45162,0.0],[3.3165,6.45467,0.0],[3.31646,6.45904,0.0],[3.32106,6.46039,0.0],[3.32408,6.4625,0.0],[3.32466,6.46451,0.0],[3.3252,6.46529,0.0],[3.32608,6.46553,0.0],[3.32795,6.46589,0.0],[3.32882,6.46645,0.0],[3.32914,6.46712,0.0],[3.33034,6.46824,0.0],[3.3311,6.46847,0.0],[3.33176,6.4687,0.0],[3.33186,6.46926,0.0],[3.33307,6.46994,0.0],[3.33384,6.46995,0.0],[3.33456,6.46986,0.0],[3.33542,6.47046,0.0],[3.3398,6.47339,0.0],[3.34169,6.47491,0.0],[3.34439,6.47118,0.0],[3.34572,6.47029,0.0],[3.34711,6.4704,0.0],[3.34751,6.47077,0.0],[3.34814,6.47116,0.0],[3.34864,6.47146,0.0],[3.3491,6.47172,0.0],[3.35004,6.47165,0.0],[3.3495,6.47087,0.0],[3.34981,6.47014,0.0],[3.35003,6.46926,0.0],[3.3502,6.46874,0.0],[3.34973,6.46776,0.0],[3.34963,6.4673,0.0],[3.34977,6.46683,0.0],[3.35049,6.46598,0.0],[3.35104,6.46569,0.0],[3.35187,6.46588,0.0],[3.35257,6.46628,0.0],[3.35303,6.46611,0.0],[3.35335,6.46575,0.0],[3.35352,6.46505,0.0],[3.35356,6.46416,0.0],[3.35361,6.46371,0.0],[3.35405,6.46328,0.0],[3.35467,6.46293,0.0],[3.35524,6.46266,0.0],[3.35693,6.46253,0.0],[3.35724,6.4569,0.0],[3.3571,6.45489,0.0],[3.357,6.45353,0.0],[3.35241,6.45204,0.0],[3.35232,6.44761,0.0],[3.35042,6.44357,0.0],[3.34978,6.4354,0.0],[3.3451,6.43492,0.0],[3.3413,6.43603,0.0],[3.33883,6.4364,0.0]]]]}},{"type":"Feature","properties":{"uesi_id":"NGA_R3718182","nbhd_code":"NGA_R3718182_16","nbhd_name":"Ojo"},"geometry":{"type":"MultiPolygon","coordinates":[[[[3.25048,6.47836,0.0],[3.24249,6.47663,0.0],[3.23884,6.47195,0.0],[3.23863,6.45711,0.0],[3.23192,6.45914,0.0],[3.22842,6.4597,0.0],[3.22747,6.4595,0.0],[3.22719,6.45912,0.0],[3.22705,6.45828,0.0],[3.22731,6.45742,0.0],[3.22905,6.45732,0.0],[3.22955,6.45717,0.0],[3.23055,6.45663,0.0],[3.231,6.45628,0.0],[3.22887,6.45203,0.0],[3.22804,6.45136,0.0],[3.22918,6.44751,0.0],[3.2298,6.44462,0.0],[3.2284,6.44199,0.0],[3.22638,6.44109,0.0],[3.21943,6.44127,0.0],[3.21676,6.44172,0.0],[3.21789,6.44003,0.0],[3.22074,6.43637,0.0],[3.21281,6.43373,0.0],[3.20732,6.43373,0.0],[3.20427,6.43373,0.0],[3.20061,6.4317,0.0],[3.20021,6.42865,0.0],[3.20102,6.4258,0.0],[3.19919,6.4197,0.0],[3.20061,6.41645,0.0],[3.20244,6.41442,0.0],[3.20305,6.41116,0.0],[3.20204,6.40772,0.0],[3.20211,6.40303,0.0],[3.20215,6.40077,0.0],[3.20051,6.40072,0.0],[3.18062,6.40012,0.0],[3.16499,6.39976,0.0],[3.15081,6.39867,0.0],[3.12936,6.3983,0.0],[3.11372,6.39867,0.0],[3.09518,6.39721,0.0],[3.0769,6.39685,0.0],[3.07273,6.39937,0.0],[3.06899,6.39661,0.0],[3.06246,6.39612,0.0],[3.04705,6.39556,0.0],[3.04952,6.40087,0.0],[3.0561,6.40562,0.0],[3.06965,6.40931,0.0],[3.07716,6.4103,0.0],[3.08513,6.40927,0.0],[3.08635,6.40974,0.0],[3.08879,6.41015,0.0],[3.09123,6.40913,0.0],[3.09428,6.40811,0.0],[3.09774,6.40771,0.0],[3.10262,6.40852,0.0],[3.10689,6.40913,0.0],[3.10668,6.41238,0.0],[3.1075,6.41604,0.0],[3.10851,6.42011,0.0],[3.10912,6.42519,0.0],[3.10689,6.42865,0.0],[3.10607,6.4317,0.0],[3.10709,6.43475,0.0],[3.10668,6.438,0.0],[3.10465,6.44064,0.0],[3.10282,6.4441,0.0],[3.10079,6.44796,0.0],[3.09936,6.45061,0.0],[3.09753,6.45406,0.0],[3.0957,6.45569,0.0],[3.09448,6.45813,0.0],[3.09347,6.46036,0.0],[3.0936,6.46463,0.0],[3.09367,6.46707,0.0],[3.09713,6.46606,0.0],[3.10221,6.46545,0.0],[3.10689,6.4687,0.0],[3.11075,6.4689,0.0],[3.11339,6.47033,0.0],[3.11522,6.47175,0.0],[3.11583,6.47378,0.0],[3.11624,6.47602,0.0],[3.11665,6.48029,0.0],[3.11543,6.48232,0.0],[3.11319,6.48395,0.0],[3.11177,6.48558,0.0],[3.11197,6.48781,0.0],[3.11197,6.49167,0.0],[3.10668,6.49411,0.0],[3.10395,6.49946,0.0],[3.10911,6.50084,0.0],[3.11139,6.5012,0.0],[3.11433,6.50108,0.0],[3.11841,6.50114,0.0],[3.12166,6.50011,0.0],[3.12372,6.50081,0.0],[3.13016,6.50066,0.0],[3.13343,6.50233,0.0],[3.13621,6.50334,0.0],[3.14078,6.50406,0.0],[3.14363,6.5045,0.0],[3.14751,6.50292,0.0],[3.15565,6.50181,0.0],[3.15702,6.50486,0.0],[3.15987,6.5053,0.0],[3.16322,6.50641,0.0],[3.16657,6.50751,0.0],[3.16878,6.50843,0.0],[3.17106,6.50879,0.0],[3.17461,6.50749,0.0],[3.17707,6.50847,0.0],[3.17952,6.50985,0.0],[3.18246,6.5139,0.0],[3.18481,6.51679,0.0],[3.18657,6.5191,0.0],[3.1894,6.52142,0.0],[3.19124,6.52294,0.0],[3.19457,6.52363,0.0],[3.19707,6.52486,0.0],[3.2,6.52775,0.0],[3.20396,6.52948,0.0],[3.20488,6.52441,0.0],[3.20613,6.52003,0.0],[3.20692,6.51729,0.0],[3.21139,6.51282,0.0],[3.21525,6.50347,0.0],[3.2181,6.4935,0.0],[3.21952,6.49188,0.0],[3.24046,6.487,0.0],[3.25083,6.48171,0.0],[3.25048,6.47836,0.0]]]]}}]}