{"type":"FeatureCollection","name":"NIC_R5835475","crs":{"type":"name","properties":{"name":"urn:ogc:def:crs:OGC:1.3:CRS84"}},"features":[{"type":"Feature","properties":{"uesi_id":"NIC_R5835475","nbhd_code":"NIC_R5835475_123","nbhd_name":"Distrito II"},"geometry":{"type":"MultiPolygon","coordinates":[[[[-86.30557,12.12663,0.0],[-86.30604,12.12648,0.0],[-86.30623,12.12642,0.0],[-86.3064,12.12639,0.0],[-86.3067,12.12633,0.0],[-86.3069,12.12632,0.0],[-86.3071,12.12632,0.0],[-86.30761,12.12636,0.0],[-86.30814,12.12643,0.0],[-86.30844,12.12652,0.0],[-86.30869,12.12661,0.0],[-86.30891,12.1267,0.0],[-86.30922,12.12687,0.0],[-86.30951,12.12706,0.0],[-86.3099,12.12738,0.0],[-86.31019,12.12768,0.0],[-86.31039,12.1279,0.0],[-86.31056,12.12816,0.0],[-86.31075,12.12845,0.0],[-86.31095,12.12872,0.0],[-86.31101,12.1288,0.0],[-86.31106,12.12887,0.0],[-86.31112,12.12893,0.0],[-86.31117,12.12895,0.0],[-86.3113,12.12901,0.0],[-86.31161,12.12912,0.0],[-86.31194,12.12916,0.0],[-86.31232,12.1292,0.0],[-86.31245,12.12924,0.0],[-86.31258,12.12928,0.0],[-86.31304,12.12943,0.0],[-86.31339,12.1295,0.0],[-86.31353,12.12951,0.0],[-86.31379,12.12946,0.0],[-86.31425,12.12935,0.0],[-86.31467,12.12926,0.0],[-86.3148,12.12923,0.0],[-86.31507,12.12917,0.0],[-86.31515,12.12917,0.0],[-86.3163,12.12928,0.0],[-86.31634,12.12929,0.0],[-86.31636,12.12931,0.0],[-86.3167,12.12928,0.0],[-86.31724,12.12919,0.0],[-86.31794,12.12906,0.0],[-86.31827,12.12904,0.0],[-86.31852,12.12905,0.0],[-86.31885,12.12915,0.0],[-86.31954,12.12952,0.0],[-86.31974,12.12958,0.0],[-86.32057,12.13004,0.0],[-86.32093,12.13024,0.0],[-86.32108,12.13035,0.0],[-86.3216,12.13055,0.0],[-86.32204,12.13073,0.0],[-86.32281,12.13111,0.0],[-86.3215,12.1311,0.0],[-86.31901,12.13122,0.0],[-86.31668,12.13128,0.0],[-86.31644,12.1313,0.0],[-86.31623,12.13136,0.0],[-86.31599,12.13148,0.0],[-86.31569,12.13168,0.0],[-86.31598,12.13231,0.0],[-86.31693,12.13212,0.0],[-86.31723,12.13213,0.0],[-86.31762,12.13219,0.0],[-86.31851,12.13251,0.0],[-86.31903,12.13264,0.0],[-86.31999,12.13286,0.0],[-86.32015,12.13294,0.0],[-86.3204,12.13313,0.0],[-86.32069,12.13338,0.0],[-86.32091,12.13358,0.0],[-86.32111,12.13388,0.0],[-86.32127,12.13409,0.0],[-86.32168,12.13525,0.0],[-86.32183,12.13555,0.0],[-86.322,12.13578,0.0],[-86.32224,12.13597,0.0],[-86.32256,12.13614,0.0],[-86.32297,12.14216,0.0],[-86.32338,12.14785,0.0],[-86.32298,12.14789,0.0],[-86.32304,12.15088,0.0],[-86.32304,12.15097,0.0],[-86.32294,12.15107,0.0],[-86.32465,12.15246,0.0],[-86.32489,12.15264,0.0],[-86.32519,12.15285,0.0],[-86.3255,12.15299,0.0],[-86.32574,12.15306,0.0],[-86.32603,12.15312,0.0],[-86.32631,12.15324,0.0],[-86.32654,12.15336,0.0],[-86.32676,12.15354,0.0],[-86.32731,12.15403,0.0],[-86.32792,12.15468,0.0],[-86.32814,12.15506,0.0],[-86.32595,12.15977,0.0],[-86.32546,12.15947,0.0],[-86.32405,12.15917,0.0],[-86.32389,12.16081,0.0],[-86.32131,12.161,0.0],[-86.32043,12.16136,0.0],[-86.3167,12.16334,0.0],[-86.31658,12.16387,0.0],[-86.31715,12.16496,0.0],[-86.31697,12.16597,0.0],[-86.31511,12.16694,0.0],[-86.3147,12.16793,0.0],[-86.30662,12.17117,0.0],[-86.30436,12.17107,0.0],[-86.30305,12.1703,0.0],[-86.29826,12.16567,0.0],[-86.29712,12.1681,0.0],[-86.29391,12.1677,0.0],[-86.29282,12.16811,0.0],[-86.29157,12.16769,0.0],[-86.29093,12.16671,0.0],[-86.29091,12.16439,0.0],[-86.28903,12.16298,0.0],[-86.28619,12.16189,0.0],[-86.28503,12.16414,0.0],[-86.28689,12.16489,0.0],[-86.28759,12.1665,0.0],[-86.28688,12.16823,0.0],[-86.28465,12.16897,0.0],[-86.27522,12.16425,0.0],[-86.27627,12.16274,0.0],[-86.27691,12.16169,0.0],[-86.27631,12.16088,0.0],[-86.27611,12.16063,0.0],[-86.27593,12.16037,0.0],[-86.27581,12.16019,0.0],[-86.27562,12.15989,0.0],[-86.27565,12.15978,0.0],[-86.2757,12.15962,0.0],[-86.27572,12.1594,0.0],[-86.27578,12.15863,0.0],[-86.27571,12.15865,0.0],[-86.27556,12.15867,0.0],[-86.27538,12.15862,0.0],[-86.27523,12.15846,0.0],[-86.27514,12.1583,0.0],[-86.27427,12.1582,0.0],[-86.27335,12.15739,0.0],[-86.27341,12.15688,0.0],[-86.27348,12.15642,0.0],[-86.27356,12.15596,0.0],[-86.27365,12.15529,0.0],[-86.27373,12.1547,0.0],[-86.2738,12.15411,0.0],[-86.27383,12.15382,0.0],[-86.2739,12.1532,0.0],[-86.27393,12.15297,0.0],[-86.27399,12.15236,0.0],[-86.27401,12.15222,0.0],[-86.27406,12.15178,0.0],[-86.27415,12.15105,0.0],[-86.27417,12.1509,0.0],[-86.27424,12.15025,0.0],[-86.27441,12.1488,0.0],[-86.27444,12.14857,0.0],[-86.2745,12.14807,0.0],[-86.27463,12.14693,0.0],[-86.27464,12.14655,0.0],[-86.27469,12.14627,0.0],[-86.27453,12.14622,0.0],[-86.27442,12.14613,0.0],[-86.2744,12.14605,0.0],[-86.27441,12.14591,0.0],[-86.27445,12.1458,0.0],[-86.27454,12.14572,0.0],[-86.27473,12.14559,0.0],[-86.27481,12.14439,0.0],[-86.27491,12.1442,0.0],[-86.27495,12.14382,0.0],[-86.27496,12.14368,0.0],[-86.27498,12.14354,0.0],[-86.27506,12.14294,0.0],[-86.27511,12.14252,0.0],[-86.27518,12.14193,0.0],[-86.27621,12.14213,0.0],[-86.27682,12.14223,0.0],[-86.27709,12.14227,0.0],[-86.2773,12.14228,0.0],[-86.27753,12.14227,0.0],[-86.27773,12.14223,0.0],[-86.27798,12.14213,0.0],[-86.27827,12.14199,0.0],[-86.27851,12.14187,0.0],[-86.27888,12.14173,0.0],[-86.27916,12.14167,0.0],[-86.2795,12.14172,0.0],[-86.28006,12.14182,0.0],[-86.28062,12.14193,0.0],[-86.28152,12.14209,0.0],[-86.2827,12.14229,0.0],[-86.28302,12.14236,0.0],[-86.2832,12.1424,0.0],[-86.28329,12.14241,0.0],[-86.28351,12.14247,0.0],[-86.28383,12.14252,0.0],[-86.28441,12.14256,0.0],[-86.28457,12.14255,0.0],[-86.28479,12.14249,0.0],[-86.28509,12.14236,0.0],[-86.28537,12.1422,0.0],[-86.2856,12.14212,0.0],[-86.28568,12.1421,0.0],[-86.28592,12.14205,0.0],[-86.2865,12.14202,0.0],[-86.28681,12.14198,0.0],[-86.2871,12.14197,0.0],[-86.28721,12.14197,0.0],[-86.28737,12.142,0.0],[-86.28748,12.14205,0.0],[-86.28757,12.14209,0.0],[-86.28773,12.14219,0.0],[-86.28789,12.14234,0.0],[-86.28795,12.14246,0.0],[-86.28801,12.14261,0.0],[-86.28805,12.1428,0.0],[-86.28805,12.14308,0.0],[-86.28804,12.14323,0.0],[-86.28803,12.14338,0.0],[-86.28799,12.14424,0.0],[-86.28795,12.14519,0.0],[-86.2879,12.14637,0.0],[-86.28789,12.14661,0.0],[-86.28786,12.14674,0.0],[-86.28785,12.14693,0.0],[-86.28788,12.14712,0.0],[-86.28846,12.14666,0.0],[-86.28881,12.14639,0.0],[-86.28925,12.14604,0.0],[-86.28938,12.14594,0.0],[-86.28982,12.1456,0.0],[-86.29053,12.14505,0.0],[-86.29165,12.14416,0.0],[-86.29276,12.14331,0.0],[-86.29369,12.14259,0.0],[-86.29421,12.14218,0.0],[-86.29454,12.14193,0.0],[-86.29487,12.14168,0.0],[-86.29523,12.14141,0.0],[-86.29573,12.14101,0.0],[-86.29635,12.14053,0.0],[-86.29683,12.14017,0.0],[-86.29708,12.13998,0.0],[-86.29748,12.13967,0.0],[-86.2977,12.13936,0.0],[-86.2978,12.13921,0.0],[-86.29799,12.13896,0.0],[-86.2982,12.1387,0.0],[-86.29825,12.13862,0.0],[-86.29832,12.13851,0.0],[-86.29854,12.13815,0.0],[-86.29873,12.13772,0.0],[-86.29883,12.13746,0.0],[-86.2989,12.13721,0.0],[-86.29901,12.13682,0.0],[-86.29911,12.13637,0.0],[-86.29917,12.13598,0.0],[-86.29923,12.13561,0.0],[-86.29929,12.1353,0.0],[-86.2994,12.13472,0.0],[-86.29944,12.13445,0.0],[-86.29946,12.13434,0.0],[-86.29953,12.13402,0.0],[-86.29955,12.13391,0.0],[-86.29956,12.13382,0.0],[-86.2996,12.13366,0.0],[-86.29964,12.13343,0.0],[-86.2997,12.13316,0.0],[-86.29971,12.13312,0.0],[-86.29979,12.13274,0.0],[-86.29988,12.13234,0.0],[-86.30002,12.13199,0.0],[-86.30007,12.13187,0.0],[-86.30025,12.13148,0.0],[-86.30039,12.13125,0.0],[-86.30007,12.13106,0.0],[-86.30016,12.13094,0.0],[-86.3004,12.13061,0.0],[-86.30056,12.13039,0.0],[-86.30078,12.13005,0.0],[-86.30088,12.12991,0.0],[-86.3011,12.12951,0.0],[-86.30117,12.12939,0.0],[-86.30128,12.12928,0.0],[-86.30144,12.12916,0.0],[-86.30156,12.12909,0.0],[-86.30169,12.12901,0.0],[-86.30196,12.12885,0.0],[-86.30242,12.12867,0.0],[-86.30272,12.12849,0.0],[-86.30293,12.12828,0.0],[-86.30332,12.12793,0.0],[-86.30385,12.12755,0.0],[-86.30407,12.12739,0.0],[-86.30451,12.12717,0.0],[-86.30516,12.12678,0.0],[-86.30557,12.12663,0.0]]]]}},{"type":"Feature","properties":{"uesi_id":"NIC_R5835475","nbhd_code":"NIC_R5835475_124","nbhd_name":"Distrito I"},"geometry":{"type":"MultiPolygon","coordinates":[[[[-86.27627,12.16274,0.0],[-86.27522,12.16425,0.0],[-86.26827,12.16034,0.0],[-86.25806,12.15714,0.0],[-86.2583,12.15523,0.0],[-86.25853,12.15523,0.0],[-86.25854,12.15518,0.0],[-86.25859,12.15456,0.0],[-86.25894,12.15458,0.0],[-86.25899,12.15378,0.0],[-86.25927,12.15358,0.0],[-86.25854,12.15351,0.0],[-86.25868,12.15274,0.0],[-86.25873,12.1525,0.0],[-86.25882,12.15192,0.0],[-86.259,12.15126,0.0],[-86.2591,12.15105,0.0],[-86.25925,12.1504,0.0],[-86.25958,12.15042,0.0],[-86.26012,12.15045,0.0],[-86.26106,12.15048,0.0],[-86.2619,12.15053,0.0],[-86.26282,12.15056,0.0],[-86.26282,12.15056,0.0],[-86.26372,12.15057,0.0],[-86.26464,12.15053,0.0],[-86.26469,12.15039,0.0],[-86.26487,12.14981,0.0],[-86.26494,12.14963,0.0],[-86.26419,12.14898,0.0],[-86.26407,12.14888,0.0],[-86.26351,12.14834,0.0],[-86.26265,12.14762,0.0],[-86.26208,12.14705,0.0],[-86.26162,12.14656,0.0],[-86.2614,12.14636,0.0],[-86.26081,12.14586,0.0],[-86.26067,12.14569,0.0],[-86.2606,12.14558,0.0],[-86.26053,12.14543,0.0],[-86.26045,12.14528,0.0],[-86.26031,12.14495,0.0],[-86.26022,12.14469,0.0],[-86.26011,12.1443,0.0],[-86.25994,12.14364,0.0],[-86.25993,12.14356,0.0],[-86.25979,12.14292,0.0],[-86.25978,12.1423,0.0],[-86.25978,12.14215,0.0],[-86.25973,12.14157,0.0],[-86.25969,12.14111,0.0],[-86.25963,12.14081,0.0],[-86.25957,12.14042,0.0],[-86.25954,12.14021,0.0],[-86.2595,12.14004,0.0],[-86.25937,12.1395,0.0],[-86.25921,12.13896,0.0],[-86.25916,12.13877,0.0],[-86.25908,12.13848,0.0],[-86.2589,12.13788,0.0],[-86.25878,12.13746,0.0],[-86.25876,12.13738,0.0],[-86.25871,12.13719,0.0],[-86.25864,12.13692,0.0],[-86.25852,12.13646,0.0],[-86.25848,12.13629,0.0],[-86.25835,12.1358,0.0],[-86.25819,12.13521,0.0],[-86.25798,12.13447,0.0],[-86.25788,12.13413,0.0],[-86.25782,12.13391,0.0],[-86.25781,12.13388,0.0],[-86.25776,12.13378,0.0],[-86.2576,12.13328,0.0],[-86.25751,12.13308,0.0],[-86.25742,12.13294,0.0],[-86.25734,12.13291,0.0],[-86.25704,12.13301,0.0],[-86.25667,12.13319,0.0],[-86.25638,12.13335,0.0],[-86.25601,12.13361,0.0],[-86.25562,12.13402,0.0],[-86.25557,12.13407,0.0],[-86.25551,12.13414,0.0],[-86.25531,12.13434,0.0],[-86.25525,12.13441,0.0],[-86.25518,12.13448,0.0],[-86.25513,12.13454,0.0],[-86.25504,12.13462,0.0],[-86.25495,12.13473,0.0],[-86.25473,12.13496,0.0],[-86.25467,12.13502,0.0],[-86.25449,12.13517,0.0],[-86.2543,12.13531,0.0],[-86.25387,12.13558,0.0],[-86.25366,12.13571,0.0],[-86.25326,12.13597,0.0],[-86.2512,12.13721,0.0],[-86.25084,12.13651,0.0],[-86.25059,12.13632,0.0],[-86.24678,12.13596,0.0],[-86.24607,12.13617,0.0],[-86.24518,12.13623,0.0],[-86.24522,12.13536,0.0],[-86.24526,12.13517,0.0],[-86.24531,12.13493,0.0],[-86.24541,12.13452,0.0],[-86.24577,12.13323,0.0],[-86.24581,12.13283,0.0],[-86.24574,12.13215,0.0],[-86.24578,12.1319,0.0],[-86.2459,12.13165,0.0],[-86.24678,12.13042,0.0],[-86.24698,12.13058,0.0],[-86.24702,12.13061,0.0],[-86.24779,12.13127,0.0],[-86.24796,12.13113,0.0],[-86.24793,12.13106,0.0],[-86.24785,12.13076,0.0],[-86.24783,12.13057,0.0],[-86.24784,12.13043,0.0],[-86.24786,12.13024,0.0],[-86.24787,12.12946,0.0],[-86.24772,12.12896,0.0],[-86.24768,12.12857,0.0],[-86.24768,12.12818,0.0],[-86.24768,12.12773,0.0],[-86.24775,12.1272,0.0],[-86.24773,12.12695,0.0],[-86.24735,12.12603,0.0],[-86.2473,12.12594,0.0],[-86.24672,12.12487,0.0],[-86.24636,12.12424,0.0],[-86.24625,12.12413,0.0],[-86.24613,12.124,0.0],[-86.24543,12.12336,0.0],[-86.24538,12.12325,0.0],[-86.24533,12.12305,0.0],[-86.24518,12.12293,0.0],[-86.24495,12.12261,0.0],[-86.24469,12.1223,0.0],[-86.24461,12.12221,0.0],[-86.2446,12.12203,0.0],[-86.24463,12.12181,0.0],[-86.24464,12.12168,0.0],[-86.24542,12.1211,0.0],[-86.24668,12.12016,0.0],[-86.24983,12.11781,0.0],[-86.25116,12.11683,0.0],[-86.25151,12.11677,0.0],[-86.25157,12.11677,0.0],[-86.25212,12.11673,0.0],[-86.25248,12.11669,0.0],[-86.25339,12.11668,0.0],[-86.25433,12.11667,0.0],[-86.25503,12.11664,0.0],[-86.25516,12.11663,0.0],[-86.25515,12.11671,0.0],[-86.25563,12.11671,0.0],[-86.25558,12.11646,0.0],[-86.25543,12.11579,0.0],[-86.25502,12.11486,0.0],[-86.25486,12.11459,0.0],[-86.25464,12.11403,0.0],[-86.25523,12.1135,0.0],[-86.25365,12.11151,0.0],[-86.25223,12.10994,0.0],[-86.25198,12.10968,0.0],[-86.2492,12.10662,0.0],[-86.24858,12.10655,0.0],[-86.24855,12.10593,0.0],[-86.24564,12.10268,0.0],[-86.24312,12.09992,0.0],[-86.23927,12.09566,0.0],[-86.23849,12.09481,0.0],[-86.23791,12.09417,0.0],[-86.23518,12.09116,0.0],[-86.23522,12.09113,0.0],[-86.23532,12.09102,0.0],[-86.23557,12.09067,0.0],[-86.23571,12.09061,0.0],[-86.23589,12.0906,0.0],[-86.23603,12.0906,0.0],[-86.23625,12.0906,0.0],[-86.23653,12.0906,0.0],[-86.23654,12.09049,0.0],[-86.23664,12.09018,0.0],[-86.23675,12.08985,0.0],[-86.237,12.08946,0.0],[-86.23711,12.08926,0.0],[-86.23717,12.08917,0.0],[-86.23744,12.08877,0.0],[-86.23762,12.08849,0.0],[-86.23781,12.08815,0.0],[-86.23792,12.08787,0.0],[-86.23805,12.08754,0.0],[-86.23812,12.08738,0.0],[-86.23829,12.0874,0.0],[-86.23858,12.08821,0.0],[-86.24187,12.08855,0.0],[-86.24188,12.08869,0.0],[-86.2423,12.08871,0.0],[-86.24261,12.08838,0.0],[-86.2427,12.08848,0.0],[-86.24283,12.08857,0.0],[-86.2429,12.08861,0.0],[-86.24299,12.08863,0.0],[-86.24315,12.08864,0.0],[-86.24329,12.08864,0.0],[-86.24344,12.08863,0.0],[-86.24358,12.08863,0.0],[-86.24373,12.08864,0.0],[-86.2439,12.08868,0.0],[-86.24402,12.08874,0.0],[-86.24413,12.08881,0.0],[-86.24431,12.08897,0.0],[-86.24452,12.08921,0.0],[-86.24455,12.08926,0.0],[-86.2446,12.08937,0.0],[-86.24465,12.08951,0.0],[-86.24465,12.08953,0.0],[-86.2447,12.08966,0.0],[-86.24475,12.08979,0.0],[-86.24477,12.08981,0.0],[-86.2459,12.0896,0.0],[-86.24608,12.08846,0.0],[-86.24663,12.08848,0.0],[-86.24732,12.08588,0.0],[-86.2468,12.08572,0.0],[-86.24641,12.08546,0.0],[-86.24565,12.08525,0.0],[-86.24534,12.08688,0.0],[-86.24416,12.08658,0.0],[-86.2449,12.08364,0.0],[-86.24547,12.0837,0.0],[-86.24555,12.08327,0.0],[-86.24534,12.08297,0.0],[-86.245,12.08245,0.0],[-86.24495,12.08238,0.0],[-86.24478,12.08214,0.0],[-86.2447,12.08195,0.0],[-86.24448,12.08169,0.0],[-86.24323,12.08243,0.0],[-86.24331,12.08184,0.0],[-86.24354,12.0815,0.0],[-86.24358,12.08112,0.0],[-86.24332,12.07944,0.0],[-86.24366,12.07873,0.0],[-86.24409,12.07688,0.0],[-86.24445,12.07658,0.0],[-86.24491,12.07626,0.0],[-86.24514,12.07612,0.0],[-86.24542,12.07557,0.0],[-86.24563,12.0753,0.0],[-86.24575,12.07523,0.0],[-86.24587,12.07522,0.0],[-86.24595,12.07484,0.0],[-86.24604,12.07461,0.0],[-86.24612,12.07438,0.0],[-86.24617,12.07424,0.0],[-86.24631,12.07418,0.0],[-86.24706,12.07425,0.0],[-86.24711,12.07413,0.0],[-86.24934,12.07414,0.0],[-86.25071,12.07448,0.0],[-86.2518,12.07474,0.0],[-86.25182,12.07451,0.0],[-86.25223,12.07254,0.0],[-86.24955,12.07255,0.0],[-86.24984,12.07084,0.0],[-86.25306,12.07077,0.0],[-86.25282,12.06944,0.0],[-86.25287,12.06902,0.0],[-86.25356,12.06811,0.0],[-86.25369,12.06754,0.0],[-86.24883,12.06733,0.0],[-86.24939,12.06462,0.0],[-86.25162,12.05907,0.0],[-86.25395,12.05951,0.0],[-86.25445,12.05744,0.0],[-86.25495,12.05691,0.0],[-86.25646,12.05286,0.0],[-86.2578,12.05311,0.0],[-86.25807,12.05139,0.0],[-86.26095,12.05127,0.0],[-86.26116,12.05227,0.0],[-86.26158,12.05229,0.0],[-86.26199,12.05246,0.0],[-86.26203,12.05124,0.0],[-86.26242,12.05132,0.0],[-86.26272,12.05201,0.0],[-86.26296,12.05175,0.0],[-86.26289,12.05147,0.0],[-86.26217,12.04975,0.0],[-86.26247,12.04894,0.0],[-86.26284,12.04868,0.0],[-86.26315,12.04813,0.0],[-86.26299,12.04768,0.0],[-86.26308,12.04764,0.0],[-86.26317,12.04747,0.0],[-86.26339,12.04731,0.0],[-86.26365,12.04726,0.0],[-86.26368,12.04691,0.0],[-86.26341,12.04639,0.0],[-86.26348,12.04598,0.0],[-86.26329,12.04548,0.0],[-86.26293,12.04492,0.0],[-86.26298,12.04456,0.0],[-86.26328,12.04395,0.0],[-86.26323,12.0432,0.0],[-86.26294,12.04218,0.0],[-86.26293,12.04186,0.0],[-86.2633,12.0402,0.0],[-86.26412,12.0376,0.0],[-86.26418,12.0365,0.0],[-86.26443,12.03337,0.0],[-86.26503,12.03338,0.0],[-86.26744,12.03469,0.0],[-86.26782,12.03663,0.0],[-86.26866,12.03668,0.0],[-86.26935,12.03606,0.0],[-86.27047,12.03603,0.0],[-86.27064,12.03701,0.0],[-86.27186,12.0372,0.0],[-86.27187,12.04002,0.0],[-86.27471,12.03986,0.0],[-86.27552,12.04258,0.0],[-86.27636,12.0443,0.0],[-86.27563,12.04599,0.0],[-86.27591,12.04664,0.0],[-86.27584,12.04734,0.0],[-86.27638,12.04785,0.0],[-86.27632,12.05064,0.0],[-86.27806,12.06209,0.0],[-86.27591,12.06236,0.0],[-86.27696,12.06922,0.0],[-86.27824,12.06897,0.0],[-86.27861,12.07017,0.0],[-86.27888,12.07106,0.0],[-86.27918,12.07102,0.0],[-86.27932,12.07263,0.0],[-86.27839,12.07274,0.0],[-86.27879,12.07449,0.0],[-86.27892,12.07603,0.0],[-86.27963,12.07879,0.0],[-86.2828,12.0788,0.0],[-86.28357,12.0809,0.0],[-86.28204,12.08104,0.0],[-86.28254,12.08276,0.0],[-86.28247,12.08372,0.0],[-86.28313,12.08574,0.0],[-86.28199,12.08688,0.0],[-86.28293,12.09033,0.0],[-86.28377,12.09007,0.0],[-86.28452,12.09343,0.0],[-86.2819,12.093,0.0],[-86.28192,12.09319,0.0],[-86.28185,12.09393,0.0],[-86.28178,12.09465,0.0],[-86.28175,12.09553,0.0],[-86.28182,12.09571,0.0],[-86.28194,12.09591,0.0],[-86.28199,12.09673,0.0],[-86.2822,12.09725,0.0],[-86.28243,12.09782,0.0],[-86.28256,12.098,0.0],[-86.28292,12.09826,0.0],[-86.28338,12.09868,0.0],[-86.28358,12.09916,0.0],[-86.28374,12.09977,0.0],[-86.28371,12.10015,0.0],[-86.28334,12.10117,0.0],[-86.28326,12.10126,0.0],[-86.28322,12.1013,0.0],[-86.283,12.10212,0.0],[-86.28303,12.10234,0.0],[-86.28302,12.10249,0.0],[-86.283,12.10261,0.0],[-86.28303,12.10304,0.0],[-86.28301,12.10382,0.0],[-86.28302,12.10415,0.0],[-86.28303,12.10423,0.0],[-86.2829,12.10531,0.0],[-86.28349,12.10537,0.0],[-86.28348,12.10488,0.0],[-86.2837,12.10488,0.0],[-86.2837,12.10539,0.0],[-86.28444,12.10542,0.0],[-86.28443,12.10529,0.0],[-86.2848,12.1053,0.0],[-86.2848,12.10561,0.0],[-86.28625,12.10588,0.0],[-86.28653,12.10606,0.0],[-86.28674,12.1063,0.0],[-86.28678,12.10643,0.0],[-86.28678,12.10661,0.0],[-86.28671,12.10686,0.0],[-86.28668,12.10715,0.0],[-86.28671,12.10729,0.0],[-86.28679,12.10753,0.0],[-86.28687,12.10773,0.0],[-86.287,12.10789,0.0],[-86.28783,12.1077,0.0],[-86.28765,12.10691,0.0],[-86.28811,12.10673,0.0],[-86.28832,12.10716,0.0],[-86.2896,12.10656,0.0],[-86.28988,12.10749,0.0],[-86.29021,12.10802,0.0],[-86.29029,12.10798,0.0],[-86.29029,12.10812,0.0],[-86.29052,12.10848,0.0],[-86.29117,12.10839,0.0],[-86.29113,12.1087,0.0],[-86.29107,12.10918,0.0],[-86.29107,12.1099,0.0],[-86.2911,12.11049,0.0],[-86.29111,12.11066,0.0],[-86.29116,12.11093,0.0],[-86.29118,12.11103,0.0],[-86.29122,12.11141,0.0],[-86.29123,12.11158,0.0],[-86.29121,12.11183,0.0],[-86.29119,12.11214,0.0],[-86.29117,12.11231,0.0],[-86.29109,12.11271,0.0],[-86.29105,12.11302,0.0],[-86.29103,12.11311,0.0],[-86.29097,12.11342,0.0],[-86.29085,12.11453,0.0],[-86.29078,12.11523,0.0],[-86.29072,12.11589,0.0],[-86.29073,12.11643,0.0],[-86.29075,12.11657,0.0],[-86.29085,12.11712,0.0],[-86.29094,12.11737,0.0],[-86.29092,12.11774,0.0],[-86.29092,12.11788,0.0],[-86.29079,12.11799,0.0],[-86.29056,12.11813,0.0],[-86.29044,12.11822,0.0],[-86.29019,12.11849,0.0],[-86.28996,12.11881,0.0],[-86.28975,12.11913,0.0],[-86.28972,12.11919,0.0],[-86.28963,12.11936,0.0],[-86.28924,12.12019,0.0],[-86.28915,12.12038,0.0],[-86.28902,12.12071,0.0],[-86.28893,12.12105,0.0],[-86.28894,12.12134,0.0],[-86.28901,12.12164,0.0],[-86.28918,12.1219,0.0],[-86.28913,12.12261,0.0],[-86.28906,12.12327,0.0],[-86.28894,12.12373,0.0],[-86.2889,12.12425,0.0],[-86.28883,12.12493,0.0],[-86.28895,12.12569,0.0],[-86.28898,12.12596,0.0],[-86.289,12.12621,0.0],[-86.28892,12.12671,0.0],[-86.28878,12.12699,0.0],[-86.28868,12.12724,0.0],[-86.28852,12.12769,0.0],[-86.28833,12.12828,0.0],[-86.28822,12.12857,0.0],[-86.28785,12.12931,0.0],[-86.28764,12.12959,0.0],[-86.28736,12.12988,0.0],[-86.28718,12.13016,0.0],[-86.28697,12.13055,0.0],[-86.28677,12.13108,0.0],[-86.28631,12.13188,0.0],[-86.28616,12.13225,0.0],[-86.28598,12.13271,0.0],[-86.28592,12.13315,0.0],[-86.28589,12.13339,0.0],[-86.28582,12.13416,0.0],[-86.28566,12.13417,0.0],[-86.2856,12.13502,0.0],[-86.28566,12.13504,0.0],[-86.28554,12.13576,0.0],[-86.28623,12.13614,0.0],[-86.28642,12.13624,0.0],[-86.28691,12.13653,0.0],[-86.28738,12.1368,0.0],[-86.28743,12.13683,0.0],[-86.28765,12.13696,0.0],[-86.28771,12.13699,0.0],[-86.28785,12.13707,0.0],[-86.28811,12.13721,0.0],[-86.28831,12.13732,0.0],[-86.28824,12.13788,0.0],[-86.2882,12.13873,0.0],[-86.28816,12.1394,0.0],[-86.28811,12.13962,0.0],[-86.28798,12.14009,0.0],[-86.28794,12.14024,0.0],[-86.28795,12.14041,0.0],[-86.28801,12.14071,0.0],[-86.28801,12.14085,0.0],[-86.288,12.141,0.0],[-86.28796,12.14113,0.0],[-86.28778,12.1415,0.0],[-86.28748,12.14205,0.0],[-86.28737,12.142,0.0],[-86.28721,12.14197,0.0],[-86.2871,12.14197,0.0],[-86.28681,12.14198,0.0],[-86.2865,12.14202,0.0],[-86.28592,12.14205,0.0],[-86.28568,12.1421,0.0],[-86.2856,12.14212,0.0],[-86.28537,12.1422,0.0],[-86.28509,12.14236,0.0],[-86.28479,12.14249,0.0],[-86.28457,12.14255,0.0],[-86.28441,12.14256,0.0],[-86.28383,12.14252,0.0],[-86.28351,12.14247,0.0],[-86.28329,12.14241,0.0],[-86.2832,12.1424,0.0],[-86.28302,12.14236,0.0],[-86.2827,12.14229,0.0],[-86.28152,12.14209,0.0],[-86.28062,12.14193,0.0],[-86.28006,12.14182,0.0],[-86.2795,12.14172,0.0],[-86.27916,12.14167,0.0],[-86.27888,12.14173,0.0],[-86.27851,12.14187,0.0],[-86.27827,12.14199,0.0],[-86.27798,12.14213,0.0],[-86.27773,12.14223,0.0],[-86.27753,12.14227,0.0],[-86.2773,12.14228,0.0],[-86.27709,12.14227,0.0],[-86.27682,12.14223,0.0],[-86.27621,12.14213,0.0],[-86.27518,12.14193,0.0],[-86.27511,12.14252,0.0],[-86.27506,12.14294,0.0],[-86.27498,12.14354,0.0],[-86.27496,12.14368,0.0],[-86.27495,12.14382,0.0],[-86.27491,12.1442,0.0],[-86.27481,12.14439,0.0],[-86.27473,12.14559,0.0],[-86.27454,12.14572,0.0],[-86.27445,12.1458,0.0],[-86.27441,12.14591,0.0],[-86.2744,12.14605,0.0],[-86.27442,12.14613,0.0],[-86.27453,12.14622,0.0],[-86.27469,12.14627,0.0],[-86.27464,12.14655,0.0],[-86.27463,12.14693,0.0],[-86.2745,12.14807,0.0],[-86.27444,12.14857,0.0],[-86.27441,12.1488,0.0],[-86.27424,12.15025,0.0],[-86.27417,12.1509,0.0],[-86.27415,12.15105,0.0],[-86.27406,12.15178,0.0],[-86.27401,12.15222,0.0],[-86.27399,12.15236,0.0],[-86.27393,12.15297,0.0],[-86.2739,12.1532,0.0],[-86.27383,12.15382,0.0],[-86.2738,12.15411,0.0],[-86.27373,12.1547,0.0],[-86.27365,12.15529,0.0],[-86.27356,12.15596,0.0],[-86.27348,12.15642,0.0],[-86.27341,12.15688,0.0],[-86.27335,12.15739,0.0],[-86.27427,12.1582,0.0],[-86.27514,12.1583,0.0],[-86.27523,12.15846,0.0],[-86.27538,12.15862,0.0],[-86.27556,12.15867,0.0],[-86.27571,12.15865,0.0],[-86.27578,12.15863,0.0],[-86.27572,12.1594,0.0],[-86.2757,12.15962,0.0],[-86.27565,12.15978,0.0],[-86.27562,12.15989,0.0],[-86.27581,12.16019,0.0],[-86.27593,12.16037,0.0],[-86.27611,12.16063,0.0],[-86.27631,12.16088,0.0],[-86.27691,12.16169,0.0],[-86.27627,12.16274,0.0]]]]}},{"type":"Feature","properties":{"uesi_id":"NIC_R5835475","nbhd_code":"NIC_R5835475_125","nbhd_name":"Distrito III"},"geometry":{"type":"MultiPolygon","coordinates":[[[[-86.32755,12.11727,0.0],[-86.32756,12.1174,0.0],[-86.32759,12.11773,0.0],[-86.3276,12.11788,0.0],[-86.32758,12.11813,0.0],[-86.32754,12.11846,0.0],[-86.32747,12.1188,0.0],[-86.3274,12.11919,0.0],[-86.32733,12.11941,0.0],[-86.32725,12.1196,0.0],[-86.32701,12.1201,0.0],[-86.32672,12.12055,0.0],[-86.32665,12.12069,0.0],[-86.32658,12.12087,0.0],[-86.32653,12.12103,0.0],[-86.32644,12.12152,0.0],[-86.3263,12.1221,0.0],[-86.32609,12.12265,0.0],[-86.326,12.12292,0.0],[-86.32595,12.12313,0.0],[-86.32591,12.12327,0.0],[-86.32587,12.12335,0.0],[-86.32581,12.12339,0.0],[-86.32567,12.12345,0.0],[-86.32553,12.1235,0.0],[-86.32545,12.12355,0.0],[-86.32526,12.1237,0.0],[-86.32472,12.12418,0.0],[-86.32368,12.125,0.0],[-86.32347,12.12521,0.0],[-86.3234,12.12529,0.0],[-86.32338,12.12537,0.0],[-86.32336,12.12545,0.0],[-86.32336,12.12553,0.0],[-86.3234,12.12565,0.0],[-86.32345,12.1258,0.0],[-86.32366,12.12629,0.0],[-86.32375,12.12664,0.0],[-86.32381,12.1268,0.0],[-86.3239,12.12694,0.0],[-86.32395,12.12707,0.0],[-86.32397,12.12719,0.0],[-86.32395,12.12733,0.0],[-86.32391,12.12749,0.0],[-86.32372,12.12779,0.0],[-86.32364,12.12793,0.0],[-86.32351,12.12833,0.0],[-86.32347,12.12852,0.0],[-86.32342,12.12864,0.0],[-86.32329,12.12882,0.0],[-86.32321,12.1289,0.0],[-86.32301,12.12901,0.0],[-86.32294,12.12908,0.0],[-86.32285,12.12915,0.0],[-86.32267,12.12941,0.0],[-86.32255,12.12949,0.0],[-86.32119,12.13008,0.0],[-86.32098,12.13021,0.0],[-86.32093,12.13024,0.0],[-86.32057,12.13004,0.0],[-86.31974,12.12958,0.0],[-86.31954,12.12952,0.0],[-86.31885,12.12915,0.0],[-86.31852,12.12905,0.0],[-86.31827,12.12904,0.0],[-86.31794,12.12906,0.0],[-86.31724,12.12919,0.0],[-86.3167,12.12928,0.0],[-86.31636,12.12931,0.0],[-86.31634,12.12929,0.0],[-86.3163,12.12928,0.0],[-86.31515,12.12917,0.0],[-86.31507,12.12917,0.0],[-86.3148,12.12923,0.0],[-86.31467,12.12926,0.0],[-86.31425,12.12935,0.0],[-86.31379,12.12946,0.0],[-86.31353,12.12951,0.0],[-86.31339,12.1295,0.0],[-86.31304,12.12943,0.0],[-86.31258,12.12928,0.0],[-86.31245,12.12924,0.0],[-86.31232,12.1292,0.0],[-86.31194,12.12916,0.0],[-86.31161,12.12912,0.0],[-86.3113,12.12901,0.0],[-86.31117,12.12895,0.0],[-86.31112,12.12893,0.0],[-86.31106,12.12887,0.0],[-86.31101,12.1288,0.0],[-86.31095,12.12872,0.0],[-86.31075,12.12845,0.0],[-86.31056,12.12816,0.0],[-86.31039,12.1279,0.0],[-86.31019,12.12768,0.0],[-86.3099,12.12738,0.0],[-86.30951,12.12706,0.0],[-86.30922,12.12687,0.0],[-86.30891,12.1267,0.0],[-86.30869,12.12661,0.0],[-86.30844,12.12652,0.0],[-86.30814,12.12643,0.0],[-86.30761,12.12636,0.0],[-86.3071,12.12632,0.0],[-86.3069,12.12632,0.0],[-86.3067,12.12633,0.0],[-86.3064,12.12639,0.0],[-86.30623,12.12642,0.0],[-86.30604,12.12648,0.0],[-86.30557,12.12663,0.0],[-86.30516,12.12678,0.0],[-86.30451,12.12717,0.0],[-86.30407,12.12739,0.0],[-86.30385,12.12755,0.0],[-86.30332,12.12793,0.0],[-86.30293,12.12828,0.0],[-86.30272,12.12849,0.0],[-86.30242,12.12867,0.0],[-86.30196,12.12885,0.0],[-86.30169,12.12901,0.0],[-86.30156,12.12909,0.0],[-86.30144,12.12916,0.0],[-86.30128,12.12928,0.0],[-86.30117,12.12939,0.0],[-86.3011,12.12951,0.0],[-86.30088,12.12991,0.0],[-86.30078,12.13005,0.0],[-86.30056,12.13039,0.0],[-86.3004,12.13061,0.0],[-86.30016,12.13094,0.0],[-86.30007,12.13106,0.0],[-86.30039,12.13125,0.0],[-86.30025,12.13148,0.0],[-86.30007,12.13187,0.0],[-86.30002,12.13199,0.0],[-86.29988,12.13234,0.0],[-86.29979,12.13274,0.0],[-86.29971,12.13312,0.0],[-86.2997,12.13316,0.0],[-86.29964,12.13343,0.0],[-86.2996,12.13366,0.0],[-86.29956,12.13382,0.0],[-86.29955,12.13391,0.0],[-86.29953,12.13402,0.0],[-86.29946,12.13434,0.0],[-86.29944,12.13445,0.0],[-86.2994,12.13472,0.0],[-86.29929,12.1353,0.0],[-86.29923,12.13561,0.0],[-86.29917,12.13598,0.0],[-86.29911,12.13637,0.0],[-86.29901,12.13682,0.0],[-86.2989,12.13721,0.0],[-86.29883,12.13746,0.0],[-86.29873,12.13772,0.0],[-86.29854,12.13815,0.0],[-86.29832,12.13851,0.0],[-86.29825,12.13862,0.0],[-86.2982,12.1387,0.0],[-86.29799,12.13896,0.0],[-86.2978,12.13921,0.0],[-86.2977,12.13936,0.0],[-86.29748,12.13967,0.0],[-86.29708,12.13998,0.0],[-86.29683,12.14017,0.0],[-86.29635,12.14053,0.0],[-86.29573,12.14101,0.0],[-86.29523,12.14141,0.0],[-86.29487,12.14168,0.0],[-86.29454,12.14193,0.0],[-86.29421,12.14218,0.0],[-86.29369,12.14259,0.0],[-86.29276,12.14331,0.0],[-86.29165,12.14416,0.0],[-86.29053,12.14505,0.0],[-86.28982,12.1456,0.0],[-86.28938,12.14594,0.0],[-86.28925,12.14604,0.0],[-86.28881,12.14639,0.0],[-86.28846,12.14666,0.0],[-86.28788,12.14712,0.0],[-86.28785,12.14693,0.0],[-86.28786,12.14674,0.0],[-86.28789,12.14661,0.0],[-86.2879,12.14637,0.0],[-86.28795,12.14519,0.0],[-86.28799,12.14424,0.0],[-86.28803,12.14338,0.0],[-86.28804,12.14323,0.0],[-86.28805,12.14308,0.0],[-86.28805,12.1428,0.0],[-86.28801,12.14261,0.0],[-86.28795,12.14246,0.0],[-86.28789,12.14234,0.0],[-86.28773,12.14219,0.0],[-86.28757,12.14209,0.0],[-86.28748,12.14205,0.0],[-86.28778,12.1415,0.0],[-86.28796,12.14113,0.0],[-86.288,12.141,0.0],[-86.28801,12.14085,0.0],[-86.28801,12.14071,0.0],[-86.28795,12.14041,0.0],[-86.28794,12.14024,0.0],[-86.28798,12.14009,0.0],[-86.28811,12.13962,0.0],[-86.28816,12.1394,0.0],[-86.2882,12.13873,0.0],[-86.28824,12.13788,0.0],[-86.28831,12.13732,0.0],[-86.28811,12.13721,0.0],[-86.28785,12.13707,0.0],[-86.28771,12.13699,0.0],[-86.28765,12.13696,0.0],[-86.28743,12.13683,0.0],[-86.28738,12.1368,0.0],[-86.28691,12.13653,0.0],[-86.28642,12.13624,0.0],[-86.28623,12.13614,0.0],[-86.28554,12.13576,0.0],[-86.28566,12.13504,0.0],[-86.2856,12.13502,0.0],[-86.28566,12.13417,0.0],[-86.28582,12.13416,0.0],[-86.28589,12.13339,0.0],[-86.28592,12.13315,0.0],[-86.28598,12.13271,0.0],[-86.28616,12.13225,0.0],[-86.28631,12.13188,0.0],[-86.28677,12.13108,0.0],[-86.28697,12.13055,0.0],[-86.28718,12.13016,0.0],[-86.28736,12.12988,0.0],[-86.28764,12.12959,0.0],[-86.28785,12.12931,0.0],[-86.28822,12.12857,0.0],[-86.28833,12.12828,0.0],[-86.28852,12.12769,0.0],[-86.28868,12.12724,0.0],[-86.28878,12.12699,0.0],[-86.28892,12.12671,0.0],[-86.289,12.12621,0.0],[-86.28898,12.12596,0.0],[-86.28895,12.12569,0.0],[-86.28883,12.12493,0.0],[-86.2889,12.12425,0.0],[-86.28894,12.12373,0.0],[-86.28906,12.12327,0.0],[-86.28913,12.12261,0.0],[-86.28918,12.1219,0.0],[-86.28901,12.12164,0.0],[-86.28894,12.12134,0.0],[-86.28893,12.12105,0.0],[-86.28902,12.12071,0.0],[-86.28915,12.12038,0.0],[-86.28924,12.12019,0.0],[-86.28963,12.11936,0.0],[-86.28972,12.11919,0.0],[-86.28975,12.11913,0.0],[-86.28996,12.11881,0.0],[-86.29019,12.11849,0.0],[-86.29044,12.11822,0.0],[-86.29056,12.11813,0.0],[-86.29079,12.11799,0.0],[-86.29092,12.11788,0.0],[-86.29092,12.11774,0.0],[-86.29094,12.11737,0.0],[-86.29085,12.11712,0.0],[-86.29075,12.11657,0.0],[-86.29073,12.11643,0.0],[-86.29072,12.11589,0.0],[-86.29078,12.11523,0.0],[-86.29085,12.11453,0.0],[-86.29097,12.11342,0.0],[-86.29103,12.11311,0.0],[-86.29105,12.11302,0.0],[-86.29109,12.11271,0.0],[-86.29117,12.11231,0.0],[-86.29119,12.11214,0.0],[-86.29121,12.11183,0.0],[-86.29123,12.11158,0.0],[-86.29122,12.11141,0.0],[-86.29118,12.11103,0.0],[-86.29116,12.11093,0.0],[-86.29111,12.11066,0.0],[-86.2911,12.11049,0.0],[-86.29107,12.1099,0.0],[-86.29107,12.10918,0.0],[-86.29113,12.1087,0.0],[-86.29117,12.10839,0.0],[-86.29052,12.10848,0.0],[-86.29029,12.10812,0.0],[-86.29029,12.10798,0.0],[-86.29021,12.10802,0.0],[-86.28988,12.10749,0.0],[-86.2896,12.10656,0.0],[-86.28832,12.10716,0.0],[-86.28811,12.10673,0.0],[-86.28765,12.10691,0.0],[-86.28783,12.1077,0.0],[-86.287,12.10789,0.0],[-86.28687,12.10773,0.0],[-86.28679,12.10753,0.0],[-86.28671,12.10729,0.0],[-86.28668,12.10715,0.0],[-86.28671,12.10686,0.0],[-86.28678,12.10661,0.0],[-86.28678,12.10643,0.0],[-86.28674,12.1063,0.0],[-86.28653,12.10606,0.0],[-86.28625,12.10588,0.0],[-86.2848,12.10561,0.0],[-86.2848,12.1053,0.0],[-86.28443,12.10529,0.0],[-86.28444,12.10542,0.0],[-86.2837,12.10539,0.0],[-86.2837,12.10488,0.0],[-86.28348,12.10488,0.0],[-86.28349,12.10537,0.0],[-86.2829,12.10531,0.0],[-86.28303,12.10423,0.0],[-86.28302,12.10415,0.0],[-86.28301,12.10382,0.0],[-86.28303,12.10304,0.0],[-86.283,12.10261,0.0],[-86.28302,12.10249,0.0],[-86.28303,12.10234,0.0],[-86.283,12.10212,0.0],[-86.28322,12.1013,0.0],[-86.28326,12.10126,0.0],[-86.28334,12.10117,0.0],[-86.28371,12.10015,0.0],[-86.28374,12.09977,0.0],[-86.28358,12.09916,0.0],[-86.28338,12.09868,0.0],[-86.28292,12.09826,0.0],[-86.28256,12.098,0.0],[-86.28243,12.09782,0.0],[-86.2822,12.09725,0.0],[-86.28199,12.09673,0.0],[-86.28194,12.09591,0.0],[-86.28182,12.09571,0.0],[-86.28175,12.09553,0.0],[-86.28178,12.09465,0.0],[-86.28185,12.09393,0.0],[-86.28192,12.09319,0.0],[-86.2819,12.093,0.0],[-86.28452,12.09343,0.0],[-86.28377,12.09007,0.0],[-86.28293,12.09033,0.0],[-86.28199,12.08688,0.0],[-86.28313,12.08574,0.0],[-86.28247,12.08372,0.0],[-86.28254,12.08276,0.0],[-86.28204,12.08104,0.0],[-86.28357,12.0809,0.0],[-86.2828,12.0788,0.0],[-86.27963,12.07879,0.0],[-86.27892,12.07603,0.0],[-86.27879,12.07449,0.0],[-86.27839,12.07274,0.0],[-86.27932,12.07263,0.0],[-86.27918,12.07102,0.0],[-86.27888,12.07106,0.0],[-86.27861,12.07017,0.0],[-86.27824,12.06897,0.0],[-86.27696,12.06922,0.0],[-86.27591,12.06236,0.0],[-86.27806,12.06209,0.0],[-86.27632,12.05064,0.0],[-86.27638,12.04785,0.0],[-86.27584,12.04734,0.0],[-86.27591,12.04664,0.0],[-86.27563,12.04599,0.0],[-86.27636,12.0443,0.0],[-86.27552,12.04258,0.0],[-86.27471,12.03986,0.0],[-86.27465,12.03769,0.0],[-86.27784,12.03751,0.0],[-86.27787,12.03864,0.0],[-86.27821,12.03985,0.0],[-86.28012,12.03948,0.0],[-86.2802,12.0389,0.0],[-86.28129,12.03801,0.0],[-86.28381,12.03797,0.0],[-86.28363,12.0392,0.0],[-86.28476,12.03928,0.0],[-86.2848,12.0394,0.0],[-86.28493,12.03989,0.0],[-86.28495,12.04026,0.0],[-86.28486,12.04071,0.0],[-86.28475,12.041,0.0],[-86.28463,12.04117,0.0],[-86.28443,12.04157,0.0],[-86.28433,12.04199,0.0],[-86.28415,12.04233,0.0],[-86.28401,12.04264,0.0],[-86.28436,12.0451,0.0],[-86.28604,12.04552,0.0],[-86.28619,12.04518,0.0],[-86.28621,12.0448,0.0],[-86.28847,12.04518,0.0],[-86.2938,12.04479,0.0],[-86.29268,12.04778,0.0],[-86.29337,12.04787,0.0],[-86.29346,12.04861,0.0],[-86.29534,12.04825,0.0],[-86.29525,12.04792,0.0],[-86.29516,12.04757,0.0],[-86.29513,12.04739,0.0],[-86.29509,12.04726,0.0],[-86.29498,12.04699,0.0],[-86.29494,12.04684,0.0],[-86.2949,12.04666,0.0],[-86.29487,12.04645,0.0],[-86.29485,12.04633,0.0],[-86.29738,12.04581,0.0],[-86.29933,12.05084,0.0],[-86.29942,12.05121,0.0],[-86.29936,12.05151,0.0],[-86.29921,12.0517,0.0],[-86.2991,12.05185,0.0],[-86.29904,12.05198,0.0],[-86.29903,12.05218,0.0],[-86.29912,12.05231,0.0],[-86.29927,12.05238,0.0],[-86.29949,12.05243,0.0],[-86.29957,12.05251,0.0],[-86.29971,12.05271,0.0],[-86.29984,12.05283,0.0],[-86.29995,12.05287,0.0],[-86.30004,12.05275,0.0],[-86.30007,12.05267,0.0],[-86.30016,12.05258,0.0],[-86.30027,12.05258,0.0],[-86.30038,12.05268,0.0],[-86.30038,12.05276,0.0],[-86.30038,12.05291,0.0],[-86.30048,12.05302,0.0],[-86.30064,12.05301,0.0],[-86.30079,12.05289,0.0],[-86.30093,12.05284,0.0],[-86.30108,12.05283,0.0],[-86.30121,12.05287,0.0],[-86.30134,12.05294,0.0],[-86.30137,12.05299,0.0],[-86.30147,12.05299,0.0],[-86.30151,12.05293,0.0],[-86.30165,12.05286,0.0],[-86.30218,12.05276,0.0],[-86.30253,12.05272,0.0],[-86.30287,12.05259,0.0],[-86.30421,12.05259,0.0],[-86.30429,12.0527,0.0],[-86.30443,12.05303,0.0],[-86.30456,12.0532,0.0],[-86.30468,12.05336,0.0],[-86.30493,12.05395,0.0],[-86.30507,12.05444,0.0],[-86.30626,12.0548,0.0],[-86.30617,12.05499,0.0],[-86.30613,12.05509,0.0],[-86.30618,12.05524,0.0],[-86.3062,12.05536,0.0],[-86.30616,12.05546,0.0],[-86.30619,12.05561,0.0],[-86.30634,12.05569,0.0],[-86.30642,12.05577,0.0],[-86.30641,12.05586,0.0],[-86.30641,12.05595,0.0],[-86.30646,12.05611,0.0],[-86.30655,12.05624,0.0],[-86.3067,12.05634,0.0],[-86.30677,12.05642,0.0],[-86.30679,12.05651,0.0],[-86.30674,12.05677,0.0],[-86.30676,12.05686,0.0],[-86.30685,12.05693,0.0],[-86.30693,12.05704,0.0],[-86.30691,12.05715,0.0],[-86.30688,12.05725,0.0],[-86.30692,12.05736,0.0],[-86.30699,12.05744,0.0],[-86.30713,12.05749,0.0],[-86.30724,12.05752,0.0],[-86.30734,12.05759,0.0],[-86.30743,12.05777,0.0],[-86.30749,12.05788,0.0],[-86.3076,12.05796,0.0],[-86.30769,12.058,0.0],[-86.30784,12.05803,0.0],[-86.30799,12.05804,0.0],[-86.30807,12.0581,0.0],[-86.30812,12.05822,0.0],[-86.30814,12.05837,0.0],[-86.30814,12.05853,0.0],[-86.3081,12.05863,0.0],[-86.30813,12.05877,0.0],[-86.30813,12.05889,0.0],[-86.30816,12.05902,0.0],[-86.30816,12.05918,0.0],[-86.30817,12.05934,0.0],[-86.30814,12.05951,0.0],[-86.30814,12.05964,0.0],[-86.30821,12.05969,0.0],[-86.30831,12.05972,0.0],[-86.30844,12.05979,0.0],[-86.30846,12.05989,0.0],[-86.30849,12.05999,0.0],[-86.30853,12.06008,0.0],[-86.30861,12.06016,0.0],[-86.30873,12.06023,0.0],[-86.3088,12.06033,0.0],[-86.30885,12.06044,0.0],[-86.30889,12.06053,0.0],[-86.309,12.06058,0.0],[-86.30912,12.06058,0.0],[-86.30922,12.06059,0.0],[-86.30931,12.06061,0.0],[-86.30938,12.06064,0.0],[-86.31109,12.06518,0.0],[-86.31122,12.06539,0.0],[-86.3117,12.06573,0.0],[-86.31252,12.06697,0.0],[-86.31294,12.06795,0.0],[-86.31285,12.06868,0.0],[-86.313,12.0691,0.0],[-86.31306,12.06936,0.0],[-86.3131,12.06971,0.0],[-86.3131,12.06996,0.0],[-86.31307,12.07047,0.0],[-86.31303,12.07068,0.0],[-86.31297,12.0709,0.0],[-86.31292,12.07126,0.0],[-86.31365,12.07113,0.0],[-86.31389,12.07114,0.0],[-86.31419,12.07117,0.0],[-86.31448,12.0718,0.0],[-86.31462,12.07266,0.0],[-86.31468,12.07326,0.0],[-86.31472,12.07385,0.0],[-86.31469,12.07422,0.0],[-86.3144,12.07564,0.0],[-86.31461,12.07569,0.0],[-86.3148,12.07569,0.0],[-86.31538,12.07567,0.0],[-86.31551,12.07569,0.0],[-86.31569,12.07569,0.0],[-86.31589,12.07567,0.0],[-86.31601,12.07561,0.0],[-86.31614,12.07555,0.0],[-86.31623,12.07559,0.0],[-86.31632,12.07567,0.0],[-86.31643,12.07574,0.0],[-86.31657,12.07573,0.0],[-86.31664,12.07563,0.0],[-86.3167,12.07553,0.0],[-86.3168,12.07549,0.0],[-86.31689,12.07564,0.0],[-86.31699,12.07567,0.0],[-86.31714,12.07558,0.0],[-86.31721,12.07544,0.0],[-86.31727,12.07538,0.0],[-86.31739,12.07539,0.0],[-86.31746,12.07548,0.0],[-86.31751,12.07555,0.0],[-86.31765,12.07562,0.0],[-86.31777,12.07562,0.0],[-86.31787,12.07557,0.0],[-86.31793,12.07541,0.0],[-86.31794,12.07533,0.0],[-86.31797,12.07486,0.0],[-86.31794,12.07439,0.0],[-86.31787,12.07417,0.0],[-86.31761,12.07383,0.0],[-86.31756,12.07369,0.0],[-86.31758,12.07328,0.0],[-86.31862,12.07296,0.0],[-86.31897,12.07382,0.0],[-86.31901,12.07408,0.0],[-86.31889,12.07435,0.0],[-86.31908,12.07445,0.0],[-86.31963,12.07426,0.0],[-86.31975,12.07393,0.0],[-86.31972,12.07315,0.0],[-86.32061,12.07319,0.0],[-86.32097,12.07312,0.0],[-86.32139,12.07298,0.0],[-86.32148,12.07295,0.0],[-86.32188,12.07283,0.0],[-86.32238,12.0727,0.0],[-86.323,12.0726,0.0],[-86.32324,12.07253,0.0],[-86.32349,12.07283,0.0],[-86.32358,12.07302,0.0],[-86.3237,12.07334,0.0],[-86.32376,12.07347,0.0],[-86.32389,12.07378,0.0],[-86.32399,12.07385,0.0],[-86.32399,12.07364,0.0],[-86.32402,12.07284,0.0],[-86.32406,12.07199,0.0],[-86.32468,12.07206,0.0],[-86.32515,12.07198,0.0],[-86.32664,12.07114,0.0],[-86.32682,12.07092,0.0],[-86.32697,12.07028,0.0],[-86.3279,12.07038,0.0],[-86.32792,12.0708,0.0],[-86.32852,12.07042,0.0],[-86.32858,12.07023,0.0],[-86.32868,12.07005,0.0],[-86.32884,12.06992,0.0],[-86.32912,12.06968,0.0],[-86.32921,12.06954,0.0],[-86.32938,12.06944,0.0],[-86.3295,12.06929,0.0],[-86.32958,12.06914,0.0],[-86.32964,12.06893,0.0],[-86.32964,12.06877,0.0],[-86.32956,12.06856,0.0],[-86.32948,12.06843,0.0],[-86.3295,12.06826,0.0],[-86.32959,12.06806,0.0],[-86.32961,12.06791,0.0],[-86.32957,12.06758,0.0],[-86.3296,12.06726,0.0],[-86.32973,12.06702,0.0],[-86.32997,12.06685,0.0],[-86.33015,12.0667,0.0],[-86.33043,12.06657,0.0],[-86.33062,12.06639,0.0],[-86.33074,12.06615,0.0],[-86.33072,12.06601,0.0],[-86.33067,12.06582,0.0],[-86.33053,12.06561,0.0],[-86.33057,12.06537,0.0],[-86.33065,12.0651,0.0],[-86.33063,12.06477,0.0],[-86.33062,12.06447,0.0],[-86.33068,12.06419,0.0],[-86.3309,12.06377,0.0],[-86.33148,12.06398,0.0],[-86.33233,12.06411,0.0],[-86.33471,12.06365,0.0],[-86.33546,12.06321,0.0],[-86.33598,12.06309,0.0],[-86.33663,12.06277,0.0],[-86.33731,12.06134,0.0],[-86.33797,12.05982,0.0],[-86.34279,12.06129,0.0],[-86.34295,12.0612,0.0],[-86.34304,12.06113,0.0],[-86.34315,12.06107,0.0],[-86.34334,12.061,0.0],[-86.34362,12.06084,0.0],[-86.34377,12.06075,0.0],[-86.34394,12.06068,0.0],[-86.34418,12.0606,0.0],[-86.34443,12.06055,0.0],[-86.34462,12.06055,0.0],[-86.34484,12.06055,0.0],[-86.34507,12.06054,0.0],[-86.34531,12.06058,0.0],[-86.34544,12.06057,0.0],[-86.34558,12.06054,0.0],[-86.34581,12.06052,0.0],[-86.34598,12.0605,0.0],[-86.34621,12.0605,0.0],[-86.34641,12.06049,0.0],[-86.3464,12.06033,0.0],[-86.34644,12.0602,0.0],[-86.34649,12.06011,0.0],[-86.34658,12.06002,0.0],[-86.34669,12.05996,0.0],[-86.34682,12.05986,0.0],[-86.347,12.05978,0.0],[-86.34713,12.05969,0.0],[-86.34721,12.05961,0.0],[-86.34727,12.05948,0.0],[-86.34731,12.05933,0.0],[-86.3473,12.0592,0.0],[-86.34726,12.05909,0.0],[-86.34721,12.05896,0.0],[-86.34709,12.05869,0.0],[-86.34704,12.05851,0.0],[-86.34701,12.05841,0.0],[-86.34703,12.05824,0.0],[-86.34702,12.05809,0.0],[-86.34704,12.05798,0.0],[-86.34704,12.05789,0.0],[-86.34702,12.05781,0.0],[-86.34696,12.05771,0.0],[-86.34691,12.0576,0.0],[-86.3469,12.0575,0.0],[-86.34692,12.05736,0.0],[-86.34695,12.05723,0.0],[-86.34698,12.05713,0.0],[-86.347,12.057,0.0],[-86.34906,12.05713,0.0],[-86.34964,12.05751,0.0],[-86.35154,12.05761,0.0],[-86.3518,12.05861,0.0],[-86.35732,12.06079,0.0],[-86.35725,12.06126,0.0],[-86.35633,12.06285,0.0],[-86.36707,12.06959,0.0],[-86.36916,12.07126,0.0],[-86.36984,12.07151,0.0],[-86.37085,12.07067,0.0],[-86.37115,12.07071,0.0],[-86.37127,12.07075,0.0],[-86.37139,12.07085,0.0],[-86.37154,12.07103,0.0],[-86.3717,12.07127,0.0],[-86.37182,12.07145,0.0],[-86.37202,12.07181,0.0],[-86.37211,12.07191,0.0],[-86.37225,12.07202,0.0],[-86.37251,12.0722,0.0],[-86.37265,12.07227,0.0],[-86.37276,12.07231,0.0],[-86.37288,12.07232,0.0],[-86.37342,12.07234,0.0],[-86.37363,12.07238,0.0],[-86.37377,12.07245,0.0],[-86.37388,12.07252,0.0],[-86.37398,12.07264,0.0],[-86.37414,12.07287,0.0],[-86.37428,12.07304,0.0],[-86.37441,12.07314,0.0],[-86.37463,12.07326,0.0],[-86.3752,12.07347,0.0],[-86.37542,12.07353,0.0],[-86.37632,12.07374,0.0],[-86.37656,12.0738,0.0],[-86.37671,12.07382,0.0],[-86.37691,12.07382,0.0],[-86.37743,12.07382,0.0],[-86.37747,12.07414,0.0],[-86.37752,12.07427,0.0],[-86.37758,12.07443,0.0],[-86.37772,12.07468,0.0],[-86.37785,12.07489,0.0],[-86.37793,12.075,0.0],[-86.37801,12.07509,0.0],[-86.37811,12.07518,0.0],[-86.3782,12.0753,0.0],[-86.37824,12.07538,0.0],[-86.37826,12.07549,0.0],[-86.37827,12.07564,0.0],[-86.37823,12.0758,0.0],[-86.37811,12.07614,0.0],[-86.37808,12.07629,0.0],[-86.37809,12.07642,0.0],[-86.37811,12.07654,0.0],[-86.37819,12.07666,0.0],[-86.37828,12.07676,0.0],[-86.3784,12.07685,0.0],[-86.3786,12.077,0.0],[-86.37903,12.07729,0.0],[-86.3791,12.07737,0.0],[-86.37915,12.07748,0.0],[-86.37927,12.07774,0.0],[-86.37932,12.07785,0.0],[-86.37945,12.07802,0.0],[-86.37951,12.07814,0.0],[-86.37961,12.07838,0.0],[-86.37935,12.07873,0.0],[-86.37913,12.07902,0.0],[-86.37901,12.07924,0.0],[-86.37895,12.07941,0.0],[-86.37891,12.07957,0.0],[-86.3789,12.07974,0.0],[-86.3789,12.0799,0.0],[-86.37891,12.08005,0.0],[-86.37893,12.08023,0.0],[-86.37924,12.0815,0.0],[-86.37932,12.08175,0.0],[-86.37941,12.08198,0.0],[-86.3795,12.08215,0.0],[-86.37961,12.08228,0.0],[-86.37973,12.08239,0.0],[-86.37986,12.08249,0.0],[-86.38004,12.08261,0.0],[-86.38028,12.08274,0.0],[-86.38068,12.08293,0.0],[-86.38079,12.08301,0.0],[-86.38086,12.08309,0.0],[-86.3809,12.08316,0.0],[-86.38091,12.08329,0.0],[-86.38114,12.08328,0.0],[-86.38138,12.08327,0.0],[-86.38164,12.08323,0.0],[-86.38179,12.0832,0.0],[-86.38197,12.08315,0.0],[-86.38322,12.08269,0.0],[-86.38383,12.08246,0.0],[-86.38403,12.08241,0.0],[-86.38426,12.0824,0.0],[-86.38448,12.08242,0.0],[-86.38471,12.08246,0.0],[-86.38486,12.08251,0.0],[-86.38495,12.08291,0.0],[-86.38506,12.08387,0.0],[-86.38513,12.08487,0.0],[-86.3852,12.0857,0.0],[-86.38526,12.08614,0.0],[-86.38541,12.087,0.0],[-86.3855,12.08773,0.0],[-86.38556,12.08808,0.0],[-86.38572,12.08874,0.0],[-86.38587,12.08929,0.0],[-86.38601,12.0897,0.0],[-86.38607,12.0899,0.0],[-86.38615,12.09019,0.0],[-86.38626,12.09076,0.0],[-86.38628,12.09097,0.0],[-86.3863,12.09125,0.0],[-86.38633,12.09141,0.0],[-86.38637,12.09153,0.0],[-86.38642,12.09163,0.0],[-86.3865,12.09171,0.0],[-86.3869,12.09213,0.0],[-86.38699,12.09224,0.0],[-86.38709,12.09241,0.0],[-86.38715,12.09259,0.0],[-86.38716,12.09271,0.0],[-86.38715,12.093,0.0],[-86.3871,12.09326,0.0],[-86.38708,12.09342,0.0],[-86.38709,12.09357,0.0],[-86.38712,12.09366,0.0],[-86.38721,12.09388,0.0],[-86.38735,12.09408,0.0],[-86.38749,12.09439,0.0],[-86.38754,12.09448,0.0],[-86.38756,12.09459,0.0],[-86.38763,12.09514,0.0],[-86.38765,12.09524,0.0],[-86.38768,12.09532,0.0],[-86.38799,12.09582,0.0],[-86.3881,12.09604,0.0],[-86.38816,12.09619,0.0],[-86.3882,12.09631,0.0],[-86.38824,12.09644,0.0],[-86.3883,12.09657,0.0],[-86.38837,12.09664,0.0],[-86.38864,12.0969,0.0],[-86.38886,12.09712,0.0],[-86.38907,12.09743,0.0],[-86.38917,12.09756,0.0],[-86.3893,12.09769,0.0],[-86.38945,12.09781,0.0],[-86.38962,12.0979,0.0],[-86.39009,12.09803,0.0],[-86.39034,12.09813,0.0],[-86.39043,12.09819,0.0],[-86.39051,12.09828,0.0],[-86.39057,12.09839,0.0],[-86.39064,12.09861,0.0],[-86.39067,12.09887,0.0],[-86.39068,12.09903,0.0],[-86.3906,12.09969,0.0],[-86.39059,12.09983,0.0],[-86.3906,12.09999,0.0],[-86.39065,12.10017,0.0],[-86.39082,12.10058,0.0],[-86.39106,12.10118,0.0],[-86.39112,12.10127,0.0],[-86.39124,12.10145,0.0],[-86.3913,12.10167,0.0],[-86.39136,12.10191,0.0],[-86.39141,12.1021,0.0],[-86.39143,12.10224,0.0],[-86.39151,12.10249,0.0],[-86.39157,12.10268,0.0],[-86.39165,12.10278,0.0],[-86.39171,12.10288,0.0],[-86.39176,12.10299,0.0],[-86.39177,12.10309,0.0],[-86.39176,12.10324,0.0],[-86.39172,12.10343,0.0],[-86.39165,12.10356,0.0],[-86.39156,12.10371,0.0],[-86.39152,12.10396,0.0],[-86.39149,12.1046,0.0],[-86.38773,12.10609,0.0],[-86.38566,12.10507,0.0],[-86.38432,12.10567,0.0],[-86.38363,12.10633,0.0],[-86.38251,12.10698,0.0],[-86.38214,12.10712,0.0],[-86.38139,12.1071,0.0],[-86.3802,12.10766,0.0],[-86.37908,12.10807,0.0],[-86.37863,12.10816,0.0],[-86.3782,12.10814,0.0],[-86.37775,12.10801,0.0],[-86.37705,12.10776,0.0],[-86.37631,12.10766,0.0],[-86.37533,12.10777,0.0],[-86.3752,12.10765,0.0],[-86.37556,12.10698,0.0],[-86.37599,12.10658,0.0],[-86.37696,12.10593,0.0],[-86.37726,12.10567,0.0],[-86.37746,12.10526,0.0],[-86.37664,12.10529,0.0],[-86.37599,12.10523,0.0],[-86.37542,12.10493,0.0],[-86.37303,12.10233,0.0],[-86.37027,12.10617,0.0],[-86.36833,12.10844,0.0],[-86.36785,12.10889,0.0],[-86.36629,12.10986,0.0],[-86.36579,12.10469,0.0],[-86.36556,12.10082,0.0],[-86.36543,12.10091,0.0],[-86.36531,12.10098,0.0],[-86.36516,12.10104,0.0],[-86.36505,12.10103,0.0],[-86.36497,12.101,0.0],[-86.36486,12.10092,0.0],[-86.3647,12.10081,0.0],[-86.36456,12.10073,0.0],[-86.36437,12.10067,0.0],[-86.36415,12.10064,0.0],[-86.36395,12.10064,0.0],[-86.36373,12.1007,0.0],[-86.36357,12.10076,0.0],[-86.36342,12.10092,0.0],[-86.36321,12.10109,0.0],[-86.36303,12.10119,0.0],[-86.36275,12.10132,0.0],[-86.36254,12.10141,0.0],[-86.36238,12.10149,0.0],[-86.36224,12.10164,0.0],[-86.36214,12.10189,0.0],[-86.36207,12.10213,0.0],[-86.36207,12.10239,0.0],[-86.3621,12.10261,0.0],[-86.36224,12.10302,0.0],[-86.36231,12.10328,0.0],[-86.36234,12.10364,0.0],[-86.3624,12.10477,0.0],[-86.36251,12.10599,0.0],[-86.36258,12.10648,0.0],[-86.36259,12.10673,0.0],[-86.36262,12.1074,0.0],[-86.36274,12.10864,0.0],[-86.36275,12.10875,0.0],[-86.36279,12.10935,0.0],[-86.36276,12.1095,0.0],[-86.35534,12.10898,0.0],[-86.35519,12.10925,0.0],[-86.35505,12.10947,0.0],[-86.35474,12.10962,0.0],[-86.35457,12.1097,0.0],[-86.35423,12.10974,0.0],[-86.35414,12.10977,0.0],[-86.35358,12.10983,0.0],[-86.35285,12.11003,0.0],[-86.35314,12.11101,0.0],[-86.35349,12.11262,0.0],[-86.35367,12.11337,0.0],[-86.35372,12.11362,0.0],[-86.35373,12.11391,0.0],[-86.35371,12.11419,0.0],[-86.35371,12.1144,0.0],[-86.35379,12.1148,0.0],[-86.35383,12.11506,0.0],[-86.35388,12.11708,0.0],[-86.34988,12.11704,0.0],[-86.35005,12.11964,0.0],[-86.34814,12.11967,0.0],[-86.34832,12.11747,0.0],[-86.34777,12.1173,0.0],[-86.34743,12.11723,0.0],[-86.34709,12.11718,0.0],[-86.34659,12.11715,0.0],[-86.34354,12.1168,0.0],[-86.34229,12.1226,0.0],[-86.33519,12.12218,0.0],[-86.33465,12.12203,0.0],[-86.33437,12.1219,0.0],[-86.33397,12.12164,0.0],[-86.32755,12.11727,0.0]]]]}},{"type":"Feature","properties":{"uesi_id":"NIC_R5835475","nbhd_code":"NIC_R5835475_126","nbhd_name":"Distrito IV"},"geometry":{"type":"MultiPolygon","coordinates":[[[[-86.25854,12.15518,0.0],[-86.25853,12.15523,0.0],[-86.2583,12.15523,0.0],[-86.25806,12.15714,0.0],[-86.25478,12.15695,0.0],[-86.25114,12.1581,0.0],[-86.24771,12.16063,0.0],[-86.24436,12.16152,0.0],[-86.24305,12.16251,0.0],[-86.24106,12.16448,0.0],[-86.23808,12.16453,0.0],[-86.23612,12.16233,0.0],[-86.23484,12.16382,0.0],[-86.22905,12.16629,0.0],[-86.22408,12.16587,0.0],[-86.2241,12.16379,0.0],[-86.22337,12.16336,0.0],[-86.22371,12.16206,0.0],[-86.22372,12.16101,0.0],[-86.22373,12.15998,0.0],[-86.22378,12.15714,0.0],[-86.22379,12.15665,0.0],[-86.2238,12.15633,0.0],[-86.22379,12.15605,0.0],[-86.22385,12.15397,0.0],[-86.22386,12.15368,0.0],[-86.22387,12.1534,0.0],[-86.2239,12.15237,0.0],[-86.22391,12.15182,0.0],[-86.22391,12.15152,0.0],[-86.2239,12.1513,0.0],[-86.2239,12.15114,0.0],[-86.22386,12.151,0.0],[-86.22381,12.1509,0.0],[-86.22375,12.15081,0.0],[-86.22267,12.15066,0.0],[-86.22266,12.15024,0.0],[-86.22266,12.15016,0.0],[-86.22267,12.14977,0.0],[-86.22273,12.14791,0.0],[-86.22277,12.14679,0.0],[-86.22275,12.14647,0.0],[-86.22269,12.14614,0.0],[-86.2241,12.14621,0.0],[-86.22448,12.14422,0.0],[-86.22444,12.1441,0.0],[-86.22439,12.14386,0.0],[-86.22426,12.14361,0.0],[-86.2241,12.14329,0.0],[-86.22398,12.14308,0.0],[-86.22384,12.14288,0.0],[-86.22371,12.14276,0.0],[-86.22361,12.14264,0.0],[-86.2237,12.14244,0.0],[-86.22381,12.14246,0.0],[-86.22394,12.14246,0.0],[-86.2241,12.14241,0.0],[-86.22453,12.14217,0.0],[-86.22466,12.14206,0.0],[-86.22472,12.14193,0.0],[-86.22476,12.14178,0.0],[-86.22484,12.14148,0.0],[-86.22489,12.14126,0.0],[-86.22507,12.14086,0.0],[-86.2251,12.14079,0.0],[-86.22526,12.14054,0.0],[-86.22547,12.1403,0.0],[-86.22607,12.13971,0.0],[-86.22644,12.13934,0.0],[-86.22666,12.13913,0.0],[-86.22716,12.13863,0.0],[-86.22728,12.13847,0.0],[-86.22733,12.13834,0.0],[-86.22758,12.13839,0.0],[-86.22763,12.13841,0.0],[-86.22778,12.1382,0.0],[-86.22791,12.138,0.0],[-86.22804,12.13778,0.0],[-86.2282,12.13748,0.0],[-86.2312,12.13043,0.0],[-86.23139,12.13044,0.0],[-86.2319,12.1306,0.0],[-86.23197,12.13065,0.0],[-86.232,12.13067,0.0],[-86.23207,12.13069,0.0],[-86.23219,12.13073,0.0],[-86.23228,12.13076,0.0],[-86.23271,12.13092,0.0],[-86.23285,12.13098,0.0],[-86.23314,12.1311,0.0],[-86.23343,12.13125,0.0],[-86.23379,12.13143,0.0],[-86.23398,12.13153,0.0],[-86.2342,12.13165,0.0],[-86.23471,12.13192,0.0],[-86.23513,12.13219,0.0],[-86.23576,12.13263,0.0],[-86.2362,12.13292,0.0],[-86.23663,12.1332,0.0],[-86.23695,12.13341,0.0],[-86.23718,12.13355,0.0],[-86.23764,12.13381,0.0],[-86.23805,12.13403,0.0],[-86.23836,12.13419,0.0],[-86.23854,12.13428,0.0],[-86.23885,12.13442,0.0],[-86.23929,12.13456,0.0],[-86.23938,12.13455,0.0],[-86.23964,12.13242,0.0],[-86.2397,12.13193,0.0],[-86.24014,12.13204,0.0],[-86.24038,12.13221,0.0],[-86.24054,12.13356,0.0],[-86.24181,12.13365,0.0],[-86.24182,12.13538,0.0],[-86.24204,12.13547,0.0],[-86.2437,12.1362,0.0],[-86.24408,12.135,0.0],[-86.24418,12.13501,0.0],[-86.24453,12.13505,0.0],[-86.24498,12.13512,0.0],[-86.24526,12.13517,0.0],[-86.24522,12.13536,0.0],[-86.24518,12.13623,0.0],[-86.24607,12.13617,0.0],[-86.24678,12.13596,0.0],[-86.25059,12.13632,0.0],[-86.25084,12.13651,0.0],[-86.2512,12.13721,0.0],[-86.25326,12.13597,0.0],[-86.25366,12.13571,0.0],[-86.25387,12.13558,0.0],[-86.2543,12.13531,0.0],[-86.25449,12.13517,0.0],[-86.25467,12.13502,0.0],[-86.25473,12.13496,0.0],[-86.25495,12.13473,0.0],[-86.25504,12.13462,0.0],[-86.25513,12.13454,0.0],[-86.25518,12.13448,0.0],[-86.25525,12.13441,0.0],[-86.25531,12.13434,0.0],[-86.25551,12.13414,0.0],[-86.25557,12.13407,0.0],[-86.25562,12.13402,0.0],[-86.25601,12.13361,0.0],[-86.25638,12.13335,0.0],[-86.25667,12.13319,0.0],[-86.25704,12.13301,0.0],[-86.25734,12.13291,0.0],[-86.25742,12.13294,0.0],[-86.25751,12.13308,0.0],[-86.2576,12.13328,0.0],[-86.25776,12.13378,0.0],[-86.25781,12.13388,0.0],[-86.25782,12.13391,0.0],[-86.25788,12.13413,0.0],[-86.25798,12.13447,0.0],[-86.25819,12.13521,0.0],[-86.25835,12.1358,0.0],[-86.25848,12.13629,0.0],[-86.25852,12.13646,0.0],[-86.25864,12.13692,0.0],[-86.25871,12.13719,0.0],[-86.25876,12.13738,0.0],[-86.25878,12.13746,0.0],[-86.2589,12.13788,0.0],[-86.25908,12.13848,0.0],[-86.25916,12.13877,0.0],[-86.25921,12.13896,0.0],[-86.25937,12.1395,0.0],[-86.2595,12.14004,0.0],[-86.25954,12.14021,0.0],[-86.25957,12.14042,0.0],[-86.25963,12.14081,0.0],[-86.25969,12.14111,0.0],[-86.25973,12.14157,0.0],[-86.25978,12.14215,0.0],[-86.25978,12.1423,0.0],[-86.25979,12.14292,0.0],[-86.25993,12.14356,0.0],[-86.25994,12.14364,0.0],[-86.26011,12.1443,0.0],[-86.26022,12.14469,0.0],[-86.26031,12.14495,0.0],[-86.26045,12.14528,0.0],[-86.26053,12.14543,0.0],[-86.2606,12.14558,0.0],[-86.26067,12.14569,0.0],[-86.26081,12.14586,0.0],[-86.2614,12.14636,0.0],[-86.26162,12.14656,0.0],[-86.26208,12.14705,0.0],[-86.26265,12.14762,0.0],[-86.26351,12.14834,0.0],[-86.26407,12.14888,0.0],[-86.26419,12.14898,0.0],[-86.26494,12.14963,0.0],[-86.26487,12.14981,0.0],[-86.26469,12.15039,0.0],[-86.26464,12.15053,0.0],[-86.26372,12.15057,0.0],[-86.26282,12.15056,0.0],[-86.26282,12.15056,0.0],[-86.2619,12.15053,0.0],[-86.26106,12.15048,0.0],[-86.26012,12.15045,0.0],[-86.25958,12.15042,0.0],[-86.25925,12.1504,0.0],[-86.2591,12.15105,0.0],[-86.259,12.15126,0.0],[-86.25882,12.15192,0.0],[-86.25873,12.1525,0.0],[-86.25868,12.15274,0.0],[-86.25854,12.15351,0.0],[-86.25927,12.15358,0.0],[-86.25899,12.15378,0.0],[-86.25894,12.15458,0.0],[-86.25859,12.15456,0.0],[-86.25854,12.15518,0.0]]]]}},{"type":"Feature","properties":{"uesi_id":"NIC_R5835475","nbhd_code":"NIC_R5835475_127","nbhd_name":"Distrito VII"},"geometry":{"type":"MultiPolygon","coordinates":[[[[-86.23031,12.13021,0.0],[-86.2312,12.13043,0.0],[-86.2282,12.13748,0.0],[-86.22804,12.13778,0.0],[-86.22791,12.138,0.0],[-86.22778,12.1382,0.0],[-86.22763,12.13841,0.0],[-86.22758,12.13839,0.0],[-86.22733,12.13834,0.0],[-86.2273,12.13834,0.0],[-86.22724,12.13833,0.0],[-86.22708,12.13832,0.0],[-86.22691,12.1383,0.0],[-86.22663,12.13829,0.0],[-86.22508,12.13826,0.0],[-86.22427,12.13827,0.0],[-86.22406,12.13833,0.0],[-86.22388,12.13839,0.0],[-86.22386,12.13839,0.0],[-86.22343,12.13849,0.0],[-86.22291,12.13849,0.0],[-86.22099,12.1384,0.0],[-86.22064,12.13836,0.0],[-86.22048,12.13836,0.0],[-86.21976,12.1383,0.0],[-86.21971,12.13829,0.0],[-86.2196,12.13828,0.0],[-86.2193,12.13825,0.0],[-86.2192,12.13824,0.0],[-86.21903,12.13819,0.0],[-86.21911,12.13692,0.0],[-86.2189,12.13689,0.0],[-86.21817,12.13678,0.0],[-86.21759,12.13667,0.0],[-86.21705,12.13655,0.0],[-86.21698,12.13703,0.0],[-86.21657,12.13765,0.0],[-86.21635,12.13799,0.0],[-86.21599,12.13853,0.0],[-86.21589,12.13874,0.0],[-86.21576,12.13903,0.0],[-86.21564,12.13967,0.0],[-86.21551,12.14044,0.0],[-86.21549,12.14054,0.0],[-86.21546,12.1407,0.0],[-86.21535,12.14067,0.0],[-86.21482,12.1405,0.0],[-86.21434,12.14039,0.0],[-86.21306,12.14011,0.0],[-86.21299,12.14009,0.0],[-86.21254,12.14,0.0],[-86.21141,12.13976,0.0],[-86.21106,12.1397,0.0],[-86.21096,12.13969,0.0],[-86.21085,12.13967,0.0],[-86.21025,12.13958,0.0],[-86.21027,12.13946,0.0],[-86.21028,12.13934,0.0],[-86.21001,12.1393,0.0],[-86.20903,12.13919,0.0],[-86.20798,12.13914,0.0],[-86.20751,12.13912,0.0],[-86.20725,12.1391,0.0],[-86.20728,12.13895,0.0],[-86.20746,12.13861,0.0],[-86.20772,12.1382,0.0],[-86.20825,12.13738,0.0],[-86.20846,12.13708,0.0],[-86.2085,12.13689,0.0],[-86.20918,12.13689,0.0],[-86.20918,12.13688,0.0],[-86.20917,12.13671,0.0],[-86.20917,12.1366,0.0],[-86.20905,12.13603,0.0],[-86.209,12.13574,0.0],[-86.20893,12.1353,0.0],[-86.20882,12.13482,0.0],[-86.20856,12.13389,0.0],[-86.20809,12.13219,0.0],[-86.20789,12.13121,0.0],[-86.20765,12.13132,0.0],[-86.20758,12.1315,0.0],[-86.20618,12.13127,0.0],[-86.20622,12.13068,0.0],[-86.20599,12.13068,0.0],[-86.20575,12.13066,0.0],[-86.20558,12.13065,0.0],[-86.20533,12.13063,0.0],[-86.20518,12.13061,0.0],[-86.20497,12.13059,0.0],[-86.20462,12.13054,0.0],[-86.20443,12.13117,0.0],[-86.20437,12.13134,0.0],[-86.20424,12.13171,0.0],[-86.20267,12.13148,0.0],[-86.20227,12.13118,0.0],[-86.20138,12.13047,0.0],[-86.20129,12.13061,0.0],[-86.19842,12.12959,0.0],[-86.19807,12.13057,0.0],[-86.1935,12.12985,0.0],[-86.19353,12.12979,0.0],[-86.19367,12.12948,0.0],[-86.19378,12.12942,0.0],[-86.19388,12.12938,0.0],[-86.19392,12.12924,0.0],[-86.19384,12.12913,0.0],[-86.1938,12.12895,0.0],[-86.19394,12.12866,0.0],[-86.19417,12.12819,0.0],[-86.19425,12.12804,0.0],[-86.19444,12.12783,0.0],[-86.19449,12.12767,0.0],[-86.19446,12.1275,0.0],[-86.19444,12.12726,0.0],[-86.19454,12.12693,0.0],[-86.19475,12.12659,0.0],[-86.19491,12.12642,0.0],[-86.19507,12.12637,0.0],[-86.19524,12.12626,0.0],[-86.19535,12.12604,0.0],[-86.1953,12.12587,0.0],[-86.19539,12.12569,0.0],[-86.19586,12.12474,0.0],[-86.19613,12.12425,0.0],[-86.19635,12.12381,0.0],[-86.19648,12.12354,0.0],[-86.19652,12.12345,0.0],[-86.19586,12.12328,0.0],[-86.19506,12.12311,0.0],[-86.19494,12.12311,0.0],[-86.19489,12.12311,0.0],[-86.1935,12.12306,0.0],[-86.19295,12.12304,0.0],[-86.19239,12.12304,0.0],[-86.19185,12.12306,0.0],[-86.19143,12.12307,0.0],[-86.19121,12.12307,0.0],[-86.1911,12.12307,0.0],[-86.19066,12.12308,0.0],[-86.19031,12.12307,0.0],[-86.18979,12.12308,0.0],[-86.18932,12.12313,0.0],[-86.18858,12.12325,0.0],[-86.18821,12.12331,0.0],[-86.18815,12.12332,0.0],[-86.18767,12.12341,0.0],[-86.18741,12.12345,0.0],[-86.18719,12.12348,0.0],[-86.18616,12.12359,0.0],[-86.18416,12.12375,0.0],[-86.18382,12.12377,0.0],[-86.1838,12.12378,0.0],[-86.18373,12.12378,0.0],[-86.18228,12.12389,0.0],[-86.18154,12.12404,0.0],[-86.18103,12.12425,0.0],[-86.18064,12.12443,0.0],[-86.18056,12.12448,0.0],[-86.18017,12.12465,0.0],[-86.17963,12.12479,0.0],[-86.17908,12.12484,0.0],[-86.17698,12.12488,0.0],[-86.17571,12.12491,0.0],[-86.17472,12.12493,0.0],[-86.17461,12.12494,0.0],[-86.17338,12.12501,0.0],[-86.17331,12.12502,0.0],[-86.17301,12.12467,0.0],[-86.17155,12.12295,0.0],[-86.17004,12.12123,0.0],[-86.16944,12.12049,0.0],[-86.16829,12.12139,0.0],[-86.16846,12.12197,0.0],[-86.1679,12.12292,0.0],[-86.16687,12.12242,0.0],[-86.16669,12.12277,0.0],[-86.1657,12.12223,0.0],[-86.16556,12.12273,0.0],[-86.1652,12.12252,0.0],[-86.16495,12.12239,0.0],[-86.16489,12.12239,0.0],[-86.16484,12.12241,0.0],[-86.16472,12.12252,0.0],[-86.1622,12.12624,0.0],[-86.16207,12.12648,0.0],[-86.16205,12.12704,0.0],[-86.16196,12.1276,0.0],[-86.16192,12.12777,0.0],[-86.1618,12.12793,0.0],[-86.16167,12.12797,0.0],[-86.16083,12.12806,0.0],[-86.16034,12.12817,0.0],[-86.15994,12.12842,0.0],[-86.15987,12.12854,0.0],[-86.1595,12.12885,0.0],[-86.15948,12.12885,0.0],[-86.15904,12.12928,0.0],[-86.1588,12.12956,0.0],[-86.15857,12.12989,0.0],[-86.15801,12.13065,0.0],[-86.15784,12.13079,0.0],[-86.15757,12.13093,0.0],[-86.15527,12.13206,0.0],[-86.15445,12.13261,0.0],[-86.15284,12.1339,0.0],[-86.15473,12.1262,0.0],[-86.15506,12.12564,0.0],[-86.15678,12.12372,0.0],[-86.15275,12.12105,0.0],[-86.15232,12.12236,0.0],[-86.14483,12.12055,0.0],[-86.14399,12.12369,0.0],[-86.13507,12.12067,0.0],[-86.14506,12.09873,0.0],[-86.17072,12.09166,0.0],[-86.18001,12.08539,0.0],[-86.18293,12.08621,0.0],[-86.18316,12.08632,0.0],[-86.18324,12.08637,0.0],[-86.18408,12.08714,0.0],[-86.18426,12.08723,0.0],[-86.18505,12.08748,0.0],[-86.1865,12.08787,0.0],[-86.18806,12.08666,0.0],[-86.18812,12.0866,0.0],[-86.19003,12.08495,0.0],[-86.19048,12.08457,0.0],[-86.19125,12.08384,0.0],[-86.19182,12.08324,0.0],[-86.19197,12.0834,0.0],[-86.1925,12.08395,0.0],[-86.19295,12.08439,0.0],[-86.19324,12.08481,0.0],[-86.18789,12.09925,0.0],[-86.19057,12.1002,0.0],[-86.1903,12.10082,0.0],[-86.19228,12.10134,0.0],[-86.19259,12.10101,0.0],[-86.19286,12.10036,0.0],[-86.1933,12.09971,0.0],[-86.19368,12.09949,0.0],[-86.19485,12.09915,0.0],[-86.19615,12.09859,0.0],[-86.19737,12.09814,0.0],[-86.1967,12.09974,0.0],[-86.19658,12.10007,0.0],[-86.19648,12.10093,0.0],[-86.19607,12.1042,0.0],[-86.19597,12.10457,0.0],[-86.19592,12.10482,0.0],[-86.19583,12.10569,0.0],[-86.1958,12.10591,0.0],[-86.1957,12.10641,0.0],[-86.19569,12.1066,0.0],[-86.19566,12.10686,0.0],[-86.19567,12.10722,0.0],[-86.19567,12.10734,0.0],[-86.19562,12.10766,0.0],[-86.19561,12.10773,0.0],[-86.19599,12.10791,0.0],[-86.19636,12.10808,0.0],[-86.19702,12.10841,0.0],[-86.19691,12.10872,0.0],[-86.19728,12.10882,0.0],[-86.19737,12.10888,0.0],[-86.19741,12.10895,0.0],[-86.19727,12.10931,0.0],[-86.19711,12.10981,0.0],[-86.19738,12.11,0.0],[-86.19766,12.11015,0.0],[-86.19781,12.1102,0.0],[-86.1982,12.11026,0.0],[-86.1984,12.11005,0.0],[-86.19873,12.11023,0.0],[-86.19909,12.11041,0.0],[-86.19947,12.11061,0.0],[-86.19985,12.11066,0.0],[-86.20029,12.11069,0.0],[-86.20018,12.11155,0.0],[-86.20271,12.11173,0.0],[-86.20479,12.11241,0.0],[-86.20805,12.11307,0.0],[-86.20831,12.11315,0.0],[-86.20851,12.11327,0.0],[-86.21179,12.11559,0.0],[-86.21182,12.11535,0.0],[-86.21296,12.11552,0.0],[-86.21293,12.11579,0.0],[-86.21417,12.11601,0.0],[-86.21426,12.11541,0.0],[-86.21433,12.11499,0.0],[-86.21438,12.11454,0.0],[-86.21442,12.11415,0.0],[-86.21447,12.11373,0.0],[-86.21452,12.11332,0.0],[-86.21455,12.11299,0.0],[-86.21589,12.11332,0.0],[-86.2159,12.11341,0.0],[-86.21586,12.11354,0.0],[-86.21585,12.1136,0.0],[-86.21585,12.11389,0.0],[-86.21581,12.11433,0.0],[-86.21576,12.11475,0.0],[-86.21572,12.11523,0.0],[-86.21566,12.11568,0.0],[-86.21561,12.11629,0.0],[-86.216,12.11626,0.0],[-86.21621,12.11623,0.0],[-86.21685,12.11613,0.0],[-86.21683,12.11625,0.0],[-86.21805,12.11599,0.0],[-86.21821,12.11596,0.0],[-86.21936,12.11576,0.0],[-86.21918,12.11668,0.0],[-86.21954,12.11661,0.0],[-86.22004,12.11647,0.0],[-86.22024,12.11641,0.0],[-86.22041,12.11638,0.0],[-86.22058,12.11633,0.0],[-86.22108,12.11616,0.0],[-86.22109,12.11664,0.0],[-86.22104,12.11712,0.0],[-86.22142,12.11701,0.0],[-86.22187,12.1169,0.0],[-86.22233,12.11677,0.0],[-86.22241,12.11675,0.0],[-86.22344,12.11646,0.0],[-86.22394,12.11629,0.0],[-86.22411,12.11626,0.0],[-86.22433,12.11619,0.0],[-86.22443,12.11616,0.0],[-86.22456,12.11612,0.0],[-86.22498,12.116,0.0],[-86.22518,12.11595,0.0],[-86.22598,12.1157,0.0],[-86.22633,12.11556,0.0],[-86.22706,12.11516,0.0],[-86.22738,12.11546,0.0],[-86.22713,12.11574,0.0],[-86.22683,12.11607,0.0],[-86.22674,12.11613,0.0],[-86.22659,12.1162,0.0],[-86.22641,12.11624,0.0],[-86.22622,12.11627,0.0],[-86.22622,12.11636,0.0],[-86.22637,12.1166,0.0],[-86.22644,12.11685,0.0],[-86.22657,12.11706,0.0],[-86.22677,12.11748,0.0],[-86.22683,12.118,0.0],[-86.22687,12.11826,0.0],[-86.22708,12.11858,0.0],[-86.22757,12.11949,0.0],[-86.22775,12.11974,0.0],[-86.22789,12.11993,0.0],[-86.22803,12.12021,0.0],[-86.228,12.12052,0.0],[-86.22792,12.12075,0.0],[-86.22776,12.12104,0.0],[-86.22749,12.1214,0.0],[-86.2274,12.12156,0.0],[-86.22735,12.12167,0.0],[-86.2273,12.12179,0.0],[-86.2272,12.12207,0.0],[-86.22695,12.12275,0.0],[-86.22669,12.12366,0.0],[-86.22646,12.12458,0.0],[-86.22623,12.12561,0.0],[-86.22586,12.12765,0.0],[-86.22563,12.12874,0.0],[-86.22536,12.12935,0.0],[-86.22543,12.12943,0.0],[-86.2257,12.12947,0.0],[-86.22644,12.12953,0.0],[-86.2265,12.12953,0.0],[-86.22702,12.12961,0.0],[-86.2272,12.12963,0.0],[-86.22832,12.12978,0.0],[-86.22869,12.12982,0.0],[-86.22904,12.1299,0.0],[-86.22956,12.13004,0.0],[-86.22996,12.13014,0.0],[-86.23031,12.13021,0.0]]]]}},{"type":"Feature","properties":{"uesi_id":"NIC_R5835475","nbhd_code":"NIC_R5835475_128","nbhd_name":"Distrito VI"},"geometry":{"type":"MultiPolygon","coordinates":[[[[-86.22371,12.16206,0.0],[-86.22337,12.16336,0.0],[-86.2241,12.16379,0.0],[-86.22408,12.16587,0.0],[-86.20563,12.16471,0.0],[-86.20044,12.16774,0.0],[-86.19506,12.16811,0.0],[-86.19001,12.17293,0.0],[-86.18385,12.17464,0.0],[-86.17858,12.17103,0.0],[-86.1611,12.17501,0.0],[-86.14942,12.17481,0.0],[-86.1496,12.16538,0.0],[-86.14745,12.16554,0.0],[-86.14705,12.16201,0.0],[-86.14535,12.15982,0.0],[-86.1455,12.15809,0.0],[-86.14341,12.15548,0.0],[-86.14354,12.15426,0.0],[-86.14198,12.15217,0.0],[-86.14108,12.14987,0.0],[-86.13922,12.14879,0.0],[-86.13761,12.14551,0.0],[-86.12571,12.14117,0.0],[-86.13507,12.12067,0.0],[-86.14399,12.12369,0.0],[-86.14483,12.12055,0.0],[-86.15232,12.12236,0.0],[-86.15275,12.12105,0.0],[-86.15678,12.12372,0.0],[-86.15506,12.12564,0.0],[-86.15473,12.1262,0.0],[-86.15284,12.1339,0.0],[-86.15445,12.13261,0.0],[-86.15527,12.13206,0.0],[-86.15757,12.13093,0.0],[-86.15784,12.13079,0.0],[-86.15801,12.13065,0.0],[-86.15857,12.12989,0.0],[-86.1588,12.12956,0.0],[-86.15904,12.12928,0.0],[-86.15948,12.12885,0.0],[-86.1595,12.12885,0.0],[-86.15987,12.12854,0.0],[-86.15994,12.12842,0.0],[-86.16034,12.12817,0.0],[-86.16083,12.12806,0.0],[-86.16167,12.12797,0.0],[-86.1618,12.12793,0.0],[-86.16192,12.12777,0.0],[-86.16196,12.1276,0.0],[-86.16205,12.12704,0.0],[-86.16207,12.12648,0.0],[-86.1622,12.12624,0.0],[-86.16472,12.12252,0.0],[-86.16484,12.12241,0.0],[-86.16489,12.12239,0.0],[-86.16495,12.12239,0.0],[-86.1652,12.12252,0.0],[-86.16556,12.12273,0.0],[-86.1657,12.12223,0.0],[-86.16669,12.12277,0.0],[-86.16687,12.12242,0.0],[-86.1679,12.12292,0.0],[-86.16846,12.12197,0.0],[-86.16829,12.12139,0.0],[-86.16944,12.12049,0.0],[-86.17004,12.12123,0.0],[-86.17155,12.12295,0.0],[-86.17301,12.12467,0.0],[-86.17331,12.12502,0.0],[-86.17338,12.12501,0.0],[-86.17461,12.12494,0.0],[-86.17472,12.12493,0.0],[-86.17571,12.12491,0.0],[-86.17698,12.12488,0.0],[-86.17908,12.12484,0.0],[-86.17963,12.12479,0.0],[-86.18017,12.12465,0.0],[-86.18056,12.12448,0.0],[-86.18064,12.12443,0.0],[-86.18103,12.12425,0.0],[-86.18154,12.12404,0.0],[-86.18228,12.12389,0.0],[-86.18373,12.12378,0.0],[-86.1838,12.12378,0.0],[-86.18382,12.12377,0.0],[-86.18416,12.12375,0.0],[-86.18616,12.12359,0.0],[-86.18719,12.12348,0.0],[-86.18741,12.12345,0.0],[-86.18767,12.12341,0.0],[-86.18815,12.12332,0.0],[-86.18821,12.12331,0.0],[-86.18858,12.12325,0.0],[-86.18932,12.12313,0.0],[-86.18979,12.12308,0.0],[-86.19031,12.12307,0.0],[-86.19066,12.12308,0.0],[-86.1911,12.12307,0.0],[-86.19121,12.12307,0.0],[-86.19143,12.12307,0.0],[-86.19185,12.12306,0.0],[-86.19239,12.12304,0.0],[-86.19295,12.12304,0.0],[-86.1935,12.12306,0.0],[-86.19489,12.12311,0.0],[-86.19494,12.12311,0.0],[-86.19506,12.12311,0.0],[-86.19586,12.12328,0.0],[-86.19652,12.12345,0.0],[-86.19648,12.12354,0.0],[-86.19635,12.12381,0.0],[-86.19613,12.12425,0.0],[-86.19586,12.12474,0.0],[-86.19539,12.12569,0.0],[-86.1953,12.12587,0.0],[-86.19535,12.12604,0.0],[-86.19524,12.12626,0.0],[-86.19507,12.12637,0.0],[-86.19491,12.12642,0.0],[-86.19475,12.12659,0.0],[-86.19454,12.12693,0.0],[-86.19444,12.12726,0.0],[-86.19446,12.1275,0.0],[-86.19449,12.12767,0.0],[-86.19444,12.12783,0.0],[-86.19425,12.12804,0.0],[-86.19417,12.12819,0.0],[-86.19394,12.12866,0.0],[-86.1938,12.12895,0.0],[-86.19384,12.12913,0.0],[-86.19392,12.12924,0.0],[-86.19388,12.12938,0.0],[-86.19378,12.12942,0.0],[-86.19367,12.12948,0.0],[-86.19353,12.12979,0.0],[-86.1935,12.12985,0.0],[-86.19807,12.13057,0.0],[-86.19842,12.12959,0.0],[-86.20129,12.13061,0.0],[-86.20138,12.13047,0.0],[-86.20227,12.13118,0.0],[-86.20267,12.13148,0.0],[-86.20424,12.13171,0.0],[-86.20437,12.13134,0.0],[-86.20443,12.13117,0.0],[-86.20462,12.13054,0.0],[-86.20497,12.13059,0.0],[-86.20518,12.13061,0.0],[-86.20533,12.13063,0.0],[-86.20558,12.13065,0.0],[-86.20575,12.13066,0.0],[-86.20599,12.13068,0.0],[-86.20622,12.13068,0.0],[-86.20618,12.13127,0.0],[-86.20758,12.1315,0.0],[-86.20765,12.13132,0.0],[-86.20789,12.13121,0.0],[-86.20809,12.13219,0.0],[-86.20856,12.13389,0.0],[-86.20882,12.13482,0.0],[-86.20893,12.1353,0.0],[-86.209,12.13574,0.0],[-86.20905,12.13603,0.0],[-86.20917,12.1366,0.0],[-86.20917,12.13671,0.0],[-86.20918,12.13688,0.0],[-86.20918,12.13689,0.0],[-86.2085,12.13689,0.0],[-86.20846,12.13708,0.0],[-86.20825,12.13738,0.0],[-86.20772,12.1382,0.0],[-86.20746,12.13861,0.0],[-86.20728,12.13895,0.0],[-86.20725,12.1391,0.0],[-86.20751,12.13912,0.0],[-86.20798,12.13914,0.0],[-86.20903,12.13919,0.0],[-86.21001,12.1393,0.0],[-86.21028,12.13934,0.0],[-86.21027,12.13946,0.0],[-86.21025,12.13958,0.0],[-86.21085,12.13967,0.0],[-86.21096,12.13969,0.0],[-86.21106,12.1397,0.0],[-86.21141,12.13976,0.0],[-86.21254,12.14,0.0],[-86.21299,12.14009,0.0],[-86.21306,12.14011,0.0],[-86.21434,12.14039,0.0],[-86.21482,12.1405,0.0],[-86.21535,12.14067,0.0],[-86.21546,12.1407,0.0],[-86.21549,12.14054,0.0],[-86.21551,12.14044,0.0],[-86.21564,12.13967,0.0],[-86.21576,12.13903,0.0],[-86.21589,12.13874,0.0],[-86.21599,12.13853,0.0],[-86.21635,12.13799,0.0],[-86.21657,12.13765,0.0],[-86.21698,12.13703,0.0],[-86.21705,12.13655,0.0],[-86.21759,12.13667,0.0],[-86.21817,12.13678,0.0],[-86.2189,12.13689,0.0],[-86.21911,12.13692,0.0],[-86.21903,12.13819,0.0],[-86.2192,12.13824,0.0],[-86.2193,12.13825,0.0],[-86.2196,12.13828,0.0],[-86.21971,12.13829,0.0],[-86.21976,12.1383,0.0],[-86.22048,12.13836,0.0],[-86.22064,12.13836,0.0],[-86.22099,12.1384,0.0],[-86.22291,12.13849,0.0],[-86.22343,12.13849,0.0],[-86.22386,12.13839,0.0],[-86.22388,12.13839,0.0],[-86.22406,12.13833,0.0],[-86.22427,12.13827,0.0],[-86.22508,12.13826,0.0],[-86.22663,12.13829,0.0],[-86.22691,12.1383,0.0],[-86.22708,12.13832,0.0],[-86.22724,12.13833,0.0],[-86.2273,12.13834,0.0],[-86.22733,12.13834,0.0],[-86.22728,12.13847,0.0],[-86.22716,12.13863,0.0],[-86.22666,12.13913,0.0],[-86.22644,12.13934,0.0],[-86.22607,12.13971,0.0],[-86.22547,12.1403,0.0],[-86.22526,12.14054,0.0],[-86.2251,12.14079,0.0],[-86.22507,12.14086,0.0],[-86.22489,12.14126,0.0],[-86.22484,12.14148,0.0],[-86.22476,12.14178,0.0],[-86.22472,12.14193,0.0],[-86.22466,12.14206,0.0],[-86.22453,12.14217,0.0],[-86.2241,12.14241,0.0],[-86.22394,12.14246,0.0],[-86.22381,12.14246,0.0],[-86.2237,12.14244,0.0],[-86.22361,12.14264,0.0],[-86.22371,12.14276,0.0],[-86.22384,12.14288,0.0],[-86.22398,12.14308,0.0],[-86.2241,12.14329,0.0],[-86.22426,12.14361,0.0],[-86.22439,12.14386,0.0],[-86.22444,12.1441,0.0],[-86.22448,12.14422,0.0],[-86.2241,12.14621,0.0],[-86.22269,12.14614,0.0],[-86.22275,12.14647,0.0],[-86.22277,12.14679,0.0],[-86.22273,12.14791,0.0],[-86.22267,12.14977,0.0],[-86.22266,12.15016,0.0],[-86.22266,12.15024,0.0],[-86.22267,12.15066,0.0],[-86.22375,12.15081,0.0],[-86.22381,12.1509,0.0],[-86.22386,12.151,0.0],[-86.2239,12.15114,0.0],[-86.2239,12.1513,0.0],[-86.22391,12.15152,0.0],[-86.22391,12.15182,0.0],[-86.2239,12.15237,0.0],[-86.22387,12.1534,0.0],[-86.22386,12.15368,0.0],[-86.22385,12.15397,0.0],[-86.22379,12.15605,0.0],[-86.2238,12.15633,0.0],[-86.22379,12.15665,0.0],[-86.22378,12.15714,0.0],[-86.22373,12.15998,0.0],[-86.22372,12.16101,0.0],[-86.22371,12.16206,0.0]]]]}},{"type":"Feature","properties":{"uesi_id":"NIC_R5835475","nbhd_code":"NIC_R5835475_129","nbhd_name":"Distrito V"},"geometry":{"type":"MultiPolygon","coordinates":[[[[-86.24678,12.13042,0.0],[-86.2459,12.13165,0.0],[-86.24578,12.1319,0.0],[-86.24574,12.13215,0.0],[-86.24581,12.13283,0.0],[-86.24577,12.13323,0.0],[-86.24541,12.13452,0.0],[-86.24531,12.13493,0.0],[-86.24526,12.13517,0.0],[-86.24498,12.13512,0.0],[-86.24453,12.13505,0.0],[-86.24418,12.13501,0.0],[-86.24408,12.135,0.0],[-86.2437,12.1362,0.0],[-86.24204,12.13547,0.0],[-86.24182,12.13538,0.0],[-86.24181,12.13365,0.0],[-86.24054,12.13356,0.0],[-86.24038,12.13221,0.0],[-86.24014,12.13204,0.0],[-86.2397,12.13193,0.0],[-86.23964,12.13242,0.0],[-86.23938,12.13455,0.0],[-86.23929,12.13456,0.0],[-86.23885,12.13442,0.0],[-86.23854,12.13428,0.0],[-86.23836,12.13419,0.0],[-86.23805,12.13403,0.0],[-86.23764,12.13381,0.0],[-86.23718,12.13355,0.0],[-86.23695,12.13341,0.0],[-86.23663,12.1332,0.0],[-86.2362,12.13292,0.0],[-86.23576,12.13263,0.0],[-86.23513,12.13219,0.0],[-86.23471,12.13192,0.0],[-86.2342,12.13165,0.0],[-86.23398,12.13153,0.0],[-86.23379,12.13143,0.0],[-86.23343,12.13125,0.0],[-86.23314,12.1311,0.0],[-86.23285,12.13098,0.0],[-86.23271,12.13092,0.0],[-86.23228,12.13076,0.0],[-86.23219,12.13073,0.0],[-86.23207,12.13069,0.0],[-86.232,12.13067,0.0],[-86.23197,12.13065,0.0],[-86.2319,12.1306,0.0],[-86.23139,12.13044,0.0],[-86.2312,12.13043,0.0],[-86.23031,12.13021,0.0],[-86.22996,12.13014,0.0],[-86.22956,12.13004,0.0],[-86.22904,12.1299,0.0],[-86.22869,12.12982,0.0],[-86.22832,12.12978,0.0],[-86.2272,12.12963,0.0],[-86.22702,12.12961,0.0],[-86.2265,12.12953,0.0],[-86.22644,12.12953,0.0],[-86.2257,12.12947,0.0],[-86.22543,12.12943,0.0],[-86.22536,12.12935,0.0],[-86.22563,12.12874,0.0],[-86.22586,12.12765,0.0],[-86.22623,12.12561,0.0],[-86.22646,12.12458,0.0],[-86.22669,12.12366,0.0],[-86.22695,12.12275,0.0],[-86.2272,12.12207,0.0],[-86.2273,12.12179,0.0],[-86.22735,12.12167,0.0],[-86.2274,12.12156,0.0],[-86.22749,12.1214,0.0],[-86.22776,12.12104,0.0],[-86.22792,12.12075,0.0],[-86.228,12.12052,0.0],[-86.22803,12.12021,0.0],[-86.22789,12.11993,0.0],[-86.22775,12.11974,0.0],[-86.22757,12.11949,0.0],[-86.22708,12.11858,0.0],[-86.22687,12.11826,0.0],[-86.22683,12.118,0.0],[-86.22677,12.11748,0.0],[-86.22657,12.11706,0.0],[-86.22644,12.11685,0.0],[-86.22637,12.1166,0.0],[-86.22622,12.11636,0.0],[-86.22622,12.11627,0.0],[-86.22641,12.11624,0.0],[-86.22659,12.1162,0.0],[-86.22674,12.11613,0.0],[-86.22683,12.11607,0.0],[-86.22713,12.11574,0.0],[-86.22738,12.11546,0.0],[-86.22706,12.11516,0.0],[-86.22633,12.11556,0.0],[-86.22598,12.1157,0.0],[-86.22518,12.11595,0.0],[-86.22498,12.116,0.0],[-86.22456,12.11612,0.0],[-86.22443,12.11616,0.0],[-86.22433,12.11619,0.0],[-86.22411,12.11626,0.0],[-86.22394,12.11629,0.0],[-86.22344,12.11646,0.0],[-86.22241,12.11675,0.0],[-86.22233,12.11677,0.0],[-86.22187,12.1169,0.0],[-86.22142,12.11701,0.0],[-86.22104,12.11712,0.0],[-86.22109,12.11664,0.0],[-86.22108,12.11616,0.0],[-86.22058,12.11633,0.0],[-86.22041,12.11638,0.0],[-86.22024,12.11641,0.0],[-86.22004,12.11647,0.0],[-86.21954,12.11661,0.0],[-86.21918,12.11668,0.0],[-86.21936,12.11576,0.0],[-86.21821,12.11596,0.0],[-86.21805,12.11599,0.0],[-86.21683,12.11625,0.0],[-86.21685,12.11613,0.0],[-86.21621,12.11623,0.0],[-86.216,12.11626,0.0],[-86.21561,12.11629,0.0],[-86.21566,12.11568,0.0],[-86.21572,12.11523,0.0],[-86.21576,12.11475,0.0],[-86.21581,12.11433,0.0],[-86.21585,12.11389,0.0],[-86.21585,12.1136,0.0],[-86.21586,12.11354,0.0],[-86.2159,12.11341,0.0],[-86.21589,12.11332,0.0],[-86.21455,12.11299,0.0],[-86.21452,12.11332,0.0],[-86.21447,12.11373,0.0],[-86.21442,12.11415,0.0],[-86.21438,12.11454,0.0],[-86.21433,12.11499,0.0],[-86.21426,12.11541,0.0],[-86.21417,12.11601,0.0],[-86.21293,12.11579,0.0],[-86.21296,12.11552,0.0],[-86.21182,12.11535,0.0],[-86.21179,12.11559,0.0],[-86.20851,12.11327,0.0],[-86.20831,12.11315,0.0],[-86.20805,12.11307,0.0],[-86.20479,12.11241,0.0],[-86.20271,12.11173,0.0],[-86.20018,12.11155,0.0],[-86.20029,12.11069,0.0],[-86.19985,12.11066,0.0],[-86.19947,12.11061,0.0],[-86.19909,12.11041,0.0],[-86.19873,12.11023,0.0],[-86.1984,12.11005,0.0],[-86.1982,12.11026,0.0],[-86.19781,12.1102,0.0],[-86.19766,12.11015,0.0],[-86.19738,12.11,0.0],[-86.19711,12.10981,0.0],[-86.19727,12.10931,0.0],[-86.19741,12.10895,0.0],[-86.19737,12.10888,0.0],[-86.19728,12.10882,0.0],[-86.19691,12.10872,0.0],[-86.19702,12.10841,0.0],[-86.19636,12.10808,0.0],[-86.19599,12.10791,0.0],[-86.19561,12.10773,0.0],[-86.19562,12.10766,0.0],[-86.19567,12.10734,0.0],[-86.19567,12.10722,0.0],[-86.19566,12.10686,0.0],[-86.19569,12.1066,0.0],[-86.1957,12.10641,0.0],[-86.1958,12.10591,0.0],[-86.19583,12.10569,0.0],[-86.19592,12.10482,0.0],[-86.19597,12.10457,0.0],[-86.19607,12.1042,0.0],[-86.19648,12.10093,0.0],[-86.19658,12.10007,0.0],[-86.1967,12.09974,0.0],[-86.19737,12.09814,0.0],[-86.19615,12.09859,0.0],[-86.19485,12.09915,0.0],[-86.19368,12.09949,0.0],[-86.1933,12.09971,0.0],[-86.19286,12.10036,0.0],[-86.19259,12.10101,0.0],[-86.19228,12.10134,0.0],[-86.1903,12.10082,0.0],[-86.19057,12.1002,0.0],[-86.18789,12.09925,0.0],[-86.19324,12.08481,0.0],[-86.19295,12.08439,0.0],[-86.1925,12.08395,0.0],[-86.19197,12.0834,0.0],[-86.19182,12.08324,0.0],[-86.19125,12.08384,0.0],[-86.19048,12.08457,0.0],[-86.19003,12.08495,0.0],[-86.18812,12.0866,0.0],[-86.18806,12.08666,0.0],[-86.1865,12.08787,0.0],[-86.18505,12.08748,0.0],[-86.18426,12.08723,0.0],[-86.18408,12.08714,0.0],[-86.18324,12.08637,0.0],[-86.18316,12.08632,0.0],[-86.18293,12.08621,0.0],[-86.18001,12.08539,0.0],[-86.2108,12.06433,0.0],[-86.23753,12.03406,0.0],[-86.23796,12.03369,0.0],[-86.23877,12.03306,0.0],[-86.23947,12.03257,0.0],[-86.23977,12.03239,0.0],[-86.24016,12.03223,0.0],[-86.24037,12.03217,0.0],[-86.24066,12.03198,0.0],[-86.24105,12.03179,0.0],[-86.24126,12.03167,0.0],[-86.24145,12.03153,0.0],[-86.24171,12.03127,0.0],[-86.24192,12.03103,0.0],[-86.24239,12.03076,0.0],[-86.24303,12.0305,0.0],[-86.24341,12.03038,0.0],[-86.24365,12.03029,0.0],[-86.24376,12.03021,0.0],[-86.24391,12.03009,0.0],[-86.24423,12.02989,0.0],[-86.2445,12.02964,0.0],[-86.24478,12.02923,0.0],[-86.24501,12.02902,0.0],[-86.24533,12.0289,0.0],[-86.24599,12.02863,0.0],[-86.24644,12.0285,0.0],[-86.24672,12.02848,0.0],[-86.247,12.0285,0.0],[-86.24722,12.02855,0.0],[-86.24736,12.02863,0.0],[-86.24764,12.02865,0.0],[-86.24796,12.02849,0.0],[-86.24815,12.0283,0.0],[-86.24823,12.02809,0.0],[-86.24822,12.02789,0.0],[-86.24822,12.02773,0.0],[-86.24828,12.02764,0.0],[-86.24839,12.02764,0.0],[-86.24854,12.02765,0.0],[-86.2487,12.02763,0.0],[-86.24893,12.0276,0.0],[-86.24906,12.02762,0.0],[-86.24921,12.02756,0.0],[-86.24968,12.02726,0.0],[-86.24997,12.027,0.0],[-86.25006,12.02686,0.0],[-86.2501,12.02659,0.0],[-86.25013,12.02567,0.0],[-86.25015,12.02536,0.0],[-86.25024,12.0251,0.0],[-86.25054,12.02497,0.0],[-86.25082,12.02483,0.0],[-86.25118,12.02458,0.0],[-86.25135,12.02441,0.0],[-86.25152,12.0241,0.0],[-86.25171,12.02383,0.0],[-86.25174,12.02375,0.0],[-86.25187,12.02397,0.0],[-86.25193,12.02426,0.0],[-86.25205,12.0245,0.0],[-86.25212,12.0247,0.0],[-86.25215,12.0248,0.0],[-86.25217,12.0251,0.0],[-86.25217,12.02532,0.0],[-86.25219,12.02561,0.0],[-86.2522,12.02577,0.0],[-86.25231,12.02591,0.0],[-86.25246,12.02599,0.0],[-86.25253,12.02607,0.0],[-86.25262,12.02624,0.0],[-86.25265,12.02636,0.0],[-86.25265,12.02658,0.0],[-86.25262,12.0268,0.0],[-86.2526,12.02707,0.0],[-86.2526,12.02726,0.0],[-86.25267,12.02748,0.0],[-86.2527,12.02752,0.0],[-86.25279,12.02761,0.0],[-86.25289,12.02763,0.0],[-86.25293,12.02761,0.0],[-86.25299,12.02753,0.0],[-86.253,12.02743,0.0],[-86.25303,12.02722,0.0],[-86.2531,12.02708,0.0],[-86.25317,12.02701,0.0],[-86.25328,12.02694,0.0],[-86.25352,12.02695,0.0],[-86.25369,12.02699,0.0],[-86.25381,12.02693,0.0],[-86.25388,12.02686,0.0],[-86.25387,12.02676,0.0],[-86.25383,12.02652,0.0],[-86.25388,12.02634,0.0],[-86.25389,12.02622,0.0],[-86.25379,12.02617,0.0],[-86.25373,12.02601,0.0],[-86.25383,12.02582,0.0],[-86.2539,12.0257,0.0],[-86.25407,12.0256,0.0],[-86.25421,12.0255,0.0],[-86.25461,12.0255,0.0],[-86.25462,12.02565,0.0],[-86.25462,12.02595,0.0],[-86.25458,12.02625,0.0],[-86.25469,12.02655,0.0],[-86.25481,12.02678,0.0],[-86.25489,12.02692,0.0],[-86.25494,12.02711,0.0],[-86.25498,12.02723,0.0],[-86.25503,12.0274,0.0],[-86.25508,12.02759,0.0],[-86.25515,12.02779,0.0],[-86.25514,12.02797,0.0],[-86.25515,12.02811,0.0],[-86.25534,12.02845,0.0],[-86.25546,12.02817,0.0],[-86.25614,12.02805,0.0],[-86.25636,12.02734,0.0],[-86.25666,12.02704,0.0],[-86.25719,12.02699,0.0],[-86.25721,12.02974,0.0],[-86.25742,12.02987,0.0],[-86.25798,12.02979,0.0],[-86.25932,12.02926,0.0],[-86.26068,12.02967,0.0],[-86.26075,12.02953,0.0],[-86.26078,12.02947,0.0],[-86.26083,12.02942,0.0],[-86.26084,12.02936,0.0],[-86.26086,12.02922,0.0],[-86.26088,12.02918,0.0],[-86.26103,12.02911,0.0],[-86.26124,12.02899,0.0],[-86.26138,12.02889,0.0],[-86.26144,12.02878,0.0],[-86.26157,12.02871,0.0],[-86.26175,12.02863,0.0],[-86.26182,12.02851,0.0],[-86.26187,12.02835,0.0],[-86.26191,12.02817,0.0],[-86.26192,12.02804,0.0],[-86.26196,12.02788,0.0],[-86.26202,12.02779,0.0],[-86.26211,12.02771,0.0],[-86.26214,12.02758,0.0],[-86.26223,12.02747,0.0],[-86.26245,12.02732,0.0],[-86.26256,12.02715,0.0],[-86.26271,12.02705,0.0],[-86.26292,12.02699,0.0],[-86.26303,12.02695,0.0],[-86.26308,12.02685,0.0],[-86.26328,12.02662,0.0],[-86.26342,12.02648,0.0],[-86.26352,12.02635,0.0],[-86.26371,12.02631,0.0],[-86.26376,12.02617,0.0],[-86.26388,12.02605,0.0],[-86.26398,12.02591,0.0],[-86.26412,12.02582,0.0],[-86.26419,12.02567,0.0],[-86.26447,12.02536,0.0],[-86.2646,12.02523,0.0],[-86.26479,12.02499,0.0],[-86.26484,12.02489,0.0],[-86.26488,12.02476,0.0],[-86.26491,12.02461,0.0],[-86.26496,12.02446,0.0],[-86.26508,12.02432,0.0],[-86.26524,12.02422,0.0],[-86.26544,12.02409,0.0],[-86.26555,12.02391,0.0],[-86.26564,12.02373,0.0],[-86.26574,12.02339,0.0],[-86.26596,12.02346,0.0],[-86.26638,12.02365,0.0],[-86.26649,12.02371,0.0],[-86.26665,12.02377,0.0],[-86.26672,12.02397,0.0],[-86.26668,12.02428,0.0],[-86.26664,12.02468,0.0],[-86.26655,12.02513,0.0],[-86.2665,12.02545,0.0],[-86.26654,12.02558,0.0],[-86.26705,12.02618,0.0],[-86.2673,12.02653,0.0],[-86.26745,12.02695,0.0],[-86.26777,12.02877,0.0],[-86.26875,12.02865,0.0],[-86.2687,12.02835,0.0],[-86.26868,12.02816,0.0],[-86.26866,12.0279,0.0],[-86.26856,12.02779,0.0],[-86.26847,12.02758,0.0],[-86.26849,12.0273,0.0],[-86.26859,12.02691,0.0],[-86.26876,12.02653,0.0],[-86.26878,12.02644,0.0],[-86.2689,12.02631,0.0],[-86.26907,12.02619,0.0],[-86.26915,12.02604,0.0],[-86.26916,12.02584,0.0],[-86.26917,12.0251,0.0],[-86.26916,12.02486,0.0],[-86.26918,12.02445,0.0],[-86.26926,12.02421,0.0],[-86.26916,12.02384,0.0],[-86.26907,12.02322,0.0],[-86.26905,12.02293,0.0],[-86.26895,12.02243,0.0],[-86.27046,12.0216,0.0],[-86.27221,12.02118,0.0],[-86.27262,12.02167,0.0],[-86.27344,12.02338,0.0],[-86.27329,12.024,0.0],[-86.2739,12.02466,0.0],[-86.27432,12.02569,0.0],[-86.27425,12.02607,0.0],[-86.27646,12.02655,0.0],[-86.27486,12.02729,0.0],[-86.27534,12.02785,0.0],[-86.27561,12.0284,0.0],[-86.27564,12.02909,0.0],[-86.27555,12.02954,0.0],[-86.27519,12.03053,0.0],[-86.27506,12.03157,0.0],[-86.27565,12.03238,0.0],[-86.27548,12.03245,0.0],[-86.27541,12.03251,0.0],[-86.27544,12.03263,0.0],[-86.27524,12.03276,0.0],[-86.27508,12.03292,0.0],[-86.27515,12.03323,0.0],[-86.27518,12.03343,0.0],[-86.27507,12.03357,0.0],[-86.27485,12.03371,0.0],[-86.27484,12.03393,0.0],[-86.27475,12.03409,0.0],[-86.27463,12.03426,0.0],[-86.2744,12.03431,0.0],[-86.27433,12.03442,0.0],[-86.27436,12.03459,0.0],[-86.27443,12.03487,0.0],[-86.27457,12.03516,0.0],[-86.27444,12.03541,0.0],[-86.27431,12.03566,0.0],[-86.27417,12.03577,0.0],[-86.27395,12.03591,0.0],[-86.27388,12.03607,0.0],[-86.27376,12.03618,0.0],[-86.27358,12.03627,0.0],[-86.27342,12.03642,0.0],[-86.27343,12.03661,0.0],[-86.27343,12.03683,0.0],[-86.27331,12.03701,0.0],[-86.27312,12.0371,0.0],[-86.27309,12.03726,0.0],[-86.2728,12.03765,0.0],[-86.27186,12.0372,0.0],[-86.27064,12.03701,0.0],[-86.27047,12.03603,0.0],[-86.26935,12.03606,0.0],[-86.26866,12.03668,0.0],[-86.26782,12.03663,0.0],[-86.26744,12.03469,0.0],[-86.26503,12.03338,0.0],[-86.26443,12.03337,0.0],[-86.26418,12.0365,0.0],[-86.26412,12.0376,0.0],[-86.2633,12.0402,0.0],[-86.26293,12.04186,0.0],[-86.26294,12.04218,0.0],[-86.26323,12.0432,0.0],[-86.26328,12.04395,0.0],[-86.26298,12.04456,0.0],[-86.26293,12.04492,0.0],[-86.26329,12.04548,0.0],[-86.26348,12.04598,0.0],[-86.26341,12.04639,0.0],[-86.26368,12.04691,0.0],[-86.26365,12.04726,0.0],[-86.26339,12.04731,0.0],[-86.26317,12.04747,0.0],[-86.26308,12.04764,0.0],[-86.26299,12.04768,0.0],[-86.26315,12.04813,0.0],[-86.26284,12.04868,0.0],[-86.26247,12.04894,0.0],[-86.26217,12.04975,0.0],[-86.26289,12.05147,0.0],[-86.26296,12.05175,0.0],[-86.26272,12.05201,0.0],[-86.26242,12.05132,0.0],[-86.26203,12.05124,0.0],[-86.26199,12.05246,0.0],[-86.26158,12.05229,0.0],[-86.26116,12.05227,0.0],[-86.26095,12.05127,0.0],[-86.25807,12.05139,0.0],[-86.2578,12.05311,0.0],[-86.25646,12.05286,0.0],[-86.25495,12.05691,0.0],[-86.25445,12.05744,0.0],[-86.25395,12.05951,0.0],[-86.25162,12.05907,0.0],[-86.24939,12.06462,0.0],[-86.24883,12.06733,0.0],[-86.25369,12.06754,0.0],[-86.25356,12.06811,0.0],[-86.25287,12.06902,0.0],[-86.25282,12.06944,0.0],[-86.25306,12.07077,0.0],[-86.24984,12.07084,0.0],[-86.24955,12.07255,0.0],[-86.25223,12.07254,0.0],[-86.25182,12.07451,0.0],[-86.2518,12.07474,0.0],[-86.25071,12.07448,0.0],[-86.24934,12.07414,0.0],[-86.24711,12.07413,0.0],[-86.24706,12.07425,0.0],[-86.24631,12.07418,0.0],[-86.24617,12.07424,0.0],[-86.24612,12.07438,0.0],[-86.24604,12.07461,0.0],[-86.24595,12.07484,0.0],[-86.24587,12.07522,0.0],[-86.24575,12.07523,0.0],[-86.24563,12.0753,0.0],[-86.24542,12.07557,0.0],[-86.24514,12.07612,0.0],[-86.24491,12.07626,0.0],[-86.24445,12.07658,0.0],[-86.24409,12.07688,0.0],[-86.24366,12.07873,0.0],[-86.24332,12.07944,0.0],[-86.24358,12.08112,0.0],[-86.24354,12.0815,0.0],[-86.24331,12.08184,0.0],[-86.24323,12.08243,0.0],[-86.24448,12.08169,0.0],[-86.2447,12.08195,0.0],[-86.24478,12.08214,0.0],[-86.24495,12.08238,0.0],[-86.245,12.08245,0.0],[-86.24534,12.08297,0.0],[-86.24555,12.08327,0.0],[-86.24547,12.0837,0.0],[-86.2449,12.08364,0.0],[-86.24416,12.08658,0.0],[-86.24534,12.08688,0.0],[-86.24565,12.08525,0.0],[-86.24641,12.08546,0.0],[-86.2468,12.08572,0.0],[-86.24732,12.08588,0.0],[-86.24663,12.08848,0.0],[-86.24608,12.08846,0.0],[-86.2459,12.0896,0.0],[-86.24477,12.08981,0.0],[-86.24475,12.08979,0.0],[-86.2447,12.08966,0.0],[-86.24465,12.08953,0.0],[-86.24465,12.08951,0.0],[-86.2446,12.08937,0.0],[-86.24455,12.08926,0.0],[-86.24452,12.08921,0.0],[-86.24431,12.08897,0.0],[-86.24413,12.08881,0.0],[-86.24402,12.08874,0.0],[-86.2439,12.08868,0.0],[-86.24373,12.08864,0.0],[-86.24358,12.08863,0.0],[-86.24344,12.08863,0.0],[-86.24329,12.08864,0.0],[-86.24315,12.08864,0.0],[-86.24299,12.08863,0.0],[-86.2429,12.08861,0.0],[-86.24283,12.08857,0.0],[-86.2427,12.08848,0.0],[-86.24261,12.08838,0.0],[-86.2423,12.08871,0.0],[-86.24188,12.08869,0.0],[-86.24187,12.08855,0.0],[-86.23858,12.08821,0.0],[-86.23829,12.0874,0.0],[-86.23812,12.08738,0.0],[-86.23805,12.08754,0.0],[-86.23792,12.08787,0.0],[-86.23781,12.08815,0.0],[-86.23762,12.08849,0.0],[-86.23744,12.08877,0.0],[-86.23717,12.08917,0.0],[-86.23711,12.08926,0.0],[-86.237,12.08946,0.0],[-86.23675,12.08985,0.0],[-86.23664,12.09018,0.0],[-86.23654,12.09049,0.0],[-86.23653,12.0906,0.0],[-86.23625,12.0906,0.0],[-86.23603,12.0906,0.0],[-86.23589,12.0906,0.0],[-86.23571,12.09061,0.0],[-86.23557,12.09067,0.0],[-86.23532,12.09102,0.0],[-86.23522,12.09113,0.0],[-86.23518,12.09116,0.0],[-86.23791,12.09417,0.0],[-86.23849,12.09481,0.0],[-86.23927,12.09566,0.0],[-86.24312,12.09992,0.0],[-86.24564,12.10268,0.0],[-86.24855,12.10593,0.0],[-86.24858,12.10655,0.0],[-86.2492,12.10662,0.0],[-86.25198,12.10968,0.0],[-86.25223,12.10994,0.0],[-86.25365,12.11151,0.0],[-86.25523,12.1135,0.0],[-86.25464,12.11403,0.0],[-86.25486,12.11459,0.0],[-86.25502,12.11486,0.0],[-86.25543,12.11579,0.0],[-86.25558,12.11646,0.0],[-86.25563,12.11671,0.0],[-86.25515,12.11671,0.0],[-86.25516,12.11663,0.0],[-86.25503,12.11664,0.0],[-86.25433,12.11667,0.0],[-86.25339,12.11668,0.0],[-86.25248,12.11669,0.0],[-86.25212,12.11673,0.0],[-86.25157,12.11677,0.0],[-86.25151,12.11677,0.0],[-86.25116,12.11683,0.0],[-86.24983,12.11781,0.0],[-86.24668,12.12016,0.0],[-86.24542,12.1211,0.0],[-86.24464,12.12168,0.0],[-86.24463,12.12181,0.0],[-86.2446,12.12203,0.0],[-86.24461,12.12221,0.0],[-86.24469,12.1223,0.0],[-86.24495,12.12261,0.0],[-86.24518,12.12293,0.0],[-86.24533,12.12305,0.0],[-86.24538,12.12325,0.0],[-86.24543,12.12336,0.0],[-86.24613,12.124,0.0],[-86.24625,12.12413,0.0],[-86.24636,12.12424,0.0],[-86.24672,12.12487,0.0],[-86.2473,12.12594,0.0],[-86.24735,12.12603,0.0],[-86.24773,12.12695,0.0],[-86.24775,12.1272,0.0],[-86.24768,12.12773,0.0],[-86.24768,12.12818,0.0],[-86.24768,12.12857,0.0],[-86.24772,12.12896,0.0],[-86.24787,12.12946,0.0],[-86.24786,12.13024,0.0],[-86.24784,12.13043,0.0],[-86.24783,12.13057,0.0],[-86.24785,12.13076,0.0],[-86.24793,12.13106,0.0],[-86.24796,12.13113,0.0],[-86.24779,12.13127,0.0],[-86.24702,12.13061,0.0],[-86.24698,12.13058,0.0],[-86.24678,12.13042,0.0]]]]}}]}