{"type":"FeatureCollection","name":"NOR_R404159","crs":{"type":"name","properties":{"name":"urn:ogc:def:crs:OGC:1.3:CRS84"}},"features":[{"type":"Feature","properties":{"uesi_id":"NOR_R404159","nbhd_code":"NOR_R404159_1","nbhd_name":"Bergenhus"},"geometry":{"type":"MultiPolygon","coordinates":[[[[5.27586,60.4076,0.0],[5.27696,60.40795,0.0],[5.27798,60.40831,0.0],[5.27906,60.40868,0.0],[5.28026,60.40908,0.0],[5.27898,60.41123,0.0],[5.27838,60.41224,0.0],[5.26111,60.44125,0.0],[5.27725,60.44373,0.0],[5.28143,60.44141,0.0],[5.2846,60.43987,0.0],[5.28487,60.43978,0.0],[5.28524,60.4397,0.0],[5.28562,60.43969,0.0],[5.28583,60.43973,0.0],[5.28599,60.43985,0.0],[5.28599,60.44008,0.0],[5.28651,60.44004,0.0],[5.28696,60.43997,0.0],[5.28698,60.44002,0.0],[5.28737,60.43995,0.0],[5.28728,60.44013,0.0],[5.28792,60.43996,0.0],[5.28963,60.43939,0.0],[5.29006,60.43925,0.0],[5.29128,60.43882,0.0],[5.29187,60.43823,0.0],[5.29249,60.43766,0.0],[5.29298,60.43727,0.0],[5.2931,60.43622,0.0],[5.29232,60.43583,0.0],[5.29494,60.4343,0.0],[5.29498,60.43428,0.0],[5.29679,60.43427,0.0],[5.30029,60.43423,0.0],[5.30805,60.43108,0.0],[5.3096,60.43043,0.0],[5.30956,60.43033,0.0],[5.30987,60.43026,0.0],[5.30992,60.4303,0.0],[5.31325,60.42897,0.0],[5.31449,60.42899,0.0],[5.32084,60.42911,0.0],[5.3221,60.42913,0.0],[5.3407,60.42384,0.0],[5.34974,60.41889,0.0],[5.35688,60.41645,0.0],[5.36651,60.41302,0.0],[5.37504,60.41623,0.0],[5.38687,60.41624,0.0],[5.39092,60.4148,0.0],[5.39394,60.41445,0.0],[5.39452,60.41412,0.0],[5.39809,60.41223,0.0],[5.39954,60.41139,0.0],[5.40131,60.41047,0.0],[5.40405,60.40873,0.0],[5.40671,60.40709,0.0],[5.40952,60.40546,0.0],[5.4101,60.40295,0.0],[5.41052,60.40087,0.0],[5.4111,60.39836,0.0],[5.4097,60.39637,0.0],[5.40816,60.39417,0.0],[5.40786,60.39212,0.0],[5.40726,60.38766,0.0],[5.40708,60.38625,0.0],[5.40683,60.38478,0.0],[5.41265,60.38151,0.0],[5.41235,60.37932,0.0],[5.41204,60.37763,0.0],[5.41179,60.37586,0.0],[5.41161,60.37468,0.0],[5.41142,60.3736,0.0],[5.41138,60.37328,0.0],[5.41113,60.37173,0.0],[5.40713,60.37268,0.0],[5.40637,60.37243,0.0],[5.39666,60.37317,0.0],[5.38668,60.37458,0.0],[5.37394,60.37627,0.0],[5.36746,60.37467,0.0],[5.36641,60.37383,0.0],[5.3654,60.37334,0.0],[5.36496,60.37323,0.0],[5.3646,60.37293,0.0],[5.36439,60.37251,0.0],[5.36386,60.37195,0.0],[5.36373,60.37174,0.0],[5.36386,60.37127,0.0],[5.36328,60.37107,0.0],[5.36286,60.37116,0.0],[5.36266,60.37119,0.0],[5.36248,60.37122,0.0],[5.36239,60.37122,0.0],[5.3621,60.3711,0.0],[5.36215,60.37092,0.0],[5.36174,60.37085,0.0],[5.36142,60.37131,0.0],[5.36051,60.37115,0.0],[5.36034,60.37113,0.0],[5.35989,60.37175,0.0],[5.35963,60.37189,0.0],[5.35904,60.372,0.0],[5.35844,60.3721,0.0],[5.35804,60.3722,0.0],[5.35781,60.37208,0.0],[5.35769,60.37209,0.0],[5.35726,60.37234,0.0],[5.35698,60.37261,0.0],[5.35671,60.37283,0.0],[5.35651,60.37295,0.0],[5.35611,60.37307,0.0],[5.35562,60.37321,0.0],[5.35566,60.37326,0.0],[5.35539,60.37354,0.0],[5.3553,60.37357,0.0],[5.35517,60.37366,0.0],[5.35514,60.3737,0.0],[5.35496,60.37379,0.0],[5.35431,60.37389,0.0],[5.35363,60.37397,0.0],[5.35334,60.37405,0.0],[5.35312,60.37413,0.0],[5.35289,60.3742,0.0],[5.35257,60.37431,0.0],[5.3525,60.37433,0.0],[5.3523,60.37441,0.0],[5.35191,60.37453,0.0],[5.35163,60.37456,0.0],[5.35162,60.37454,0.0],[5.35154,60.37455,0.0],[5.35156,60.37459,0.0],[5.35153,60.37463,0.0],[5.35156,60.37479,0.0],[5.35166,60.37503,0.0],[5.35245,60.3749,0.0],[5.35267,60.37488,0.0],[5.35282,60.37491,0.0],[5.353,60.37517,0.0],[5.35277,60.37521,0.0],[5.35178,60.37536,0.0],[5.35189,60.37558,0.0],[5.35198,60.37583,0.0],[5.3521,60.37606,0.0],[5.35192,60.37616,0.0],[5.3517,60.37626,0.0],[5.35137,60.37642,0.0],[5.35129,60.37641,0.0],[5.35093,60.37648,0.0],[5.35075,60.37654,0.0],[5.35033,60.37669,0.0],[5.35028,60.37673,0.0],[5.35019,60.37676,0.0],[5.35012,60.37678,0.0],[5.35006,60.3768,0.0],[5.34959,60.3769,0.0],[5.34936,60.37695,0.0],[5.3491,60.37701,0.0],[5.34886,60.37707,0.0],[5.34854,60.37716,0.0],[5.34844,60.3772,0.0],[5.34801,60.37735,0.0],[5.34765,60.37744,0.0],[5.34727,60.37754,0.0],[5.34719,60.37756,0.0],[5.34663,60.37772,0.0],[5.3465,60.37777,0.0],[5.34615,60.37791,0.0],[5.34574,60.37832,0.0],[5.34588,60.37843,0.0],[5.34594,60.37851,0.0],[5.34619,60.37884,0.0],[5.34648,60.37908,0.0],[5.3465,60.37912,0.0],[5.34645,60.37922,0.0],[5.34618,60.37941,0.0],[5.34595,60.37952,0.0],[5.34572,60.37953,0.0],[5.34551,60.37951,0.0],[5.3454,60.37951,0.0],[5.34533,60.37953,0.0],[5.34435,60.38053,0.0],[5.34379,60.3811,0.0],[5.34191,60.3807,0.0],[5.33506,60.38008,0.0],[5.33202,60.37997,0.0],[5.32495,60.38048,0.0],[5.32453,60.38067,0.0],[5.32244,60.38162,0.0],[5.31897,60.38283,0.0],[5.31664,60.38366,0.0],[5.31433,60.38459,0.0],[5.30417,60.38852,0.0],[5.30334,60.38895,0.0],[5.30127,60.39014,0.0],[5.27586,60.4076,0.0]]]]}},{"type":"Feature","properties":{"uesi_id":"NOR_R404159","nbhd_code":"NOR_R404159_2","nbhd_name":"Arna"},"geometry":{"type":"MultiPolygon","coordinates":[[[[5.62032,60.43796,0.0],[5.6304,60.43611,0.0],[5.63052,60.43608,0.0],[5.63053,60.43608,0.0],[5.63287,60.43513,0.0],[5.63338,60.43474,0.0],[5.63468,60.43384,0.0],[5.63573,60.43375,0.0],[5.63579,60.43386,0.0],[5.63588,60.43405,0.0],[5.63595,60.43411,0.0],[5.63624,60.4343,0.0],[5.63651,60.43472,0.0],[5.63658,60.43486,0.0],[5.63684,60.43497,0.0],[5.63796,60.43548,0.0],[5.63811,60.43555,0.0],[5.63933,60.43596,0.0],[5.63938,60.43601,0.0],[5.64006,60.43675,0.0],[5.64038,60.4371,0.0],[5.64042,60.43716,0.0],[5.64051,60.43755,0.0],[5.64069,60.43832,0.0],[5.64075,60.4386,0.0],[5.64083,60.43894,0.0],[5.64091,60.43926,0.0],[5.64094,60.43943,0.0],[5.64102,60.43956,0.0],[5.64107,60.43964,0.0],[5.64149,60.44029,0.0],[5.64265,60.44214,0.0],[5.64312,60.4429,0.0],[5.64421,60.44285,0.0],[5.64499,60.44281,0.0],[5.64754,60.44272,0.0],[5.64996,60.44315,0.0],[5.6663,60.44253,0.0],[5.66908,60.44164,0.0],[5.67449,60.43991,0.0],[5.68185,60.43752,0.0],[5.68645,60.43576,0.0],[5.68666,60.42876,0.0],[5.68679,60.4259,0.0],[5.68203,60.42463,0.0],[5.6817,60.42454,0.0],[5.68056,60.42424,0.0],[5.6801,60.4241,0.0],[5.67916,60.42386,0.0],[5.67383,60.42241,0.0],[5.66495,60.42003,0.0],[5.66379,60.4203,0.0],[5.65595,60.41868,0.0],[5.65319,60.41445,0.0],[5.65188,60.4132,0.0],[5.64944,60.4109,0.0],[5.64832,60.40951,0.0],[5.64671,60.40751,0.0],[5.64625,60.40458,0.0],[5.64575,60.40415,0.0],[5.64562,60.40407,0.0],[5.64546,60.40397,0.0],[5.64534,60.40391,0.0],[5.64525,60.40386,0.0],[5.64368,60.40311,0.0],[5.64342,60.40299,0.0],[5.64264,60.40276,0.0],[5.64065,60.4025,0.0],[5.63932,60.40233,0.0],[5.63655,60.40196,0.0],[5.63615,60.40191,0.0],[5.63458,60.40171,0.0],[5.63372,60.40159,0.0],[5.63201,60.40137,0.0],[5.62803,60.40085,0.0],[5.62484,60.40043,0.0],[5.62229,60.40009,0.0],[5.61745,60.39923,0.0],[5.6145,60.39868,0.0],[5.61262,60.39831,0.0],[5.60696,60.39723,0.0],[5.59071,60.38765,0.0],[5.58765,60.38498,0.0],[5.58761,60.38492,0.0],[5.5792,60.37755,0.0],[5.57796,60.37794,0.0],[5.57738,60.37801,0.0],[5.5768,60.37782,0.0],[5.57578,60.37782,0.0],[5.57535,60.37792,0.0],[5.57447,60.37806,0.0],[5.57309,60.37816,0.0],[5.57251,60.37819,0.0],[5.57164,60.37805,0.0],[5.57069,60.37818,0.0],[5.56975,60.37821,0.0],[5.5691,60.37803,0.0],[5.56897,60.37753,0.0],[5.56876,60.37709,0.0],[5.56877,60.37673,0.0],[5.56827,60.37637,0.0],[5.56754,60.3763,0.0],[5.56675,60.37604,0.0],[5.56603,60.37589,0.0],[5.56553,60.37546,0.0],[5.56467,60.37502,0.0],[5.5638,60.37498,0.0],[5.56337,60.37494,0.0],[5.56329,60.37498,0.0],[5.55946,60.37435,0.0],[5.55643,60.37379,0.0],[5.55295,60.37327,0.0],[5.54948,60.37271,0.0],[5.54637,60.37226,0.0],[5.54175,60.37151,0.0],[5.54131,60.37155,0.0],[5.53666,60.37195,0.0],[5.5336,60.37222,0.0],[5.53258,60.37232,0.0],[5.52969,60.37205,0.0],[5.52694,60.37179,0.0],[5.52508,60.37055,0.0],[5.52293,60.36932,0.0],[5.52129,60.36834,0.0],[5.5195,60.3671,0.0],[5.51686,60.36533,0.0],[5.51376,60.36445,0.0],[5.50987,60.36338,0.0],[5.50782,60.36146,0.0],[5.50526,60.35918,0.0],[5.50056,60.35869,0.0],[5.49732,60.35759,0.0],[5.49522,60.35686,0.0],[5.49421,60.35627,0.0],[5.49338,60.35577,0.0],[5.49095,60.35413,0.0],[5.4891,60.35276,0.0],[5.48498,60.35219,0.0],[5.48267,60.35186,0.0],[5.48021,60.35173,0.0],[5.47905,60.35158,0.0],[5.47589,60.35034,0.0],[5.47345,60.34935,0.0],[5.47187,60.3487,0.0],[5.46816,60.34839,0.0],[5.46553,60.34694,0.0],[5.46383,60.34599,0.0],[5.4624,60.34511,0.0],[5.46047,60.34392,0.0],[5.45837,60.34262,0.0],[5.4548,60.34175,0.0],[5.45135,60.34089,0.0],[5.45211,60.34698,0.0],[5.45323,60.34848,0.0],[5.45411,60.34975,0.0],[5.45541,60.35157,0.0],[5.45551,60.35315,0.0],[5.45545,60.35343,0.0],[5.45523,60.35424,0.0],[5.45524,60.35427,0.0],[5.45514,60.35454,0.0],[5.45512,60.35464,0.0],[5.45508,60.3548,0.0],[5.45509,60.35501,0.0],[5.45506,60.35522,0.0],[5.45504,60.35538,0.0],[5.45489,60.35576,0.0],[5.45453,60.35588,0.0],[5.45408,60.35606,0.0],[5.45371,60.35623,0.0],[5.45324,60.35652,0.0],[5.45288,60.35684,0.0],[5.45244,60.35703,0.0],[5.45155,60.35735,0.0],[5.45152,60.35742,0.0],[5.45186,60.3582,0.0],[5.45027,60.35888,0.0],[5.45053,60.3591,0.0],[5.45049,60.35912,0.0],[5.44902,60.35949,0.0],[5.44906,60.35963,0.0],[5.44907,60.35979,0.0],[5.44907,60.35998,0.0],[5.44903,60.36014,0.0],[5.44862,60.3601,0.0],[5.44838,60.3602,0.0],[5.44841,60.36034,0.0],[5.44844,60.36043,0.0],[5.44851,60.36071,0.0],[5.44915,60.36077,0.0],[5.44933,60.36081,0.0],[5.44942,60.36095,0.0],[5.44936,60.36122,0.0],[5.44884,60.3616,0.0],[5.44868,60.36168,0.0],[5.44829,60.36194,0.0],[5.44823,60.36213,0.0],[5.44824,60.36224,0.0],[5.44706,60.36291,0.0],[5.44648,60.36309,0.0],[5.4458,60.36323,0.0],[5.44608,60.36362,0.0],[5.4459,60.36397,0.0],[5.44566,60.3643,0.0],[5.44551,60.36454,0.0],[5.44545,60.36479,0.0],[5.44549,60.36509,0.0],[5.44547,60.36531,0.0],[5.44555,60.36559,0.0],[5.44552,60.36573,0.0],[5.44539,60.36603,0.0],[5.44535,60.36619,0.0],[5.44534,60.36628,0.0],[5.44542,60.36664,0.0],[5.44542,60.36677,0.0],[5.44526,60.36683,0.0],[5.44511,60.36713,0.0],[5.44518,60.36729,0.0],[5.44507,60.36746,0.0],[5.4452,60.36764,0.0],[5.44527,60.3679,0.0],[5.44522,60.36815,0.0],[5.44357,60.36816,0.0],[5.44199,60.36812,0.0],[5.44109,60.36813,0.0],[5.43993,60.36818,0.0],[5.43944,60.36821,0.0],[5.43789,60.36812,0.0],[5.43665,60.36806,0.0],[5.43493,60.36797,0.0],[5.43427,60.36792,0.0],[5.434,60.36792,0.0],[5.43061,60.36776,0.0],[5.42972,60.36779,0.0],[5.42938,60.3678,0.0],[5.42903,60.36784,0.0],[5.42853,60.36785,0.0],[5.42744,60.36797,0.0],[5.42662,60.3681,0.0],[5.42583,60.36802,0.0],[5.42481,60.36789,0.0],[5.4246,60.36793,0.0],[5.42196,60.36869,0.0],[5.41979,60.36928,0.0],[5.41718,60.36997,0.0],[5.41433,60.37078,0.0],[5.41113,60.37173,0.0],[5.41138,60.37328,0.0],[5.41142,60.3736,0.0],[5.41161,60.37468,0.0],[5.41179,60.37586,0.0],[5.41204,60.37763,0.0],[5.41235,60.37932,0.0],[5.41265,60.38151,0.0],[5.40683,60.38478,0.0],[5.40708,60.38625,0.0],[5.40726,60.38766,0.0],[5.40786,60.39212,0.0],[5.40816,60.39417,0.0],[5.4097,60.39637,0.0],[5.4111,60.39836,0.0],[5.41052,60.40087,0.0],[5.4101,60.40295,0.0],[5.40952,60.40546,0.0],[5.40671,60.40709,0.0],[5.40405,60.40873,0.0],[5.40131,60.41047,0.0],[5.40333,60.41088,0.0],[5.40615,60.41144,0.0],[5.41009,60.41227,0.0],[5.41287,60.41317,0.0],[5.41122,60.41504,0.0],[5.40671,60.41765,0.0],[5.38704,60.42774,0.0],[5.39722,60.43518,0.0],[5.39428,60.43854,0.0],[5.39191,60.44083,0.0],[5.38915,60.44303,0.0],[5.388,60.444,0.0],[5.38722,60.44483,0.0],[5.38523,60.44718,0.0],[5.38438,60.4482,0.0],[5.38402,60.44862,0.0],[5.38267,60.45016,0.0],[5.38128,60.45172,0.0],[5.38348,60.45252,0.0],[5.38383,60.45265,0.0],[5.38428,60.45284,0.0],[5.3862,60.45356,0.0],[5.38659,60.45372,0.0],[5.38814,60.45425,0.0],[5.39145,60.45524,0.0],[5.39492,60.45616,0.0],[5.39526,60.45627,0.0],[5.3973,60.45692,0.0],[5.3982,60.45721,0.0],[5.39998,60.45776,0.0],[5.40415,60.45933,0.0],[5.40579,60.45993,0.0],[5.40661,60.46023,0.0],[5.40853,60.46093,0.0],[5.40861,60.4609,0.0],[5.40901,60.46103,0.0],[5.40897,60.46109,0.0],[5.41239,60.46232,0.0],[5.41292,60.46359,0.0],[5.41319,60.46433,0.0],[5.41498,60.466,0.0],[5.4138,60.46602,0.0],[5.41451,60.46791,0.0],[5.41821,60.46871,0.0],[5.42169,60.46909,0.0],[5.42197,60.46931,0.0],[5.42278,60.46957,0.0],[5.42412,60.46969,0.0],[5.42547,60.46985,0.0],[5.42705,60.47004,0.0],[5.43871,60.47353,0.0],[5.46005,60.45914,0.0],[5.47961,60.45302,0.0],[5.49131,60.44357,0.0],[5.51363,60.43705,0.0],[5.5154,60.43074,0.0],[5.52606,60.42541,0.0],[5.55839,60.42862,0.0],[5.57501,60.43416,0.0],[5.61307,60.43406,0.0],[5.62032,60.43796,0.0]]]]}},{"type":"Feature","properties":{"uesi_id":"NOR_R404159","nbhd_code":"NOR_R404159_3","nbhd_name":"Fana"},"geometry":{"type":"MultiPolygon","coordinates":[[[[5.40098,60.24404,0.0],[5.40068,60.24405,0.0],[5.40052,60.24405,0.0],[5.40048,60.24403,0.0],[5.40046,60.24401,0.0],[5.40043,60.244,0.0],[5.4004,60.24398,0.0],[5.40036,60.24397,0.0],[5.40033,60.24395,0.0],[5.4003,60.24393,0.0],[5.40026,60.24392,0.0],[5.40022,60.2439,0.0],[5.40019,60.24388,0.0],[5.40015,60.24386,0.0],[5.40015,60.24386,0.0],[5.40012,60.24385,0.0],[5.39998,60.2438,0.0],[5.39983,60.24376,0.0],[5.39966,60.24372,0.0],[5.39958,60.2437,0.0],[5.39919,60.24364,0.0],[5.39882,60.24359,0.0],[5.39873,60.24358,0.0],[5.39831,60.24355,0.0],[5.39795,60.24351,0.0],[5.39775,60.24349,0.0],[5.39749,60.24347,0.0],[5.39741,60.24347,0.0],[5.39734,60.24348,0.0],[5.39712,60.24352,0.0],[5.39708,60.24353,0.0],[5.39704,60.24352,0.0],[5.39688,60.2435,0.0],[5.39675,60.24348,0.0],[5.39658,60.24344,0.0],[5.39639,60.24339,0.0],[5.39623,60.24334,0.0],[5.396,60.24327,0.0],[5.3959,60.24324,0.0],[5.39572,60.24318,0.0],[5.39547,60.24308,0.0],[5.39513,60.24294,0.0],[5.39498,60.24287,0.0],[5.39481,60.24278,0.0],[5.39476,60.24276,0.0],[5.39474,60.24275,0.0],[5.3947,60.24272,0.0],[5.39458,60.24265,0.0],[5.39431,60.24249,0.0],[5.39411,60.24239,0.0],[5.39379,60.24226,0.0],[5.39352,60.24213,0.0],[5.39348,60.24211,0.0],[5.39326,60.24198,0.0],[5.39291,60.24179,0.0],[5.39274,60.24171,0.0],[5.3926,60.24165,0.0],[5.39238,60.24159,0.0],[5.3921,60.24154,0.0],[5.39191,60.24148,0.0],[5.39149,60.2415,0.0],[5.39149,60.2415,0.0],[5.39143,60.24148,0.0],[5.3913,60.24148,0.0],[5.39124,60.24147,0.0],[5.39117,60.24142,0.0],[5.39105,60.24133,0.0],[5.39097,60.24124,0.0],[5.39095,60.24123,0.0],[5.39085,60.24116,0.0],[5.39081,60.24111,0.0],[5.39078,60.24107,0.0],[5.39072,60.24103,0.0],[5.39066,60.24094,0.0],[5.39064,60.24092,0.0],[5.3906,60.2409,0.0],[5.39056,60.24088,0.0],[5.39047,60.24086,0.0],[5.39032,60.24084,0.0],[5.39029,60.24082,0.0],[5.39026,60.24078,0.0],[5.39024,60.24072,0.0],[5.39023,60.24066,0.0],[5.3902,60.24056,0.0],[5.39018,60.24042,0.0],[5.39016,60.24039,0.0],[5.39009,60.24032,0.0],[5.39009,60.24029,0.0],[5.39005,60.24019,0.0],[5.39003,60.24016,0.0],[5.39,60.24013,0.0],[5.38996,60.24012,0.0],[5.38989,60.24008,0.0],[5.38981,60.23999,0.0],[5.38973,60.23993,0.0],[5.38966,60.23985,0.0],[5.38955,60.23976,0.0],[5.38951,60.23973,0.0],[5.38932,60.23959,0.0],[5.38931,60.23959,0.0],[5.38928,60.23958,0.0],[5.38909,60.23944,0.0],[5.38902,60.23939,0.0],[5.38894,60.23935,0.0],[5.38884,60.23929,0.0],[5.38877,60.23923,0.0],[5.38875,60.23917,0.0],[5.38872,60.23909,0.0],[5.38865,60.23898,0.0],[5.38856,60.23891,0.0],[5.38841,60.23883,0.0],[5.38829,60.23877,0.0],[5.38823,60.23875,0.0],[5.38814,60.23871,0.0],[5.38804,60.23868,0.0],[5.38803,60.23868,0.0],[5.38796,60.2387,0.0],[5.38792,60.2387,0.0],[5.38784,60.23868,0.0],[5.38781,60.23866,0.0],[5.38775,60.23862,0.0],[5.38774,60.23859,0.0],[5.38777,60.23852,0.0],[5.38777,60.2385,0.0],[5.38772,60.2384,0.0],[5.38769,60.23838,0.0],[5.38758,60.23831,0.0],[5.38746,60.23824,0.0],[5.3873,60.23817,0.0],[5.38726,60.23816,0.0],[5.38721,60.23814,0.0],[5.38715,60.23811,0.0],[5.3871,60.23809,0.0],[5.38702,60.23808,0.0],[5.3869,60.23807,0.0],[5.38682,60.23797,0.0],[5.38556,60.2363,0.0],[5.38468,60.23441,0.0],[5.38348,60.23409,0.0],[5.38202,60.23327,0.0],[5.38199,60.23206,0.0],[5.38125,60.23154,0.0],[5.37761,60.2295,0.0],[5.37494,60.22789,0.0],[5.37464,60.22775,0.0],[5.37452,60.22779,0.0],[5.3745,60.22779,0.0],[5.37446,60.22777,0.0],[5.3744,60.22776,0.0],[5.37435,60.22774,0.0],[5.37427,60.2277,0.0],[5.37418,60.22766,0.0],[5.37408,60.22761,0.0],[5.37397,60.22756,0.0],[5.37387,60.22751,0.0],[5.37377,60.22747,0.0],[5.37371,60.22744,0.0],[5.3737,60.22743,0.0],[5.37365,60.22742,0.0],[5.3736,60.22741,0.0],[5.37357,60.2274,0.0],[5.37357,60.22737,0.0],[5.37354,60.22733,0.0],[5.37353,60.22727,0.0],[5.37346,60.22721,0.0],[5.37339,60.22717,0.0],[5.37336,60.22714,0.0],[5.37332,60.22708,0.0],[5.37328,60.22707,0.0],[5.37322,60.22705,0.0],[5.37319,60.22702,0.0],[5.37315,60.22696,0.0],[5.37315,60.22693,0.0],[5.37318,60.2269,0.0],[5.37312,60.22685,0.0],[5.37311,60.22684,0.0],[5.3729,60.22684,0.0],[5.37255,60.22665,0.0],[5.37178,60.22626,0.0],[5.37159,60.22621,0.0],[5.36951,60.22551,0.0],[5.36893,60.22533,0.0],[5.36887,60.2253,0.0],[5.36478,60.22491,0.0],[5.36531,60.22158,0.0],[5.34934,60.22466,0.0],[5.34417,60.22438,0.0],[5.3423,60.22085,0.0],[5.33668,60.22116,0.0],[5.33256,60.2225,0.0],[5.32481,60.21863,0.0],[5.32078,60.20891,0.0],[5.25322,60.17609,0.0],[5.21008,60.18879,0.0],[5.20943,60.20226,0.0],[5.23236,60.22454,0.0],[5.2434,60.22464,0.0],[5.279,60.2392,0.0],[5.2871,60.2502,0.0],[5.2913,60.25593,0.0],[5.29233,60.25725,0.0],[5.29244,60.25966,0.0],[5.29271,60.26085,0.0],[5.29246,60.26414,0.0],[5.29213,60.26422,0.0],[5.29233,60.26442,0.0],[5.29219,60.26446,0.0],[5.29217,60.26464,0.0],[5.292,60.26477,0.0],[5.29162,60.26495,0.0],[5.29147,60.26552,0.0],[5.29127,60.26671,0.0],[5.28992,60.2677,0.0],[5.2903,60.26817,0.0],[5.29089,60.26867,0.0],[5.29159,60.26931,0.0],[5.29215,60.26993,0.0],[5.29262,60.2705,0.0],[5.29287,60.2707,0.0],[5.29331,60.27115,0.0],[5.29383,60.2716,0.0],[5.29444,60.27211,0.0],[5.295,60.27246,0.0],[5.29648,60.27395,0.0],[5.29721,60.27389,0.0],[5.29883,60.27402,0.0],[5.29997,60.27411,0.0],[5.30104,60.27425,0.0],[5.30225,60.27436,0.0],[5.30364,60.27454,0.0],[5.30462,60.27464,0.0],[5.30483,60.27468,0.0],[5.30548,60.27474,0.0],[5.30913,60.2752,0.0],[5.30592,60.27991,0.0],[5.30764,60.28081,0.0],[5.30968,60.28132,0.0],[5.3104,60.2811,0.0],[5.31207,60.28131,0.0],[5.31237,60.28134,0.0],[5.31264,60.28126,0.0],[5.31277,60.28123,0.0],[5.31296,60.28119,0.0],[5.3134,60.2811,0.0],[5.31351,60.28108,0.0],[5.31373,60.28102,0.0],[5.31405,60.28091,0.0],[5.31422,60.28084,0.0],[5.31446,60.2807,0.0],[5.31516,60.28027,0.0],[5.31528,60.28019,0.0],[5.31536,60.28018,0.0],[5.3146,60.28097,0.0],[5.31631,60.28181,0.0],[5.31595,60.28208,0.0],[5.31525,60.28188,0.0],[5.31406,60.28328,0.0],[5.31807,60.28341,0.0],[5.31828,60.28366,0.0],[5.31942,60.28378,0.0],[5.32058,60.28391,0.0],[5.32272,60.28423,0.0],[5.32439,60.28449,0.0],[5.32532,60.2845,0.0],[5.32541,60.2845,0.0],[5.32541,60.28477,0.0],[5.32523,60.28567,0.0],[5.32519,60.28644,0.0],[5.32525,60.28787,0.0],[5.32526,60.28852,0.0],[5.3254,60.29012,0.0],[5.32542,60.29055,0.0],[5.3254,60.29103,0.0],[5.32533,60.29147,0.0],[5.32522,60.29182,0.0],[5.32488,60.29229,0.0],[5.32472,60.29257,0.0],[5.32451,60.29304,0.0],[5.32439,60.29338,0.0],[5.32425,60.29353,0.0],[5.32369,60.29379,0.0],[5.32428,60.29413,0.0],[5.32479,60.29456,0.0],[5.32546,60.29501,0.0],[5.32592,60.2953,0.0],[5.32613,60.29553,0.0],[5.32665,60.29645,0.0],[5.32731,60.29747,0.0],[5.32889,60.3,0.0],[5.32841,60.30169,0.0],[5.3281,60.30238,0.0],[5.32782,60.30314,0.0],[5.32762,60.30396,0.0],[5.32758,60.30479,0.0],[5.32761,60.3057,0.0],[5.32778,60.30639,0.0],[5.32837,60.30762,0.0],[5.32846,60.30785,0.0],[5.32871,60.30848,0.0],[5.32859,60.3085,0.0],[5.32851,60.30851,0.0],[5.32826,60.3085,0.0],[5.32835,60.30857,0.0],[5.32804,60.30867,0.0],[5.32778,60.30893,0.0],[5.3276,60.30891,0.0],[5.3276,60.30894,0.0],[5.32764,60.30898,0.0],[5.32763,60.30901,0.0],[5.32751,60.30913,0.0],[5.32751,60.30923,0.0],[5.32746,60.30942,0.0],[5.32743,60.3095,0.0],[5.32735,60.30959,0.0],[5.32733,60.30962,0.0],[5.32732,60.30967,0.0],[5.32736,60.30969,0.0],[5.32742,60.30969,0.0],[5.32767,60.30969,0.0],[5.32773,60.30969,0.0],[5.32776,60.30972,0.0],[5.32773,60.30976,0.0],[5.32773,60.3098,0.0],[5.32776,60.30984,0.0],[5.32788,60.30993,0.0],[5.3279,60.30996,0.0],[5.32787,60.30998,0.0],[5.32772,60.31005,0.0],[5.32758,60.31011,0.0],[5.32729,60.3102,0.0],[5.32713,60.31027,0.0],[5.32704,60.31032,0.0],[5.327,60.31036,0.0],[5.32699,60.31039,0.0],[5.32703,60.31046,0.0],[5.32704,60.3105,0.0],[5.327,60.31053,0.0],[5.32695,60.31056,0.0],[5.32687,60.31061,0.0],[5.32683,60.31066,0.0],[5.3268,60.31071,0.0],[5.32671,60.31079,0.0],[5.32667,60.31083,0.0],[5.32661,60.31092,0.0],[5.32656,60.31097,0.0],[5.3266,60.31099,0.0],[5.32649,60.3111,0.0],[5.32649,60.31119,0.0],[5.32582,60.31257,0.0],[5.31903,60.31529,0.0],[5.31745,60.31605,0.0],[5.31579,60.31684,0.0],[5.31006,60.31973,0.0],[5.31784,60.32525,0.0],[5.31876,60.32561,0.0],[5.31919,60.32581,0.0],[5.33311,60.33155,0.0],[5.33415,60.34414,0.0],[5.33361,60.34535,0.0],[5.33403,60.34578,0.0],[5.33428,60.34628,0.0],[5.33429,60.3468,0.0],[5.33443,60.34722,0.0],[5.33481,60.34763,0.0],[5.33505,60.34775,0.0],[5.3353,60.34783,0.0],[5.3354,60.34795,0.0],[5.3354,60.34798,0.0],[5.33538,60.34801,0.0],[5.33528,60.34808,0.0],[5.33513,60.34814,0.0],[5.33539,60.34855,0.0],[5.3357,60.34889,0.0],[5.3359,60.34913,0.0],[5.33584,60.34916,0.0],[5.33601,60.3493,0.0],[5.33653,60.34958,0.0],[5.33674,60.34946,0.0],[5.33716,60.34944,0.0],[5.33725,60.34994,0.0],[5.33782,60.35198,0.0],[5.33939,60.35186,0.0],[5.33983,60.35179,0.0],[5.34022,60.35164,0.0],[5.34038,60.35174,0.0],[5.34081,60.35157,0.0],[5.34088,60.35157,0.0],[5.34093,60.35156,0.0],[5.34098,60.35153,0.0],[5.34103,60.3515,0.0],[5.34105,60.35148,0.0],[5.34118,60.35127,0.0],[5.34214,60.35123,0.0],[5.34222,60.35128,0.0],[5.34233,60.35142,0.0],[5.34238,60.35144,0.0],[5.34267,60.3515,0.0],[5.34291,60.35157,0.0],[5.34298,60.35155,0.0],[5.34301,60.35107,0.0],[5.34306,60.35095,0.0],[5.3432,60.35105,0.0],[5.34344,60.35122,0.0],[5.34355,60.35131,0.0],[5.34343,60.35134,0.0],[5.34356,60.35157,0.0],[5.34381,60.3518,0.0],[5.34418,60.35215,0.0],[5.34595,60.35215,0.0],[5.34592,60.35206,0.0],[5.34586,60.35198,0.0],[5.34582,60.35195,0.0],[5.34566,60.35182,0.0],[5.34637,60.35182,0.0],[5.34642,60.35188,0.0],[5.34652,60.35197,0.0],[5.3466,60.35197,0.0],[5.34681,60.35184,0.0],[5.34738,60.35189,0.0],[5.34742,60.35182,0.0],[5.3475,60.35178,0.0],[5.34756,60.35171,0.0],[5.34763,60.3517,0.0],[5.3477,60.35171,0.0],[5.34784,60.35167,0.0],[5.34807,60.35166,0.0],[5.34819,60.35175,0.0],[5.34825,60.35175,0.0],[5.34834,60.35172,0.0],[5.34847,60.3517,0.0],[5.34854,60.35168,0.0],[5.34858,60.35166,0.0],[5.34863,60.35163,0.0],[5.34866,60.3516,0.0],[5.34877,60.3516,0.0],[5.34884,60.35134,0.0],[5.34892,60.35117,0.0],[5.34907,60.35095,0.0],[5.34957,60.35039,0.0],[5.35006,60.34983,0.0],[5.35015,60.34962,0.0],[5.35011,60.3492,0.0],[5.35004,60.3487,0.0],[5.34994,60.34819,0.0],[5.34989,60.34742,0.0],[5.34952,60.34654,0.0],[5.34967,60.34656,0.0],[5.34987,60.34663,0.0],[5.35006,60.34665,0.0],[5.35031,60.34668,0.0],[5.35072,60.34674,0.0],[5.35095,60.34645,0.0],[5.35111,60.34633,0.0],[5.35135,60.34622,0.0],[5.35145,60.34611,0.0],[5.35148,60.34593,0.0],[5.35148,60.34556,0.0],[5.35155,60.34535,0.0],[5.3517,60.34514,0.0],[5.35188,60.34496,0.0],[5.35214,60.34483,0.0],[5.35271,60.34449,0.0],[5.35324,60.34416,0.0],[5.35345,60.34403,0.0],[5.35374,60.34371,0.0],[5.35405,60.3433,0.0],[5.35414,60.34314,0.0],[5.35454,60.34317,0.0],[5.35458,60.34306,0.0],[5.35541,60.34312,0.0],[5.3551,60.3425,0.0],[5.35561,60.34181,0.0],[5.35668,60.34181,0.0],[5.35668,60.34179,0.0],[5.35668,60.34174,0.0],[5.35668,60.34169,0.0],[5.35669,60.3412,0.0],[5.35681,60.3412,0.0],[5.35709,60.34123,0.0],[5.35727,60.34124,0.0],[5.35749,60.34124,0.0],[5.3579,60.34124,0.0],[5.35816,60.34128,0.0],[5.35867,60.34142,0.0],[5.35887,60.34134,0.0],[5.35974,60.34195,0.0],[5.35993,60.34195,0.0],[5.36002,60.34192,0.0],[5.36005,60.34187,0.0],[5.3601,60.34176,0.0],[5.36013,60.34156,0.0],[5.36014,60.34145,0.0],[5.36011,60.34128,0.0],[5.36008,60.34111,0.0],[5.3601,60.34109,0.0],[5.36015,60.34106,0.0],[5.36019,60.34102,0.0],[5.36022,60.34088,0.0],[5.36025,60.34079,0.0],[5.36013,60.34072,0.0],[5.35998,60.34061,0.0],[5.35995,60.34059,0.0],[5.35974,60.34044,0.0],[5.35964,60.34038,0.0],[5.3595,60.34028,0.0],[5.35945,60.34024,0.0],[5.35979,60.34022,0.0],[5.36004,60.3402,0.0],[5.36032,60.34018,0.0],[5.3603,60.33996,0.0],[5.36022,60.33994,0.0],[5.36024,60.33981,0.0],[5.36026,60.33972,0.0],[5.36063,60.3394,0.0],[5.3607,60.33939,0.0],[5.36091,60.33936,0.0],[5.36118,60.33959,0.0],[5.36168,60.33952,0.0],[5.36169,60.3394,0.0],[5.36176,60.33938,0.0],[5.362,60.33917,0.0],[5.36222,60.33917,0.0],[5.36219,60.33936,0.0],[5.36242,60.33942,0.0],[5.36288,60.33931,0.0],[5.36303,60.33942,0.0],[5.36378,60.33952,0.0],[5.36382,60.33993,0.0],[5.36384,60.34006,0.0],[5.36381,60.34009,0.0],[5.36386,60.34013,0.0],[5.36399,60.34016,0.0],[5.36415,60.34018,0.0],[5.36427,60.3402,0.0],[5.36444,60.34021,0.0],[5.36452,60.34025,0.0],[5.36453,60.34032,0.0],[5.36447,60.34036,0.0],[5.3643,60.34036,0.0],[5.36388,60.34034,0.0],[5.36357,60.34032,0.0],[5.36345,60.34036,0.0],[5.3634,60.34045,0.0],[5.36343,60.34057,0.0],[5.36355,60.34065,0.0],[5.36374,60.34071,0.0],[5.36408,60.3408,0.0],[5.36451,60.34091,0.0],[5.36502,60.34102,0.0],[5.36528,60.34114,0.0],[5.3654,60.34128,0.0],[5.3654,60.34148,0.0],[5.36558,60.34157,0.0],[5.36572,60.34174,0.0],[5.36596,60.34137,0.0],[5.36617,60.34118,0.0],[5.36644,60.34102,0.0],[5.3669,60.34078,0.0],[5.36728,60.34058,0.0],[5.36771,60.34035,0.0],[5.36789,60.34024,0.0],[5.36803,60.34008,0.0],[5.36834,60.3399,0.0],[5.36869,60.33976,0.0],[5.369,60.3396,0.0],[5.36911,60.33945,0.0],[5.36929,60.33915,0.0],[5.36943,60.33906,0.0],[5.36968,60.33901,0.0],[5.36992,60.33899,0.0],[5.37016,60.33902,0.0],[5.37051,60.33912,0.0],[5.37077,60.33923,0.0],[5.37094,60.33934,0.0],[5.37134,60.33956,0.0],[5.3717,60.33977,0.0],[5.37189,60.34,0.0],[5.37207,60.34027,0.0],[5.37301,60.34096,0.0],[5.37369,60.34141,0.0],[5.37424,60.34168,0.0],[5.37432,60.34177,0.0],[5.37427,60.34184,0.0],[5.37416,60.3419,0.0],[5.37416,60.34196,0.0],[5.37355,60.34202,0.0],[5.37516,60.34309,0.0],[5.37556,60.34338,0.0],[5.37559,60.34343,0.0],[5.37613,60.34369,0.0],[5.37627,60.34376,0.0],[5.37634,60.34372,0.0],[5.37703,60.3441,0.0],[5.37727,60.34408,0.0],[5.37732,60.34415,0.0],[5.37733,60.34419,0.0],[5.37732,60.34426,0.0],[5.37733,60.34431,0.0],[5.37819,60.34678,0.0],[5.37857,60.34672,0.0],[5.3783,60.34709,0.0],[5.37827,60.34717,0.0],[5.37829,60.34734,0.0],[5.37829,60.34738,0.0],[5.37825,60.3474,0.0],[5.37819,60.34742,0.0],[5.37814,60.34743,0.0],[5.37813,60.34745,0.0],[5.37804,60.34753,0.0],[5.37793,60.34767,0.0],[5.37795,60.3478,0.0],[5.37826,60.34843,0.0],[5.3784,60.34858,0.0],[5.37842,60.34865,0.0],[5.37862,60.34888,0.0],[5.37872,60.34881,0.0],[5.37875,60.34878,0.0],[5.37879,60.34875,0.0],[5.37885,60.34872,0.0],[5.37915,60.34914,0.0],[5.3789,60.3492,0.0],[5.37903,60.34933,0.0],[5.37884,60.34952,0.0],[5.37894,60.3496,0.0],[5.37918,60.34967,0.0],[5.37926,60.34974,0.0],[5.37916,60.34998,0.0],[5.37872,60.35007,0.0],[5.37852,60.34987,0.0],[5.37838,60.34989,0.0],[5.37838,60.34993,0.0],[5.37849,60.35003,0.0],[5.37847,60.35027,0.0],[5.3783,60.35031,0.0],[5.37836,60.35061,0.0],[5.37844,60.35078,0.0],[5.37861,60.35108,0.0],[5.37861,60.35127,0.0],[5.3785,60.35134,0.0],[5.37826,60.35151,0.0],[5.38243,60.35516,0.0],[5.38331,60.3557,0.0],[5.38364,60.3559,0.0],[5.38682,60.35779,0.0],[5.39321,60.36156,0.0],[5.40637,60.36578,0.0],[5.4097,60.37,0.0],[5.41113,60.37173,0.0],[5.41433,60.37078,0.0],[5.41718,60.36997,0.0],[5.41979,60.36928,0.0],[5.42196,60.36869,0.0],[5.4246,60.36793,0.0],[5.42481,60.36789,0.0],[5.42583,60.36802,0.0],[5.42662,60.3681,0.0],[5.42744,60.36797,0.0],[5.42853,60.36785,0.0],[5.42903,60.36784,0.0],[5.42938,60.3678,0.0],[5.42972,60.36779,0.0],[5.43061,60.36776,0.0],[5.434,60.36792,0.0],[5.43427,60.36792,0.0],[5.43493,60.36797,0.0],[5.43665,60.36806,0.0],[5.43789,60.36812,0.0],[5.43944,60.36821,0.0],[5.43993,60.36818,0.0],[5.44109,60.36813,0.0],[5.44199,60.36812,0.0],[5.44357,60.36816,0.0],[5.44522,60.36815,0.0],[5.44527,60.3679,0.0],[5.4452,60.36764,0.0],[5.44507,60.36746,0.0],[5.44518,60.36729,0.0],[5.44511,60.36713,0.0],[5.44526,60.36683,0.0],[5.44542,60.36677,0.0],[5.44542,60.36664,0.0],[5.44534,60.36628,0.0],[5.44535,60.36619,0.0],[5.44539,60.36603,0.0],[5.44552,60.36573,0.0],[5.44555,60.36559,0.0],[5.44547,60.36531,0.0],[5.44549,60.36509,0.0],[5.44545,60.36479,0.0],[5.44551,60.36454,0.0],[5.44566,60.3643,0.0],[5.4459,60.36397,0.0],[5.44608,60.36362,0.0],[5.4458,60.36323,0.0],[5.44648,60.36309,0.0],[5.44706,60.36291,0.0],[5.44824,60.36224,0.0],[5.44823,60.36213,0.0],[5.44829,60.36194,0.0],[5.44868,60.36168,0.0],[5.44884,60.3616,0.0],[5.44936,60.36122,0.0],[5.44942,60.36095,0.0],[5.44933,60.36081,0.0],[5.44915,60.36077,0.0],[5.44851,60.36071,0.0],[5.44844,60.36043,0.0],[5.44841,60.36034,0.0],[5.44838,60.3602,0.0],[5.44862,60.3601,0.0],[5.44903,60.36014,0.0],[5.44907,60.35998,0.0],[5.44907,60.35979,0.0],[5.44906,60.35963,0.0],[5.44902,60.35949,0.0],[5.45049,60.35912,0.0],[5.45053,60.3591,0.0],[5.45027,60.35888,0.0],[5.45186,60.3582,0.0],[5.45152,60.35742,0.0],[5.45155,60.35735,0.0],[5.45244,60.35703,0.0],[5.45288,60.35684,0.0],[5.45324,60.35652,0.0],[5.45371,60.35623,0.0],[5.45408,60.35606,0.0],[5.45453,60.35588,0.0],[5.45489,60.35576,0.0],[5.45504,60.35538,0.0],[5.45506,60.35522,0.0],[5.45509,60.35501,0.0],[5.45508,60.3548,0.0],[5.45512,60.35464,0.0],[5.45514,60.35454,0.0],[5.45524,60.35427,0.0],[5.45523,60.35424,0.0],[5.45545,60.35343,0.0],[5.45551,60.35315,0.0],[5.45541,60.35157,0.0],[5.45411,60.34975,0.0],[5.45323,60.34848,0.0],[5.45211,60.34698,0.0],[5.45135,60.34089,0.0],[5.4548,60.34175,0.0],[5.45837,60.34262,0.0],[5.46047,60.34392,0.0],[5.4624,60.34511,0.0],[5.46383,60.34599,0.0],[5.46553,60.34694,0.0],[5.46816,60.34839,0.0],[5.47187,60.3487,0.0],[5.47345,60.34935,0.0],[5.47589,60.35034,0.0],[5.47905,60.35158,0.0],[5.48021,60.35173,0.0],[5.48267,60.35186,0.0],[5.48498,60.35219,0.0],[5.4891,60.35276,0.0],[5.49095,60.35413,0.0],[5.49338,60.35577,0.0],[5.49421,60.35627,0.0],[5.49522,60.35686,0.0],[5.49732,60.35759,0.0],[5.50056,60.35869,0.0],[5.50526,60.35918,0.0],[5.50782,60.36146,0.0],[5.50987,60.36338,0.0],[5.51376,60.36445,0.0],[5.51686,60.36533,0.0],[5.5195,60.3671,0.0],[5.52129,60.36834,0.0],[5.52293,60.36932,0.0],[5.52508,60.37055,0.0],[5.52694,60.37179,0.0],[5.52969,60.37205,0.0],[5.53258,60.37232,0.0],[5.5336,60.37222,0.0],[5.53666,60.37195,0.0],[5.54131,60.37155,0.0],[5.54175,60.37151,0.0],[5.54637,60.37226,0.0],[5.54948,60.37271,0.0],[5.55295,60.37327,0.0],[5.55643,60.37379,0.0],[5.55946,60.37435,0.0],[5.56329,60.37498,0.0],[5.56337,60.37494,0.0],[5.5638,60.37498,0.0],[5.56467,60.37502,0.0],[5.56553,60.37546,0.0],[5.56603,60.37589,0.0],[5.56675,60.37604,0.0],[5.56754,60.3763,0.0],[5.56827,60.37637,0.0],[5.56877,60.37673,0.0],[5.56876,60.37709,0.0],[5.56897,60.37753,0.0],[5.5691,60.37803,0.0],[5.56975,60.37821,0.0],[5.57069,60.37818,0.0],[5.57164,60.37805,0.0],[5.57251,60.37819,0.0],[5.57309,60.37816,0.0],[5.57447,60.37806,0.0],[5.57535,60.37792,0.0],[5.57578,60.37782,0.0],[5.5768,60.37782,0.0],[5.57738,60.37801,0.0],[5.57796,60.37794,0.0],[5.5792,60.37755,0.0],[5.5876,60.37454,0.0],[5.58629,60.3695,0.0],[5.58503,60.36466,0.0],[5.58339,60.35838,0.0],[5.58797,60.3562,0.0],[5.58807,60.35617,0.0],[5.58814,60.35614,0.0],[5.58819,60.35611,0.0],[5.58823,60.35607,0.0],[5.58832,60.35597,0.0],[5.58839,60.3559,0.0],[5.58845,60.35583,0.0],[5.58852,60.35573,0.0],[5.58859,60.35564,0.0],[5.58867,60.35555,0.0],[5.58875,60.35547,0.0],[5.5888,60.35542,0.0],[5.58887,60.35534,0.0],[5.58896,60.35524,0.0],[5.58903,60.35518,0.0],[5.58911,60.35509,0.0],[5.58922,60.355,0.0],[5.58928,60.35495,0.0],[5.58936,60.35487,0.0],[5.58943,60.3548,0.0],[5.58951,60.35472,0.0],[5.58959,60.35463,0.0],[5.58966,60.35453,0.0],[5.58972,60.35445,0.0],[5.58981,60.35434,0.0],[5.58987,60.35426,0.0],[5.58992,60.35419,0.0],[5.58997,60.35411,0.0],[5.59002,60.35404,0.0],[5.59007,60.35398,0.0],[5.59013,60.35389,0.0],[5.5902,60.3538,0.0],[5.59025,60.35375,0.0],[5.5903,60.35368,0.0],[5.59035,60.35361,0.0],[5.59039,60.35355,0.0],[5.59044,60.35347,0.0],[5.59051,60.35339,0.0],[5.59056,60.3533,0.0],[5.59062,60.35322,0.0],[5.59066,60.35314,0.0],[5.5907,60.35307,0.0],[5.59073,60.35298,0.0],[5.59076,60.35291,0.0],[5.59078,60.35287,0.0],[5.59079,60.35283,0.0],[5.5908,60.35279,0.0],[5.59081,60.35275,0.0],[5.59082,60.35272,0.0],[5.59082,60.35271,0.0],[5.59082,60.3527,0.0],[5.59082,60.35267,0.0],[5.59082,60.35265,0.0],[5.59082,60.35264,0.0],[5.59084,60.35254,0.0],[5.59088,60.35243,0.0],[5.59089,60.35228,0.0],[5.59089,60.35216,0.0],[5.59088,60.35202,0.0],[5.5909,60.35187,0.0],[5.59093,60.35179,0.0],[5.59098,60.35167,0.0],[5.59103,60.35156,0.0],[5.59107,60.35145,0.0],[5.59108,60.35133,0.0],[5.5911,60.35121,0.0],[5.5914,60.34946,0.0],[5.59131,60.34193,0.0],[5.59122,60.34164,0.0],[5.58826,60.33924,0.0],[5.57705,60.32991,0.0],[5.57663,60.32957,0.0],[5.57383,60.32923,0.0],[5.56531,60.32818,0.0],[5.55694,60.32585,0.0],[5.55467,60.32443,0.0],[5.55446,60.32429,0.0],[5.55388,60.32395,0.0],[5.55326,60.32355,0.0],[5.55324,60.32353,0.0],[5.54776,60.32014,0.0],[5.5453,60.31862,0.0],[5.5435,60.3175,0.0],[5.54358,60.31686,0.0],[5.54382,60.31484,0.0],[5.54399,60.3134,0.0],[5.5441,60.31249,0.0],[5.54412,60.31229,0.0],[5.54414,60.31212,0.0],[5.54385,60.3113,0.0],[5.54329,60.3097,0.0],[5.54162,60.30817,0.0],[5.53989,60.30658,0.0],[5.53934,60.30607,0.0],[5.53905,60.30581,0.0],[5.53879,60.30559,0.0],[5.53819,60.30509,0.0],[5.52977,60.29809,0.0],[5.52513,60.29695,0.0],[5.52591,60.29381,0.0],[5.52622,60.29165,0.0],[5.52691,60.28685,0.0],[5.52593,60.28574,0.0],[5.52489,60.28455,0.0],[5.52329,60.2827,0.0],[5.52189,60.28107,0.0],[5.52071,60.27969,0.0],[5.51358,60.28177,0.0],[5.51233,60.28206,0.0],[5.51161,60.28227,0.0],[5.51111,60.28244,0.0],[5.50986,60.28281,0.0],[5.50843,60.28321,0.0],[5.50763,60.2835,0.0],[5.50685,60.2837,0.0],[5.50569,60.28405,0.0],[5.50508,60.28423,0.0],[5.50435,60.28438,0.0],[5.50365,60.2846,0.0],[5.50352,60.28464,0.0],[5.50321,60.28473,0.0],[5.50242,60.28495,0.0],[5.50239,60.28496,0.0],[5.50296,60.28609,0.0],[5.5032,60.28657,0.0],[5.50337,60.28693,0.0],[5.50303,60.28695,0.0],[5.50137,60.28702,0.0],[5.50118,60.28704,0.0],[5.50063,60.28711,0.0],[5.5,60.28718,0.0],[5.499,60.2873,0.0],[5.49859,60.28737,0.0],[5.4972,60.28757,0.0],[5.49533,60.28802,0.0],[5.49123,60.28868,0.0],[5.49056,60.2878,0.0],[5.48879,60.28593,0.0],[5.4852,60.28319,0.0],[5.48018,60.2779,0.0],[5.4794,60.27711,0.0],[5.47874,60.27631,0.0],[5.47825,60.27571,0.0],[5.47729,60.2748,0.0],[5.4752,60.27279,0.0],[5.47419,60.27208,0.0],[5.46809,60.26778,0.0],[5.46622,60.26538,0.0],[5.46379,60.26419,0.0],[5.46211,60.26372,0.0],[5.45821,60.26264,0.0],[5.45747,60.26244,0.0],[5.45619,60.26145,0.0],[5.45536,60.26079,0.0],[5.45277,60.25877,0.0],[5.45048,60.25775,0.0],[5.44701,60.25632,0.0],[5.44365,60.25633,0.0],[5.44218,60.25634,0.0],[5.4421,60.25634,0.0],[5.44028,60.25634,0.0],[5.44021,60.25634,0.0],[5.44011,60.25634,0.0],[5.43913,60.25634,0.0],[5.43778,60.25489,0.0],[5.43762,60.25478,0.0],[5.43757,60.25475,0.0],[5.43741,60.25464,0.0],[5.43738,60.25462,0.0],[5.43733,60.25459,0.0],[5.43699,60.25436,0.0],[5.43693,60.25433,0.0],[5.43662,60.25413,0.0],[5.43654,60.25408,0.0],[5.43649,60.25405,0.0],[5.43612,60.25381,0.0],[5.43567,60.25352,0.0],[5.43434,60.25266,0.0],[5.43325,60.25197,0.0],[5.42967,60.24947,0.0],[5.42878,60.24846,0.0],[5.42311,60.24427,0.0],[5.42288,60.24457,0.0],[5.42215,60.24552,0.0],[5.42125,60.2467,0.0],[5.42125,60.24701,0.0],[5.42129,60.24969,0.0],[5.41096,60.24556,0.0],[5.40697,60.24381,0.0],[5.40098,60.24404,0.0]]]]}},{"type":"Feature","properties":{"uesi_id":"NOR_R404159","nbhd_code":"NOR_R404159_4","nbhd_name":"Fyllingsdalen"},"geometry":{"type":"MultiPolygon","coordinates":[[[[5.24764,60.32705,0.0],[5.24622,60.32886,0.0],[5.2426,60.33681,0.0],[5.24357,60.338,0.0],[5.2433,60.33812,0.0],[5.24373,60.33854,0.0],[5.24395,60.3387,0.0],[5.24395,60.33874,0.0],[5.24399,60.33879,0.0],[5.24421,60.33902,0.0],[5.24444,60.33919,0.0],[5.2445,60.33927,0.0],[5.24456,60.33937,0.0],[5.24473,60.33964,0.0],[5.24478,60.33969,0.0],[5.24494,60.33982,0.0],[5.24511,60.34007,0.0],[5.24517,60.34009,0.0],[5.24535,60.34014,0.0],[5.24542,60.34018,0.0],[5.24553,60.34019,0.0],[5.24569,60.34016,0.0],[5.24586,60.34018,0.0],[5.24598,60.34023,0.0],[5.2462,60.34027,0.0],[5.24637,60.34033,0.0],[5.24644,60.34032,0.0],[5.24659,60.34027,0.0],[5.24675,60.34022,0.0],[5.24686,60.34018,0.0],[5.24689,60.34022,0.0],[5.24714,60.34066,0.0],[5.24736,60.3404,0.0],[5.24804,60.3406,0.0],[5.24807,60.34063,0.0],[5.24807,60.34067,0.0],[5.24801,60.34076,0.0],[5.24793,60.34091,0.0],[5.24787,60.34103,0.0],[5.24772,60.34122,0.0],[5.24758,60.34137,0.0],[5.24757,60.34141,0.0],[5.24814,60.34242,0.0],[5.24893,60.34444,0.0],[5.24915,60.34464,0.0],[5.25166,60.34799,0.0],[5.25348,60.35016,0.0],[5.2556,60.3518,0.0],[5.25713,60.35302,0.0],[5.26116,60.35622,0.0],[5.26201,60.35663,0.0],[5.26316,60.35715,0.0],[5.2641,60.35761,0.0],[5.27384,60.36223,0.0],[5.27391,60.36267,0.0],[5.27415,60.36406,0.0],[5.2744,60.36555,0.0],[5.2752,60.37033,0.0],[5.27564,60.37301,0.0],[5.27602,60.37519,0.0],[5.28561,60.37463,0.0],[5.29191,60.37427,0.0],[5.29529,60.37408,0.0],[5.29881,60.37372,0.0],[5.29889,60.37393,0.0],[5.29884,60.37416,0.0],[5.29969,60.37409,0.0],[5.29971,60.37362,0.0],[5.29894,60.37285,0.0],[5.29892,60.37116,0.0],[5.29845,60.37121,0.0],[5.2983,60.37042,0.0],[5.29835,60.36966,0.0],[5.29906,60.36965,0.0],[5.29936,60.36953,0.0],[5.29942,60.36932,0.0],[5.29976,60.36917,0.0],[5.3,60.36928,0.0],[5.29995,60.3694,0.0],[5.30071,60.36956,0.0],[5.30104,60.36955,0.0],[5.30149,60.36953,0.0],[5.30165,60.36952,0.0],[5.3025,60.37021,0.0],[5.30263,60.37024,0.0],[5.3029,60.37037,0.0],[5.30317,60.37049,0.0],[5.30358,60.37068,0.0],[5.30372,60.37075,0.0],[5.30381,60.37082,0.0],[5.30385,60.37089,0.0],[5.30393,60.37095,0.0],[5.30457,60.37094,0.0],[5.30434,60.3707,0.0],[5.30426,60.37066,0.0],[5.30406,60.37059,0.0],[5.30386,60.37057,0.0],[5.30381,60.37054,0.0],[5.30391,60.37033,0.0],[5.30435,60.37038,0.0],[5.30444,60.37039,0.0],[5.30515,60.3703,0.0],[5.30498,60.37001,0.0],[5.3052,60.36998,0.0],[5.30516,60.3699,0.0],[5.30549,60.36972,0.0],[5.30557,60.36968,0.0],[5.30577,60.36941,0.0],[5.30539,60.36935,0.0],[5.30583,60.36903,0.0],[5.30681,60.36904,0.0],[5.30985,60.36905,0.0],[5.31318,60.36904,0.0],[5.31683,60.36904,0.0],[5.31698,60.36864,0.0],[5.31928,60.36137,0.0],[5.3178,60.3606,0.0],[5.31398,60.35861,0.0],[5.31386,60.357,0.0],[5.31381,60.35588,0.0],[5.31347,60.35416,0.0],[5.31289,60.35232,0.0],[5.31268,60.35168,0.0],[5.31248,60.35074,0.0],[5.31229,60.34987,0.0],[5.32076,60.35033,0.0],[5.32759,60.34999,0.0],[5.33115,60.34981,0.0],[5.33274,60.3497,0.0],[5.33584,60.34916,0.0],[5.3359,60.34913,0.0],[5.3357,60.34889,0.0],[5.33539,60.34855,0.0],[5.33513,60.34814,0.0],[5.33528,60.34808,0.0],[5.33538,60.34801,0.0],[5.3354,60.34798,0.0],[5.3354,60.34795,0.0],[5.3353,60.34783,0.0],[5.33505,60.34775,0.0],[5.33481,60.34763,0.0],[5.33443,60.34722,0.0],[5.33429,60.3468,0.0],[5.33428,60.34628,0.0],[5.33403,60.34578,0.0],[5.33361,60.34535,0.0],[5.33415,60.34414,0.0],[5.33311,60.33155,0.0],[5.31919,60.32581,0.0],[5.31876,60.32561,0.0],[5.31784,60.32525,0.0],[5.31006,60.31973,0.0],[5.28471,60.31944,0.0],[5.28159,60.32145,0.0],[5.27918,60.32298,0.0],[5.27424,60.32272,0.0],[5.27107,60.32159,0.0],[5.26895,60.32104,0.0],[5.26753,60.3211,0.0],[5.26601,60.32132,0.0],[5.26357,60.32098,0.0],[5.2567,60.31876,0.0],[5.25096,60.32291,0.0],[5.24764,60.32705,0.0]]]]}},{"type":"Feature","properties":{"uesi_id":"NOR_R404159","nbhd_code":"NOR_R404159_5","nbhd_name":"Laksev\u00e5g"},"geometry":{"type":"MultiPolygon","coordinates":[[[[5.20316,60.3214,0.0],[5.19388,60.33247,0.0],[5.19127,60.33557,0.0],[5.17172,60.34072,0.0],[5.17092,60.34923,0.0],[5.16928,60.36655,0.0],[5.16603,60.37257,0.0],[5.17013,60.38177,0.0],[5.20883,60.39437,0.0],[5.21083,60.39502,0.0],[5.21808,60.39738,0.0],[5.23637,60.40333,0.0],[5.26028,60.40234,0.0],[5.26879,60.40521,0.0],[5.27365,60.40685,0.0],[5.27586,60.4076,0.0],[5.30127,60.39014,0.0],[5.30334,60.38895,0.0],[5.30417,60.38852,0.0],[5.31433,60.38459,0.0],[5.31664,60.38366,0.0],[5.31471,60.38226,0.0],[5.3141,60.38182,0.0],[5.3137,60.38151,0.0],[5.31328,60.3813,0.0],[5.31364,60.38118,0.0],[5.31403,60.38099,0.0],[5.31398,60.38094,0.0],[5.31395,60.38086,0.0],[5.31405,60.38074,0.0],[5.31415,60.38066,0.0],[5.31415,60.38062,0.0],[5.31405,60.38054,0.0],[5.31352,60.38011,0.0],[5.31335,60.37998,0.0],[5.31324,60.37989,0.0],[5.31256,60.37931,0.0],[5.31201,60.37893,0.0],[5.30912,60.37678,0.0],[5.30936,60.37628,0.0],[5.31116,60.37246,0.0],[5.31473,60.37559,0.0],[5.31683,60.36904,0.0],[5.31318,60.36904,0.0],[5.30985,60.36905,0.0],[5.30681,60.36904,0.0],[5.30583,60.36903,0.0],[5.30539,60.36935,0.0],[5.30577,60.36941,0.0],[5.30557,60.36968,0.0],[5.30549,60.36972,0.0],[5.30516,60.3699,0.0],[5.3052,60.36998,0.0],[5.30498,60.37001,0.0],[5.30515,60.3703,0.0],[5.30444,60.37039,0.0],[5.30435,60.37038,0.0],[5.30391,60.37033,0.0],[5.30381,60.37054,0.0],[5.30386,60.37057,0.0],[5.30406,60.37059,0.0],[5.30426,60.37066,0.0],[5.30434,60.3707,0.0],[5.30457,60.37094,0.0],[5.30393,60.37095,0.0],[5.30385,60.37089,0.0],[5.30381,60.37082,0.0],[5.30372,60.37075,0.0],[5.30358,60.37068,0.0],[5.30317,60.37049,0.0],[5.3029,60.37037,0.0],[5.30263,60.37024,0.0],[5.3025,60.37021,0.0],[5.30165,60.36952,0.0],[5.30149,60.36953,0.0],[5.30104,60.36955,0.0],[5.30071,60.36956,0.0],[5.29995,60.3694,0.0],[5.3,60.36928,0.0],[5.29976,60.36917,0.0],[5.29942,60.36932,0.0],[5.29936,60.36953,0.0],[5.29906,60.36965,0.0],[5.29835,60.36966,0.0],[5.2983,60.37042,0.0],[5.29845,60.37121,0.0],[5.29892,60.37116,0.0],[5.29894,60.37285,0.0],[5.29971,60.37362,0.0],[5.29969,60.37409,0.0],[5.29884,60.37416,0.0],[5.29889,60.37393,0.0],[5.29881,60.37372,0.0],[5.29529,60.37408,0.0],[5.29191,60.37427,0.0],[5.28561,60.37463,0.0],[5.27602,60.37519,0.0],[5.27564,60.37301,0.0],[5.2752,60.37033,0.0],[5.2744,60.36555,0.0],[5.27415,60.36406,0.0],[5.27391,60.36267,0.0],[5.27384,60.36223,0.0],[5.2641,60.35761,0.0],[5.26316,60.35715,0.0],[5.26201,60.35663,0.0],[5.26116,60.35622,0.0],[5.25713,60.35302,0.0],[5.2556,60.3518,0.0],[5.25348,60.35016,0.0],[5.25166,60.34799,0.0],[5.24915,60.34464,0.0],[5.24893,60.34444,0.0],[5.24814,60.34242,0.0],[5.24757,60.34141,0.0],[5.24758,60.34137,0.0],[5.24772,60.34122,0.0],[5.24787,60.34103,0.0],[5.24793,60.34091,0.0],[5.24801,60.34076,0.0],[5.24807,60.34067,0.0],[5.24807,60.34063,0.0],[5.24804,60.3406,0.0],[5.24736,60.3404,0.0],[5.24714,60.34066,0.0],[5.24689,60.34022,0.0],[5.24686,60.34018,0.0],[5.24675,60.34022,0.0],[5.24659,60.34027,0.0],[5.24644,60.34032,0.0],[5.24637,60.34033,0.0],[5.2462,60.34027,0.0],[5.24598,60.34023,0.0],[5.24586,60.34018,0.0],[5.24569,60.34016,0.0],[5.24553,60.34019,0.0],[5.24542,60.34018,0.0],[5.24535,60.34014,0.0],[5.24517,60.34009,0.0],[5.24511,60.34007,0.0],[5.24494,60.33982,0.0],[5.24478,60.33969,0.0],[5.24473,60.33964,0.0],[5.24456,60.33937,0.0],[5.2445,60.33927,0.0],[5.24444,60.33919,0.0],[5.24421,60.33902,0.0],[5.24399,60.33879,0.0],[5.24395,60.33874,0.0],[5.24395,60.3387,0.0],[5.24373,60.33854,0.0],[5.2433,60.33812,0.0],[5.24357,60.338,0.0],[5.2426,60.33681,0.0],[5.24622,60.32886,0.0],[5.24764,60.32705,0.0],[5.20316,60.3214,0.0]]]]}},{"type":"Feature","properties":{"uesi_id":"NOR_R404159","nbhd_code":"NOR_R404159_6","nbhd_name":"Ytrebygda"},"geometry":{"type":"MultiPolygon","coordinates":[[[[5.24764,60.32705,0.0],[5.25096,60.32291,0.0],[5.2567,60.31876,0.0],[5.26357,60.32098,0.0],[5.26601,60.32132,0.0],[5.26753,60.3211,0.0],[5.26895,60.32104,0.0],[5.27107,60.32159,0.0],[5.27424,60.32272,0.0],[5.27918,60.32298,0.0],[5.28159,60.32145,0.0],[5.28471,60.31944,0.0],[5.31006,60.31973,0.0],[5.31579,60.31684,0.0],[5.31745,60.31605,0.0],[5.31903,60.31529,0.0],[5.32582,60.31257,0.0],[5.32649,60.31119,0.0],[5.32649,60.3111,0.0],[5.3266,60.31099,0.0],[5.32656,60.31097,0.0],[5.32661,60.31092,0.0],[5.32667,60.31083,0.0],[5.32671,60.31079,0.0],[5.3268,60.31071,0.0],[5.32683,60.31066,0.0],[5.32687,60.31061,0.0],[5.32695,60.31056,0.0],[5.327,60.31053,0.0],[5.32704,60.3105,0.0],[5.32703,60.31046,0.0],[5.32699,60.31039,0.0],[5.327,60.31036,0.0],[5.32704,60.31032,0.0],[5.32713,60.31027,0.0],[5.32729,60.3102,0.0],[5.32758,60.31011,0.0],[5.32772,60.31005,0.0],[5.32787,60.30998,0.0],[5.3279,60.30996,0.0],[5.32788,60.30993,0.0],[5.32776,60.30984,0.0],[5.32773,60.3098,0.0],[5.32773,60.30976,0.0],[5.32776,60.30972,0.0],[5.32773,60.30969,0.0],[5.32767,60.30969,0.0],[5.32742,60.30969,0.0],[5.32736,60.30969,0.0],[5.32732,60.30967,0.0],[5.32733,60.30962,0.0],[5.32735,60.30959,0.0],[5.32743,60.3095,0.0],[5.32746,60.30942,0.0],[5.32751,60.30923,0.0],[5.32751,60.30913,0.0],[5.32763,60.30901,0.0],[5.32764,60.30898,0.0],[5.3276,60.30894,0.0],[5.3276,60.30891,0.0],[5.32778,60.30893,0.0],[5.32804,60.30867,0.0],[5.32835,60.30857,0.0],[5.32826,60.3085,0.0],[5.32851,60.30851,0.0],[5.32859,60.3085,0.0],[5.32871,60.30848,0.0],[5.32846,60.30785,0.0],[5.32837,60.30762,0.0],[5.32778,60.30639,0.0],[5.32761,60.3057,0.0],[5.32758,60.30479,0.0],[5.32762,60.30396,0.0],[5.32782,60.30314,0.0],[5.3281,60.30238,0.0],[5.32841,60.30169,0.0],[5.32889,60.3,0.0],[5.32731,60.29747,0.0],[5.32665,60.29645,0.0],[5.32613,60.29553,0.0],[5.32592,60.2953,0.0],[5.32546,60.29501,0.0],[5.32479,60.29456,0.0],[5.32428,60.29413,0.0],[5.32369,60.29379,0.0],[5.32425,60.29353,0.0],[5.32439,60.29338,0.0],[5.32451,60.29304,0.0],[5.32472,60.29257,0.0],[5.32488,60.29229,0.0],[5.32522,60.29182,0.0],[5.32533,60.29147,0.0],[5.3254,60.29103,0.0],[5.32542,60.29055,0.0],[5.3254,60.29012,0.0],[5.32526,60.28852,0.0],[5.32525,60.28787,0.0],[5.32519,60.28644,0.0],[5.32523,60.28567,0.0],[5.32541,60.28477,0.0],[5.32541,60.2845,0.0],[5.32532,60.2845,0.0],[5.32439,60.28449,0.0],[5.32272,60.28423,0.0],[5.32058,60.28391,0.0],[5.31942,60.28378,0.0],[5.31828,60.28366,0.0],[5.31807,60.28341,0.0],[5.31406,60.28328,0.0],[5.31525,60.28188,0.0],[5.31595,60.28208,0.0],[5.31631,60.28181,0.0],[5.3146,60.28097,0.0],[5.31536,60.28018,0.0],[5.31528,60.28019,0.0],[5.31516,60.28027,0.0],[5.31446,60.2807,0.0],[5.31422,60.28084,0.0],[5.31405,60.28091,0.0],[5.31373,60.28102,0.0],[5.31351,60.28108,0.0],[5.3134,60.2811,0.0],[5.31296,60.28119,0.0],[5.31277,60.28123,0.0],[5.31264,60.28126,0.0],[5.31237,60.28134,0.0],[5.31207,60.28131,0.0],[5.3104,60.2811,0.0],[5.30968,60.28132,0.0],[5.30764,60.28081,0.0],[5.30592,60.27991,0.0],[5.30913,60.2752,0.0],[5.30548,60.27474,0.0],[5.30483,60.27468,0.0],[5.30462,60.27464,0.0],[5.30364,60.27454,0.0],[5.30225,60.27436,0.0],[5.30104,60.27425,0.0],[5.29997,60.27411,0.0],[5.29883,60.27402,0.0],[5.29721,60.27389,0.0],[5.29648,60.27395,0.0],[5.295,60.27246,0.0],[5.29444,60.27211,0.0],[5.29383,60.2716,0.0],[5.29331,60.27115,0.0],[5.29287,60.2707,0.0],[5.29262,60.2705,0.0],[5.29215,60.26993,0.0],[5.29159,60.26931,0.0],[5.29089,60.26867,0.0],[5.2903,60.26817,0.0],[5.28992,60.2677,0.0],[5.29127,60.26671,0.0],[5.29147,60.26552,0.0],[5.29162,60.26495,0.0],[5.292,60.26477,0.0],[5.29217,60.26464,0.0],[5.29219,60.26446,0.0],[5.29233,60.26442,0.0],[5.29213,60.26422,0.0],[5.29246,60.26414,0.0],[5.29271,60.26085,0.0],[5.29244,60.25966,0.0],[5.29233,60.25725,0.0],[5.2913,60.25593,0.0],[5.2871,60.2502,0.0],[5.279,60.2392,0.0],[5.2434,60.22464,0.0],[5.23236,60.22454,0.0],[5.23802,60.23004,0.0],[5.22748,60.23812,0.0],[5.2272,60.24819,0.0],[5.23295,60.2553,0.0],[5.22056,60.25877,0.0],[5.20248,60.25075,0.0],[5.15554,60.25374,0.0],[5.14458,60.26385,0.0],[5.16114,60.27539,0.0],[5.18767,60.27445,0.0],[5.19005,60.28934,0.0],[5.20316,60.3214,0.0],[5.24764,60.32705,0.0]]]]}},{"type":"Feature","properties":{"uesi_id":"NOR_R404159","nbhd_code":"NOR_R404159_7","nbhd_name":"\u00c5rstad"},"geometry":{"type":"MultiPolygon","coordinates":[[[[5.32759,60.34999,0.0],[5.32076,60.35033,0.0],[5.31229,60.34987,0.0],[5.31248,60.35074,0.0],[5.31268,60.35168,0.0],[5.31289,60.35232,0.0],[5.31347,60.35416,0.0],[5.31381,60.35588,0.0],[5.31386,60.357,0.0],[5.31398,60.35861,0.0],[5.3178,60.3606,0.0],[5.31928,60.36137,0.0],[5.31698,60.36864,0.0],[5.31683,60.36904,0.0],[5.31473,60.37559,0.0],[5.31116,60.37246,0.0],[5.30936,60.37628,0.0],[5.30912,60.37678,0.0],[5.31201,60.37893,0.0],[5.31256,60.37931,0.0],[5.31324,60.37989,0.0],[5.31335,60.37998,0.0],[5.31352,60.38011,0.0],[5.31405,60.38054,0.0],[5.31415,60.38062,0.0],[5.31415,60.38066,0.0],[5.31405,60.38074,0.0],[5.31395,60.38086,0.0],[5.31398,60.38094,0.0],[5.31403,60.38099,0.0],[5.31364,60.38118,0.0],[5.31328,60.3813,0.0],[5.3137,60.38151,0.0],[5.3141,60.38182,0.0],[5.31471,60.38226,0.0],[5.31664,60.38366,0.0],[5.31897,60.38283,0.0],[5.32244,60.38162,0.0],[5.32453,60.38067,0.0],[5.32495,60.38048,0.0],[5.33202,60.37997,0.0],[5.33506,60.38008,0.0],[5.34191,60.3807,0.0],[5.34379,60.3811,0.0],[5.34435,60.38053,0.0],[5.34533,60.37953,0.0],[5.3454,60.37951,0.0],[5.34551,60.37951,0.0],[5.34572,60.37953,0.0],[5.34595,60.37952,0.0],[5.34618,60.37941,0.0],[5.34645,60.37922,0.0],[5.3465,60.37912,0.0],[5.34648,60.37908,0.0],[5.34619,60.37884,0.0],[5.34594,60.37851,0.0],[5.34588,60.37843,0.0],[5.34574,60.37832,0.0],[5.34615,60.37791,0.0],[5.3465,60.37777,0.0],[5.34663,60.37772,0.0],[5.34719,60.37756,0.0],[5.34727,60.37754,0.0],[5.34765,60.37744,0.0],[5.34801,60.37735,0.0],[5.34844,60.3772,0.0],[5.34854,60.37716,0.0],[5.34886,60.37707,0.0],[5.3491,60.37701,0.0],[5.34936,60.37695,0.0],[5.34959,60.3769,0.0],[5.35006,60.3768,0.0],[5.35012,60.37678,0.0],[5.35019,60.37676,0.0],[5.35028,60.37673,0.0],[5.35033,60.37669,0.0],[5.35075,60.37654,0.0],[5.35093,60.37648,0.0],[5.35129,60.37641,0.0],[5.35137,60.37642,0.0],[5.3517,60.37626,0.0],[5.35192,60.37616,0.0],[5.3521,60.37606,0.0],[5.35198,60.37583,0.0],[5.35189,60.37558,0.0],[5.35178,60.37536,0.0],[5.35277,60.37521,0.0],[5.353,60.37517,0.0],[5.35282,60.37491,0.0],[5.35267,60.37488,0.0],[5.35245,60.3749,0.0],[5.35166,60.37503,0.0],[5.35156,60.37479,0.0],[5.35153,60.37463,0.0],[5.35156,60.37459,0.0],[5.35154,60.37455,0.0],[5.35162,60.37454,0.0],[5.35163,60.37456,0.0],[5.35191,60.37453,0.0],[5.3523,60.37441,0.0],[5.3525,60.37433,0.0],[5.35257,60.37431,0.0],[5.35289,60.3742,0.0],[5.35312,60.37413,0.0],[5.35334,60.37405,0.0],[5.35363,60.37397,0.0],[5.35431,60.37389,0.0],[5.35496,60.37379,0.0],[5.35514,60.3737,0.0],[5.35517,60.37366,0.0],[5.3553,60.37357,0.0],[5.35539,60.37354,0.0],[5.35566,60.37326,0.0],[5.35562,60.37321,0.0],[5.35611,60.37307,0.0],[5.35651,60.37295,0.0],[5.35671,60.37283,0.0],[5.35698,60.37261,0.0],[5.35726,60.37234,0.0],[5.35769,60.37209,0.0],[5.35781,60.37208,0.0],[5.35804,60.3722,0.0],[5.35844,60.3721,0.0],[5.35904,60.372,0.0],[5.35963,60.37189,0.0],[5.35989,60.37175,0.0],[5.36034,60.37113,0.0],[5.36051,60.37115,0.0],[5.36142,60.37131,0.0],[5.36174,60.37085,0.0],[5.36215,60.37092,0.0],[5.3621,60.3711,0.0],[5.36239,60.37122,0.0],[5.36248,60.37122,0.0],[5.36266,60.37119,0.0],[5.36286,60.37116,0.0],[5.36328,60.37107,0.0],[5.36386,60.37127,0.0],[5.36373,60.37174,0.0],[5.36386,60.37195,0.0],[5.36439,60.37251,0.0],[5.3646,60.37293,0.0],[5.36496,60.37323,0.0],[5.3654,60.37334,0.0],[5.36641,60.37383,0.0],[5.36746,60.37467,0.0],[5.37394,60.37627,0.0],[5.38668,60.37458,0.0],[5.39666,60.37317,0.0],[5.40637,60.37243,0.0],[5.40713,60.37268,0.0],[5.41113,60.37173,0.0],[5.4097,60.37,0.0],[5.40637,60.36578,0.0],[5.39321,60.36156,0.0],[5.38682,60.35779,0.0],[5.38364,60.3559,0.0],[5.38331,60.3557,0.0],[5.38243,60.35516,0.0],[5.37826,60.35151,0.0],[5.3785,60.35134,0.0],[5.37861,60.35127,0.0],[5.37861,60.35108,0.0],[5.37844,60.35078,0.0],[5.37836,60.35061,0.0],[5.3783,60.35031,0.0],[5.37847,60.35027,0.0],[5.37849,60.35003,0.0],[5.37838,60.34993,0.0],[5.37838,60.34989,0.0],[5.37852,60.34987,0.0],[5.37872,60.35007,0.0],[5.37916,60.34998,0.0],[5.37926,60.34974,0.0],[5.37918,60.34967,0.0],[5.37894,60.3496,0.0],[5.37884,60.34952,0.0],[5.37903,60.34933,0.0],[5.3789,60.3492,0.0],[5.37915,60.34914,0.0],[5.37885,60.34872,0.0],[5.37879,60.34875,0.0],[5.37875,60.34878,0.0],[5.37872,60.34881,0.0],[5.37862,60.34888,0.0],[5.37842,60.34865,0.0],[5.3784,60.34858,0.0],[5.37826,60.34843,0.0],[5.37795,60.3478,0.0],[5.37793,60.34767,0.0],[5.37804,60.34753,0.0],[5.37813,60.34745,0.0],[5.37814,60.34743,0.0],[5.37819,60.34742,0.0],[5.37825,60.3474,0.0],[5.37829,60.34738,0.0],[5.37829,60.34734,0.0],[5.37827,60.34717,0.0],[5.3783,60.34709,0.0],[5.37857,60.34672,0.0],[5.37819,60.34678,0.0],[5.37733,60.34431,0.0],[5.37732,60.34426,0.0],[5.37733,60.34419,0.0],[5.37732,60.34415,0.0],[5.37727,60.34408,0.0],[5.37703,60.3441,0.0],[5.37634,60.34372,0.0],[5.37627,60.34376,0.0],[5.37613,60.34369,0.0],[5.37559,60.34343,0.0],[5.37556,60.34338,0.0],[5.37516,60.34309,0.0],[5.37355,60.34202,0.0],[5.37416,60.34196,0.0],[5.37416,60.3419,0.0],[5.37427,60.34184,0.0],[5.37432,60.34177,0.0],[5.37424,60.34168,0.0],[5.37369,60.34141,0.0],[5.37301,60.34096,0.0],[5.37207,60.34027,0.0],[5.37189,60.34,0.0],[5.3717,60.33977,0.0],[5.37134,60.33956,0.0],[5.37094,60.33934,0.0],[5.37077,60.33923,0.0],[5.37051,60.33912,0.0],[5.37016,60.33902,0.0],[5.36992,60.33899,0.0],[5.36968,60.33901,0.0],[5.36943,60.33906,0.0],[5.36929,60.33915,0.0],[5.36911,60.33945,0.0],[5.369,60.3396,0.0],[5.36869,60.33976,0.0],[5.36834,60.3399,0.0],[5.36803,60.34008,0.0],[5.36789,60.34024,0.0],[5.36771,60.34035,0.0],[5.36728,60.34058,0.0],[5.3669,60.34078,0.0],[5.36644,60.34102,0.0],[5.36617,60.34118,0.0],[5.36596,60.34137,0.0],[5.36572,60.34174,0.0],[5.36558,60.34157,0.0],[5.3654,60.34148,0.0],[5.3654,60.34128,0.0],[5.36528,60.34114,0.0],[5.36502,60.34102,0.0],[5.36451,60.34091,0.0],[5.36408,60.3408,0.0],[5.36374,60.34071,0.0],[5.36355,60.34065,0.0],[5.36343,60.34057,0.0],[5.3634,60.34045,0.0],[5.36345,60.34036,0.0],[5.36357,60.34032,0.0],[5.36388,60.34034,0.0],[5.3643,60.34036,0.0],[5.36447,60.34036,0.0],[5.36453,60.34032,0.0],[5.36452,60.34025,0.0],[5.36444,60.34021,0.0],[5.36427,60.3402,0.0],[5.36415,60.34018,0.0],[5.36399,60.34016,0.0],[5.36386,60.34013,0.0],[5.36381,60.34009,0.0],[5.36384,60.34006,0.0],[5.36382,60.33993,0.0],[5.36378,60.33952,0.0],[5.36303,60.33942,0.0],[5.36288,60.33931,0.0],[5.36242,60.33942,0.0],[5.36219,60.33936,0.0],[5.36222,60.33917,0.0],[5.362,60.33917,0.0],[5.36176,60.33938,0.0],[5.36169,60.3394,0.0],[5.36168,60.33952,0.0],[5.36118,60.33959,0.0],[5.36091,60.33936,0.0],[5.3607,60.33939,0.0],[5.36063,60.3394,0.0],[5.36026,60.33972,0.0],[5.36024,60.33981,0.0],[5.36022,60.33994,0.0],[5.3603,60.33996,0.0],[5.36032,60.34018,0.0],[5.36004,60.3402,0.0],[5.35979,60.34022,0.0],[5.35945,60.34024,0.0],[5.3595,60.34028,0.0],[5.35964,60.34038,0.0],[5.35974,60.34044,0.0],[5.35995,60.34059,0.0],[5.35998,60.34061,0.0],[5.36013,60.34072,0.0],[5.36025,60.34079,0.0],[5.36022,60.34088,0.0],[5.36019,60.34102,0.0],[5.36015,60.34106,0.0],[5.3601,60.34109,0.0],[5.36008,60.34111,0.0],[5.36011,60.34128,0.0],[5.36014,60.34145,0.0],[5.36013,60.34156,0.0],[5.3601,60.34176,0.0],[5.36005,60.34187,0.0],[5.36002,60.34192,0.0],[5.35993,60.34195,0.0],[5.35974,60.34195,0.0],[5.35887,60.34134,0.0],[5.35867,60.34142,0.0],[5.35816,60.34128,0.0],[5.3579,60.34124,0.0],[5.35749,60.34124,0.0],[5.35727,60.34124,0.0],[5.35709,60.34123,0.0],[5.35681,60.3412,0.0],[5.35669,60.3412,0.0],[5.35668,60.34169,0.0],[5.35668,60.34174,0.0],[5.35668,60.34179,0.0],[5.35668,60.34181,0.0],[5.35561,60.34181,0.0],[5.3551,60.3425,0.0],[5.35541,60.34312,0.0],[5.35458,60.34306,0.0],[5.35454,60.34317,0.0],[5.35414,60.34314,0.0],[5.35405,60.3433,0.0],[5.35374,60.34371,0.0],[5.35345,60.34403,0.0],[5.35324,60.34416,0.0],[5.35271,60.34449,0.0],[5.35214,60.34483,0.0],[5.35188,60.34496,0.0],[5.3517,60.34514,0.0],[5.35155,60.34535,0.0],[5.35148,60.34556,0.0],[5.35148,60.34593,0.0],[5.35145,60.34611,0.0],[5.35135,60.34622,0.0],[5.35111,60.34633,0.0],[5.35095,60.34645,0.0],[5.35072,60.34674,0.0],[5.35031,60.34668,0.0],[5.35006,60.34665,0.0],[5.34987,60.34663,0.0],[5.34967,60.34656,0.0],[5.34952,60.34654,0.0],[5.34989,60.34742,0.0],[5.34994,60.34819,0.0],[5.35004,60.3487,0.0],[5.35011,60.3492,0.0],[5.35015,60.34962,0.0],[5.35006,60.34983,0.0],[5.34957,60.35039,0.0],[5.34907,60.35095,0.0],[5.34892,60.35117,0.0],[5.34884,60.35134,0.0],[5.34877,60.3516,0.0],[5.34866,60.3516,0.0],[5.34863,60.35163,0.0],[5.34858,60.35166,0.0],[5.34854,60.35168,0.0],[5.34847,60.3517,0.0],[5.34834,60.35172,0.0],[5.34825,60.35175,0.0],[5.34819,60.35175,0.0],[5.34807,60.35166,0.0],[5.34784,60.35167,0.0],[5.3477,60.35171,0.0],[5.34763,60.3517,0.0],[5.34756,60.35171,0.0],[5.3475,60.35178,0.0],[5.34742,60.35182,0.0],[5.34738,60.35189,0.0],[5.34681,60.35184,0.0],[5.3466,60.35197,0.0],[5.34652,60.35197,0.0],[5.34642,60.35188,0.0],[5.34637,60.35182,0.0],[5.34566,60.35182,0.0],[5.34582,60.35195,0.0],[5.34586,60.35198,0.0],[5.34592,60.35206,0.0],[5.34595,60.35215,0.0],[5.34418,60.35215,0.0],[5.34381,60.3518,0.0],[5.34356,60.35157,0.0],[5.34343,60.35134,0.0],[5.34355,60.35131,0.0],[5.34344,60.35122,0.0],[5.3432,60.35105,0.0],[5.34306,60.35095,0.0],[5.34301,60.35107,0.0],[5.34298,60.35155,0.0],[5.34291,60.35157,0.0],[5.34267,60.3515,0.0],[5.34238,60.35144,0.0],[5.34233,60.35142,0.0],[5.34222,60.35128,0.0],[5.34214,60.35123,0.0],[5.34118,60.35127,0.0],[5.34105,60.35148,0.0],[5.34103,60.3515,0.0],[5.34098,60.35153,0.0],[5.34093,60.35156,0.0],[5.34088,60.35157,0.0],[5.34081,60.35157,0.0],[5.34038,60.35174,0.0],[5.34022,60.35164,0.0],[5.33983,60.35179,0.0],[5.33939,60.35186,0.0],[5.33782,60.35198,0.0],[5.33725,60.34994,0.0],[5.33716,60.34944,0.0],[5.33674,60.34946,0.0],[5.33653,60.34958,0.0],[5.33601,60.3493,0.0],[5.33584,60.34916,0.0],[5.33274,60.3497,0.0],[5.33115,60.34981,0.0],[5.32759,60.34999,0.0]]]]}},{"type":"Feature","properties":{"uesi_id":"NOR_R404159","nbhd_code":"NOR_R404159_8","nbhd_name":"\u00c5sane"},"geometry":{"type":"MultiPolygon","coordinates":[[[[5.40131,60.41047,0.0],[5.39954,60.41139,0.0],[5.39809,60.41223,0.0],[5.39452,60.41412,0.0],[5.39394,60.41445,0.0],[5.39092,60.4148,0.0],[5.38687,60.41624,0.0],[5.37504,60.41623,0.0],[5.36651,60.41302,0.0],[5.35688,60.41645,0.0],[5.34974,60.41889,0.0],[5.3407,60.42384,0.0],[5.3221,60.42913,0.0],[5.32084,60.42911,0.0],[5.31449,60.42899,0.0],[5.31325,60.42897,0.0],[5.30992,60.4303,0.0],[5.30987,60.43026,0.0],[5.30956,60.43033,0.0],[5.3096,60.43043,0.0],[5.30805,60.43108,0.0],[5.30029,60.43423,0.0],[5.29679,60.43427,0.0],[5.29498,60.43428,0.0],[5.29494,60.4343,0.0],[5.29232,60.43583,0.0],[5.2931,60.43622,0.0],[5.29298,60.43727,0.0],[5.29249,60.43766,0.0],[5.29187,60.43823,0.0],[5.29128,60.43882,0.0],[5.29006,60.43925,0.0],[5.28963,60.43939,0.0],[5.28792,60.43996,0.0],[5.28728,60.44013,0.0],[5.28737,60.43995,0.0],[5.28698,60.44002,0.0],[5.28696,60.43997,0.0],[5.28651,60.44004,0.0],[5.28599,60.44008,0.0],[5.28599,60.43985,0.0],[5.28583,60.43973,0.0],[5.28562,60.43969,0.0],[5.28524,60.4397,0.0],[5.28487,60.43978,0.0],[5.2846,60.43987,0.0],[5.28143,60.44141,0.0],[5.27725,60.44373,0.0],[5.26111,60.44125,0.0],[5.25573,60.45028,0.0],[5.2432,60.47129,0.0],[5.23724,60.49538,0.0],[5.26267,60.51472,0.0],[5.26146,60.5236,0.0],[5.28764,60.5329,0.0],[5.31743,60.53609,0.0],[5.33498,60.52578,0.0],[5.38147,60.51205,0.0],[5.43871,60.47353,0.0],[5.42705,60.47004,0.0],[5.42547,60.46985,0.0],[5.42412,60.46969,0.0],[5.42278,60.46957,0.0],[5.42197,60.46931,0.0],[5.42169,60.46909,0.0],[5.41821,60.46871,0.0],[5.41451,60.46791,0.0],[5.4138,60.46602,0.0],[5.41498,60.466,0.0],[5.41319,60.46433,0.0],[5.41292,60.46359,0.0],[5.41239,60.46232,0.0],[5.40897,60.46109,0.0],[5.40901,60.46103,0.0],[5.40861,60.4609,0.0],[5.40853,60.46093,0.0],[5.40661,60.46023,0.0],[5.40579,60.45993,0.0],[5.40415,60.45933,0.0],[5.39998,60.45776,0.0],[5.3982,60.45721,0.0],[5.3973,60.45692,0.0],[5.39526,60.45627,0.0],[5.39492,60.45616,0.0],[5.39145,60.45524,0.0],[5.38814,60.45425,0.0],[5.38659,60.45372,0.0],[5.3862,60.45356,0.0],[5.38428,60.45284,0.0],[5.38383,60.45265,0.0],[5.38348,60.45252,0.0],[5.38128,60.45172,0.0],[5.38267,60.45016,0.0],[5.38402,60.44862,0.0],[5.38438,60.4482,0.0],[5.38523,60.44718,0.0],[5.38722,60.44483,0.0],[5.388,60.444,0.0],[5.38915,60.44303,0.0],[5.39191,60.44083,0.0],[5.39428,60.43854,0.0],[5.39722,60.43518,0.0],[5.38704,60.42774,0.0],[5.40671,60.41765,0.0],[5.41122,60.41504,0.0],[5.41287,60.41317,0.0],[5.41009,60.41227,0.0],[5.40615,60.41144,0.0],[5.40333,60.41088,0.0],[5.40131,60.41047,0.0]]]]}}]}