{"type":"FeatureCollection","name":"NOR_R406091","crs":{"type":"name","properties":{"name":"urn:ogc:def:crs:OGC:1.3:CRS84"}},"features":[{"type":"Feature","properties":{"uesi_id":"NOR_R406091","nbhd_code":"NOR_R406091_1","nbhd_name":"Bjerke"},"geometry":{"type":"MultiPolygon","coordinates":[[[[10.7866,59.9382,0.0],[10.7886,59.9392,0.0],[10.7946,59.9404,0.0],[10.8004,59.9415,0.0],[10.8039,59.9452,0.0],[10.8029,59.9473,0.0],[10.8044,59.9476,0.0],[10.8051,59.9479,0.0],[10.8086,59.9488,0.0],[10.8121,59.9491,0.0],[10.8142,59.9507,0.0],[10.8175,59.951,0.0],[10.8232,59.954,0.0],[10.8213,59.9563,0.0],[10.8259,59.9562,0.0],[10.8278,59.9535,0.0],[10.8342,59.9526,0.0],[10.8332,59.9464,0.0],[10.8438,59.947,0.0],[10.8452,59.9503,0.0],[10.8497,59.9521,0.0],[10.857,59.9518,0.0],[10.8591,59.9498,0.0],[10.8616,59.9523,0.0],[10.8645,59.9521,0.0],[10.8666,59.9508,0.0],[10.8647,59.9489,0.0],[10.8671,59.9461,0.0],[10.8621,59.9443,0.0],[10.8627,59.942,0.0],[10.8437,59.9383,0.0],[10.8394,59.9346,0.0],[10.8381,59.9336,0.0],[10.838,59.9328,0.0],[10.8376,59.93,0.0],[10.8367,59.9245,0.0],[10.8096,59.9236,0.0],[10.804,59.9278,0.0],[10.8066,59.9306,0.0],[10.7866,59.9382,0.0]]]]}},{"type":"Feature","properties":{"uesi_id":"NOR_R406091","nbhd_code":"NOR_R406091_2","nbhd_name":"Frogner"},"geometry":{"type":"MultiPolygon","coordinates":[[[[10.6478,59.9094,0.0],[10.6781,59.9205,0.0],[10.6865,59.9184,0.0],[10.6877,59.9215,0.0],[10.6962,59.9233,0.0],[10.7015,59.9271,0.0],[10.7089,59.9325,0.0],[10.7128,59.9359,0.0],[10.7157,59.9363,0.0],[10.7218,59.9328,0.0],[10.7221,59.9326,0.0],[10.7229,59.9322,0.0],[10.723,59.9322,0.0],[10.7242,59.9311,0.0],[10.73,59.9276,0.0],[10.7354,59.9207,0.0],[10.7332,59.9185,0.0],[10.7286,59.9207,0.0],[10.7228,59.9172,0.0],[10.7269,59.9158,0.0],[10.7263,59.913,0.0],[10.7322,59.9108,0.0],[10.7328,59.9106,0.0],[10.7288,59.902,0.0],[10.6824,59.8902,0.0],[10.6581,59.8844,0.0],[10.6478,59.9094,0.0]]]]}},{"type":"Feature","properties":{"uesi_id":"NOR_R406091","nbhd_code":"NOR_R406091_3","nbhd_name":"Sagene"},"geometry":{"type":"MultiPolygon","coordinates":[[[[10.7483,59.9455,0.0],[10.7593,59.9474,0.0],[10.7659,59.947,0.0],[10.7685,59.9491,0.0],[10.7771,59.9487,0.0],[10.7784,59.9458,0.0],[10.7825,59.9369,0.0],[10.7816,59.9361,0.0],[10.7772,59.9322,0.0],[10.7731,59.9324,0.0],[10.7701,59.9306,0.0],[10.7645,59.9328,0.0],[10.7619,59.9321,0.0],[10.7617,59.9289,0.0],[10.7501,59.929,0.0],[10.7502,59.9425,0.0],[10.7483,59.9455,0.0]]]]}},{"type":"Feature","properties":{"uesi_id":"NOR_R406091","nbhd_code":"NOR_R406091_4","nbhd_name":"Vestre Aker"},"geometry":{"type":"MultiPolygon","coordinates":[[[[10.6179,59.9699,0.0],[10.6298,59.9697,0.0],[10.6434,59.9729,0.0],[10.6422,59.979,0.0],[10.6485,59.9837,0.0],[10.6494,59.9867,0.0],[10.6516,59.987,0.0],[10.6525,59.9838,0.0],[10.6582,59.9834,0.0],[10.6656,59.9808,0.0],[10.6724,59.9731,0.0],[10.6694,59.9702,0.0],[10.6622,59.9719,0.0],[10.6596,59.9655,0.0],[10.6649,59.9647,0.0],[10.667,59.9628,0.0],[10.669,59.9636,0.0],[10.6793,59.9635,0.0],[10.6856,59.9629,0.0],[10.6898,59.9653,0.0],[10.6901,59.9683,0.0],[10.695,59.968,0.0],[10.6952,59.9652,0.0],[10.7011,59.9619,0.0],[10.7067,59.9653,0.0],[10.7096,59.9652,0.0],[10.7098,59.9592,0.0],[10.7156,59.9577,0.0],[10.7158,59.9571,0.0],[10.715,59.9563,0.0],[10.7144,59.9554,0.0],[10.7142,59.9544,0.0],[10.7153,59.9541,0.0],[10.7151,59.9537,0.0],[10.715,59.953,0.0],[10.7141,59.9523,0.0],[10.713,59.9509,0.0],[10.7134,59.9506,0.0],[10.7131,59.9503,0.0],[10.7125,59.9501,0.0],[10.7121,59.9495,0.0],[10.7124,59.9492,0.0],[10.7124,59.9484,0.0],[10.7121,59.9477,0.0],[10.718,59.9466,0.0],[10.7143,59.943,0.0],[10.7166,59.9409,0.0],[10.7157,59.9363,0.0],[10.7128,59.9359,0.0],[10.7089,59.9325,0.0],[10.6901,59.9367,0.0],[10.685,59.9378,0.0],[10.6718,59.9432,0.0],[10.6546,59.9382,0.0],[10.6398,59.9386,0.0],[10.6326,59.9407,0.0],[10.6327,59.9411,0.0],[10.6326,59.9415,0.0],[10.6329,59.9419,0.0],[10.6333,59.9422,0.0],[10.6332,59.9425,0.0],[10.6331,59.943,0.0],[10.6338,59.9434,0.0],[10.6349,59.9441,0.0],[10.6352,59.9446,0.0],[10.6358,59.9453,0.0],[10.6357,59.9461,0.0],[10.6356,59.9465,0.0],[10.6357,59.9475,0.0],[10.6354,59.9483,0.0],[10.6352,59.9487,0.0],[10.6351,59.9491,0.0],[10.635,59.9492,0.0],[10.635,59.9494,0.0],[10.6349,59.9498,0.0],[10.6343,59.9506,0.0],[10.6342,59.9514,0.0],[10.6342,59.9515,0.0],[10.6342,59.9517,0.0],[10.6338,59.9519,0.0],[10.6334,59.952,0.0],[10.6334,59.9522,0.0],[10.6335,59.9524,0.0],[10.6337,59.9525,0.0],[10.6339,59.9527,0.0],[10.6342,59.9527,0.0],[10.6343,59.9528,0.0],[10.6343,59.9529,0.0],[10.6341,59.9531,0.0],[10.6339,59.9534,0.0],[10.6332,59.9534,0.0],[10.6324,59.9537,0.0],[10.632,59.9541,0.0],[10.6317,59.9543,0.0],[10.6316,59.9544,0.0],[10.6313,59.9546,0.0],[10.6312,59.9548,0.0],[10.6312,59.955,0.0],[10.6311,59.9553,0.0],[10.6308,59.9554,0.0],[10.6306,59.9558,0.0],[10.631,59.9563,0.0],[10.6314,59.9566,0.0],[10.6317,59.9568,0.0],[10.6318,59.9571,0.0],[10.6316,59.9573,0.0],[10.6309,59.9577,0.0],[10.6302,59.9583,0.0],[10.6299,59.9589,0.0],[10.6298,59.9594,0.0],[10.6296,59.9597,0.0],[10.6284,59.9601,0.0],[10.6282,59.9604,0.0],[10.628,59.9613,0.0],[10.6275,59.9616,0.0],[10.6273,59.9616,0.0],[10.6269,59.9617,0.0],[10.6266,59.9618,0.0],[10.6262,59.9621,0.0],[10.6258,59.9622,0.0],[10.6251,59.9623,0.0],[10.6243,59.9625,0.0],[10.6238,59.9626,0.0],[10.6234,59.9628,0.0],[10.6234,59.963,0.0],[10.6235,59.9632,0.0],[10.6239,59.9634,0.0],[10.6245,59.9642,0.0],[10.6245,59.9645,0.0],[10.6246,59.9647,0.0],[10.6243,59.9648,0.0],[10.6237,59.965,0.0],[10.6235,59.965,0.0],[10.6226,59.9654,0.0],[10.621,59.9664,0.0],[10.6196,59.9683,0.0],[10.6179,59.9699,0.0]]]]}},{"type":"Feature","properties":{"uesi_id":"NOR_R406091","nbhd_code":"NOR_R406091_5","nbhd_name":"Sentrum"},"geometry":{"type":"MultiPolygon","coordinates":[[[[10.7228,59.9172,0.0],[10.7286,59.9207,0.0],[10.7332,59.9185,0.0],[10.7354,59.9207,0.0],[10.7419,59.9165,0.0],[10.7419,59.915,0.0],[10.7484,59.9132,0.0],[10.7532,59.9145,0.0],[10.7582,59.9134,0.0],[10.7575,59.9098,0.0],[10.7541,59.905,0.0],[10.7441,59.9001,0.0],[10.7288,59.902,0.0],[10.7328,59.9106,0.0],[10.7322,59.9108,0.0],[10.7263,59.913,0.0],[10.7269,59.9158,0.0],[10.7228,59.9172,0.0]]]]}},{"type":"Feature","properties":{"uesi_id":"NOR_R406091","nbhd_code":"NOR_R406091_6","nbhd_name":"Grorud"},"geometry":{"type":"MultiPolygon","coordinates":[[[[10.8483,59.9568,0.0],[10.8504,59.9585,0.0],[10.8525,59.9575,0.0],[10.8617,59.9575,0.0],[10.8609,59.9601,0.0],[10.867,59.9601,0.0],[10.8677,59.9659,0.0],[10.8637,59.9667,0.0],[10.8651,59.9685,0.0],[10.88,59.9727,0.0],[10.8785,59.9744,0.0],[10.8715,59.974,0.0],[10.8736,59.978,0.0],[10.8786,59.9783,0.0],[10.8807,59.9774,0.0],[10.8828,59.9729,0.0],[10.8879,59.9702,0.0],[10.89,59.9649,0.0],[10.8952,59.9642,0.0],[10.8952,59.9713,0.0],[10.9011,59.9737,0.0],[10.9097,59.9737,0.0],[10.917,59.9794,0.0],[10.9219,59.9793,0.0],[10.9234,59.9804,0.0],[10.9227,59.9835,0.0],[10.9256,59.9837,0.0],[10.9258,59.9831,0.0],[10.9282,59.9799,0.0],[10.93,59.9776,0.0],[10.9312,59.9765,0.0],[10.9117,59.968,0.0],[10.9036,59.964,0.0],[10.899,59.9596,0.0],[10.8992,59.9558,0.0],[10.8905,59.9498,0.0],[10.8627,59.942,0.0],[10.8621,59.9443,0.0],[10.8671,59.9461,0.0],[10.8647,59.9489,0.0],[10.8666,59.9508,0.0],[10.8645,59.9521,0.0],[10.8616,59.9523,0.0],[10.8591,59.9498,0.0],[10.857,59.9518,0.0],[10.8497,59.9521,0.0],[10.8509,59.9557,0.0],[10.8483,59.9568,0.0]]]]}},{"type":"Feature","properties":{"uesi_id":"NOR_R406091","nbhd_code":"NOR_R406091_7","nbhd_name":"St. Hanshaugen"},"geometry":{"type":"MultiPolygon","coordinates":[[[[10.7157,59.9363,0.0],[10.7201,59.9378,0.0],[10.726,59.9377,0.0],[10.7405,59.9444,0.0],[10.7457,59.9416,0.0],[10.7502,59.9425,0.0],[10.7501,59.929,0.0],[10.7512,59.922,0.0],[10.7487,59.9203,0.0],[10.7544,59.9176,0.0],[10.7569,59.9161,0.0],[10.7563,59.9156,0.0],[10.7532,59.9145,0.0],[10.7484,59.9132,0.0],[10.7419,59.915,0.0],[10.7419,59.9165,0.0],[10.7354,59.9207,0.0],[10.73,59.9276,0.0],[10.7242,59.9311,0.0],[10.723,59.9322,0.0],[10.7229,59.9322,0.0],[10.7221,59.9326,0.0],[10.7218,59.9328,0.0],[10.7157,59.9363,0.0]]]]}},{"type":"Feature","properties":{"uesi_id":"NOR_R406091","nbhd_code":"NOR_R406091_8","nbhd_name":"Nordre Aker"},"geometry":{"type":"MultiPolygon","coordinates":[[[[10.7121,59.9477,0.0],[10.7124,59.9484,0.0],[10.7124,59.9492,0.0],[10.7121,59.9495,0.0],[10.7125,59.9501,0.0],[10.7131,59.9503,0.0],[10.7134,59.9506,0.0],[10.713,59.9509,0.0],[10.7141,59.9523,0.0],[10.715,59.953,0.0],[10.7151,59.9537,0.0],[10.7153,59.9541,0.0],[10.7142,59.9544,0.0],[10.7144,59.9554,0.0],[10.715,59.9563,0.0],[10.7158,59.9571,0.0],[10.7156,59.9577,0.0],[10.7161,59.958,0.0],[10.7257,59.9632,0.0],[10.7246,59.9715,0.0],[10.7285,59.9716,0.0],[10.7307,59.9738,0.0],[10.7347,59.9734,0.0],[10.734,59.9703,0.0],[10.7389,59.9671,0.0],[10.7461,59.9671,0.0],[10.7464,59.9706,0.0],[10.7558,59.9666,0.0],[10.7671,59.9674,0.0],[10.7739,59.9712,0.0],[10.794,59.9711,0.0],[10.7952,59.9731,0.0],[10.8013,59.9699,0.0],[10.7985,59.9548,0.0],[10.8019,59.9493,0.0],[10.8041,59.9497,0.0],[10.8044,59.9476,0.0],[10.8029,59.9473,0.0],[10.8039,59.9452,0.0],[10.8004,59.9415,0.0],[10.7946,59.9404,0.0],[10.7886,59.9392,0.0],[10.7866,59.9382,0.0],[10.7825,59.9369,0.0],[10.7784,59.9458,0.0],[10.7771,59.9487,0.0],[10.7685,59.9491,0.0],[10.7659,59.947,0.0],[10.7593,59.9474,0.0],[10.7483,59.9455,0.0],[10.7502,59.9425,0.0],[10.7457,59.9416,0.0],[10.7405,59.9444,0.0],[10.726,59.9377,0.0],[10.7201,59.9378,0.0],[10.7157,59.9363,0.0],[10.7166,59.9409,0.0],[10.7143,59.943,0.0],[10.718,59.9466,0.0],[10.7121,59.9477,0.0]]]]}},{"type":"Feature","properties":{"uesi_id":"NOR_R406091","nbhd_code":"NOR_R406091_9","nbhd_name":"Grunerlokka"},"geometry":{"type":"MultiPolygon","coordinates":[[[[10.7487,59.9203,0.0],[10.7512,59.922,0.0],[10.7501,59.929,0.0],[10.7617,59.9289,0.0],[10.7619,59.9321,0.0],[10.7645,59.9328,0.0],[10.7701,59.9306,0.0],[10.7731,59.9324,0.0],[10.7772,59.9322,0.0],[10.7816,59.9361,0.0],[10.7825,59.9369,0.0],[10.7866,59.9382,0.0],[10.8066,59.9306,0.0],[10.804,59.9278,0.0],[10.8096,59.9236,0.0],[10.808,59.9222,0.0],[10.8013,59.9213,0.0],[10.782,59.9171,0.0],[10.7823,59.9162,0.0],[10.7767,59.9152,0.0],[10.7756,59.9176,0.0],[10.7742,59.9176,0.0],[10.7699,59.9148,0.0],[10.7648,59.9186,0.0],[10.7626,59.9176,0.0],[10.7616,59.9185,0.0],[10.7595,59.9179,0.0],[10.7607,59.9176,0.0],[10.7615,59.9172,0.0],[10.7618,59.9168,0.0],[10.7608,59.9161,0.0],[10.7582,59.9134,0.0],[10.7532,59.9145,0.0],[10.7563,59.9156,0.0],[10.7569,59.9161,0.0],[10.7544,59.9176,0.0],[10.7487,59.9203,0.0]]]]}},{"type":"Feature","properties":{"uesi_id":"NOR_R406091","nbhd_code":"NOR_R406091_10","nbhd_name":"Gamle Oslo"},"geometry":{"type":"MultiPolygon","coordinates":[[[[10.6581,59.8844,0.0],[10.6824,59.8902,0.0],[10.7288,59.902,0.0],[10.7441,59.9001,0.0],[10.7541,59.905,0.0],[10.7575,59.9098,0.0],[10.7582,59.9134,0.0],[10.7608,59.9161,0.0],[10.7618,59.9168,0.0],[10.7615,59.9172,0.0],[10.7607,59.9176,0.0],[10.7595,59.9179,0.0],[10.7616,59.9185,0.0],[10.7626,59.9176,0.0],[10.7648,59.9186,0.0],[10.7699,59.9148,0.0],[10.7742,59.9176,0.0],[10.7756,59.9176,0.0],[10.7767,59.9152,0.0],[10.7823,59.9162,0.0],[10.782,59.9171,0.0],[10.8013,59.9213,0.0],[10.808,59.9222,0.0],[10.8085,59.9191,0.0],[10.8111,59.9172,0.0],[10.8092,59.9162,0.0],[10.8142,59.9131,0.0],[10.8132,59.9102,0.0],[10.8171,59.9078,0.0],[10.8058,59.9057,0.0],[10.8036,59.9059,0.0],[10.8024,59.9048,0.0],[10.8006,59.9042,0.0],[10.7995,59.9042,0.0],[10.8,59.9033,0.0],[10.7977,59.9022,0.0],[10.7894,59.9004,0.0],[10.7805,59.8999,0.0],[10.7783,59.9006,0.0],[10.7667,59.9008,0.0],[10.7624,59.8999,0.0],[10.7626,59.899,0.0],[10.7616,59.899,0.0],[10.7597,59.8949,0.0],[10.7603,59.8935,0.0],[10.759,59.8932,0.0],[10.7567,59.896,0.0],[10.7539,59.8959,0.0],[10.7499,59.8908,0.0],[10.731,59.8772,0.0],[10.689,59.8759,0.0],[10.6581,59.8844,0.0]]]]}},{"type":"Feature","properties":{"uesi_id":"NOR_R406091","nbhd_code":"NOR_R406091_11","nbhd_name":"Stovner"},"geometry":{"type":"MultiPolygon","coordinates":[[[[10.899,59.9596,0.0],[10.9036,59.964,0.0],[10.9117,59.968,0.0],[10.9312,59.9765,0.0],[10.9325,59.9755,0.0],[10.9337,59.9741,0.0],[10.9345,59.9729,0.0],[10.9358,59.9718,0.0],[10.9371,59.9706,0.0],[10.9377,59.9701,0.0],[10.9378,59.9692,0.0],[10.9377,59.9686,0.0],[10.9369,59.9626,0.0],[10.9374,59.961,0.0],[10.9376,59.9606,0.0],[10.9381,59.9601,0.0],[10.9388,59.9595,0.0],[10.9392,59.9588,0.0],[10.9397,59.9582,0.0],[10.9402,59.9578,0.0],[10.9403,59.9568,0.0],[10.9408,59.956,0.0],[10.9408,59.9548,0.0],[10.9405,59.9543,0.0],[10.9407,59.954,0.0],[10.9415,59.9538,0.0],[10.9425,59.9534,0.0],[10.9424,59.953,0.0],[10.9431,59.9526,0.0],[10.9443,59.9534,0.0],[10.9461,59.9527,0.0],[10.9475,59.9516,0.0],[10.9511,59.9494,0.0],[10.9514,59.9492,0.0],[10.9495,59.9487,0.0],[10.9473,59.9482,0.0],[10.9475,59.9479,0.0],[10.9475,59.9476,0.0],[10.9474,59.9474,0.0],[10.9472,59.9472,0.0],[10.947,59.9471,0.0],[10.9468,59.947,0.0],[10.9464,59.947,0.0],[10.9462,59.9469,0.0],[10.946,59.947,0.0],[10.9457,59.9471,0.0],[10.9455,59.9472,0.0],[10.9452,59.9474,0.0],[10.9453,59.9476,0.0],[10.9454,59.9478,0.0],[10.9454,59.9479,0.0],[10.9444,59.9477,0.0],[10.9434,59.9475,0.0],[10.9429,59.9473,0.0],[10.9425,59.9472,0.0],[10.9419,59.9469,0.0],[10.9426,59.9454,0.0],[10.9432,59.9448,0.0],[10.9454,59.9434,0.0],[10.9458,59.9432,0.0],[10.9458,59.9431,0.0],[10.9457,59.9431,0.0],[10.9456,59.9431,0.0],[10.9456,59.943,0.0],[10.9455,59.943,0.0],[10.9455,59.9429,0.0],[10.9454,59.9428,0.0],[10.9453,59.9428,0.0],[10.9453,59.9427,0.0],[10.9452,59.9427,0.0],[10.9452,59.9426,0.0],[10.945,59.9426,0.0],[10.9449,59.9426,0.0],[10.9449,59.9425,0.0],[10.9448,59.9425,0.0],[10.9447,59.9424,0.0],[10.9445,59.9423,0.0],[10.9443,59.9422,0.0],[10.9441,59.9422,0.0],[10.944,59.9422,0.0],[10.9438,59.9421,0.0],[10.9436,59.9421,0.0],[10.9432,59.942,0.0],[10.9431,59.942,0.0],[10.943,59.942,0.0],[10.943,59.9419,0.0],[10.943,59.9418,0.0],[10.9431,59.9418,0.0],[10.9432,59.9418,0.0],[10.9432,59.9417,0.0],[10.9432,59.9416,0.0],[10.9431,59.9415,0.0],[10.943,59.9415,0.0],[10.9429,59.9414,0.0],[10.9428,59.9413,0.0],[10.9427,59.9413,0.0],[10.9427,59.9412,0.0],[10.9426,59.9412,0.0],[10.9425,59.9412,0.0],[10.9424,59.9412,0.0],[10.9423,59.9411,0.0],[10.9422,59.9411,0.0],[10.9421,59.9411,0.0],[10.942,59.9411,0.0],[10.9418,59.941,0.0],[10.9417,59.941,0.0],[10.9416,59.941,0.0],[10.9415,59.941,0.0],[10.9414,59.9409,0.0],[10.9414,59.9408,0.0],[10.9412,59.9408,0.0],[10.9411,59.9408,0.0],[10.941,59.9407,0.0],[10.9408,59.9406,0.0],[10.9406,59.9405,0.0],[10.9404,59.9404,0.0],[10.9402,59.9404,0.0],[10.9401,59.9404,0.0],[10.9399,59.9403,0.0],[10.9397,59.9403,0.0],[10.9396,59.9403,0.0],[10.9395,59.9402,0.0],[10.9391,59.9401,0.0],[10.9388,59.94,0.0],[10.9385,59.9399,0.0],[10.9383,59.9398,0.0],[10.938,59.9397,0.0],[10.9378,59.9397,0.0],[10.9375,59.9396,0.0],[10.9371,59.9393,0.0],[10.9366,59.9391,0.0],[10.9362,59.939,0.0],[10.9357,59.9388,0.0],[10.9351,59.9385,0.0],[10.9337,59.9377,0.0],[10.9278,59.9412,0.0],[10.9195,59.9406,0.0],[10.9073,59.9409,0.0],[10.9099,59.9424,0.0],[10.9082,59.9436,0.0],[10.905,59.9459,0.0],[10.9093,59.947,0.0],[10.909,59.9502,0.0],[10.9036,59.9529,0.0],[10.8992,59.9558,0.0],[10.899,59.9596,0.0]]]]}},{"type":"Feature","properties":{"uesi_id":"NOR_R406091","nbhd_code":"NOR_R406091_12","nbhd_name":"Ullern"},"geometry":{"type":"MultiPolygon","coordinates":[[[[10.6254,59.927,0.0],[10.6256,59.9272,0.0],[10.6268,59.9276,0.0],[10.6274,59.9281,0.0],[10.6274,59.9286,0.0],[10.6266,59.9293,0.0],[10.6264,59.9296,0.0],[10.627,59.9299,0.0],[10.628,59.9302,0.0],[10.6295,59.9304,0.0],[10.6301,59.9308,0.0],[10.6314,59.9313,0.0],[10.6322,59.9317,0.0],[10.6325,59.932,0.0],[10.633,59.9324,0.0],[10.6331,59.9329,0.0],[10.6333,59.9331,0.0],[10.6335,59.9335,0.0],[10.634,59.9338,0.0],[10.6342,59.9345,0.0],[10.6346,59.935,0.0],[10.6353,59.9358,0.0],[10.6353,59.936,0.0],[10.6346,59.9367,0.0],[10.6337,59.9372,0.0],[10.6333,59.9377,0.0],[10.6323,59.9383,0.0],[10.6318,59.9385,0.0],[10.6316,59.9387,0.0],[10.6319,59.9398,0.0],[10.6323,59.9401,0.0],[10.6323,59.9406,0.0],[10.6326,59.9407,0.0],[10.6398,59.9386,0.0],[10.6546,59.9382,0.0],[10.6718,59.9432,0.0],[10.685,59.9378,0.0],[10.6901,59.9367,0.0],[10.7089,59.9325,0.0],[10.7015,59.9271,0.0],[10.6962,59.9233,0.0],[10.6877,59.9215,0.0],[10.6865,59.9184,0.0],[10.6781,59.9205,0.0],[10.6478,59.9094,0.0],[10.6424,59.9111,0.0],[10.6418,59.9117,0.0],[10.641,59.9129,0.0],[10.6409,59.9131,0.0],[10.6408,59.9133,0.0],[10.6405,59.9138,0.0],[10.6403,59.9139,0.0],[10.6399,59.914,0.0],[10.6364,59.9147,0.0],[10.6362,59.9147,0.0],[10.636,59.9148,0.0],[10.6358,59.9147,0.0],[10.6355,59.9145,0.0],[10.6355,59.9141,0.0],[10.6352,59.914,0.0],[10.6349,59.914,0.0],[10.6345,59.9141,0.0],[10.6342,59.9141,0.0],[10.6335,59.9144,0.0],[10.6331,59.9146,0.0],[10.6328,59.9149,0.0],[10.6329,59.9157,0.0],[10.633,59.9161,0.0],[10.6332,59.9164,0.0],[10.6339,59.9166,0.0],[10.6343,59.917,0.0],[10.6342,59.9175,0.0],[10.6336,59.9179,0.0],[10.6334,59.9182,0.0],[10.6328,59.9183,0.0],[10.6324,59.9182,0.0],[10.6318,59.918,0.0],[10.6315,59.9179,0.0],[10.6308,59.9178,0.0],[10.6305,59.9181,0.0],[10.6303,59.9183,0.0],[10.6302,59.9185,0.0],[10.63,59.9192,0.0],[10.6299,59.9197,0.0],[10.6298,59.9198,0.0],[10.6295,59.9198,0.0],[10.6295,59.9199,0.0],[10.6295,59.9201,0.0],[10.6295,59.9205,0.0],[10.6297,59.9209,0.0],[10.6298,59.9211,0.0],[10.6298,59.9213,0.0],[10.6294,59.9217,0.0],[10.6282,59.9221,0.0],[10.6278,59.9222,0.0],[10.6274,59.9223,0.0],[10.6271,59.9223,0.0],[10.6267,59.9222,0.0],[10.626,59.9223,0.0],[10.6258,59.9224,0.0],[10.6257,59.9227,0.0],[10.6257,59.9229,0.0],[10.6255,59.9232,0.0],[10.6254,59.9235,0.0],[10.6255,59.9239,0.0],[10.626,59.9244,0.0],[10.6266,59.9247,0.0],[10.6269,59.9249,0.0],[10.6271,59.9249,0.0],[10.6274,59.9251,0.0],[10.6275,59.9254,0.0],[10.627,59.9259,0.0],[10.6267,59.9261,0.0],[10.6261,59.9263,0.0],[10.6254,59.9268,0.0],[10.6254,59.927,0.0]]]]}},{"type":"Feature","properties":{"uesi_id":"NOR_R406091","nbhd_code":"NOR_R406091_13","nbhd_name":"Nordstrand"},"geometry":{"type":"MultiPolygon","coordinates":[[[[10.731,59.8772,0.0],[10.7499,59.8908,0.0],[10.7539,59.8959,0.0],[10.7567,59.896,0.0],[10.759,59.8932,0.0],[10.7603,59.8935,0.0],[10.7597,59.8949,0.0],[10.7616,59.899,0.0],[10.7626,59.899,0.0],[10.7624,59.8999,0.0],[10.7667,59.9008,0.0],[10.7783,59.9006,0.0],[10.7805,59.8999,0.0],[10.7894,59.9004,0.0],[10.7977,59.9022,0.0],[10.8,59.9033,0.0],[10.7995,59.9042,0.0],[10.8006,59.9042,0.0],[10.8074,59.9004,0.0],[10.8081,59.8903,0.0],[10.833,59.8673,0.0],[10.8319,59.862,0.0],[10.8304,59.8613,0.0],[10.8305,59.8596,0.0],[10.8239,59.8598,0.0],[10.8201,59.8593,0.0],[10.8196,59.8588,0.0],[10.8218,59.8564,0.0],[10.8216,59.8559,0.0],[10.8186,59.8547,0.0],[10.8202,59.8516,0.0],[10.8194,59.8498,0.0],[10.8169,59.8502,0.0],[10.8138,59.8503,0.0],[10.8093,59.8496,0.0],[10.8048,59.8486,0.0],[10.8024,59.8462,0.0],[10.8013,59.8442,0.0],[10.7999,59.8432,0.0],[10.7981,59.8428,0.0],[10.7968,59.8427,0.0],[10.7967,59.8429,0.0],[10.7968,59.8432,0.0],[10.7967,59.8436,0.0],[10.7965,59.8436,0.0],[10.7965,59.8441,0.0],[10.7965,59.8444,0.0],[10.7964,59.8446,0.0],[10.7966,59.8447,0.0],[10.7966,59.8449,0.0],[10.7964,59.8452,0.0],[10.7956,59.8456,0.0],[10.7954,59.8475,0.0],[10.7968,59.8485,0.0],[10.7969,59.849,0.0],[10.796,59.8489,0.0],[10.7918,59.8467,0.0],[10.7896,59.8424,0.0],[10.7889,59.8412,0.0],[10.784,59.8399,0.0],[10.7837,59.8395,0.0],[10.783,59.8395,0.0],[10.7821,59.8387,0.0],[10.7808,59.839,0.0],[10.7776,59.8426,0.0],[10.744,59.8393,0.0],[10.731,59.8772,0.0]]]]}},{"type":"Feature","properties":{"uesi_id":"NOR_R406091","nbhd_code":"NOR_R406091_14","nbhd_name":"Sondre Nordstrand"},"geometry":{"type":"MultiPolygon","coordinates":[[[[10.744,59.8393,0.0],[10.7776,59.8426,0.0],[10.7808,59.839,0.0],[10.7821,59.8387,0.0],[10.783,59.8395,0.0],[10.7837,59.8395,0.0],[10.784,59.8399,0.0],[10.7889,59.8412,0.0],[10.7896,59.8424,0.0],[10.7918,59.8467,0.0],[10.796,59.8489,0.0],[10.7969,59.849,0.0],[10.7968,59.8485,0.0],[10.7954,59.8475,0.0],[10.7956,59.8456,0.0],[10.7964,59.8452,0.0],[10.7966,59.8449,0.0],[10.7966,59.8447,0.0],[10.7964,59.8446,0.0],[10.7965,59.8444,0.0],[10.7965,59.8441,0.0],[10.7965,59.8436,0.0],[10.7967,59.8436,0.0],[10.7968,59.8432,0.0],[10.7967,59.8429,0.0],[10.7968,59.8427,0.0],[10.7981,59.8428,0.0],[10.7999,59.8432,0.0],[10.8013,59.8442,0.0],[10.8024,59.8462,0.0],[10.8048,59.8486,0.0],[10.8093,59.8496,0.0],[10.8138,59.8503,0.0],[10.8169,59.8502,0.0],[10.8194,59.8498,0.0],[10.8202,59.8516,0.0],[10.8186,59.8547,0.0],[10.8216,59.8559,0.0],[10.8218,59.8564,0.0],[10.8196,59.8588,0.0],[10.8201,59.8593,0.0],[10.8239,59.8598,0.0],[10.8305,59.8596,0.0],[10.8304,59.8613,0.0],[10.8319,59.862,0.0],[10.832,59.862,0.0],[10.832,59.8619,0.0],[10.8322,59.8616,0.0],[10.8323,59.8615,0.0],[10.8333,59.8611,0.0],[10.834,59.8607,0.0],[10.8339,59.8602,0.0],[10.8341,59.8596,0.0],[10.8341,59.8589,0.0],[10.8345,59.8586,0.0],[10.8346,59.858,0.0],[10.8352,59.8572,0.0],[10.8355,59.8565,0.0],[10.8358,59.8562,0.0],[10.8363,59.8563,0.0],[10.8365,59.8567,0.0],[10.8371,59.8566,0.0],[10.8371,59.8574,0.0],[10.8377,59.8573,0.0],[10.8378,59.8574,0.0],[10.838,59.8574,0.0],[10.8382,59.8573,0.0],[10.8383,59.8573,0.0],[10.8384,59.8565,0.0],[10.8389,59.856,0.0],[10.839,59.8559,0.0],[10.8393,59.8558,0.0],[10.8395,59.8558,0.0],[10.8394,59.8559,0.0],[10.8396,59.8566,0.0],[10.8397,59.8566,0.0],[10.8407,59.8566,0.0],[10.8409,59.8566,0.0],[10.8414,59.8567,0.0],[10.8424,59.8567,0.0],[10.8424,59.8566,0.0],[10.8425,59.8566,0.0],[10.8425,59.8565,0.0],[10.8426,59.8564,0.0],[10.8425,59.8563,0.0],[10.8427,59.8562,0.0],[10.8426,59.8557,0.0],[10.8423,59.8555,0.0],[10.8423,59.8552,0.0],[10.8418,59.8552,0.0],[10.8418,59.8549,0.0],[10.8416,59.8542,0.0],[10.8418,59.8532,0.0],[10.8423,59.8524,0.0],[10.8425,59.8518,0.0],[10.8428,59.8512,0.0],[10.8429,59.8508,0.0],[10.8427,59.8496,0.0],[10.8446,59.8496,0.0],[10.8443,59.8479,0.0],[10.8453,59.848,0.0],[10.8459,59.8477,0.0],[10.8458,59.8467,0.0],[10.8468,59.8468,0.0],[10.8473,59.8454,0.0],[10.8474,59.8437,0.0],[10.849,59.8421,0.0],[10.847,59.8419,0.0],[10.8462,59.8412,0.0],[10.8427,59.8415,0.0],[10.8402,59.8412,0.0],[10.8405,59.8406,0.0],[10.8409,59.8394,0.0],[10.8418,59.8386,0.0],[10.8423,59.8377,0.0],[10.8426,59.8369,0.0],[10.8427,59.8359,0.0],[10.8429,59.8355,0.0],[10.8456,59.8357,0.0],[10.8459,59.8358,0.0],[10.8462,59.8353,0.0],[10.8479,59.8343,0.0],[10.8485,59.8341,0.0],[10.8519,59.8339,0.0],[10.8545,59.8331,0.0],[10.8556,59.8335,0.0],[10.8564,59.8335,0.0],[10.8565,59.8336,0.0],[10.8565,59.834,0.0],[10.8572,59.834,0.0],[10.8583,59.8339,0.0],[10.8582,59.8336,0.0],[10.8585,59.8335,0.0],[10.8585,59.8336,0.0],[10.8598,59.8335,0.0],[10.8608,59.834,0.0],[10.8629,59.834,0.0],[10.863,59.8329,0.0],[10.8631,59.8328,0.0],[10.8633,59.8327,0.0],[10.8637,59.8324,0.0],[10.8639,59.8322,0.0],[10.8641,59.8313,0.0],[10.8643,59.831,0.0],[10.8653,59.83,0.0],[10.8652,59.8299,0.0],[10.8666,59.8286,0.0],[10.867,59.828,0.0],[10.8675,59.8269,0.0],[10.8678,59.8267,0.0],[10.868,59.8265,0.0],[10.8685,59.8262,0.0],[10.8697,59.8255,0.0],[10.8704,59.8247,0.0],[10.8708,59.8245,0.0],[10.8713,59.8243,0.0],[10.8725,59.824,0.0],[10.8734,59.8237,0.0],[10.874,59.8236,0.0],[10.8744,59.8235,0.0],[10.8746,59.8233,0.0],[10.8747,59.8231,0.0],[10.8748,59.8229,0.0],[10.8747,59.8217,0.0],[10.8748,59.8214,0.0],[10.8751,59.8211,0.0],[10.8753,59.8206,0.0],[10.8755,59.8205,0.0],[10.8758,59.8203,0.0],[10.8765,59.8201,0.0],[10.879,59.8194,0.0],[10.8803,59.8191,0.0],[10.8808,59.8188,0.0],[10.8812,59.8184,0.0],[10.8817,59.8183,0.0],[10.882,59.8182,0.0],[10.8824,59.8183,0.0],[10.8845,59.8186,0.0],[10.8857,59.819,0.0],[10.8863,59.8191,0.0],[10.8867,59.819,0.0],[10.887,59.8189,0.0],[10.8887,59.8183,0.0],[10.8905,59.8177,0.0],[10.8902,59.8176,0.0],[10.8891,59.817,0.0],[10.8886,59.8166,0.0],[10.8882,59.816,0.0],[10.8876,59.8158,0.0],[10.887,59.8155,0.0],[10.8862,59.8153,0.0],[10.8858,59.8151,0.0],[10.8849,59.8149,0.0],[10.8838,59.8147,0.0],[10.8833,59.8146,0.0],[10.8829,59.8143,0.0],[10.8826,59.8136,0.0],[10.8825,59.8132,0.0],[10.8823,59.813,0.0],[10.8824,59.8127,0.0],[10.8823,59.8125,0.0],[10.8819,59.8122,0.0],[10.8815,59.8119,0.0],[10.8813,59.8118,0.0],[10.881,59.8117,0.0],[10.8804,59.8114,0.0],[10.8803,59.8112,0.0],[10.8801,59.811,0.0],[10.8795,59.8111,0.0],[10.8793,59.8112,0.0],[10.8791,59.8119,0.0],[10.879,59.812,0.0],[10.8786,59.8121,0.0],[10.8783,59.8121,0.0],[10.878,59.8121,0.0],[10.8771,59.8123,0.0],[10.8769,59.8123,0.0],[10.8764,59.8124,0.0],[10.8762,59.8125,0.0],[10.876,59.8125,0.0],[10.8756,59.8128,0.0],[10.8754,59.8128,0.0],[10.8752,59.8128,0.0],[10.875,59.8128,0.0],[10.8749,59.8128,0.0],[10.8748,59.8126,0.0],[10.8746,59.8126,0.0],[10.8745,59.8126,0.0],[10.8744,59.8129,0.0],[10.8742,59.813,0.0],[10.874,59.813,0.0],[10.8732,59.8129,0.0],[10.8725,59.813,0.0],[10.872,59.813,0.0],[10.8713,59.8131,0.0],[10.8703,59.8132,0.0],[10.8699,59.8132,0.0],[10.8672,59.8127,0.0],[10.8654,59.8127,0.0],[10.8637,59.8124,0.0],[10.8631,59.8123,0.0],[10.8626,59.812,0.0],[10.8625,59.8119,0.0],[10.8619,59.8116,0.0],[10.8604,59.8113,0.0],[10.8601,59.8111,0.0],[10.8595,59.8109,0.0],[10.8589,59.8107,0.0],[10.8586,59.8105,0.0],[10.8583,59.8104,0.0],[10.8579,59.8102,0.0],[10.8574,59.81,0.0],[10.8569,59.8097,0.0],[10.8569,59.8096,0.0],[10.8562,59.8094,0.0],[10.8558,59.8095,0.0],[10.8538,59.8097,0.0],[10.8529,59.8099,0.0],[10.8515,59.8104,0.0],[10.8511,59.8106,0.0],[10.8505,59.8109,0.0],[10.8492,59.8114,0.0],[10.8486,59.8117,0.0],[10.8479,59.812,0.0],[10.8479,59.8122,0.0],[10.8469,59.8136,0.0],[10.8464,59.8145,0.0],[10.8461,59.8151,0.0],[10.846,59.8153,0.0],[10.8461,59.8157,0.0],[10.8462,59.816,0.0],[10.8461,59.8166,0.0],[10.846,59.8169,0.0],[10.8457,59.8168,0.0],[10.8447,59.8167,0.0],[10.8428,59.8165,0.0],[10.8403,59.8161,0.0],[10.8394,59.8162,0.0],[10.8389,59.8162,0.0],[10.838,59.8161,0.0],[10.8377,59.8161,0.0],[10.8373,59.8162,0.0],[10.8366,59.8164,0.0],[10.8363,59.8166,0.0],[10.8359,59.8168,0.0],[10.8337,59.8169,0.0],[10.8245,59.8176,0.0],[10.8171,59.8181,0.0],[10.8159,59.8196,0.0],[10.8156,59.82,0.0],[10.8154,59.8208,0.0],[10.8153,59.8223,0.0],[10.8151,59.823,0.0],[10.8152,59.8235,0.0],[10.8124,59.8254,0.0],[10.8123,59.8255,0.0],[10.8118,59.8255,0.0],[10.8094,59.8252,0.0],[10.8048,59.8249,0.0],[10.8047,59.8249,0.0],[10.8046,59.8249,0.0],[10.8011,59.8236,0.0],[10.8003,59.8233,0.0],[10.799,59.823,0.0],[10.7963,59.8231,0.0],[10.7951,59.8231,0.0],[10.7941,59.8232,0.0],[10.7935,59.8233,0.0],[10.793,59.8232,0.0],[10.7925,59.8233,0.0],[10.7922,59.8235,0.0],[10.7916,59.8235,0.0],[10.7899,59.8236,0.0],[10.7889,59.8236,0.0],[10.7871,59.8238,0.0],[10.7857,59.8239,0.0],[10.7847,59.824,0.0],[10.784,59.824,0.0],[10.783,59.8243,0.0],[10.7823,59.8245,0.0],[10.7811,59.825,0.0],[10.7795,59.8258,0.0],[10.7781,59.8262,0.0],[10.7773,59.8262,0.0],[10.7772,59.8262,0.0],[10.7769,59.8262,0.0],[10.7767,59.8262,0.0],[10.7753,59.826,0.0],[10.7747,59.8256,0.0],[10.7743,59.8251,0.0],[10.7741,59.8246,0.0],[10.7737,59.8242,0.0],[10.7734,59.8239,0.0],[10.7733,59.8238,0.0],[10.7726,59.8237,0.0],[10.7716,59.8235,0.0],[10.7713,59.824,0.0],[10.7711,59.8243,0.0],[10.7711,59.8244,0.0],[10.771,59.8247,0.0],[10.771,59.8248,0.0],[10.7709,59.8249,0.0],[10.7708,59.8251,0.0],[10.7708,59.8252,0.0],[10.7704,59.8254,0.0],[10.7701,59.8256,0.0],[10.7698,59.8259,0.0],[10.7694,59.8262,0.0],[10.7692,59.8264,0.0],[10.7689,59.8266,0.0],[10.7684,59.8268,0.0],[10.7683,59.8271,0.0],[10.7677,59.8275,0.0],[10.7673,59.8277,0.0],[10.7669,59.8279,0.0],[10.7667,59.8281,0.0],[10.7664,59.8282,0.0],[10.7661,59.8284,0.0],[10.7657,59.8286,0.0],[10.7655,59.8287,0.0],[10.7651,59.829,0.0],[10.7649,59.8291,0.0],[10.7646,59.8293,0.0],[10.7634,59.8302,0.0],[10.744,59.8393,0.0]]]]}},{"type":"Feature","properties":{"uesi_id":"NOR_R406091","nbhd_code":"NOR_R406091_15","nbhd_name":"Ostensjo"},"geometry":{"type":"MultiPolygon","coordinates":[[[[10.8006,59.9042,0.0],[10.8024,59.9048,0.0],[10.8036,59.9059,0.0],[10.8058,59.9057,0.0],[10.8171,59.9078,0.0],[10.8236,59.9085,0.0],[10.8296,59.9128,0.0],[10.8384,59.9104,0.0],[10.8438,59.9138,0.0],[10.8487,59.9132,0.0],[10.8503,59.9114,0.0],[10.8559,59.9118,0.0],[10.8601,59.9095,0.0],[10.8603,59.9094,0.0],[10.8565,59.9086,0.0],[10.855,59.9094,0.0],[10.8553,59.9089,0.0],[10.8554,59.9088,0.0],[10.8555,59.9087,0.0],[10.8561,59.9085,0.0],[10.8563,59.9081,0.0],[10.8564,59.9081,0.0],[10.8565,59.908,0.0],[10.8564,59.9079,0.0],[10.8565,59.9077,0.0],[10.8568,59.9077,0.0],[10.8568,59.9076,0.0],[10.8565,59.9074,0.0],[10.8562,59.9071,0.0],[10.8558,59.9071,0.0],[10.8559,59.907,0.0],[10.8562,59.9064,0.0],[10.8559,59.9065,0.0],[10.856,59.9055,0.0],[10.8524,59.9056,0.0],[10.8528,59.9049,0.0],[10.853,59.9038,0.0],[10.8534,59.9037,0.0],[10.8536,59.9033,0.0],[10.8528,59.9032,0.0],[10.8532,59.9031,0.0],[10.8534,59.9021,0.0],[10.8534,59.9012,0.0],[10.8539,59.9009,0.0],[10.8539,59.9007,0.0],[10.8539,59.9003,0.0],[10.854,59.9001,0.0],[10.8543,59.8992,0.0],[10.853,59.8991,0.0],[10.853,59.899,0.0],[10.853,59.8987,0.0],[10.8543,59.8986,0.0],[10.8549,59.8976,0.0],[10.8561,59.8974,0.0],[10.8564,59.8969,0.0],[10.8561,59.8964,0.0],[10.8563,59.8963,0.0],[10.8563,59.8961,0.0],[10.8565,59.8959,0.0],[10.8567,59.8958,0.0],[10.857,59.8958,0.0],[10.8571,59.8955,0.0],[10.857,59.8953,0.0],[10.8571,59.8948,0.0],[10.8569,59.8946,0.0],[10.8569,59.8945,0.0],[10.857,59.8944,0.0],[10.857,59.8943,0.0],[10.8569,59.8943,0.0],[10.857,59.8941,0.0],[10.8569,59.894,0.0],[10.857,59.8939,0.0],[10.8579,59.8936,0.0],[10.858,59.8936,0.0],[10.858,59.8934,0.0],[10.8576,59.8932,0.0],[10.8575,59.8926,0.0],[10.8576,59.8917,0.0],[10.8578,59.8915,0.0],[10.8578,59.8905,0.0],[10.8576,59.8906,0.0],[10.8578,59.8902,0.0],[10.8578,59.89,0.0],[10.8582,59.8892,0.0],[10.858,59.8891,0.0],[10.8573,59.8892,0.0],[10.8567,59.8888,0.0],[10.8574,59.8886,0.0],[10.8576,59.8876,0.0],[10.8584,59.8875,0.0],[10.8586,59.8865,0.0],[10.8585,59.8863,0.0],[10.8582,59.8863,0.0],[10.8579,59.8859,0.0],[10.8576,59.8858,0.0],[10.8561,59.8844,0.0],[10.8555,59.8839,0.0],[10.8561,59.8837,0.0],[10.8562,59.8832,0.0],[10.8569,59.8828,0.0],[10.8569,59.8817,0.0],[10.8573,59.8809,0.0],[10.8573,59.8808,0.0],[10.8569,59.8807,0.0],[10.8569,59.8766,0.0],[10.8501,59.8766,0.0],[10.8501,59.8761,0.0],[10.8491,59.8758,0.0],[10.849,59.8755,0.0],[10.8488,59.875,0.0],[10.8484,59.8744,0.0],[10.8484,59.8743,0.0],[10.8484,59.8742,0.0],[10.8488,59.8733,0.0],[10.8493,59.8729,0.0],[10.8496,59.8729,0.0],[10.8503,59.8728,0.0],[10.8507,59.8728,0.0],[10.8512,59.8729,0.0],[10.8521,59.873,0.0],[10.8522,59.873,0.0],[10.8522,59.8729,0.0],[10.8518,59.8729,0.0],[10.8516,59.8728,0.0],[10.8514,59.8727,0.0],[10.8512,59.8726,0.0],[10.8504,59.871,0.0],[10.8493,59.8703,0.0],[10.8492,59.8702,0.0],[10.8489,59.87,0.0],[10.8487,59.8699,0.0],[10.8486,59.8699,0.0],[10.8481,59.8696,0.0],[10.8468,59.8697,0.0],[10.8465,59.8694,0.0],[10.8462,59.8692,0.0],[10.8447,59.8678,0.0],[10.8444,59.8675,0.0],[10.8441,59.8671,0.0],[10.8438,59.8663,0.0],[10.8438,59.8659,0.0],[10.8439,59.864,0.0],[10.844,59.8633,0.0],[10.8439,59.8629,0.0],[10.8435,59.8625,0.0],[10.8427,59.8625,0.0],[10.8421,59.8623,0.0],[10.8413,59.8622,0.0],[10.8404,59.8623,0.0],[10.8394,59.8623,0.0],[10.8394,59.8624,0.0],[10.8387,59.8625,0.0],[10.8386,59.8623,0.0],[10.8357,59.8623,0.0],[10.8353,59.8631,0.0],[10.8351,59.863,0.0],[10.8348,59.8629,0.0],[10.8345,59.8629,0.0],[10.8342,59.8629,0.0],[10.8339,59.863,0.0],[10.8336,59.8631,0.0],[10.8338,59.8628,0.0],[10.8337,59.8626,0.0],[10.8323,59.8622,0.0],[10.8319,59.862,0.0],[10.833,59.8673,0.0],[10.8081,59.8903,0.0],[10.8074,59.9004,0.0],[10.8006,59.9042,0.0]]]]}},{"type":"Feature","properties":{"uesi_id":"NOR_R406091","nbhd_code":"NOR_R406091_16","nbhd_name":"Marka"},"geometry":{"type":"MultiPolygon","coordinates":[[[[10.8323,59.8622,0.0],[10.8337,59.8626,0.0],[10.8338,59.8628,0.0],[10.8336,59.8631,0.0],[10.8339,59.863,0.0],[10.8342,59.8629,0.0],[10.8345,59.8629,0.0],[10.8348,59.8629,0.0],[10.8351,59.863,0.0],[10.8353,59.8631,0.0],[10.8357,59.8623,0.0],[10.8386,59.8623,0.0],[10.8387,59.8625,0.0],[10.8394,59.8624,0.0],[10.8394,59.8623,0.0],[10.8404,59.8623,0.0],[10.8413,59.8622,0.0],[10.8421,59.8623,0.0],[10.8427,59.8625,0.0],[10.8435,59.8625,0.0],[10.8439,59.8629,0.0],[10.844,59.8633,0.0],[10.8439,59.864,0.0],[10.8438,59.8659,0.0],[10.8438,59.8663,0.0],[10.8441,59.8671,0.0],[10.8444,59.8675,0.0],[10.8447,59.8678,0.0],[10.8462,59.8692,0.0],[10.8465,59.8694,0.0],[10.8468,59.8697,0.0],[10.8481,59.8696,0.0],[10.8486,59.8699,0.0],[10.8487,59.8699,0.0],[10.8489,59.87,0.0],[10.8492,59.8702,0.0],[10.8493,59.8703,0.0],[10.8504,59.871,0.0],[10.8512,59.8726,0.0],[10.8514,59.8727,0.0],[10.8516,59.8728,0.0],[10.8518,59.8729,0.0],[10.8522,59.8729,0.0],[10.8522,59.873,0.0],[10.8521,59.873,0.0],[10.8512,59.8729,0.0],[10.8507,59.8728,0.0],[10.8503,59.8728,0.0],[10.8496,59.8729,0.0],[10.8493,59.8729,0.0],[10.8488,59.8733,0.0],[10.8484,59.8742,0.0],[10.8484,59.8743,0.0],[10.8484,59.8744,0.0],[10.8488,59.875,0.0],[10.849,59.8755,0.0],[10.8491,59.8758,0.0],[10.8501,59.8761,0.0],[10.8501,59.8766,0.0],[10.8569,59.8766,0.0],[10.8569,59.8807,0.0],[10.8573,59.8808,0.0],[10.8573,59.8809,0.0],[10.8569,59.8817,0.0],[10.8569,59.8828,0.0],[10.8562,59.8832,0.0],[10.8561,59.8837,0.0],[10.8555,59.8839,0.0],[10.8561,59.8844,0.0],[10.8576,59.8858,0.0],[10.8579,59.8859,0.0],[10.8582,59.8863,0.0],[10.8585,59.8863,0.0],[10.8586,59.8865,0.0],[10.8584,59.8875,0.0],[10.8576,59.8876,0.0],[10.8574,59.8886,0.0],[10.8567,59.8888,0.0],[10.8573,59.8892,0.0],[10.858,59.8891,0.0],[10.8582,59.8892,0.0],[10.8578,59.89,0.0],[10.8578,59.8902,0.0],[10.8576,59.8906,0.0],[10.8578,59.8905,0.0],[10.8578,59.8915,0.0],[10.8576,59.8917,0.0],[10.8575,59.8926,0.0],[10.8576,59.8932,0.0],[10.858,59.8934,0.0],[10.858,59.8936,0.0],[10.8579,59.8936,0.0],[10.857,59.8939,0.0],[10.8569,59.894,0.0],[10.857,59.8941,0.0],[10.8569,59.8943,0.0],[10.857,59.8943,0.0],[10.857,59.8944,0.0],[10.8569,59.8945,0.0],[10.8569,59.8946,0.0],[10.8571,59.8948,0.0],[10.857,59.8953,0.0],[10.8571,59.8955,0.0],[10.857,59.8958,0.0],[10.8567,59.8958,0.0],[10.8565,59.8959,0.0],[10.8563,59.8961,0.0],[10.8563,59.8963,0.0],[10.8561,59.8964,0.0],[10.8564,59.8969,0.0],[10.8561,59.8974,0.0],[10.8549,59.8976,0.0],[10.8543,59.8986,0.0],[10.853,59.8987,0.0],[10.853,59.899,0.0],[10.853,59.8991,0.0],[10.8543,59.8992,0.0],[10.854,59.9001,0.0],[10.8539,59.9003,0.0],[10.8539,59.9007,0.0],[10.8539,59.9009,0.0],[10.8534,59.9012,0.0],[10.8534,59.9021,0.0],[10.8532,59.9031,0.0],[10.8528,59.9032,0.0],[10.8536,59.9033,0.0],[10.8534,59.9037,0.0],[10.853,59.9038,0.0],[10.8528,59.9049,0.0],[10.8524,59.9056,0.0],[10.856,59.9055,0.0],[10.8559,59.9065,0.0],[10.8562,59.9064,0.0],[10.8559,59.907,0.0],[10.8558,59.9071,0.0],[10.8562,59.9071,0.0],[10.8565,59.9074,0.0],[10.8568,59.9076,0.0],[10.8568,59.9077,0.0],[10.8565,59.9077,0.0],[10.8564,59.9079,0.0],[10.8565,59.908,0.0],[10.8564,59.9081,0.0],[10.8563,59.9081,0.0],[10.8561,59.9085,0.0],[10.8555,59.9087,0.0],[10.8554,59.9088,0.0],[10.8553,59.9089,0.0],[10.855,59.9094,0.0],[10.8565,59.9086,0.0],[10.8603,59.9094,0.0],[10.8614,59.9097,0.0],[10.8617,59.9097,0.0],[10.862,59.9097,0.0],[10.8621,59.9098,0.0],[10.8625,59.9099,0.0],[10.863,59.9097,0.0],[10.8633,59.9097,0.0],[10.8648,59.9093,0.0],[10.8653,59.9092,0.0],[10.8656,59.9093,0.0],[10.8647,59.9103,0.0],[10.8642,59.911,0.0],[10.8635,59.9115,0.0],[10.8635,59.9116,0.0],[10.8631,59.9118,0.0],[10.8629,59.9121,0.0],[10.8626,59.9125,0.0],[10.8623,59.9128,0.0],[10.8616,59.9133,0.0],[10.8616,59.9134,0.0],[10.8615,59.9134,0.0],[10.8614,59.9135,0.0],[10.8612,59.914,0.0],[10.8611,59.9141,0.0],[10.8612,59.9142,0.0],[10.8611,59.9145,0.0],[10.8605,59.9147,0.0],[10.8623,59.9153,0.0],[10.8626,59.9164,0.0],[10.8622,59.9168,0.0],[10.8628,59.9171,0.0],[10.8622,59.9174,0.0],[10.8622,59.9176,0.0],[10.8624,59.9178,0.0],[10.8648,59.9185,0.0],[10.8656,59.9193,0.0],[10.8653,59.9196,0.0],[10.866,59.9198,0.0],[10.8661,59.92,0.0],[10.8681,59.9202,0.0],[10.8681,59.9204,0.0],[10.8701,59.9205,0.0],[10.8699,59.9213,0.0],[10.8704,59.9214,0.0],[10.8704,59.9218,0.0],[10.8717,59.9219,0.0],[10.8726,59.9224,0.0],[10.8742,59.9212,0.0],[10.8751,59.9208,0.0],[10.8768,59.9204,0.0],[10.8788,59.9204,0.0],[10.8797,59.9238,0.0],[10.8784,59.9248,0.0],[10.8785,59.9253,0.0],[10.8792,59.9262,0.0],[10.8797,59.9269,0.0],[10.88,59.9274,0.0],[10.88,59.9276,0.0],[10.8801,59.9276,0.0],[10.8804,59.9279,0.0],[10.8807,59.928,0.0],[10.8822,59.9281,0.0],[10.8823,59.9281,0.0],[10.8825,59.9283,0.0],[10.8826,59.9283,0.0],[10.8831,59.9282,0.0],[10.8844,59.9283,0.0],[10.886,59.9284,0.0],[10.8863,59.9284,0.0],[10.8866,59.9286,0.0],[10.8869,59.9288,0.0],[10.887,59.9294,0.0],[10.8873,59.9297,0.0],[10.8873,59.9299,0.0],[10.8872,59.9301,0.0],[10.8866,59.9305,0.0],[10.8863,59.9309,0.0],[10.8865,59.931,0.0],[10.8865,59.9314,0.0],[10.8866,59.9316,0.0],[10.8867,59.932,0.0],[10.8871,59.9322,0.0],[10.8872,59.9324,0.0],[10.8874,59.9325,0.0],[10.8878,59.9325,0.0],[10.8879,59.9325,0.0],[10.8884,59.9325,0.0],[10.8886,59.9326,0.0],[10.8892,59.932,0.0],[10.8893,59.9318,0.0],[10.8895,59.9317,0.0],[10.8897,59.9316,0.0],[10.8901,59.9313,0.0],[10.8902,59.9311,0.0],[10.8904,59.9311,0.0],[10.8907,59.9311,0.0],[10.8908,59.9313,0.0],[10.891,59.9313,0.0],[10.8913,59.9319,0.0],[10.8916,59.9321,0.0],[10.8916,59.9325,0.0],[10.8914,59.933,0.0],[10.8913,59.933,0.0],[10.8913,59.9331,0.0],[10.8916,59.9336,0.0],[10.8915,59.9337,0.0],[10.8917,59.9339,0.0],[10.8922,59.9339,0.0],[10.8925,59.934,0.0],[10.8929,59.9339,0.0],[10.8937,59.9339,0.0],[10.894,59.9339,0.0],[10.8943,59.9337,0.0],[10.8947,59.9337,0.0],[10.896,59.9339,0.0],[10.8957,59.9347,0.0],[10.8958,59.9348,0.0],[10.8956,59.9352,0.0],[10.8954,59.9366,0.0],[10.8966,59.9367,0.0],[10.8974,59.937,0.0],[10.8975,59.9374,0.0],[10.8981,59.9375,0.0],[10.8983,59.9371,0.0],[10.8986,59.9371,0.0],[10.8989,59.9371,0.0],[10.8999,59.937,0.0],[10.8999,59.9368,0.0],[10.9,59.9366,0.0],[10.9005,59.9362,0.0],[10.9009,59.936,0.0],[10.9016,59.9349,0.0],[10.9023,59.9352,0.0],[10.9025,59.9352,0.0],[10.9045,59.9354,0.0],[10.9051,59.9354,0.0],[10.9056,59.9354,0.0],[10.906,59.9354,0.0],[10.9064,59.9352,0.0],[10.9071,59.935,0.0],[10.9075,59.9349,0.0],[10.9082,59.9348,0.0],[10.9086,59.9348,0.0],[10.9087,59.9347,0.0],[10.9092,59.9344,0.0],[10.9097,59.9342,0.0],[10.9102,59.9341,0.0],[10.9108,59.9341,0.0],[10.9121,59.9327,0.0],[10.9124,59.9326,0.0],[10.9128,59.9321,0.0],[10.913,59.9317,0.0],[10.9127,59.9311,0.0],[10.9129,59.9305,0.0],[10.9131,59.9298,0.0],[10.9155,59.9292,0.0],[10.9176,59.9292,0.0],[10.9184,59.9293,0.0],[10.919,59.9297,0.0],[10.9195,59.9299,0.0],[10.9201,59.9291,0.0],[10.9236,59.9293,0.0],[10.9242,59.9293,0.0],[10.9222,59.9269,0.0],[10.922,59.9262,0.0],[10.9217,59.925,0.0],[10.9207,59.9227,0.0],[10.9204,59.9224,0.0],[10.9194,59.9214,0.0],[10.9191,59.9205,0.0],[10.9185,59.9199,0.0],[10.9184,59.9199,0.0],[10.9183,59.9199,0.0],[10.918,59.9199,0.0],[10.9178,59.9198,0.0],[10.9178,59.9197,0.0],[10.9179,59.9193,0.0],[10.918,59.9192,0.0],[10.918,59.9191,0.0],[10.9179,59.9189,0.0],[10.9176,59.9184,0.0],[10.9175,59.918,0.0],[10.9173,59.9178,0.0],[10.9173,59.9169,0.0],[10.9169,59.9164,0.0],[10.9168,59.9162,0.0],[10.9168,59.9159,0.0],[10.9167,59.9159,0.0],[10.9166,59.9158,0.0],[10.9164,59.9137,0.0],[10.9165,59.9134,0.0],[10.9165,59.9132,0.0],[10.9163,59.913,0.0],[10.9161,59.913,0.0],[10.9157,59.9128,0.0],[10.9158,59.9127,0.0],[10.916,59.9126,0.0],[10.916,59.9125,0.0],[10.9157,59.9122,0.0],[10.9154,59.912,0.0],[10.9151,59.9119,0.0],[10.915,59.9118,0.0],[10.9149,59.9117,0.0],[10.9149,59.9115,0.0],[10.9151,59.9114,0.0],[10.9152,59.9114,0.0],[10.9152,59.9113,0.0],[10.9151,59.9112,0.0],[10.915,59.911,0.0],[10.915,59.9107,0.0],[10.9145,59.9103,0.0],[10.9143,59.9099,0.0],[10.9143,59.909,0.0],[10.9142,59.9081,0.0],[10.9141,59.9077,0.0],[10.9138,59.907,0.0],[10.9141,59.9064,0.0],[10.914,59.906,0.0],[10.9137,59.9057,0.0],[10.9135,59.9053,0.0],[10.9133,59.905,0.0],[10.9089,59.8883,0.0],[10.908,59.8858,0.0],[10.9076,59.885,0.0],[10.9093,59.8738,0.0],[10.9071,59.8707,0.0],[10.9097,59.8644,0.0],[10.9108,59.8625,0.0],[10.9113,59.8618,0.0],[10.9121,59.8605,0.0],[10.919,59.8544,0.0],[10.9213,59.8523,0.0],[10.9221,59.8516,0.0],[10.9228,59.8498,0.0],[10.9249,59.8473,0.0],[10.9262,59.8454,0.0],[10.9264,59.845,0.0],[10.9264,59.8446,0.0],[10.9262,59.8441,0.0],[10.9263,59.8437,0.0],[10.9264,59.8433,0.0],[10.927,59.8425,0.0],[10.9273,59.8423,0.0],[10.9276,59.842,0.0],[10.9284,59.8413,0.0],[10.9284,59.8411,0.0],[10.9291,59.8407,0.0],[10.9289,59.8404,0.0],[10.9293,59.8398,0.0],[10.9294,59.8396,0.0],[10.9296,59.8392,0.0],[10.9298,59.839,0.0],[10.9298,59.8386,0.0],[10.9303,59.8383,0.0],[10.9305,59.8382,0.0],[10.9306,59.8378,0.0],[10.9309,59.8377,0.0],[10.9311,59.8372,0.0],[10.9314,59.8369,0.0],[10.9331,59.8366,0.0],[10.9332,59.8364,0.0],[10.9337,59.8363,0.0],[10.9341,59.836,0.0],[10.9352,59.8349,0.0],[10.9365,59.8321,0.0],[10.9366,59.8318,0.0],[10.9366,59.8317,0.0],[10.9365,59.8317,0.0],[10.9364,59.8316,0.0],[10.9359,59.8316,0.0],[10.9355,59.8315,0.0],[10.9346,59.8315,0.0],[10.9338,59.8315,0.0],[10.933,59.8313,0.0],[10.9328,59.8311,0.0],[10.9323,59.8307,0.0],[10.9314,59.8299,0.0],[10.9305,59.8292,0.0],[10.9301,59.829,0.0],[10.9297,59.8289,0.0],[10.9295,59.8288,0.0],[10.929,59.8283,0.0],[10.9287,59.828,0.0],[10.9274,59.8269,0.0],[10.9258,59.8273,0.0],[10.9256,59.8274,0.0],[10.9253,59.8275,0.0],[10.9251,59.8277,0.0],[10.9246,59.8277,0.0],[10.9242,59.8277,0.0],[10.924,59.8277,0.0],[10.9238,59.8277,0.0],[10.9232,59.8278,0.0],[10.9231,59.8278,0.0],[10.9228,59.8277,0.0],[10.9226,59.8276,0.0],[10.9223,59.8276,0.0],[10.9221,59.8277,0.0],[10.922,59.8277,0.0],[10.9219,59.8277,0.0],[10.9217,59.8277,0.0],[10.9215,59.8277,0.0],[10.921,59.8277,0.0],[10.9208,59.8277,0.0],[10.9196,59.8279,0.0],[10.9189,59.8279,0.0],[10.918,59.8279,0.0],[10.9176,59.8279,0.0],[10.9171,59.8278,0.0],[10.9157,59.8271,0.0],[10.9149,59.8268,0.0],[10.9141,59.8268,0.0],[10.9139,59.8269,0.0],[10.9134,59.8271,0.0],[10.9133,59.8271,0.0],[10.913,59.827,0.0],[10.9128,59.827,0.0],[10.9122,59.8269,0.0],[10.9117,59.8268,0.0],[10.9113,59.8265,0.0],[10.911,59.8264,0.0],[10.9108,59.8263,0.0],[10.9108,59.8262,0.0],[10.9111,59.8262,0.0],[10.9108,59.8261,0.0],[10.9105,59.826,0.0],[10.91,59.8261,0.0],[10.9098,59.8262,0.0],[10.9095,59.8262,0.0],[10.9083,59.8259,0.0],[10.9069,59.8262,0.0],[10.903,59.8257,0.0],[10.9009,59.8255,0.0],[10.8982,59.8244,0.0],[10.8977,59.8243,0.0],[10.8975,59.8239,0.0],[10.8965,59.8238,0.0],[10.8968,59.822,0.0],[10.8965,59.8219,0.0],[10.8949,59.8217,0.0],[10.8939,59.8216,0.0],[10.8925,59.8214,0.0],[10.8918,59.821,0.0],[10.8921,59.8195,0.0],[10.8916,59.8189,0.0],[10.8916,59.8183,0.0],[10.8916,59.8182,0.0],[10.8913,59.8181,0.0],[10.8905,59.8177,0.0],[10.8887,59.8183,0.0],[10.887,59.8189,0.0],[10.8867,59.819,0.0],[10.8863,59.8191,0.0],[10.8857,59.819,0.0],[10.8845,59.8186,0.0],[10.8824,59.8183,0.0],[10.882,59.8182,0.0],[10.8817,59.8183,0.0],[10.8812,59.8184,0.0],[10.8808,59.8188,0.0],[10.8803,59.8191,0.0],[10.879,59.8194,0.0],[10.8765,59.8201,0.0],[10.8758,59.8203,0.0],[10.8755,59.8205,0.0],[10.8753,59.8206,0.0],[10.8751,59.8211,0.0],[10.8748,59.8214,0.0],[10.8747,59.8217,0.0],[10.8748,59.8229,0.0],[10.8747,59.8231,0.0],[10.8746,59.8233,0.0],[10.8744,59.8235,0.0],[10.874,59.8236,0.0],[10.8734,59.8237,0.0],[10.8725,59.824,0.0],[10.8713,59.8243,0.0],[10.8708,59.8245,0.0],[10.8704,59.8247,0.0],[10.8697,59.8255,0.0],[10.8685,59.8262,0.0],[10.868,59.8265,0.0],[10.8678,59.8267,0.0],[10.8675,59.8269,0.0],[10.867,59.828,0.0],[10.8666,59.8286,0.0],[10.8652,59.8299,0.0],[10.8653,59.83,0.0],[10.8643,59.831,0.0],[10.8641,59.8313,0.0],[10.8639,59.8322,0.0],[10.8637,59.8324,0.0],[10.8633,59.8327,0.0],[10.8631,59.8328,0.0],[10.863,59.8329,0.0],[10.8629,59.834,0.0],[10.8608,59.834,0.0],[10.8598,59.8335,0.0],[10.8585,59.8336,0.0],[10.8585,59.8335,0.0],[10.8582,59.8336,0.0],[10.8583,59.8339,0.0],[10.8572,59.834,0.0],[10.8565,59.834,0.0],[10.8565,59.8336,0.0],[10.8564,59.8335,0.0],[10.8556,59.8335,0.0],[10.8545,59.8331,0.0],[10.8519,59.8339,0.0],[10.8485,59.8341,0.0],[10.8479,59.8343,0.0],[10.8462,59.8353,0.0],[10.8459,59.8358,0.0],[10.8456,59.8357,0.0],[10.8429,59.8355,0.0],[10.8427,59.8359,0.0],[10.8426,59.8369,0.0],[10.8423,59.8377,0.0],[10.8418,59.8386,0.0],[10.8409,59.8394,0.0],[10.8405,59.8406,0.0],[10.8402,59.8412,0.0],[10.8427,59.8415,0.0],[10.8462,59.8412,0.0],[10.847,59.8419,0.0],[10.849,59.8421,0.0],[10.8474,59.8437,0.0],[10.8473,59.8454,0.0],[10.8468,59.8468,0.0],[10.8458,59.8467,0.0],[10.8459,59.8477,0.0],[10.8453,59.848,0.0],[10.8443,59.8479,0.0],[10.8446,59.8496,0.0],[10.8427,59.8496,0.0],[10.8429,59.8508,0.0],[10.8428,59.8512,0.0],[10.8425,59.8518,0.0],[10.8423,59.8524,0.0],[10.8418,59.8532,0.0],[10.8416,59.8542,0.0],[10.8418,59.8549,0.0],[10.8418,59.8552,0.0],[10.8423,59.8552,0.0],[10.8423,59.8555,0.0],[10.8426,59.8557,0.0],[10.8427,59.8562,0.0],[10.8425,59.8563,0.0],[10.8426,59.8564,0.0],[10.8425,59.8565,0.0],[10.8425,59.8566,0.0],[10.8424,59.8566,0.0],[10.8424,59.8567,0.0],[10.8414,59.8567,0.0],[10.8409,59.8566,0.0],[10.8407,59.8566,0.0],[10.8397,59.8566,0.0],[10.8396,59.8566,0.0],[10.8394,59.8559,0.0],[10.8395,59.8558,0.0],[10.8393,59.8558,0.0],[10.839,59.8559,0.0],[10.8389,59.856,0.0],[10.8384,59.8565,0.0],[10.8383,59.8573,0.0],[10.8382,59.8573,0.0],[10.838,59.8574,0.0],[10.8378,59.8574,0.0],[10.8377,59.8573,0.0],[10.8371,59.8574,0.0],[10.8371,59.8566,0.0],[10.8365,59.8567,0.0],[10.8363,59.8563,0.0],[10.8358,59.8562,0.0],[10.8355,59.8565,0.0],[10.8352,59.8572,0.0],[10.8346,59.858,0.0],[10.8345,59.8586,0.0],[10.8341,59.8589,0.0],[10.8341,59.8596,0.0],[10.8339,59.8602,0.0],[10.834,59.8607,0.0],[10.8333,59.8611,0.0],[10.8323,59.8615,0.0],[10.8322,59.8616,0.0],[10.832,59.8619,0.0],[10.832,59.862,0.0],[10.8319,59.862,0.0],[10.8323,59.8622,0.0]]],[[[10.5019,60.0255,0.0],[10.5154,60.0341,0.0],[10.5201,60.0372,0.0],[10.5218,60.0383,0.0],[10.5525,60.0581,0.0],[10.5798,60.0756,0.0],[10.5808,60.0762,0.0],[10.5837,60.0764,0.0],[10.5973,60.0773,0.0],[10.5929,60.0825,0.0],[10.5921,60.0941,0.0],[10.5887,60.1003,0.0],[10.5828,60.1072,0.0],[10.5806,60.1092,0.0],[10.5728,60.1168,0.0],[10.5736,60.1172,0.0],[10.5731,60.1198,0.0],[10.5842,60.1228,0.0],[10.5976,60.13,0.0],[10.6008,60.1316,0.0],[10.6048,60.1317,0.0],[10.6191,60.1352,0.0],[10.6421,60.133,0.0],[10.6515,60.1329,0.0],[10.6803,60.1335,0.0],[10.6987,60.1256,0.0],[10.7017,60.1253,0.0],[10.7058,60.12,0.0],[10.7087,60.1194,0.0],[10.7184,60.1213,0.0],[10.7243,60.1215,0.0],[10.7387,60.1256,0.0],[10.7428,60.124,0.0],[10.7652,60.1153,0.0],[10.7662,60.1116,0.0],[10.7548,60.101,0.0],[10.7611,60.0981,0.0],[10.7648,60.0957,0.0],[10.7756,60.0827,0.0],[10.785,60.0705,0.0],[10.7876,60.0677,0.0],[10.8088,60.0643,0.0],[10.8146,60.0651,0.0],[10.8197,60.0645,0.0],[10.8192,60.0627,0.0],[10.8187,60.0611,0.0],[10.8183,60.0598,0.0],[10.8168,60.0567,0.0],[10.8165,60.0537,0.0],[10.8176,60.0513,0.0],[10.8172,60.0472,0.0],[10.8177,60.045,0.0],[10.8174,60.0401,0.0],[10.8174,60.0399,0.0],[10.8135,60.0293,0.0],[10.8117,60.0255,0.0],[10.8122,60.0248,0.0],[10.8148,60.0218,0.0],[10.8202,60.0181,0.0],[10.8208,60.0176,0.0],[10.8213,60.0174,0.0],[10.8216,60.0174,0.0],[10.8221,60.0182,0.0],[10.8223,60.0195,0.0],[10.8241,60.0217,0.0],[10.8275,60.0228,0.0],[10.8379,59.9981,0.0],[10.8417,59.9973,0.0],[10.8426,59.9971,0.0],[10.8428,59.9995,0.0],[10.8493,60.002,0.0],[10.8522,59.9998,0.0],[10.8555,59.9982,0.0],[10.8578,59.9962,0.0],[10.8608,59.9959,0.0],[10.8659,59.9951,0.0],[10.8845,59.9837,0.0],[10.8931,59.9808,0.0],[10.918,59.983,0.0],[10.9227,59.9835,0.0],[10.9234,59.9804,0.0],[10.9219,59.9793,0.0],[10.917,59.9794,0.0],[10.9097,59.9737,0.0],[10.9011,59.9737,0.0],[10.8952,59.9713,0.0],[10.8952,59.9642,0.0],[10.89,59.9649,0.0],[10.8879,59.9702,0.0],[10.8828,59.9729,0.0],[10.8807,59.9774,0.0],[10.8786,59.9783,0.0],[10.8736,59.978,0.0],[10.8715,59.974,0.0],[10.8785,59.9744,0.0],[10.88,59.9727,0.0],[10.8651,59.9685,0.0],[10.8637,59.9667,0.0],[10.8677,59.9659,0.0],[10.867,59.9601,0.0],[10.8609,59.9601,0.0],[10.8617,59.9575,0.0],[10.8525,59.9575,0.0],[10.8504,59.9585,0.0],[10.8483,59.9568,0.0],[10.8509,59.9557,0.0],[10.8497,59.9521,0.0],[10.8452,59.9503,0.0],[10.8438,59.947,0.0],[10.8332,59.9464,0.0],[10.8342,59.9526,0.0],[10.8278,59.9535,0.0],[10.8259,59.9562,0.0],[10.8213,59.9563,0.0],[10.8232,59.954,0.0],[10.8175,59.951,0.0],[10.8142,59.9507,0.0],[10.8121,59.9491,0.0],[10.8086,59.9488,0.0],[10.8051,59.9479,0.0],[10.8044,59.9476,0.0],[10.8041,59.9497,0.0],[10.8019,59.9493,0.0],[10.7985,59.9548,0.0],[10.8013,59.9699,0.0],[10.7952,59.9731,0.0],[10.794,59.9711,0.0],[10.7739,59.9712,0.0],[10.7671,59.9674,0.0],[10.7558,59.9666,0.0],[10.7464,59.9706,0.0],[10.7461,59.9671,0.0],[10.7389,59.9671,0.0],[10.734,59.9703,0.0],[10.7347,59.9734,0.0],[10.7307,59.9738,0.0],[10.7285,59.9716,0.0],[10.7246,59.9715,0.0],[10.7257,59.9632,0.0],[10.7161,59.958,0.0],[10.7156,59.9577,0.0],[10.7098,59.9592,0.0],[10.7096,59.9652,0.0],[10.7067,59.9653,0.0],[10.7011,59.9619,0.0],[10.6952,59.9652,0.0],[10.695,59.968,0.0],[10.6901,59.9683,0.0],[10.6898,59.9653,0.0],[10.6856,59.9629,0.0],[10.6793,59.9635,0.0],[10.669,59.9636,0.0],[10.667,59.9628,0.0],[10.6649,59.9647,0.0],[10.6596,59.9655,0.0],[10.6622,59.9719,0.0],[10.6694,59.9702,0.0],[10.6724,59.9731,0.0],[10.6656,59.9808,0.0],[10.6582,59.9834,0.0],[10.6525,59.9838,0.0],[10.6516,59.987,0.0],[10.6494,59.9867,0.0],[10.6485,59.9837,0.0],[10.6422,59.979,0.0],[10.6434,59.9729,0.0],[10.6298,59.9697,0.0],[10.6179,59.9699,0.0],[10.614,59.9743,0.0],[10.6043,59.9765,0.0],[10.6005,59.9772,0.0],[10.6001,59.9772,0.0],[10.5998,59.9772,0.0],[10.5916,59.9785,0.0],[10.5906,59.9787,0.0],[10.5881,59.9805,0.0],[10.586,59.9817,0.0],[10.5843,59.9825,0.0],[10.5839,59.983,0.0],[10.5832,59.9834,0.0],[10.5828,59.9834,0.0],[10.5821,59.9838,0.0],[10.5819,59.984,0.0],[10.5807,59.9845,0.0],[10.5768,59.9861,0.0],[10.5654,59.992,0.0],[10.5597,59.9938,0.0],[10.5559,59.9967,0.0],[10.5371,59.9999,0.0],[10.5354,60.0004,0.0],[10.5297,60.0002,0.0],[10.5285,59.9993,0.0],[10.5275,59.9995,0.0],[10.5255,60.0001,0.0],[10.5241,60.0001,0.0],[10.5181,59.9993,0.0],[10.5121,60.0032,0.0],[10.4892,60.0173,0.0],[10.5019,60.0255,0.0]]]]}},{"type":"Feature","properties":{"uesi_id":"NOR_R406091","nbhd_code":"NOR_R406091_17","nbhd_name":"Alna"},"geometry":{"type":"MultiPolygon","coordinates":[[[[10.808,59.9222,0.0],[10.8096,59.9236,0.0],[10.8367,59.9245,0.0],[10.8376,59.93,0.0],[10.838,59.9328,0.0],[10.8381,59.9336,0.0],[10.8394,59.9346,0.0],[10.8437,59.9383,0.0],[10.8627,59.942,0.0],[10.8905,59.9498,0.0],[10.8992,59.9558,0.0],[10.9036,59.9529,0.0],[10.909,59.9502,0.0],[10.9093,59.947,0.0],[10.905,59.9459,0.0],[10.9082,59.9436,0.0],[10.9099,59.9424,0.0],[10.9073,59.9409,0.0],[10.9195,59.9406,0.0],[10.9278,59.9412,0.0],[10.9337,59.9377,0.0],[10.9329,59.9372,0.0],[10.9327,59.9369,0.0],[10.9324,59.9368,0.0],[10.932,59.9366,0.0],[10.9318,59.9364,0.0],[10.9315,59.9362,0.0],[10.9313,59.9361,0.0],[10.9306,59.9357,0.0],[10.9305,59.9356,0.0],[10.9302,59.9355,0.0],[10.93,59.9353,0.0],[10.9296,59.9351,0.0],[10.929,59.9348,0.0],[10.9289,59.9348,0.0],[10.9288,59.9346,0.0],[10.9284,59.9341,0.0],[10.9282,59.9337,0.0],[10.9279,59.9334,0.0],[10.9277,59.933,0.0],[10.9274,59.9325,0.0],[10.9273,59.9323,0.0],[10.9271,59.9321,0.0],[10.9265,59.9317,0.0],[10.9263,59.9316,0.0],[10.9261,59.9314,0.0],[10.926,59.9313,0.0],[10.9259,59.9312,0.0],[10.9258,59.9311,0.0],[10.9257,59.9311,0.0],[10.9256,59.931,0.0],[10.9249,59.9304,0.0],[10.9247,59.9301,0.0],[10.9244,59.9296,0.0],[10.9242,59.9293,0.0],[10.9236,59.9293,0.0],[10.9201,59.9291,0.0],[10.9195,59.9299,0.0],[10.919,59.9297,0.0],[10.9184,59.9293,0.0],[10.9176,59.9292,0.0],[10.9155,59.9292,0.0],[10.9131,59.9298,0.0],[10.9129,59.9305,0.0],[10.9127,59.9311,0.0],[10.913,59.9317,0.0],[10.9128,59.9321,0.0],[10.9124,59.9326,0.0],[10.9121,59.9327,0.0],[10.9108,59.9341,0.0],[10.9102,59.9341,0.0],[10.9097,59.9342,0.0],[10.9092,59.9344,0.0],[10.9087,59.9347,0.0],[10.9086,59.9348,0.0],[10.9082,59.9348,0.0],[10.9075,59.9349,0.0],[10.9071,59.935,0.0],[10.9064,59.9352,0.0],[10.906,59.9354,0.0],[10.9056,59.9354,0.0],[10.9051,59.9354,0.0],[10.9045,59.9354,0.0],[10.9025,59.9352,0.0],[10.9023,59.9352,0.0],[10.9016,59.9349,0.0],[10.9009,59.936,0.0],[10.9005,59.9362,0.0],[10.9,59.9366,0.0],[10.8999,59.9368,0.0],[10.8999,59.937,0.0],[10.8989,59.9371,0.0],[10.8986,59.9371,0.0],[10.8983,59.9371,0.0],[10.8981,59.9375,0.0],[10.8975,59.9374,0.0],[10.8974,59.937,0.0],[10.8966,59.9367,0.0],[10.8954,59.9366,0.0],[10.8956,59.9352,0.0],[10.8958,59.9348,0.0],[10.8957,59.9347,0.0],[10.896,59.9339,0.0],[10.8947,59.9337,0.0],[10.8943,59.9337,0.0],[10.894,59.9339,0.0],[10.8937,59.9339,0.0],[10.8929,59.9339,0.0],[10.8925,59.934,0.0],[10.8922,59.9339,0.0],[10.8917,59.9339,0.0],[10.8915,59.9337,0.0],[10.8916,59.9336,0.0],[10.8913,59.9331,0.0],[10.8913,59.933,0.0],[10.8914,59.933,0.0],[10.8916,59.9325,0.0],[10.8916,59.9321,0.0],[10.8913,59.9319,0.0],[10.891,59.9313,0.0],[10.8908,59.9313,0.0],[10.8907,59.9311,0.0],[10.8904,59.9311,0.0],[10.8902,59.9311,0.0],[10.8901,59.9313,0.0],[10.8897,59.9316,0.0],[10.8895,59.9317,0.0],[10.8893,59.9318,0.0],[10.8892,59.932,0.0],[10.8886,59.9326,0.0],[10.8884,59.9325,0.0],[10.8879,59.9325,0.0],[10.8878,59.9325,0.0],[10.8874,59.9325,0.0],[10.8872,59.9324,0.0],[10.8871,59.9322,0.0],[10.8867,59.932,0.0],[10.8866,59.9316,0.0],[10.8865,59.9314,0.0],[10.8865,59.931,0.0],[10.8863,59.9309,0.0],[10.8866,59.9305,0.0],[10.8872,59.9301,0.0],[10.8873,59.9299,0.0],[10.8873,59.9297,0.0],[10.887,59.9294,0.0],[10.8869,59.9288,0.0],[10.8866,59.9286,0.0],[10.8863,59.9284,0.0],[10.886,59.9284,0.0],[10.8844,59.9283,0.0],[10.8831,59.9282,0.0],[10.8826,59.9283,0.0],[10.8825,59.9283,0.0],[10.8823,59.9281,0.0],[10.8822,59.9281,0.0],[10.8807,59.928,0.0],[10.8804,59.9279,0.0],[10.8801,59.9276,0.0],[10.88,59.9276,0.0],[10.88,59.9274,0.0],[10.8797,59.9269,0.0],[10.8792,59.9262,0.0],[10.8785,59.9253,0.0],[10.8784,59.9248,0.0],[10.8797,59.9238,0.0],[10.8788,59.9204,0.0],[10.8768,59.9204,0.0],[10.8751,59.9208,0.0],[10.8742,59.9212,0.0],[10.8726,59.9224,0.0],[10.8717,59.9219,0.0],[10.8704,59.9218,0.0],[10.8704,59.9214,0.0],[10.8699,59.9213,0.0],[10.8701,59.9205,0.0],[10.8681,59.9204,0.0],[10.8681,59.9202,0.0],[10.8661,59.92,0.0],[10.866,59.9198,0.0],[10.8653,59.9196,0.0],[10.8656,59.9193,0.0],[10.8648,59.9185,0.0],[10.8624,59.9178,0.0],[10.8622,59.9176,0.0],[10.8622,59.9174,0.0],[10.8628,59.9171,0.0],[10.8622,59.9168,0.0],[10.8626,59.9164,0.0],[10.8623,59.9153,0.0],[10.8605,59.9147,0.0],[10.8611,59.9145,0.0],[10.8612,59.9142,0.0],[10.8611,59.9141,0.0],[10.8612,59.914,0.0],[10.8614,59.9135,0.0],[10.8615,59.9134,0.0],[10.8616,59.9134,0.0],[10.8616,59.9133,0.0],[10.8623,59.9128,0.0],[10.8626,59.9125,0.0],[10.8629,59.9121,0.0],[10.8631,59.9118,0.0],[10.8635,59.9116,0.0],[10.8635,59.9115,0.0],[10.8642,59.911,0.0],[10.8647,59.9103,0.0],[10.8656,59.9093,0.0],[10.8653,59.9092,0.0],[10.8648,59.9093,0.0],[10.8633,59.9097,0.0],[10.863,59.9097,0.0],[10.8625,59.9099,0.0],[10.8621,59.9098,0.0],[10.862,59.9097,0.0],[10.8617,59.9097,0.0],[10.8614,59.9097,0.0],[10.8603,59.9094,0.0],[10.8601,59.9095,0.0],[10.8559,59.9118,0.0],[10.8503,59.9114,0.0],[10.8487,59.9132,0.0],[10.8438,59.9138,0.0],[10.8384,59.9104,0.0],[10.8296,59.9128,0.0],[10.8236,59.9085,0.0],[10.8171,59.9078,0.0],[10.8132,59.9102,0.0],[10.8142,59.9131,0.0],[10.8092,59.9162,0.0],[10.8111,59.9172,0.0],[10.8085,59.9191,0.0],[10.808,59.9222,0.0]]]]}}]}