{"type":"FeatureCollection","name":"PAN_R8389079","crs":{"type":"name","properties":{"name":"urn:ogc:def:crs:OGC:1.3:CRS84"}},"features":[{"type":"Feature","properties":{"uesi_id":"PAN_R8389079","nbhd_code":"PAN_R8389079_1","nbhd_name":"Victoriano Lorenzo"},"geometry":{"type":"MultiPolygon","coordinates":[[[[-79.50405,9.03875,0.0],[-79.50333,9.03873,0.0],[-79.50297,9.03873,0.0],[-79.50279,9.03871,0.0],[-79.50262,9.03871,0.0],[-79.50248,9.03871,0.0],[-79.50229,9.0387,0.0],[-79.50166,9.03868,0.0],[-79.50172,9.03799,0.0],[-79.50088,9.03792,0.0],[-79.50062,9.03791,0.0],[-79.50055,9.03712,0.0],[-79.50066,9.03699,0.0],[-79.50091,9.03584,0.0],[-79.50112,9.03488,0.0],[-79.50093,9.03474,0.0],[-79.50109,9.03448,0.0],[-79.50113,9.03434,0.0],[-79.50113,9.03431,0.0],[-79.50116,9.03413,0.0],[-79.50135,9.03411,0.0],[-79.5016,9.03412,0.0],[-79.50211,9.03415,0.0],[-79.50211,9.03409,0.0],[-79.50204,9.03396,0.0],[-79.502,9.03381,0.0],[-79.50198,9.03362,0.0],[-79.50197,9.0335,0.0],[-79.50198,9.03327,0.0],[-79.50183,9.03322,0.0],[-79.50188,9.03269,0.0],[-79.50194,9.03261,0.0],[-79.50202,9.03249,0.0],[-79.5021,9.03234,0.0],[-79.5023,9.03133,0.0],[-79.50242,9.0307,0.0],[-79.50186,9.0307,0.0],[-79.50153,9.0307,0.0],[-79.50101,9.03069,0.0],[-79.50064,9.03066,0.0],[-79.50039,9.03062,0.0],[-79.49981,9.03049,0.0],[-79.49962,9.03044,0.0],[-79.49911,9.03027,0.0],[-79.49838,9.02996,0.0],[-79.49761,9.02964,0.0],[-79.49653,9.02921,0.0],[-79.49584,9.02895,0.0],[-79.49554,9.02885,0.0],[-79.49535,9.02883,0.0],[-79.4951,9.02881,0.0],[-79.49478,9.0288,0.0],[-79.49452,9.02884,0.0],[-79.49454,9.0286,0.0],[-79.49456,9.02854,0.0],[-79.49499,9.02746,0.0],[-79.49504,9.02733,0.0],[-79.49508,9.02724,0.0],[-79.49538,9.02656,0.0],[-79.49554,9.02618,0.0],[-79.49582,9.02553,0.0],[-79.49607,9.02557,0.0],[-79.49643,9.02563,0.0],[-79.49657,9.02565,0.0],[-79.497,9.02572,0.0],[-79.49722,9.02574,0.0],[-79.49751,9.02574,0.0],[-79.4978,9.02573,0.0],[-79.49789,9.02573,0.0],[-79.49805,9.02571,0.0],[-79.49859,9.02563,0.0],[-79.49867,9.02562,0.0],[-79.49927,9.02554,0.0],[-79.49944,9.02552,0.0],[-79.49953,9.02551,0.0],[-79.50023,9.02552,0.0],[-79.50101,9.02553,0.0],[-79.50138,9.02552,0.0],[-79.50279,9.02544,0.0],[-79.50298,9.02543,0.0],[-79.50378,9.02539,0.0],[-79.50449,9.02538,0.0],[-79.50458,9.02541,0.0],[-79.50478,9.02555,0.0],[-79.505,9.02569,0.0],[-79.50548,9.02608,0.0],[-79.50564,9.02629,0.0],[-79.50575,9.02646,0.0],[-79.50586,9.02669,0.0],[-79.50649,9.02841,0.0],[-79.50653,9.02852,0.0],[-79.50666,9.02887,0.0],[-79.50669,9.02894,0.0],[-79.50675,9.0291,0.0],[-79.50677,9.02913,0.0],[-79.5068,9.0292,0.0],[-79.50687,9.02924,0.0],[-79.50691,9.02911,0.0],[-79.50734,9.02789,0.0],[-79.50745,9.02765,0.0],[-79.50753,9.02748,0.0],[-79.50772,9.02713,0.0],[-79.50803,9.0267,0.0],[-79.50805,9.02668,0.0],[-79.50812,9.02661,0.0],[-79.50839,9.02636,0.0],[-79.50864,9.02612,0.0],[-79.50881,9.02598,0.0],[-79.50957,9.02537,0.0],[-79.50963,9.02545,0.0],[-79.50976,9.0255,0.0],[-79.50979,9.0255,0.0],[-79.50985,9.02549,0.0],[-79.50995,9.02549,0.0],[-79.51002,9.02548,0.0],[-79.51014,9.02545,0.0],[-79.51032,9.02527,0.0],[-79.51057,9.02519,0.0],[-79.5108,9.0252,0.0],[-79.511,9.02533,0.0],[-79.51115,9.02546,0.0],[-79.51125,9.02559,0.0],[-79.51129,9.02568,0.0],[-79.5113,9.02577,0.0],[-79.51132,9.02584,0.0],[-79.51134,9.02609,0.0],[-79.51133,9.02643,0.0],[-79.51129,9.02653,0.0],[-79.51119,9.02673,0.0],[-79.51105,9.02707,0.0],[-79.51103,9.02736,0.0],[-79.51105,9.02764,0.0],[-79.51105,9.02769,0.0],[-79.51115,9.02786,0.0],[-79.51133,9.02806,0.0],[-79.51151,9.02816,0.0],[-79.51159,9.0282,0.0],[-79.5118,9.02828,0.0],[-79.51189,9.0283,0.0],[-79.512,9.02833,0.0],[-79.5121,9.02835,0.0],[-79.51214,9.02837,0.0],[-79.51226,9.02846,0.0],[-79.51237,9.02862,0.0],[-79.5125,9.02876,0.0],[-79.51278,9.02884,0.0],[-79.51309,9.02884,0.0],[-79.51333,9.02891,0.0],[-79.51341,9.02896,0.0],[-79.51349,9.029,0.0],[-79.51363,9.02908,0.0],[-79.51387,9.02931,0.0],[-79.51427,9.02941,0.0],[-79.51453,9.02951,0.0],[-79.51456,9.02954,0.0],[-79.51467,9.02966,0.0],[-79.51466,9.02981,0.0],[-79.51463,9.02982,0.0],[-79.51445,9.02992,0.0],[-79.5143,9.03004,0.0],[-79.51386,9.03022,0.0],[-79.51365,9.03031,0.0],[-79.51361,9.03062,0.0],[-79.51378,9.03091,0.0],[-79.51396,9.03117,0.0],[-79.51436,9.0315,0.0],[-79.51483,9.03174,0.0],[-79.51439,9.03189,0.0],[-79.51413,9.03198,0.0],[-79.51404,9.032,0.0],[-79.51403,9.03212,0.0],[-79.51439,9.03375,0.0],[-79.5139,9.03384,0.0],[-79.51341,9.03395,0.0],[-79.51328,9.03407,0.0],[-79.51316,9.0342,0.0],[-79.51305,9.03437,0.0],[-79.51354,9.03717,0.0],[-79.51356,9.03738,0.0],[-79.51358,9.0375,0.0],[-79.51362,9.03777,0.0],[-79.51367,9.03841,0.0],[-79.51363,9.03854,0.0],[-79.5135,9.03874,0.0],[-79.5133,9.03892,0.0],[-79.51287,9.03923,0.0],[-79.5124,9.03941,0.0],[-79.51212,9.03934,0.0],[-79.51198,9.03929,0.0],[-79.51184,9.03922,0.0],[-79.51175,9.0391,0.0],[-79.5117,9.03896,0.0],[-79.51166,9.03876,0.0],[-79.51156,9.03866,0.0],[-79.51134,9.03859,0.0],[-79.5109,9.03858,0.0],[-79.51016,9.0386,0.0],[-79.50943,9.03861,0.0],[-79.50941,9.03861,0.0],[-79.50938,9.03861,0.0],[-79.50931,9.03861,0.0],[-79.50927,9.03861,0.0],[-79.50921,9.03859,0.0],[-79.5091,9.03856,0.0],[-79.50877,9.03818,0.0],[-79.50861,9.03799,0.0],[-79.50881,9.03785,0.0],[-79.5084,9.03726,0.0],[-79.50876,9.03691,0.0],[-79.50774,9.03661,0.0],[-79.50631,9.0362,0.0],[-79.50619,9.03628,0.0],[-79.50606,9.03633,0.0],[-79.50594,9.03636,0.0],[-79.50565,9.0364,0.0],[-79.50504,9.03642,0.0],[-79.50477,9.03641,0.0],[-79.50463,9.03642,0.0],[-79.50358,9.03667,0.0],[-79.50361,9.03671,0.0],[-79.50361,9.03675,0.0],[-79.50361,9.03683,0.0],[-79.50363,9.0369,0.0],[-79.50365,9.03702,0.0],[-79.5037,9.03715,0.0],[-79.5037,9.03724,0.0],[-79.50372,9.03733,0.0],[-79.50375,9.03741,0.0],[-79.50376,9.03745,0.0],[-79.50376,9.0375,0.0],[-79.50374,9.03753,0.0],[-79.50372,9.03758,0.0],[-79.50369,9.03762,0.0],[-79.50369,9.03766,0.0],[-79.50371,9.0377,0.0],[-79.50374,9.03775,0.0],[-79.5038,9.03783,0.0],[-79.50384,9.03788,0.0],[-79.50387,9.0379,0.0],[-79.50392,9.03793,0.0],[-79.50395,9.03797,0.0],[-79.50396,9.03801,0.0],[-79.50394,9.03804,0.0],[-79.50392,9.03808,0.0],[-79.50389,9.03815,0.0],[-79.50386,9.03823,0.0],[-79.50386,9.03831,0.0],[-79.50386,9.03838,0.0],[-79.50386,9.03842,0.0],[-79.50388,9.03847,0.0],[-79.50392,9.03854,0.0],[-79.50399,9.03862,0.0],[-79.50403,9.03865,0.0],[-79.50405,9.0387,0.0],[-79.50405,9.03875,0.0]]]]}},{"type":"Feature","properties":{"uesi_id":"PAN_R8389079","nbhd_code":"PAN_R8389079_2","nbhd_name":"Mateo Iturralde"},"geometry":{"type":"MultiPolygon","coordinates":[[[[-79.49113,9.03635,0.0],[-79.49117,9.03609,0.0],[-79.49121,9.03599,0.0],[-79.49126,9.03595,0.0],[-79.49142,9.03594,0.0],[-79.49145,9.03579,0.0],[-79.4916,9.03549,0.0],[-79.49183,9.03557,0.0],[-79.49204,9.03476,0.0],[-79.49215,9.03426,0.0],[-79.49222,9.0339,0.0],[-79.49217,9.03312,0.0],[-79.49196,9.03185,0.0],[-79.49191,9.03158,0.0],[-79.49182,9.03135,0.0],[-79.49144,9.03063,0.0],[-79.49149,9.0306,0.0],[-79.49277,9.02972,0.0],[-79.49338,9.02932,0.0],[-79.49366,9.02913,0.0],[-79.49397,9.02899,0.0],[-79.49428,9.02888,0.0],[-79.49452,9.02884,0.0],[-79.49478,9.0288,0.0],[-79.4951,9.02881,0.0],[-79.49535,9.02883,0.0],[-79.49554,9.02885,0.0],[-79.49584,9.02895,0.0],[-79.49653,9.02921,0.0],[-79.49761,9.02964,0.0],[-79.49838,9.02996,0.0],[-79.49911,9.03027,0.0],[-79.49962,9.03044,0.0],[-79.49981,9.03049,0.0],[-79.50039,9.03062,0.0],[-79.50064,9.03066,0.0],[-79.50101,9.03069,0.0],[-79.50153,9.0307,0.0],[-79.50186,9.0307,0.0],[-79.50242,9.0307,0.0],[-79.5023,9.03133,0.0],[-79.5021,9.03234,0.0],[-79.50202,9.03249,0.0],[-79.50194,9.03261,0.0],[-79.50188,9.03269,0.0],[-79.50183,9.03322,0.0],[-79.50198,9.03327,0.0],[-79.50197,9.0335,0.0],[-79.50198,9.03362,0.0],[-79.502,9.03381,0.0],[-79.50204,9.03396,0.0],[-79.50211,9.03409,0.0],[-79.50211,9.03415,0.0],[-79.5016,9.03412,0.0],[-79.50135,9.03411,0.0],[-79.50116,9.03413,0.0],[-79.50113,9.03431,0.0],[-79.50113,9.03434,0.0],[-79.50109,9.03448,0.0],[-79.50093,9.03474,0.0],[-79.50112,9.03488,0.0],[-79.50091,9.03584,0.0],[-79.50066,9.03699,0.0],[-79.50055,9.03712,0.0],[-79.50062,9.03791,0.0],[-79.50024,9.03798,0.0],[-79.49997,9.038,0.0],[-79.49906,9.03808,0.0],[-79.49901,9.03757,0.0],[-79.49898,9.03721,0.0],[-79.49894,9.0371,0.0],[-79.49888,9.03701,0.0],[-79.4988,9.03694,0.0],[-79.49845,9.03669,0.0],[-79.49836,9.03667,0.0],[-79.49825,9.03685,0.0],[-79.4981,9.03704,0.0],[-79.49796,9.03719,0.0],[-79.4978,9.03731,0.0],[-79.49752,9.03747,0.0],[-79.49735,9.03754,0.0],[-79.4973,9.03756,0.0],[-79.49716,9.03758,0.0],[-79.49706,9.0376,0.0],[-79.49684,9.0376,0.0],[-79.49678,9.0376,0.0],[-79.49594,9.03759,0.0],[-79.49587,9.03759,0.0],[-79.49571,9.0376,0.0],[-79.49567,9.0376,0.0],[-79.49559,9.03762,0.0],[-79.49546,9.03766,0.0],[-79.49532,9.0377,0.0],[-79.49523,9.03774,0.0],[-79.4952,9.03776,0.0],[-79.49513,9.03781,0.0],[-79.49506,9.03786,0.0],[-79.49491,9.03801,0.0],[-79.49472,9.0382,0.0],[-79.4946,9.03831,0.0],[-79.49442,9.03844,0.0],[-79.49431,9.0385,0.0],[-79.49398,9.03865,0.0],[-79.49387,9.03866,0.0],[-79.49372,9.03867,0.0],[-79.4937,9.03867,0.0],[-79.49345,9.03863,0.0],[-79.49328,9.0386,0.0],[-79.4932,9.03858,0.0],[-79.49287,9.03836,0.0],[-79.49265,9.03811,0.0],[-79.49259,9.03805,0.0],[-79.49215,9.03839,0.0],[-79.49169,9.03874,0.0],[-79.49123,9.0391,0.0],[-79.49104,9.03869,0.0],[-79.49097,9.0384,0.0],[-79.49097,9.03783,0.0],[-79.49091,9.03759,0.0],[-79.49084,9.03749,0.0],[-79.4907,9.03733,0.0],[-79.49032,9.03701,0.0],[-79.49014,9.0365,0.0],[-79.49013,9.03607,0.0],[-79.49024,9.03572,0.0],[-79.4904,9.03544,0.0],[-79.4904,9.03561,0.0],[-79.4904,9.03572,0.0],[-79.49043,9.03586,0.0],[-79.49047,9.03594,0.0],[-79.49051,9.036,0.0],[-79.49062,9.03605,0.0],[-79.49075,9.03608,0.0],[-79.4908,9.0361,0.0],[-79.49083,9.03612,0.0],[-79.49096,9.03618,0.0],[-79.49112,9.03633,0.0],[-79.49113,9.03635,0.0]]]]}},{"type":"Feature","properties":{"uesi_id":"PAN_R8389079","nbhd_code":"PAN_R8389079_3","nbhd_name":"Belisario Fr\u00edas"},"geometry":{"type":"MultiPolygon","coordinates":[[[[-79.48535,9.07113,0.0],[-79.48566,9.07098,0.0],[-79.48584,9.0709,0.0],[-79.48603,9.07076,0.0],[-79.48687,9.07034,0.0],[-79.48784,9.06983,0.0],[-79.48837,9.0696,0.0],[-79.48845,9.0696,0.0],[-79.48861,9.06968,0.0],[-79.48877,9.06981,0.0],[-79.48908,9.06995,0.0],[-79.48936,9.06992,0.0],[-79.4899,9.06962,0.0],[-79.49047,9.0693,0.0],[-79.49086,9.06908,0.0],[-79.49123,9.06883,0.0],[-79.49159,9.06855,0.0],[-79.49173,9.0684,0.0],[-79.49203,9.06783,0.0],[-79.49221,9.06744,0.0],[-79.49226,9.06738,0.0],[-79.49237,9.06733,0.0],[-79.49256,9.06729,0.0],[-79.49274,9.06712,0.0],[-79.49285,9.06661,0.0],[-79.49281,9.06629,0.0],[-79.49275,9.06611,0.0],[-79.49249,9.0661,0.0],[-79.49225,9.06608,0.0],[-79.49218,9.06603,0.0],[-79.49212,9.06585,0.0],[-79.49214,9.06553,0.0],[-79.49217,9.06521,0.0],[-79.49214,9.06497,0.0],[-79.49203,9.06457,0.0],[-79.49207,9.06439,0.0],[-79.49216,9.06392,0.0],[-79.49229,9.06371,0.0],[-79.49234,9.06358,0.0],[-79.49244,9.06346,0.0],[-79.49273,9.06323,0.0],[-79.49295,9.06305,0.0],[-79.49303,9.06305,0.0],[-79.4931,9.06305,0.0],[-79.49429,9.06326,0.0],[-79.49444,9.06327,0.0],[-79.49452,9.06324,0.0],[-79.4946,9.0632,0.0],[-79.49469,9.06312,0.0],[-79.495,9.06271,0.0],[-79.49509,9.06261,0.0],[-79.49516,9.06255,0.0],[-79.49523,9.06251,0.0],[-79.49533,9.06248,0.0],[-79.4954,9.06246,0.0],[-79.49574,9.0625,0.0],[-79.49622,9.06253,0.0],[-79.49636,9.06254,0.0],[-79.4967,9.06257,0.0],[-79.49685,9.06263,0.0],[-79.49698,9.0627,0.0],[-79.49712,9.06281,0.0],[-79.49728,9.06291,0.0],[-79.49745,9.06305,0.0],[-79.49805,9.06349,0.0],[-79.49815,9.06357,0.0],[-79.49884,9.0641,0.0],[-79.49969,9.06452,0.0],[-79.50044,9.0649,0.0],[-79.50081,9.06508,0.0],[-79.50168,9.0655,0.0],[-79.50181,9.06556,0.0],[-79.50202,9.06566,0.0],[-79.50214,9.06572,0.0],[-79.50271,9.066,0.0],[-79.50223,9.06676,0.0],[-79.50194,9.06738,0.0],[-79.50194,9.06745,0.0],[-79.50203,9.06774,0.0],[-79.50218,9.06815,0.0],[-79.50221,9.06819,0.0],[-79.50226,9.06829,0.0],[-79.50244,9.06843,0.0],[-79.50296,9.06864,0.0],[-79.50305,9.06871,0.0],[-79.50318,9.06883,0.0],[-79.50323,9.06891,0.0],[-79.50351,9.06928,0.0],[-79.5037,9.06956,0.0],[-79.50395,9.06992,0.0],[-79.50416,9.07024,0.0],[-79.5042,9.0703,0.0],[-79.50445,9.07066,0.0],[-79.50473,9.07108,0.0],[-79.50497,9.07134,0.0],[-79.50503,9.07141,0.0],[-79.50507,9.0715,0.0],[-79.50506,9.07155,0.0],[-79.50503,9.0717,0.0],[-79.50488,9.07189,0.0],[-79.50471,9.07214,0.0],[-79.5045,9.07236,0.0],[-79.50424,9.07256,0.0],[-79.5039,9.07273,0.0],[-79.50377,9.07277,0.0],[-79.50365,9.07279,0.0],[-79.50365,9.07268,0.0],[-79.50374,9.07244,0.0],[-79.50378,9.07236,0.0],[-79.50375,9.07222,0.0],[-79.5037,9.07201,0.0],[-79.50365,9.07183,0.0],[-79.50367,9.07161,0.0],[-79.50356,9.07149,0.0],[-79.5035,9.07134,0.0],[-79.50347,9.0712,0.0],[-79.50345,9.07112,0.0],[-79.50344,9.07107,0.0],[-79.50236,9.0705,0.0],[-79.50217,9.07092,0.0],[-79.50202,9.07095,0.0],[-79.50194,9.07118,0.0],[-79.50177,9.07126,0.0],[-79.50171,9.07135,0.0],[-79.50167,9.07146,0.0],[-79.50159,9.07159,0.0],[-79.50149,9.07189,0.0],[-79.50147,9.072,0.0],[-79.50144,9.07212,0.0],[-79.50139,9.0722,0.0],[-79.50132,9.07232,0.0],[-79.50126,9.07247,0.0],[-79.50118,9.07262,0.0],[-79.50112,9.07268,0.0],[-79.50106,9.07273,0.0],[-79.50101,9.07281,0.0],[-79.50096,9.07293,0.0],[-79.50171,9.07328,0.0],[-79.50189,9.07339,0.0],[-79.50069,9.07402,0.0],[-79.50087,9.07448,0.0],[-79.50094,9.07445,0.0],[-79.5017,9.07587,0.0],[-79.50158,9.07594,0.0],[-79.50151,9.07602,0.0],[-79.50145,9.07617,0.0],[-79.50134,9.0763,0.0],[-79.50125,9.07635,0.0],[-79.50115,9.07635,0.0],[-79.50109,9.07632,0.0],[-79.50093,9.07623,0.0],[-79.50082,9.07619,0.0],[-79.50069,9.07621,0.0],[-79.50056,9.07624,0.0],[-79.50046,9.07631,0.0],[-79.50031,9.07632,0.0],[-79.50025,9.07628,0.0],[-79.50014,9.07619,0.0],[-79.49991,9.076,0.0],[-79.49965,9.07588,0.0],[-79.49951,9.07587,0.0],[-79.49938,9.07599,0.0],[-79.4993,9.07609,0.0],[-79.49933,9.07626,0.0],[-79.49939,9.07648,0.0],[-79.49941,9.07669,0.0],[-79.49937,9.07681,0.0],[-79.49927,9.07693,0.0],[-79.49908,9.07702,0.0],[-79.49887,9.07711,0.0],[-79.49883,9.07722,0.0],[-79.49882,9.07733,0.0],[-79.49889,9.0774,0.0],[-79.49896,9.07754,0.0],[-79.49896,9.07771,0.0],[-79.49885,9.07784,0.0],[-79.49873,9.07795,0.0],[-79.49866,9.07808,0.0],[-79.49867,9.07826,0.0],[-79.49878,9.0784,0.0],[-79.49895,9.0785,0.0],[-79.49903,9.07861,0.0],[-79.49899,9.07876,0.0],[-79.49879,9.07889,0.0],[-79.49862,9.07912,0.0],[-79.49834,9.07944,0.0],[-79.49815,9.07963,0.0],[-79.498,9.07975,0.0],[-79.49781,9.0798,0.0],[-79.49771,9.07979,0.0],[-79.49739,9.07977,0.0],[-79.49711,9.07982,0.0],[-79.49683,9.07996,0.0],[-79.49676,9.08003,0.0],[-79.49674,9.08017,0.0],[-79.49678,9.08034,0.0],[-79.49677,9.0804,0.0],[-79.4966,9.08046,0.0],[-79.49644,9.08059,0.0],[-79.49618,9.08081,0.0],[-79.4959,9.08093,0.0],[-79.49587,9.08109,0.0],[-79.49588,9.08117,0.0],[-79.49598,9.08129,0.0],[-79.49612,9.08145,0.0],[-79.49614,9.08171,0.0],[-79.49617,9.08199,0.0],[-79.49619,9.0822,0.0],[-79.4962,9.08232,0.0],[-79.49613,9.08249,0.0],[-79.49604,9.08252,0.0],[-79.49577,9.08239,0.0],[-79.49555,9.08235,0.0],[-79.49523,9.08235,0.0],[-79.49496,9.08238,0.0],[-79.4948,9.08241,0.0],[-79.49472,9.08247,0.0],[-79.49471,9.08265,0.0],[-79.49475,9.08277,0.0],[-79.4948,9.08294,0.0],[-79.49501,9.08333,0.0],[-79.49503,9.08353,0.0],[-79.495,9.08368,0.0],[-79.49491,9.08388,0.0],[-79.49491,9.08412,0.0],[-79.49496,9.08425,0.0],[-79.49506,9.08438,0.0],[-79.49517,9.08449,0.0],[-79.49535,9.08465,0.0],[-79.49553,9.0848,0.0],[-79.49561,9.08491,0.0],[-79.49562,9.08513,0.0],[-79.49553,9.08527,0.0],[-79.49533,9.08537,0.0],[-79.49515,9.08537,0.0],[-79.49494,9.08538,0.0],[-79.49482,9.08543,0.0],[-79.49466,9.08555,0.0],[-79.4945,9.08564,0.0],[-79.49417,9.0858,0.0],[-79.49396,9.08586,0.0],[-79.49367,9.08586,0.0],[-79.49336,9.08584,0.0],[-79.49299,9.086,0.0],[-79.49237,9.08619,0.0],[-79.49207,9.08633,0.0],[-79.49198,9.08642,0.0],[-79.49197,9.08659,0.0],[-79.49203,9.08675,0.0],[-79.49245,9.08686,0.0],[-79.49267,9.087,0.0],[-79.49297,9.08719,0.0],[-79.49306,9.08727,0.0],[-79.49305,9.08733,0.0],[-79.49305,9.08738,0.0],[-79.49295,9.08746,0.0],[-79.49267,9.08755,0.0],[-79.49247,9.08755,0.0],[-79.49212,9.08762,0.0],[-79.49176,9.08775,0.0],[-79.49154,9.08787,0.0],[-79.49124,9.08821,0.0],[-79.49107,9.08846,0.0],[-79.49094,9.089,0.0],[-79.49092,9.08923,0.0],[-79.49088,9.08943,0.0],[-79.49083,9.08954,0.0],[-79.49073,9.08964,0.0],[-79.4906,9.08975,0.0],[-79.49043,9.08978,0.0],[-79.49027,9.08974,0.0],[-79.49007,9.08963,0.0],[-79.48988,9.08952,0.0],[-79.48972,9.0893,0.0],[-79.48944,9.08891,0.0],[-79.48927,9.08865,0.0],[-79.48915,9.08852,0.0],[-79.48896,9.08852,0.0],[-79.48875,9.08861,0.0],[-79.4886,9.08883,0.0],[-79.48846,9.08911,0.0],[-79.4883,9.08935,0.0],[-79.48802,9.08953,0.0],[-79.48789,9.08954,0.0],[-79.48778,9.08948,0.0],[-79.4877,9.08931,0.0],[-79.4876,9.0891,0.0],[-79.48746,9.08892,0.0],[-79.48733,9.08889,0.0],[-79.48713,9.08887,0.0],[-79.48665,9.08898,0.0],[-79.48628,9.08904,0.0],[-79.48574,9.08891,0.0],[-79.48527,9.08879,0.0],[-79.48489,9.08874,0.0],[-79.4843,9.08858,0.0],[-79.48404,9.08856,0.0],[-79.48389,9.08858,0.0],[-79.48375,9.08865,0.0],[-79.4835,9.08883,0.0],[-79.48329,9.08894,0.0],[-79.48322,9.08912,0.0],[-79.48322,9.08939,0.0],[-79.48331,9.08953,0.0],[-79.48343,9.08961,0.0],[-79.48364,9.08961,0.0],[-79.48389,9.08953,0.0],[-79.48422,9.08946,0.0],[-79.4844,9.08946,0.0],[-79.48453,9.08978,0.0],[-79.48453,9.09,0.0],[-79.48454,9.09039,0.0],[-79.48436,9.09112,0.0],[-79.48424,9.09151,0.0],[-79.48407,9.09172,0.0],[-79.4839,9.09169,0.0],[-79.48371,9.09153,0.0],[-79.4835,9.0913,0.0],[-79.4833,9.09115,0.0],[-79.48289,9.09087,0.0],[-79.48248,9.09067,0.0],[-79.48165,9.0904,0.0],[-79.48139,9.09039,0.0],[-79.48117,9.09041,0.0],[-79.48095,9.09055,0.0],[-79.48071,9.09057,0.0],[-79.48059,9.09048,0.0],[-79.4805,9.09027,0.0],[-79.48046,9.08996,0.0],[-79.48044,9.08957,0.0],[-79.48017,9.08929,0.0],[-79.47977,9.08894,0.0],[-79.47952,9.08882,0.0],[-79.47939,9.08882,0.0],[-79.47934,9.08889,0.0],[-79.47925,9.08907,0.0],[-79.47919,9.08924,0.0],[-79.47913,9.08948,0.0],[-79.47909,9.08974,0.0],[-79.47899,9.08989,0.0],[-79.47889,9.08995,0.0],[-79.47876,9.08996,0.0],[-79.4786,9.08975,0.0],[-79.47846,9.08952,0.0],[-79.47828,9.08922,0.0],[-79.47816,9.08906,0.0],[-79.47802,9.089,0.0],[-79.47787,9.08899,0.0],[-79.47771,9.08902,0.0],[-79.47754,9.08913,0.0],[-79.47724,9.0894,0.0],[-79.47715,9.08956,0.0],[-79.47714,9.08977,0.0],[-79.4771,9.09009,0.0],[-79.47704,9.09023,0.0],[-79.47686,9.09027,0.0],[-79.47672,9.09018,0.0],[-79.47659,9.08999,0.0],[-79.47636,9.0898,0.0],[-79.47588,9.08928,0.0],[-79.47572,9.08913,0.0],[-79.47546,9.08898,0.0],[-79.47523,9.08893,0.0],[-79.47494,9.08893,0.0],[-79.47499,9.08882,0.0],[-79.47513,9.08871,0.0],[-79.47519,9.08866,0.0],[-79.47538,9.08864,0.0],[-79.47563,9.08868,0.0],[-79.47588,9.08872,0.0],[-79.47615,9.08885,0.0],[-79.47637,9.08894,0.0],[-79.47669,9.08902,0.0],[-79.47699,9.08896,0.0],[-79.47714,9.08878,0.0],[-79.47728,9.08853,0.0],[-79.47729,9.08845,0.0],[-79.47727,9.08835,0.0],[-79.47739,9.08819,0.0],[-79.47774,9.08803,0.0],[-79.47787,9.08803,0.0],[-79.47818,9.08806,0.0],[-79.47839,9.08811,0.0],[-79.47857,9.08808,0.0],[-79.47875,9.08809,0.0],[-79.47885,9.08813,0.0],[-79.47891,9.08828,0.0],[-79.47899,9.08847,0.0],[-79.47916,9.08851,0.0],[-79.47933,9.08844,0.0],[-79.47935,9.08828,0.0],[-79.4794,9.08811,0.0],[-79.47949,9.08804,0.0],[-79.47958,9.08795,0.0],[-79.47977,9.08779,0.0],[-79.47991,9.08776,0.0],[-79.47999,9.08782,0.0],[-79.47998,9.08794,0.0],[-79.47992,9.0881,0.0],[-79.47993,9.08823,0.0],[-79.48004,9.08827,0.0],[-79.48034,9.08818,0.0],[-79.48046,9.08807,0.0],[-79.48046,9.08793,0.0],[-79.48044,9.08777,0.0],[-79.48044,9.08758,0.0],[-79.48044,9.0874,0.0],[-79.48048,9.08729,0.0],[-79.48066,9.08718,0.0],[-79.4809,9.08705,0.0],[-79.48104,9.08696,0.0],[-79.48126,9.08684,0.0],[-79.48149,9.08684,0.0],[-79.48172,9.08688,0.0],[-79.48185,9.08694,0.0],[-79.48197,9.08695,0.0],[-79.48227,9.08688,0.0],[-79.48257,9.0868,0.0],[-79.48267,9.08677,0.0],[-79.48293,9.08665,0.0],[-79.48319,9.08664,0.0],[-79.48352,9.08656,0.0],[-79.48192,9.08242,0.0],[-79.47713,9.07944,0.0],[-79.48059,9.07417,0.0],[-79.48127,9.07354,0.0],[-79.4815,9.07388,0.0],[-79.48146,9.07377,0.0],[-79.4815,9.07366,0.0],[-79.48163,9.0736,0.0],[-79.48175,9.07349,0.0],[-79.48185,9.07343,0.0],[-79.48194,9.07333,0.0],[-79.48199,9.07325,0.0],[-79.48209,9.07317,0.0],[-79.48219,9.07309,0.0],[-79.48228,9.07301,0.0],[-79.48238,9.07296,0.0],[-79.4825,9.07292,0.0],[-79.48254,9.07286,0.0],[-79.48258,9.07275,0.0],[-79.48257,9.07265,0.0],[-79.48257,9.07258,0.0],[-79.48265,9.07248,0.0],[-79.48273,9.07239,0.0],[-79.48284,9.07235,0.0],[-79.48296,9.07229,0.0],[-79.48304,9.07225,0.0],[-79.48318,9.07218,0.0],[-79.48324,9.07215,0.0],[-79.48343,9.07205,0.0],[-79.48356,9.07197,0.0],[-79.48359,9.07192,0.0],[-79.48378,9.07181,0.0],[-79.484,9.07173,0.0],[-79.48412,9.07169,0.0],[-79.48436,9.07165,0.0],[-79.4846,9.07163,0.0],[-79.48469,9.07162,0.0],[-79.48481,9.07159,0.0],[-79.48489,9.07153,0.0],[-79.48535,9.07113,0.0]]]]}},{"type":"Feature","properties":{"uesi_id":"PAN_R8389079","nbhd_code":"PAN_R8389079_4","nbhd_name":"Omar Torrijos"},"geometry":{"type":"MultiPolygon","coordinates":[[[[-79.50715,9.04542,0.0],[-79.50783,9.04578,0.0],[-79.50854,9.04623,0.0],[-79.50819,9.04696,0.0],[-79.50898,9.04752,0.0],[-79.50926,9.04749,0.0],[-79.50946,9.04744,0.0],[-79.50957,9.04737,0.0],[-79.50969,9.0473,0.0],[-79.50988,9.04711,0.0],[-79.50899,9.04637,0.0],[-79.50947,9.04539,0.0],[-79.50967,9.04548,0.0],[-79.50978,9.04523,0.0],[-79.51087,9.04546,0.0],[-79.51193,9.04502,0.0],[-79.51358,9.04451,0.0],[-79.51349,9.04499,0.0],[-79.51351,9.04524,0.0],[-79.51424,9.045,0.0],[-79.51446,9.04496,0.0],[-79.51481,9.04503,0.0],[-79.51523,9.04519,0.0],[-79.51534,9.04527,0.0],[-79.51547,9.04529,0.0],[-79.51747,9.04522,0.0],[-79.51965,9.04514,0.0],[-79.5221,9.04522,0.0],[-79.52497,9.04531,0.0],[-79.53499,9.04564,0.0],[-79.5352,9.04583,0.0],[-79.53826,9.04858,0.0],[-79.5412,9.05121,0.0],[-79.5442,9.05384,0.0],[-79.54655,9.056,0.0],[-79.54848,9.05766,0.0],[-79.55125,9.06012,0.0],[-79.55204,9.06081,0.0],[-79.55193,9.06082,0.0],[-79.55182,9.06081,0.0],[-79.55165,9.06075,0.0],[-79.55154,9.0607,0.0],[-79.55142,9.06061,0.0],[-79.55119,9.06043,0.0],[-79.5507,9.0602,0.0],[-79.55051,9.06015,0.0],[-79.55016,9.06005,0.0],[-79.55009,9.06002,0.0],[-79.54986,9.05968,0.0],[-79.5498,9.05962,0.0],[-79.5497,9.05956,0.0],[-79.54939,9.05941,0.0],[-79.54929,9.05941,0.0],[-79.54921,9.05941,0.0],[-79.5491,9.05944,0.0],[-79.54883,9.0595,0.0],[-79.5486,9.05954,0.0],[-79.54843,9.05952,0.0],[-79.54828,9.05948,0.0],[-79.54818,9.05941,0.0],[-79.54812,9.05934,0.0],[-79.54804,9.05919,0.0],[-79.54793,9.05899,0.0],[-79.54784,9.05888,0.0],[-79.54772,9.0588,0.0],[-79.54765,9.05878,0.0],[-79.54758,9.05878,0.0],[-79.54751,9.05881,0.0],[-79.54744,9.05885,0.0],[-79.54728,9.05903,0.0],[-79.54717,9.05916,0.0],[-79.54702,9.05934,0.0],[-79.54692,9.05943,0.0],[-79.54681,9.05948,0.0],[-79.5467,9.05951,0.0],[-79.54661,9.05951,0.0],[-79.54645,9.05947,0.0],[-79.54625,9.05933,0.0],[-79.5462,9.05929,0.0],[-79.54613,9.05927,0.0],[-79.54608,9.05927,0.0],[-79.54599,9.05933,0.0],[-79.54593,9.0594,0.0],[-79.54572,9.05993,0.0],[-79.54566,9.06,0.0],[-79.54557,9.06007,0.0],[-79.54543,9.06014,0.0],[-79.54532,9.06018,0.0],[-79.5452,9.0602,0.0],[-79.54511,9.06019,0.0],[-79.54505,9.06016,0.0],[-79.54496,9.06008,0.0],[-79.54475,9.05976,0.0],[-79.54467,9.05972,0.0],[-79.54466,9.05971,0.0],[-79.54457,9.05968,0.0],[-79.54443,9.05967,0.0],[-79.54415,9.0597,0.0],[-79.54397,9.05974,0.0],[-79.54386,9.05981,0.0],[-79.54377,9.05987,0.0],[-79.54367,9.05998,0.0],[-79.54352,9.0601,0.0],[-79.54346,9.06013,0.0],[-79.54335,9.06013,0.0],[-79.54325,9.06007,0.0],[-79.54317,9.05997,0.0],[-79.54299,9.05977,0.0],[-79.54289,9.0597,0.0],[-79.54274,9.05965,0.0],[-79.54254,9.05962,0.0],[-79.54246,9.0596,0.0],[-79.54242,9.05957,0.0],[-79.54238,9.05953,0.0],[-79.54231,9.05946,0.0],[-79.54223,9.05928,0.0],[-79.54217,9.05914,0.0],[-79.54211,9.05898,0.0],[-79.54203,9.05886,0.0],[-79.54188,9.05867,0.0],[-79.54164,9.0585,0.0],[-79.54163,9.0585,0.0],[-79.54155,9.05846,0.0],[-79.54139,9.05844,0.0],[-79.54118,9.05841,0.0],[-79.54093,9.05844,0.0],[-79.54074,9.05855,0.0],[-79.54051,9.05871,0.0],[-79.54026,9.05889,0.0],[-79.54026,9.0589,0.0],[-79.5402,9.05901,0.0],[-79.54019,9.0591,0.0],[-79.54021,9.05921,0.0],[-79.54032,9.05958,0.0],[-79.54037,9.05977,0.0],[-79.54037,9.05985,0.0],[-79.54036,9.05994,0.0],[-79.54036,9.05994,0.0],[-79.54034,9.06001,0.0],[-79.5403,9.06009,0.0],[-79.54021,9.06017,0.0],[-79.53982,9.06039,0.0],[-79.53972,9.0605,0.0],[-79.53928,9.06098,0.0],[-79.5389,9.06139,0.0],[-79.53873,9.06149,0.0],[-79.53848,9.06159,0.0],[-79.53826,9.06166,0.0],[-79.53803,9.06171,0.0],[-79.53795,9.06173,0.0],[-79.53763,9.06179,0.0],[-79.53741,9.06181,0.0],[-79.53733,9.06181,0.0],[-79.53694,9.06185,0.0],[-79.53693,9.06185,0.0],[-79.53685,9.06186,0.0],[-79.5367,9.0619,0.0],[-79.53613,9.06204,0.0],[-79.53584,9.06207,0.0],[-79.53543,9.06212,0.0],[-79.53541,9.06212,0.0],[-79.53479,9.06221,0.0],[-79.53448,9.06228,0.0],[-79.53428,9.06237,0.0],[-79.53414,9.06249,0.0],[-79.53397,9.06268,0.0],[-79.53385,9.06282,0.0],[-79.53345,9.06324,0.0],[-79.53338,9.0633,0.0],[-79.53325,9.06338,0.0],[-79.53292,9.06348,0.0],[-79.53263,9.06354,0.0],[-79.53229,9.06356,0.0],[-79.53218,9.06356,0.0],[-79.5319,9.06356,0.0],[-79.53156,9.06354,0.0],[-79.5314,9.06353,0.0],[-79.53129,9.0635,0.0],[-79.53122,9.06345,0.0],[-79.531,9.06324,0.0],[-79.53074,9.06301,0.0],[-79.53065,9.06292,0.0],[-79.53056,9.06286,0.0],[-79.53041,9.06281,0.0],[-79.53028,9.06279,0.0],[-79.53007,9.06277,0.0],[-79.52979,9.06279,0.0],[-79.52967,9.06283,0.0],[-79.5295,9.0629,0.0],[-79.5293,9.06302,0.0],[-79.52912,9.06314,0.0],[-79.52887,9.0633,0.0],[-79.52878,9.06334,0.0],[-79.5287,9.06336,0.0],[-79.52863,9.06336,0.0],[-79.52855,9.06336,0.0],[-79.52822,9.06331,0.0],[-79.52799,9.06328,0.0],[-79.52782,9.06327,0.0],[-79.52769,9.06329,0.0],[-79.5276,9.06331,0.0],[-79.52754,9.06334,0.0],[-79.52746,9.06338,0.0],[-79.52733,9.06347,0.0],[-79.52732,9.06348,0.0],[-79.52717,9.0636,0.0],[-79.52716,9.0636,0.0],[-79.52707,9.06381,0.0],[-79.52706,9.06395,0.0],[-79.52707,9.06412,0.0],[-79.5271,9.06436,0.0],[-79.5272,9.06493,0.0],[-79.52724,9.06514,0.0],[-79.52724,9.06531,0.0],[-79.52702,9.06603,0.0],[-79.52687,9.06654,0.0],[-79.52655,9.06761,0.0],[-79.52641,9.06816,0.0],[-79.52627,9.06856,0.0],[-79.5261,9.06893,0.0],[-79.52589,9.0693,0.0],[-79.52541,9.07004,0.0],[-79.52506,9.07051,0.0],[-79.52483,9.07078,0.0],[-79.52459,9.07106,0.0],[-79.52434,9.0713,0.0],[-79.52406,9.07155,0.0],[-79.52372,9.07184,0.0],[-79.52339,9.07212,0.0],[-79.52327,9.07221,0.0],[-79.52324,9.07224,0.0],[-79.5233,9.07242,0.0],[-79.52314,9.07251,0.0],[-79.52297,9.07271,0.0],[-79.52281,9.07282,0.0],[-79.52274,9.07297,0.0],[-79.52271,9.0731,0.0],[-79.52256,9.07327,0.0],[-79.52237,9.07353,0.0],[-79.52232,9.07364,0.0],[-79.52232,9.07382,0.0],[-79.52231,9.0739,0.0],[-79.52213,9.07414,0.0],[-79.52212,9.07433,0.0],[-79.52202,9.07452,0.0],[-79.52192,9.07472,0.0],[-79.52181,9.07491,0.0],[-79.52167,9.07498,0.0],[-79.52161,9.07513,0.0],[-79.52151,9.07531,0.0],[-79.52136,9.07538,0.0],[-79.52122,9.07538,0.0],[-79.52111,9.07535,0.0],[-79.52092,9.07527,0.0],[-79.52075,9.07523,0.0],[-79.52068,9.07525,0.0],[-79.52059,9.07528,0.0],[-79.52051,9.0753,0.0],[-79.52047,9.07531,0.0],[-79.52043,9.07534,0.0],[-79.52033,9.07531,0.0],[-79.52016,9.07525,0.0],[-79.52005,9.07532,0.0],[-79.52005,9.07546,0.0],[-79.52,9.07556,0.0],[-79.5199,9.07564,0.0],[-79.51986,9.07574,0.0],[-79.51985,9.07583,0.0],[-79.51972,9.07593,0.0],[-79.51959,9.07611,0.0],[-79.51953,9.07613,0.0],[-79.51938,9.07633,0.0],[-79.51932,9.0765,0.0],[-79.51915,9.0769,0.0],[-79.51908,9.07704,0.0],[-79.51896,9.07709,0.0],[-79.51876,9.07704,0.0],[-79.51859,9.07705,0.0],[-79.51839,9.07702,0.0],[-79.51824,9.07705,0.0],[-79.51813,9.07713,0.0],[-79.51804,9.07726,0.0],[-79.51789,9.07733,0.0],[-79.51774,9.07719,0.0],[-79.51761,9.07711,0.0],[-79.51745,9.07705,0.0],[-79.51735,9.07716,0.0],[-79.51723,9.07723,0.0],[-79.51714,9.07719,0.0],[-79.5169,9.0771,0.0],[-79.51672,9.07713,0.0],[-79.51655,9.07719,0.0],[-79.51647,9.07724,0.0],[-79.51639,9.07733,0.0],[-79.51636,9.07745,0.0],[-79.51639,9.07769,0.0],[-79.51636,9.07781,0.0],[-79.51626,9.07785,0.0],[-79.51615,9.07783,0.0],[-79.51606,9.07784,0.0],[-79.516,9.07799,0.0],[-79.51593,9.07816,0.0],[-79.51569,9.07854,0.0],[-79.5156,9.07865,0.0],[-79.51543,9.07877,0.0],[-79.51526,9.07884,0.0],[-79.51516,9.07884,0.0],[-79.51508,9.07882,0.0],[-79.51492,9.07882,0.0],[-79.51473,9.07886,0.0],[-79.51454,9.07893,0.0],[-79.51444,9.07903,0.0],[-79.51428,9.07918,0.0],[-79.51412,9.07933,0.0],[-79.51384,9.07955,0.0],[-79.51372,9.07965,0.0],[-79.51356,9.07973,0.0],[-79.51345,9.07976,0.0],[-79.51333,9.07976,0.0],[-79.51323,9.07972,0.0],[-79.51315,9.07969,0.0],[-79.51306,9.07963,0.0],[-79.51289,9.07969,0.0],[-79.51275,9.07977,0.0],[-79.5127,9.0798,0.0],[-79.51267,9.07986,0.0],[-79.51265,9.07997,0.0],[-79.51263,9.08012,0.0],[-79.51263,9.08025,0.0],[-79.51262,9.08043,0.0],[-79.51256,9.08047,0.0],[-79.51248,9.08047,0.0],[-79.51239,9.08042,0.0],[-79.51227,9.08032,0.0],[-79.51217,9.08023,0.0],[-79.512,9.08012,0.0],[-79.51181,9.08002,0.0],[-79.51159,9.07997,0.0],[-79.51141,9.07992,0.0],[-79.51119,9.07985,0.0],[-79.51096,9.07972,0.0],[-79.51063,9.0796,0.0],[-79.51051,9.07953,0.0],[-79.51042,9.07948,0.0],[-79.51003,9.07925,0.0],[-79.50978,9.07907,0.0],[-79.50957,9.07887,0.0],[-79.50934,9.07868,0.0],[-79.5092,9.0785,0.0],[-79.5091,9.07832,0.0],[-79.50902,9.07807,0.0],[-79.50895,9.07769,0.0],[-79.5088,9.0773,0.0],[-79.50862,9.07699,0.0],[-79.50854,9.07678,0.0],[-79.50853,9.07657,0.0],[-79.50845,9.07649,0.0],[-79.50833,9.07632,0.0],[-79.50833,9.07612,0.0],[-79.50841,9.07593,0.0],[-79.50843,9.07577,0.0],[-79.50842,9.07564,0.0],[-79.50833,9.07558,0.0],[-79.5082,9.07555,0.0],[-79.508,9.07565,0.0],[-79.50778,9.07573,0.0],[-79.50765,9.07573,0.0],[-79.50746,9.07564,0.0],[-79.50724,9.07536,0.0],[-79.50709,9.07514,0.0],[-79.50693,9.07497,0.0],[-79.50681,9.0749,0.0],[-79.50667,9.07486,0.0],[-79.50656,9.07491,0.0],[-79.50642,9.07497,0.0],[-79.50619,9.07528,0.0],[-79.50617,9.07546,0.0],[-79.50614,9.07566,0.0],[-79.50607,9.07577,0.0],[-79.50594,9.07579,0.0],[-79.50583,9.07574,0.0],[-79.50566,9.07564,0.0],[-79.50557,9.07552,0.0],[-79.50533,9.07517,0.0],[-79.50526,9.07494,0.0],[-79.50518,9.07479,0.0],[-79.50509,9.07469,0.0],[-79.50496,9.07466,0.0],[-79.50486,9.07469,0.0],[-79.5047,9.0748,0.0],[-79.50461,9.07502,0.0],[-79.50463,9.07528,0.0],[-79.5047,9.07545,0.0],[-79.50474,9.07559,0.0],[-79.50473,9.07577,0.0],[-79.50465,9.07586,0.0],[-79.50448,9.07592,0.0],[-79.50435,9.07594,0.0],[-79.50411,9.07585,0.0],[-79.5039,9.07574,0.0],[-79.50381,9.07569,0.0],[-79.50361,9.07572,0.0],[-79.50353,9.07574,0.0],[-79.50337,9.07578,0.0],[-79.50312,9.07584,0.0],[-79.50292,9.07584,0.0],[-79.50266,9.07581,0.0],[-79.5024,9.07585,0.0],[-79.50205,9.07588,0.0],[-79.50183,9.07587,0.0],[-79.5017,9.07587,0.0],[-79.50094,9.07445,0.0],[-79.50087,9.07448,0.0],[-79.50069,9.07402,0.0],[-79.50189,9.07339,0.0],[-79.50171,9.07328,0.0],[-79.50096,9.07293,0.0],[-79.50101,9.07281,0.0],[-79.50106,9.07273,0.0],[-79.50112,9.07268,0.0],[-79.50118,9.07262,0.0],[-79.50126,9.07247,0.0],[-79.50132,9.07232,0.0],[-79.50139,9.0722,0.0],[-79.50144,9.07212,0.0],[-79.50147,9.072,0.0],[-79.50149,9.07189,0.0],[-79.50159,9.07159,0.0],[-79.50167,9.07146,0.0],[-79.50171,9.07135,0.0],[-79.50177,9.07126,0.0],[-79.50194,9.07118,0.0],[-79.50202,9.07095,0.0],[-79.50217,9.07092,0.0],[-79.50236,9.0705,0.0],[-79.50344,9.07107,0.0],[-79.50345,9.07112,0.0],[-79.50347,9.0712,0.0],[-79.5035,9.07134,0.0],[-79.50356,9.07149,0.0],[-79.50367,9.07161,0.0],[-79.50365,9.07183,0.0],[-79.5037,9.07201,0.0],[-79.50375,9.07222,0.0],[-79.50378,9.07236,0.0],[-79.50374,9.07244,0.0],[-79.50365,9.07268,0.0],[-79.50365,9.07279,0.0],[-79.50377,9.07277,0.0],[-79.5039,9.07273,0.0],[-79.50424,9.07256,0.0],[-79.5045,9.07236,0.0],[-79.50471,9.07214,0.0],[-79.50488,9.07189,0.0],[-79.50503,9.0717,0.0],[-79.50506,9.07155,0.0],[-79.50507,9.0715,0.0],[-79.50503,9.07141,0.0],[-79.50497,9.07134,0.0],[-79.50473,9.07108,0.0],[-79.50445,9.07066,0.0],[-79.5042,9.0703,0.0],[-79.50416,9.07024,0.0],[-79.50395,9.06992,0.0],[-79.5037,9.06956,0.0],[-79.50351,9.06928,0.0],[-79.50323,9.06891,0.0],[-79.50318,9.06883,0.0],[-79.50305,9.06871,0.0],[-79.50296,9.06864,0.0],[-79.50244,9.06843,0.0],[-79.50226,9.06829,0.0],[-79.50221,9.06819,0.0],[-79.50218,9.06815,0.0],[-79.50203,9.06774,0.0],[-79.50194,9.06745,0.0],[-79.50194,9.06738,0.0],[-79.50223,9.06676,0.0],[-79.50271,9.066,0.0],[-79.50287,9.06574,0.0],[-79.50323,9.06523,0.0],[-79.50405,9.0638,0.0],[-79.50444,9.06319,0.0],[-79.50461,9.06297,0.0],[-79.5049,9.06282,0.0],[-79.50515,9.06264,0.0],[-79.50528,9.06251,0.0],[-79.50544,9.06227,0.0],[-79.50555,9.06202,0.0],[-79.50561,9.06191,0.0],[-79.50582,9.06181,0.0],[-79.50596,9.06174,0.0],[-79.50601,9.06167,0.0],[-79.50603,9.06161,0.0],[-79.50602,9.06145,0.0],[-79.50598,9.06127,0.0],[-79.50599,9.06114,0.0],[-79.50605,9.06103,0.0],[-79.50614,9.06092,0.0],[-79.50634,9.06082,0.0],[-79.50664,9.06035,0.0],[-79.50676,9.06027,0.0],[-79.50689,9.06023,0.0],[-79.50735,9.06015,0.0],[-79.50811,9.06003,0.0],[-79.50847,9.05996,0.0],[-79.50881,9.05977,0.0],[-79.50892,9.05964,0.0],[-79.5091,9.05931,0.0],[-79.50947,9.05854,0.0],[-79.50964,9.05809,0.0],[-79.50969,9.05803,0.0],[-79.50942,9.05676,0.0],[-79.50937,9.05635,0.0],[-79.50934,9.05598,0.0],[-79.50936,9.05559,0.0],[-79.50944,9.05448,0.0],[-79.50965,9.05229,0.0],[-79.50966,9.0518,0.0],[-79.50962,9.05138,0.0],[-79.5095,9.05095,0.0],[-79.50937,9.05066,0.0],[-79.50915,9.05027,0.0],[-79.50785,9.04813,0.0],[-79.50736,9.04724,0.0],[-79.50723,9.04698,0.0],[-79.50716,9.04673,0.0],[-79.50711,9.04649,0.0],[-79.50708,9.04622,0.0],[-79.50708,9.0459,0.0],[-79.5071,9.04565,0.0],[-79.50715,9.04542,0.0]]]]}},{"type":"Feature","properties":{"uesi_id":"PAN_R8389079","nbhd_code":"PAN_R8389079_13","nbhd_name":"Amelia Denis de Icaza"},"geometry":{"type":"MultiPolygon","coordinates":[[[[-79.49893,9.04394,0.0],[-79.49864,9.0439,0.0],[-79.49862,9.04355,0.0],[-79.49852,9.04315,0.0],[-79.49845,9.04267,0.0],[-79.49831,9.04176,0.0],[-79.49827,9.04157,0.0],[-79.49822,9.04141,0.0],[-79.49817,9.04139,0.0],[-79.49809,9.04138,0.0],[-79.49803,9.04138,0.0],[-79.49795,9.04143,0.0],[-79.49773,9.04164,0.0],[-79.49704,9.0411,0.0],[-79.49702,9.04107,0.0],[-79.49701,9.04093,0.0],[-79.49742,9.04063,0.0],[-79.49741,9.03982,0.0],[-79.49758,9.03985,0.0],[-79.4977,9.0398,0.0],[-79.49768,9.03969,0.0],[-79.49727,9.03955,0.0],[-79.49725,9.03954,0.0],[-79.49684,9.0385,0.0],[-79.49684,9.038,0.0],[-79.49684,9.03762,0.0],[-79.49684,9.0376,0.0],[-79.49706,9.0376,0.0],[-79.49716,9.03758,0.0],[-79.4973,9.03756,0.0],[-79.49735,9.03754,0.0],[-79.49752,9.03747,0.0],[-79.4978,9.03731,0.0],[-79.49796,9.03719,0.0],[-79.4981,9.03704,0.0],[-79.49825,9.03685,0.0],[-79.49836,9.03667,0.0],[-79.49845,9.03669,0.0],[-79.4988,9.03694,0.0],[-79.49888,9.03701,0.0],[-79.49894,9.0371,0.0],[-79.49898,9.03721,0.0],[-79.49901,9.03757,0.0],[-79.49906,9.03808,0.0],[-79.49997,9.038,0.0],[-79.50024,9.03798,0.0],[-79.50062,9.03791,0.0],[-79.50088,9.03792,0.0],[-79.50172,9.03799,0.0],[-79.50166,9.03868,0.0],[-79.50229,9.0387,0.0],[-79.50248,9.03871,0.0],[-79.50262,9.03871,0.0],[-79.50279,9.03871,0.0],[-79.50297,9.03873,0.0],[-79.50333,9.03873,0.0],[-79.50405,9.03875,0.0],[-79.50405,9.0387,0.0],[-79.50403,9.03865,0.0],[-79.50399,9.03862,0.0],[-79.50392,9.03854,0.0],[-79.50388,9.03847,0.0],[-79.50386,9.03842,0.0],[-79.50386,9.03838,0.0],[-79.50386,9.03831,0.0],[-79.50386,9.03823,0.0],[-79.50389,9.03815,0.0],[-79.50392,9.03808,0.0],[-79.50394,9.03804,0.0],[-79.50396,9.03801,0.0],[-79.50395,9.03797,0.0],[-79.50392,9.03793,0.0],[-79.50387,9.0379,0.0],[-79.50384,9.03788,0.0],[-79.5038,9.03783,0.0],[-79.50374,9.03775,0.0],[-79.50371,9.0377,0.0],[-79.50369,9.03766,0.0],[-79.50369,9.03762,0.0],[-79.50372,9.03758,0.0],[-79.50374,9.03753,0.0],[-79.50376,9.0375,0.0],[-79.50376,9.03745,0.0],[-79.50375,9.03741,0.0],[-79.50372,9.03733,0.0],[-79.5037,9.03724,0.0],[-79.5037,9.03715,0.0],[-79.50365,9.03702,0.0],[-79.50363,9.0369,0.0],[-79.50361,9.03683,0.0],[-79.50361,9.03675,0.0],[-79.50361,9.03671,0.0],[-79.50358,9.03667,0.0],[-79.50463,9.03642,0.0],[-79.50477,9.03641,0.0],[-79.50504,9.03642,0.0],[-79.50565,9.0364,0.0],[-79.50594,9.03636,0.0],[-79.50606,9.03633,0.0],[-79.50619,9.03628,0.0],[-79.50631,9.0362,0.0],[-79.50774,9.03661,0.0],[-79.50876,9.03691,0.0],[-79.5084,9.03726,0.0],[-79.50881,9.03785,0.0],[-79.50861,9.03799,0.0],[-79.50877,9.03818,0.0],[-79.5091,9.03856,0.0],[-79.50921,9.03859,0.0],[-79.50927,9.03861,0.0],[-79.50931,9.03861,0.0],[-79.50938,9.03861,0.0],[-79.50941,9.03861,0.0],[-79.50943,9.03861,0.0],[-79.51016,9.0386,0.0],[-79.5109,9.03858,0.0],[-79.51134,9.03859,0.0],[-79.51156,9.03866,0.0],[-79.51166,9.03876,0.0],[-79.5117,9.03896,0.0],[-79.51175,9.0391,0.0],[-79.51184,9.03922,0.0],[-79.51198,9.03929,0.0],[-79.51212,9.03934,0.0],[-79.5124,9.03941,0.0],[-79.51287,9.03923,0.0],[-79.5133,9.03892,0.0],[-79.5135,9.03874,0.0],[-79.51363,9.03854,0.0],[-79.51367,9.03841,0.0],[-79.51362,9.03777,0.0],[-79.51358,9.0375,0.0],[-79.51356,9.03738,0.0],[-79.51354,9.03717,0.0],[-79.51305,9.03437,0.0],[-79.51316,9.0342,0.0],[-79.51328,9.03407,0.0],[-79.51341,9.03395,0.0],[-79.5139,9.03384,0.0],[-79.51439,9.03375,0.0],[-79.51403,9.03212,0.0],[-79.51404,9.032,0.0],[-79.51413,9.03198,0.0],[-79.51439,9.03189,0.0],[-79.51483,9.03174,0.0],[-79.51507,9.0319,0.0],[-79.51526,9.03216,0.0],[-79.5154,9.03244,0.0],[-79.51534,9.0326,0.0],[-79.515,9.03304,0.0],[-79.51486,9.03325,0.0],[-79.51483,9.03342,0.0],[-79.51488,9.03352,0.0],[-79.51514,9.03368,0.0],[-79.51559,9.03385,0.0],[-79.51607,9.03397,0.0],[-79.51655,9.0342,0.0],[-79.51745,9.03496,0.0],[-79.51756,9.03505,0.0],[-79.51779,9.03512,0.0],[-79.51811,9.0351,0.0],[-79.5185,9.03502,0.0],[-79.51856,9.03498,0.0],[-79.51863,9.03494,0.0],[-79.51873,9.03489,0.0],[-79.5189,9.03494,0.0],[-79.51909,9.03494,0.0],[-79.51933,9.03489,0.0],[-79.51948,9.03476,0.0],[-79.51964,9.0346,0.0],[-79.51968,9.03441,0.0],[-79.51983,9.034,0.0],[-79.52012,9.03368,0.0],[-79.52029,9.03349,0.0],[-79.52065,9.03327,0.0],[-79.52078,9.03328,0.0],[-79.52095,9.03332,0.0],[-79.52127,9.03333,0.0],[-79.52265,9.03332,0.0],[-79.5229,9.0334,0.0],[-79.52305,9.03347,0.0],[-79.52319,9.03368,0.0],[-79.52333,9.03394,0.0],[-79.52363,9.03458,0.0],[-79.52396,9.035,0.0],[-79.52428,9.03562,0.0],[-79.52448,9.03605,0.0],[-79.52587,9.03647,0.0],[-79.52696,9.03824,0.0],[-79.52732,9.03888,0.0],[-79.52878,9.04019,0.0],[-79.53081,9.04198,0.0],[-79.53294,9.04383,0.0],[-79.53499,9.04564,0.0],[-79.52497,9.04531,0.0],[-79.5221,9.04522,0.0],[-79.51965,9.04514,0.0],[-79.51747,9.04522,0.0],[-79.51547,9.04529,0.0],[-79.51534,9.04527,0.0],[-79.51523,9.04519,0.0],[-79.51481,9.04503,0.0],[-79.51446,9.04496,0.0],[-79.51424,9.045,0.0],[-79.51351,9.04524,0.0],[-79.51349,9.04499,0.0],[-79.51358,9.04451,0.0],[-79.51193,9.04502,0.0],[-79.51087,9.04546,0.0],[-79.50978,9.04523,0.0],[-79.50967,9.04548,0.0],[-79.50947,9.04539,0.0],[-79.50899,9.04637,0.0],[-79.50988,9.04711,0.0],[-79.50969,9.0473,0.0],[-79.50957,9.04737,0.0],[-79.50946,9.04744,0.0],[-79.50926,9.04749,0.0],[-79.50898,9.04752,0.0],[-79.50819,9.04696,0.0],[-79.50854,9.04623,0.0],[-79.50783,9.04578,0.0],[-79.50715,9.04542,0.0],[-79.50681,9.04523,0.0],[-79.50673,9.0453,0.0],[-79.50664,9.04534,0.0],[-79.50653,9.04539,0.0],[-79.50644,9.04542,0.0],[-79.50623,9.04547,0.0],[-79.50592,9.04555,0.0],[-79.50576,9.04562,0.0],[-79.50559,9.04572,0.0],[-79.50538,9.04605,0.0],[-79.50536,9.04612,0.0],[-79.50536,9.04617,0.0],[-79.50535,9.04628,0.0],[-79.50544,9.04686,0.0],[-79.50546,9.04707,0.0],[-79.50548,9.04765,0.0],[-79.50548,9.04838,0.0],[-79.50547,9.04856,0.0],[-79.50541,9.0487,0.0],[-79.50536,9.04876,0.0],[-79.5053,9.04883,0.0],[-79.50523,9.04888,0.0],[-79.50504,9.04893,0.0],[-79.50486,9.04896,0.0],[-79.50452,9.04897,0.0],[-79.5042,9.04897,0.0],[-79.50384,9.04899,0.0],[-79.50353,9.04902,0.0],[-79.50332,9.04905,0.0],[-79.50319,9.04907,0.0],[-79.5029,9.0491,0.0],[-79.50278,9.04912,0.0],[-79.50266,9.04911,0.0],[-79.50255,9.04908,0.0],[-79.50247,9.04904,0.0],[-79.50238,9.04896,0.0],[-79.50222,9.04878,0.0],[-79.50194,9.04841,0.0],[-79.50188,9.04834,0.0],[-79.5018,9.04825,0.0],[-79.50174,9.04817,0.0],[-79.50158,9.04799,0.0],[-79.50149,9.04789,0.0],[-79.50128,9.04766,0.0],[-79.50123,9.04763,0.0],[-79.50118,9.0476,0.0],[-79.50115,9.04758,0.0],[-79.5011,9.04756,0.0],[-79.50105,9.04755,0.0],[-79.501,9.04754,0.0],[-79.50023,9.04744,0.0],[-79.4998,9.0474,0.0],[-79.4997,9.04737,0.0],[-79.49965,9.04734,0.0],[-79.4996,9.04729,0.0],[-79.49955,9.04724,0.0],[-79.49947,9.04704,0.0],[-79.49938,9.04668,0.0],[-79.49935,9.04653,0.0],[-79.49926,9.046,0.0],[-79.49921,9.04575,0.0],[-79.49917,9.04549,0.0],[-79.49909,9.04496,0.0],[-79.49905,9.04468,0.0],[-79.49901,9.04445,0.0],[-79.49893,9.04394,0.0]]]]}},{"type":"Feature","properties":{"uesi_id":"PAN_R8389079","nbhd_code":"PAN_R8389079_14","nbhd_name":"Belisario Porras"},"geometry":{"type":"MultiPolygon","coordinates":[[[[-79.49012,9.05378,0.0],[-79.4899,9.05383,0.0],[-79.48965,9.05397,0.0],[-79.48941,9.05397,0.0],[-79.48937,9.05397,0.0],[-79.48907,9.05399,0.0],[-79.48883,9.05407,0.0],[-79.48853,9.05432,0.0],[-79.48839,9.05462,0.0],[-79.48828,9.05484,0.0],[-79.48806,9.05493,0.0],[-79.48794,9.05476,0.0],[-79.48787,9.05469,0.0],[-79.48777,9.05465,0.0],[-79.4875,9.05452,0.0],[-79.48737,9.05443,0.0],[-79.48736,9.05432,0.0],[-79.48751,9.05399,0.0],[-79.48787,9.05363,0.0],[-79.48789,9.05328,0.0],[-79.48789,9.05312,0.0],[-79.48781,9.05304,0.0],[-79.48759,9.05318,0.0],[-79.4874,9.05328,0.0],[-79.48723,9.05315,0.0],[-79.48719,9.05304,0.0],[-79.48717,9.05292,0.0],[-79.48726,9.05278,0.0],[-79.48737,9.0527,0.0],[-79.48762,9.0525,0.0],[-79.48772,9.0524,0.0],[-79.48808,9.05217,0.0],[-79.48827,9.05184,0.0],[-79.48845,9.05135,0.0],[-79.48849,9.05121,0.0],[-79.48847,9.05111,0.0],[-79.48835,9.05096,0.0],[-79.48813,9.05074,0.0],[-79.488,9.05052,0.0],[-79.48796,9.05031,0.0],[-79.488,9.05015,0.0],[-79.4883,9.04973,0.0],[-79.48864,9.0494,0.0],[-79.48884,9.04921,0.0],[-79.48891,9.04913,0.0],[-79.489,9.04893,0.0],[-79.48914,9.04872,0.0],[-79.48928,9.04853,0.0],[-79.48955,9.04837,0.0],[-79.48968,9.04823,0.0],[-79.48969,9.04802,0.0],[-79.48954,9.04776,0.0],[-79.48938,9.04764,0.0],[-79.48923,9.04752,0.0],[-79.48922,9.04751,0.0],[-79.48918,9.04742,0.0],[-79.48928,9.04721,0.0],[-79.48943,9.04634,0.0],[-79.48945,9.04597,0.0],[-79.48943,9.04583,0.0],[-79.48923,9.04564,0.0],[-79.48909,9.04554,0.0],[-79.48893,9.04541,0.0],[-79.48891,9.04515,0.0],[-79.48903,9.04502,0.0],[-79.48934,9.04496,0.0],[-79.4897,9.04486,0.0],[-79.48989,9.04472,0.0],[-79.48996,9.04457,0.0],[-79.48997,9.04442,0.0],[-79.49002,9.04424,0.0],[-79.49008,9.04414,0.0],[-79.49019,9.04404,0.0],[-79.49028,9.044,0.0],[-79.49042,9.04393,0.0],[-79.49075,9.0438,0.0],[-79.4909,9.04387,0.0],[-79.49112,9.04393,0.0],[-79.4913,9.04393,0.0],[-79.49152,9.04397,0.0],[-79.49175,9.04417,0.0],[-79.49183,9.04432,0.0],[-79.49194,9.04459,0.0],[-79.49218,9.04481,0.0],[-79.4923,9.04506,0.0],[-79.49262,9.04504,0.0],[-79.49256,9.04475,0.0],[-79.49246,9.0446,0.0],[-79.49234,9.04447,0.0],[-79.49222,9.04426,0.0],[-79.49222,9.04407,0.0],[-79.49225,9.04396,0.0],[-79.49243,9.04335,0.0],[-79.49292,9.04351,0.0],[-79.49306,9.04354,0.0],[-79.49327,9.04352,0.0],[-79.49341,9.0435,0.0],[-79.49362,9.04348,0.0],[-79.49384,9.04339,0.0],[-79.49401,9.04331,0.0],[-79.49426,9.04312,0.0],[-79.49453,9.04292,0.0],[-79.49482,9.04271,0.0],[-79.49533,9.04233,0.0],[-79.4954,9.04228,0.0],[-79.49553,9.0422,0.0],[-79.49563,9.04214,0.0],[-79.49587,9.04204,0.0],[-79.49624,9.04197,0.0],[-79.4968,9.04187,0.0],[-79.49685,9.04227,0.0],[-79.49694,9.04301,0.0],[-79.49702,9.04347,0.0],[-79.49703,9.04355,0.0],[-79.49708,9.04363,0.0],[-79.49712,9.04367,0.0],[-79.49718,9.04371,0.0],[-79.49724,9.04373,0.0],[-79.49736,9.04376,0.0],[-79.49759,9.04378,0.0],[-79.49805,9.04384,0.0],[-79.49835,9.04387,0.0],[-79.49864,9.0439,0.0],[-79.49893,9.04394,0.0],[-79.49901,9.04445,0.0],[-79.49905,9.04468,0.0],[-79.49909,9.04496,0.0],[-79.49917,9.04549,0.0],[-79.49921,9.04575,0.0],[-79.49926,9.046,0.0],[-79.49935,9.04653,0.0],[-79.49938,9.04668,0.0],[-79.49947,9.04704,0.0],[-79.49955,9.04724,0.0],[-79.4996,9.04729,0.0],[-79.49965,9.04734,0.0],[-79.4997,9.04737,0.0],[-79.4998,9.0474,0.0],[-79.50023,9.04744,0.0],[-79.501,9.04754,0.0],[-79.50105,9.04755,0.0],[-79.5011,9.04756,0.0],[-79.50115,9.04758,0.0],[-79.50118,9.0476,0.0],[-79.50123,9.04763,0.0],[-79.50128,9.04766,0.0],[-79.50149,9.04789,0.0],[-79.50158,9.04799,0.0],[-79.50174,9.04817,0.0],[-79.5018,9.04825,0.0],[-79.50188,9.04834,0.0],[-79.50194,9.04841,0.0],[-79.50222,9.04878,0.0],[-79.50238,9.04896,0.0],[-79.50247,9.04904,0.0],[-79.50255,9.04908,0.0],[-79.50266,9.04911,0.0],[-79.50278,9.04912,0.0],[-79.5029,9.0491,0.0],[-79.50319,9.04907,0.0],[-79.50332,9.04905,0.0],[-79.50353,9.04902,0.0],[-79.50384,9.04899,0.0],[-79.5042,9.04897,0.0],[-79.50452,9.04897,0.0],[-79.50486,9.04896,0.0],[-79.50504,9.04893,0.0],[-79.50523,9.04888,0.0],[-79.5053,9.04883,0.0],[-79.50536,9.04876,0.0],[-79.50541,9.0487,0.0],[-79.50547,9.04856,0.0],[-79.50548,9.04838,0.0],[-79.50548,9.04765,0.0],[-79.50546,9.04707,0.0],[-79.50544,9.04686,0.0],[-79.50535,9.04628,0.0],[-79.50536,9.04617,0.0],[-79.50536,9.04612,0.0],[-79.50538,9.04605,0.0],[-79.50559,9.04572,0.0],[-79.50576,9.04562,0.0],[-79.50592,9.04555,0.0],[-79.50623,9.04547,0.0],[-79.50644,9.04542,0.0],[-79.50653,9.04539,0.0],[-79.50664,9.04534,0.0],[-79.50673,9.0453,0.0],[-79.50681,9.04523,0.0],[-79.50715,9.04542,0.0],[-79.5071,9.04565,0.0],[-79.50708,9.0459,0.0],[-79.50708,9.04622,0.0],[-79.50711,9.04649,0.0],[-79.50716,9.04673,0.0],[-79.50723,9.04698,0.0],[-79.50736,9.04724,0.0],[-79.50785,9.04813,0.0],[-79.50915,9.05027,0.0],[-79.50937,9.05066,0.0],[-79.5095,9.05095,0.0],[-79.50962,9.05138,0.0],[-79.50966,9.0518,0.0],[-79.50965,9.05229,0.0],[-79.50944,9.05448,0.0],[-79.50936,9.05559,0.0],[-79.50934,9.05598,0.0],[-79.50937,9.05635,0.0],[-79.50942,9.05676,0.0],[-79.50969,9.05803,0.0],[-79.50964,9.05809,0.0],[-79.50947,9.05854,0.0],[-79.5091,9.05931,0.0],[-79.50892,9.05964,0.0],[-79.50881,9.05977,0.0],[-79.50847,9.05996,0.0],[-79.50811,9.06003,0.0],[-79.50735,9.06015,0.0],[-79.50689,9.06023,0.0],[-79.50676,9.06027,0.0],[-79.50664,9.06035,0.0],[-79.50634,9.06082,0.0],[-79.50614,9.06092,0.0],[-79.50605,9.06103,0.0],[-79.50599,9.06114,0.0],[-79.50598,9.06127,0.0],[-79.50602,9.06145,0.0],[-79.50603,9.06161,0.0],[-79.50601,9.06167,0.0],[-79.50596,9.06174,0.0],[-79.50582,9.06181,0.0],[-79.50561,9.06191,0.0],[-79.50555,9.06202,0.0],[-79.50544,9.06227,0.0],[-79.50528,9.06251,0.0],[-79.50515,9.06264,0.0],[-79.5049,9.06282,0.0],[-79.50461,9.06297,0.0],[-79.50444,9.06319,0.0],[-79.50405,9.0638,0.0],[-79.50323,9.06523,0.0],[-79.50287,9.06574,0.0],[-79.50271,9.066,0.0],[-79.50214,9.06572,0.0],[-79.50202,9.06566,0.0],[-79.50181,9.06556,0.0],[-79.50168,9.0655,0.0],[-79.50081,9.06508,0.0],[-79.50044,9.0649,0.0],[-79.49969,9.06452,0.0],[-79.49884,9.0641,0.0],[-79.49815,9.06357,0.0],[-79.49805,9.06349,0.0],[-79.49745,9.06305,0.0],[-79.49728,9.06291,0.0],[-79.49712,9.06281,0.0],[-79.49698,9.0627,0.0],[-79.49685,9.06263,0.0],[-79.4967,9.06257,0.0],[-79.49636,9.06254,0.0],[-79.49622,9.06253,0.0],[-79.49574,9.0625,0.0],[-79.4954,9.06246,0.0],[-79.49533,9.06248,0.0],[-79.49523,9.06251,0.0],[-79.49516,9.06255,0.0],[-79.49509,9.06261,0.0],[-79.495,9.06271,0.0],[-79.49469,9.06312,0.0],[-79.4946,9.0632,0.0],[-79.49452,9.06324,0.0],[-79.49444,9.06327,0.0],[-79.49429,9.06326,0.0],[-79.4931,9.06305,0.0],[-79.49303,9.06305,0.0],[-79.49295,9.06305,0.0],[-79.49317,9.06274,0.0],[-79.49354,9.06243,0.0],[-79.49366,9.06192,0.0],[-79.49377,9.06096,0.0],[-79.49377,9.06087,0.0],[-79.49363,9.06071,0.0],[-79.49345,9.06057,0.0],[-79.49332,9.06049,0.0],[-79.49289,9.06,0.0],[-79.49257,9.05935,0.0],[-79.49252,9.05919,0.0],[-79.49247,9.05896,0.0],[-79.4923,9.05866,0.0],[-79.49222,9.05855,0.0],[-79.49201,9.05844,0.0],[-79.49166,9.05803,0.0],[-79.49147,9.05759,0.0],[-79.49136,9.05742,0.0],[-79.49129,9.0569,0.0],[-79.49121,9.05663,0.0],[-79.49106,9.05642,0.0],[-79.49094,9.05625,0.0],[-79.49086,9.05617,0.0],[-79.49052,9.05596,0.0],[-79.49036,9.05583,0.0],[-79.49034,9.05564,0.0],[-79.49032,9.05549,0.0],[-79.49016,9.05535,0.0],[-79.49004,9.05522,0.0],[-79.48996,9.05508,0.0],[-79.48996,9.05486,0.0],[-79.49005,9.05463,0.0],[-79.49029,9.05449,0.0],[-79.49048,9.05437,0.0],[-79.49055,9.05428,0.0],[-79.49057,9.0542,0.0],[-79.4905,9.05412,0.0],[-79.49036,9.05401,0.0],[-79.49026,9.05393,0.0],[-79.49012,9.05378,0.0]]]]}},{"type":"Feature","properties":{"uesi_id":"PAN_R8389079","nbhd_code":"PAN_R8389079_15","nbhd_name":"Jos\u00e9 Domingo Espinar"},"geometry":{"type":"MultiPolygon","coordinates":[[[[-79.49684,9.0376,0.0],[-79.49684,9.03762,0.0],[-79.49684,9.038,0.0],[-79.49684,9.0385,0.0],[-79.49725,9.03954,0.0],[-79.49727,9.03955,0.0],[-79.49768,9.03969,0.0],[-79.4977,9.0398,0.0],[-79.49758,9.03985,0.0],[-79.49741,9.03982,0.0],[-79.49742,9.04063,0.0],[-79.49701,9.04093,0.0],[-79.49702,9.04107,0.0],[-79.49704,9.0411,0.0],[-79.49773,9.04164,0.0],[-79.49795,9.04143,0.0],[-79.49803,9.04138,0.0],[-79.49809,9.04138,0.0],[-79.49817,9.04139,0.0],[-79.49822,9.04141,0.0],[-79.49827,9.04157,0.0],[-79.49831,9.04176,0.0],[-79.49845,9.04267,0.0],[-79.49852,9.04315,0.0],[-79.49862,9.04355,0.0],[-79.49864,9.0439,0.0],[-79.49835,9.04387,0.0],[-79.49805,9.04384,0.0],[-79.49759,9.04378,0.0],[-79.49736,9.04376,0.0],[-79.49724,9.04373,0.0],[-79.49718,9.04371,0.0],[-79.49712,9.04367,0.0],[-79.49708,9.04363,0.0],[-79.49703,9.04355,0.0],[-79.49702,9.04347,0.0],[-79.49694,9.04301,0.0],[-79.49685,9.04227,0.0],[-79.4968,9.04187,0.0],[-79.49624,9.04197,0.0],[-79.49587,9.04204,0.0],[-79.49563,9.04214,0.0],[-79.49553,9.0422,0.0],[-79.4954,9.04228,0.0],[-79.49533,9.04233,0.0],[-79.49482,9.04271,0.0],[-79.49453,9.04292,0.0],[-79.49426,9.04312,0.0],[-79.49401,9.04331,0.0],[-79.49384,9.04339,0.0],[-79.49362,9.04348,0.0],[-79.49341,9.0435,0.0],[-79.49327,9.04352,0.0],[-79.49306,9.04354,0.0],[-79.49292,9.04351,0.0],[-79.49243,9.04335,0.0],[-79.49225,9.04396,0.0],[-79.49222,9.04407,0.0],[-79.49222,9.04426,0.0],[-79.49234,9.04447,0.0],[-79.49246,9.0446,0.0],[-79.49256,9.04475,0.0],[-79.49262,9.04504,0.0],[-79.4923,9.04506,0.0],[-79.49218,9.04481,0.0],[-79.49194,9.04459,0.0],[-79.49183,9.04432,0.0],[-79.49175,9.04417,0.0],[-79.49152,9.04397,0.0],[-79.4913,9.04393,0.0],[-79.49112,9.04393,0.0],[-79.4909,9.04387,0.0],[-79.49075,9.0438,0.0],[-79.49042,9.04393,0.0],[-79.49028,9.044,0.0],[-79.49019,9.04404,0.0],[-79.49008,9.04414,0.0],[-79.49002,9.04424,0.0],[-79.48997,9.04442,0.0],[-79.48996,9.04457,0.0],[-79.48989,9.04472,0.0],[-79.4897,9.04486,0.0],[-79.48934,9.04496,0.0],[-79.48903,9.04502,0.0],[-79.48891,9.04515,0.0],[-79.48893,9.04541,0.0],[-79.48909,9.04554,0.0],[-79.48923,9.04564,0.0],[-79.48943,9.04583,0.0],[-79.48945,9.04597,0.0],[-79.48943,9.04634,0.0],[-79.48928,9.04721,0.0],[-79.48918,9.04742,0.0],[-79.48922,9.04751,0.0],[-79.48923,9.04752,0.0],[-79.48938,9.04764,0.0],[-79.48954,9.04776,0.0],[-79.48969,9.04802,0.0],[-79.48968,9.04823,0.0],[-79.48955,9.04837,0.0],[-79.48928,9.04853,0.0],[-79.48914,9.04872,0.0],[-79.489,9.04893,0.0],[-79.48891,9.04913,0.0],[-79.48884,9.04921,0.0],[-79.48864,9.0494,0.0],[-79.4883,9.04973,0.0],[-79.488,9.05015,0.0],[-79.48796,9.05031,0.0],[-79.488,9.05052,0.0],[-79.48813,9.05074,0.0],[-79.48835,9.05096,0.0],[-79.48847,9.05111,0.0],[-79.48849,9.05121,0.0],[-79.48845,9.05135,0.0],[-79.48827,9.05184,0.0],[-79.48808,9.05217,0.0],[-79.48772,9.0524,0.0],[-79.48762,9.0525,0.0],[-79.48737,9.0527,0.0],[-79.48726,9.05278,0.0],[-79.48717,9.05292,0.0],[-79.48719,9.05304,0.0],[-79.48723,9.05315,0.0],[-79.4874,9.05328,0.0],[-79.48759,9.05318,0.0],[-79.48781,9.05304,0.0],[-79.48789,9.05312,0.0],[-79.48789,9.05328,0.0],[-79.48787,9.05363,0.0],[-79.48751,9.05399,0.0],[-79.48736,9.05432,0.0],[-79.48737,9.05443,0.0],[-79.48724,9.05446,0.0],[-79.48707,9.05449,0.0],[-79.487,9.05451,0.0],[-79.48692,9.05453,0.0],[-79.48685,9.05457,0.0],[-79.48677,9.05462,0.0],[-79.48668,9.05468,0.0],[-79.48662,9.05476,0.0],[-79.48659,9.05484,0.0],[-79.48656,9.05489,0.0],[-79.48652,9.05492,0.0],[-79.48647,9.05492,0.0],[-79.48647,9.05499,0.0],[-79.48648,9.05506,0.0],[-79.48651,9.05514,0.0],[-79.48658,9.0552,0.0],[-79.48669,9.05534,0.0],[-79.48672,9.05541,0.0],[-79.48674,9.05552,0.0],[-79.48673,9.0556,0.0],[-79.48673,9.05569,0.0],[-79.48672,9.05579,0.0],[-79.48676,9.05595,0.0],[-79.48676,9.05605,0.0],[-79.48676,9.05612,0.0],[-79.48672,9.05622,0.0],[-79.48663,9.05643,0.0],[-79.48657,9.05649,0.0],[-79.48649,9.05663,0.0],[-79.48638,9.05676,0.0],[-79.48626,9.0569,0.0],[-79.48617,9.05701,0.0],[-79.48611,9.0571,0.0],[-79.48606,9.05716,0.0],[-79.486,9.05722,0.0],[-79.48594,9.05728,0.0],[-79.48591,9.05731,0.0],[-79.48587,9.05737,0.0],[-79.48577,9.05753,0.0],[-79.48572,9.05772,0.0],[-79.4857,9.05782,0.0],[-79.4857,9.05792,0.0],[-79.4857,9.05802,0.0],[-79.48569,9.05812,0.0],[-79.48571,9.05822,0.0],[-79.48572,9.05827,0.0],[-79.48576,9.05831,0.0],[-79.4858,9.05833,0.0],[-79.48583,9.05833,0.0],[-79.48587,9.05837,0.0],[-79.4859,9.05842,0.0],[-79.48589,9.05854,0.0],[-79.48588,9.05872,0.0],[-79.48588,9.05879,0.0],[-79.48589,9.05886,0.0],[-79.48591,9.05893,0.0],[-79.4859,9.05897,0.0],[-79.48585,9.05911,0.0],[-79.48585,9.05919,0.0],[-79.48585,9.05932,0.0],[-79.48584,9.05939,0.0],[-79.48581,9.05948,0.0],[-79.48581,9.05955,0.0],[-79.48583,9.05963,0.0],[-79.48584,9.05969,0.0],[-79.48584,9.05981,0.0],[-79.48581,9.06,0.0],[-79.48581,9.06007,0.0],[-79.48579,9.06015,0.0],[-79.48576,9.06023,0.0],[-79.48574,9.06027,0.0],[-79.48571,9.06037,0.0],[-79.48567,9.06061,0.0],[-79.48562,9.06073,0.0],[-79.48556,9.06081,0.0],[-79.48553,9.06083,0.0],[-79.48551,9.06087,0.0],[-79.48549,9.06092,0.0],[-79.48548,9.06096,0.0],[-79.48548,9.06103,0.0],[-79.48548,9.06108,0.0],[-79.48546,9.06113,0.0],[-79.48541,9.06119,0.0],[-79.48313,9.061,0.0],[-79.48243,9.06029,0.0],[-79.48084,9.06016,0.0],[-79.48006,9.05987,0.0],[-79.4798,9.05988,0.0],[-79.4795,9.05991,0.0],[-79.47934,9.05991,0.0],[-79.47923,9.05993,0.0],[-79.47914,9.05994,0.0],[-79.47908,9.05997,0.0],[-79.47903,9.05999,0.0],[-79.47899,9.06003,0.0],[-79.47897,9.06007,0.0],[-79.47894,9.06012,0.0],[-79.47891,9.06014,0.0],[-79.47887,9.06016,0.0],[-79.47883,9.06019,0.0],[-79.47873,9.06023,0.0],[-79.47841,9.06038,0.0],[-79.47824,9.06038,0.0],[-79.47785,9.06049,0.0],[-79.47758,9.0604,0.0],[-79.47744,9.06034,0.0],[-79.47721,9.06057,0.0],[-79.47687,9.06056,0.0],[-79.47674,9.0605,0.0],[-79.47646,9.06077,0.0],[-79.47613,9.06082,0.0],[-79.47565,9.06091,0.0],[-79.47541,9.0609,0.0],[-79.47521,9.06087,0.0],[-79.47508,9.0607,0.0],[-79.47497,9.06056,0.0],[-79.47492,9.06046,0.0],[-79.47473,9.06045,0.0],[-79.47434,9.06053,0.0],[-79.47355,9.0607,0.0],[-79.47339,9.06075,0.0],[-79.47326,9.06079,0.0],[-79.47318,9.06081,0.0],[-79.47247,9.06091,0.0],[-79.47164,9.06109,0.0],[-79.47126,9.06121,0.0],[-79.47113,9.0612,0.0],[-79.47109,9.06113,0.0],[-79.47105,9.06109,0.0],[-79.47107,9.061,0.0],[-79.47101,9.06078,0.0],[-79.47116,9.06059,0.0],[-79.47122,9.06034,0.0],[-79.47125,9.06025,0.0],[-79.47094,9.0603,0.0],[-79.47079,9.06015,0.0],[-79.47063,9.06006,0.0],[-79.47029,9.05997,0.0],[-79.46989,9.06001,0.0],[-79.46972,9.06005,0.0],[-79.46962,9.06015,0.0],[-79.46955,9.06035,0.0],[-79.46966,9.0608,0.0],[-79.46967,9.06124,0.0],[-79.46956,9.06145,0.0],[-79.46939,9.06161,0.0],[-79.46908,9.06166,0.0],[-79.46889,9.0617,0.0],[-79.46873,9.06183,0.0],[-79.46864,9.06196,0.0],[-79.46857,9.06226,0.0],[-79.46853,9.06266,0.0],[-79.4685,9.06272,0.0],[-79.46846,9.06275,0.0],[-79.46835,9.06276,0.0],[-79.46752,9.06276,0.0],[-79.46733,9.06284,0.0],[-79.46711,9.06294,0.0],[-79.46703,9.06299,0.0],[-79.46682,9.06295,0.0],[-79.46652,9.06283,0.0],[-79.46609,9.0624,0.0],[-79.46585,9.06215,0.0],[-79.46543,9.06163,0.0],[-79.465,9.06109,0.0],[-79.46476,9.06087,0.0],[-79.46432,9.06072,0.0],[-79.46289,9.06036,0.0],[-79.46227,9.06024,0.0],[-79.46218,9.06022,0.0],[-79.46214,9.06016,0.0],[-79.46208,9.05934,0.0],[-79.46196,9.05858,0.0],[-79.46173,9.05686,0.0],[-79.46158,9.05586,0.0],[-79.46139,9.05481,0.0],[-79.46091,9.05256,0.0],[-79.46053,9.05069,0.0],[-79.46041,9.05007,0.0],[-79.4603,9.0497,0.0],[-79.46003,9.04886,0.0],[-79.46014,9.04882,0.0],[-79.46103,9.04851,0.0],[-79.46285,9.04791,0.0],[-79.4645,9.04731,0.0],[-79.46586,9.04666,0.0],[-79.46628,9.04639,0.0],[-79.46708,9.04599,0.0],[-79.46814,9.04557,0.0],[-79.46953,9.04488,0.0],[-79.47092,9.04422,0.0],[-79.47104,9.04416,0.0],[-79.47151,9.04391,0.0],[-79.47275,9.04317,0.0],[-79.47324,9.04285,0.0],[-79.47451,9.04189,0.0],[-79.47495,9.04151,0.0],[-79.47531,9.04125,0.0],[-79.47661,9.04041,0.0],[-79.47745,9.03979,0.0],[-79.4777,9.03961,0.0],[-79.4791,9.03858,0.0],[-79.47988,9.03808,0.0],[-79.48127,9.03719,0.0],[-79.48161,9.03698,0.0],[-79.48274,9.03629,0.0],[-79.48287,9.03622,0.0],[-79.48337,9.03594,0.0],[-79.48393,9.03562,0.0],[-79.48456,9.03522,0.0],[-79.48482,9.03504,0.0],[-79.48589,9.03438,0.0],[-79.4879,9.03308,0.0],[-79.48999,9.03164,0.0],[-79.49144,9.03063,0.0],[-79.49182,9.03135,0.0],[-79.49191,9.03158,0.0],[-79.49196,9.03185,0.0],[-79.49217,9.03312,0.0],[-79.49222,9.0339,0.0],[-79.49215,9.03426,0.0],[-79.49204,9.03476,0.0],[-79.49183,9.03557,0.0],[-79.4916,9.03549,0.0],[-79.49145,9.03579,0.0],[-79.49142,9.03594,0.0],[-79.49126,9.03595,0.0],[-79.49121,9.03599,0.0],[-79.49117,9.03609,0.0],[-79.49113,9.03635,0.0],[-79.49112,9.03633,0.0],[-79.49096,9.03618,0.0],[-79.49083,9.03612,0.0],[-79.4908,9.0361,0.0],[-79.49075,9.03608,0.0],[-79.49062,9.03605,0.0],[-79.49051,9.036,0.0],[-79.49047,9.03594,0.0],[-79.49043,9.03586,0.0],[-79.4904,9.03572,0.0],[-79.4904,9.03561,0.0],[-79.4904,9.03544,0.0],[-79.49024,9.03572,0.0],[-79.49013,9.03607,0.0],[-79.49014,9.0365,0.0],[-79.49032,9.03701,0.0],[-79.4907,9.03733,0.0],[-79.49084,9.03749,0.0],[-79.49091,9.03759,0.0],[-79.49097,9.03783,0.0],[-79.49097,9.0384,0.0],[-79.49104,9.03869,0.0],[-79.49123,9.0391,0.0],[-79.49169,9.03874,0.0],[-79.49215,9.03839,0.0],[-79.49259,9.03805,0.0],[-79.49265,9.03811,0.0],[-79.49287,9.03836,0.0],[-79.4932,9.03858,0.0],[-79.49328,9.0386,0.0],[-79.49345,9.03863,0.0],[-79.4937,9.03867,0.0],[-79.49372,9.03867,0.0],[-79.49387,9.03866,0.0],[-79.49398,9.03865,0.0],[-79.49431,9.0385,0.0],[-79.49442,9.03844,0.0],[-79.4946,9.03831,0.0],[-79.49472,9.0382,0.0],[-79.49491,9.03801,0.0],[-79.49506,9.03786,0.0],[-79.49513,9.03781,0.0],[-79.4952,9.03776,0.0],[-79.49523,9.03774,0.0],[-79.49532,9.0377,0.0],[-79.49546,9.03766,0.0],[-79.49559,9.03762,0.0],[-79.49567,9.0376,0.0],[-79.49571,9.0376,0.0],[-79.49587,9.03759,0.0],[-79.49594,9.03759,0.0],[-79.49678,9.0376,0.0],[-79.49684,9.0376,0.0]]]]}},{"type":"Feature","properties":{"uesi_id":"PAN_R8389079","nbhd_code":"PAN_R8389079_16","nbhd_name":"Arnulfo Arias"},"geometry":{"type":"MultiPolygon","coordinates":[[[[-79.4798,9.05988,0.0],[-79.48006,9.05987,0.0],[-79.48084,9.06016,0.0],[-79.48243,9.06029,0.0],[-79.48313,9.061,0.0],[-79.48541,9.06119,0.0],[-79.48546,9.06113,0.0],[-79.48548,9.06108,0.0],[-79.48548,9.06103,0.0],[-79.48548,9.06096,0.0],[-79.48549,9.06092,0.0],[-79.48551,9.06087,0.0],[-79.48553,9.06083,0.0],[-79.48556,9.06081,0.0],[-79.48562,9.06073,0.0],[-79.48567,9.06061,0.0],[-79.48571,9.06037,0.0],[-79.48574,9.06027,0.0],[-79.48576,9.06023,0.0],[-79.48579,9.06015,0.0],[-79.48581,9.06007,0.0],[-79.48581,9.06,0.0],[-79.48584,9.05981,0.0],[-79.48584,9.05969,0.0],[-79.48583,9.05963,0.0],[-79.48581,9.05955,0.0],[-79.48581,9.05948,0.0],[-79.48584,9.05939,0.0],[-79.48585,9.05932,0.0],[-79.48585,9.05919,0.0],[-79.48585,9.05911,0.0],[-79.4859,9.05897,0.0],[-79.48591,9.05893,0.0],[-79.48589,9.05886,0.0],[-79.48588,9.05879,0.0],[-79.48588,9.05872,0.0],[-79.48589,9.05854,0.0],[-79.4859,9.05842,0.0],[-79.48587,9.05837,0.0],[-79.48583,9.05833,0.0],[-79.4858,9.05833,0.0],[-79.48576,9.05831,0.0],[-79.48572,9.05827,0.0],[-79.48571,9.05822,0.0],[-79.48569,9.05812,0.0],[-79.4857,9.05802,0.0],[-79.4857,9.05792,0.0],[-79.4857,9.05782,0.0],[-79.48572,9.05772,0.0],[-79.48577,9.05753,0.0],[-79.48587,9.05737,0.0],[-79.48591,9.05731,0.0],[-79.48594,9.05728,0.0],[-79.486,9.05722,0.0],[-79.48606,9.05716,0.0],[-79.48611,9.0571,0.0],[-79.48617,9.05701,0.0],[-79.48626,9.0569,0.0],[-79.48638,9.05676,0.0],[-79.48649,9.05663,0.0],[-79.48657,9.05649,0.0],[-79.48663,9.05643,0.0],[-79.48672,9.05622,0.0],[-79.48676,9.05612,0.0],[-79.48676,9.05605,0.0],[-79.48676,9.05595,0.0],[-79.48672,9.05579,0.0],[-79.48673,9.05569,0.0],[-79.48673,9.0556,0.0],[-79.48674,9.05552,0.0],[-79.48672,9.05541,0.0],[-79.48669,9.05534,0.0],[-79.48658,9.0552,0.0],[-79.48651,9.05514,0.0],[-79.48648,9.05506,0.0],[-79.48647,9.05499,0.0],[-79.48647,9.05492,0.0],[-79.48652,9.05492,0.0],[-79.48656,9.05489,0.0],[-79.48659,9.05484,0.0],[-79.48662,9.05476,0.0],[-79.48668,9.05468,0.0],[-79.48677,9.05462,0.0],[-79.48685,9.05457,0.0],[-79.48692,9.05453,0.0],[-79.487,9.05451,0.0],[-79.48707,9.05449,0.0],[-79.48724,9.05446,0.0],[-79.48737,9.05443,0.0],[-79.4875,9.05452,0.0],[-79.48777,9.05465,0.0],[-79.48787,9.05469,0.0],[-79.48794,9.05476,0.0],[-79.48806,9.05493,0.0],[-79.48828,9.05484,0.0],[-79.48839,9.05462,0.0],[-79.48853,9.05432,0.0],[-79.48883,9.05407,0.0],[-79.48907,9.05399,0.0],[-79.48937,9.05397,0.0],[-79.48941,9.05397,0.0],[-79.48965,9.05397,0.0],[-79.4899,9.05383,0.0],[-79.49012,9.05378,0.0],[-79.49026,9.05393,0.0],[-79.49036,9.05401,0.0],[-79.4905,9.05412,0.0],[-79.49057,9.0542,0.0],[-79.49055,9.05428,0.0],[-79.49048,9.05437,0.0],[-79.49029,9.05449,0.0],[-79.49005,9.05463,0.0],[-79.48996,9.05486,0.0],[-79.48996,9.05508,0.0],[-79.49004,9.05522,0.0],[-79.49016,9.05535,0.0],[-79.49032,9.05549,0.0],[-79.49034,9.05564,0.0],[-79.49036,9.05583,0.0],[-79.49052,9.05596,0.0],[-79.49086,9.05617,0.0],[-79.49094,9.05625,0.0],[-79.49106,9.05642,0.0],[-79.49121,9.05663,0.0],[-79.49129,9.0569,0.0],[-79.49136,9.05742,0.0],[-79.49147,9.05759,0.0],[-79.49166,9.05803,0.0],[-79.49201,9.05844,0.0],[-79.49222,9.05855,0.0],[-79.4923,9.05866,0.0],[-79.49247,9.05896,0.0],[-79.49252,9.05919,0.0],[-79.49257,9.05935,0.0],[-79.49289,9.06,0.0],[-79.49332,9.06049,0.0],[-79.49345,9.06057,0.0],[-79.49363,9.06071,0.0],[-79.49377,9.06087,0.0],[-79.49377,9.06096,0.0],[-79.49366,9.06192,0.0],[-79.49354,9.06243,0.0],[-79.49317,9.06274,0.0],[-79.49295,9.06305,0.0],[-79.49273,9.06323,0.0],[-79.49244,9.06346,0.0],[-79.49234,9.06358,0.0],[-79.49229,9.06371,0.0],[-79.49216,9.06392,0.0],[-79.49207,9.06439,0.0],[-79.49203,9.06457,0.0],[-79.49214,9.06497,0.0],[-79.49217,9.06521,0.0],[-79.49214,9.06553,0.0],[-79.49212,9.06585,0.0],[-79.49218,9.06603,0.0],[-79.49225,9.06608,0.0],[-79.49249,9.0661,0.0],[-79.49275,9.06611,0.0],[-79.49281,9.06629,0.0],[-79.49285,9.06661,0.0],[-79.49274,9.06712,0.0],[-79.49256,9.06729,0.0],[-79.49237,9.06733,0.0],[-79.49226,9.06738,0.0],[-79.49221,9.06744,0.0],[-79.49203,9.06783,0.0],[-79.49173,9.0684,0.0],[-79.49159,9.06855,0.0],[-79.49123,9.06883,0.0],[-79.49086,9.06908,0.0],[-79.49047,9.0693,0.0],[-79.4899,9.06962,0.0],[-79.48936,9.06992,0.0],[-79.48908,9.06995,0.0],[-79.48877,9.06981,0.0],[-79.48861,9.06968,0.0],[-79.48845,9.0696,0.0],[-79.48837,9.0696,0.0],[-79.48784,9.06983,0.0],[-79.48687,9.07034,0.0],[-79.48603,9.07076,0.0],[-79.48584,9.0709,0.0],[-79.48566,9.07098,0.0],[-79.48535,9.07113,0.0],[-79.48489,9.07153,0.0],[-79.48481,9.07159,0.0],[-79.48469,9.07162,0.0],[-79.4846,9.07163,0.0],[-79.48436,9.07165,0.0],[-79.48412,9.07169,0.0],[-79.484,9.07173,0.0],[-79.48378,9.07181,0.0],[-79.48359,9.07192,0.0],[-79.48356,9.07197,0.0],[-79.48343,9.07205,0.0],[-79.48324,9.07215,0.0],[-79.48318,9.07218,0.0],[-79.48304,9.07225,0.0],[-79.48296,9.07229,0.0],[-79.48284,9.07235,0.0],[-79.48273,9.07239,0.0],[-79.48265,9.07248,0.0],[-79.48257,9.07258,0.0],[-79.48257,9.07265,0.0],[-79.48258,9.07275,0.0],[-79.48254,9.07286,0.0],[-79.4825,9.07292,0.0],[-79.48238,9.07296,0.0],[-79.48228,9.07301,0.0],[-79.48219,9.07309,0.0],[-79.48209,9.07317,0.0],[-79.48199,9.07325,0.0],[-79.48194,9.07333,0.0],[-79.48185,9.07343,0.0],[-79.48175,9.07349,0.0],[-79.48163,9.0736,0.0],[-79.4815,9.07366,0.0],[-79.48146,9.07377,0.0],[-79.4815,9.07388,0.0],[-79.48127,9.07354,0.0],[-79.48059,9.07417,0.0],[-79.47713,9.07944,0.0],[-79.47701,9.07171,0.0],[-79.47656,9.07142,0.0],[-79.47569,9.07145,0.0],[-79.47532,9.07122,0.0],[-79.47505,9.07132,0.0],[-79.47485,9.07118,0.0],[-79.47466,9.07131,0.0],[-79.4741,9.07116,0.0],[-79.47374,9.07136,0.0],[-79.47344,9.07122,0.0],[-79.47328,9.0714,0.0],[-79.4725,9.07138,0.0],[-79.47207,9.07153,0.0],[-79.47168,9.07138,0.0],[-79.47159,9.07134,0.0],[-79.47142,9.07132,0.0],[-79.47136,9.07138,0.0],[-79.47127,9.07141,0.0],[-79.47114,9.07139,0.0],[-79.47104,9.07132,0.0],[-79.47094,9.07123,0.0],[-79.47084,9.07124,0.0],[-79.47073,9.07131,0.0],[-79.47063,9.07131,0.0],[-79.47047,9.07128,0.0],[-79.47034,9.07123,0.0],[-79.47021,9.07116,0.0],[-79.47007,9.07105,0.0],[-79.47002,9.07099,0.0],[-79.47001,9.07089,0.0],[-79.47005,9.07081,0.0],[-79.47005,9.07077,0.0],[-79.47002,9.07069,0.0],[-79.46998,9.07057,0.0],[-79.46999,9.0705,0.0],[-79.46991,9.0704,0.0],[-79.46985,9.07033,0.0],[-79.4698,9.07021,0.0],[-79.46985,9.07009,0.0],[-79.46991,9.07002,0.0],[-79.46997,9.06995,0.0],[-79.47004,9.06982,0.0],[-79.4701,9.06969,0.0],[-79.47015,9.06954,0.0],[-79.47023,9.06928,0.0],[-79.4703,9.06914,0.0],[-79.47041,9.06897,0.0],[-79.47051,9.06889,0.0],[-79.47061,9.06881,0.0],[-79.47068,9.0687,0.0],[-79.4707,9.06858,0.0],[-79.47073,9.0685,0.0],[-79.47082,9.06842,0.0],[-79.47089,9.0684,0.0],[-79.47099,9.06838,0.0],[-79.4711,9.06832,0.0],[-79.47116,9.06822,0.0],[-79.47117,9.0681,0.0],[-79.47113,9.06798,0.0],[-79.47112,9.06772,0.0],[-79.47112,9.0676,0.0],[-79.47114,9.06748,0.0],[-79.47118,9.06743,0.0],[-79.47122,9.06743,0.0],[-79.47129,9.06742,0.0],[-79.47135,9.06734,0.0],[-79.4714,9.06725,0.0],[-79.47144,9.06714,0.0],[-79.47144,9.06705,0.0],[-79.47138,9.06684,0.0],[-79.47128,9.06662,0.0],[-79.47123,9.06648,0.0],[-79.47123,9.06637,0.0],[-79.47124,9.06629,0.0],[-79.47127,9.06621,0.0],[-79.47132,9.06617,0.0],[-79.47136,9.06613,0.0],[-79.47137,9.06609,0.0],[-79.47137,9.06604,0.0],[-79.47133,9.06596,0.0],[-79.47128,9.06589,0.0],[-79.47126,9.06583,0.0],[-79.47126,9.06579,0.0],[-79.47126,9.06572,0.0],[-79.47128,9.06567,0.0],[-79.47131,9.06564,0.0],[-79.47134,9.06561,0.0],[-79.4714,9.06562,0.0],[-79.47144,9.06562,0.0],[-79.4715,9.06559,0.0],[-79.47154,9.06555,0.0],[-79.47158,9.06547,0.0],[-79.47168,9.0653,0.0],[-79.47176,9.06526,0.0],[-79.47186,9.06524,0.0],[-79.47216,9.06521,0.0],[-79.47215,9.06501,0.0],[-79.47213,9.0648,0.0],[-79.47211,9.06463,0.0],[-79.47198,9.06452,0.0],[-79.47181,9.06442,0.0],[-79.47167,9.06434,0.0],[-79.47169,9.06423,0.0],[-79.47181,9.06414,0.0],[-79.47179,9.06406,0.0],[-79.47146,9.06384,0.0],[-79.47135,9.06357,0.0],[-79.47121,9.06342,0.0],[-79.47118,9.06331,0.0],[-79.47121,9.06316,0.0],[-79.47109,9.06307,0.0],[-79.47113,9.06287,0.0],[-79.47119,9.06281,0.0],[-79.47117,9.06269,0.0],[-79.47119,9.0624,0.0],[-79.47109,9.06209,0.0],[-79.47114,9.0619,0.0],[-79.47117,9.06176,0.0],[-79.47107,9.06162,0.0],[-79.47093,9.06154,0.0],[-79.47091,9.06149,0.0],[-79.47093,9.06136,0.0],[-79.47099,9.06127,0.0],[-79.47105,9.06109,0.0],[-79.47109,9.06113,0.0],[-79.47113,9.0612,0.0],[-79.47126,9.06121,0.0],[-79.47164,9.06109,0.0],[-79.47247,9.06091,0.0],[-79.47318,9.06081,0.0],[-79.47326,9.06079,0.0],[-79.47339,9.06075,0.0],[-79.47355,9.0607,0.0],[-79.47434,9.06053,0.0],[-79.47473,9.06045,0.0],[-79.47492,9.06046,0.0],[-79.47497,9.06056,0.0],[-79.47508,9.0607,0.0],[-79.47521,9.06087,0.0],[-79.47541,9.0609,0.0],[-79.47565,9.06091,0.0],[-79.47613,9.06082,0.0],[-79.47646,9.06077,0.0],[-79.47674,9.0605,0.0],[-79.47687,9.06056,0.0],[-79.47721,9.06057,0.0],[-79.47744,9.06034,0.0],[-79.47758,9.0604,0.0],[-79.47785,9.06049,0.0],[-79.47824,9.06038,0.0],[-79.47841,9.06038,0.0],[-79.47873,9.06023,0.0],[-79.47883,9.06019,0.0],[-79.47887,9.06016,0.0],[-79.47891,9.06014,0.0],[-79.47894,9.06012,0.0],[-79.47897,9.06007,0.0],[-79.47899,9.06003,0.0],[-79.47903,9.05999,0.0],[-79.47908,9.05997,0.0],[-79.47914,9.05994,0.0],[-79.47923,9.05993,0.0],[-79.47934,9.05991,0.0],[-79.4795,9.05991,0.0],[-79.4798,9.05988,0.0]]]]}},{"type":"Feature","properties":{"uesi_id":"PAN_R8389079","nbhd_code":"PAN_R8389079_17","nbhd_name":"Rufina Alfaro"},"geometry":{"type":"MultiPolygon","coordinates":[[[[-79.47713,9.07944,0.0],[-79.48192,9.08242,0.0],[-79.48352,9.08656,0.0],[-79.48319,9.08664,0.0],[-79.48293,9.08665,0.0],[-79.48267,9.08677,0.0],[-79.48257,9.0868,0.0],[-79.48227,9.08688,0.0],[-79.48197,9.08695,0.0],[-79.48185,9.08694,0.0],[-79.48172,9.08688,0.0],[-79.48149,9.08684,0.0],[-79.48126,9.08684,0.0],[-79.48104,9.08696,0.0],[-79.4809,9.08705,0.0],[-79.48066,9.08718,0.0],[-79.48048,9.08729,0.0],[-79.48044,9.0874,0.0],[-79.48044,9.08758,0.0],[-79.48044,9.08777,0.0],[-79.48046,9.08793,0.0],[-79.48046,9.08807,0.0],[-79.48034,9.08818,0.0],[-79.48004,9.08827,0.0],[-79.47993,9.08823,0.0],[-79.47992,9.0881,0.0],[-79.47998,9.08794,0.0],[-79.47999,9.08782,0.0],[-79.47991,9.08776,0.0],[-79.47977,9.08779,0.0],[-79.47958,9.08795,0.0],[-79.47949,9.08804,0.0],[-79.4794,9.08811,0.0],[-79.47935,9.08828,0.0],[-79.47933,9.08844,0.0],[-79.47916,9.08851,0.0],[-79.47899,9.08847,0.0],[-79.47891,9.08828,0.0],[-79.47885,9.08813,0.0],[-79.47875,9.08809,0.0],[-79.47857,9.08808,0.0],[-79.47839,9.08811,0.0],[-79.47818,9.08806,0.0],[-79.47787,9.08803,0.0],[-79.47774,9.08803,0.0],[-79.47739,9.08819,0.0],[-79.47727,9.08835,0.0],[-79.47729,9.08845,0.0],[-79.47728,9.08853,0.0],[-79.47714,9.08878,0.0],[-79.47699,9.08896,0.0],[-79.47669,9.08902,0.0],[-79.47637,9.08894,0.0],[-79.47615,9.08885,0.0],[-79.47588,9.08872,0.0],[-79.47563,9.08868,0.0],[-79.47538,9.08864,0.0],[-79.47519,9.08866,0.0],[-79.47513,9.08871,0.0],[-79.47499,9.08882,0.0],[-79.47494,9.08893,0.0],[-79.47457,9.08901,0.0],[-79.47436,9.0891,0.0],[-79.47413,9.08927,0.0],[-79.47391,9.08947,0.0],[-79.47374,9.08955,0.0],[-79.47355,9.08959,0.0],[-79.47304,9.08949,0.0],[-79.47262,9.08946,0.0],[-79.47171,9.0894,0.0],[-79.47068,9.08924,0.0],[-79.47016,9.08908,0.0],[-79.47003,9.08884,0.0],[-79.47008,9.08865,0.0],[-79.47038,9.08836,0.0],[-79.47073,9.08804,0.0],[-79.47078,9.0877,0.0],[-79.47078,9.08732,0.0],[-79.47068,9.08697,0.0],[-79.47056,9.08652,0.0],[-79.47026,9.08632,0.0],[-79.47012,9.08632,0.0],[-79.47004,9.08643,0.0],[-79.47001,9.08673,0.0],[-79.46985,9.08694,0.0],[-79.46958,9.08712,0.0],[-79.4692,9.08733,0.0],[-79.46896,9.08735,0.0],[-79.46868,9.08727,0.0],[-79.46815,9.08717,0.0],[-79.46777,9.08713,0.0],[-79.46658,9.08696,0.0],[-79.4659,9.08666,0.0],[-79.46484,9.08622,0.0],[-79.46401,9.08578,0.0],[-79.46344,9.08535,0.0],[-79.46336,9.08515,0.0],[-79.46332,9.085,0.0],[-79.46329,9.08469,0.0],[-79.46352,9.08455,0.0],[-79.46377,9.08477,0.0],[-79.4639,9.08491,0.0],[-79.46401,9.08511,0.0],[-79.46414,9.08526,0.0],[-79.46422,9.08528,0.0],[-79.46431,9.08523,0.0],[-79.46434,9.08505,0.0],[-79.46436,9.08483,0.0],[-79.4644,9.08414,0.0],[-79.46433,9.08388,0.0],[-79.46423,9.08372,0.0],[-79.46405,9.08366,0.0],[-79.46368,9.08363,0.0],[-79.46335,9.08357,0.0],[-79.46234,9.08321,0.0],[-79.46161,9.08285,0.0],[-79.4614,9.08285,0.0],[-79.46119,9.08291,0.0],[-79.46097,9.08302,0.0],[-79.46072,9.0831,0.0],[-79.46022,9.08327,0.0],[-79.45963,9.08343,0.0],[-79.45904,9.08346,0.0],[-79.45824,9.08329,0.0],[-79.45782,9.0831,0.0],[-79.45712,9.08278,0.0],[-79.45665,9.08236,0.0],[-79.45642,9.08199,0.0],[-79.45641,9.08182,0.0],[-79.45654,9.08157,0.0],[-79.45678,9.08138,0.0],[-79.45697,9.0812,0.0],[-79.45727,9.08113,0.0],[-79.45795,9.08126,0.0],[-79.45841,9.08149,0.0],[-79.4587,9.08167,0.0],[-79.45894,9.08198,0.0],[-79.45918,9.08211,0.0],[-79.45934,9.08214,0.0],[-79.45943,9.08207,0.0],[-79.45943,9.08201,0.0],[-79.45943,9.0818,0.0],[-79.45935,9.08152,0.0],[-79.45916,9.08102,0.0],[-79.45903,9.08079,0.0],[-79.45886,9.0806,0.0],[-79.45858,9.08051,0.0],[-79.45814,9.08045,0.0],[-79.45766,9.08029,0.0],[-79.45713,9.08005,0.0],[-79.45653,9.08001,0.0],[-79.45603,9.08013,0.0],[-79.45576,9.08025,0.0],[-79.45551,9.08041,0.0],[-79.45537,9.08062,0.0],[-79.45529,9.08085,0.0],[-79.45513,9.08104,0.0],[-79.45469,9.08114,0.0],[-79.45425,9.08113,0.0],[-79.45389,9.08108,0.0],[-79.45364,9.0811,0.0],[-79.45278,9.08152,0.0],[-79.45212,9.08191,0.0],[-79.45184,9.08199,0.0],[-79.4517,9.08198,0.0],[-79.45144,9.08194,0.0],[-79.45137,9.08183,0.0],[-79.45131,9.08175,0.0],[-79.4511,9.08166,0.0],[-79.45096,9.08161,0.0],[-79.45083,9.08161,0.0],[-79.45067,9.0816,0.0],[-79.45021,9.08175,0.0],[-79.44962,9.08191,0.0],[-79.44927,9.08199,0.0],[-79.44916,9.08201,0.0],[-79.44832,9.08223,0.0],[-79.44819,9.08227,0.0],[-79.44797,9.08239,0.0],[-79.44776,9.08251,0.0],[-79.44733,9.08277,0.0],[-79.44707,9.08298,0.0],[-79.44679,9.08303,0.0],[-79.44671,9.08298,0.0],[-79.44655,9.08283,0.0],[-79.44643,9.08254,0.0],[-79.44642,9.08219,0.0],[-79.44614,9.08163,0.0],[-79.44571,9.08124,0.0],[-79.44469,9.08054,0.0],[-79.44421,9.08015,0.0],[-79.44378,9.07975,0.0],[-79.44338,9.07927,0.0],[-79.443,9.07864,0.0],[-79.44218,9.07698,0.0],[-79.44188,9.07548,0.0],[-79.44118,9.07383,0.0],[-79.44094,9.07302,0.0],[-79.44076,9.07211,0.0],[-79.4407,9.07176,0.0],[-79.44057,9.07113,0.0],[-79.44041,9.07041,0.0],[-79.44021,9.07014,0.0],[-79.43966,9.06969,0.0],[-79.43907,9.06929,0.0],[-79.43862,9.06925,0.0],[-79.43835,9.06929,0.0],[-79.43809,9.06932,0.0],[-79.43785,9.06928,0.0],[-79.43718,9.06902,0.0],[-79.43701,9.06887,0.0],[-79.43695,9.06874,0.0],[-79.43697,9.06859,0.0],[-79.43706,9.06841,0.0],[-79.43709,9.06815,0.0],[-79.43709,9.0675,0.0],[-79.43705,9.06731,0.0],[-79.43688,9.06691,0.0],[-79.43664,9.06647,0.0],[-79.43624,9.0661,0.0],[-79.43614,9.06591,0.0],[-79.43619,9.0657,0.0],[-79.43634,9.06551,0.0],[-79.43658,9.0649,0.0],[-79.43691,9.06447,0.0],[-79.43694,9.06408,0.0],[-79.43694,9.06321,0.0],[-79.43699,9.06282,0.0],[-79.43696,9.06248,0.0],[-79.43703,9.06223,0.0],[-79.43719,9.06185,0.0],[-79.43726,9.06134,0.0],[-79.4372,9.06095,0.0],[-79.43719,9.06077,0.0],[-79.4372,9.06054,0.0],[-79.4373,9.06013,0.0],[-79.4376,9.0595,0.0],[-79.43773,9.05907,0.0],[-79.43782,9.05864,0.0],[-79.43799,9.0583,0.0],[-79.43811,9.05813,0.0],[-79.43827,9.05786,0.0],[-79.43836,9.05764,0.0],[-79.43844,9.05752,0.0],[-79.43864,9.0574,0.0],[-79.43868,9.05739,0.0],[-79.4389,9.05728,0.0],[-79.43917,9.05727,0.0],[-79.43954,9.05737,0.0],[-79.43976,9.05734,0.0],[-79.43995,9.05728,0.0],[-79.44009,9.05711,0.0],[-79.44014,9.05688,0.0],[-79.44014,9.05673,0.0],[-79.44017,9.05658,0.0],[-79.44022,9.05642,0.0],[-79.44028,9.0563,0.0],[-79.44035,9.05608,0.0],[-79.44037,9.056,0.0],[-79.44039,9.05586,0.0],[-79.44042,9.05563,0.0],[-79.44034,9.05515,0.0],[-79.44029,9.05496,0.0],[-79.44018,9.05488,0.0],[-79.44015,9.05479,0.0],[-79.4401,9.05459,0.0],[-79.44007,9.05454,0.0],[-79.44003,9.0545,0.0],[-79.43999,9.05445,0.0],[-79.43985,9.05422,0.0],[-79.44006,9.0541,0.0],[-79.44134,9.05343,0.0],[-79.44201,9.05307,0.0],[-79.44358,9.05239,0.0],[-79.44429,9.05213,0.0],[-79.44558,9.05168,0.0],[-79.44623,9.05148,0.0],[-79.44757,9.05115,0.0],[-79.44838,9.051,0.0],[-79.44953,9.05078,0.0],[-79.45013,9.05072,0.0],[-79.45098,9.05061,0.0],[-79.4529,9.05038,0.0],[-79.45433,9.0502,0.0],[-79.45576,9.05,0.0],[-79.45674,9.04984,0.0],[-79.4575,9.04964,0.0],[-79.45933,9.04911,0.0],[-79.46003,9.04886,0.0],[-79.4603,9.0497,0.0],[-79.46041,9.05007,0.0],[-79.46053,9.05069,0.0],[-79.46091,9.05256,0.0],[-79.46139,9.05481,0.0],[-79.46158,9.05586,0.0],[-79.46173,9.05686,0.0],[-79.46196,9.05858,0.0],[-79.46208,9.05934,0.0],[-79.46214,9.06016,0.0],[-79.46218,9.06022,0.0],[-79.46227,9.06024,0.0],[-79.46289,9.06036,0.0],[-79.46432,9.06072,0.0],[-79.46476,9.06087,0.0],[-79.465,9.06109,0.0],[-79.46543,9.06163,0.0],[-79.46585,9.06215,0.0],[-79.46609,9.0624,0.0],[-79.46652,9.06283,0.0],[-79.46682,9.06295,0.0],[-79.46703,9.06299,0.0],[-79.46711,9.06294,0.0],[-79.46733,9.06284,0.0],[-79.46752,9.06276,0.0],[-79.46835,9.06276,0.0],[-79.46846,9.06275,0.0],[-79.4685,9.06272,0.0],[-79.46853,9.06266,0.0],[-79.46857,9.06226,0.0],[-79.46864,9.06196,0.0],[-79.46873,9.06183,0.0],[-79.46889,9.0617,0.0],[-79.46908,9.06166,0.0],[-79.46939,9.06161,0.0],[-79.46956,9.06145,0.0],[-79.46967,9.06124,0.0],[-79.46966,9.0608,0.0],[-79.46955,9.06035,0.0],[-79.46962,9.06015,0.0],[-79.46972,9.06005,0.0],[-79.46989,9.06001,0.0],[-79.47029,9.05997,0.0],[-79.47063,9.06006,0.0],[-79.47079,9.06015,0.0],[-79.47094,9.0603,0.0],[-79.47125,9.06025,0.0],[-79.47122,9.06034,0.0],[-79.47116,9.06059,0.0],[-79.47101,9.06078,0.0],[-79.47107,9.061,0.0],[-79.47105,9.06109,0.0],[-79.47099,9.06127,0.0],[-79.47093,9.06136,0.0],[-79.47091,9.06149,0.0],[-79.47093,9.06154,0.0],[-79.47107,9.06162,0.0],[-79.47117,9.06176,0.0],[-79.47114,9.0619,0.0],[-79.47109,9.06209,0.0],[-79.47119,9.0624,0.0],[-79.47117,9.06269,0.0],[-79.47119,9.06281,0.0],[-79.47113,9.06287,0.0],[-79.47109,9.06307,0.0],[-79.47121,9.06316,0.0],[-79.47118,9.06331,0.0],[-79.47121,9.06342,0.0],[-79.47135,9.06357,0.0],[-79.47146,9.06384,0.0],[-79.47179,9.06406,0.0],[-79.47181,9.06414,0.0],[-79.47169,9.06423,0.0],[-79.47167,9.06434,0.0],[-79.47181,9.06442,0.0],[-79.47198,9.06452,0.0],[-79.47211,9.06463,0.0],[-79.47213,9.0648,0.0],[-79.47215,9.06501,0.0],[-79.47216,9.06521,0.0],[-79.47186,9.06524,0.0],[-79.47176,9.06526,0.0],[-79.47168,9.0653,0.0],[-79.47158,9.06547,0.0],[-79.47154,9.06555,0.0],[-79.4715,9.06559,0.0],[-79.47144,9.06562,0.0],[-79.4714,9.06562,0.0],[-79.47134,9.06561,0.0],[-79.47131,9.06564,0.0],[-79.47128,9.06567,0.0],[-79.47126,9.06572,0.0],[-79.47126,9.06579,0.0],[-79.47126,9.06583,0.0],[-79.47128,9.06589,0.0],[-79.47133,9.06596,0.0],[-79.47137,9.06604,0.0],[-79.47137,9.06609,0.0],[-79.47136,9.06613,0.0],[-79.47132,9.06617,0.0],[-79.47127,9.06621,0.0],[-79.47124,9.06629,0.0],[-79.47123,9.06637,0.0],[-79.47123,9.06648,0.0],[-79.47128,9.06662,0.0],[-79.47138,9.06684,0.0],[-79.47144,9.06705,0.0],[-79.47144,9.06714,0.0],[-79.4714,9.06725,0.0],[-79.47135,9.06734,0.0],[-79.47129,9.06742,0.0],[-79.47122,9.06743,0.0],[-79.47118,9.06743,0.0],[-79.47114,9.06748,0.0],[-79.47112,9.0676,0.0],[-79.47112,9.06772,0.0],[-79.47113,9.06798,0.0],[-79.47117,9.0681,0.0],[-79.47116,9.06822,0.0],[-79.4711,9.06832,0.0],[-79.47099,9.06838,0.0],[-79.47089,9.0684,0.0],[-79.47082,9.06842,0.0],[-79.47073,9.0685,0.0],[-79.4707,9.06858,0.0],[-79.47068,9.0687,0.0],[-79.47061,9.06881,0.0],[-79.47051,9.06889,0.0],[-79.47041,9.06897,0.0],[-79.4703,9.06914,0.0],[-79.47023,9.06928,0.0],[-79.47015,9.06954,0.0],[-79.4701,9.06969,0.0],[-79.47004,9.06982,0.0],[-79.46997,9.06995,0.0],[-79.46991,9.07002,0.0],[-79.46985,9.07009,0.0],[-79.4698,9.07021,0.0],[-79.46985,9.07033,0.0],[-79.46991,9.0704,0.0],[-79.46999,9.0705,0.0],[-79.46998,9.07057,0.0],[-79.47002,9.07069,0.0],[-79.47005,9.07077,0.0],[-79.47005,9.07081,0.0],[-79.47001,9.07089,0.0],[-79.47002,9.07099,0.0],[-79.47007,9.07105,0.0],[-79.47021,9.07116,0.0],[-79.47034,9.07123,0.0],[-79.47047,9.07128,0.0],[-79.47063,9.07131,0.0],[-79.47073,9.07131,0.0],[-79.47084,9.07124,0.0],[-79.47094,9.07123,0.0],[-79.47104,9.07132,0.0],[-79.47114,9.07139,0.0],[-79.47127,9.07141,0.0],[-79.47136,9.07138,0.0],[-79.47142,9.07132,0.0],[-79.47159,9.07134,0.0],[-79.47168,9.07138,0.0],[-79.47207,9.07153,0.0],[-79.4725,9.07138,0.0],[-79.47328,9.0714,0.0],[-79.47344,9.07122,0.0],[-79.47374,9.07136,0.0],[-79.4741,9.07116,0.0],[-79.47466,9.07131,0.0],[-79.47485,9.07118,0.0],[-79.47505,9.07132,0.0],[-79.47532,9.07122,0.0],[-79.47569,9.07145,0.0],[-79.47656,9.07142,0.0],[-79.47701,9.07171,0.0],[-79.47713,9.07944,0.0]]]]}}]}