{"type":"FeatureCollection","name":"POL_R336075","crs":{"type":"name","properties":{"name":"urn:ogc:def:crs:OGC:1.3:CRS84"}},"features":[{"type":"Feature","properties":{"uesi_id":"POL_R336075","nbhd_code":"POL_R336075_1","nbhd_name":"Ochota"},"geometry":{"type":"MultiPolygon","coordinates":[[[[21.0015,52.2281,0.0],[21.0018,52.2277,0.0],[21.0047,52.2231,0.0],[21.005,52.2172,0.0],[21.0051,52.2168,0.0],[21.007,52.2107,0.0],[20.9984,52.2091,0.0],[20.9879,52.2103,0.0],[20.9835,52.1973,0.0],[20.982,52.1929,0.0],[20.9643,52.1971,0.0],[20.947,52.201,0.0],[20.9461,52.2014,0.0],[20.9453,52.2018,0.0],[20.9445,52.2024,0.0],[20.9431,52.2037,0.0],[20.9422,52.2043,0.0],[20.9384,52.208,0.0],[20.9376,52.2087,0.0],[20.9372,52.2091,0.0],[20.937,52.2092,0.0],[20.9361,52.2098,0.0],[20.9351,52.2103,0.0],[20.9343,52.2107,0.0],[20.9336,52.2109,0.0],[20.9331,52.211,0.0],[20.9327,52.2111,0.0],[20.9325,52.2114,0.0],[20.9326,52.2114,0.0],[20.9331,52.2116,0.0],[20.9337,52.2117,0.0],[20.9343,52.2119,0.0],[20.9383,52.2122,0.0],[20.9417,52.2135,0.0],[20.9443,52.2144,0.0],[20.9451,52.2145,0.0],[20.9497,52.2142,0.0],[20.952,52.2143,0.0],[20.9528,52.2143,0.0],[20.9546,52.2146,0.0],[20.955,52.2147,0.0],[20.9554,52.2149,0.0],[20.9564,52.2155,0.0],[20.9575,52.2166,0.0],[20.9592,52.2177,0.0],[20.9592,52.2181,0.0],[20.9608,52.2184,0.0],[20.9635,52.219,0.0],[20.965,52.2192,0.0],[20.9673,52.2197,0.0],[20.9683,52.22,0.0],[20.969,52.2195,0.0],[20.9714,52.2204,0.0],[20.9735,52.2214,0.0],[20.9757,52.222,0.0],[20.9765,52.222,0.0],[20.9769,52.2222,0.0],[20.9777,52.2225,0.0],[20.9822,52.2237,0.0],[20.9873,52.2247,0.0],[20.9899,52.2255,0.0],[20.9906,52.2255,0.0],[21.0015,52.2281,0.0]]]]}},{"type":"Feature","properties":{"uesi_id":"POL_R336075","nbhd_code":"POL_R336075_2","nbhd_name":"Rembertow"},"geometry":{"type":"MultiPolygon","coordinates":[[[[21.1324,52.2391,0.0],[21.1316,52.2395,0.0],[21.1308,52.2399,0.0],[21.1309,52.2404,0.0],[21.1302,52.2408,0.0],[21.1304,52.2409,0.0],[21.1315,52.2418,0.0],[21.1318,52.2421,0.0],[21.1325,52.2429,0.0],[21.1323,52.2434,0.0],[21.1313,52.2442,0.0],[21.1304,52.245,0.0],[21.1287,52.2463,0.0],[21.1272,52.2474,0.0],[21.1259,52.2485,0.0],[21.1242,52.2499,0.0],[21.1232,52.2506,0.0],[21.1228,52.251,0.0],[21.1223,52.2513,0.0],[21.122,52.2517,0.0],[21.1218,52.2524,0.0],[21.1189,52.2535,0.0],[21.1164,52.2553,0.0],[21.1143,52.2568,0.0],[21.1145,52.257,0.0],[21.1146,52.2573,0.0],[21.1146,52.2595,0.0],[21.1105,52.2597,0.0],[21.1076,52.2683,0.0],[21.1089,52.2685,0.0],[21.1086,52.2705,0.0],[21.1095,52.2708,0.0],[21.1078,52.2744,0.0],[21.123,52.2762,0.0],[21.1239,52.2763,0.0],[21.1419,52.2785,0.0],[21.1491,52.2793,0.0],[21.151,52.2805,0.0],[21.1519,52.2815,0.0],[21.1542,52.2825,0.0],[21.1559,52.2836,0.0],[21.1598,52.2846,0.0],[21.1613,52.2854,0.0],[21.1614,52.2857,0.0],[21.1619,52.2864,0.0],[21.1632,52.2885,0.0],[21.1639,52.2894,0.0],[21.1629,52.2915,0.0],[21.1635,52.2921,0.0],[21.1661,52.2903,0.0],[21.1693,52.2909,0.0],[21.1724,52.2886,0.0],[21.1722,52.2867,0.0],[21.1725,52.2865,0.0],[21.1717,52.2815,0.0],[21.1712,52.2774,0.0],[21.1706,52.2769,0.0],[21.1716,52.276,0.0],[21.1752,52.2729,0.0],[21.1758,52.2724,0.0],[21.1767,52.2718,0.0],[21.1777,52.2712,0.0],[21.1801,52.27,0.0],[21.1829,52.2685,0.0],[21.1839,52.2678,0.0],[21.1843,52.2673,0.0],[21.1847,52.2668,0.0],[21.1849,52.2661,0.0],[21.185,52.2655,0.0],[21.1844,52.2604,0.0],[21.1842,52.2598,0.0],[21.1838,52.2592,0.0],[21.1831,52.2585,0.0],[21.1824,52.2579,0.0],[21.1814,52.2574,0.0],[21.1793,52.2567,0.0],[21.1905,52.2562,0.0],[21.1912,52.25,0.0],[21.1902,52.2497,0.0],[21.1888,52.2523,0.0],[21.187,52.2518,0.0],[21.1869,52.2504,0.0],[21.1863,52.2502,0.0],[21.1862,52.2502,0.0],[21.1839,52.2497,0.0],[21.183,52.2495,0.0],[21.1835,52.2488,0.0],[21.1841,52.2477,0.0],[21.1846,52.2469,0.0],[21.184,52.2463,0.0],[21.1812,52.2458,0.0],[21.1769,52.2452,0.0],[21.1765,52.2451,0.0],[21.1734,52.2435,0.0],[21.1636,52.2416,0.0],[21.1632,52.2424,0.0],[21.1622,52.2422,0.0],[21.1617,52.243,0.0],[21.1564,52.242,0.0],[21.1556,52.242,0.0],[21.1533,52.2414,0.0],[21.1418,52.2391,0.0],[21.1394,52.2432,0.0],[21.1382,52.2432,0.0],[21.1374,52.2428,0.0],[21.1357,52.2415,0.0],[21.1341,52.2402,0.0],[21.1335,52.2396,0.0],[21.1331,52.2395,0.0],[21.1324,52.2391,0.0]]]]}},{"type":"Feature","properties":{"uesi_id":"POL_R336075","nbhd_code":"POL_R336075_3","nbhd_name":"Bemowo"},"geometry":{"type":"MultiPolygon","coordinates":[[[[20.8731,52.2167,0.0],[20.8746,52.2167,0.0],[20.8753,52.2248,0.0],[20.8741,52.2249,0.0],[20.8737,52.225,0.0],[20.8734,52.2251,0.0],[20.8732,52.2252,0.0],[20.8731,52.2253,0.0],[20.8729,52.2254,0.0],[20.8727,52.2255,0.0],[20.8725,52.2257,0.0],[20.8726,52.2257,0.0],[20.8727,52.2257,0.0],[20.8727,52.2258,0.0],[20.8727,52.2285,0.0],[20.8727,52.2287,0.0],[20.8728,52.2288,0.0],[20.8729,52.2289,0.0],[20.8731,52.2291,0.0],[20.878,52.2309,0.0],[20.8795,52.2319,0.0],[20.8797,52.232,0.0],[20.8804,52.232,0.0],[20.8807,52.2321,0.0],[20.8819,52.2321,0.0],[20.8873,52.2322,0.0],[20.8895,52.232,0.0],[20.893,52.2399,0.0],[20.8936,52.2425,0.0],[20.8938,52.2433,0.0],[20.8938,52.2435,0.0],[20.8938,52.2439,0.0],[20.8932,52.2441,0.0],[20.8921,52.2446,0.0],[20.8914,52.245,0.0],[20.8912,52.2453,0.0],[20.8911,52.2463,0.0],[20.8908,52.2471,0.0],[20.8876,52.2473,0.0],[20.885,52.2473,0.0],[20.885,52.248,0.0],[20.8846,52.2482,0.0],[20.8839,52.2473,0.0],[20.8836,52.2474,0.0],[20.8835,52.2475,0.0],[20.882,52.2478,0.0],[20.881,52.2479,0.0],[20.8799,52.2481,0.0],[20.8788,52.2483,0.0],[20.8778,52.2484,0.0],[20.8771,52.2485,0.0],[20.8758,52.2487,0.0],[20.8745,52.2489,0.0],[20.8737,52.2491,0.0],[20.8727,52.2493,0.0],[20.8723,52.2493,0.0],[20.8693,52.2494,0.0],[20.8677,52.2494,0.0],[20.867,52.2495,0.0],[20.8666,52.2496,0.0],[20.8657,52.2498,0.0],[20.8637,52.25,0.0],[20.8639,52.2504,0.0],[20.8673,52.2538,0.0],[20.8732,52.2597,0.0],[20.8748,52.2612,0.0],[20.8751,52.2615,0.0],[20.875,52.2618,0.0],[20.8756,52.2621,0.0],[20.8787,52.2652,0.0],[20.8788,52.2654,0.0],[20.8789,52.2663,0.0],[20.8797,52.2713,0.0],[20.8801,52.2733,0.0],[20.8812,52.2797,0.0],[20.884,52.2791,0.0],[20.8843,52.2791,0.0],[20.8848,52.2793,0.0],[20.8854,52.2797,0.0],[20.886,52.2806,0.0],[20.888,52.2802,0.0],[20.8891,52.2806,0.0],[20.8897,52.2798,0.0],[20.8904,52.2792,0.0],[20.8929,52.2775,0.0],[20.8937,52.2772,0.0],[20.9015,52.2754,0.0],[20.9159,52.272,0.0],[20.9166,52.2717,0.0],[20.9197,52.271,0.0],[20.9253,52.2699,0.0],[20.9307,52.2687,0.0],[20.9361,52.2677,0.0],[20.939,52.2671,0.0],[20.9415,52.2663,0.0],[20.9423,52.265,0.0],[20.9431,52.2647,0.0],[20.9434,52.265,0.0],[20.9474,52.2639,0.0],[20.9503,52.2631,0.0],[20.9536,52.2619,0.0],[20.9532,52.2615,0.0],[20.9518,52.2614,0.0],[20.9501,52.2596,0.0],[20.9472,52.2571,0.0],[20.9476,52.2565,0.0],[20.9449,52.2536,0.0],[20.9427,52.2522,0.0],[20.94,52.2507,0.0],[20.9382,52.2502,0.0],[20.9276,52.2444,0.0],[20.9269,52.2439,0.0],[20.9262,52.2434,0.0],[20.9255,52.2424,0.0],[20.9251,52.2413,0.0],[20.925,52.2413,0.0],[20.9249,52.2412,0.0],[20.925,52.2408,0.0],[20.9249,52.2404,0.0],[20.9248,52.2403,0.0],[20.9247,52.2403,0.0],[20.923,52.235,0.0],[20.9217,52.2309,0.0],[20.9214,52.2297,0.0],[20.9215,52.2298,0.0],[20.9215,52.2294,0.0],[20.9214,52.2292,0.0],[20.9214,52.2288,0.0],[20.9214,52.2285,0.0],[20.9216,52.2278,0.0],[20.9218,52.2273,0.0],[20.9222,52.2267,0.0],[20.9226,52.2259,0.0],[20.9229,52.2254,0.0],[20.923,52.225,0.0],[20.9237,52.2236,0.0],[20.9242,52.2225,0.0],[20.9244,52.2223,0.0],[20.9245,52.2223,0.0],[20.9245,52.2219,0.0],[20.9246,52.2216,0.0],[20.9245,52.2214,0.0],[20.9244,52.221,0.0],[20.9243,52.2206,0.0],[20.9241,52.2203,0.0],[20.9238,52.2199,0.0],[20.9235,52.2196,0.0],[20.923,52.2192,0.0],[20.9226,52.219,0.0],[20.9213,52.2183,0.0],[20.9206,52.2181,0.0],[20.9199,52.2179,0.0],[20.9188,52.2178,0.0],[20.9157,52.2173,0.0],[20.9157,52.2172,0.0],[20.9155,52.2172,0.0],[20.9147,52.2146,0.0],[20.9142,52.2145,0.0],[20.9141,52.2141,0.0],[20.8998,52.2123,0.0],[20.8877,52.2108,0.0],[20.885,52.2103,0.0],[20.8817,52.2097,0.0],[20.8811,52.2094,0.0],[20.8805,52.209,0.0],[20.8784,52.2091,0.0],[20.8784,52.2093,0.0],[20.8768,52.2094,0.0],[20.8709,52.2089,0.0],[20.8702,52.2099,0.0],[20.8702,52.2104,0.0],[20.871,52.2104,0.0],[20.8711,52.2112,0.0],[20.8714,52.2132,0.0],[20.8719,52.2153,0.0],[20.8728,52.2152,0.0],[20.873,52.2164,0.0],[20.8731,52.2164,0.0],[20.8731,52.2165,0.0],[20.8731,52.2167,0.0]]]]}},{"type":"Feature","properties":{"uesi_id":"POL_R336075","nbhd_code":"POL_R336075_4","nbhd_name":"Bialoleka"},"geometry":{"type":"MultiPolygon","coordinates":[[[[20.9962,52.2873,0.0],[20.9948,52.2884,0.0],[20.9935,52.2892,0.0],[20.9912,52.2905,0.0],[20.9879,52.2917,0.0],[20.9854,52.2926,0.0],[20.9821,52.2936,0.0],[20.9791,52.2943,0.0],[20.974,52.2951,0.0],[20.9705,52.2958,0.0],[20.9667,52.2969,0.0],[20.9626,52.2984,0.0],[20.9604,52.3001,0.0],[20.9576,52.3016,0.0],[20.9561,52.3026,0.0],[20.9554,52.3032,0.0],[20.9545,52.304,0.0],[20.9539,52.3046,0.0],[20.9525,52.3065,0.0],[20.9513,52.3078,0.0],[20.9497,52.3092,0.0],[20.9475,52.3107,0.0],[20.9457,52.3116,0.0],[20.9441,52.3124,0.0],[20.9421,52.3132,0.0],[20.9397,52.3139,0.0],[20.9373,52.3147,0.0],[20.9347,52.316,0.0],[20.9326,52.3172,0.0],[20.931,52.3182,0.0],[20.9294,52.3196,0.0],[20.9278,52.3214,0.0],[20.9266,52.3231,0.0],[20.9257,52.3248,0.0],[20.9252,52.3266,0.0],[20.925,52.328,0.0],[20.9251,52.3294,0.0],[20.9256,52.3346,0.0],[20.9258,52.3361,0.0],[20.9254,52.3375,0.0],[20.925,52.339,0.0],[20.925,52.3404,0.0],[20.9233,52.3436,0.0],[20.9215,52.3455,0.0],[20.9201,52.3466,0.0],[20.9165,52.3493,0.0],[20.9124,52.353,0.0],[20.9151,52.354,0.0],[20.923,52.357,0.0],[20.9241,52.3596,0.0],[20.9263,52.3596,0.0],[20.9269,52.3596,0.0],[20.9275,52.3595,0.0],[20.9284,52.3592,0.0],[20.9293,52.3589,0.0],[20.9301,52.3584,0.0],[20.9309,52.3579,0.0],[20.9314,52.3582,0.0],[20.9317,52.3584,0.0],[20.9329,52.3592,0.0],[20.9331,52.3592,0.0],[20.934,52.3598,0.0],[20.935,52.3593,0.0],[20.9351,52.3593,0.0],[20.9355,52.3591,0.0],[20.9359,52.3589,0.0],[20.9385,52.3581,0.0],[20.9389,52.3583,0.0],[20.9392,52.3584,0.0],[20.9359,52.3623,0.0],[20.9351,52.3632,0.0],[20.9355,52.363,0.0],[20.9358,52.363,0.0],[20.9393,52.3618,0.0],[20.9399,52.3625,0.0],[20.941,52.3638,0.0],[20.9436,52.3664,0.0],[20.944,52.366,0.0],[20.9452,52.3662,0.0],[20.9449,52.3667,0.0],[20.9482,52.3665,0.0],[20.9498,52.3664,0.0],[20.9504,52.3664,0.0],[20.9509,52.3665,0.0],[20.9517,52.3665,0.0],[20.9523,52.3665,0.0],[20.9527,52.3665,0.0],[20.953,52.3673,0.0],[20.9532,52.3676,0.0],[20.9533,52.3677,0.0],[20.9535,52.3678,0.0],[20.9542,52.3679,0.0],[20.9661,52.3682,0.0],[20.9708,52.3599,0.0],[20.9713,52.359,0.0],[20.9781,52.359,0.0],[20.9818,52.36,0.0],[20.9919,52.3628,0.0],[20.9947,52.3618,0.0],[20.995,52.3619,0.0],[20.9964,52.3621,0.0],[20.997,52.3623,0.0],[20.9986,52.3627,0.0],[20.999,52.3629,0.0],[20.9994,52.3632,0.0],[21.0,52.3633,0.0],[21.0021,52.3636,0.0],[21.0032,52.3636,0.0],[21.0044,52.3638,0.0],[21.0057,52.3641,0.0],[21.0082,52.3602,0.0],[21.0083,52.3601,0.0],[21.0083,52.3582,0.0],[21.0088,52.3571,0.0],[21.0099,52.3568,0.0],[21.0133,52.3568,0.0],[21.0136,52.356,0.0],[21.0207,52.357,0.0],[21.0215,52.3567,0.0],[21.0234,52.3574,0.0],[21.0243,52.36,0.0],[21.025,52.3609,0.0],[21.0254,52.3634,0.0],[21.0275,52.3651,0.0],[21.0282,52.3644,0.0],[21.0307,52.3617,0.0],[21.0408,52.363,0.0],[21.0443,52.364,0.0],[21.0487,52.3637,0.0],[21.0493,52.3618,0.0],[21.0541,52.3631,0.0],[21.0606,52.3626,0.0],[21.0615,52.3657,0.0],[21.0639,52.3656,0.0],[21.0661,52.366,0.0],[21.0738,52.3673,0.0],[21.0771,52.3593,0.0],[21.0762,52.3591,0.0],[21.0787,52.3536,0.0],[21.0815,52.354,0.0],[21.0857,52.3434,0.0],[21.0811,52.3431,0.0],[21.0826,52.3372,0.0],[21.0841,52.3373,0.0],[21.085,52.3373,0.0],[21.0855,52.3347,0.0],[21.0867,52.3327,0.0],[21.0875,52.3329,0.0],[21.0878,52.3323,0.0],[21.086,52.332,0.0],[21.0863,52.3314,0.0],[21.0877,52.3282,0.0],[21.0884,52.3265,0.0],[21.0889,52.3254,0.0],[21.0895,52.3238,0.0],[21.0821,52.3226,0.0],[21.0778,52.322,0.0],[21.0786,52.3199,0.0],[21.0794,52.3178,0.0],[21.0799,52.3166,0.0],[21.081,52.314,0.0],[21.0821,52.3116,0.0],[21.0836,52.3078,0.0],[21.0686,52.3079,0.0],[21.0658,52.3078,0.0],[21.0623,52.3074,0.0],[21.0621,52.3084,0.0],[21.0614,52.3083,0.0],[21.0606,52.307,0.0],[21.0573,52.3063,0.0],[21.0519,52.3049,0.0],[21.0518,52.3049,0.0],[21.0516,52.3049,0.0],[21.051,52.3048,0.0],[21.0502,52.3046,0.0],[21.0489,52.3041,0.0],[21.0475,52.3037,0.0],[21.046,52.3033,0.0],[21.0451,52.3031,0.0],[21.0442,52.3029,0.0],[21.0424,52.3024,0.0],[21.0423,52.3024,0.0],[21.0421,52.3023,0.0],[21.0419,52.3023,0.0],[21.0417,52.3022,0.0],[21.0414,52.3021,0.0],[21.041,52.302,0.0],[21.0409,52.3021,0.0],[21.0404,52.3019,0.0],[21.039,52.3016,0.0],[21.0377,52.3013,0.0],[21.0365,52.301,0.0],[21.0342,52.3005,0.0],[21.0332,52.3002,0.0],[21.0327,52.3001,0.0],[21.0319,52.2999,0.0],[21.0315,52.2998,0.0],[21.0244,52.2982,0.0],[21.0238,52.2988,0.0],[21.0229,52.2985,0.0],[21.0234,52.2978,0.0],[21.0208,52.2967,0.0],[21.018,52.2959,0.0],[21.0171,52.2969,0.0],[21.016,52.2966,0.0],[21.015,52.2974,0.0],[21.0146,52.2979,0.0],[21.013,52.2975,0.0],[21.0133,52.2966,0.0],[21.0131,52.2959,0.0],[21.0126,52.2957,0.0],[21.0131,52.2949,0.0],[21.0131,52.2948,0.0],[21.013,52.2946,0.0],[21.0127,52.2943,0.0],[21.0124,52.294,0.0],[21.012,52.2938,0.0],[21.0116,52.2936,0.0],[21.0105,52.2932,0.0],[21.0097,52.293,0.0],[21.006,52.2918,0.0],[21.0056,52.2917,0.0],[21.0052,52.2916,0.0],[21.0047,52.2916,0.0],[21.0044,52.292,0.0],[21.0029,52.2913,0.0],[21.0022,52.2921,0.0],[21.0017,52.2922,0.0],[21.0006,52.2933,0.0],[20.9992,52.2932,0.0],[20.9989,52.293,0.0],[20.9991,52.2928,0.0],[20.9983,52.2921,0.0],[20.9988,52.2917,0.0],[20.9988,52.2903,0.0],[20.9971,52.2894,0.0],[20.9971,52.2892,0.0],[20.9971,52.289,0.0],[20.997,52.2887,0.0],[20.9978,52.288,0.0],[20.9962,52.2873,0.0]]]]}},{"type":"Feature","properties":{"uesi_id":"POL_R336075","nbhd_code":"POL_R336075_5","nbhd_name":"Wesola"},"geometry":{"type":"MultiPolygon","coordinates":[[[[21.2617,52.2101,0.0],[21.2612,52.2099,0.0],[21.2598,52.2099,0.0],[21.2568,52.2096,0.0],[21.2541,52.2094,0.0],[21.2522,52.2085,0.0],[21.2506,52.2078,0.0],[21.2491,52.207,0.0],[21.2482,52.206,0.0],[21.2486,52.2042,0.0],[21.2509,52.2025,0.0],[21.2457,52.2009,0.0],[21.2452,52.2003,0.0],[21.243,52.1993,0.0],[21.243,52.1984,0.0],[21.2402,52.1959,0.0],[21.2388,52.1967,0.0],[21.2388,52.197,0.0],[21.2163,52.1974,0.0],[21.2162,52.2,0.0],[21.2157,52.2007,0.0],[21.2164,52.2011,0.0],[21.2158,52.202,0.0],[21.2155,52.2021,0.0],[21.2161,52.2029,0.0],[21.2165,52.2035,0.0],[21.2166,52.2047,0.0],[21.2184,52.2053,0.0],[21.2158,52.2083,0.0],[21.2146,52.2093,0.0],[21.2153,52.2122,0.0],[21.2132,52.2144,0.0],[21.2122,52.2143,0.0],[21.2065,52.2205,0.0],[21.2073,52.2206,0.0],[21.207,52.2227,0.0],[21.2071,52.224,0.0],[21.2073,52.2276,0.0],[21.2119,52.23,0.0],[21.2071,52.2332,0.0],[21.2052,52.2338,0.0],[21.2009,52.2347,0.0],[21.198,52.2344,0.0],[21.197,52.2346,0.0],[21.1924,52.2364,0.0],[21.1884,52.238,0.0],[21.184,52.2398,0.0],[21.1811,52.2417,0.0],[21.1765,52.2451,0.0],[21.1769,52.2452,0.0],[21.1812,52.2458,0.0],[21.184,52.2463,0.0],[21.1846,52.2469,0.0],[21.1841,52.2477,0.0],[21.1835,52.2488,0.0],[21.183,52.2495,0.0],[21.1839,52.2497,0.0],[21.1862,52.2502,0.0],[21.1863,52.2502,0.0],[21.1869,52.2504,0.0],[21.187,52.2518,0.0],[21.1888,52.2523,0.0],[21.1902,52.2497,0.0],[21.1912,52.25,0.0],[21.1905,52.2562,0.0],[21.2505,52.2627,0.0],[21.2524,52.2533,0.0],[21.2546,52.2532,0.0],[21.2537,52.2458,0.0],[21.2379,52.245,0.0],[21.2395,52.2363,0.0],[21.2438,52.2361,0.0],[21.2454,52.2361,0.0],[21.2488,52.2366,0.0],[21.2521,52.2381,0.0],[21.2539,52.2386,0.0],[21.2548,52.2387,0.0],[21.2544,52.2353,0.0],[21.2504,52.2319,0.0],[21.2495,52.2228,0.0],[21.2495,52.2227,0.0],[21.2495,52.2226,0.0],[21.2505,52.2226,0.0],[21.2503,52.2225,0.0],[21.2505,52.2222,0.0],[21.2507,52.2221,0.0],[21.2514,52.2213,0.0],[21.2543,52.2181,0.0],[21.2606,52.2113,0.0],[21.2617,52.2101,0.0]]]]}},{"type":"Feature","properties":{"uesi_id":"POL_R336075","nbhd_code":"POL_R336075_6","nbhd_name":"Bielany"},"geometry":{"type":"MultiPolygon","coordinates":[[[[20.8771,52.2941,0.0],[20.8772,52.2943,0.0],[20.8767,52.2955,0.0],[20.8764,52.2966,0.0],[20.8765,52.2972,0.0],[20.8765,52.2979,0.0],[20.8762,52.2987,0.0],[20.8787,52.3049,0.0],[20.8801,52.3084,0.0],[20.8809,52.3092,0.0],[20.8793,52.3117,0.0],[20.8762,52.314,0.0],[20.8763,52.3149,0.0],[20.8798,52.3138,0.0],[20.8869,52.3132,0.0],[20.8884,52.3132,0.0],[20.8886,52.3133,0.0],[20.8898,52.3136,0.0],[20.8898,52.3137,0.0],[20.8897,52.314,0.0],[20.8897,52.3141,0.0],[20.8897,52.3142,0.0],[20.8899,52.3144,0.0],[20.8901,52.315,0.0],[20.8904,52.3156,0.0],[20.8908,52.3164,0.0],[20.8915,52.3176,0.0],[20.893,52.3192,0.0],[20.895,52.3213,0.0],[20.8952,52.3214,0.0],[20.896,52.3217,0.0],[20.8977,52.3219,0.0],[20.8996,52.3222,0.0],[20.903,52.3225,0.0],[20.9066,52.3234,0.0],[20.9069,52.3227,0.0],[20.9071,52.3221,0.0],[20.9078,52.3222,0.0],[20.909,52.3227,0.0],[20.9102,52.324,0.0],[20.9105,52.3241,0.0],[20.9131,52.3218,0.0],[20.9221,52.3237,0.0],[20.9222,52.3243,0.0],[20.9222,52.3244,0.0],[20.9224,52.3251,0.0],[20.9226,52.3268,0.0],[20.9251,52.3294,0.0],[20.925,52.328,0.0],[20.9252,52.3266,0.0],[20.9257,52.3248,0.0],[20.9266,52.3231,0.0],[20.9278,52.3214,0.0],[20.9294,52.3196,0.0],[20.931,52.3182,0.0],[20.9326,52.3172,0.0],[20.9347,52.316,0.0],[20.9373,52.3147,0.0],[20.9397,52.3139,0.0],[20.9421,52.3132,0.0],[20.9441,52.3124,0.0],[20.9457,52.3116,0.0],[20.9475,52.3107,0.0],[20.9497,52.3092,0.0],[20.9513,52.3078,0.0],[20.9525,52.3065,0.0],[20.9539,52.3046,0.0],[20.9545,52.304,0.0],[20.9554,52.3032,0.0],[20.9561,52.3026,0.0],[20.9576,52.3016,0.0],[20.9604,52.3001,0.0],[20.9626,52.2984,0.0],[20.9667,52.2969,0.0],[20.9705,52.2958,0.0],[20.974,52.2951,0.0],[20.9791,52.2943,0.0],[20.9821,52.2936,0.0],[20.9854,52.2926,0.0],[20.9879,52.2917,0.0],[20.9912,52.2905,0.0],[20.9935,52.2892,0.0],[20.9948,52.2884,0.0],[20.9962,52.2873,0.0],[20.9937,52.2862,0.0],[20.9905,52.2848,0.0],[20.9896,52.2855,0.0],[20.9885,52.2858,0.0],[20.9875,52.2861,0.0],[20.9866,52.2864,0.0],[20.9855,52.2857,0.0],[20.9857,52.2852,0.0],[20.9858,52.2849,0.0],[20.9856,52.2838,0.0],[20.9855,52.2837,0.0],[20.9854,52.2835,0.0],[20.9852,52.2834,0.0],[20.9768,52.2793,0.0],[20.9766,52.2789,0.0],[20.9725,52.2768,0.0],[20.9701,52.2754,0.0],[20.967,52.2741,0.0],[20.9661,52.2744,0.0],[20.9653,52.2739,0.0],[20.965,52.2741,0.0],[20.9644,52.2737,0.0],[20.9642,52.2732,0.0],[20.9631,52.2715,0.0],[20.9601,52.2692,0.0],[20.9587,52.2683,0.0],[20.9578,52.2674,0.0],[20.9576,52.267,0.0],[20.9557,52.2635,0.0],[20.9545,52.2624,0.0],[20.9536,52.2619,0.0],[20.9503,52.2631,0.0],[20.9474,52.2639,0.0],[20.9434,52.265,0.0],[20.9431,52.2647,0.0],[20.9423,52.265,0.0],[20.9415,52.2663,0.0],[20.939,52.2671,0.0],[20.9361,52.2677,0.0],[20.9307,52.2687,0.0],[20.9253,52.2699,0.0],[20.9197,52.271,0.0],[20.9166,52.2717,0.0],[20.9159,52.272,0.0],[20.9015,52.2754,0.0],[20.8937,52.2772,0.0],[20.8929,52.2775,0.0],[20.8904,52.2792,0.0],[20.8897,52.2798,0.0],[20.8891,52.2806,0.0],[20.888,52.2802,0.0],[20.886,52.2806,0.0],[20.8854,52.2797,0.0],[20.8848,52.2793,0.0],[20.8843,52.2791,0.0],[20.884,52.2791,0.0],[20.8812,52.2797,0.0],[20.8758,52.2805,0.0],[20.8763,52.2874,0.0],[20.8771,52.2941,0.0]]]]}},{"type":"Feature","properties":{"uesi_id":"POL_R336075","nbhd_code":"POL_R336075_7","nbhd_name":"Mokotow"},"geometry":{"type":"MultiPolygon","coordinates":[[[[21.0309,52.2069,0.0],[21.0315,52.2069,0.0],[21.0324,52.207,0.0],[21.0328,52.207,0.0],[21.0349,52.2069,0.0],[21.0362,52.2095,0.0],[21.0363,52.2096,0.0],[21.0397,52.2096,0.0],[21.042,52.2096,0.0],[21.0447,52.2097,0.0],[21.0448,52.2097,0.0],[21.0449,52.2098,0.0],[21.0449,52.2099,0.0],[21.0451,52.2102,0.0],[21.0474,52.2114,0.0],[21.0464,52.2143,0.0],[21.0491,52.2147,0.0],[21.0494,52.214,0.0],[21.0543,52.2147,0.0],[21.054,52.2154,0.0],[21.0612,52.2166,0.0],[21.0613,52.2166,0.0],[21.0635,52.2189,0.0],[21.067,52.2187,0.0],[21.0701,52.2185,0.0],[21.0728,52.2186,0.0],[21.0753,52.2187,0.0],[21.0782,52.2187,0.0],[21.0805,52.2185,0.0],[21.0827,52.2182,0.0],[21.0853,52.2177,0.0],[21.0879,52.2171,0.0],[21.0904,52.2163,0.0],[21.0928,52.2154,0.0],[21.0929,52.2153,0.0],[21.0955,52.2139,0.0],[21.0992,52.2112,0.0],[21.1008,52.2097,0.0],[21.1025,52.2074,0.0],[21.1035,52.2056,0.0],[21.1041,52.2041,0.0],[21.1047,52.2015,0.0],[21.1047,52.1977,0.0],[21.1048,52.1966,0.0],[21.1054,52.1941,0.0],[21.1047,52.1937,0.0],[21.1039,52.1932,0.0],[21.1034,52.1925,0.0],[21.1026,52.1922,0.0],[21.1016,52.192,0.0],[21.1004,52.1914,0.0],[21.0999,52.191,0.0],[21.0996,52.1904,0.0],[21.0996,52.19,0.0],[21.0999,52.1895,0.0],[21.1001,52.1889,0.0],[21.0996,52.1873,0.0],[21.099,52.1866,0.0],[21.0979,52.1861,0.0],[21.0965,52.1859,0.0],[21.0955,52.1854,0.0],[21.0946,52.1828,0.0],[21.0945,52.1823,0.0],[21.0947,52.1817,0.0],[21.095,52.1809,0.0],[21.0898,52.1806,0.0],[21.0894,52.1812,0.0],[21.0815,52.1845,0.0],[21.0727,52.1793,0.0],[21.0726,52.1787,0.0],[21.0721,52.1784,0.0],[21.0708,52.1776,0.0],[21.0701,52.1774,0.0],[21.0698,52.177,0.0],[21.0694,52.1767,0.0],[21.0688,52.1764,0.0],[21.0678,52.1761,0.0],[21.0657,52.1754,0.0],[21.0655,52.1757,0.0],[21.0653,52.1756,0.0],[21.0656,52.1753,0.0],[21.066,52.1748,0.0],[21.065,52.1744,0.0],[21.0641,52.1741,0.0],[21.0642,52.174,0.0],[21.0662,52.1723,0.0],[21.0685,52.1702,0.0],[21.0679,52.1697,0.0],[21.0661,52.1697,0.0],[21.0656,52.1697,0.0],[21.065,52.1698,0.0],[21.0635,52.1701,0.0],[21.0618,52.1702,0.0],[21.06,52.1702,0.0],[21.0597,52.1702,0.0],[21.0588,52.1699,0.0],[21.0579,52.1698,0.0],[21.0571,52.1697,0.0],[21.0556,52.1696,0.0],[21.0545,52.1695,0.0],[21.0542,52.1695,0.0],[21.0538,52.1694,0.0],[21.0511,52.1714,0.0],[21.0477,52.1732,0.0],[21.0452,52.1745,0.0],[21.0433,52.1749,0.0],[21.0432,52.1739,0.0],[21.043,52.1734,0.0],[21.0422,52.1724,0.0],[21.0401,52.1707,0.0],[21.0398,52.1703,0.0],[21.0388,52.1695,0.0],[21.0374,52.1688,0.0],[21.0357,52.1681,0.0],[21.0306,52.1668,0.0],[21.0299,52.1667,0.0],[21.0285,52.1674,0.0],[21.028,52.1676,0.0],[21.0275,52.1676,0.0],[21.0257,52.1677,0.0],[21.0257,52.1675,0.0],[21.0254,52.1674,0.0],[21.0244,52.1668,0.0],[21.0243,52.1665,0.0],[21.0214,52.1665,0.0],[21.0207,52.1666,0.0],[21.0195,52.1668,0.0],[21.0197,52.1661,0.0],[21.0182,52.1642,0.0],[21.0167,52.1647,0.0],[21.0167,52.1648,0.0],[21.0158,52.1648,0.0],[21.0157,52.1655,0.0],[21.012,52.1655,0.0],[21.0114,52.1669,0.0],[21.0095,52.1674,0.0],[21.0086,52.1679,0.0],[21.008,52.1671,0.0],[21.0035,52.1681,0.0],[20.9976,52.1695,0.0],[20.9966,52.1695,0.0],[20.9883,52.1715,0.0],[20.9877,52.1706,0.0],[20.9868,52.1711,0.0],[20.9867,52.1804,0.0],[20.9867,52.1815,0.0],[20.9867,52.1816,0.0],[20.9866,52.1855,0.0],[20.9866,52.1872,0.0],[20.9865,52.1885,0.0],[20.9865,52.1892,0.0],[20.9864,52.1899,0.0],[20.9861,52.1903,0.0],[20.9858,52.1907,0.0],[20.9846,52.1918,0.0],[20.9841,52.1922,0.0],[20.9831,52.1926,0.0],[20.982,52.1929,0.0],[20.9835,52.1973,0.0],[20.9879,52.2103,0.0],[20.9984,52.2091,0.0],[21.007,52.2107,0.0],[21.0078,52.2108,0.0],[21.0096,52.211,0.0],[21.0159,52.2122,0.0],[21.0166,52.2123,0.0],[21.0173,52.2125,0.0],[21.0182,52.2128,0.0],[21.0207,52.2133,0.0],[21.0214,52.2129,0.0],[21.022,52.2131,0.0],[21.0245,52.2114,0.0],[21.0247,52.2112,0.0],[21.0249,52.211,0.0],[21.0253,52.2101,0.0],[21.0255,52.2098,0.0],[21.0257,52.2095,0.0],[21.0259,52.2093,0.0],[21.0286,52.2072,0.0],[21.0289,52.2071,0.0],[21.0294,52.2069,0.0],[21.0298,52.2068,0.0],[21.0302,52.2068,0.0],[21.0306,52.2068,0.0],[21.0309,52.2069,0.0]]]]}},{"type":"Feature","properties":{"uesi_id":"POL_R336075","nbhd_code":"POL_R336075_8","nbhd_name":"Praga-Poludnie"},"geometry":{"type":"MultiPolygon","coordinates":[[[[21.0929,52.2153,0.0],[21.0928,52.2154,0.0],[21.0904,52.2163,0.0],[21.0879,52.2171,0.0],[21.0853,52.2177,0.0],[21.0827,52.2182,0.0],[21.0805,52.2185,0.0],[21.0782,52.2187,0.0],[21.0753,52.2187,0.0],[21.0728,52.2186,0.0],[21.0701,52.2185,0.0],[21.067,52.2187,0.0],[21.0635,52.2189,0.0],[21.0609,52.2195,0.0],[21.0584,52.2202,0.0],[21.0558,52.2212,0.0],[21.0537,52.2223,0.0],[21.0522,52.2231,0.0],[21.0508,52.2242,0.0],[21.0499,52.2249,0.0],[21.0494,52.2254,0.0],[21.0489,52.2258,0.0],[21.0477,52.2271,0.0],[21.0465,52.2285,0.0],[21.0444,52.2311,0.0],[21.0423,52.2335,0.0],[21.0401,52.2357,0.0],[21.0385,52.2372,0.0],[21.0369,52.2386,0.0],[21.0405,52.2405,0.0],[21.0409,52.2406,0.0],[21.0408,52.2409,0.0],[21.0417,52.2413,0.0],[21.0423,52.2418,0.0],[21.0429,52.2424,0.0],[21.0433,52.243,0.0],[21.0436,52.243,0.0],[21.0437,52.2432,0.0],[21.0434,52.2432,0.0],[21.0434,52.2445,0.0],[21.0434,52.2456,0.0],[21.0435,52.2461,0.0],[21.0434,52.2462,0.0],[21.0435,52.2462,0.0],[21.0434,52.2464,0.0],[21.0435,52.247,0.0],[21.0436,52.2476,0.0],[21.0438,52.2476,0.0],[21.0438,52.2477,0.0],[21.0439,52.2479,0.0],[21.0437,52.248,0.0],[21.044,52.2484,0.0],[21.0442,52.2486,0.0],[21.0444,52.2486,0.0],[21.0445,52.2487,0.0],[21.0447,52.2489,0.0],[21.0449,52.249,0.0],[21.0449,52.2491,0.0],[21.0451,52.2492,0.0],[21.0452,52.2493,0.0],[21.0454,52.2495,0.0],[21.0457,52.2497,0.0],[21.0465,52.25,0.0],[21.0477,52.2505,0.0],[21.048,52.2506,0.0],[21.0485,52.2508,0.0],[21.0486,52.2508,0.0],[21.0487,52.2509,0.0],[21.0507,52.2517,0.0],[21.0528,52.2523,0.0],[21.0528,52.2524,0.0],[21.0531,52.2525,0.0],[21.0549,52.2529,0.0],[21.055,52.2529,0.0],[21.0551,52.253,0.0],[21.0551,52.2529,0.0],[21.056,52.2532,0.0],[21.0572,52.2538,0.0],[21.0578,52.254,0.0],[21.0582,52.2542,0.0],[21.0588,52.2543,0.0],[21.0591,52.2544,0.0],[21.0603,52.2549,0.0],[21.0612,52.2552,0.0],[21.0617,52.2554,0.0],[21.0622,52.2556,0.0],[21.0626,52.2558,0.0],[21.0631,52.256,0.0],[21.0632,52.256,0.0],[21.0632,52.2561,0.0],[21.0635,52.2562,0.0],[21.0638,52.2565,0.0],[21.064,52.2566,0.0],[21.0642,52.2568,0.0],[21.0645,52.257,0.0],[21.0648,52.2572,0.0],[21.0652,52.2575,0.0],[21.0656,52.2576,0.0],[21.066,52.2577,0.0],[21.0666,52.2579,0.0],[21.0668,52.2579,0.0],[21.0672,52.2579,0.0],[21.0678,52.258,0.0],[21.0681,52.258,0.0],[21.069,52.2581,0.0],[21.0695,52.2582,0.0],[21.0698,52.2583,0.0],[21.07,52.2583,0.0],[21.0702,52.2583,0.0],[21.0704,52.2583,0.0],[21.0712,52.2584,0.0],[21.0721,52.2585,0.0],[21.0725,52.2585,0.0],[21.073,52.2585,0.0],[21.0733,52.2586,0.0],[21.0742,52.259,0.0],[21.0756,52.2591,0.0],[21.0759,52.2591,0.0],[21.0758,52.2593,0.0],[21.0766,52.2594,0.0],[21.0793,52.2598,0.0],[21.0864,52.2604,0.0],[21.0883,52.2605,0.0],[21.0903,52.2604,0.0],[21.0991,52.26,0.0],[21.1043,52.2599,0.0],[21.1105,52.2597,0.0],[21.1146,52.2595,0.0],[21.1146,52.2573,0.0],[21.1145,52.257,0.0],[21.1143,52.2568,0.0],[21.1164,52.2553,0.0],[21.1189,52.2535,0.0],[21.1218,52.2524,0.0],[21.122,52.2517,0.0],[21.1223,52.2513,0.0],[21.1228,52.251,0.0],[21.1232,52.2506,0.0],[21.1242,52.2499,0.0],[21.1259,52.2485,0.0],[21.1272,52.2474,0.0],[21.1287,52.2463,0.0],[21.1304,52.245,0.0],[21.1313,52.2442,0.0],[21.1323,52.2434,0.0],[21.1325,52.2429,0.0],[21.1318,52.2421,0.0],[21.1315,52.2418,0.0],[21.1304,52.2409,0.0],[21.1302,52.2408,0.0],[21.1309,52.2404,0.0],[21.1308,52.2399,0.0],[21.1316,52.2395,0.0],[21.1324,52.2391,0.0],[21.1284,52.235,0.0],[21.1284,52.2349,0.0],[21.128,52.2344,0.0],[21.1279,52.234,0.0],[21.1278,52.2336,0.0],[21.1274,52.2333,0.0],[21.1263,52.2328,0.0],[21.1247,52.2325,0.0],[21.1195,52.2324,0.0],[21.112,52.2276,0.0],[21.1036,52.2221,0.0],[21.0978,52.2184,0.0],[21.0975,52.2185,0.0],[21.097,52.2182,0.0],[21.0967,52.2175,0.0],[21.0929,52.2153,0.0]]]]}},{"type":"Feature","properties":{"uesi_id":"POL_R336075","nbhd_code":"POL_R336075_9","nbhd_name":"Praga-Polnoc"},"geometry":{"type":"MultiPolygon","coordinates":[[[[21.0131,52.2948,0.0],[21.0138,52.2938,0.0],[21.0139,52.2935,0.0],[21.014,52.2932,0.0],[21.0138,52.2932,0.0],[21.0146,52.2917,0.0],[21.015,52.2911,0.0],[21.0156,52.2904,0.0],[21.0162,52.2899,0.0],[21.0169,52.2895,0.0],[21.0185,52.2883,0.0],[21.019,52.2879,0.0],[21.0199,52.287,0.0],[21.0204,52.2862,0.0],[21.0207,52.2861,0.0],[21.0207,52.286,0.0],[21.0206,52.2858,0.0],[21.0208,52.2851,0.0],[21.0208,52.2845,0.0],[21.0207,52.2825,0.0],[21.0206,52.2817,0.0],[21.0207,52.2811,0.0],[21.0208,52.2806,0.0],[21.0211,52.2798,0.0],[21.0231,52.2766,0.0],[21.0247,52.2738,0.0],[21.0258,52.2726,0.0],[21.0266,52.2721,0.0],[21.0271,52.2718,0.0],[21.0275,52.2716,0.0],[21.0282,52.2714,0.0],[21.0285,52.2713,0.0],[21.0303,52.2711,0.0],[21.0309,52.271,0.0],[21.0314,52.2709,0.0],[21.0319,52.2708,0.0],[21.0327,52.2705,0.0],[21.0347,52.2695,0.0],[21.0356,52.2691,0.0],[21.0366,52.2686,0.0],[21.0369,52.2686,0.0],[21.0379,52.2682,0.0],[21.038,52.2683,0.0],[21.0382,52.2681,0.0],[21.0383,52.2681,0.0],[21.0383,52.268,0.0],[21.0385,52.2679,0.0],[21.0385,52.268,0.0],[21.0386,52.268,0.0],[21.0387,52.268,0.0],[21.0388,52.2679,0.0],[21.0412,52.2674,0.0],[21.0425,52.267,0.0],[21.0439,52.2667,0.0],[21.0456,52.2661,0.0],[21.0495,52.265,0.0],[21.0535,52.264,0.0],[21.0548,52.2636,0.0],[21.0547,52.2636,0.0],[21.0552,52.2634,0.0],[21.0556,52.2633,0.0],[21.056,52.2635,0.0],[21.0564,52.2634,0.0],[21.0567,52.2634,0.0],[21.0601,52.2624,0.0],[21.0602,52.2624,0.0],[21.0643,52.2613,0.0],[21.0675,52.2604,0.0],[21.0707,52.2597,0.0],[21.073,52.2592,0.0],[21.0734,52.2591,0.0],[21.074,52.259,0.0],[21.0742,52.259,0.0],[21.0733,52.2586,0.0],[21.073,52.2585,0.0],[21.0725,52.2585,0.0],[21.0721,52.2585,0.0],[21.0712,52.2584,0.0],[21.0704,52.2583,0.0],[21.0702,52.2583,0.0],[21.07,52.2583,0.0],[21.0698,52.2583,0.0],[21.0695,52.2582,0.0],[21.069,52.2581,0.0],[21.0681,52.258,0.0],[21.0678,52.258,0.0],[21.0672,52.2579,0.0],[21.0668,52.2579,0.0],[21.0666,52.2579,0.0],[21.066,52.2577,0.0],[21.0656,52.2576,0.0],[21.0652,52.2575,0.0],[21.0648,52.2572,0.0],[21.0645,52.257,0.0],[21.0642,52.2568,0.0],[21.064,52.2566,0.0],[21.0638,52.2565,0.0],[21.0635,52.2562,0.0],[21.0632,52.2561,0.0],[21.0632,52.256,0.0],[21.0631,52.256,0.0],[21.0626,52.2558,0.0],[21.0622,52.2556,0.0],[21.0617,52.2554,0.0],[21.0612,52.2552,0.0],[21.0603,52.2549,0.0],[21.0591,52.2544,0.0],[21.0588,52.2543,0.0],[21.0582,52.2542,0.0],[21.0578,52.254,0.0],[21.0572,52.2538,0.0],[21.056,52.2532,0.0],[21.0551,52.2529,0.0],[21.0551,52.253,0.0],[21.055,52.2529,0.0],[21.0549,52.2529,0.0],[21.0531,52.2525,0.0],[21.0528,52.2524,0.0],[21.0528,52.2523,0.0],[21.0507,52.2517,0.0],[21.0487,52.2509,0.0],[21.0486,52.2508,0.0],[21.0485,52.2508,0.0],[21.048,52.2506,0.0],[21.0477,52.2505,0.0],[21.0465,52.25,0.0],[21.0457,52.2497,0.0],[21.0454,52.2495,0.0],[21.0452,52.2493,0.0],[21.0451,52.2492,0.0],[21.0449,52.2491,0.0],[21.0449,52.249,0.0],[21.0447,52.2489,0.0],[21.0445,52.2487,0.0],[21.0444,52.2486,0.0],[21.0442,52.2486,0.0],[21.044,52.2484,0.0],[21.0437,52.248,0.0],[21.0439,52.2479,0.0],[21.0438,52.2477,0.0],[21.0438,52.2476,0.0],[21.0436,52.2476,0.0],[21.0435,52.247,0.0],[21.0434,52.2464,0.0],[21.0435,52.2462,0.0],[21.0434,52.2462,0.0],[21.0435,52.2461,0.0],[21.0434,52.2456,0.0],[21.0434,52.2445,0.0],[21.0434,52.2432,0.0],[21.0437,52.2432,0.0],[21.0436,52.243,0.0],[21.0433,52.243,0.0],[21.0429,52.2424,0.0],[21.0423,52.2418,0.0],[21.0417,52.2413,0.0],[21.0408,52.2409,0.0],[21.0409,52.2406,0.0],[21.0405,52.2405,0.0],[21.0369,52.2386,0.0],[21.0356,52.2396,0.0],[21.0344,52.2405,0.0],[21.0329,52.2416,0.0],[21.0312,52.2426,0.0],[21.0293,52.2438,0.0],[21.0272,52.2451,0.0],[21.0252,52.2461,0.0],[21.0238,52.2469,0.0],[21.0231,52.2473,0.0],[21.0219,52.2482,0.0],[21.021,52.2489,0.0],[21.0197,52.2501,0.0],[21.0186,52.2512,0.0],[21.0175,52.2524,0.0],[21.0164,52.2535,0.0],[21.0157,52.2542,0.0],[21.014,52.2561,0.0],[21.0103,52.2601,0.0],[21.0094,52.2612,0.0],[21.0086,52.2622,0.0],[21.0078,52.2634,0.0],[21.0069,52.2649,0.0],[21.0063,52.2662,0.0],[21.0057,52.2674,0.0],[21.0054,52.2683,0.0],[21.0051,52.2691,0.0],[21.0049,52.2699,0.0],[21.0047,52.2708,0.0],[21.0046,52.2717,0.0],[21.0044,52.2729,0.0],[21.0044,52.2745,0.0],[21.0043,52.2755,0.0],[21.0041,52.2764,0.0],[21.0039,52.2773,0.0],[21.0035,52.2783,0.0],[21.0031,52.2794,0.0],[21.0025,52.2805,0.0],[21.002,52.2815,0.0],[21.0015,52.2822,0.0],[21.001,52.2828,0.0],[21.0003,52.2836,0.0],[20.9995,52.2846,0.0],[20.9985,52.2856,0.0],[20.9974,52.2865,0.0],[20.9962,52.2873,0.0],[20.9978,52.288,0.0],[20.997,52.2887,0.0],[20.9971,52.289,0.0],[20.9971,52.2892,0.0],[20.9971,52.2894,0.0],[20.9988,52.2903,0.0],[20.9988,52.2917,0.0],[20.9983,52.2921,0.0],[20.9991,52.2928,0.0],[20.9989,52.293,0.0],[20.9992,52.2932,0.0],[21.0006,52.2933,0.0],[21.0017,52.2922,0.0],[21.0022,52.2921,0.0],[21.0029,52.2913,0.0],[21.0044,52.292,0.0],[21.0047,52.2916,0.0],[21.0052,52.2916,0.0],[21.0056,52.2917,0.0],[21.006,52.2918,0.0],[21.0097,52.293,0.0],[21.0105,52.2932,0.0],[21.0116,52.2936,0.0],[21.012,52.2938,0.0],[21.0124,52.294,0.0],[21.0127,52.2943,0.0],[21.013,52.2946,0.0],[21.0131,52.2948,0.0]]]]}},{"type":"Feature","properties":{"uesi_id":"POL_R336075","nbhd_code":"POL_R336075_10","nbhd_name":"Srodmiescie"},"geometry":{"type":"MultiPolygon","coordinates":[[[[21.0369,52.2386,0.0],[21.0385,52.2372,0.0],[21.0401,52.2357,0.0],[21.0423,52.2335,0.0],[21.0444,52.2311,0.0],[21.0465,52.2285,0.0],[21.0477,52.2271,0.0],[21.0489,52.2258,0.0],[21.0494,52.2254,0.0],[21.0499,52.2249,0.0],[21.0508,52.2242,0.0],[21.0522,52.2231,0.0],[21.0537,52.2223,0.0],[21.0558,52.2212,0.0],[21.0584,52.2202,0.0],[21.0609,52.2195,0.0],[21.0635,52.2189,0.0],[21.0613,52.2166,0.0],[21.0612,52.2166,0.0],[21.054,52.2154,0.0],[21.0543,52.2147,0.0],[21.0494,52.214,0.0],[21.0491,52.2147,0.0],[21.0464,52.2143,0.0],[21.0474,52.2114,0.0],[21.0451,52.2102,0.0],[21.0449,52.2099,0.0],[21.0449,52.2098,0.0],[21.0448,52.2097,0.0],[21.0447,52.2097,0.0],[21.042,52.2096,0.0],[21.0397,52.2096,0.0],[21.0363,52.2096,0.0],[21.0362,52.2095,0.0],[21.0349,52.2069,0.0],[21.0328,52.207,0.0],[21.0324,52.207,0.0],[21.0315,52.2069,0.0],[21.0309,52.2069,0.0],[21.0306,52.2068,0.0],[21.0302,52.2068,0.0],[21.0298,52.2068,0.0],[21.0294,52.2069,0.0],[21.0289,52.2071,0.0],[21.0286,52.2072,0.0],[21.0259,52.2093,0.0],[21.0257,52.2095,0.0],[21.0255,52.2098,0.0],[21.0253,52.2101,0.0],[21.0249,52.211,0.0],[21.0247,52.2112,0.0],[21.0245,52.2114,0.0],[21.022,52.2131,0.0],[21.0214,52.2129,0.0],[21.0207,52.2133,0.0],[21.0182,52.2128,0.0],[21.0173,52.2125,0.0],[21.0166,52.2123,0.0],[21.0159,52.2122,0.0],[21.0096,52.211,0.0],[21.0078,52.2108,0.0],[21.007,52.2107,0.0],[21.0051,52.2168,0.0],[21.005,52.2172,0.0],[21.0047,52.2231,0.0],[21.0018,52.2277,0.0],[21.0015,52.2281,0.0],[21.0,52.2305,0.0],[20.9982,52.2332,0.0],[20.9972,52.2356,0.0],[20.997,52.236,0.0],[20.9956,52.2394,0.0],[20.9954,52.2397,0.0],[20.9952,52.24,0.0],[20.9938,52.2416,0.0],[20.9936,52.2419,0.0],[20.9893,52.2469,0.0],[20.9843,52.2527,0.0],[20.9837,52.2534,0.0],[20.9826,52.2546,0.0],[20.9825,52.2548,0.0],[20.9817,52.257,0.0],[20.9814,52.2579,0.0],[20.981,52.2594,0.0],[20.9816,52.2596,0.0],[20.9828,52.2596,0.0],[20.9835,52.2597,0.0],[20.9843,52.2597,0.0],[20.9849,52.2597,0.0],[20.9855,52.2598,0.0],[20.9866,52.2598,0.0],[20.9866,52.2596,0.0],[20.9876,52.2596,0.0],[20.9888,52.2596,0.0],[20.9888,52.2595,0.0],[20.989,52.2596,0.0],[20.9891,52.2596,0.0],[20.9893,52.2595,0.0],[20.9898,52.2595,0.0],[20.9902,52.2595,0.0],[20.9946,52.2594,0.0],[20.9948,52.2594,0.0],[20.995,52.2594,0.0],[20.9951,52.2594,0.0],[20.9975,52.2593,0.0],[20.9975,52.2594,0.0],[20.9992,52.2594,0.0],[20.9996,52.2591,0.0],[21.0001,52.2591,0.0],[21.0005,52.2591,0.0],[21.0026,52.2592,0.0],[21.0034,52.2594,0.0],[21.0035,52.2594,0.0],[21.0039,52.2594,0.0],[21.004,52.2595,0.0],[21.0047,52.2597,0.0],[21.0054,52.2599,0.0],[21.0056,52.2602,0.0],[21.0057,52.2603,0.0],[21.0058,52.2603,0.0],[21.0059,52.2602,0.0],[21.0065,52.2604,0.0],[21.0066,52.2603,0.0],[21.0094,52.2612,0.0],[21.0103,52.2601,0.0],[21.014,52.2561,0.0],[21.0157,52.2542,0.0],[21.0164,52.2535,0.0],[21.0175,52.2524,0.0],[21.0186,52.2512,0.0],[21.0197,52.2501,0.0],[21.021,52.2489,0.0],[21.0219,52.2482,0.0],[21.0231,52.2473,0.0],[21.0238,52.2469,0.0],[21.0252,52.2461,0.0],[21.0272,52.2451,0.0],[21.0293,52.2438,0.0],[21.0312,52.2426,0.0],[21.0329,52.2416,0.0],[21.0344,52.2405,0.0],[21.0356,52.2396,0.0],[21.0369,52.2386,0.0]]]]}},{"type":"Feature","properties":{"uesi_id":"POL_R336075","nbhd_code":"POL_R336075_11","nbhd_name":"Targowek"},"geometry":{"type":"MultiPolygon","coordinates":[[[[21.0369,52.2686,0.0],[21.0366,52.2686,0.0],[21.0356,52.2691,0.0],[21.0347,52.2695,0.0],[21.0327,52.2705,0.0],[21.0319,52.2708,0.0],[21.0314,52.2709,0.0],[21.0309,52.271,0.0],[21.0303,52.2711,0.0],[21.0285,52.2713,0.0],[21.0282,52.2714,0.0],[21.0275,52.2716,0.0],[21.0271,52.2718,0.0],[21.0266,52.2721,0.0],[21.0258,52.2726,0.0],[21.0247,52.2738,0.0],[21.0231,52.2766,0.0],[21.0211,52.2798,0.0],[21.0208,52.2806,0.0],[21.0207,52.2811,0.0],[21.0206,52.2817,0.0],[21.0207,52.2825,0.0],[21.0208,52.2845,0.0],[21.0208,52.2851,0.0],[21.0206,52.2858,0.0],[21.0207,52.286,0.0],[21.0207,52.2861,0.0],[21.0204,52.2862,0.0],[21.0199,52.287,0.0],[21.019,52.2879,0.0],[21.0185,52.2883,0.0],[21.0169,52.2895,0.0],[21.0162,52.2899,0.0],[21.0156,52.2904,0.0],[21.015,52.2911,0.0],[21.0146,52.2917,0.0],[21.0138,52.2932,0.0],[21.014,52.2932,0.0],[21.0139,52.2935,0.0],[21.0138,52.2938,0.0],[21.0131,52.2948,0.0],[21.0131,52.2949,0.0],[21.0126,52.2957,0.0],[21.0131,52.2959,0.0],[21.0133,52.2966,0.0],[21.013,52.2975,0.0],[21.0146,52.2979,0.0],[21.015,52.2974,0.0],[21.016,52.2966,0.0],[21.0171,52.2969,0.0],[21.018,52.2959,0.0],[21.0208,52.2967,0.0],[21.0234,52.2978,0.0],[21.0229,52.2985,0.0],[21.0238,52.2988,0.0],[21.0244,52.2982,0.0],[21.0315,52.2998,0.0],[21.0319,52.2999,0.0],[21.0327,52.3001,0.0],[21.0332,52.3002,0.0],[21.0342,52.3005,0.0],[21.0365,52.301,0.0],[21.0377,52.3013,0.0],[21.039,52.3016,0.0],[21.0404,52.3019,0.0],[21.0409,52.3021,0.0],[21.041,52.302,0.0],[21.0414,52.3021,0.0],[21.0417,52.3022,0.0],[21.0419,52.3023,0.0],[21.0421,52.3023,0.0],[21.0423,52.3024,0.0],[21.0424,52.3024,0.0],[21.0442,52.3029,0.0],[21.0451,52.3031,0.0],[21.046,52.3033,0.0],[21.0475,52.3037,0.0],[21.0489,52.3041,0.0],[21.0502,52.3046,0.0],[21.051,52.3048,0.0],[21.0516,52.3049,0.0],[21.0518,52.3049,0.0],[21.0519,52.3049,0.0],[21.0573,52.3063,0.0],[21.0606,52.307,0.0],[21.0614,52.3083,0.0],[21.0621,52.3084,0.0],[21.0623,52.3074,0.0],[21.0658,52.3078,0.0],[21.0686,52.3079,0.0],[21.0836,52.3078,0.0],[21.0855,52.3032,0.0],[21.0835,52.3029,0.0],[21.0842,52.3016,0.0],[21.0875,52.2955,0.0],[21.0882,52.2951,0.0],[21.095,52.2882,0.0],[21.0947,52.2881,0.0],[21.0956,52.2863,0.0],[21.098,52.2863,0.0],[21.0987,52.2865,0.0],[21.1001,52.2847,0.0],[21.1049,52.2741,0.0],[21.1078,52.2744,0.0],[21.1095,52.2708,0.0],[21.1086,52.2705,0.0],[21.1089,52.2685,0.0],[21.1076,52.2683,0.0],[21.1105,52.2597,0.0],[21.1043,52.2599,0.0],[21.0991,52.26,0.0],[21.0903,52.2604,0.0],[21.0883,52.2605,0.0],[21.0864,52.2604,0.0],[21.0793,52.2598,0.0],[21.0766,52.2594,0.0],[21.0758,52.2593,0.0],[21.0759,52.2591,0.0],[21.0756,52.2591,0.0],[21.0742,52.259,0.0],[21.074,52.259,0.0],[21.0734,52.2591,0.0],[21.073,52.2592,0.0],[21.0707,52.2597,0.0],[21.0675,52.2604,0.0],[21.0643,52.2613,0.0],[21.0602,52.2624,0.0],[21.0601,52.2624,0.0],[21.0567,52.2634,0.0],[21.0564,52.2634,0.0],[21.056,52.2635,0.0],[21.0556,52.2633,0.0],[21.0552,52.2634,0.0],[21.0547,52.2636,0.0],[21.0548,52.2636,0.0],[21.0535,52.264,0.0],[21.0495,52.265,0.0],[21.0456,52.2661,0.0],[21.0439,52.2667,0.0],[21.0425,52.267,0.0],[21.0412,52.2674,0.0],[21.0388,52.2679,0.0],[21.0387,52.268,0.0],[21.0386,52.268,0.0],[21.0385,52.268,0.0],[21.0385,52.2679,0.0],[21.0383,52.268,0.0],[21.0383,52.2681,0.0],[21.0382,52.2681,0.0],[21.038,52.2683,0.0],[21.0379,52.2682,0.0],[21.0369,52.2686,0.0]]]]}},{"type":"Feature","properties":{"uesi_id":"POL_R336075","nbhd_code":"POL_R336075_12","nbhd_name":"Ursus"},"geometry":{"type":"MultiPolygon","coordinates":[[[[20.8519,52.1997,0.0],[20.8522,52.1997,0.0],[20.8522,52.1998,0.0],[20.8519,52.1998,0.0],[20.8518,52.2003,0.0],[20.8517,52.2007,0.0],[20.8517,52.2008,0.0],[20.8517,52.201,0.0],[20.8519,52.2018,0.0],[20.8519,52.202,0.0],[20.852,52.2024,0.0],[20.8521,52.2029,0.0],[20.8523,52.2033,0.0],[20.8526,52.2037,0.0],[20.8528,52.2039,0.0],[20.8533,52.204,0.0],[20.8533,52.2041,0.0],[20.8529,52.2041,0.0],[20.8532,52.2045,0.0],[20.8536,52.2048,0.0],[20.8541,52.2052,0.0],[20.8546,52.2055,0.0],[20.8551,52.2059,0.0],[20.8556,52.2061,0.0],[20.8562,52.2064,0.0],[20.8568,52.2067,0.0],[20.8574,52.2069,0.0],[20.8581,52.2071,0.0],[20.8586,52.2072,0.0],[20.8587,52.2073,0.0],[20.8596,52.2075,0.0],[20.8611,52.2077,0.0],[20.8627,52.2079,0.0],[20.8627,52.2078,0.0],[20.8647,52.2081,0.0],[20.8646,52.2082,0.0],[20.8658,52.2083,0.0],[20.8686,52.2086,0.0],[20.8699,52.2088,0.0],[20.8706,52.2088,0.0],[20.8709,52.2089,0.0],[20.8768,52.2094,0.0],[20.8784,52.2093,0.0],[20.8784,52.2091,0.0],[20.8805,52.209,0.0],[20.8812,52.2089,0.0],[20.888,52.2063,0.0],[20.8935,52.2041,0.0],[20.8967,52.2027,0.0],[20.8979,52.2023,0.0],[20.8989,52.202,0.0],[20.9001,52.2017,0.0],[20.9,52.2,0.0],[20.9007,52.1995,0.0],[20.9016,52.199,0.0],[20.9023,52.1987,0.0],[20.9032,52.1983,0.0],[20.9045,52.198,0.0],[20.9063,52.1976,0.0],[20.9082,52.1968,0.0],[20.9105,52.196,0.0],[20.9105,52.1957,0.0],[20.9121,52.1943,0.0],[20.9132,52.1937,0.0],[20.9154,52.1927,0.0],[20.9158,52.1928,0.0],[20.9192,52.1938,0.0],[20.9175,52.1906,0.0],[20.9168,52.1895,0.0],[20.9166,52.1888,0.0],[20.9148,52.1858,0.0],[20.9139,52.1859,0.0],[20.9113,52.1858,0.0],[20.9109,52.1858,0.0],[20.9105,52.1858,0.0],[20.9092,52.1859,0.0],[20.9092,52.1856,0.0],[20.9092,52.1853,0.0],[20.9091,52.1849,0.0],[20.909,52.1845,0.0],[20.9041,52.1841,0.0],[20.904,52.1841,0.0],[20.9039,52.184,0.0],[20.9027,52.1841,0.0],[20.9027,52.184,0.0],[20.9022,52.1842,0.0],[20.9021,52.1843,0.0],[20.9016,52.1844,0.0],[20.9015,52.1844,0.0],[20.8998,52.1842,0.0],[20.8993,52.1841,0.0],[20.8977,52.1825,0.0],[20.8923,52.1825,0.0],[20.8856,52.1826,0.0],[20.882,52.1825,0.0],[20.8811,52.1825,0.0],[20.8803,52.1825,0.0],[20.8798,52.1825,0.0],[20.8787,52.1825,0.0],[20.8748,52.1824,0.0],[20.8745,52.1823,0.0],[20.8726,52.1824,0.0],[20.8715,52.1825,0.0],[20.8706,52.1825,0.0],[20.8695,52.1826,0.0],[20.8692,52.1826,0.0],[20.8672,52.1825,0.0],[20.8671,52.1908,0.0],[20.8634,52.1896,0.0],[20.8617,52.1892,0.0],[20.8615,52.1893,0.0],[20.856,52.1877,0.0],[20.8559,52.1879,0.0],[20.8561,52.188,0.0],[20.8564,52.1885,0.0],[20.8568,52.1891,0.0],[20.8569,52.1904,0.0],[20.8567,52.1913,0.0],[20.8562,52.192,0.0],[20.8546,52.194,0.0],[20.8542,52.1946,0.0],[20.8538,52.1953,0.0],[20.8531,52.1972,0.0],[20.8533,52.1972,0.0],[20.8533,52.1973,0.0],[20.853,52.1973,0.0],[20.8527,52.1979,0.0],[20.8521,52.1993,0.0],[20.852,52.1994,0.0],[20.8519,52.1997,0.0]]]]}},{"type":"Feature","properties":{"uesi_id":"POL_R336075","nbhd_code":"POL_R336075_13","nbhd_name":"Wola"},"geometry":{"type":"MultiPolygon","coordinates":[[[[21.0015,52.2281,0.0],[20.9906,52.2255,0.0],[20.9899,52.2255,0.0],[20.9873,52.2247,0.0],[20.9822,52.2237,0.0],[20.9777,52.2225,0.0],[20.9769,52.2222,0.0],[20.9765,52.222,0.0],[20.9757,52.222,0.0],[20.9735,52.2214,0.0],[20.9714,52.2204,0.0],[20.969,52.2195,0.0],[20.9683,52.22,0.0],[20.9673,52.2197,0.0],[20.965,52.2192,0.0],[20.9635,52.219,0.0],[20.9608,52.2184,0.0],[20.9592,52.2181,0.0],[20.9592,52.2177,0.0],[20.9575,52.2166,0.0],[20.9564,52.2155,0.0],[20.9554,52.2149,0.0],[20.955,52.2147,0.0],[20.9546,52.2146,0.0],[20.9528,52.2143,0.0],[20.952,52.2143,0.0],[20.9497,52.2142,0.0],[20.9451,52.2145,0.0],[20.9443,52.2144,0.0],[20.9417,52.2135,0.0],[20.9383,52.2122,0.0],[20.9343,52.2119,0.0],[20.9337,52.2117,0.0],[20.9331,52.2116,0.0],[20.9326,52.2114,0.0],[20.9325,52.2114,0.0],[20.9322,52.2113,0.0],[20.9305,52.2108,0.0],[20.9277,52.2098,0.0],[20.9268,52.2095,0.0],[20.9256,52.2095,0.0],[20.9256,52.2099,0.0],[20.9249,52.2099,0.0],[20.924,52.2101,0.0],[20.9233,52.2105,0.0],[20.9229,52.2109,0.0],[20.9226,52.2113,0.0],[20.9225,52.2117,0.0],[20.9226,52.2121,0.0],[20.9229,52.2126,0.0],[20.9233,52.2129,0.0],[20.9238,52.2132,0.0],[20.9244,52.2134,0.0],[20.9243,52.2135,0.0],[20.9238,52.2137,0.0],[20.9216,52.2135,0.0],[20.9183,52.2146,0.0],[20.9162,52.2144,0.0],[20.9147,52.2146,0.0],[20.9155,52.2172,0.0],[20.9157,52.2172,0.0],[20.9157,52.2173,0.0],[20.9188,52.2178,0.0],[20.9199,52.2179,0.0],[20.9206,52.2181,0.0],[20.9213,52.2183,0.0],[20.9226,52.219,0.0],[20.923,52.2192,0.0],[20.9235,52.2196,0.0],[20.9238,52.2199,0.0],[20.9241,52.2203,0.0],[20.9243,52.2206,0.0],[20.9244,52.221,0.0],[20.9245,52.2214,0.0],[20.9246,52.2216,0.0],[20.9245,52.2219,0.0],[20.9245,52.2223,0.0],[20.9244,52.2223,0.0],[20.9242,52.2225,0.0],[20.9237,52.2236,0.0],[20.923,52.225,0.0],[20.9229,52.2254,0.0],[20.9226,52.2259,0.0],[20.9222,52.2267,0.0],[20.9218,52.2273,0.0],[20.9216,52.2278,0.0],[20.9214,52.2285,0.0],[20.9214,52.2288,0.0],[20.9214,52.2292,0.0],[20.9215,52.2294,0.0],[20.9215,52.2298,0.0],[20.9214,52.2297,0.0],[20.9217,52.2309,0.0],[20.923,52.235,0.0],[20.9247,52.2403,0.0],[20.9248,52.2403,0.0],[20.9249,52.2404,0.0],[20.925,52.2408,0.0],[20.9249,52.2412,0.0],[20.925,52.2413,0.0],[20.9251,52.2413,0.0],[20.9255,52.2424,0.0],[20.9262,52.2434,0.0],[20.9269,52.2439,0.0],[20.9276,52.2444,0.0],[20.9382,52.2502,0.0],[20.94,52.2507,0.0],[20.9427,52.2522,0.0],[20.9449,52.2536,0.0],[20.9476,52.2565,0.0],[20.948,52.2568,0.0],[20.9502,52.2559,0.0],[20.9509,52.2557,0.0],[20.9516,52.2555,0.0],[20.9542,52.2554,0.0],[20.9547,52.2553,0.0],[20.9563,52.2555,0.0],[20.9585,52.2558,0.0],[20.96,52.2558,0.0],[20.962,52.2552,0.0],[20.9624,52.2551,0.0],[20.9631,52.255,0.0],[20.9632,52.255,0.0],[20.9633,52.255,0.0],[20.9645,52.2544,0.0],[20.9655,52.2543,0.0],[20.9656,52.2543,0.0],[20.9664,52.2546,0.0],[20.9697,52.2557,0.0],[20.97,52.2556,0.0],[20.9701,52.2556,0.0],[20.9705,52.2557,0.0],[20.9705,52.2558,0.0],[20.9711,52.256,0.0],[20.9726,52.2566,0.0],[20.9736,52.257,0.0],[20.9736,52.2571,0.0],[20.9794,52.2591,0.0],[20.9795,52.2591,0.0],[20.9796,52.259,0.0],[20.981,52.2594,0.0],[20.9814,52.2579,0.0],[20.9817,52.257,0.0],[20.9825,52.2548,0.0],[20.9826,52.2546,0.0],[20.9837,52.2534,0.0],[20.9843,52.2527,0.0],[20.9893,52.2469,0.0],[20.9936,52.2419,0.0],[20.9938,52.2416,0.0],[20.9952,52.24,0.0],[20.9954,52.2397,0.0],[20.9956,52.2394,0.0],[20.997,52.236,0.0],[20.9972,52.2356,0.0],[20.9982,52.2332,0.0],[21.0,52.2305,0.0],[21.0015,52.2281,0.0]]]]}},{"type":"Feature","properties":{"uesi_id":"POL_R336075","nbhd_code":"POL_R336075_14","nbhd_name":"Ursynow"},"geometry":{"type":"MultiPolygon","coordinates":[[[[20.9796,52.1295,0.0],[20.9796,52.1328,0.0],[20.9792,52.1339,0.0],[20.9847,52.1392,0.0],[20.983,52.1404,0.0],[20.9833,52.1409,0.0],[20.9839,52.142,0.0],[20.9846,52.1421,0.0],[20.9872,52.1419,0.0],[20.9881,52.1419,0.0],[20.9892,52.1419,0.0],[20.9889,52.1455,0.0],[20.9878,52.1546,0.0],[20.9869,52.1626,0.0],[20.9868,52.167,0.0],[20.9868,52.1711,0.0],[20.9877,52.1706,0.0],[20.9883,52.1715,0.0],[20.9966,52.1695,0.0],[20.9976,52.1695,0.0],[21.0035,52.1681,0.0],[21.008,52.1671,0.0],[21.0086,52.1679,0.0],[21.0095,52.1674,0.0],[21.0114,52.1669,0.0],[21.012,52.1655,0.0],[21.0157,52.1655,0.0],[21.0158,52.1648,0.0],[21.0167,52.1648,0.0],[21.0167,52.1647,0.0],[21.0182,52.1642,0.0],[21.0197,52.1661,0.0],[21.0195,52.1668,0.0],[21.0207,52.1666,0.0],[21.0214,52.1665,0.0],[21.0243,52.1665,0.0],[21.0244,52.1668,0.0],[21.0254,52.1674,0.0],[21.0257,52.1675,0.0],[21.0257,52.1677,0.0],[21.0275,52.1676,0.0],[21.028,52.1676,0.0],[21.0285,52.1674,0.0],[21.0299,52.1667,0.0],[21.0306,52.1668,0.0],[21.0357,52.1681,0.0],[21.0374,52.1688,0.0],[21.0388,52.1695,0.0],[21.0398,52.1703,0.0],[21.0401,52.1707,0.0],[21.0422,52.1724,0.0],[21.043,52.1734,0.0],[21.0432,52.1739,0.0],[21.0433,52.1749,0.0],[21.0452,52.1745,0.0],[21.0477,52.1732,0.0],[21.0511,52.1714,0.0],[21.0538,52.1694,0.0],[21.052,52.1691,0.0],[21.0515,52.169,0.0],[21.0497,52.1687,0.0],[21.0475,52.1683,0.0],[21.0467,52.1681,0.0],[21.0513,52.1642,0.0],[21.0523,52.1639,0.0],[21.0551,52.1612,0.0],[21.0573,52.1589,0.0],[21.0607,52.1555,0.0],[21.0614,52.1541,0.0],[21.0616,52.1537,0.0],[21.0617,52.1532,0.0],[21.0613,52.1529,0.0],[21.0612,52.1527,0.0],[21.0613,52.1524,0.0],[21.062,52.1519,0.0],[21.0624,52.1516,0.0],[21.0631,52.151,0.0],[21.066,52.1486,0.0],[21.0673,52.1475,0.0],[21.0696,52.1452,0.0],[21.0677,52.1444,0.0],[21.0715,52.14,0.0],[21.072,52.1392,0.0],[21.0721,52.1375,0.0],[21.0723,52.1372,0.0],[21.0738,52.1373,0.0],[21.0754,52.1354,0.0],[21.0771,52.1352,0.0],[21.0793,52.1359,0.0],[21.0803,52.1345,0.0],[21.0811,52.1333,0.0],[21.0812,52.133,0.0],[21.0814,52.1328,0.0],[21.0815,52.1325,0.0],[21.0823,52.131,0.0],[21.0826,52.1305,0.0],[21.0829,52.13,0.0],[21.0828,52.1297,0.0],[21.0833,52.129,0.0],[21.0837,52.1286,0.0],[21.0858,52.1269,0.0],[21.0866,52.1261,0.0],[21.0876,52.1249,0.0],[21.088,52.1244,0.0],[21.0885,52.124,0.0],[21.089,52.1234,0.0],[21.0891,52.1232,0.0],[21.0905,52.1217,0.0],[21.0912,52.1206,0.0],[21.0914,52.1204,0.0],[21.0923,52.1205,0.0],[21.0925,52.1204,0.0],[21.0917,52.1197,0.0],[21.0915,52.1185,0.0],[21.0886,52.1182,0.0],[21.0895,52.1174,0.0],[21.0904,52.1174,0.0],[21.0907,52.1176,0.0],[21.0916,52.1176,0.0],[21.0919,52.1166,0.0],[21.0923,52.1166,0.0],[21.094,52.1147,0.0],[21.0936,52.1146,0.0],[21.0881,52.1148,0.0],[21.0882,52.1144,0.0],[21.0897,52.1141,0.0],[21.0948,52.1139,0.0],[21.0962,52.112,0.0],[21.0959,52.1117,0.0],[21.096,52.1114,0.0],[21.0964,52.1114,0.0],[21.0967,52.111,0.0],[21.0964,52.1106,0.0],[21.0973,52.1104,0.0],[21.0979,52.1097,0.0],[21.0982,52.1088,0.0],[21.0984,52.1086,0.0],[21.0997,52.1082,0.0],[21.1003,52.1081,0.0],[21.1009,52.1081,0.0],[21.1012,52.1081,0.0],[21.1014,52.108,0.0],[21.1016,52.1079,0.0],[21.1018,52.1078,0.0],[21.1016,52.1077,0.0],[21.1019,52.1075,0.0],[21.102,52.1074,0.0],[21.1022,52.1073,0.0],[21.1025,52.1069,0.0],[21.1029,52.1064,0.0],[21.1035,52.1059,0.0],[21.1035,52.1058,0.0],[21.1024,52.1057,0.0],[21.1018,52.1057,0.0],[21.1016,52.1057,0.0],[21.1013,52.1056,0.0],[21.1007,52.1054,0.0],[21.1001,52.1052,0.0],[21.0999,52.1052,0.0],[21.0978,52.1048,0.0],[21.0967,52.1047,0.0],[21.096,52.1046,0.0],[21.0954,52.1045,0.0],[21.0948,52.1045,0.0],[21.0942,52.1045,0.0],[21.0924,52.1046,0.0],[21.0919,52.1046,0.0],[21.0918,52.1046,0.0],[21.0913,52.1045,0.0],[21.0893,52.1039,0.0],[21.0875,52.1033,0.0],[21.087,52.1031,0.0],[21.0866,52.1028,0.0],[21.0856,52.102,0.0],[21.0854,52.1019,0.0],[21.085,52.1015,0.0],[21.0836,52.0996,0.0],[21.0833,52.0992,0.0],[21.083,52.0989,0.0],[21.0826,52.0987,0.0],[21.0824,52.0985,0.0],[21.08,52.0979,0.0],[21.0799,52.0979,0.0],[21.0796,52.0979,0.0],[21.0788,52.0981,0.0],[21.0783,52.0983,0.0],[21.0776,52.0986,0.0],[21.0768,52.0992,0.0],[21.0759,52.0995,0.0],[21.0742,52.1004,0.0],[21.0722,52.1011,0.0],[21.071,52.1016,0.0],[21.07,52.102,0.0],[21.0695,52.1022,0.0],[21.0692,52.1023,0.0],[21.0683,52.1027,0.0],[21.0671,52.1033,0.0],[21.0657,52.1039,0.0],[21.0645,52.1043,0.0],[21.064,52.1045,0.0],[21.063,52.105,0.0],[21.0623,52.1054,0.0],[21.0603,52.1063,0.0],[21.0584,52.1071,0.0],[21.058,52.1072,0.0],[21.0565,52.1077,0.0],[21.0562,52.1076,0.0],[21.055,52.1079,0.0],[21.0543,52.108,0.0],[21.0525,52.1084,0.0],[21.052,52.1086,0.0],[21.0516,52.1087,0.0],[21.0508,52.109,0.0],[21.0505,52.1092,0.0],[21.0487,52.1103,0.0],[21.0483,52.1107,0.0],[21.0474,52.1112,0.0],[21.0467,52.1116,0.0],[21.0461,52.112,0.0],[21.0446,52.1127,0.0],[21.0437,52.113,0.0],[21.0436,52.1129,0.0],[21.0421,52.1119,0.0],[21.0419,52.1113,0.0],[21.0379,52.1086,0.0],[21.0381,52.1084,0.0],[21.0375,52.1081,0.0],[21.0372,52.1081,0.0],[21.0352,52.1067,0.0],[21.0358,52.1064,0.0],[21.0355,52.1062,0.0],[21.0245,52.1061,0.0],[21.0212,52.106,0.0],[21.0186,52.106,0.0],[21.0187,52.1037,0.0],[21.0184,52.1037,0.0],[21.0152,52.1036,0.0],[21.0133,52.1036,0.0],[21.0124,52.1036,0.0],[21.012,52.1036,0.0],[21.0117,52.1036,0.0],[21.0113,52.1036,0.0],[21.01,52.1036,0.0],[21.009,52.1036,0.0],[21.0088,52.1036,0.0],[21.0077,52.1035,0.0],[21.0049,52.1035,0.0],[21.0015,52.1035,0.0],[21.0003,52.1035,0.0],[20.9994,52.1035,0.0],[20.9987,52.1035,0.0],[20.9934,52.1035,0.0],[20.9919,52.1035,0.0],[20.9919,52.1034,0.0],[20.9919,52.1032,0.0],[20.9916,52.1031,0.0],[20.9869,52.1039,0.0],[20.9874,52.1051,0.0],[20.9845,52.1056,0.0],[20.9865,52.1099,0.0],[20.9865,52.1101,0.0],[20.9867,52.1106,0.0],[20.9849,52.1109,0.0],[20.9846,52.111,0.0],[20.9844,52.1111,0.0],[20.9837,52.1117,0.0],[20.9837,52.1118,0.0],[20.9838,52.1119,0.0],[20.9845,52.1127,0.0],[20.9871,52.1156,0.0],[20.9873,52.1157,0.0],[20.9863,52.1176,0.0],[20.9849,52.1204,0.0],[20.989,52.1237,0.0],[20.983,52.1237,0.0],[20.9825,52.1239,0.0],[20.9796,52.1276,0.0],[20.9796,52.1295,0.0]]]]}},{"type":"Feature","properties":{"uesi_id":"POL_R336075","nbhd_code":"POL_R336075_15","nbhd_name":"Wawer"},"geometry":{"type":"MultiPolygon","coordinates":[[[[21.1054,52.1941,0.0],[21.1048,52.1966,0.0],[21.1047,52.1977,0.0],[21.1047,52.2015,0.0],[21.1041,52.2041,0.0],[21.1035,52.2056,0.0],[21.1025,52.2074,0.0],[21.1008,52.2097,0.0],[21.0992,52.2112,0.0],[21.0955,52.2139,0.0],[21.0929,52.2153,0.0],[21.0967,52.2175,0.0],[21.097,52.2182,0.0],[21.0975,52.2185,0.0],[21.0978,52.2184,0.0],[21.1036,52.2221,0.0],[21.112,52.2276,0.0],[21.1195,52.2324,0.0],[21.1247,52.2325,0.0],[21.1263,52.2328,0.0],[21.1274,52.2333,0.0],[21.1278,52.2336,0.0],[21.1279,52.234,0.0],[21.128,52.2344,0.0],[21.1284,52.2349,0.0],[21.1284,52.235,0.0],[21.1324,52.2391,0.0],[21.1331,52.2395,0.0],[21.1335,52.2396,0.0],[21.1341,52.2402,0.0],[21.1357,52.2415,0.0],[21.1374,52.2428,0.0],[21.1382,52.2432,0.0],[21.1394,52.2432,0.0],[21.1418,52.2391,0.0],[21.1533,52.2414,0.0],[21.1556,52.242,0.0],[21.1564,52.242,0.0],[21.1617,52.243,0.0],[21.1622,52.2422,0.0],[21.1632,52.2424,0.0],[21.1636,52.2416,0.0],[21.1734,52.2435,0.0],[21.1765,52.2451,0.0],[21.1811,52.2417,0.0],[21.184,52.2398,0.0],[21.1884,52.238,0.0],[21.1924,52.2364,0.0],[21.197,52.2346,0.0],[21.198,52.2344,0.0],[21.2009,52.2347,0.0],[21.2052,52.2338,0.0],[21.2071,52.2332,0.0],[21.2119,52.23,0.0],[21.2073,52.2276,0.0],[21.2071,52.224,0.0],[21.207,52.2227,0.0],[21.2073,52.2206,0.0],[21.2065,52.2205,0.0],[21.2122,52.2143,0.0],[21.2132,52.2144,0.0],[21.2153,52.2122,0.0],[21.2146,52.2093,0.0],[21.2158,52.2083,0.0],[21.2184,52.2053,0.0],[21.2166,52.2047,0.0],[21.2165,52.2035,0.0],[21.2161,52.2029,0.0],[21.2155,52.2021,0.0],[21.2158,52.202,0.0],[21.2164,52.2011,0.0],[21.2157,52.2007,0.0],[21.2162,52.2,0.0],[21.2163,52.1974,0.0],[21.2388,52.197,0.0],[21.2388,52.1967,0.0],[21.2402,52.1959,0.0],[21.2654,52.186,0.0],[21.2634,52.184,0.0],[21.2598,52.1826,0.0],[21.27,52.1739,0.0],[21.2702,52.1738,0.0],[21.2712,52.1722,0.0],[21.27,52.172,0.0],[21.2696,52.1734,0.0],[21.2673,52.1733,0.0],[21.2675,52.1701,0.0],[21.2703,52.1696,0.0],[21.2708,52.1685,0.0],[21.2676,52.1684,0.0],[21.2677,52.1674,0.0],[21.2631,52.1674,0.0],[21.2624,52.1666,0.0],[21.2615,52.1657,0.0],[21.2611,52.1645,0.0],[21.2604,52.162,0.0],[21.2593,52.1613,0.0],[21.2566,52.1607,0.0],[21.2559,52.1593,0.0],[21.2556,52.1587,0.0],[21.254,52.1574,0.0],[21.2626,52.1531,0.0],[21.2623,52.1527,0.0],[21.2621,52.1525,0.0],[21.2557,52.1472,0.0],[21.2554,52.1474,0.0],[21.2549,52.1476,0.0],[21.2514,52.1495,0.0],[21.2471,52.1516,0.0],[21.2488,52.153,0.0],[21.247,52.1538,0.0],[21.2451,52.1546,0.0],[21.2425,52.1557,0.0],[21.2414,52.1561,0.0],[21.2392,52.157,0.0],[21.2378,52.1576,0.0],[21.2365,52.1582,0.0],[21.2347,52.1589,0.0],[21.2318,52.158,0.0],[21.2291,52.157,0.0],[21.2272,52.1564,0.0],[21.2263,52.156,0.0],[21.224,52.1553,0.0],[21.2209,52.1542,0.0],[21.2196,52.1538,0.0],[21.219,52.1532,0.0],[21.2182,52.1528,0.0],[21.217,52.1524,0.0],[21.2151,52.1518,0.0],[21.2149,52.152,0.0],[21.2137,52.1519,0.0],[21.2123,52.1517,0.0],[21.2085,52.1514,0.0],[21.2042,52.1509,0.0],[21.2033,52.1508,0.0],[21.2024,52.1507,0.0],[21.2013,52.1505,0.0],[21.1978,52.1502,0.0],[21.1886,52.1493,0.0],[21.1884,52.1505,0.0],[21.1859,52.1501,0.0],[21.1834,52.1497,0.0],[21.1783,52.1489,0.0],[21.1759,52.1485,0.0],[21.1759,52.1467,0.0],[21.1737,52.1461,0.0],[21.1714,52.1454,0.0],[21.1682,52.1451,0.0],[21.165,52.1447,0.0],[21.1631,52.1458,0.0],[21.1625,52.1467,0.0],[21.1619,52.1474,0.0],[21.1609,52.1484,0.0],[21.1597,52.1494,0.0],[21.1585,52.15,0.0],[21.1568,52.1508,0.0],[21.1545,52.1515,0.0],[21.152,52.1524,0.0],[21.1502,52.1531,0.0],[21.1486,52.1539,0.0],[21.1471,52.155,0.0],[21.1455,52.1564,0.0],[21.1447,52.1574,0.0],[21.144,52.1584,0.0],[21.1436,52.1593,0.0],[21.1433,52.1602,0.0],[21.143,52.1612,0.0],[21.1429,52.1624,0.0],[21.1424,52.1641,0.0],[21.1417,52.1654,0.0],[21.141,52.1667,0.0],[21.1401,52.1679,0.0],[21.1389,52.1693,0.0],[21.1379,52.1703,0.0],[21.1366,52.1714,0.0],[21.134,52.1731,0.0],[21.1315,52.1745,0.0],[21.1293,52.1754,0.0],[21.1266,52.1764,0.0],[21.1229,52.1778,0.0],[21.1212,52.1786,0.0],[21.119,52.1797,0.0],[21.1169,52.181,0.0],[21.1147,52.1825,0.0],[21.1122,52.1847,0.0],[21.1102,52.1868,0.0],[21.1084,52.1891,0.0],[21.1067,52.1917,0.0],[21.1059,52.1929,0.0],[21.1054,52.1941,0.0]]]]}},{"type":"Feature","properties":{"uesi_id":"POL_R336075","nbhd_code":"POL_R336075_16","nbhd_name":"Wilanow"},"geometry":{"type":"MultiPolygon","coordinates":[[[[21.1332,52.123,0.0],[21.1324,52.1234,0.0],[21.1315,52.125,0.0],[21.1307,52.1255,0.0],[21.13,52.1269,0.0],[21.1295,52.1272,0.0],[21.1271,52.1261,0.0],[21.1268,52.1255,0.0],[21.1264,52.1241,0.0],[21.126,52.1242,0.0],[21.1251,52.1225,0.0],[21.1238,52.1211,0.0],[21.1229,52.1204,0.0],[21.121,52.1194,0.0],[21.1192,52.1188,0.0],[21.1179,52.1185,0.0],[21.1165,52.1188,0.0],[21.116,52.1186,0.0],[21.1112,52.1157,0.0],[21.1089,52.1145,0.0],[21.1101,52.1132,0.0],[21.1096,52.113,0.0],[21.1089,52.1126,0.0],[21.1086,52.1125,0.0],[21.1073,52.1119,0.0],[21.1048,52.1106,0.0],[21.1019,52.1092,0.0],[21.1001,52.1084,0.0],[21.1007,52.1082,0.0],[21.1009,52.1081,0.0],[21.1003,52.1081,0.0],[21.0997,52.1082,0.0],[21.0984,52.1086,0.0],[21.0982,52.1088,0.0],[21.0979,52.1097,0.0],[21.0973,52.1104,0.0],[21.0964,52.1106,0.0],[21.0967,52.111,0.0],[21.0964,52.1114,0.0],[21.096,52.1114,0.0],[21.0959,52.1117,0.0],[21.0962,52.112,0.0],[21.0948,52.1139,0.0],[21.0897,52.1141,0.0],[21.0882,52.1144,0.0],[21.0881,52.1148,0.0],[21.0936,52.1146,0.0],[21.094,52.1147,0.0],[21.0923,52.1166,0.0],[21.0919,52.1166,0.0],[21.0916,52.1176,0.0],[21.0907,52.1176,0.0],[21.0904,52.1174,0.0],[21.0895,52.1174,0.0],[21.0886,52.1182,0.0],[21.0915,52.1185,0.0],[21.0917,52.1197,0.0],[21.0925,52.1204,0.0],[21.0923,52.1205,0.0],[21.0914,52.1204,0.0],[21.0912,52.1206,0.0],[21.0905,52.1217,0.0],[21.0891,52.1232,0.0],[21.089,52.1234,0.0],[21.0885,52.124,0.0],[21.088,52.1244,0.0],[21.0876,52.1249,0.0],[21.0866,52.1261,0.0],[21.0858,52.1269,0.0],[21.0837,52.1286,0.0],[21.0833,52.129,0.0],[21.0828,52.1297,0.0],[21.0829,52.13,0.0],[21.0826,52.1305,0.0],[21.0823,52.131,0.0],[21.0815,52.1325,0.0],[21.0814,52.1328,0.0],[21.0812,52.133,0.0],[21.0811,52.1333,0.0],[21.0803,52.1345,0.0],[21.0793,52.1359,0.0],[21.0771,52.1352,0.0],[21.0754,52.1354,0.0],[21.0738,52.1373,0.0],[21.0723,52.1372,0.0],[21.0721,52.1375,0.0],[21.072,52.1392,0.0],[21.0715,52.14,0.0],[21.0677,52.1444,0.0],[21.0696,52.1452,0.0],[21.0673,52.1475,0.0],[21.066,52.1486,0.0],[21.0631,52.151,0.0],[21.0624,52.1516,0.0],[21.062,52.1519,0.0],[21.0613,52.1524,0.0],[21.0612,52.1527,0.0],[21.0613,52.1529,0.0],[21.0617,52.1532,0.0],[21.0616,52.1537,0.0],[21.0614,52.1541,0.0],[21.0607,52.1555,0.0],[21.0573,52.1589,0.0],[21.0551,52.1612,0.0],[21.0523,52.1639,0.0],[21.0513,52.1642,0.0],[21.0467,52.1681,0.0],[21.0475,52.1683,0.0],[21.0497,52.1687,0.0],[21.0515,52.169,0.0],[21.052,52.1691,0.0],[21.0538,52.1694,0.0],[21.0542,52.1695,0.0],[21.0545,52.1695,0.0],[21.0556,52.1696,0.0],[21.0571,52.1697,0.0],[21.0579,52.1698,0.0],[21.0588,52.1699,0.0],[21.0597,52.1702,0.0],[21.06,52.1702,0.0],[21.0618,52.1702,0.0],[21.0635,52.1701,0.0],[21.065,52.1698,0.0],[21.0656,52.1697,0.0],[21.0661,52.1697,0.0],[21.0679,52.1697,0.0],[21.0685,52.1702,0.0],[21.0662,52.1723,0.0],[21.0642,52.174,0.0],[21.0641,52.1741,0.0],[21.065,52.1744,0.0],[21.066,52.1748,0.0],[21.0656,52.1753,0.0],[21.0653,52.1756,0.0],[21.0655,52.1757,0.0],[21.0657,52.1754,0.0],[21.0678,52.1761,0.0],[21.0688,52.1764,0.0],[21.0694,52.1767,0.0],[21.0698,52.177,0.0],[21.0701,52.1774,0.0],[21.0708,52.1776,0.0],[21.0721,52.1784,0.0],[21.0726,52.1787,0.0],[21.0727,52.1793,0.0],[21.0815,52.1845,0.0],[21.0894,52.1812,0.0],[21.0898,52.1806,0.0],[21.095,52.1809,0.0],[21.0947,52.1817,0.0],[21.0945,52.1823,0.0],[21.0946,52.1828,0.0],[21.0955,52.1854,0.0],[21.0965,52.1859,0.0],[21.0979,52.1861,0.0],[21.099,52.1866,0.0],[21.0996,52.1873,0.0],[21.1001,52.1889,0.0],[21.0999,52.1895,0.0],[21.0996,52.19,0.0],[21.0996,52.1904,0.0],[21.0999,52.191,0.0],[21.1004,52.1914,0.0],[21.1016,52.192,0.0],[21.1026,52.1922,0.0],[21.1034,52.1925,0.0],[21.1039,52.1932,0.0],[21.1047,52.1937,0.0],[21.1054,52.1941,0.0],[21.1059,52.1929,0.0],[21.1067,52.1917,0.0],[21.1084,52.1891,0.0],[21.1102,52.1868,0.0],[21.1122,52.1847,0.0],[21.1147,52.1825,0.0],[21.1169,52.181,0.0],[21.119,52.1797,0.0],[21.1212,52.1786,0.0],[21.1229,52.1778,0.0],[21.1266,52.1764,0.0],[21.1293,52.1754,0.0],[21.1315,52.1745,0.0],[21.134,52.1731,0.0],[21.1366,52.1714,0.0],[21.1379,52.1703,0.0],[21.1389,52.1693,0.0],[21.1401,52.1679,0.0],[21.141,52.1667,0.0],[21.1417,52.1654,0.0],[21.1424,52.1641,0.0],[21.1429,52.1624,0.0],[21.143,52.1612,0.0],[21.1433,52.1602,0.0],[21.1436,52.1593,0.0],[21.144,52.1584,0.0],[21.1447,52.1574,0.0],[21.1455,52.1564,0.0],[21.1471,52.155,0.0],[21.1486,52.1539,0.0],[21.1502,52.1531,0.0],[21.152,52.1524,0.0],[21.1545,52.1515,0.0],[21.1568,52.1508,0.0],[21.1585,52.15,0.0],[21.1597,52.1494,0.0],[21.1609,52.1484,0.0],[21.1619,52.1474,0.0],[21.1625,52.1467,0.0],[21.1631,52.1458,0.0],[21.165,52.1447,0.0],[21.1594,52.1441,0.0],[21.1547,52.1436,0.0],[21.1532,52.1427,0.0],[21.1531,52.1423,0.0],[21.1539,52.1405,0.0],[21.1537,52.1401,0.0],[21.1519,52.1398,0.0],[21.1502,52.1398,0.0],[21.1478,52.1385,0.0],[21.1452,52.1356,0.0],[21.1417,52.1335,0.0],[21.1401,52.1329,0.0],[21.1403,52.1326,0.0],[21.1405,52.1324,0.0],[21.1405,52.132,0.0],[21.1402,52.1318,0.0],[21.1401,52.1316,0.0],[21.1394,52.1316,0.0],[21.1392,52.1315,0.0],[21.1389,52.1315,0.0],[21.1387,52.1313,0.0],[21.1387,52.1312,0.0],[21.1388,52.1311,0.0],[21.1389,52.1311,0.0],[21.1382,52.1302,0.0],[21.1371,52.129,0.0],[21.1368,52.1288,0.0],[21.1365,52.1285,0.0],[21.1358,52.1277,0.0],[21.1354,52.1266,0.0],[21.135,52.1252,0.0],[21.1347,52.1235,0.0],[21.1332,52.123,0.0]]]]}},{"type":"Feature","properties":{"uesi_id":"POL_R336075","nbhd_code":"POL_R336075_17","nbhd_name":"Wlochy"},"geometry":{"type":"MultiPolygon","coordinates":[[[[20.983,52.1404,0.0],[20.9776,52.1435,0.0],[20.9759,52.1441,0.0],[20.9737,52.1445,0.0],[20.9705,52.1452,0.0],[20.9697,52.1454,0.0],[20.9649,52.1472,0.0],[20.9624,52.1481,0.0],[20.9584,52.1499,0.0],[20.9578,52.1505,0.0],[20.9548,52.1525,0.0],[20.9538,52.153,0.0],[20.9538,52.1561,0.0],[20.9478,52.157,0.0],[20.947,52.1572,0.0],[20.9465,52.1574,0.0],[20.9452,52.1581,0.0],[20.9445,52.1582,0.0],[20.943,52.1585,0.0],[20.9426,52.1586,0.0],[20.9388,52.1598,0.0],[20.9377,52.1601,0.0],[20.9372,52.1603,0.0],[20.935,52.1612,0.0],[20.9329,52.162,0.0],[20.93,52.1633,0.0],[20.9305,52.164,0.0],[20.9289,52.1645,0.0],[20.9274,52.165,0.0],[20.9256,52.1656,0.0],[20.9239,52.1662,0.0],[20.9254,52.1672,0.0],[20.925,52.1675,0.0],[20.9248,52.1677,0.0],[20.9247,52.1679,0.0],[20.9247,52.1684,0.0],[20.9236,52.1688,0.0],[20.9232,52.1689,0.0],[20.9234,52.169,0.0],[20.9234,52.1693,0.0],[20.9228,52.1695,0.0],[20.9228,52.1696,0.0],[20.9225,52.1697,0.0],[20.9223,52.1698,0.0],[20.9219,52.1701,0.0],[20.9216,52.1705,0.0],[20.9213,52.1707,0.0],[20.9211,52.1709,0.0],[20.9209,52.171,0.0],[20.9203,52.171,0.0],[20.9195,52.1711,0.0],[20.9192,52.1711,0.0],[20.9192,52.1716,0.0],[20.9192,52.1733,0.0],[20.9191,52.174,0.0],[20.9191,52.1743,0.0],[20.9192,52.1765,0.0],[20.9191,52.1768,0.0],[20.919,52.1769,0.0],[20.9187,52.177,0.0],[20.9184,52.1771,0.0],[20.9187,52.1774,0.0],[20.9176,52.1777,0.0],[20.9168,52.1778,0.0],[20.917,52.1785,0.0],[20.9141,52.179,0.0],[20.9118,52.1794,0.0],[20.9112,52.1796,0.0],[20.9113,52.1797,0.0],[20.9115,52.1801,0.0],[20.9134,52.1835,0.0],[20.9148,52.1858,0.0],[20.9166,52.1888,0.0],[20.9168,52.1895,0.0],[20.9175,52.1906,0.0],[20.9192,52.1938,0.0],[20.9158,52.1928,0.0],[20.9154,52.1927,0.0],[20.9132,52.1937,0.0],[20.9121,52.1943,0.0],[20.9105,52.1957,0.0],[20.9105,52.196,0.0],[20.9082,52.1968,0.0],[20.9063,52.1976,0.0],[20.9045,52.198,0.0],[20.9032,52.1983,0.0],[20.9023,52.1987,0.0],[20.9016,52.199,0.0],[20.9007,52.1995,0.0],[20.9,52.2,0.0],[20.9001,52.2017,0.0],[20.8989,52.202,0.0],[20.8979,52.2023,0.0],[20.8967,52.2027,0.0],[20.8935,52.2041,0.0],[20.888,52.2063,0.0],[20.8812,52.2089,0.0],[20.8805,52.209,0.0],[20.8811,52.2094,0.0],[20.8817,52.2097,0.0],[20.885,52.2103,0.0],[20.8877,52.2108,0.0],[20.8998,52.2123,0.0],[20.9141,52.2141,0.0],[20.9142,52.2145,0.0],[20.9147,52.2146,0.0],[20.9162,52.2144,0.0],[20.9183,52.2146,0.0],[20.9216,52.2135,0.0],[20.9238,52.2137,0.0],[20.9243,52.2135,0.0],[20.9244,52.2134,0.0],[20.9238,52.2132,0.0],[20.9233,52.2129,0.0],[20.9229,52.2126,0.0],[20.9226,52.2121,0.0],[20.9225,52.2117,0.0],[20.9226,52.2113,0.0],[20.9229,52.2109,0.0],[20.9233,52.2105,0.0],[20.924,52.2101,0.0],[20.9249,52.2099,0.0],[20.9256,52.2099,0.0],[20.9256,52.2095,0.0],[20.9268,52.2095,0.0],[20.9277,52.2098,0.0],[20.9305,52.2108,0.0],[20.9322,52.2113,0.0],[20.9325,52.2114,0.0],[20.9327,52.2111,0.0],[20.9331,52.211,0.0],[20.9336,52.2109,0.0],[20.9343,52.2107,0.0],[20.9351,52.2103,0.0],[20.9361,52.2098,0.0],[20.937,52.2092,0.0],[20.9372,52.2091,0.0],[20.9376,52.2087,0.0],[20.9384,52.208,0.0],[20.9422,52.2043,0.0],[20.9431,52.2037,0.0],[20.9445,52.2024,0.0],[20.9453,52.2018,0.0],[20.9461,52.2014,0.0],[20.947,52.201,0.0],[20.9643,52.1971,0.0],[20.982,52.1929,0.0],[20.9831,52.1926,0.0],[20.9841,52.1922,0.0],[20.9846,52.1918,0.0],[20.9858,52.1907,0.0],[20.9861,52.1903,0.0],[20.9864,52.1899,0.0],[20.9865,52.1892,0.0],[20.9865,52.1885,0.0],[20.9866,52.1872,0.0],[20.9866,52.1855,0.0],[20.9867,52.1816,0.0],[20.9867,52.1815,0.0],[20.9867,52.1804,0.0],[20.9868,52.1711,0.0],[20.9868,52.167,0.0],[20.9869,52.1626,0.0],[20.9878,52.1546,0.0],[20.9889,52.1455,0.0],[20.9892,52.1419,0.0],[20.9881,52.1419,0.0],[20.9872,52.1419,0.0],[20.9846,52.1421,0.0],[20.9839,52.142,0.0],[20.9833,52.1409,0.0],[20.983,52.1404,0.0]]]]}},{"type":"Feature","properties":{"uesi_id":"POL_R336075","nbhd_code":"POL_R336075_18","nbhd_name":"Zoliborz"},"geometry":{"type":"MultiPolygon","coordinates":[[[[20.981,52.2594,0.0],[20.9796,52.259,0.0],[20.9795,52.2591,0.0],[20.9794,52.2591,0.0],[20.9736,52.2571,0.0],[20.9736,52.257,0.0],[20.9726,52.2566,0.0],[20.9711,52.256,0.0],[20.9705,52.2558,0.0],[20.9705,52.2557,0.0],[20.9701,52.2556,0.0],[20.97,52.2556,0.0],[20.9697,52.2557,0.0],[20.9664,52.2546,0.0],[20.9656,52.2543,0.0],[20.9655,52.2543,0.0],[20.9645,52.2544,0.0],[20.9633,52.255,0.0],[20.9632,52.255,0.0],[20.9631,52.255,0.0],[20.9624,52.2551,0.0],[20.962,52.2552,0.0],[20.96,52.2558,0.0],[20.9585,52.2558,0.0],[20.9563,52.2555,0.0],[20.9547,52.2553,0.0],[20.9542,52.2554,0.0],[20.9516,52.2555,0.0],[20.9509,52.2557,0.0],[20.9502,52.2559,0.0],[20.948,52.2568,0.0],[20.9476,52.2565,0.0],[20.9472,52.2571,0.0],[20.9501,52.2596,0.0],[20.9518,52.2614,0.0],[20.9532,52.2615,0.0],[20.9536,52.2619,0.0],[20.9545,52.2624,0.0],[20.9557,52.2635,0.0],[20.9576,52.267,0.0],[20.9578,52.2674,0.0],[20.9587,52.2683,0.0],[20.9601,52.2692,0.0],[20.9631,52.2715,0.0],[20.9642,52.2732,0.0],[20.9644,52.2737,0.0],[20.965,52.2741,0.0],[20.9653,52.2739,0.0],[20.9661,52.2744,0.0],[20.967,52.2741,0.0],[20.9701,52.2754,0.0],[20.9725,52.2768,0.0],[20.9766,52.2789,0.0],[20.9768,52.2793,0.0],[20.9852,52.2834,0.0],[20.9854,52.2835,0.0],[20.9855,52.2837,0.0],[20.9856,52.2838,0.0],[20.9858,52.2849,0.0],[20.9857,52.2852,0.0],[20.9855,52.2857,0.0],[20.9866,52.2864,0.0],[20.9875,52.2861,0.0],[20.9885,52.2858,0.0],[20.9896,52.2855,0.0],[20.9905,52.2848,0.0],[20.9937,52.2862,0.0],[20.9962,52.2873,0.0],[20.9974,52.2865,0.0],[20.9985,52.2856,0.0],[20.9995,52.2846,0.0],[21.0003,52.2836,0.0],[21.001,52.2828,0.0],[21.0015,52.2822,0.0],[21.002,52.2815,0.0],[21.0025,52.2805,0.0],[21.0031,52.2794,0.0],[21.0035,52.2783,0.0],[21.0039,52.2773,0.0],[21.0041,52.2764,0.0],[21.0043,52.2755,0.0],[21.0044,52.2745,0.0],[21.0044,52.2729,0.0],[21.0046,52.2717,0.0],[21.0047,52.2708,0.0],[21.0049,52.2699,0.0],[21.0051,52.2691,0.0],[21.0054,52.2683,0.0],[21.0057,52.2674,0.0],[21.0063,52.2662,0.0],[21.0069,52.2649,0.0],[21.0078,52.2634,0.0],[21.0086,52.2622,0.0],[21.0094,52.2612,0.0],[21.0066,52.2603,0.0],[21.0065,52.2604,0.0],[21.0059,52.2602,0.0],[21.0058,52.2603,0.0],[21.0057,52.2603,0.0],[21.0056,52.2602,0.0],[21.0054,52.2599,0.0],[21.0047,52.2597,0.0],[21.004,52.2595,0.0],[21.0039,52.2594,0.0],[21.0035,52.2594,0.0],[21.0034,52.2594,0.0],[21.0026,52.2592,0.0],[21.0005,52.2591,0.0],[21.0001,52.2591,0.0],[20.9996,52.2591,0.0],[20.9992,52.2594,0.0],[20.9975,52.2594,0.0],[20.9975,52.2593,0.0],[20.9951,52.2594,0.0],[20.995,52.2594,0.0],[20.9948,52.2594,0.0],[20.9946,52.2594,0.0],[20.9902,52.2595,0.0],[20.9898,52.2595,0.0],[20.9893,52.2595,0.0],[20.9891,52.2596,0.0],[20.989,52.2596,0.0],[20.9888,52.2595,0.0],[20.9888,52.2596,0.0],[20.9876,52.2596,0.0],[20.9866,52.2596,0.0],[20.9866,52.2598,0.0],[20.9855,52.2598,0.0],[20.9849,52.2597,0.0],[20.9843,52.2597,0.0],[20.9835,52.2597,0.0],[20.9828,52.2596,0.0],[20.9816,52.2596,0.0],[20.981,52.2594,0.0]]]]}}]}