{"type":"FeatureCollection","name":"RUS_R1751445","crs":{"type":"name","properties":{"name":"urn:ogc:def:crs:OGC:1.3:CRS84"}},"features":[{"type":"Feature","properties":{"uesi_id":"RUS_R1751445","nbhd_code":"RUS_R1751445_1","nbhd_name":"\u00d0\u203a\u00d0\u00b5\u00d0\u00bd\u00d0\u00b8\u00d0\u00bd\u00d1\u0081\u00d0\u00ba\u00d0\u00b8\u00d0\u00b9 \u00d1\u20ac\u00d0\u00b0\u00d0\u00b9\u00d0\u00be\u00d0\u00bd"},"geometry":{"type":"MultiPolygon","coordinates":[[[[82.93098,55.00506,0.0],[82.93001,55.00442,0.0],[82.92596,55.00183,0.0],[82.92565,55.00164,0.0],[82.92565,55.00159,0.0],[82.92563,55.00154,0.0],[82.91965,54.99742,0.0],[82.9138,54.99345,0.0],[82.91358,54.99309,0.0],[82.91369,54.98918,0.0],[82.91372,54.9879,0.0],[82.91376,54.98638,0.0],[82.91358,54.98639,0.0],[82.90963,54.98653,0.0],[82.90857,54.98589,0.0],[82.90601,54.98432,0.0],[82.90301,54.98251,0.0],[82.90282,54.98241,0.0],[82.90093,54.98127,0.0],[82.90062,54.98108,0.0],[82.90046,54.98098,0.0],[82.89674,54.97885,0.0],[82.89614,54.97914,0.0],[82.89321,54.98057,0.0],[82.89297,54.9805,0.0],[82.89291,54.98045,0.0],[82.89299,54.98042,0.0],[82.8923,54.97994,0.0],[82.89255,54.97823,0.0],[82.88828,54.97801,0.0],[82.88811,54.97917,0.0],[82.88515,54.97903,0.0],[82.88529,54.97789,0.0],[82.88557,54.97604,0.0],[82.8856,54.97584,0.0],[82.88162,54.97567,0.0],[82.88017,54.975,0.0],[82.8762,54.97482,0.0],[82.87297,54.97461,0.0],[82.87346,54.97126,0.0],[82.87444,54.96615,0.0],[82.87527,54.96413,0.0],[82.87537,54.96388,0.0],[82.87452,54.96334,0.0],[82.87425,54.96306,0.0],[82.87365,54.96276,0.0],[82.87306,54.96253,0.0],[82.87212,54.96239,0.0],[82.87079,54.96226,0.0],[82.8698,54.96231,0.0],[82.86863,54.96236,0.0],[82.86793,54.96246,0.0],[82.86748,54.96259,0.0],[82.8664,54.96273,0.0],[82.86523,54.96277,0.0],[82.86376,54.9628,0.0],[82.86287,54.96265,0.0],[82.86202,54.96224,0.0],[82.86164,54.96188,0.0],[82.86088,54.96132,0.0],[82.86053,54.96107,0.0],[82.85966,54.96092,0.0],[82.85844,54.96105,0.0],[82.85749,54.96124,0.0],[82.85687,54.9612,0.0],[82.85638,54.96097,0.0],[82.85624,54.96066,0.0],[82.85611,54.96056,0.0],[82.85604,54.96046,0.0],[82.85591,54.9604,0.0],[82.85525,54.96035,0.0],[82.85489,54.96025,0.0],[82.85399,54.9595,0.0],[82.85321,54.95953,0.0],[82.85215,54.95967,0.0],[82.8511,54.95967,0.0],[82.85044,54.95929,0.0],[82.85027,54.95866,0.0],[82.85031,54.9584,0.0],[82.8517,54.95728,0.0],[82.85176,54.95666,0.0],[82.85165,54.95558,0.0],[82.85123,54.95527,0.0],[82.8505,54.95533,0.0],[82.84991,54.95613,0.0],[82.84941,54.95638,0.0],[82.84857,54.95628,0.0],[82.84801,54.95603,0.0],[82.84797,54.9559,0.0],[82.84831,54.95548,0.0],[82.8483,54.95515,0.0],[82.84798,54.95482,0.0],[82.84689,54.95426,0.0],[82.84638,54.95388,0.0],[82.8462,54.95364,0.0],[82.84532,54.95328,0.0],[82.84389,54.95319,0.0],[82.8433,54.95284,0.0],[82.84317,54.95108,0.0],[82.8433,54.95063,0.0],[82.84311,54.95029,0.0],[82.84252,54.95014,0.0],[82.8412,54.95065,0.0],[82.84082,54.95071,0.0],[82.84022,54.95054,0.0],[82.84005,54.9501,0.0],[82.84123,54.94929,0.0],[82.84125,54.94907,0.0],[82.84096,54.94868,0.0],[82.84041,54.94858,0.0],[82.84026,54.94848,0.0],[82.84013,54.94826,0.0],[82.84008,54.94773,0.0],[82.83994,54.94741,0.0],[82.83875,54.94665,0.0],[82.83793,54.94659,0.0],[82.83714,54.94626,0.0],[82.83623,54.94617,0.0],[82.83555,54.94594,0.0],[82.83447,54.94548,0.0],[82.83435,54.94503,0.0],[82.83402,54.9448,0.0],[82.83395,54.94428,0.0],[82.83344,54.944,0.0],[82.83303,54.94399,0.0],[82.83258,54.94363,0.0],[82.83236,54.94303,0.0],[82.83222,54.94235,0.0],[82.82991,54.94357,0.0],[82.81828,54.94991,0.0],[82.81747,54.9504,0.0],[82.80487,54.95783,0.0],[82.76458,54.98122,0.0],[82.75774,54.98532,0.0],[82.75624,54.98566,0.0],[82.75563,54.98632,0.0],[82.75211,54.9874,0.0],[82.75184,54.98914,0.0],[82.75171,54.99087,0.0],[82.7522,54.99217,0.0],[82.75246,54.99284,0.0],[82.75637,54.99623,0.0],[82.77542,55.01283,0.0],[82.76812,55.01901,0.0],[82.7679,55.02816,0.0],[82.77473,55.0388,0.0],[82.79236,55.0298,0.0],[82.79642,55.03088,0.0],[82.79729,55.03159,0.0],[82.8169,55.04097,0.0],[82.8213,55.04311,0.0],[82.82846,55.0401,0.0],[82.83318,55.03834,0.0],[82.83611,55.04031,0.0],[82.84739,55.03638,0.0],[82.87451,55.03162,0.0],[82.88411,55.02662,0.0],[82.89124,55.02284,0.0],[82.90346,55.01762,0.0],[82.91843,55.00962,0.0],[82.9227,55.00834,0.0],[82.92536,55.00738,0.0],[82.93098,55.00506,0.0]]]]}},{"type":"Feature","properties":{"uesi_id":"RUS_R1751445","nbhd_code":"RUS_R1751445_2","nbhd_name":"\u00d0\u2014\u00d0\u00b0\u00d0\u00b5\u00d0\u00bb\u00d1\u0152\u00d1\u2020\u00d0\u00be\u00d0\u00b2\u00d1\u0081\u00d0\u00ba\u00d0\u00b8\u00d0\u00b9 \u00d1\u20ac\u00d0\u00b0\u00d0\u00b9\u00d0\u00be\u00d0\u00bd"},"geometry":{"type":"MultiPolygon","coordinates":[[[[82.93873,55.05356,0.0],[82.91561,55.04996,0.0],[82.91458,55.04981,0.0],[82.91386,55.0497,0.0],[82.91327,55.04959,0.0],[82.9124,55.04939,0.0],[82.91138,55.04914,0.0],[82.9032,55.04703,0.0],[82.9024,55.04683,0.0],[82.89686,55.04539,0.0],[82.88381,55.0419,0.0],[82.8779,55.04023,0.0],[82.87703,55.03802,0.0],[82.87605,55.03551,0.0],[82.87451,55.03162,0.0],[82.84739,55.03638,0.0],[82.83611,55.04031,0.0],[82.83318,55.03834,0.0],[82.82846,55.0401,0.0],[82.8213,55.04311,0.0],[82.82136,55.04325,0.0],[82.81841,55.04451,0.0],[82.818,55.04497,0.0],[82.81719,55.04545,0.0],[82.81091,55.04752,0.0],[82.80974,55.04729,0.0],[82.80842,55.04851,0.0],[82.80789,55.04923,0.0],[82.80614,55.05028,0.0],[82.80445,55.05148,0.0],[82.80347,55.05207,0.0],[82.80304,55.05251,0.0],[82.80238,55.05285,0.0],[82.80189,55.05322,0.0],[82.80031,55.05427,0.0],[82.79888,55.05523,0.0],[82.79623,55.05683,0.0],[82.79444,55.05763,0.0],[82.79244,55.05861,0.0],[82.79173,55.05906,0.0],[82.78889,55.06117,0.0],[82.78773,55.0623,0.0],[82.78618,55.06469,0.0],[82.78452,55.06602,0.0],[82.78379,55.0672,0.0],[82.78204,55.06889,0.0],[82.78078,55.07113,0.0],[82.78014,55.073,0.0],[82.77988,55.07387,0.0],[82.77944,55.07445,0.0],[82.77991,55.07452,0.0],[82.7788,55.07743,0.0],[82.77833,55.08046,0.0],[82.77941,55.08476,0.0],[82.78017,55.08551,0.0],[82.78064,55.08603,0.0],[82.78058,55.08636,0.0],[82.7807,55.0871,0.0],[82.78063,55.08765,0.0],[82.78106,55.08789,0.0],[82.78104,55.08915,0.0],[82.78006,55.09085,0.0],[82.77951,55.09301,0.0],[82.77948,55.0951,0.0],[82.77928,55.09709,0.0],[82.77916,55.10092,0.0],[82.77855,55.10189,0.0],[82.7777,55.10256,0.0],[82.77739,55.10392,0.0],[82.77704,55.10649,0.0],[82.77688,55.10787,0.0],[82.77712,55.10899,0.0],[82.77744,55.10996,0.0],[82.7773,55.11192,0.0],[82.77741,55.11317,0.0],[82.77824,55.11455,0.0],[82.78192,55.11821,0.0],[82.78294,55.11844,0.0],[82.78334,55.11877,0.0],[82.79057,55.11885,0.0],[82.82119,55.12086,0.0],[82.84524,55.12378,0.0],[82.86954,55.1266,0.0],[82.88462,55.12835,0.0],[82.88736,55.13154,0.0],[82.88811,55.13136,0.0],[82.89717,55.12989,0.0],[82.92254,55.12138,0.0],[82.92467,55.12223,0.0],[82.93015,55.1206,0.0],[82.92959,55.11831,0.0],[82.92158,55.11416,0.0],[82.92038,55.11275,0.0],[82.92077,55.10952,0.0],[82.92137,55.10897,0.0],[82.92578,55.10784,0.0],[82.92605,55.10777,0.0],[82.92796,55.10728,0.0],[82.92838,55.10305,0.0],[82.92849,55.09894,0.0],[82.92989,55.09812,0.0],[82.92891,55.09491,0.0],[82.92909,55.09364,0.0],[82.93094,55.09313,0.0],[82.93062,55.09286,0.0],[82.92934,55.09095,0.0],[82.93034,55.09021,0.0],[82.93069,55.08922,0.0],[82.92963,55.08833,0.0],[82.92867,55.08767,0.0],[82.92846,55.0869,0.0],[82.92906,55.08584,0.0],[82.93023,55.08527,0.0],[82.93529,55.0833,0.0],[82.93579,55.08319,0.0],[82.93684,55.08232,0.0],[82.93688,55.08112,0.0],[82.93719,55.0785,0.0],[82.93775,55.07801,0.0],[82.94373,55.07441,0.0],[82.93848,55.07153,0.0],[82.93805,55.07092,0.0],[82.93699,55.07027,0.0],[82.93638,55.06989,0.0],[82.93593,55.06951,0.0],[82.9352,55.06842,0.0],[82.93344,55.06773,0.0],[82.93237,55.06676,0.0],[82.93221,55.06634,0.0],[82.93176,55.06533,0.0],[82.93033,55.06462,0.0],[82.92973,55.06378,0.0],[82.92822,55.06256,0.0],[82.92759,55.06208,0.0],[82.92571,55.06085,0.0],[82.92555,55.06074,0.0],[82.92444,55.05998,0.0],[82.92355,55.05939,0.0],[82.92381,55.05931,0.0],[82.92415,55.05922,0.0],[82.92555,55.05923,0.0],[82.92662,55.05913,0.0],[82.92844,55.05912,0.0],[82.92998,55.05909,0.0],[82.93102,55.05914,0.0],[82.93217,55.05923,0.0],[82.93288,55.05937,0.0],[82.9342,55.05974,0.0],[82.93662,55.06075,0.0],[82.93782,55.0575,0.0],[82.93785,55.05742,0.0],[82.93944,55.05367,0.0],[82.93873,55.05356,0.0]]]]}},{"type":"Feature","properties":{"uesi_id":"RUS_R1751445","nbhd_code":"RUS_R1751445_3","nbhd_name":"\u00d0\u0178\u00d0\u00b5\u00d1\u20ac\u00d0\u00b2\u00d0\u00be\u00d0\u00bc\u00d0\u00b0\u00d0\u00b9\u00d1\u0081\u00d0\u00ba\u00d0\u00b8\u00d0\u00b9 \u00d1\u20ac\u00d0\u00b0\u00d0\u00b9\u00d0\u00be\u00d0\u00bd"},"geometry":{"type":"MultiPolygon","coordinates":[[[[83.161,54.95679,0.0],[83.16074,54.9563,0.0],[83.16027,54.9554,0.0],[83.15675,54.95144,0.0],[83.15229,54.94934,0.0],[83.15012,54.94898,0.0],[83.14891,54.94506,0.0],[83.14586,54.94161,0.0],[83.14675,54.93614,0.0],[83.14781,54.93581,0.0],[83.14522,54.93258,0.0],[83.14522,54.93239,0.0],[83.14522,54.93178,0.0],[83.14522,54.92784,0.0],[83.15374,54.91605,0.0],[83.13187,54.90198,0.0],[83.12986,54.90354,0.0],[83.12675,54.90383,0.0],[83.12348,54.90449,0.0],[83.12248,54.90463,0.0],[83.12088,54.90548,0.0],[83.11867,54.90798,0.0],[83.11814,54.90859,0.0],[83.11589,54.91115,0.0],[83.11384,54.91152,0.0],[83.11107,54.91175,0.0],[83.09906,54.9124,0.0],[83.09682,54.9138,0.0],[83.09059,54.91302,0.0],[83.0747,54.91216,0.0],[83.07457,54.91101,0.0],[83.0698,54.91038,0.0],[83.06825,54.9127,0.0],[83.06516,54.91293,0.0],[83.06594,54.91176,0.0],[83.06577,54.90975,0.0],[83.0654,54.90874,0.0],[83.06416,54.90767,0.0],[83.06252,54.9072,0.0],[83.05838,54.90279,0.0],[83.05736,54.90315,0.0],[83.05484,54.90177,0.0],[83.05516,54.90152,0.0],[83.05336,54.89963,0.0],[83.05181,54.89841,0.0],[83.04997,54.89755,0.0],[83.04865,54.89656,0.0],[83.04808,54.8966,0.0],[83.04794,54.89699,0.0],[83.04694,54.89756,0.0],[83.04474,54.8984,0.0],[83.04797,54.90181,0.0],[83.05094,54.90569,0.0],[83.05035,54.90588,0.0],[83.04725,54.90529,0.0],[83.04375,54.90267,0.0],[83.04371,54.90196,0.0],[83.04447,54.90086,0.0],[83.04394,54.90016,0.0],[83.04275,54.89955,0.0],[83.04183,54.8995,0.0],[83.04124,54.89953,0.0],[83.04108,54.8998,0.0],[83.03961,54.90003,0.0],[83.02551,54.9002,0.0],[83.0305,54.91106,0.0],[83.03227,54.91255,0.0],[83.03743,54.92092,0.0],[83.0387,54.92391,0.0],[83.03986,54.92835,0.0],[83.03956,54.93052,0.0],[83.03892,54.93246,0.0],[83.03816,54.93445,0.0],[83.03815,54.93688,0.0],[83.03508,54.94112,0.0],[83.03404,54.94504,0.0],[83.03152,54.94679,0.0],[83.02628,54.94806,0.0],[83.01403,54.95069,0.0],[83.00794,54.95123,0.0],[83.00157,54.95189,0.0],[82.99575,54.953,0.0],[82.99254,54.95411,0.0],[82.98983,54.95548,0.0],[82.98233,54.95988,0.0],[82.97331,54.96509,0.0],[82.96893,54.96809,0.0],[82.96625,54.97031,0.0],[82.96494,54.97181,0.0],[82.96386,54.97359,0.0],[82.95975,54.97771,0.0],[82.95702,54.98162,0.0],[82.95509,54.9853,0.0],[82.9525,54.99025,0.0],[82.95079,54.99349,0.0],[82.94844,54.99625,0.0],[82.95542,54.99396,0.0],[82.96108,54.99194,0.0],[82.96466,54.9902,0.0],[82.96684,54.98913,0.0],[82.96828,54.9887,0.0],[82.97146,54.98824,0.0],[82.97357,54.98802,0.0],[82.97492,54.98802,0.0],[82.97567,54.98782,0.0],[82.9761,54.98746,0.0],[82.97633,54.98702,0.0],[82.97642,54.98658,0.0],[82.9762,54.98599,0.0],[82.97571,54.98528,0.0],[82.97497,54.98435,0.0],[82.97481,54.98372,0.0],[82.97491,54.98307,0.0],[82.97545,54.98076,0.0],[82.97607,54.97955,0.0],[82.9773,54.97872,0.0],[82.9785,54.97814,0.0],[82.98061,54.97747,0.0],[82.98296,54.97672,0.0],[82.98432,54.97637,0.0],[82.9886,54.9756,0.0],[82.99204,54.97473,0.0],[82.99554,54.97376,0.0],[83.00353,54.97314,0.0],[83.00675,54.97305,0.0],[83.00845,54.97244,0.0],[83.00977,54.97169,0.0],[83.01098,54.9713,0.0],[83.01451,54.97089,0.0],[83.01537,54.97104,0.0],[83.01615,54.97151,0.0],[83.0197,54.97363,0.0],[83.02165,54.97413,0.0],[83.02346,54.97446,0.0],[83.02807,54.97422,0.0],[83.02949,54.97455,0.0],[83.04228,54.97972,0.0],[83.04647,54.98036,0.0],[83.04966,54.98089,0.0],[83.05337,54.98166,0.0],[83.06211,54.98325,0.0],[83.07125,54.98378,0.0],[83.07774,54.98409,0.0],[83.0808,54.98421,0.0],[83.08346,54.98432,0.0],[83.08703,54.98434,0.0],[83.08948,54.98408,0.0],[83.09281,54.98359,0.0],[83.09534,54.98293,0.0],[83.09729,54.9824,0.0],[83.09781,54.98212,0.0],[83.09952,54.97978,0.0],[83.10012,54.97848,0.0],[83.10056,54.97708,0.0],[83.10227,54.97592,0.0],[83.10521,54.97432,0.0],[83.107,54.97337,0.0],[83.10838,54.97205,0.0],[83.10972,54.9708,0.0],[83.11069,54.96919,0.0],[83.11125,54.96829,0.0],[83.11206,54.96783,0.0],[83.11429,54.96728,0.0],[83.11958,54.96683,0.0],[83.12405,54.96708,0.0],[83.12695,54.96741,0.0],[83.131,54.96828,0.0],[83.13348,54.9691,0.0],[83.13636,54.96936,0.0],[83.13785,54.96915,0.0],[83.13926,54.96877,0.0],[83.14138,54.96762,0.0],[83.14371,54.96666,0.0],[83.14583,54.96447,0.0],[83.14807,54.96083,0.0],[83.14894,54.95965,0.0],[83.15052,54.95882,0.0],[83.1528,54.95783,0.0],[83.161,54.95679,0.0]]]]}},{"type":"Feature","properties":{"uesi_id":"RUS_R1751445","nbhd_code":"RUS_R1751445_4","nbhd_name":"\u00d0\u0161\u00d0\u00b8\u00d1\u20ac\u00d0\u00be\u00d0\u00b2\u00d1\u0081\u00d0\u00ba\u00d0\u00b8\u00d0\u00b9 \u00d1\u20ac\u00d0\u00b0\u00d0\u00b9\u00d0\u00be\u00d0\u00bd"},"geometry":{"type":"MultiPolygon","coordinates":[[[[83.03508,54.94112,0.0],[82.99939,54.93948,0.0],[82.99441,54.93925,0.0],[82.9904,54.93904,0.0],[82.98806,54.93908,0.0],[82.98779,54.93906,0.0],[82.96308,54.93793,0.0],[82.95265,54.93733,0.0],[82.93834,54.9368,0.0],[82.93657,54.9363,0.0],[82.93627,54.93455,0.0],[82.92969,54.93122,0.0],[82.92923,54.93111,0.0],[82.9212,54.92695,0.0],[82.91742,54.92935,0.0],[82.91664,54.92967,0.0],[82.91582,54.92974,0.0],[82.91457,54.92974,0.0],[82.90939,54.93026,0.0],[82.90483,54.93072,0.0],[82.89393,54.93178,0.0],[82.88631,54.93226,0.0],[82.87958,54.93263,0.0],[82.87681,54.93278,0.0],[82.87631,54.93086,0.0],[82.87579,54.93082,0.0],[82.87534,54.93097,0.0],[82.87409,54.93102,0.0],[82.87418,54.93123,0.0],[82.87337,54.93139,0.0],[82.87236,54.93115,0.0],[82.87227,54.93104,0.0],[82.87116,54.93031,0.0],[82.87093,54.93025,0.0],[82.86879,54.92868,0.0],[82.86944,54.92854,0.0],[82.8693,54.9282,0.0],[82.86929,54.92765,0.0],[82.86865,54.92766,0.0],[82.86864,54.92784,0.0],[82.868,54.92784,0.0],[82.86796,54.92816,0.0],[82.86594,54.92825,0.0],[82.86591,54.9286,0.0],[82.86554,54.92863,0.0],[82.86546,54.92873,0.0],[82.86531,54.92875,0.0],[82.86529,54.92891,0.0],[82.86413,54.92925,0.0],[82.86361,54.9296,0.0],[82.86377,54.93004,0.0],[82.86245,54.93061,0.0],[82.86326,54.93197,0.0],[82.86268,54.93262,0.0],[82.86319,54.93376,0.0],[82.84689,54.93461,0.0],[82.83928,54.93514,0.0],[82.83482,54.941,0.0],[82.83306,54.94191,0.0],[82.83222,54.94235,0.0],[82.83236,54.94303,0.0],[82.83258,54.94363,0.0],[82.83303,54.94399,0.0],[82.83344,54.944,0.0],[82.83395,54.94428,0.0],[82.83402,54.9448,0.0],[82.83435,54.94503,0.0],[82.83447,54.94548,0.0],[82.83555,54.94594,0.0],[82.83623,54.94617,0.0],[82.83714,54.94626,0.0],[82.83793,54.94659,0.0],[82.83875,54.94665,0.0],[82.83994,54.94741,0.0],[82.84008,54.94773,0.0],[82.84013,54.94826,0.0],[82.84026,54.94848,0.0],[82.84041,54.94858,0.0],[82.84096,54.94868,0.0],[82.84125,54.94907,0.0],[82.84123,54.94929,0.0],[82.84005,54.9501,0.0],[82.84022,54.95054,0.0],[82.84082,54.95071,0.0],[82.8412,54.95065,0.0],[82.84252,54.95014,0.0],[82.84311,54.95029,0.0],[82.8433,54.95063,0.0],[82.84317,54.95108,0.0],[82.8433,54.95284,0.0],[82.84389,54.95319,0.0],[82.84532,54.95328,0.0],[82.8462,54.95364,0.0],[82.84638,54.95388,0.0],[82.84689,54.95426,0.0],[82.84798,54.95482,0.0],[82.8483,54.95515,0.0],[82.84831,54.95548,0.0],[82.84797,54.9559,0.0],[82.84801,54.95603,0.0],[82.84857,54.95628,0.0],[82.84941,54.95638,0.0],[82.84991,54.95613,0.0],[82.8505,54.95533,0.0],[82.85123,54.95527,0.0],[82.85165,54.95558,0.0],[82.85176,54.95666,0.0],[82.8517,54.95728,0.0],[82.85031,54.9584,0.0],[82.85027,54.95866,0.0],[82.85044,54.95929,0.0],[82.8511,54.95967,0.0],[82.85215,54.95967,0.0],[82.85321,54.95953,0.0],[82.85399,54.9595,0.0],[82.85489,54.96025,0.0],[82.85525,54.96035,0.0],[82.85591,54.9604,0.0],[82.85604,54.96046,0.0],[82.85611,54.96056,0.0],[82.85624,54.96066,0.0],[82.85638,54.96097,0.0],[82.85687,54.9612,0.0],[82.85749,54.96124,0.0],[82.85844,54.96105,0.0],[82.85966,54.96092,0.0],[82.86053,54.96107,0.0],[82.86088,54.96132,0.0],[82.86164,54.96188,0.0],[82.86202,54.96224,0.0],[82.86287,54.96265,0.0],[82.86376,54.9628,0.0],[82.86523,54.96277,0.0],[82.8664,54.96273,0.0],[82.86748,54.96259,0.0],[82.86793,54.96246,0.0],[82.86863,54.96236,0.0],[82.8698,54.96231,0.0],[82.87079,54.96226,0.0],[82.87212,54.96239,0.0],[82.87306,54.96253,0.0],[82.87365,54.96276,0.0],[82.87425,54.96306,0.0],[82.87452,54.96334,0.0],[82.87537,54.96388,0.0],[82.87527,54.96413,0.0],[82.87444,54.96615,0.0],[82.87346,54.97126,0.0],[82.87297,54.97461,0.0],[82.8762,54.97482,0.0],[82.88017,54.975,0.0],[82.88162,54.97567,0.0],[82.8856,54.97584,0.0],[82.88557,54.97604,0.0],[82.88529,54.97789,0.0],[82.88515,54.97903,0.0],[82.88811,54.97917,0.0],[82.88828,54.97801,0.0],[82.89255,54.97823,0.0],[82.8923,54.97994,0.0],[82.89299,54.98042,0.0],[82.89291,54.98045,0.0],[82.89297,54.9805,0.0],[82.89321,54.98057,0.0],[82.89614,54.97914,0.0],[82.89674,54.97885,0.0],[82.90046,54.98098,0.0],[82.90062,54.98108,0.0],[82.90093,54.98127,0.0],[82.90282,54.98241,0.0],[82.90301,54.98251,0.0],[82.90601,54.98432,0.0],[82.90857,54.98589,0.0],[82.90963,54.98653,0.0],[82.91358,54.98639,0.0],[82.91376,54.98638,0.0],[82.91372,54.9879,0.0],[82.91369,54.98918,0.0],[82.91358,54.99309,0.0],[82.9138,54.99345,0.0],[82.91965,54.99742,0.0],[82.92563,55.00154,0.0],[82.92565,55.00159,0.0],[82.92565,55.00164,0.0],[82.92596,55.00183,0.0],[82.93001,55.00442,0.0],[82.93098,55.00506,0.0],[82.93907,55.00174,0.0],[82.94844,54.99625,0.0],[82.95079,54.99349,0.0],[82.9525,54.99025,0.0],[82.95509,54.9853,0.0],[82.95702,54.98162,0.0],[82.95975,54.97771,0.0],[82.96386,54.97359,0.0],[82.96494,54.97181,0.0],[82.96625,54.97031,0.0],[82.96893,54.96809,0.0],[82.97331,54.96509,0.0],[82.98233,54.95988,0.0],[82.98983,54.95548,0.0],[82.99254,54.95411,0.0],[82.99575,54.953,0.0],[83.00157,54.95189,0.0],[83.00794,54.95123,0.0],[83.01403,54.95069,0.0],[83.02628,54.94806,0.0],[83.03152,54.94679,0.0],[83.03404,54.94504,0.0],[83.03508,54.94112,0.0]]]]}},{"type":"Feature","properties":{"uesi_id":"RUS_R1751445","nbhd_code":"RUS_R1751445_5","nbhd_name":"\u00d0\u201d\u00d0\u00b7\u00d0\u00b5\u00d1\u20ac\u00d0\u00b6\u00d0\u00b8\u00d0\u00bd\u00d1\u0081\u00d0\u00ba\u00d0\u00b8\u00d0\u00b9 \u00d1\u20ac\u00d0\u00b0\u00d0\u00b9\u00d0\u00be\u00d0\u00bd"},"geometry":{"type":"MultiPolygon","coordinates":[[[[83.08615,55.06317,0.0],[83.08261,55.05644,0.0],[83.08144,55.05392,0.0],[83.08125,55.05279,0.0],[83.07804,55.05113,0.0],[83.07566,55.04977,0.0],[83.07531,55.04957,0.0],[83.07456,55.04927,0.0],[83.07391,55.04901,0.0],[83.0732,55.04877,0.0],[83.07188,55.04833,0.0],[83.07156,55.04825,0.0],[83.07076,55.04806,0.0],[83.06949,55.04782,0.0],[83.0661,55.04738,0.0],[83.06462,55.04718,0.0],[83.06367,55.04705,0.0],[83.06233,55.04687,0.0],[83.05834,55.04632,0.0],[83.05815,55.04629,0.0],[83.05553,55.04585,0.0],[83.05503,55.04576,0.0],[83.0519,55.04514,0.0],[83.04126,55.04297,0.0],[83.04118,55.04295,0.0],[83.04047,55.04282,0.0],[83.03962,55.04266,0.0],[83.03842,55.04243,0.0],[83.03525,55.04183,0.0],[83.03402,55.0416,0.0],[83.03207,55.04123,0.0],[83.03052,55.04093,0.0],[83.0282,55.04049,0.0],[83.02505,55.03989,0.0],[83.02248,55.03942,0.0],[83.02225,55.03938,0.0],[83.01923,55.03888,0.0],[83.0174,55.03859,0.0],[83.01719,55.03856,0.0],[83.01512,55.03825,0.0],[83.01502,55.03823,0.0],[83.01492,55.03822,0.0],[83.01474,55.03819,0.0],[83.01368,55.03802,0.0],[83.00656,55.03691,0.0],[83.00531,55.03668,0.0],[83.00419,55.03648,0.0],[83.00366,55.03638,0.0],[83.00313,55.03627,0.0],[83.00239,55.03607,0.0],[83.00148,55.0358,0.0],[83.00137,55.03576,0.0],[83.00043,55.03544,0.0],[82.99944,55.03507,0.0],[82.99565,55.03361,0.0],[82.99499,55.03332,0.0],[82.99479,55.03324,0.0],[82.991,55.03896,0.0],[82.99053,55.03877,0.0],[82.98796,55.03833,0.0],[82.98126,55.03486,0.0],[82.97915,55.03627,0.0],[82.97769,55.03715,0.0],[82.9774,55.03733,0.0],[82.97562,55.0383,0.0],[82.97391,55.03892,0.0],[82.97252,55.03936,0.0],[82.97184,55.03956,0.0],[82.97126,55.03972,0.0],[82.96951,55.04007,0.0],[82.96843,55.04028,0.0],[82.96652,55.04067,0.0],[82.96415,55.03876,0.0],[82.95776,55.03785,0.0],[82.95252,55.03731,0.0],[82.95226,55.03714,0.0],[82.94969,55.03547,0.0],[82.94843,55.03521,0.0],[82.94775,55.03723,0.0],[82.94747,55.03806,0.0],[82.94701,55.03945,0.0],[82.94691,55.03977,0.0],[82.94625,55.04194,0.0],[82.9455,55.04462,0.0],[82.94526,55.04548,0.0],[82.9452,55.04579,0.0],[82.94666,55.0459,0.0],[82.94643,55.04704,0.0],[82.94579,55.04939,0.0],[82.94579,55.04941,0.0],[82.94492,55.04934,0.0],[82.94427,55.04929,0.0],[82.9435,55.05207,0.0],[82.94305,55.05358,0.0],[82.94283,55.0542,0.0],[82.94361,55.05433,0.0],[82.9441,55.05443,0.0],[82.94463,55.05454,0.0],[82.94584,55.05484,0.0],[82.94685,55.05515,0.0],[82.948,55.05557,0.0],[82.95158,55.05717,0.0],[82.95848,55.06033,0.0],[82.96312,55.06245,0.0],[82.9568,55.06708,0.0],[82.95939,55.06823,0.0],[82.95981,55.0686,0.0],[82.96054,55.06902,0.0],[82.96203,55.069,0.0],[82.9623,55.06911,0.0],[82.96241,55.07046,0.0],[82.96456,55.0719,0.0],[82.96911,55.07402,0.0],[82.97132,55.07506,0.0],[82.9727,55.0762,0.0],[82.9755,55.0775,0.0],[82.97772,55.07843,0.0],[82.97884,55.07901,0.0],[82.98083,55.07829,0.0],[82.9821,55.07783,0.0],[82.9832,55.07733,0.0],[82.98335,55.07725,0.0],[82.9842,55.07664,0.0],[82.98449,55.07636,0.0],[82.98479,55.07596,0.0],[82.9852,55.07505,0.0],[82.98513,55.07417,0.0],[82.98566,55.07413,0.0],[82.98642,55.07526,0.0],[82.99028,55.08288,0.0],[82.99977,55.10073,0.0],[83.00307,55.09993,0.0],[83.01513,55.09423,0.0],[83.01964,55.09212,0.0],[83.01897,55.09167,0.0],[83.01981,55.09107,0.0],[83.02208,55.0903,0.0],[83.02291,55.08961,0.0],[83.024,55.0901,0.0],[83.03769,55.08386,0.0],[83.03299,55.08237,0.0],[83.03611,55.07959,0.0],[83.03717,55.07923,0.0],[83.03889,55.07952,0.0],[83.04194,55.07899,0.0],[83.04632,55.07765,0.0],[83.04866,55.07591,0.0],[83.05021,55.07507,0.0],[83.05496,55.07476,0.0],[83.06045,55.07355,0.0],[83.06125,55.07278,0.0],[83.06144,55.07167,0.0],[83.06273,55.07053,0.0],[83.06852,55.06988,0.0],[83.07236,55.0686,0.0],[83.07335,55.06739,0.0],[83.07899,55.06584,0.0],[83.08562,55.06416,0.0],[83.08615,55.06317,0.0]]]]}},{"type":"Feature","properties":{"uesi_id":"RUS_R1751445","nbhd_code":"RUS_R1751445_6","nbhd_name":"\u00d0\u0161\u00d0\u00b0\u00d0\u00bb\u00d0\u00b8\u00d0\u00bd\u00d0\u00b8\u00d0\u00bd\u00d1\u0081\u00d0\u00ba\u00d0\u00b8\u00d0\u00b9 \u00d1\u20ac\u00d0\u00b0\u00d0\u00b9\u00d0\u00be\u00d0\u00bd"},"geometry":{"type":"MultiPolygon","coordinates":[[[[83.00415,55.11386,0.0],[83.00544,55.1133,0.0],[83.00293,55.10691,0.0],[83.00144,55.10443,0.0],[82.99977,55.10073,0.0],[82.99028,55.08288,0.0],[82.98642,55.07526,0.0],[82.98566,55.07413,0.0],[82.98513,55.07417,0.0],[82.9852,55.07505,0.0],[82.98479,55.07596,0.0],[82.98449,55.07636,0.0],[82.9842,55.07664,0.0],[82.98335,55.07725,0.0],[82.9832,55.07733,0.0],[82.9821,55.07783,0.0],[82.98083,55.07829,0.0],[82.97884,55.07901,0.0],[82.97772,55.07843,0.0],[82.9755,55.0775,0.0],[82.9727,55.0762,0.0],[82.97132,55.07506,0.0],[82.96911,55.07402,0.0],[82.96456,55.0719,0.0],[82.96241,55.07046,0.0],[82.9623,55.06911,0.0],[82.96203,55.069,0.0],[82.96054,55.06902,0.0],[82.95981,55.0686,0.0],[82.95939,55.06823,0.0],[82.9568,55.06708,0.0],[82.96312,55.06245,0.0],[82.95848,55.06033,0.0],[82.95158,55.05717,0.0],[82.948,55.05557,0.0],[82.94685,55.05515,0.0],[82.94584,55.05484,0.0],[82.94463,55.05454,0.0],[82.9441,55.05443,0.0],[82.94361,55.05433,0.0],[82.94283,55.0542,0.0],[82.93944,55.05367,0.0],[82.93785,55.05742,0.0],[82.93782,55.0575,0.0],[82.93662,55.06075,0.0],[82.9342,55.05974,0.0],[82.93288,55.05937,0.0],[82.93217,55.05923,0.0],[82.93102,55.05914,0.0],[82.92998,55.05909,0.0],[82.92844,55.05912,0.0],[82.92662,55.05913,0.0],[82.92555,55.05923,0.0],[82.92415,55.05922,0.0],[82.92381,55.05931,0.0],[82.92355,55.05939,0.0],[82.92444,55.05998,0.0],[82.92555,55.06074,0.0],[82.92571,55.06085,0.0],[82.92759,55.06208,0.0],[82.92822,55.06256,0.0],[82.92973,55.06378,0.0],[82.93033,55.06462,0.0],[82.93176,55.06533,0.0],[82.93221,55.06634,0.0],[82.93237,55.06676,0.0],[82.93344,55.06773,0.0],[82.9352,55.06842,0.0],[82.93593,55.06951,0.0],[82.93638,55.06989,0.0],[82.93699,55.07027,0.0],[82.93805,55.07092,0.0],[82.93848,55.07153,0.0],[82.94373,55.07441,0.0],[82.93775,55.07801,0.0],[82.93719,55.0785,0.0],[82.93688,55.08112,0.0],[82.93684,55.08232,0.0],[82.93579,55.08319,0.0],[82.93529,55.0833,0.0],[82.93023,55.08527,0.0],[82.92906,55.08584,0.0],[82.92846,55.0869,0.0],[82.92867,55.08767,0.0],[82.92963,55.08833,0.0],[82.93069,55.08922,0.0],[82.93034,55.09021,0.0],[82.92934,55.09095,0.0],[82.93062,55.09286,0.0],[82.93094,55.09313,0.0],[82.92909,55.09364,0.0],[82.92891,55.09491,0.0],[82.92989,55.09812,0.0],[82.92849,55.09894,0.0],[82.92838,55.10305,0.0],[82.92796,55.10728,0.0],[82.92605,55.10777,0.0],[82.92578,55.10784,0.0],[82.92137,55.10897,0.0],[82.92077,55.10952,0.0],[82.92038,55.11275,0.0],[82.92158,55.11416,0.0],[82.92959,55.11831,0.0],[82.93015,55.1206,0.0],[82.96664,55.11197,0.0],[82.97345,55.1143,0.0],[82.97817,55.11557,0.0],[82.98278,55.11501,0.0],[82.99172,55.11664,0.0],[82.9975,55.11652,0.0],[83.00415,55.11386,0.0]]]]}},{"type":"Feature","properties":{"uesi_id":"RUS_R1751445","nbhd_code":"RUS_R1751445_7","nbhd_name":"\u00d0\u00a6\u00d0\u00b5\u00d0\u00bd\u00d1\u201a\u00d1\u20ac\u00d0\u00b0\u00d0\u00bb\u00d1\u0152\u00d0\u00bd\u00d1\u2039\u00d0\u00b9 \u00d1\u20ac\u00d0\u00b0\u00d0\u00b9\u00d0\u00be\u00d0\u00bd"},"geometry":{"type":"MultiPolygon","coordinates":[[[[82.94843,55.03521,0.0],[82.94585,55.03468,0.0],[82.94221,55.03419,0.0],[82.94128,55.03402,0.0],[82.9402,55.03293,0.0],[82.93938,55.03206,0.0],[82.93823,55.03085,0.0],[82.93666,55.02975,0.0],[82.93734,55.02693,0.0],[82.93599,55.02585,0.0],[82.93409,55.02435,0.0],[82.93318,55.02366,0.0],[82.93204,55.02282,0.0],[82.93151,55.02242,0.0],[82.93108,55.0219,0.0],[82.93071,55.02126,0.0],[82.93054,55.0206,0.0],[82.93061,55.02013,0.0],[82.9307,55.01964,0.0],[82.93102,55.01878,0.0],[82.93114,55.01838,0.0],[82.93129,55.01772,0.0],[82.9313,55.01719,0.0],[82.93121,55.01677,0.0],[82.93103,55.01636,0.0],[82.93079,55.01605,0.0],[82.93008,55.01536,0.0],[82.92967,55.01504,0.0],[82.92912,55.01471,0.0],[82.9286,55.01448,0.0],[82.92798,55.01424,0.0],[82.92743,55.0141,0.0],[82.92665,55.01394,0.0],[82.92485,55.01373,0.0],[82.92449,55.01443,0.0],[82.92436,55.01481,0.0],[82.92366,55.01769,0.0],[82.92347,55.0187,0.0],[82.92316,55.01878,0.0],[82.92251,55.01904,0.0],[82.92082,55.02035,0.0],[82.92072,55.02042,0.0],[82.919,55.02133,0.0],[82.91868,55.02198,0.0],[82.91654,55.02959,0.0],[82.91625,55.03059,0.0],[82.91605,55.03148,0.0],[82.91571,55.0327,0.0],[82.91478,55.03611,0.0],[82.91466,55.03649,0.0],[82.91421,55.03797,0.0],[82.91422,55.03798,0.0],[82.91384,55.03941,0.0],[82.91347,55.04075,0.0],[82.91323,55.04165,0.0],[82.91317,55.04186,0.0],[82.91313,55.04202,0.0],[82.91235,55.04537,0.0],[82.91159,55.04825,0.0],[82.91138,55.04914,0.0],[82.9124,55.04939,0.0],[82.91327,55.04959,0.0],[82.91386,55.0497,0.0],[82.91458,55.04981,0.0],[82.91561,55.04996,0.0],[82.93873,55.05356,0.0],[82.93944,55.05367,0.0],[82.94283,55.0542,0.0],[82.94305,55.05358,0.0],[82.9435,55.05207,0.0],[82.94427,55.04929,0.0],[82.94492,55.04934,0.0],[82.94579,55.04941,0.0],[82.94579,55.04939,0.0],[82.94643,55.04704,0.0],[82.94666,55.0459,0.0],[82.9452,55.04579,0.0],[82.94526,55.04548,0.0],[82.9455,55.04462,0.0],[82.94625,55.04194,0.0],[82.94691,55.03977,0.0],[82.94701,55.03945,0.0],[82.94747,55.03806,0.0],[82.94775,55.03723,0.0],[82.94843,55.03521,0.0]]]]}},{"type":"Feature","properties":{"uesi_id":"RUS_R1751445","nbhd_code":"RUS_R1751445_8","nbhd_name":"\u00d0\u2013\u00d0\u00b5\u00d0\u00bb\u00d0\u00b5\u00d0\u00b7\u00d0\u00bd\u00d0\u00be\u00d0\u00b4\u00d0\u00be\u00d1\u20ac\u00d0\u00be\u00d0\u00b6\u00d0\u00bd\u00d1\u2039\u00d0\u00b9 \u00d1\u20ac\u00d0\u00b0\u00d0\u00b9\u00d0\u00be\u00d0\u00bd"},"geometry":{"type":"MultiPolygon","coordinates":[[[[82.92485,55.01373,0.0],[82.92342,55.01354,0.0],[82.92282,55.01332,0.0],[82.91843,55.00962,0.0],[82.90346,55.01762,0.0],[82.89124,55.02284,0.0],[82.88411,55.02662,0.0],[82.87451,55.03162,0.0],[82.87605,55.03551,0.0],[82.87703,55.03802,0.0],[82.8779,55.04023,0.0],[82.88381,55.0419,0.0],[82.89686,55.04539,0.0],[82.9024,55.04683,0.0],[82.9032,55.04703,0.0],[82.91138,55.04914,0.0],[82.91159,55.04825,0.0],[82.91235,55.04537,0.0],[82.91313,55.04202,0.0],[82.91317,55.04186,0.0],[82.91323,55.04165,0.0],[82.91347,55.04075,0.0],[82.91384,55.03941,0.0],[82.91422,55.03798,0.0],[82.91421,55.03797,0.0],[82.91466,55.03649,0.0],[82.91478,55.03611,0.0],[82.91571,55.0327,0.0],[82.91605,55.03148,0.0],[82.91625,55.03059,0.0],[82.91654,55.02959,0.0],[82.91868,55.02198,0.0],[82.919,55.02133,0.0],[82.92072,55.02042,0.0],[82.92082,55.02035,0.0],[82.92251,55.01904,0.0],[82.92316,55.01878,0.0],[82.92347,55.0187,0.0],[82.92366,55.01769,0.0],[82.92436,55.01481,0.0],[82.92449,55.01443,0.0],[82.92485,55.01373,0.0]]]]}},{"type":"Feature","properties":{"uesi_id":"RUS_R1751445","nbhd_code":"RUS_R1751445_9","nbhd_name":"\u00d0\u017e\u00d0\u00ba\u00d1\u201a\u00d1\u008f\u00d0\u00b1\u00d1\u20ac\u00d1\u0152\u00d1\u0081\u00d0\u00ba\u00d0\u00b8\u00d0\u00b9 \u00d1\u20ac\u00d0\u00b0\u00d0\u00b9\u00d0\u00be\u00d0\u00bd"},"geometry":{"type":"MultiPolygon","coordinates":[[[[83.08346,54.98432,0.0],[83.0808,54.98421,0.0],[83.07774,54.98409,0.0],[83.07125,54.98378,0.0],[83.06211,54.98325,0.0],[83.05337,54.98166,0.0],[83.04966,54.98089,0.0],[83.04647,54.98036,0.0],[83.04228,54.97972,0.0],[83.02949,54.97455,0.0],[83.02807,54.97422,0.0],[83.02346,54.97446,0.0],[83.02165,54.97413,0.0],[83.0197,54.97363,0.0],[83.01615,54.97151,0.0],[83.01537,54.97104,0.0],[83.01451,54.97089,0.0],[83.01098,54.9713,0.0],[83.00977,54.97169,0.0],[83.00845,54.97244,0.0],[83.00675,54.97305,0.0],[83.00353,54.97314,0.0],[82.99554,54.97376,0.0],[82.99204,54.97473,0.0],[82.9886,54.9756,0.0],[82.98432,54.97637,0.0],[82.98296,54.97672,0.0],[82.98061,54.97747,0.0],[82.9785,54.97814,0.0],[82.9773,54.97872,0.0],[82.97607,54.97955,0.0],[82.97545,54.98076,0.0],[82.97491,54.98307,0.0],[82.97481,54.98372,0.0],[82.97497,54.98435,0.0],[82.97571,54.98528,0.0],[82.9762,54.98599,0.0],[82.97642,54.98658,0.0],[82.97633,54.98702,0.0],[82.9761,54.98746,0.0],[82.97567,54.98782,0.0],[82.97492,54.98802,0.0],[82.97357,54.98802,0.0],[82.97146,54.98824,0.0],[82.96828,54.9887,0.0],[82.96684,54.98913,0.0],[82.96466,54.9902,0.0],[82.96108,54.99194,0.0],[82.95542,54.99396,0.0],[82.94844,54.99625,0.0],[82.93907,55.00174,0.0],[82.93098,55.00506,0.0],[82.92536,55.00738,0.0],[82.9227,55.00834,0.0],[82.91843,55.00962,0.0],[82.92282,55.01332,0.0],[82.92342,55.01354,0.0],[82.92485,55.01373,0.0],[82.92665,55.01394,0.0],[82.92743,55.0141,0.0],[82.92798,55.01424,0.0],[82.9286,55.01448,0.0],[82.92912,55.01471,0.0],[82.92967,55.01504,0.0],[82.93008,55.01536,0.0],[82.93079,55.01605,0.0],[82.93103,55.01636,0.0],[82.93121,55.01677,0.0],[82.9313,55.01719,0.0],[82.93129,55.01772,0.0],[82.93114,55.01838,0.0],[82.93102,55.01878,0.0],[82.9307,55.01964,0.0],[82.93061,55.02013,0.0],[82.93054,55.0206,0.0],[82.93071,55.02126,0.0],[82.93108,55.0219,0.0],[82.93151,55.02242,0.0],[82.93204,55.02282,0.0],[82.93318,55.02366,0.0],[82.93409,55.02435,0.0],[82.93599,55.02585,0.0],[82.93734,55.02693,0.0],[82.93666,55.02975,0.0],[82.93823,55.03085,0.0],[82.93938,55.03206,0.0],[82.9402,55.03293,0.0],[82.94128,55.03402,0.0],[82.94221,55.03419,0.0],[82.94585,55.03468,0.0],[82.94843,55.03521,0.0],[82.94969,55.03547,0.0],[82.95226,55.03714,0.0],[82.95252,55.03731,0.0],[82.95776,55.03785,0.0],[82.96415,55.03876,0.0],[82.96652,55.04067,0.0],[82.96843,55.04028,0.0],[82.96951,55.04007,0.0],[82.97126,55.03972,0.0],[82.97184,55.03956,0.0],[82.97252,55.03936,0.0],[82.97391,55.03892,0.0],[82.97562,55.0383,0.0],[82.9774,55.03733,0.0],[82.97769,55.03715,0.0],[82.97915,55.03627,0.0],[82.98126,55.03486,0.0],[82.98796,55.03833,0.0],[82.99053,55.03877,0.0],[82.991,55.03896,0.0],[82.99479,55.03324,0.0],[82.99499,55.03332,0.0],[82.99565,55.03361,0.0],[82.99944,55.03507,0.0],[83.00043,55.03544,0.0],[83.00137,55.03576,0.0],[83.00148,55.0358,0.0],[83.00239,55.03607,0.0],[83.00313,55.03627,0.0],[83.00366,55.03638,0.0],[83.00419,55.03648,0.0],[83.00531,55.03668,0.0],[83.00656,55.03691,0.0],[83.01368,55.03802,0.0],[83.01474,55.03819,0.0],[83.01492,55.03822,0.0],[83.01502,55.03823,0.0],[83.01512,55.03825,0.0],[83.01719,55.03856,0.0],[83.0174,55.03859,0.0],[83.01923,55.03888,0.0],[83.02225,55.03938,0.0],[83.02248,55.03942,0.0],[83.02505,55.03989,0.0],[83.0282,55.04049,0.0],[83.03052,55.04093,0.0],[83.03207,55.04123,0.0],[83.03402,55.0416,0.0],[83.03525,55.04183,0.0],[83.03842,55.04243,0.0],[83.03962,55.04266,0.0],[83.04047,55.04282,0.0],[83.04118,55.04295,0.0],[83.04126,55.04297,0.0],[83.0519,55.04514,0.0],[83.05503,55.04576,0.0],[83.05553,55.04585,0.0],[83.05815,55.04629,0.0],[83.05834,55.04632,0.0],[83.06233,55.04687,0.0],[83.06367,55.04705,0.0],[83.06462,55.04718,0.0],[83.0661,55.04738,0.0],[83.06949,55.04782,0.0],[83.07076,55.04806,0.0],[83.07156,55.04825,0.0],[83.07188,55.04833,0.0],[83.0732,55.04877,0.0],[83.07391,55.04901,0.0],[83.07456,55.04927,0.0],[83.07531,55.04957,0.0],[83.07566,55.04977,0.0],[83.07804,55.05113,0.0],[83.08125,55.05279,0.0],[83.08027,55.04657,0.0],[83.07958,55.04285,0.0],[83.07723,55.02933,0.0],[83.07602,55.0217,0.0],[83.07463,55.02146,0.0],[83.07323,55.01309,0.0],[83.07203,55.00619,0.0],[83.07132,55.00191,0.0],[83.07081,54.99873,0.0],[83.07205,54.99839,0.0],[83.07225,54.99623,0.0],[83.07461,54.99603,0.0],[83.07666,54.99638,0.0],[83.07814,54.9956,0.0],[83.08027,54.99505,0.0],[83.0795,54.99439,0.0],[83.07802,54.99367,0.0],[83.07677,54.9926,0.0],[83.07654,54.99191,0.0],[83.07661,54.99118,0.0],[83.07613,54.99072,0.0],[83.07572,54.98983,0.0],[83.08346,54.98432,0.0]]]]}},{"type":"Feature","properties":{"uesi_id":"RUS_R1751445","nbhd_code":"RUS_R1751445_10","nbhd_name":"\u00d0\u00a1\u00d0\u00be\u00d0\u00b2\u00d0\u00b5\u00d1\u201a\u00d1\u0081\u00d0\u00ba\u00d0\u00b8\u00d0\u00b9 \u00d1\u20ac\u00d0\u00b0\u00d0\u00b9\u00d0\u00be\u00d0\u00bd"},"geometry":{"type":"MultiPolygon","coordinates":[[[[83.14602,54.8189,0.0],[83.14476,54.81745,0.0],[83.13734,54.81597,0.0],[83.13916,54.81447,0.0],[83.13819,54.81207,0.0],[83.13632,54.80981,0.0],[83.13486,54.80637,0.0],[83.13047,54.80447,0.0],[83.12786,54.80203,0.0],[83.12245,54.80141,0.0],[83.11777,54.80092,0.0],[83.10419,54.80142,0.0],[83.10528,54.80697,0.0],[83.09869,54.80795,0.0],[83.09846,54.80827,0.0],[83.09836,54.80832,0.0],[83.09573,54.80851,0.0],[83.0955,54.80856,0.0],[83.09539,54.80865,0.0],[83.09474,54.80873,0.0],[83.08363,54.80945,0.0],[83.08511,54.81462,0.0],[83.08427,54.81761,0.0],[83.08247,54.82143,0.0],[83.08186,54.82429,0.0],[83.08213,54.82577,0.0],[83.08079,54.82833,0.0],[83.07985,54.82926,0.0],[83.07882,54.83021,0.0],[83.07724,54.83154,0.0],[83.07558,54.83232,0.0],[83.0744,54.83252,0.0],[83.07291,54.83246,0.0],[83.06848,54.8325,0.0],[83.06551,54.83243,0.0],[83.06308,54.83201,0.0],[83.06111,54.83085,0.0],[83.05796,54.82981,0.0],[83.05652,54.82981,0.0],[83.05437,54.83033,0.0],[83.05261,54.83116,0.0],[83.05106,54.83316,0.0],[83.05003,54.83403,0.0],[83.04918,54.83497,0.0],[83.04747,54.83588,0.0],[83.04603,54.83541,0.0],[83.04401,54.83441,0.0],[83.0441,54.834,0.0],[83.04379,54.83381,0.0],[83.04322,54.83371,0.0],[83.04278,54.83401,0.0],[83.03982,54.84018,0.0],[83.03918,54.84034,0.0],[83.03855,54.84017,0.0],[83.03835,54.83945,0.0],[83.03688,54.83948,0.0],[83.03575,54.83968,0.0],[83.03308,54.84149,0.0],[83.01525,54.84042,0.0],[83.01146,54.84051,0.0],[83.0084,54.84079,0.0],[83.00656,54.84113,0.0],[83.00318,54.84193,0.0],[82.9996,54.84332,0.0],[82.98153,54.85191,0.0],[82.97743,54.84961,0.0],[82.97377,54.84746,0.0],[82.97007,54.84655,0.0],[82.96852,54.84394,0.0],[82.96755,54.84336,0.0],[82.96547,54.84314,0.0],[82.9604,54.84142,0.0],[82.95824,54.8402,0.0],[82.95587,54.839,0.0],[82.95371,54.83792,0.0],[82.95152,54.83645,0.0],[82.9494,54.83564,0.0],[82.94534,54.83445,0.0],[82.94354,54.83378,0.0],[82.93859,54.83233,0.0],[82.93402,54.83153,0.0],[82.93056,54.83128,0.0],[82.92713,54.83052,0.0],[82.9264,54.8304,0.0],[82.92484,54.83003,0.0],[82.92422,54.83007,0.0],[82.92317,54.82989,0.0],[82.92455,54.85859,0.0],[82.925,54.86793,0.0],[82.94101,54.86776,0.0],[82.94114,54.87303,0.0],[82.97441,54.87262,0.0],[82.97495,54.87262,0.0],[82.98121,54.87263,0.0],[82.98153,54.8692,0.0],[82.9907,54.86841,0.0],[82.99084,54.8739,0.0],[82.99767,54.87371,0.0],[83.00372,54.88103,0.0],[83.01353,54.87788,0.0],[83.01534,54.88148,0.0],[83.01759,54.88401,0.0],[83.01871,54.88715,0.0],[83.02176,54.89155,0.0],[83.02358,54.89583,0.0],[83.0246,54.89783,0.0],[83.02551,54.9002,0.0],[83.03961,54.90003,0.0],[83.04108,54.8998,0.0],[83.04124,54.89953,0.0],[83.04183,54.8995,0.0],[83.04275,54.89955,0.0],[83.04394,54.90016,0.0],[83.04447,54.90086,0.0],[83.04371,54.90196,0.0],[83.04375,54.90267,0.0],[83.04725,54.90529,0.0],[83.05035,54.90588,0.0],[83.05094,54.90569,0.0],[83.04797,54.90181,0.0],[83.04474,54.8984,0.0],[83.04694,54.89756,0.0],[83.04794,54.89699,0.0],[83.04808,54.8966,0.0],[83.04865,54.89656,0.0],[83.04997,54.89755,0.0],[83.05181,54.89841,0.0],[83.05336,54.89963,0.0],[83.05516,54.90152,0.0],[83.05484,54.90177,0.0],[83.05736,54.90315,0.0],[83.05838,54.90279,0.0],[83.06252,54.9072,0.0],[83.06416,54.90767,0.0],[83.0654,54.90874,0.0],[83.06577,54.90975,0.0],[83.06594,54.91176,0.0],[83.06516,54.91293,0.0],[83.06825,54.9127,0.0],[83.0698,54.91038,0.0],[83.07457,54.91101,0.0],[83.0747,54.91216,0.0],[83.09059,54.91302,0.0],[83.09682,54.9138,0.0],[83.09906,54.9124,0.0],[83.11107,54.91175,0.0],[83.11384,54.91152,0.0],[83.11589,54.91115,0.0],[83.11814,54.90859,0.0],[83.11867,54.90798,0.0],[83.12088,54.90548,0.0],[83.12248,54.90463,0.0],[83.12348,54.90449,0.0],[83.12675,54.90383,0.0],[83.12986,54.90354,0.0],[83.13187,54.90198,0.0],[83.13418,54.901,0.0],[83.13715,54.88358,0.0],[83.12856,54.88044,0.0],[83.12371,54.87705,0.0],[83.12378,54.86336,0.0],[83.12578,54.85132,0.0],[83.12593,54.84929,0.0],[83.12646,54.84256,0.0],[83.12694,54.84221,0.0],[83.13565,54.84218,0.0],[83.13958,54.84055,0.0],[83.14149,54.8386,0.0],[83.1393,54.83856,0.0],[83.13912,54.83773,0.0],[83.14238,54.83599,0.0],[83.14089,54.83523,0.0],[83.13908,54.83505,0.0],[83.13648,54.8342,0.0],[83.13539,54.83336,0.0],[83.12771,54.82754,0.0],[83.12782,54.82671,0.0],[83.12876,54.82602,0.0],[83.13071,54.82575,0.0],[83.13305,54.82476,0.0],[83.13643,54.82409,0.0],[83.13961,54.82332,0.0],[83.1431,54.82202,0.0],[83.14389,54.82251,0.0],[83.14501,54.82187,0.0],[83.14602,54.8189,0.0]]]]}}]}