{"type":"FeatureCollection","name":"RUS_R335495","crs":{"type":"name","properties":{"name":"urn:ogc:def:crs:OGC:1.3:CRS84"}},"features":[{"type":"Feature","properties":{"uesi_id":"RUS_R335495","nbhd_code":"RUS_R335495_1","nbhd_name":"\u00d0\u0161\u00d0\u00b0\u00d0\u00bd\u00d0\u00b0\u00d0\u00b2\u00d0\u00b8\u00d0\u00bd\u00d1\u0081\u00d0\u00ba\u00d0\u00b8\u00d0\u00b9 \u00d1\u20ac\u00d0\u00b0\u00d0\u00b9\u00d0\u00be\u00d0\u00bd"},"geometry":{"type":"MultiPolygon","coordinates":[[[[43.99134,56.33641,0.0],[43.99083,56.33615,0.0],[43.98125,56.33238,0.0],[43.97231,56.32763,0.0],[43.97133,56.32683,0.0],[43.96256,56.31723,0.0],[43.96215,56.31177,0.0],[43.96289,56.30382,0.0],[43.95244,56.30391,0.0],[43.95212,56.3035,0.0],[43.95203,56.3035,0.0],[43.95193,56.3035,0.0],[43.95193,56.30345,0.0],[43.95175,56.30345,0.0],[43.95175,56.3034,0.0],[43.95149,56.3034,0.0],[43.95148,56.30345,0.0],[43.95081,56.30344,0.0],[43.95081,56.3034,0.0],[43.95061,56.3034,0.0],[43.95061,56.30344,0.0],[43.94995,56.30344,0.0],[43.94995,56.3034,0.0],[43.94974,56.3034,0.0],[43.94966,56.30329,0.0],[43.94901,56.30327,0.0],[43.9489,56.30338,0.0],[43.94887,56.30359,0.0],[43.94879,56.30369,0.0],[43.94851,56.30369,0.0],[43.94844,56.30369,0.0],[43.94851,56.30531,0.0],[43.94856,56.30668,0.0],[43.94858,56.30729,0.0],[43.94855,56.30762,0.0],[43.94849,56.30796,0.0],[43.94845,56.30813,0.0],[43.9484,56.30831,0.0],[43.94829,56.30863,0.0],[43.94816,56.30892,0.0],[43.94799,56.30923,0.0],[43.94766,56.30973,0.0],[43.94733,56.31016,0.0],[43.94728,56.31013,0.0],[43.94699,56.30993,0.0],[43.94688,56.30987,0.0],[43.94648,56.30963,0.0],[43.94631,56.30955,0.0],[43.94618,56.30951,0.0],[43.94603,56.30951,0.0],[43.94572,56.30953,0.0],[43.94512,56.30959,0.0],[43.94502,56.3096,0.0],[43.94472,56.30963,0.0],[43.94465,56.3094,0.0],[43.94459,56.30921,0.0],[43.94457,56.30915,0.0],[43.94457,56.30913,0.0],[43.94452,56.30897,0.0],[43.94441,56.30865,0.0],[43.94434,56.30841,0.0],[43.94418,56.30792,0.0],[43.94395,56.30721,0.0],[43.94337,56.30727,0.0],[43.94239,56.30737,0.0],[43.94173,56.30744,0.0],[43.94168,56.30744,0.0],[43.93959,56.30767,0.0],[43.9394,56.30769,0.0],[43.93923,56.30771,0.0],[43.93884,56.30744,0.0],[43.93865,56.30738,0.0],[43.93729,56.30714,0.0],[43.93665,56.30702,0.0],[43.9364,56.30698,0.0],[43.93656,56.3067,0.0],[43.93664,56.30655,0.0],[43.93666,56.30652,0.0],[43.93669,56.30647,0.0],[43.93671,56.30643,0.0],[43.93675,56.30636,0.0],[43.93696,56.30599,0.0],[43.93748,56.30506,0.0],[43.93752,56.30499,0.0],[43.93757,56.3049,0.0],[43.93797,56.30421,0.0],[43.93799,56.30416,0.0],[43.93832,56.3036,0.0],[43.93837,56.30352,0.0],[43.93843,56.3034,0.0],[43.93845,56.30338,0.0],[43.93892,56.30252,0.0],[43.93901,56.30237,0.0],[43.93908,56.30223,0.0],[43.93918,56.30205,0.0],[43.93937,56.30172,0.0],[43.93957,56.30136,0.0],[43.9397,56.30114,0.0],[43.93968,56.30112,0.0],[43.93958,56.30096,0.0],[43.93945,56.30077,0.0],[43.93934,56.3006,0.0],[43.93903,56.30017,0.0],[43.93824,56.29906,0.0],[43.93778,56.29842,0.0],[43.9375,56.29801,0.0],[43.93747,56.29798,0.0],[43.93745,56.29793,0.0],[43.93737,56.29782,0.0],[43.93696,56.29726,0.0],[43.9368,56.29703,0.0],[43.93658,56.29675,0.0],[43.9365,56.29663,0.0],[43.93636,56.29645,0.0],[43.93514,56.2963,0.0],[43.93394,56.29618,0.0],[43.93363,56.29616,0.0],[43.93314,56.29615,0.0],[43.93248,56.29617,0.0],[43.932,56.29621,0.0],[43.9316,56.29626,0.0],[43.93106,56.29635,0.0],[43.93057,56.29646,0.0],[43.93004,56.29661,0.0],[43.92962,56.29675,0.0],[43.92917,56.29692,0.0],[43.92884,56.29708,0.0],[43.92833,56.29735,0.0],[43.92138,56.30168,0.0],[43.91975,56.30269,0.0],[43.91932,56.30294,0.0],[43.91903,56.30309,0.0],[43.91869,56.30323,0.0],[43.91829,56.30335,0.0],[43.91788,56.30343,0.0],[43.91744,56.3035,0.0],[43.91059,56.30435,0.0],[43.90978,56.30447,0.0],[43.9092,56.30459,0.0],[43.90848,56.30481,0.0],[43.90802,56.30497,0.0],[43.90752,56.30518,0.0],[43.90668,56.30563,0.0],[43.90588,56.30607,0.0],[43.89295,56.30112,0.0],[43.88629,56.29844,0.0],[43.8834,56.29704,0.0],[43.87834,56.29436,0.0],[43.87348,56.29143,0.0],[43.87269,56.29057,0.0],[43.87241,56.29044,0.0],[43.87228,56.29037,0.0],[43.87196,56.29019,0.0],[43.87149,56.28997,0.0],[43.87068,56.28959,0.0],[43.87056,56.2895,0.0],[43.87053,56.2894,0.0],[43.87063,56.28924,0.0],[43.87061,56.28915,0.0],[43.87006,56.2888,0.0],[43.86961,56.28852,0.0],[43.86884,56.28804,0.0],[43.8688,56.28801,0.0],[43.8685,56.28785,0.0],[43.86744,56.28727,0.0],[43.86688,56.28701,0.0],[43.86633,56.28662,0.0],[43.8656,56.28605,0.0],[43.86532,56.28578,0.0],[43.84507,56.27806,0.0],[43.82657,56.27055,0.0],[43.82436,56.2699,0.0],[43.82096,56.26853,0.0],[43.81767,56.2679,0.0],[43.81159,56.2676,0.0],[43.80571,56.26771,0.0],[43.80403,56.26756,0.0],[43.80097,56.267,0.0],[43.79405,56.26663,0.0],[43.79407,56.26915,0.0],[43.79128,56.26936,0.0],[43.78694,56.27035,0.0],[43.78694,56.27038,0.0],[43.78668,56.27047,0.0],[43.78663,56.27042,0.0],[43.78634,56.27049,0.0],[43.78638,56.27054,0.0],[43.78573,56.27072,0.0],[43.78567,56.27064,0.0],[43.78503,56.27079,0.0],[43.78507,56.27082,0.0],[43.78472,56.27089,0.0],[43.78469,56.27085,0.0],[43.78118,56.27154,0.0],[43.77892,56.2721,0.0],[43.77906,56.27229,0.0],[43.78051,56.27448,0.0],[43.78073,56.27472,0.0],[43.78068,56.27484,0.0],[43.77188,56.27644,0.0],[43.76603,56.27712,0.0],[43.76451,56.27729,0.0],[43.7717,56.27785,0.0],[43.76733,56.28875,0.0],[43.76756,56.29073,0.0],[43.76486,56.29405,0.0],[43.75981,56.30644,0.0],[43.75511,56.30642,0.0],[43.7531,56.30549,0.0],[43.74325,56.30266,0.0],[43.74244,56.30343,0.0],[43.74245,56.30464,0.0],[43.74161,56.30532,0.0],[43.73967,56.30592,0.0],[43.73946,56.30656,0.0],[43.74335,56.30665,0.0],[43.74346,56.30732,0.0],[43.74472,56.30723,0.0],[43.74477,56.30749,0.0],[43.74515,56.3075,0.0],[43.74586,56.30751,0.0],[43.74588,56.30762,0.0],[43.75145,56.30763,0.0],[43.75144,56.30703,0.0],[43.7531,56.30706,0.0],[43.75311,56.30749,0.0],[43.75355,56.30747,0.0],[43.75363,56.3069,0.0],[43.75385,56.30686,0.0],[43.75427,56.30692,0.0],[43.75503,56.307,0.0],[43.75564,56.30767,0.0],[43.75769,56.30833,0.0],[43.7589,56.30842,0.0],[43.75964,56.30935,0.0],[43.81274,56.31137,0.0],[43.81861,56.3116,0.0],[43.83082,56.31207,0.0],[43.85071,56.31289,0.0],[43.87229,56.31372,0.0],[43.87257,56.31373,0.0],[43.8727,56.31373,0.0],[43.87337,56.31375,0.0],[43.87423,56.31379,0.0],[43.87433,56.31379,0.0],[43.87464,56.3138,0.0],[43.87568,56.31383,0.0],[43.87826,56.31394,0.0],[43.87909,56.31397,0.0],[43.87996,56.31402,0.0],[43.88081,56.31405,0.0],[43.88222,56.31411,0.0],[43.88288,56.31413,0.0],[43.88305,56.31414,0.0],[43.88353,56.31416,0.0],[43.88446,56.31419,0.0],[43.8856,56.31426,0.0],[43.88599,56.31428,0.0],[43.88746,56.31433,0.0],[43.88893,56.31439,0.0],[43.88978,56.31443,0.0],[43.88994,56.31443,0.0],[43.89009,56.31444,0.0],[43.89081,56.31446,0.0],[43.89206,56.31451,0.0],[43.89318,56.31456,0.0],[43.89338,56.31457,0.0],[43.89401,56.31459,0.0],[43.895,56.31464,0.0],[43.89886,56.31479,0.0],[43.90274,56.31492,0.0],[43.90375,56.31495,0.0],[43.90385,56.31496,0.0],[43.90443,56.315,0.0],[43.90479,56.31504,0.0],[43.90487,56.31505,0.0],[43.90506,56.31507,0.0],[43.90533,56.31511,0.0],[43.90541,56.31512,0.0],[43.90574,56.31517,0.0],[43.90611,56.31524,0.0],[43.90849,56.3157,0.0],[43.90946,56.31588,0.0],[43.90988,56.31595,0.0],[43.91129,56.31622,0.0],[43.91136,56.31623,0.0],[43.91165,56.31629,0.0],[43.91209,56.31637,0.0],[43.91219,56.31639,0.0],[43.91483,56.3169,0.0],[43.91726,56.31735,0.0],[43.91818,56.31753,0.0],[43.91892,56.31767,0.0],[43.9191,56.3177,0.0],[43.91931,56.31774,0.0],[43.91958,56.3178,0.0],[43.91974,56.31783,0.0],[43.92014,56.31791,0.0],[43.9207,56.31801,0.0],[43.92226,56.31831,0.0],[43.92383,56.31861,0.0],[43.92497,56.31884,0.0],[43.92552,56.31894,0.0],[43.92599,56.31903,0.0],[43.92622,56.31907,0.0],[43.92634,56.31909,0.0],[43.92662,56.31915,0.0],[43.92682,56.31918,0.0],[43.92698,56.31921,0.0],[43.92734,56.31928,0.0],[43.92762,56.31934,0.0],[43.92795,56.3194,0.0],[43.92828,56.31946,0.0],[43.92872,56.31957,0.0],[43.92887,56.3196,0.0],[43.92945,56.31974,0.0],[43.93068,56.32,0.0],[43.93057,56.3205,0.0],[43.93051,56.32075,0.0],[43.93049,56.32083,0.0],[43.9304,56.32111,0.0],[43.93033,56.32131,0.0],[43.93026,56.32154,0.0],[43.93011,56.32207,0.0],[43.93003,56.32235,0.0],[43.93,56.32248,0.0],[43.92984,56.32307,0.0],[43.92969,56.32363,0.0],[43.92964,56.32384,0.0],[43.92948,56.32442,0.0],[43.92941,56.32469,0.0],[43.92938,56.32479,0.0],[43.92922,56.32529,0.0],[43.92917,56.32542,0.0],[43.92915,56.32551,0.0],[43.9291,56.32574,0.0],[43.92899,56.32618,0.0],[43.92894,56.32637,0.0],[43.92888,56.32665,0.0],[43.92885,56.32676,0.0],[43.92877,56.32698,0.0],[43.92866,56.32732,0.0],[43.92858,56.32758,0.0],[43.92856,56.32769,0.0],[43.92851,56.32789,0.0],[43.92842,56.32842,0.0],[43.92831,56.32876,0.0],[43.92704,56.33366,0.0],[43.92638,56.33512,0.0],[43.92598,56.33582,0.0],[43.92562,56.33617,0.0],[43.92526,56.33648,0.0],[43.92543,56.33653,0.0],[43.92346,56.33806,0.0],[43.92264,56.33888,0.0],[43.92226,56.3394,0.0],[43.92182,56.33997,0.0],[43.92139,56.34083,0.0],[43.92114,56.34179,0.0],[43.92106,56.3426,0.0],[43.92089,56.34789,0.0],[43.92091,56.34864,0.0],[43.921,56.34917,0.0],[43.9212,56.34972,0.0],[43.92359,56.35356,0.0],[43.9156,56.35517,0.0],[43.92489,56.36123,0.0],[43.92165,56.36603,0.0],[43.9276,56.36727,0.0],[43.93084,56.36374,0.0],[43.934,56.36157,0.0],[43.93494,56.3606,0.0],[43.93489,56.35946,0.0],[43.93394,56.35854,0.0],[43.9302,56.35872,0.0],[43.92888,56.35228,0.0],[43.95268,56.34792,0.0],[43.96652,56.34279,0.0],[43.97954,56.33733,0.0],[43.98558,56.33634,0.0],[43.99134,56.33641,0.0]]]]}},{"type":"Feature","properties":{"uesi_id":"RUS_R335495","nbhd_code":"RUS_R335495_2","nbhd_name":"\u00d0\u00a1\u00d0\u00be\u00d1\u20ac\u00d0\u00bc\u00d0\u00be\u00d0\u00b2\u00d1\u0081\u00d0\u00ba\u00d0\u00b8\u00d0\u00b9 \u00d1\u20ac\u00d0\u00b0\u00d0\u00b9\u00d0\u00be\u00d0\u00bd"},"geometry":{"type":"MultiPolygon","coordinates":[[[[43.90788,56.35734,0.0],[43.90583,56.35462,0.0],[43.90564,56.3545,0.0],[43.9061,56.35443,0.0],[43.9057,56.35376,0.0],[43.90463,56.35318,0.0],[43.90399,56.35308,0.0],[43.90379,56.35139,0.0],[43.90416,56.35015,0.0],[43.9039,56.34989,0.0],[43.9034,56.34958,0.0],[43.89936,56.34297,0.0],[43.89886,56.34307,0.0],[43.8952,56.34381,0.0],[43.89365,56.34412,0.0],[43.89279,56.34429,0.0],[43.89173,56.34446,0.0],[43.89009,56.34463,0.0],[43.88982,56.34464,0.0],[43.88968,56.34464,0.0],[43.88945,56.3446,0.0],[43.88929,56.34417,0.0],[43.88914,56.34383,0.0],[43.88903,56.34347,0.0],[43.88896,56.34309,0.0],[43.88863,56.34169,0.0],[43.88853,56.3412,0.0],[43.88841,56.34072,0.0],[43.88823,56.33985,0.0],[43.88814,56.33949,0.0],[43.88803,56.33911,0.0],[43.88798,56.33894,0.0],[43.88781,56.33856,0.0],[43.8876,56.33816,0.0],[43.8875,56.33801,0.0],[43.88741,56.33789,0.0],[43.88736,56.33781,0.0],[43.88711,56.33748,0.0],[43.8868,56.33689,0.0],[43.88663,56.33653,0.0],[43.8866,56.33648,0.0],[43.88648,56.33626,0.0],[43.88616,56.3364,0.0],[43.88594,56.3365,0.0],[43.88577,56.33659,0.0],[43.88462,56.33734,0.0],[43.88426,56.33757,0.0],[43.8841,56.33769,0.0],[43.88382,56.33787,0.0],[43.88375,56.33792,0.0],[43.88317,56.3383,0.0],[43.88267,56.33862,0.0],[43.8817,56.33924,0.0],[43.88055,56.34,0.0],[43.88038,56.34012,0.0],[43.87957,56.34065,0.0],[43.87877,56.34117,0.0],[43.87869,56.34122,0.0],[43.87864,56.34125,0.0],[43.87852,56.34133,0.0],[43.8783,56.34148,0.0],[43.8779,56.34174,0.0],[43.8775,56.34199,0.0],[43.87661,56.34254,0.0],[43.87615,56.34283,0.0],[43.87583,56.34303,0.0],[43.87511,56.34349,0.0],[43.87434,56.34396,0.0],[43.87372,56.34433,0.0],[43.87344,56.34417,0.0],[43.87347,56.34399,0.0],[43.87013,56.33829,0.0],[43.86995,56.33793,0.0],[43.86986,56.3377,0.0],[43.86962,56.33672,0.0],[43.86947,56.33645,0.0],[43.86946,56.33594,0.0],[43.86906,56.33584,0.0],[43.86825,56.3357,0.0],[43.86775,56.33558,0.0],[43.86748,56.3355,0.0],[43.86709,56.33533,0.0],[43.86682,56.33517,0.0],[43.86674,56.33504,0.0],[43.86666,56.33487,0.0],[43.86654,56.33477,0.0],[43.86622,56.33465,0.0],[43.86584,56.33452,0.0],[43.86564,56.33445,0.0],[43.86558,56.33442,0.0],[43.86556,56.33335,0.0],[43.86155,56.33198,0.0],[43.86131,56.33192,0.0],[43.86122,56.33195,0.0],[43.86099,56.33202,0.0],[43.86061,56.33212,0.0],[43.86014,56.33224,0.0],[43.86,56.33227,0.0],[43.85919,56.33246,0.0],[43.85755,56.33284,0.0],[43.8574,56.33287,0.0],[43.85735,56.33289,0.0],[43.85698,56.33297,0.0],[43.85324,56.33384,0.0],[43.85311,56.33386,0.0],[43.8529,56.33391,0.0],[43.85098,56.33436,0.0],[43.85074,56.33442,0.0],[43.85029,56.33456,0.0],[43.84962,56.33481,0.0],[43.84926,56.33499,0.0],[43.84913,56.33505,0.0],[43.84861,56.33533,0.0],[43.84858,56.33535,0.0],[43.84843,56.33546,0.0],[43.8483,56.33555,0.0],[43.84808,56.33572,0.0],[43.84783,56.33595,0.0],[43.84765,56.33612,0.0],[43.84763,56.33615,0.0],[43.84745,56.33634,0.0],[43.84696,56.3369,0.0],[43.84634,56.33763,0.0],[43.84569,56.33838,0.0],[43.84519,56.33897,0.0],[43.84507,56.33911,0.0],[43.84482,56.33906,0.0],[43.84438,56.33896,0.0],[43.84421,56.33892,0.0],[43.84359,56.33877,0.0],[43.84345,56.33874,0.0],[43.84326,56.33868,0.0],[43.84315,56.33861,0.0],[43.84301,56.33847,0.0],[43.84293,56.33839,0.0],[43.84291,56.33837,0.0],[43.84268,56.33815,0.0],[43.84239,56.33787,0.0],[43.8423,56.33779,0.0],[43.84218,56.33771,0.0],[43.84206,56.33766,0.0],[43.84185,56.3376,0.0],[43.84175,56.33758,0.0],[43.84167,56.33756,0.0],[43.83981,56.33708,0.0],[43.83978,56.33719,0.0],[43.83974,56.33726,0.0],[43.8397,56.33734,0.0],[43.83943,56.3376,0.0],[43.83925,56.33777,0.0],[43.8392,56.33784,0.0],[43.83908,56.33799,0.0],[43.83907,56.33803,0.0],[43.83907,56.33806,0.0],[43.8389,56.33828,0.0],[43.83813,56.33915,0.0],[43.83801,56.33951,0.0],[43.83783,56.33979,0.0],[43.83774,56.33995,0.0],[43.83749,56.33998,0.0],[43.83723,56.33997,0.0],[43.83721,56.34024,0.0],[43.83691,56.3407,0.0],[43.83658,56.34124,0.0],[43.83643,56.34148,0.0],[43.83546,56.34225,0.0],[43.83514,56.34187,0.0],[43.83516,56.34168,0.0],[43.83479,56.34149,0.0],[43.83445,56.34114,0.0],[43.83401,56.34054,0.0],[43.83378,56.34033,0.0],[43.83348,56.34027,0.0],[43.8332,56.34009,0.0],[43.83291,56.33986,0.0],[43.83268,56.33979,0.0],[43.83222,56.33986,0.0],[43.83208,56.3398,0.0],[43.83191,56.3397,0.0],[43.83148,56.33959,0.0],[43.83065,56.33942,0.0],[43.83048,56.33937,0.0],[43.8304,56.33934,0.0],[43.83013,56.33923,0.0],[43.8291,56.33941,0.0],[43.82747,56.33913,0.0],[43.82547,56.33863,0.0],[43.8229,56.33746,0.0],[43.82094,56.33579,0.0],[43.82002,56.33457,0.0],[43.81675,56.33446,0.0],[43.81464,56.33446,0.0],[43.81081,56.33445,0.0],[43.80655,56.33443,0.0],[43.80559,56.33448,0.0],[43.80374,56.3344,0.0],[43.80374,56.3352,0.0],[43.80193,56.33562,0.0],[43.80218,56.33591,0.0],[43.80168,56.33612,0.0],[43.80117,56.33627,0.0],[43.79951,56.33451,0.0],[43.79789,56.33486,0.0],[43.79723,56.33499,0.0],[43.79708,56.3349,0.0],[43.79669,56.33473,0.0],[43.79462,56.33391,0.0],[43.79427,56.33377,0.0],[43.79376,56.33356,0.0],[43.79345,56.33343,0.0],[43.78291,56.32872,0.0],[43.78116,56.32788,0.0],[43.78094,56.32774,0.0],[43.78078,56.32763,0.0],[43.78034,56.32733,0.0],[43.77993,56.32696,0.0],[43.77961,56.32658,0.0],[43.77922,56.326,0.0],[43.77841,56.32454,0.0],[43.77811,56.32415,0.0],[43.77779,56.32382,0.0],[43.77743,56.32357,0.0],[43.77685,56.32322,0.0],[43.7763,56.32295,0.0],[43.7754,56.32263,0.0],[43.77317,56.32195,0.0],[43.75468,56.31606,0.0],[43.75289,56.31549,0.0],[43.71733,56.31542,0.0],[43.71586,56.31663,0.0],[43.70798,56.31507,0.0],[43.70386,56.31633,0.0],[43.65342,56.31622,0.0],[43.66118,56.33004,0.0],[43.67832,56.35439,0.0],[43.69816,56.35362,0.0],[43.7214,56.3523,0.0],[43.73838,56.35203,0.0],[43.72705,56.37583,0.0],[43.73503,56.39516,0.0],[43.73679,56.39603,0.0],[43.74812,56.40163,0.0],[43.75664,56.40179,0.0],[43.76681,56.40144,0.0],[43.78292,56.40231,0.0],[43.79209,56.40342,0.0],[43.7957,56.40513,0.0],[43.79769,56.40551,0.0],[43.79902,56.40529,0.0],[43.79969,56.40517,0.0],[43.8013,56.4053,0.0],[43.80269,56.40517,0.0],[43.80391,56.40465,0.0],[43.80393,56.4042,0.0],[43.80513,56.40386,0.0],[43.80599,56.40363,0.0],[43.80703,56.40427,0.0],[43.80502,56.40523,0.0],[43.80318,56.40657,0.0],[43.79756,56.4096,0.0],[43.79608,56.41125,0.0],[43.79132,56.41354,0.0],[43.7898,56.41495,0.0],[43.78501,56.41746,0.0],[43.78516,56.41997,0.0],[43.78878,56.42059,0.0],[43.79583,56.42156,0.0],[43.80666,56.42205,0.0],[43.81419,56.42092,0.0],[43.8175,56.42043,0.0],[43.82754,56.41774,0.0],[43.8357,56.41392,0.0],[43.84312,56.40864,0.0],[43.84905,56.40322,0.0],[43.86076,56.39691,0.0],[43.86596,56.3929,0.0],[43.87472,56.38383,0.0],[43.88095,56.37626,0.0],[43.8854,56.36742,0.0],[43.88613,56.36603,0.0],[43.8926,56.36057,0.0],[43.90252,56.35799,0.0],[43.90788,56.35734,0.0]]]]}},{"type":"Feature","properties":{"uesi_id":"RUS_R335495","nbhd_code":"RUS_R335495_3","nbhd_name":"\u00d0\u0090\u00d0\u00b2\u00d1\u201a\u00d0\u00be\u00d0\u00b7\u00d0\u00b0\u00d0\u00b2\u00d0\u00be\u00d0\u00b4\u00d1\u0081\u00d0\u00ba\u00d0\u00b8\u00d0\u00b9 \u00d1\u20ac\u00d0\u00b0\u00d0\u00b9\u00d0\u00be\u00d0\u00bd"},"geometry":{"type":"MultiPolygon","coordinates":[[[[43.94119,56.247,0.0],[43.93665,56.24447,0.0],[43.92043,56.23336,0.0],[43.91613,56.2311,0.0],[43.91098,56.22804,0.0],[43.90412,56.22484,0.0],[43.88984,56.21926,0.0],[43.85292,56.20788,0.0],[43.8346,56.19996,0.0],[43.81473,56.18973,0.0],[43.80594,56.18811,0.0],[43.79213,56.18555,0.0],[43.76602,56.18513,0.0],[43.74245,56.1882,0.0],[43.70848,56.19353,0.0],[43.72004,56.21689,0.0],[43.71915,56.21905,0.0],[43.71577,56.21905,0.0],[43.71797,56.2257,0.0],[43.71767,56.22684,0.0],[43.71903,56.22729,0.0],[43.71932,56.22856,0.0],[43.72122,56.22861,0.0],[43.72135,56.22781,0.0],[43.72246,56.22717,0.0],[43.72391,56.22691,0.0],[43.72576,56.22798,0.0],[43.7242,56.22889,0.0],[43.73553,56.23137,0.0],[43.73376,56.23322,0.0],[43.73644,56.23435,0.0],[43.73794,56.23544,0.0],[43.73665,56.23614,0.0],[43.73981,56.23795,0.0],[43.74192,56.23919,0.0],[43.74371,56.2408,0.0],[43.74437,56.24229,0.0],[43.74321,56.2445,0.0],[43.74501,56.24516,0.0],[43.7435,56.25027,0.0],[43.74393,56.25031,0.0],[43.74396,56.25063,0.0],[43.74794,56.25102,0.0],[43.74791,56.25121,0.0],[43.74904,56.25134,0.0],[43.74852,56.25667,0.0],[43.75161,56.25667,0.0],[43.75165,56.25636,0.0],[43.75656,56.25638,0.0],[43.75741,56.25822,0.0],[43.7584,56.262,0.0],[43.76426,56.2622,0.0],[43.76556,56.26243,0.0],[43.76493,56.26339,0.0],[43.76433,56.26411,0.0],[43.764,56.26432,0.0],[43.76371,56.26437,0.0],[43.75977,56.26418,0.0],[43.75961,56.26527,0.0],[43.742,56.26414,0.0],[43.74202,56.26496,0.0],[43.7421,56.26638,0.0],[43.74586,56.2713,0.0],[43.74994,56.27386,0.0],[43.75382,56.27644,0.0],[43.76451,56.27729,0.0],[43.76603,56.27712,0.0],[43.77188,56.27644,0.0],[43.78068,56.27484,0.0],[43.78073,56.27472,0.0],[43.78051,56.27448,0.0],[43.77906,56.27229,0.0],[43.77892,56.2721,0.0],[43.78118,56.27154,0.0],[43.78469,56.27085,0.0],[43.78472,56.27089,0.0],[43.78507,56.27082,0.0],[43.78503,56.27079,0.0],[43.78567,56.27064,0.0],[43.78573,56.27072,0.0],[43.78638,56.27054,0.0],[43.78634,56.27049,0.0],[43.78663,56.27042,0.0],[43.78668,56.27047,0.0],[43.78694,56.27038,0.0],[43.78694,56.27035,0.0],[43.79128,56.26936,0.0],[43.79407,56.26915,0.0],[43.79405,56.26663,0.0],[43.80097,56.267,0.0],[43.80403,56.26756,0.0],[43.80571,56.26771,0.0],[43.81159,56.2676,0.0],[43.81767,56.2679,0.0],[43.82096,56.26853,0.0],[43.82436,56.2699,0.0],[43.82657,56.27055,0.0],[43.84507,56.27806,0.0],[43.85202,56.27261,0.0],[43.85699,56.27458,0.0],[43.86244,56.27653,0.0],[43.86432,56.27657,0.0],[43.86453,56.27648,0.0],[43.88051,56.28267,0.0],[43.89193,56.2815,0.0],[43.89846,56.27181,0.0],[43.89855,56.27131,0.0],[43.90461,56.26266,0.0],[43.90799,56.25809,0.0],[43.9085,56.25782,0.0],[43.91112,56.25576,0.0],[43.91271,56.25445,0.0],[43.91292,56.25424,0.0],[43.91325,56.25378,0.0],[43.91407,56.25327,0.0],[43.91411,56.25314,0.0],[43.91428,56.25294,0.0],[43.91657,56.25112,0.0],[43.91696,56.25084,0.0],[43.91715,56.25068,0.0],[43.91809,56.24992,0.0],[43.91817,56.24973,0.0],[43.91849,56.24963,0.0],[43.91891,56.24925,0.0],[43.91941,56.24881,0.0],[43.91988,56.24845,0.0],[43.91994,56.24841,0.0],[43.92014,56.24825,0.0],[43.92055,56.24792,0.0],[43.92104,56.24751,0.0],[43.92136,56.24729,0.0],[43.93005,56.25071,0.0],[43.93141,56.25036,0.0],[43.93177,56.25027,0.0],[43.93229,56.25009,0.0],[43.93337,56.24984,0.0],[43.93383,56.2497,0.0],[43.9341,56.24959,0.0],[43.93436,56.2496,0.0],[43.93473,56.24953,0.0],[43.93827,56.24834,0.0],[43.94119,56.247,0.0]]]]}},{"type":"Feature","properties":{"uesi_id":"RUS_R335495","nbhd_code":"RUS_R335495_4","nbhd_name":"\u00d0\u203a\u00d0\u00b5\u00d0\u00bd\u00d0\u00b8\u00d0\u00bd\u00d1\u0081\u00d0\u00ba\u00d0\u00b8\u00d0\u00b9 \u00d1\u20ac\u00d0\u00b0\u00d0\u00b9\u00d0\u00be\u00d0\u00bd"},"geometry":{"type":"MultiPolygon","coordinates":[[[[43.96517,56.268,0.0],[43.96067,56.26249,0.0],[43.95349,56.25659,0.0],[43.94623,56.25042,0.0],[43.94119,56.247,0.0],[43.93827,56.24834,0.0],[43.93473,56.24953,0.0],[43.93436,56.2496,0.0],[43.9341,56.24959,0.0],[43.93383,56.2497,0.0],[43.93337,56.24984,0.0],[43.93229,56.25009,0.0],[43.93177,56.25027,0.0],[43.93141,56.25036,0.0],[43.93005,56.25071,0.0],[43.92136,56.24729,0.0],[43.92104,56.24751,0.0],[43.92055,56.24792,0.0],[43.92014,56.24825,0.0],[43.91994,56.24841,0.0],[43.91988,56.24845,0.0],[43.91941,56.24881,0.0],[43.91891,56.24925,0.0],[43.91849,56.24963,0.0],[43.91817,56.24973,0.0],[43.91809,56.24992,0.0],[43.91715,56.25068,0.0],[43.91696,56.25084,0.0],[43.91657,56.25112,0.0],[43.91428,56.25294,0.0],[43.91411,56.25314,0.0],[43.91407,56.25327,0.0],[43.91325,56.25378,0.0],[43.91292,56.25424,0.0],[43.91271,56.25445,0.0],[43.91112,56.25576,0.0],[43.9085,56.25782,0.0],[43.90799,56.25809,0.0],[43.90461,56.26266,0.0],[43.89855,56.27131,0.0],[43.89846,56.27181,0.0],[43.89193,56.2815,0.0],[43.88051,56.28267,0.0],[43.86453,56.27648,0.0],[43.86432,56.27657,0.0],[43.86244,56.27653,0.0],[43.85699,56.27458,0.0],[43.85202,56.27261,0.0],[43.84507,56.27806,0.0],[43.86532,56.28578,0.0],[43.8656,56.28605,0.0],[43.86633,56.28662,0.0],[43.86688,56.28701,0.0],[43.86744,56.28727,0.0],[43.8685,56.28785,0.0],[43.8688,56.28801,0.0],[43.86884,56.28804,0.0],[43.86961,56.28852,0.0],[43.87006,56.2888,0.0],[43.87061,56.28915,0.0],[43.87063,56.28924,0.0],[43.87053,56.2894,0.0],[43.87056,56.2895,0.0],[43.87068,56.28959,0.0],[43.87149,56.28997,0.0],[43.87196,56.29019,0.0],[43.87228,56.29037,0.0],[43.87241,56.29044,0.0],[43.87269,56.29057,0.0],[43.87348,56.29143,0.0],[43.87834,56.29436,0.0],[43.8834,56.29704,0.0],[43.88629,56.29844,0.0],[43.89295,56.30112,0.0],[43.90588,56.30607,0.0],[43.90668,56.30563,0.0],[43.90752,56.30518,0.0],[43.90802,56.30497,0.0],[43.90848,56.30481,0.0],[43.9092,56.30459,0.0],[43.90978,56.30447,0.0],[43.91059,56.30435,0.0],[43.91744,56.3035,0.0],[43.91788,56.30343,0.0],[43.91829,56.30335,0.0],[43.91869,56.30323,0.0],[43.91903,56.30309,0.0],[43.91932,56.30294,0.0],[43.91975,56.30269,0.0],[43.92138,56.30168,0.0],[43.92833,56.29735,0.0],[43.92884,56.29708,0.0],[43.92917,56.29692,0.0],[43.92962,56.29675,0.0],[43.93004,56.29661,0.0],[43.93057,56.29646,0.0],[43.93106,56.29635,0.0],[43.9316,56.29626,0.0],[43.932,56.29621,0.0],[43.93248,56.29617,0.0],[43.93314,56.29615,0.0],[43.93363,56.29616,0.0],[43.93394,56.29618,0.0],[43.93514,56.2963,0.0],[43.93636,56.29645,0.0],[43.9365,56.29663,0.0],[43.93658,56.29675,0.0],[43.9368,56.29703,0.0],[43.93696,56.29726,0.0],[43.93737,56.29782,0.0],[43.93745,56.29793,0.0],[43.93747,56.29798,0.0],[43.9375,56.29801,0.0],[43.93778,56.29842,0.0],[43.93824,56.29906,0.0],[43.93903,56.30017,0.0],[43.93934,56.3006,0.0],[43.93945,56.30077,0.0],[43.93958,56.30096,0.0],[43.93968,56.30112,0.0],[43.9397,56.30114,0.0],[43.93957,56.30136,0.0],[43.93937,56.30172,0.0],[43.93918,56.30205,0.0],[43.93908,56.30223,0.0],[43.93901,56.30237,0.0],[43.93892,56.30252,0.0],[43.93845,56.30338,0.0],[43.93843,56.3034,0.0],[43.93837,56.30352,0.0],[43.93832,56.3036,0.0],[43.93799,56.30416,0.0],[43.93797,56.30421,0.0],[43.93757,56.3049,0.0],[43.93752,56.30499,0.0],[43.93748,56.30506,0.0],[43.93696,56.30599,0.0],[43.93675,56.30636,0.0],[43.93671,56.30643,0.0],[43.93669,56.30647,0.0],[43.93666,56.30652,0.0],[43.93664,56.30655,0.0],[43.93656,56.3067,0.0],[43.9364,56.30698,0.0],[43.93665,56.30702,0.0],[43.93729,56.30714,0.0],[43.93865,56.30738,0.0],[43.93884,56.30744,0.0],[43.93923,56.30771,0.0],[43.9394,56.30769,0.0],[43.93959,56.30767,0.0],[43.94168,56.30744,0.0],[43.94173,56.30744,0.0],[43.94239,56.30737,0.0],[43.94337,56.30727,0.0],[43.94395,56.30721,0.0],[43.94418,56.30792,0.0],[43.94434,56.30841,0.0],[43.94441,56.30865,0.0],[43.94452,56.30897,0.0],[43.94457,56.30913,0.0],[43.94457,56.30915,0.0],[43.94459,56.30921,0.0],[43.94465,56.3094,0.0],[43.94472,56.30963,0.0],[43.94502,56.3096,0.0],[43.94512,56.30959,0.0],[43.94572,56.30953,0.0],[43.94603,56.30951,0.0],[43.94618,56.30951,0.0],[43.94631,56.30955,0.0],[43.94648,56.30963,0.0],[43.94688,56.30987,0.0],[43.94699,56.30993,0.0],[43.94728,56.31013,0.0],[43.94733,56.31016,0.0],[43.94766,56.30973,0.0],[43.94799,56.30923,0.0],[43.94816,56.30892,0.0],[43.94829,56.30863,0.0],[43.9484,56.30831,0.0],[43.94845,56.30813,0.0],[43.94849,56.30796,0.0],[43.94855,56.30762,0.0],[43.94858,56.30729,0.0],[43.94856,56.30668,0.0],[43.94851,56.30531,0.0],[43.94844,56.30369,0.0],[43.94851,56.30369,0.0],[43.94879,56.30369,0.0],[43.94887,56.30359,0.0],[43.9489,56.30338,0.0],[43.94901,56.30327,0.0],[43.94966,56.30329,0.0],[43.94974,56.3034,0.0],[43.94995,56.3034,0.0],[43.94995,56.30344,0.0],[43.95061,56.30344,0.0],[43.95061,56.3034,0.0],[43.95081,56.3034,0.0],[43.95081,56.30344,0.0],[43.95148,56.30345,0.0],[43.95149,56.3034,0.0],[43.95175,56.3034,0.0],[43.95175,56.30345,0.0],[43.95193,56.30345,0.0],[43.95193,56.3035,0.0],[43.95203,56.3035,0.0],[43.95212,56.3035,0.0],[43.95244,56.30391,0.0],[43.96289,56.30382,0.0],[43.96273,56.29893,0.0],[43.96295,56.2889,0.0],[43.96334,56.2859,0.0],[43.96358,56.28173,0.0],[43.96375,56.28068,0.0],[43.96506,56.27246,0.0],[43.96517,56.268,0.0]]]]}},{"type":"Feature","properties":{"uesi_id":"RUS_R335495","nbhd_code":"RUS_R335495_5","nbhd_name":"\u00d0\u00a1\u00d0\u00be\u00d0\u00b2\u00d0\u00b5\u00d1\u201a\u00d1\u0081\u00d0\u00ba\u00d0\u00b8\u00d0\u00b9 \u00d1\u20ac\u00d0\u00b0\u00d0\u00b9\u00d0\u00be\u00d0\u00bd"},"geometry":{"type":"MultiPolygon","coordinates":[[[[44.08052,56.25957,0.0],[44.07862,56.25696,0.0],[44.07783,56.25501,0.0],[44.07727,56.25508,0.0],[44.07504,56.25508,0.0],[44.07492,56.25516,0.0],[44.07455,56.25519,0.0],[44.07404,56.25515,0.0],[44.07288,56.25496,0.0],[44.0729,56.25412,0.0],[44.07305,56.25392,0.0],[44.07282,56.25365,0.0],[44.07277,56.25343,0.0],[44.07264,56.2533,0.0],[44.07243,56.25329,0.0],[44.07212,56.2532,0.0],[44.07194,56.25309,0.0],[44.07192,56.25295,0.0],[44.07207,56.25275,0.0],[44.07161,56.25259,0.0],[44.07207,56.25235,0.0],[44.07225,56.25229,0.0],[44.07246,56.25226,0.0],[44.07334,56.25222,0.0],[44.07357,56.25216,0.0],[44.07426,56.25185,0.0],[44.07419,56.25178,0.0],[44.07405,56.2515,0.0],[44.07407,56.25134,0.0],[44.07421,56.25118,0.0],[44.07422,56.25082,0.0],[44.07413,56.2507,0.0],[44.07355,56.25043,0.0],[44.07285,56.25022,0.0],[44.07306,56.24952,0.0],[44.0734,56.24788,0.0],[44.07412,56.24722,0.0],[44.07438,56.24675,0.0],[44.07501,56.24642,0.0],[44.07662,56.24633,0.0],[44.07744,56.2459,0.0],[44.07789,56.24504,0.0],[44.07529,56.24426,0.0],[44.07227,56.24444,0.0],[44.06774,56.24495,0.0],[44.06739,56.24659,0.0],[44.06557,56.24847,0.0],[44.06112,56.24636,0.0],[44.05933,56.24505,0.0],[44.05805,56.24503,0.0],[44.04771,56.24745,0.0],[44.03998,56.24869,0.0],[44.0339,56.24906,0.0],[44.03377,56.25254,0.0],[44.03446,56.25363,0.0],[44.03581,56.25382,0.0],[44.03608,56.25425,0.0],[44.03814,56.25399,0.0],[44.03925,56.25569,0.0],[44.04016,56.25541,0.0],[44.04201,56.25677,0.0],[44.04064,56.2579,0.0],[44.04506,56.26084,0.0],[44.04425,56.26156,0.0],[44.04331,56.26149,0.0],[44.04235,56.26134,0.0],[44.04151,56.26098,0.0],[44.04062,56.26095,0.0],[44.04028,56.26112,0.0],[44.03992,56.26119,0.0],[44.03843,56.26112,0.0],[44.03709,56.26117,0.0],[44.03721,56.26082,0.0],[44.03604,56.2607,0.0],[44.03522,56.26078,0.0],[44.03385,56.26032,0.0],[44.03305,56.26002,0.0],[44.03255,56.25992,0.0],[44.01646,56.26769,0.0],[44.01811,56.26892,0.0],[44.01981,56.26991,0.0],[44.02067,56.27017,0.0],[44.02175,56.27054,0.0],[44.02255,56.27087,0.0],[44.02426,56.27185,0.0],[44.0249,56.27245,0.0],[44.02564,56.27298,0.0],[44.02676,56.27365,0.0],[44.02626,56.27513,0.0],[44.02594,56.27598,0.0],[44.025,56.27569,0.0],[44.02421,56.27562,0.0],[44.01814,56.27533,0.0],[44.01644,56.27462,0.0],[44.01582,56.27447,0.0],[44.01508,56.27428,0.0],[44.01463,56.27408,0.0],[44.01409,56.27387,0.0],[44.00962,56.27189,0.0],[44.00894,56.27154,0.0],[44.00874,56.27147,0.0],[44.00856,56.27133,0.0],[44.00831,56.27126,0.0],[44.00823,56.27124,0.0],[44.00785,56.27113,0.0],[44.00708,56.27099,0.0],[44.00663,56.27085,0.0],[44.00624,56.27075,0.0],[44.00188,56.27054,0.0],[44.00163,56.27052,0.0],[44.00153,56.27055,0.0],[44.00134,56.27052,0.0],[44.00042,56.27048,0.0],[44.00033,56.27049,0.0],[44.00008,56.27049,0.0],[44.00001,56.27049,0.0],[43.99942,56.27041,0.0],[43.99938,56.27039,0.0],[43.99891,56.27036,0.0],[43.99858,56.27045,0.0],[43.99838,56.27053,0.0],[43.99806,56.2707,0.0],[43.99781,56.27102,0.0],[43.99745,56.2712,0.0],[43.99728,56.27128,0.0],[43.99726,56.27138,0.0],[43.99728,56.27144,0.0],[43.99727,56.27149,0.0],[43.99728,56.2717,0.0],[43.99699,56.27188,0.0],[43.99635,56.27213,0.0],[43.99595,56.27237,0.0],[43.99579,56.27255,0.0],[43.99542,56.27275,0.0],[43.99541,56.27288,0.0],[43.9953,56.2729,0.0],[43.99478,56.27312,0.0],[43.99455,56.27328,0.0],[43.99364,56.27341,0.0],[43.99345,56.2735,0.0],[43.99289,56.27377,0.0],[43.9923,56.27442,0.0],[43.9924,56.27514,0.0],[43.99246,56.27656,0.0],[43.99175,56.27755,0.0],[43.99092,56.27824,0.0],[43.98983,56.27833,0.0],[43.98993,56.27852,0.0],[43.99006,56.27868,0.0],[43.99045,56.27901,0.0],[43.99107,56.27948,0.0],[43.99112,56.27952,0.0],[43.99141,56.27973,0.0],[43.99181,56.28,0.0],[43.99243,56.28047,0.0],[43.99263,56.28065,0.0],[43.99273,56.28079,0.0],[43.99282,56.28107,0.0],[43.99284,56.28116,0.0],[43.99265,56.28117,0.0],[43.99254,56.28118,0.0],[43.99227,56.28121,0.0],[43.99187,56.28124,0.0],[43.9915,56.28128,0.0],[43.99074,56.28135,0.0],[43.98898,56.2815,0.0],[43.9876,56.28162,0.0],[43.98752,56.28163,0.0],[43.98749,56.28163,0.0],[43.98735,56.28164,0.0],[43.9865,56.28172,0.0],[43.98536,56.28182,0.0],[43.98505,56.28185,0.0],[43.98473,56.28188,0.0],[43.98445,56.28191,0.0],[43.98405,56.28194,0.0],[43.98369,56.28198,0.0],[43.98289,56.28205,0.0],[43.98164,56.28216,0.0],[43.9811,56.28221,0.0],[43.98093,56.28223,0.0],[43.98065,56.28225,0.0],[43.98067,56.28241,0.0],[43.98068,56.28253,0.0],[43.98078,56.2834,0.0],[43.98094,56.28435,0.0],[43.98096,56.28445,0.0],[43.98104,56.28492,0.0],[43.97928,56.28495,0.0],[43.97807,56.28496,0.0],[43.97775,56.28497,0.0],[43.97765,56.28497,0.0],[43.97765,56.28487,0.0],[43.97546,56.28495,0.0],[43.97147,56.28476,0.0],[43.96972,56.28496,0.0],[43.96967,56.28432,0.0],[43.97023,56.28399,0.0],[43.9704,56.28341,0.0],[43.97088,56.28298,0.0],[43.97072,56.28196,0.0],[43.97103,56.28109,0.0],[43.97078,56.28086,0.0],[43.96896,56.28078,0.0],[43.96375,56.28068,0.0],[43.96358,56.28173,0.0],[43.96334,56.2859,0.0],[43.96295,56.2889,0.0],[43.96273,56.29893,0.0],[43.9684,56.29887,0.0],[43.96859,56.30404,0.0],[43.96875,56.30455,0.0],[43.96917,56.3047,0.0],[43.96931,56.30492,0.0],[43.9694,56.30567,0.0],[43.96933,56.30592,0.0],[43.96933,56.30605,0.0],[43.96942,56.30614,0.0],[43.96969,56.30622,0.0],[43.97041,56.30622,0.0],[43.9705,56.30626,0.0],[43.97049,56.30632,0.0],[43.97006,56.30662,0.0],[43.96965,56.30702,0.0],[43.96959,56.30749,0.0],[43.96962,56.30778,0.0],[43.96969,56.30801,0.0],[43.96969,56.30858,0.0],[43.9698,56.30889,0.0],[43.9698,56.30904,0.0],[43.96997,56.30936,0.0],[43.97,56.30955,0.0],[43.96996,56.30981,0.0],[43.96997,56.31004,0.0],[43.97003,56.31024,0.0],[43.97011,56.3104,0.0],[43.97015,56.311,0.0],[43.9702,56.31107,0.0],[43.9701,56.31122,0.0],[43.97002,56.31147,0.0],[43.97004,56.31165,0.0],[43.9701,56.31186,0.0],[43.97232,56.31194,0.0],[43.97564,56.31129,0.0],[43.9755,56.31108,0.0],[43.97547,56.31082,0.0],[43.97552,56.31021,0.0],[43.9755,56.3095,0.0],[43.97578,56.30958,0.0],[43.97644,56.30952,0.0],[43.97697,56.30944,0.0],[43.9771,56.30942,0.0],[43.97731,56.30939,0.0],[43.97807,56.30928,0.0],[43.9786,56.3092,0.0],[43.97874,56.30918,0.0],[43.97904,56.30914,0.0],[43.97918,56.30912,0.0],[43.9798,56.30903,0.0],[43.98004,56.309,0.0],[43.98033,56.30897,0.0],[43.98148,56.30882,0.0],[43.98194,56.30874,0.0],[43.98226,56.30866,0.0],[43.98249,56.3086,0.0],[43.98267,56.30856,0.0],[43.98285,56.30854,0.0],[43.98313,56.30851,0.0],[43.98357,56.30846,0.0],[43.98376,56.30843,0.0],[43.98444,56.30835,0.0],[43.98486,56.3083,0.0],[43.98557,56.30821,0.0],[43.98713,56.30805,0.0],[43.98768,56.30802,0.0],[43.98785,56.30803,0.0],[43.98797,56.30805,0.0],[43.98901,56.30826,0.0],[43.98956,56.30835,0.0],[43.99024,56.30849,0.0],[43.99059,56.30856,0.0],[43.99154,56.30878,0.0],[43.99175,56.30882,0.0],[43.99192,56.30886,0.0],[43.99212,56.3089,0.0],[43.99263,56.309,0.0],[43.99542,56.30956,0.0],[43.99818,56.31012,0.0],[43.99901,56.31035,0.0],[43.99925,56.31042,0.0],[43.99948,56.31048,0.0],[43.99972,56.31057,0.0],[44.00117,56.31105,0.0],[44.00351,56.31183,0.0],[44.00363,56.31187,0.0],[44.00379,56.31192,0.0],[44.00507,56.31235,0.0],[44.00583,56.3126,0.0],[44.00634,56.31276,0.0],[44.00647,56.31281,0.0],[44.0066,56.31285,0.0],[44.0067,56.31289,0.0],[44.0068,56.31293,0.0],[44.00705,56.31302,0.0],[44.00769,56.31324,0.0],[44.00815,56.31341,0.0],[44.00939,56.31386,0.0],[44.00957,56.31392,0.0],[44.00969,56.31396,0.0],[44.0098,56.314,0.0],[44.01042,56.31422,0.0],[44.01196,56.31476,0.0],[44.01215,56.31483,0.0],[44.01221,56.31485,0.0],[44.01232,56.31488,0.0],[44.01271,56.315,0.0],[44.01287,56.31505,0.0],[44.01302,56.3151,0.0],[44.01348,56.31524,0.0],[44.01362,56.31528,0.0],[44.0151,56.31574,0.0],[44.01571,56.31593,0.0],[44.01596,56.316,0.0],[44.01657,56.31619,0.0],[44.0172,56.31637,0.0],[44.01772,56.31652,0.0],[44.01825,56.31668,0.0],[44.01923,56.31698,0.0],[44.01939,56.31703,0.0],[44.01952,56.31707,0.0],[44.02103,56.31751,0.0],[44.02161,56.31768,0.0],[44.02187,56.31776,0.0],[44.02267,56.318,0.0],[44.02277,56.31803,0.0],[44.02284,56.31805,0.0],[44.0231,56.31813,0.0],[44.02339,56.3182,0.0],[44.02357,56.31824,0.0],[44.02531,56.31866,0.0],[44.02575,56.31877,0.0],[44.02591,56.31882,0.0],[44.02602,56.31884,0.0],[44.0262,56.31889,0.0],[44.02637,56.31893,0.0],[44.02697,56.31909,0.0],[44.02734,56.31918,0.0],[44.02772,56.31927,0.0],[44.02865,56.3195,0.0],[44.02922,56.31968,0.0],[44.02968,56.31986,0.0],[44.03031,56.32011,0.0],[44.03047,56.32019,0.0],[44.03063,56.32029,0.0],[44.03067,56.32014,0.0],[44.03095,56.3199,0.0],[44.03126,56.31974,0.0],[44.03175,56.31987,0.0],[44.0325,56.31922,0.0],[44.03211,56.31908,0.0],[44.0327,56.31852,0.0],[44.03308,56.3182,0.0],[44.03356,56.3179,0.0],[44.03447,56.31759,0.0],[44.03472,56.31744,0.0],[44.03486,56.31743,0.0],[44.03515,56.31744,0.0],[44.03569,56.31735,0.0],[44.03654,56.31659,0.0],[44.03656,56.31641,0.0],[44.03654,56.31639,0.0],[44.0365,56.31632,0.0],[44.03649,56.31622,0.0],[44.03651,56.31602,0.0],[44.03657,56.31592,0.0],[44.03664,56.31585,0.0],[44.03712,56.3154,0.0],[44.03726,56.31534,0.0],[44.03752,56.31532,0.0],[44.03772,56.31516,0.0],[44.03784,56.31504,0.0],[44.03826,56.31488,0.0],[44.03887,56.31459,0.0],[44.03901,56.31448,0.0],[44.03918,56.31442,0.0],[44.0393,56.31439,0.0],[44.03943,56.31439,0.0],[44.0407,56.31406,0.0],[44.04132,56.31394,0.0],[44.04174,56.31374,0.0],[44.04186,56.31339,0.0],[44.04193,56.31328,0.0],[44.04201,56.31331,0.0],[44.04207,56.31327,0.0],[44.04208,56.31315,0.0],[44.04227,56.31291,0.0],[44.04244,56.31275,0.0],[44.0426,56.31262,0.0],[44.04269,56.31246,0.0],[44.04274,56.31229,0.0],[44.04282,56.31221,0.0],[44.04293,56.31222,0.0],[44.04326,56.31197,0.0],[44.04335,56.31194,0.0],[44.04338,56.31192,0.0],[44.04339,56.31187,0.0],[44.04349,56.31171,0.0],[44.04345,56.31155,0.0],[44.04346,56.3115,0.0],[44.04352,56.31143,0.0],[44.0436,56.31139,0.0],[44.04362,56.31135,0.0],[44.04359,56.31124,0.0],[44.04355,56.31117,0.0],[44.0435,56.31105,0.0],[44.04381,56.31067,0.0],[44.04398,56.31048,0.0],[44.04402,56.31027,0.0],[44.0441,56.31009,0.0],[44.04394,56.30942,0.0],[44.04405,56.30935,0.0],[44.04402,56.30928,0.0],[44.04398,56.30905,0.0],[44.04407,56.30883,0.0],[44.04412,56.3088,0.0],[44.04421,56.30877,0.0],[44.04432,56.30872,0.0],[44.04453,56.30864,0.0],[44.04463,56.3086,0.0],[44.04475,56.30846,0.0],[44.04486,56.30824,0.0],[44.04511,56.30804,0.0],[44.0452,56.30796,0.0],[44.04535,56.30783,0.0],[44.04543,56.30768,0.0],[44.04552,56.30758,0.0],[44.04557,56.30743,0.0],[44.04559,56.30738,0.0],[44.04567,56.30731,0.0],[44.04571,56.30727,0.0],[44.04591,56.30695,0.0],[44.04602,56.30689,0.0],[44.0466,56.30667,0.0],[44.04671,56.30658,0.0],[44.04683,56.30646,0.0],[44.04695,56.30626,0.0],[44.04695,56.30615,0.0],[44.04686,56.30605,0.0],[44.04667,56.30591,0.0],[44.04664,56.3058,0.0],[44.04677,56.30552,0.0],[44.0469,56.3054,0.0],[44.04692,56.30536,0.0],[44.04693,56.30532,0.0],[44.04705,56.30499,0.0],[44.04713,56.30487,0.0],[44.04732,56.30477,0.0],[44.04755,56.30449,0.0],[44.04781,56.30433,0.0],[44.04786,56.30424,0.0],[44.04817,56.30405,0.0],[44.04846,56.30383,0.0],[44.04869,56.30377,0.0],[44.04888,56.30375,0.0],[44.04905,56.30377,0.0],[44.04923,56.30386,0.0],[44.04949,56.30394,0.0],[44.04964,56.30395,0.0],[44.05043,56.30376,0.0],[44.05069,56.30369,0.0],[44.05101,56.30367,0.0],[44.05112,56.30363,0.0],[44.05147,56.3036,0.0],[44.05196,56.30305,0.0],[44.05224,56.30278,0.0],[44.05225,56.30273,0.0],[44.05217,56.30263,0.0],[44.05216,56.3024,0.0],[44.0525,56.3023,0.0],[44.05324,56.30205,0.0],[44.05345,56.30193,0.0],[44.05417,56.30176,0.0],[44.05482,56.30161,0.0],[44.05498,56.30162,0.0],[44.05518,56.30164,0.0],[44.05545,56.30158,0.0],[44.0557,56.3014,0.0],[44.05552,56.30096,0.0],[44.0555,56.3007,0.0],[44.05545,56.30059,0.0],[44.05531,56.30051,0.0],[44.0551,56.30047,0.0],[44.05498,56.30038,0.0],[44.05479,56.30017,0.0],[44.05443,56.29996,0.0],[44.0542,56.29974,0.0],[44.05409,56.29958,0.0],[44.05405,56.29947,0.0],[44.05405,56.29933,0.0],[44.05408,56.29919,0.0],[44.0542,56.299,0.0],[44.05424,56.29887,0.0],[44.05433,56.29834,0.0],[44.0543,56.29828,0.0],[44.05431,56.29822,0.0],[44.05442,56.29805,0.0],[44.05452,56.29794,0.0],[44.05475,56.29779,0.0],[44.05491,56.29755,0.0],[44.05513,56.29709,0.0],[44.05526,56.29703,0.0],[44.05526,56.29695,0.0],[44.05519,56.29682,0.0],[44.05516,56.29667,0.0],[44.05523,56.29649,0.0],[44.05568,56.29601,0.0],[44.05585,56.29591,0.0],[44.05598,56.29576,0.0],[44.056,56.29568,0.0],[44.05599,56.29551,0.0],[44.05589,56.29517,0.0],[44.05591,56.29499,0.0],[44.05601,56.29473,0.0],[44.05615,56.29452,0.0],[44.05621,56.29441,0.0],[44.05618,56.29429,0.0],[44.05612,56.29415,0.0],[44.05597,56.294,0.0],[44.05591,56.29375,0.0],[44.05586,56.29359,0.0],[44.05575,56.29348,0.0],[44.05567,56.29341,0.0],[44.05564,56.29335,0.0],[44.05565,56.29327,0.0],[44.05573,56.29311,0.0],[44.05588,56.29296,0.0],[44.05608,56.29273,0.0],[44.05613,56.2926,0.0],[44.05612,56.29253,0.0],[44.05593,56.29224,0.0],[44.05589,56.29215,0.0],[44.0559,56.29206,0.0],[44.05604,56.29179,0.0],[44.05626,56.29163,0.0],[44.05636,56.29154,0.0],[44.05641,56.29143,0.0],[44.05638,56.29134,0.0],[44.0563,56.2912,0.0],[44.05629,56.29111,0.0],[44.05588,56.29087,0.0],[44.05583,56.29081,0.0],[44.05579,56.29074,0.0],[44.05577,56.29067,0.0],[44.05584,56.29059,0.0],[44.05631,56.29015,0.0],[44.05636,56.29008,0.0],[44.05638,56.28997,0.0],[44.05627,56.28977,0.0],[44.05627,56.28973,0.0],[44.05641,56.28946,0.0],[44.05637,56.28935,0.0],[44.05628,56.28929,0.0],[44.05626,56.28925,0.0],[44.05625,56.28915,0.0],[44.05638,56.28892,0.0],[44.05649,56.28876,0.0],[44.0566,56.28866,0.0],[44.05658,56.28852,0.0],[44.05644,56.2883,0.0],[44.05635,56.28825,0.0],[44.05616,56.28823,0.0],[44.0561,56.28803,0.0],[44.05623,56.28775,0.0],[44.05635,56.28763,0.0],[44.05649,56.28757,0.0],[44.05664,56.28755,0.0],[44.05678,56.28748,0.0],[44.05683,56.28735,0.0],[44.05682,56.28727,0.0],[44.05691,56.28716,0.0],[44.05699,56.28706,0.0],[44.05727,56.2868,0.0],[44.05723,56.2866,0.0],[44.05697,56.28622,0.0],[44.05696,56.28593,0.0],[44.05683,56.28582,0.0],[44.05624,56.28561,0.0],[44.05608,56.28542,0.0],[44.05613,56.28495,0.0],[44.056,56.28464,0.0],[44.05527,56.28404,0.0],[44.05455,56.28355,0.0],[44.05422,56.28326,0.0],[44.0543,56.28315,0.0],[44.05423,56.28304,0.0],[44.05397,56.28293,0.0],[44.05353,56.28228,0.0],[44.05287,56.2812,0.0],[44.0528,56.28101,0.0],[44.05265,56.28084,0.0],[44.05265,56.28068,0.0],[44.05288,56.28057,0.0],[44.05295,56.28043,0.0],[44.0528,56.28014,0.0],[44.05269,56.27986,0.0],[44.05273,56.27942,0.0],[44.053,56.27908,0.0],[44.05321,56.27903,0.0],[44.0532,56.27838,0.0],[44.05356,56.27806,0.0],[44.05396,56.2771,0.0],[44.0534,56.27695,0.0],[44.0536,56.27658,0.0],[44.05369,56.27652,0.0],[44.05396,56.27656,0.0],[44.05413,56.27654,0.0],[44.05426,56.27651,0.0],[44.0544,56.27648,0.0],[44.05494,56.27636,0.0],[44.05677,56.27602,0.0],[44.05708,56.27607,0.0],[44.05734,56.27605,0.0],[44.05771,56.2754,0.0],[44.05794,56.27526,0.0],[44.05826,56.27516,0.0],[44.05937,56.27457,0.0],[44.05979,56.27384,0.0],[44.06016,56.27371,0.0],[44.06057,56.27361,0.0],[44.06092,56.27344,0.0],[44.06117,56.27315,0.0],[44.06151,56.27299,0.0],[44.06207,56.27283,0.0],[44.06228,56.27278,0.0],[44.06239,56.27273,0.0],[44.06247,56.27258,0.0],[44.06256,56.27242,0.0],[44.06262,56.2724,0.0],[44.06283,56.27238,0.0],[44.06287,56.27237,0.0],[44.06322,56.27201,0.0],[44.06348,56.2719,0.0],[44.06366,56.2717,0.0],[44.06363,56.27155,0.0],[44.06368,56.27149,0.0],[44.06401,56.2714,0.0],[44.06418,56.27144,0.0],[44.06427,56.27144,0.0],[44.06452,56.27137,0.0],[44.06472,56.27136,0.0],[44.06521,56.27143,0.0],[44.06584,56.27146,0.0],[44.06653,56.27128,0.0],[44.06699,56.27124,0.0],[44.06758,56.2711,0.0],[44.06811,56.2709,0.0],[44.06838,56.27088,0.0],[44.06845,56.27091,0.0],[44.06859,56.27098,0.0],[44.06869,56.27102,0.0],[44.06875,56.27102,0.0],[44.06882,56.271,0.0],[44.06924,56.27077,0.0],[44.06928,56.27074,0.0],[44.06938,56.27072,0.0],[44.06953,56.27073,0.0],[44.06963,56.27073,0.0],[44.06974,56.27069,0.0],[44.06983,56.27064,0.0],[44.06991,56.2705,0.0],[44.06991,56.27044,0.0],[44.06987,56.27037,0.0],[44.06988,56.2702,0.0],[44.06997,56.2702,0.0],[44.07013,56.26994,0.0],[44.0703,56.26974,0.0],[44.07059,56.26953,0.0],[44.07078,56.26942,0.0],[44.07115,56.26931,0.0],[44.07159,56.26916,0.0],[44.07182,56.26896,0.0],[44.07212,56.26881,0.0],[44.07223,56.26871,0.0],[44.07235,56.26865,0.0],[44.07268,56.2683,0.0],[44.07275,56.26822,0.0],[44.07285,56.26818,0.0],[44.07288,56.26813,0.0],[44.07299,56.2681,0.0],[44.07313,56.26795,0.0],[44.07372,56.26743,0.0],[44.0739,56.26734,0.0],[44.07405,56.26721,0.0],[44.07479,56.26676,0.0],[44.07495,56.26667,0.0],[44.0751,56.26663,0.0],[44.0753,56.26664,0.0],[44.07546,56.26663,0.0],[44.07563,56.26659,0.0],[44.07577,56.26655,0.0],[44.076,56.26651,0.0],[44.07648,56.26643,0.0],[44.07664,56.26638,0.0],[44.07678,56.26634,0.0],[44.0769,56.26627,0.0],[44.07695,56.26621,0.0],[44.07695,56.26616,0.0],[44.07688,56.26607,0.0],[44.0769,56.26599,0.0],[44.07695,56.26593,0.0],[44.077,56.26583,0.0],[44.07711,56.26577,0.0],[44.07721,56.26577,0.0],[44.07733,56.26573,0.0],[44.07766,56.26548,0.0],[44.07779,56.26541,0.0],[44.07795,56.26526,0.0],[44.07818,56.26513,0.0],[44.07823,56.26507,0.0],[44.07852,56.26484,0.0],[44.07858,56.26473,0.0],[44.07884,56.26457,0.0],[44.07913,56.26446,0.0],[44.07938,56.26438,0.0],[44.07949,56.26424,0.0],[44.07957,56.26412,0.0],[44.07973,56.26402,0.0],[44.0798,56.26392,0.0],[44.0798,56.2638,0.0],[44.07984,56.26375,0.0],[44.07983,56.26371,0.0],[44.0798,56.26369,0.0],[44.0798,56.26365,0.0],[44.07978,56.26351,0.0],[44.07972,56.2633,0.0],[44.07968,56.26314,0.0],[44.07973,56.26299,0.0],[44.07981,56.26292,0.0],[44.07994,56.26291,0.0],[44.08012,56.26288,0.0],[44.08035,56.26278,0.0],[44.08052,56.25957,0.0]]]]}},{"type":"Feature","properties":{"uesi_id":"RUS_R335495","nbhd_code":"RUS_R335495_6","nbhd_name":"\u00d0\u0178\u00d1\u20ac\u00d0\u00b8\u00d0\u00be\u00d0\u00ba\u00d1\u0081\u00d0\u00ba\u00d0\u00b8\u00d0\u00b9 \u00d1\u20ac\u00d0\u00b0\u00d0\u00b9\u00d0\u00be\u00d0\u00bd"},"geometry":{"type":"MultiPolygon","coordinates":[[[[44.04823,56.23359,0.0],[44.04661,56.23342,0.0],[44.04245,56.23339,0.0],[44.04184,56.23336,0.0],[44.04128,56.23325,0.0],[44.04144,56.23281,0.0],[44.04151,56.23195,0.0],[44.04215,56.23102,0.0],[44.04238,56.23097,0.0],[44.04266,56.23095,0.0],[44.04283,56.23093,0.0],[44.04301,56.23092,0.0],[44.04305,56.23087,0.0],[44.04289,56.23069,0.0],[44.04265,56.2307,0.0],[44.04261,56.23065,0.0],[44.04266,56.23046,0.0],[44.04236,56.23046,0.0],[44.04222,56.23049,0.0],[44.04179,56.23054,0.0],[44.04166,56.23048,0.0],[44.04162,56.23025,0.0],[44.04138,56.23007,0.0],[44.04111,56.23007,0.0],[44.04087,56.2301,0.0],[44.0406,56.23008,0.0],[44.04049,56.22986,0.0],[44.04045,56.22974,0.0],[44.04027,56.22971,0.0],[44.04012,56.22974,0.0],[44.03997,56.22976,0.0],[44.03976,56.22968,0.0],[44.03942,56.22959,0.0],[44.03944,56.22951,0.0],[44.0394,56.22947,0.0],[44.03928,56.22955,0.0],[44.03918,56.22957,0.0],[44.03911,56.2295,0.0],[44.03911,56.22935,0.0],[44.03906,56.22926,0.0],[44.03899,56.22921,0.0],[44.03868,56.22927,0.0],[44.03836,56.22931,0.0],[44.03819,56.22924,0.0],[44.03802,56.22919,0.0],[44.03792,56.22921,0.0],[44.03771,56.22944,0.0],[44.03746,56.22946,0.0],[44.03726,56.22946,0.0],[44.03702,56.22949,0.0],[44.03675,56.22948,0.0],[44.03646,56.22946,0.0],[44.03627,56.22954,0.0],[44.03624,56.22963,0.0],[44.03616,56.22971,0.0],[44.03599,56.22975,0.0],[44.0358,56.22975,0.0],[44.03564,56.22966,0.0],[44.0354,56.2296,0.0],[44.03526,56.2295,0.0],[44.03487,56.2295,0.0],[44.0346,56.22947,0.0],[44.03435,56.22945,0.0],[44.03411,56.22925,0.0],[44.03395,56.22915,0.0],[44.03359,56.22915,0.0],[44.03337,56.22914,0.0],[44.03325,56.22904,0.0],[44.03307,56.22901,0.0],[44.0328,56.22888,0.0],[44.03258,56.22883,0.0],[44.0323,56.22892,0.0],[44.03208,56.2289,0.0],[44.03196,56.22897,0.0],[44.03187,56.22896,0.0],[44.0318,56.22885,0.0],[44.03164,56.22884,0.0],[44.03143,56.22908,0.0],[44.03124,56.22915,0.0],[44.03099,56.22916,0.0],[44.03076,56.2291,0.0],[44.03053,56.22915,0.0],[44.03051,56.22925,0.0],[44.03036,56.22937,0.0],[44.03012,56.22942,0.0],[44.02992,56.22936,0.0],[44.02955,56.2293,0.0],[44.02883,56.22899,0.0],[44.0288,56.22888,0.0],[44.02867,56.22887,0.0],[44.02827,56.22865,0.0],[44.02809,56.22862,0.0],[44.02797,56.22862,0.0],[44.0278,56.22865,0.0],[44.02774,56.22862,0.0],[44.02771,56.22844,0.0],[44.0278,56.22833,0.0],[44.02781,56.22824,0.0],[44.0276,56.22817,0.0],[44.02721,56.22816,0.0],[44.02707,56.22812,0.0],[44.02709,56.22795,0.0],[44.02686,56.2279,0.0],[44.02669,56.22794,0.0],[44.0265,56.22797,0.0],[44.02615,56.22793,0.0],[44.0259,56.22782,0.0],[44.0259,56.2277,0.0],[44.02566,56.22768,0.0],[44.02547,56.22773,0.0],[44.0254,56.22766,0.0],[44.02543,56.22759,0.0],[44.02527,56.22752,0.0],[44.02525,56.22735,0.0],[44.02499,56.2273,0.0],[44.02484,56.22742,0.0],[44.02472,56.2274,0.0],[44.02454,56.22737,0.0],[44.02436,56.22742,0.0],[44.02421,56.22739,0.0],[44.02411,56.22753,0.0],[44.02387,56.22754,0.0],[44.02356,56.2277,0.0],[44.02329,56.22767,0.0],[44.02312,56.22774,0.0],[44.02294,56.22801,0.0],[44.02231,56.22812,0.0],[44.02209,56.22805,0.0],[44.02213,56.22796,0.0],[44.0219,56.22795,0.0],[44.02172,56.22776,0.0],[44.0216,56.22775,0.0],[44.02158,56.22782,0.0],[44.02149,56.22787,0.0],[44.02146,56.22796,0.0],[44.02082,56.22833,0.0],[44.02043,56.22836,0.0],[44.02022,56.22831,0.0],[44.02,56.22828,0.0],[44.01985,56.22829,0.0],[44.0198,56.22834,0.0],[44.01959,56.22842,0.0],[44.01949,56.22848,0.0],[44.01938,56.22851,0.0],[44.01929,56.22844,0.0],[44.01902,56.22846,0.0],[44.0183,56.22871,0.0],[44.01811,56.22873,0.0],[44.01796,56.22871,0.0],[44.01778,56.2286,0.0],[44.01762,56.22857,0.0],[44.01741,56.22864,0.0],[44.01703,56.22864,0.0],[44.01695,56.22858,0.0],[44.01685,56.22857,0.0],[44.01668,56.22868,0.0],[44.01652,56.22868,0.0],[44.01619,56.22854,0.0],[44.01596,56.22841,0.0],[44.01542,56.2284,0.0],[44.01535,56.22846,0.0],[44.01544,56.22853,0.0],[44.0153,56.22864,0.0],[44.01507,56.2286,0.0],[44.015,56.22864,0.0],[44.01486,56.22864,0.0],[44.01468,56.22854,0.0],[44.01443,56.22856,0.0],[44.01444,56.22862,0.0],[44.01456,56.22868,0.0],[44.0145,56.22872,0.0],[44.01441,56.22867,0.0],[44.01423,56.22867,0.0],[44.01407,56.22876,0.0],[44.01368,56.22873,0.0],[44.01346,56.22879,0.0],[44.01324,56.22881,0.0],[44.01302,56.22876,0.0],[44.01277,56.22851,0.0],[44.01253,56.22849,0.0],[44.0125,56.22834,0.0],[44.01231,56.22825,0.0],[44.01192,56.22824,0.0],[44.01163,56.22817,0.0],[44.01122,56.22814,0.0],[44.01113,56.22808,0.0],[44.01118,56.22796,0.0],[44.01103,56.22792,0.0],[44.01072,56.22801,0.0],[44.01055,56.22791,0.0],[44.01037,56.22792,0.0],[44.01012,56.22792,0.0],[44.00976,56.2278,0.0],[44.00712,56.22782,0.0],[44.0025,56.22783,0.0],[43.99514,56.2269,0.0],[43.98938,56.22614,0.0],[43.98929,56.22547,0.0],[43.9824,56.22366,0.0],[43.97831,56.21967,0.0],[43.9801,56.2188,0.0],[43.9806,56.21775,0.0],[43.97868,56.2162,0.0],[43.98155,56.21429,0.0],[43.97482,56.2106,0.0],[43.97468,56.21033,0.0],[43.97037,56.21183,0.0],[43.96883,56.21025,0.0],[43.96772,56.20967,0.0],[43.96694,56.20862,0.0],[43.96585,56.20798,0.0],[43.95942,56.20731,0.0],[43.95517,56.20496,0.0],[43.9534,56.20329,0.0],[43.95306,56.20297,0.0],[43.9528,56.20168,0.0],[43.95342,56.20083,0.0],[43.95487,56.19949,0.0],[43.95206,56.19867,0.0],[43.94183,56.19885,0.0],[43.94047,56.20082,0.0],[43.93861,56.19764,0.0],[43.93713,56.19769,0.0],[43.92972,56.20069,0.0],[43.92565,56.20355,0.0],[43.92612,56.20568,0.0],[43.92851,56.21213,0.0],[43.92929,56.21543,0.0],[43.92612,56.21522,0.0],[43.92447,56.21512,0.0],[43.92012,56.21499,0.0],[43.91985,56.21524,0.0],[43.92042,56.21621,0.0],[43.92188,56.21648,0.0],[43.92199,56.21691,0.0],[43.92382,56.21685,0.0],[43.9253,56.21908,0.0],[43.92425,56.22065,0.0],[43.92366,56.22058,0.0],[43.92216,56.22129,0.0],[43.92081,56.22128,0.0],[43.92052,56.22072,0.0],[43.91747,56.22108,0.0],[43.91526,56.22073,0.0],[43.91636,56.21953,0.0],[43.91468,56.2195,0.0],[43.91204,56.22212,0.0],[43.91025,56.2198,0.0],[43.90787,56.22001,0.0],[43.9061,56.2193,0.0],[43.90594,56.21865,0.0],[43.9053,56.21857,0.0],[43.90452,56.219,0.0],[43.90333,56.21821,0.0],[43.90296,56.21733,0.0],[43.90459,56.21662,0.0],[43.90528,56.21666,0.0],[43.90577,56.21633,0.0],[43.90457,56.21504,0.0],[43.90023,56.2169,0.0],[43.90173,56.21947,0.0],[43.9075,56.22248,0.0],[43.90696,56.22286,0.0],[43.90412,56.22484,0.0],[43.91098,56.22804,0.0],[43.91613,56.2311,0.0],[43.92043,56.23336,0.0],[43.93665,56.24447,0.0],[43.94119,56.247,0.0],[43.94623,56.25042,0.0],[43.95349,56.25659,0.0],[43.96067,56.26249,0.0],[43.96517,56.268,0.0],[43.96506,56.27246,0.0],[43.96375,56.28068,0.0],[43.96896,56.28078,0.0],[43.97078,56.28086,0.0],[43.97103,56.28109,0.0],[43.97072,56.28196,0.0],[43.97088,56.28298,0.0],[43.9704,56.28341,0.0],[43.97023,56.28399,0.0],[43.96967,56.28432,0.0],[43.96972,56.28496,0.0],[43.97147,56.28476,0.0],[43.97546,56.28495,0.0],[43.97765,56.28487,0.0],[43.97765,56.28497,0.0],[43.97775,56.28497,0.0],[43.97807,56.28496,0.0],[43.97928,56.28495,0.0],[43.98104,56.28492,0.0],[43.98096,56.28445,0.0],[43.98094,56.28435,0.0],[43.98078,56.2834,0.0],[43.98068,56.28253,0.0],[43.98067,56.28241,0.0],[43.98065,56.28225,0.0],[43.98093,56.28223,0.0],[43.9811,56.28221,0.0],[43.98164,56.28216,0.0],[43.98289,56.28205,0.0],[43.98369,56.28198,0.0],[43.98405,56.28194,0.0],[43.98445,56.28191,0.0],[43.98473,56.28188,0.0],[43.98505,56.28185,0.0],[43.98536,56.28182,0.0],[43.9865,56.28172,0.0],[43.98735,56.28164,0.0],[43.98749,56.28163,0.0],[43.98752,56.28163,0.0],[43.9876,56.28162,0.0],[43.98898,56.2815,0.0],[43.99074,56.28135,0.0],[43.9915,56.28128,0.0],[43.99187,56.28124,0.0],[43.99227,56.28121,0.0],[43.99254,56.28118,0.0],[43.99265,56.28117,0.0],[43.99284,56.28116,0.0],[43.99282,56.28107,0.0],[43.99273,56.28079,0.0],[43.99263,56.28065,0.0],[43.99243,56.28047,0.0],[43.99181,56.28,0.0],[43.99141,56.27973,0.0],[43.99112,56.27952,0.0],[43.99107,56.27948,0.0],[43.99045,56.27901,0.0],[43.99006,56.27868,0.0],[43.98993,56.27852,0.0],[43.98983,56.27833,0.0],[43.99092,56.27824,0.0],[43.99175,56.27755,0.0],[43.99246,56.27656,0.0],[43.9924,56.27514,0.0],[43.9923,56.27442,0.0],[43.99289,56.27377,0.0],[43.99345,56.2735,0.0],[43.99364,56.27341,0.0],[43.99455,56.27328,0.0],[43.99478,56.27312,0.0],[43.9953,56.2729,0.0],[43.99541,56.27288,0.0],[43.99542,56.27275,0.0],[43.99579,56.27255,0.0],[43.99595,56.27237,0.0],[43.99635,56.27213,0.0],[43.99699,56.27188,0.0],[43.99728,56.2717,0.0],[43.99727,56.27149,0.0],[43.99728,56.27144,0.0],[43.99726,56.27138,0.0],[43.99728,56.27128,0.0],[43.99745,56.2712,0.0],[43.99781,56.27102,0.0],[43.99806,56.2707,0.0],[43.99838,56.27053,0.0],[43.99858,56.27045,0.0],[43.99891,56.27036,0.0],[43.99938,56.27039,0.0],[43.99942,56.27041,0.0],[44.00001,56.27049,0.0],[44.00008,56.27049,0.0],[44.00033,56.27049,0.0],[44.00042,56.27048,0.0],[44.00134,56.27052,0.0],[44.00153,56.27055,0.0],[44.00163,56.27052,0.0],[44.00188,56.27054,0.0],[44.00624,56.27075,0.0],[44.00663,56.27085,0.0],[44.00708,56.27099,0.0],[44.00785,56.27113,0.0],[44.00823,56.27124,0.0],[44.00831,56.27126,0.0],[44.00856,56.27133,0.0],[44.00874,56.27147,0.0],[44.00894,56.27154,0.0],[44.00962,56.27189,0.0],[44.01409,56.27387,0.0],[44.01463,56.27408,0.0],[44.01508,56.27428,0.0],[44.01582,56.27447,0.0],[44.01644,56.27462,0.0],[44.01814,56.27533,0.0],[44.02421,56.27562,0.0],[44.025,56.27569,0.0],[44.02594,56.27598,0.0],[44.02626,56.27513,0.0],[44.02676,56.27365,0.0],[44.02564,56.27298,0.0],[44.0249,56.27245,0.0],[44.02426,56.27185,0.0],[44.02255,56.27087,0.0],[44.02175,56.27054,0.0],[44.02067,56.27017,0.0],[44.01981,56.26991,0.0],[44.01811,56.26892,0.0],[44.01646,56.26769,0.0],[44.03255,56.25992,0.0],[44.03305,56.26002,0.0],[44.03385,56.26032,0.0],[44.03522,56.26078,0.0],[44.03604,56.2607,0.0],[44.03721,56.26082,0.0],[44.03709,56.26117,0.0],[44.03843,56.26112,0.0],[44.03992,56.26119,0.0],[44.04028,56.26112,0.0],[44.04062,56.26095,0.0],[44.04151,56.26098,0.0],[44.04235,56.26134,0.0],[44.04331,56.26149,0.0],[44.04425,56.26156,0.0],[44.04506,56.26084,0.0],[44.04064,56.2579,0.0],[44.04201,56.25677,0.0],[44.04016,56.25541,0.0],[44.03925,56.25569,0.0],[44.03814,56.25399,0.0],[44.03608,56.25425,0.0],[44.03581,56.25382,0.0],[44.03446,56.25363,0.0],[44.03377,56.25254,0.0],[44.0339,56.24906,0.0],[44.03561,56.24748,0.0],[44.03556,56.24693,0.0],[44.03546,56.24587,0.0],[44.03547,56.24495,0.0],[44.03581,56.24367,0.0],[44.03627,56.24241,0.0],[44.03692,56.24212,0.0],[44.0371,56.24172,0.0],[44.03703,56.24165,0.0],[44.0372,56.24144,0.0],[44.03783,56.24113,0.0],[44.0382,56.24028,0.0],[44.03795,56.24011,0.0],[44.03795,56.23991,0.0],[44.03784,56.23977,0.0],[44.03762,56.23985,0.0],[44.03748,56.23978,0.0],[44.03739,56.23977,0.0],[44.03727,56.23968,0.0],[44.03716,56.23965,0.0],[44.03704,56.23969,0.0],[44.03705,56.23978,0.0],[44.03695,56.23984,0.0],[44.03704,56.23987,0.0],[44.03702,56.23992,0.0],[44.03688,56.23998,0.0],[44.0368,56.23996,0.0],[44.03676,56.23984,0.0],[44.03669,56.23984,0.0],[44.03635,56.24,0.0],[44.03635,56.24005,0.0],[44.03628,56.24008,0.0],[44.03611,56.24001,0.0],[44.03599,56.23989,0.0],[44.03587,56.23986,0.0],[44.03576,56.23988,0.0],[44.03578,56.23998,0.0],[44.03594,56.24,0.0],[44.03596,56.24008,0.0],[44.03588,56.24013,0.0],[44.03573,56.24013,0.0],[44.03547,56.24003,0.0],[44.03536,56.2399,0.0],[44.03518,56.2399,0.0],[44.03503,56.23998,0.0],[44.0349,56.23999,0.0],[44.03462,56.23992,0.0],[44.03449,56.23995,0.0],[44.03452,56.24001,0.0],[44.03446,56.24006,0.0],[44.03403,56.24007,0.0],[44.03386,56.23996,0.0],[44.03373,56.23997,0.0],[44.03353,56.23987,0.0],[44.0299,56.24028,0.0],[44.02902,56.24044,0.0],[44.02858,56.24024,0.0],[44.02756,56.24015,0.0],[44.02721,56.23974,0.0],[44.03678,56.23841,0.0],[44.03671,56.23823,0.0],[44.03901,56.23792,0.0],[44.03853,56.23741,0.0],[44.0387,56.23735,0.0],[44.03841,56.23706,0.0],[44.03762,56.23716,0.0],[44.03823,56.23687,0.0],[44.04131,56.23654,0.0],[44.04657,56.23561,0.0],[44.04679,56.23522,0.0],[44.04854,56.23511,0.0],[44.04823,56.23359,0.0]]]]}},{"type":"Feature","properties":{"uesi_id":"RUS_R335495","nbhd_code":"RUS_R335495_7","nbhd_name":"\u00d0\u0153\u00d0\u00be\u00d1\u0081\u00d0\u00ba\u00d0\u00be\u00d0\u00b2\u00d1\u0081\u00d0\u00ba\u00d0\u00b8\u00d0\u00b9 \u00d1\u20ac\u00d0\u00b0\u00d0\u00b9\u00d0\u00be\u00d0\u00bd"},"geometry":{"type":"MultiPolygon","coordinates":[[[[43.93068,56.32,0.0],[43.92945,56.31974,0.0],[43.92887,56.3196,0.0],[43.92872,56.31957,0.0],[43.92828,56.31946,0.0],[43.92795,56.3194,0.0],[43.92762,56.31934,0.0],[43.92734,56.31928,0.0],[43.92698,56.31921,0.0],[43.92682,56.31918,0.0],[43.92662,56.31915,0.0],[43.92634,56.31909,0.0],[43.92622,56.31907,0.0],[43.92599,56.31903,0.0],[43.92552,56.31894,0.0],[43.92497,56.31884,0.0],[43.92383,56.31861,0.0],[43.92226,56.31831,0.0],[43.9207,56.31801,0.0],[43.92014,56.31791,0.0],[43.91974,56.31783,0.0],[43.91958,56.3178,0.0],[43.91931,56.31774,0.0],[43.9191,56.3177,0.0],[43.91892,56.31767,0.0],[43.91818,56.31753,0.0],[43.91726,56.31735,0.0],[43.91483,56.3169,0.0],[43.91219,56.31639,0.0],[43.91209,56.31637,0.0],[43.91165,56.31629,0.0],[43.91136,56.31623,0.0],[43.91129,56.31622,0.0],[43.90988,56.31595,0.0],[43.90946,56.31588,0.0],[43.90849,56.3157,0.0],[43.90611,56.31524,0.0],[43.90574,56.31517,0.0],[43.90541,56.31512,0.0],[43.90533,56.31511,0.0],[43.90506,56.31507,0.0],[43.90487,56.31505,0.0],[43.90479,56.31504,0.0],[43.90443,56.315,0.0],[43.90385,56.31496,0.0],[43.90375,56.31495,0.0],[43.90274,56.31492,0.0],[43.89886,56.31479,0.0],[43.895,56.31464,0.0],[43.89401,56.31459,0.0],[43.89338,56.31457,0.0],[43.89318,56.31456,0.0],[43.89206,56.31451,0.0],[43.89081,56.31446,0.0],[43.89009,56.31444,0.0],[43.88994,56.31443,0.0],[43.88978,56.31443,0.0],[43.88893,56.31439,0.0],[43.88746,56.31433,0.0],[43.88599,56.31428,0.0],[43.8856,56.31426,0.0],[43.88446,56.31419,0.0],[43.88353,56.31416,0.0],[43.88305,56.31414,0.0],[43.88288,56.31413,0.0],[43.88222,56.31411,0.0],[43.88081,56.31405,0.0],[43.87996,56.31402,0.0],[43.87909,56.31397,0.0],[43.87826,56.31394,0.0],[43.87568,56.31383,0.0],[43.87464,56.3138,0.0],[43.87433,56.31379,0.0],[43.87423,56.31379,0.0],[43.87337,56.31375,0.0],[43.8727,56.31373,0.0],[43.87257,56.31373,0.0],[43.87229,56.31372,0.0],[43.85071,56.31289,0.0],[43.83082,56.31207,0.0],[43.81861,56.3116,0.0],[43.81274,56.31137,0.0],[43.75964,56.30935,0.0],[43.7589,56.30842,0.0],[43.75769,56.30833,0.0],[43.75564,56.30767,0.0],[43.75503,56.307,0.0],[43.75427,56.30692,0.0],[43.75385,56.30686,0.0],[43.75363,56.3069,0.0],[43.75355,56.30747,0.0],[43.75311,56.30749,0.0],[43.7531,56.30706,0.0],[43.75144,56.30703,0.0],[43.75145,56.30763,0.0],[43.74588,56.30762,0.0],[43.74586,56.30751,0.0],[43.74515,56.3075,0.0],[43.74477,56.30749,0.0],[43.74472,56.30723,0.0],[43.74346,56.30732,0.0],[43.74335,56.30665,0.0],[43.73946,56.30656,0.0],[43.73923,56.30726,0.0],[43.73953,56.30841,0.0],[43.74826,56.30871,0.0],[43.74833,56.30928,0.0],[43.70038,56.30745,0.0],[43.69927,56.30839,0.0],[43.69802,56.30838,0.0],[43.69619,56.30929,0.0],[43.69504,56.31082,0.0],[43.68875,56.30946,0.0],[43.67501,56.30756,0.0],[43.67462,56.30835,0.0],[43.67151,56.30788,0.0],[43.67186,56.30726,0.0],[43.66542,56.30658,0.0],[43.66551,56.30605,0.0],[43.66085,56.30589,0.0],[43.63298,56.3049,0.0],[43.63195,56.32927,0.0],[43.54878,56.32954,0.0],[43.54924,56.3489,0.0],[43.55015,56.35891,0.0],[43.62953,56.35628,0.0],[43.67832,56.35439,0.0],[43.66118,56.33004,0.0],[43.65342,56.31622,0.0],[43.70386,56.31633,0.0],[43.70798,56.31507,0.0],[43.71586,56.31663,0.0],[43.71733,56.31542,0.0],[43.75289,56.31549,0.0],[43.75468,56.31606,0.0],[43.77317,56.32195,0.0],[43.7754,56.32263,0.0],[43.7763,56.32295,0.0],[43.77685,56.32322,0.0],[43.77743,56.32357,0.0],[43.77779,56.32382,0.0],[43.77811,56.32415,0.0],[43.77841,56.32454,0.0],[43.77922,56.326,0.0],[43.77961,56.32658,0.0],[43.77993,56.32696,0.0],[43.78034,56.32733,0.0],[43.78078,56.32763,0.0],[43.78094,56.32774,0.0],[43.78116,56.32788,0.0],[43.78291,56.32872,0.0],[43.79345,56.33343,0.0],[43.79376,56.33356,0.0],[43.79427,56.33377,0.0],[43.79462,56.33391,0.0],[43.79669,56.33473,0.0],[43.79708,56.3349,0.0],[43.79723,56.33499,0.0],[43.79789,56.33486,0.0],[43.79951,56.33451,0.0],[43.80117,56.33627,0.0],[43.80168,56.33612,0.0],[43.80218,56.33591,0.0],[43.80193,56.33562,0.0],[43.80374,56.3352,0.0],[43.80374,56.3344,0.0],[43.80559,56.33448,0.0],[43.80655,56.33443,0.0],[43.81081,56.33445,0.0],[43.81464,56.33446,0.0],[43.81675,56.33446,0.0],[43.82002,56.33457,0.0],[43.82094,56.33579,0.0],[43.8229,56.33746,0.0],[43.82547,56.33863,0.0],[43.82747,56.33913,0.0],[43.8291,56.33941,0.0],[43.83013,56.33923,0.0],[43.8304,56.33934,0.0],[43.83048,56.33937,0.0],[43.83065,56.33942,0.0],[43.83148,56.33959,0.0],[43.83191,56.3397,0.0],[43.83208,56.3398,0.0],[43.83222,56.33986,0.0],[43.83268,56.33979,0.0],[43.83291,56.33986,0.0],[43.8332,56.34009,0.0],[43.83348,56.34027,0.0],[43.83378,56.34033,0.0],[43.83401,56.34054,0.0],[43.83445,56.34114,0.0],[43.83479,56.34149,0.0],[43.83516,56.34168,0.0],[43.83514,56.34187,0.0],[43.83546,56.34225,0.0],[43.83643,56.34148,0.0],[43.83658,56.34124,0.0],[43.83691,56.3407,0.0],[43.83721,56.34024,0.0],[43.83723,56.33997,0.0],[43.83749,56.33998,0.0],[43.83774,56.33995,0.0],[43.83783,56.33979,0.0],[43.83801,56.33951,0.0],[43.83813,56.33915,0.0],[43.8389,56.33828,0.0],[43.83907,56.33806,0.0],[43.83907,56.33803,0.0],[43.83908,56.33799,0.0],[43.8392,56.33784,0.0],[43.83925,56.33777,0.0],[43.83943,56.3376,0.0],[43.8397,56.33734,0.0],[43.83974,56.33726,0.0],[43.83978,56.33719,0.0],[43.83981,56.33708,0.0],[43.84167,56.33756,0.0],[43.84175,56.33758,0.0],[43.84185,56.3376,0.0],[43.84206,56.33766,0.0],[43.84218,56.33771,0.0],[43.8423,56.33779,0.0],[43.84239,56.33787,0.0],[43.84268,56.33815,0.0],[43.84291,56.33837,0.0],[43.84293,56.33839,0.0],[43.84301,56.33847,0.0],[43.84315,56.33861,0.0],[43.84326,56.33868,0.0],[43.84345,56.33874,0.0],[43.84359,56.33877,0.0],[43.84421,56.33892,0.0],[43.84438,56.33896,0.0],[43.84482,56.33906,0.0],[43.84507,56.33911,0.0],[43.84519,56.33897,0.0],[43.84569,56.33838,0.0],[43.84634,56.33763,0.0],[43.84696,56.3369,0.0],[43.84745,56.33634,0.0],[43.84763,56.33615,0.0],[43.84765,56.33612,0.0],[43.84783,56.33595,0.0],[43.84808,56.33572,0.0],[43.8483,56.33555,0.0],[43.84843,56.33546,0.0],[43.84858,56.33535,0.0],[43.84861,56.33533,0.0],[43.84913,56.33505,0.0],[43.84926,56.33499,0.0],[43.84962,56.33481,0.0],[43.85029,56.33456,0.0],[43.85074,56.33442,0.0],[43.85098,56.33436,0.0],[43.8529,56.33391,0.0],[43.85311,56.33386,0.0],[43.85324,56.33384,0.0],[43.85698,56.33297,0.0],[43.85735,56.33289,0.0],[43.8574,56.33287,0.0],[43.85755,56.33284,0.0],[43.85919,56.33246,0.0],[43.86,56.33227,0.0],[43.86014,56.33224,0.0],[43.86061,56.33212,0.0],[43.86099,56.33202,0.0],[43.86122,56.33195,0.0],[43.86131,56.33192,0.0],[43.86155,56.33198,0.0],[43.86556,56.33335,0.0],[43.86558,56.33442,0.0],[43.86564,56.33445,0.0],[43.86584,56.33452,0.0],[43.86622,56.33465,0.0],[43.86654,56.33477,0.0],[43.86666,56.33487,0.0],[43.86674,56.33504,0.0],[43.86682,56.33517,0.0],[43.86709,56.33533,0.0],[43.86748,56.3355,0.0],[43.86775,56.33558,0.0],[43.86825,56.3357,0.0],[43.86906,56.33584,0.0],[43.86946,56.33594,0.0],[43.86947,56.33645,0.0],[43.86962,56.33672,0.0],[43.86986,56.3377,0.0],[43.86995,56.33793,0.0],[43.87013,56.33829,0.0],[43.87347,56.34399,0.0],[43.87344,56.34417,0.0],[43.87372,56.34433,0.0],[43.87434,56.34396,0.0],[43.87511,56.34349,0.0],[43.87583,56.34303,0.0],[43.87615,56.34283,0.0],[43.87661,56.34254,0.0],[43.8775,56.34199,0.0],[43.8779,56.34174,0.0],[43.8783,56.34148,0.0],[43.87852,56.34133,0.0],[43.87864,56.34125,0.0],[43.87869,56.34122,0.0],[43.87877,56.34117,0.0],[43.87957,56.34065,0.0],[43.88038,56.34012,0.0],[43.88055,56.34,0.0],[43.8817,56.33924,0.0],[43.88267,56.33862,0.0],[43.88317,56.3383,0.0],[43.88375,56.33792,0.0],[43.88382,56.33787,0.0],[43.8841,56.33769,0.0],[43.88426,56.33757,0.0],[43.88462,56.33734,0.0],[43.88577,56.33659,0.0],[43.88594,56.3365,0.0],[43.88616,56.3364,0.0],[43.88648,56.33626,0.0],[43.8866,56.33648,0.0],[43.88663,56.33653,0.0],[43.8868,56.33689,0.0],[43.88711,56.33748,0.0],[43.88736,56.33781,0.0],[43.88741,56.33789,0.0],[43.8875,56.33801,0.0],[43.8876,56.33816,0.0],[43.88781,56.33856,0.0],[43.88798,56.33894,0.0],[43.88803,56.33911,0.0],[43.88814,56.33949,0.0],[43.88823,56.33985,0.0],[43.88841,56.34072,0.0],[43.88853,56.3412,0.0],[43.88863,56.34169,0.0],[43.88896,56.34309,0.0],[43.88903,56.34347,0.0],[43.88914,56.34383,0.0],[43.88929,56.34417,0.0],[43.88945,56.3446,0.0],[43.88968,56.34464,0.0],[43.88982,56.34464,0.0],[43.89009,56.34463,0.0],[43.89173,56.34446,0.0],[43.89279,56.34429,0.0],[43.89365,56.34412,0.0],[43.8952,56.34381,0.0],[43.89886,56.34307,0.0],[43.89936,56.34297,0.0],[43.9034,56.34958,0.0],[43.9039,56.34989,0.0],[43.90416,56.35015,0.0],[43.90379,56.35139,0.0],[43.90399,56.35308,0.0],[43.90463,56.35318,0.0],[43.9057,56.35376,0.0],[43.9061,56.35443,0.0],[43.90564,56.3545,0.0],[43.90583,56.35462,0.0],[43.90788,56.35734,0.0],[43.9156,56.35517,0.0],[43.92359,56.35356,0.0],[43.9212,56.34972,0.0],[43.921,56.34917,0.0],[43.92091,56.34864,0.0],[43.92089,56.34789,0.0],[43.92106,56.3426,0.0],[43.92114,56.34179,0.0],[43.92139,56.34083,0.0],[43.92182,56.33997,0.0],[43.92226,56.3394,0.0],[43.92264,56.33888,0.0],[43.92346,56.33806,0.0],[43.92543,56.33653,0.0],[43.92526,56.33648,0.0],[43.92562,56.33617,0.0],[43.92598,56.33582,0.0],[43.92638,56.33512,0.0],[43.92704,56.33366,0.0],[43.92831,56.32876,0.0],[43.92842,56.32842,0.0],[43.92851,56.32789,0.0],[43.92856,56.32769,0.0],[43.92858,56.32758,0.0],[43.92866,56.32732,0.0],[43.92877,56.32698,0.0],[43.92885,56.32676,0.0],[43.92888,56.32665,0.0],[43.92894,56.32637,0.0],[43.92899,56.32618,0.0],[43.9291,56.32574,0.0],[43.92915,56.32551,0.0],[43.92917,56.32542,0.0],[43.92922,56.32529,0.0],[43.92938,56.32479,0.0],[43.92941,56.32469,0.0],[43.92948,56.32442,0.0],[43.92964,56.32384,0.0],[43.92969,56.32363,0.0],[43.92984,56.32307,0.0],[43.93,56.32248,0.0],[43.93003,56.32235,0.0],[43.93011,56.32207,0.0],[43.93026,56.32154,0.0],[43.93033,56.32131,0.0],[43.9304,56.32111,0.0],[43.93049,56.32083,0.0],[43.93051,56.32075,0.0],[43.93057,56.3205,0.0],[43.93068,56.32,0.0]]]]}},{"type":"Feature","properties":{"uesi_id":"RUS_R335495","nbhd_code":"RUS_R335495_8","nbhd_name":"\u00d0\u009d\u00d0\u00b8\u00d0\u00b6\u00d0\u00b5\u00d0\u00b3\u00d0\u00be\u00d1\u20ac\u00d0\u00be\u00d0\u00b4\u00d1\u0081\u00d0\u00ba\u00d0\u00b8\u00d0\u00b9 \u00d1\u20ac\u00d0\u00b0\u00d0\u00b9\u00d0\u00be\u00d0\u00bd"},"geometry":{"type":"MultiPolygon","coordinates":[[[[44.15185,56.15949,0.0],[44.14226,56.1576,0.0],[44.13842,56.15753,0.0],[44.13501,56.15938,0.0],[44.13036,56.15858,0.0],[44.12816,56.15845,0.0],[44.12668,56.15828,0.0],[44.12329,56.15864,0.0],[44.1193,56.15931,0.0],[44.1178,56.15891,0.0],[44.1175,56.1589,0.0],[44.11695,56.1592,0.0],[44.11528,56.15943,0.0],[44.11436,56.15921,0.0],[44.11399,56.1592,0.0],[44.11382,56.1591,0.0],[44.11376,56.15895,0.0],[44.11356,56.15895,0.0],[44.11353,56.15885,0.0],[44.11217,56.15907,0.0],[44.1123,56.15933,0.0],[44.10982,56.15936,0.0],[44.10849,56.15971,0.0],[44.10721,56.15912,0.0],[44.10633,56.15908,0.0],[44.10522,56.15908,0.0],[44.10376,56.15926,0.0],[44.10364,56.15951,0.0],[44.10269,56.16021,0.0],[44.09658,56.15922,0.0],[44.08817,56.15935,0.0],[44.08532,56.15983,0.0],[44.08434,56.15803,0.0],[44.07818,56.15866,0.0],[44.07564,56.1587,0.0],[44.07174,56.15806,0.0],[44.07172,56.15765,0.0],[44.0716,56.15722,0.0],[44.06657,56.15751,0.0],[44.06554,56.15853,0.0],[44.06218,56.1584,0.0],[44.0578,56.15903,0.0],[44.05544,56.15888,0.0],[44.05383,56.15956,0.0],[44.05288,56.15955,0.0],[44.04877,56.161,0.0],[44.04787,56.16101,0.0],[44.04576,56.16101,0.0],[44.03956,56.16218,0.0],[44.03846,56.15786,0.0],[44.03813,56.158,0.0],[44.03802,56.15824,0.0],[44.03775,56.15846,0.0],[44.03733,56.15851,0.0],[44.03691,56.15844,0.0],[44.03653,56.1581,0.0],[44.03613,56.15797,0.0],[44.03565,56.15795,0.0],[44.03481,56.15811,0.0],[44.03385,56.15837,0.0],[44.03301,56.15818,0.0],[44.03231,56.1582,0.0],[44.03232,56.1585,0.0],[44.03268,56.1587,0.0],[44.03295,56.15901,0.0],[44.03299,56.15927,0.0],[44.03276,56.15942,0.0],[44.03227,56.15947,0.0],[44.03191,56.15941,0.0],[44.03165,56.15911,0.0],[44.03145,56.15871,0.0],[44.03114,56.15852,0.0],[44.03078,56.15857,0.0],[44.03031,56.15879,0.0],[44.02991,56.15912,0.0],[44.02982,56.15943,0.0],[44.03008,56.15973,0.0],[44.0305,56.15986,0.0],[44.03084,56.16007,0.0],[44.03104,56.16033,0.0],[44.03102,56.16054,0.0],[44.03078,56.16076,0.0],[44.03041,56.16076,0.0],[44.02982,56.16066,0.0],[44.02901,56.16029,0.0],[44.02849,56.15994,0.0],[44.02803,56.15979,0.0],[44.02715,56.15973,0.0],[44.02641,56.1596,0.0],[44.02568,56.15932,0.0],[44.02528,56.15933,0.0],[44.02496,56.1595,0.0],[44.02488,56.15976,0.0],[44.02483,56.16008,0.0],[44.02461,56.16029,0.0],[44.02416,56.16045,0.0],[44.02362,56.16049,0.0],[44.02314,56.16042,0.0],[44.02288,56.16016,0.0],[44.02287,56.15991,0.0],[44.02257,56.15974,0.0],[44.02222,56.15966,0.0],[44.02137,56.1595,0.0],[44.02084,56.1593,0.0],[44.02053,56.15911,0.0],[44.02044,56.15892,0.0],[44.02049,56.15865,0.0],[44.02099,56.15853,0.0],[44.02165,56.15841,0.0],[44.02213,56.15826,0.0],[44.02224,56.15805,0.0],[44.02214,56.15781,0.0],[44.02174,56.15752,0.0],[44.02135,56.15734,0.0],[44.02084,56.1572,0.0],[44.02028,56.15715,0.0],[44.01987,56.15701,0.0],[44.01957,56.1571,0.0],[44.01934,56.15733,0.0],[44.01919,56.15755,0.0],[44.01918,56.15779,0.0],[44.01892,56.15794,0.0],[44.01832,56.15804,0.0],[44.01788,56.15807,0.0],[44.01747,56.15785,0.0],[44.01722,56.15749,0.0],[44.01729,56.15725,0.0],[44.01761,56.15703,0.0],[44.01812,56.15704,0.0],[44.01867,56.15692,0.0],[44.0188,56.1568,0.0],[44.01876,56.15665,0.0],[44.01851,56.15654,0.0],[44.01799,56.15661,0.0],[44.01724,56.15662,0.0],[44.0169,56.15648,0.0],[44.01633,56.1563,0.0],[44.01589,56.15604,0.0],[44.01534,56.15596,0.0],[44.01498,56.15609,0.0],[44.01464,56.15621,0.0],[44.01459,56.15653,0.0],[44.01468,56.15671,0.0],[44.01483,56.15699,0.0],[44.01478,56.15723,0.0],[44.01469,56.15749,0.0],[44.01443,56.15764,0.0],[44.01403,56.15778,0.0],[44.01364,56.15779,0.0],[44.01333,56.15809,0.0],[44.01084,56.15846,0.0],[44.0114,56.15952,0.0],[44.00857,56.16084,0.0],[44.00478,56.16232,0.0],[44.00477,56.16258,0.0],[44.00542,56.16269,0.0],[44.00778,56.16251,0.0],[44.00832,56.16318,0.0],[44.00743,56.164,0.0],[44.0041,56.16347,0.0],[44.00056,56.16364,0.0],[43.99617,56.16383,0.0],[43.99644,56.16499,0.0],[43.99531,56.16517,0.0],[43.9937,56.16371,0.0],[43.99108,56.16549,0.0],[43.98976,56.16556,0.0],[43.98872,56.16437,0.0],[43.98701,56.16425,0.0],[43.98449,56.16538,0.0],[43.98209,56.16517,0.0],[43.97661,56.16648,0.0],[43.97704,56.16839,0.0],[43.97763,56.16991,0.0],[43.97959,56.1698,0.0],[43.98083,56.1703,0.0],[43.97986,56.17121,0.0],[43.9791,56.17146,0.0],[43.97906,56.17235,0.0],[43.97772,56.173,0.0],[43.9787,56.17557,0.0],[43.97846,56.17784,0.0],[43.97898,56.18008,0.0],[43.97645,56.18412,0.0],[43.9766,56.18589,0.0],[43.97553,56.18696,0.0],[43.97417,56.18753,0.0],[43.97324,56.18818,0.0],[43.97243,56.18906,0.0],[43.97134,56.19015,0.0],[43.97052,56.19182,0.0],[43.97101,56.19283,0.0],[43.97383,56.196,0.0],[43.97251,56.19636,0.0],[43.97094,56.19754,0.0],[43.96963,56.19779,0.0],[43.9665,56.19775,0.0],[43.96492,56.19843,0.0],[43.96529,56.19907,0.0],[43.96448,56.20065,0.0],[43.96479,56.2021,0.0],[43.96873,56.20516,0.0],[43.97325,56.20616,0.0],[43.9732,56.20827,0.0],[43.9752,56.20851,0.0],[43.97483,56.20907,0.0],[43.97364,56.20949,0.0],[43.97446,56.20983,0.0],[43.97468,56.21033,0.0],[43.97482,56.2106,0.0],[43.97577,56.21032,0.0],[43.97681,56.20937,0.0],[43.97705,56.20693,0.0],[43.97713,56.20594,0.0],[43.9782,56.20362,0.0],[43.98039,56.20231,0.0],[43.97987,56.20142,0.0],[43.97862,56.20106,0.0],[43.9759,56.19992,0.0],[43.97605,56.19864,0.0],[43.97552,56.19799,0.0],[43.97427,56.19742,0.0],[43.97375,56.19744,0.0],[43.97079,56.19879,0.0],[43.96916,56.19913,0.0],[43.96655,56.19917,0.0],[43.96663,56.19877,0.0],[43.96924,56.19883,0.0],[43.97103,56.19854,0.0],[43.97241,56.19783,0.0],[43.97458,56.19643,0.0],[43.9745,56.19482,0.0],[43.97375,56.19331,0.0],[43.97225,56.19178,0.0],[43.97209,56.19042,0.0],[43.97404,56.18893,0.0],[43.97489,56.18805,0.0],[43.97663,56.18713,0.0],[43.97731,56.18628,0.0],[43.97714,56.1842,0.0],[43.9799,56.18093,0.0],[43.98055,56.18004,0.0],[43.97921,56.17801,0.0],[43.97985,56.17447,0.0],[43.97899,56.17283,0.0],[43.97956,56.17313,0.0],[43.98004,56.1734,0.0],[43.98075,56.17359,0.0],[43.98087,56.17464,0.0],[43.98217,56.17493,0.0],[43.98302,56.17528,0.0],[43.9842,56.17532,0.0],[43.98486,56.17594,0.0],[43.98519,56.17758,0.0],[43.98709,56.17776,0.0],[43.98645,56.17979,0.0],[43.99251,56.18099,0.0],[43.99374,56.17898,0.0],[43.99516,56.17899,0.0],[43.99624,56.17821,0.0],[43.99714,56.17825,0.0],[43.99924,56.1783,0.0],[44.00025,56.17874,0.0],[43.99949,56.18061,0.0],[44.00123,56.18052,0.0],[44.00133,56.18138,0.0],[44.0025,56.18245,0.0],[44.00435,56.18507,0.0],[44.00581,56.18457,0.0],[44.00698,56.18492,0.0],[44.00909,56.18465,0.0],[44.01349,56.18789,0.0],[44.01742,56.19112,0.0],[44.01689,56.19192,0.0],[44.01527,56.19385,0.0],[44.01601,56.19408,0.0],[44.01451,56.19615,0.0],[44.01602,56.1966,0.0],[44.01649,56.19695,0.0],[44.01638,56.19703,0.0],[44.0171,56.19757,0.0],[44.01786,56.1979,0.0],[44.02245,56.19925,0.0],[44.02313,56.1986,0.0],[44.02475,56.19909,0.0],[44.02418,56.19975,0.0],[44.02407,56.19988,0.0],[44.02598,56.2004,0.0],[44.02867,56.20128,0.0],[44.03076,56.20121,0.0],[44.03263,56.20114,0.0],[44.03426,56.20093,0.0],[44.03648,56.20032,0.0],[44.04392,56.19751,0.0],[44.04372,56.19708,0.0],[44.05475,56.19276,0.0],[44.0507,56.19122,0.0],[44.05231,56.19086,0.0],[44.0532,56.18877,0.0],[44.05797,56.18949,0.0],[44.05822,56.18892,0.0],[44.05935,56.18847,0.0],[44.06175,56.18694,0.0],[44.06464,56.18739,0.0],[44.06629,56.18721,0.0],[44.06872,56.18709,0.0],[44.07096,56.18747,0.0],[44.07193,56.18817,0.0],[44.07444,56.18783,0.0],[44.07985,56.18751,0.0],[44.07982,56.18634,0.0],[44.08071,56.1859,0.0],[44.08589,56.18673,0.0],[44.09199,56.18881,0.0],[44.09158,56.18939,0.0],[44.10032,56.19108,0.0],[44.10394,56.19122,0.0],[44.1065,56.19085,0.0],[44.10662,56.18939,0.0],[44.11077,56.18939,0.0],[44.11508,56.18774,0.0],[44.13295,56.1804,0.0],[44.14799,56.17658,0.0],[44.15411,56.1729,0.0],[44.15477,56.16935,0.0],[44.15185,56.15949,0.0]]],[[[44.11325,56.29527,0.0],[44.11221,56.29506,0.0],[44.11211,56.29498,0.0],[44.11196,56.29494,0.0],[44.11008,56.29437,0.0],[44.10982,56.2943,0.0],[44.11025,56.29387,0.0],[44.10802,56.29374,0.0],[44.10653,56.29365,0.0],[44.10616,56.29362,0.0],[44.10486,56.29352,0.0],[44.10318,56.2934,0.0],[44.10301,56.29338,0.0],[44.10308,56.29312,0.0],[44.10343,56.29194,0.0],[44.10352,56.29155,0.0],[44.10387,56.29152,0.0],[44.10384,56.29124,0.0],[44.10137,56.29126,0.0],[44.10138,56.2913,0.0],[44.10137,56.29143,0.0],[44.10029,56.29149,0.0],[44.10022,56.29237,0.0],[44.09962,56.2924,0.0],[44.09955,56.29301,0.0],[44.09792,56.29289,0.0],[44.0978,56.29282,0.0],[44.09763,56.29276,0.0],[44.0972,56.29276,0.0],[44.09678,56.2927,0.0],[44.09669,56.29263,0.0],[44.09612,56.29257,0.0],[44.09597,56.29259,0.0],[44.09573,56.29259,0.0],[44.09556,56.29262,0.0],[44.09484,56.29257,0.0],[44.09484,56.29244,0.0],[44.09454,56.29245,0.0],[44.09452,56.29237,0.0],[44.09399,56.2923,0.0],[44.09382,56.29201,0.0],[44.09363,56.29128,0.0],[44.09358,56.29115,0.0],[44.09424,56.29107,0.0],[44.09414,56.29068,0.0],[44.09359,56.29074,0.0],[44.09344,56.2906,0.0],[44.09153,56.29077,0.0],[44.09121,56.2891,0.0],[44.09084,56.28899,0.0],[44.09052,56.28875,0.0],[44.08998,56.28876,0.0],[44.08997,56.28798,0.0],[44.08953,56.28786,0.0],[44.0896,56.28712,0.0],[44.08977,56.28714,0.0],[44.09058,56.28715,0.0],[44.09077,56.28717,0.0],[44.09068,56.28733,0.0],[44.09078,56.28737,0.0],[44.09124,56.28724,0.0],[44.09156,56.28714,0.0],[44.09179,56.28704,0.0],[44.09189,56.28697,0.0],[44.09199,56.28693,0.0],[44.0922,56.28686,0.0],[44.09242,56.28695,0.0],[44.09253,56.28689,0.0],[44.09262,56.28677,0.0],[44.09273,56.28662,0.0],[44.09286,56.28665,0.0],[44.09272,56.28681,0.0],[44.09288,56.2869,0.0],[44.09309,56.28692,0.0],[44.09314,56.28684,0.0],[44.09331,56.28678,0.0],[44.09347,56.28673,0.0],[44.09361,56.28663,0.0],[44.09389,56.28664,0.0],[44.09408,56.28675,0.0],[44.09433,56.28673,0.0],[44.09434,56.28664,0.0],[44.09479,56.28653,0.0],[44.09498,56.28643,0.0],[44.09526,56.28638,0.0],[44.09608,56.28638,0.0],[44.09652,56.2862,0.0],[44.09628,56.28605,0.0],[44.09576,56.28551,0.0],[44.09581,56.2851,0.0],[44.09564,56.28487,0.0],[44.09577,56.28484,0.0],[44.09596,56.28495,0.0],[44.0961,56.28495,0.0],[44.09618,56.2849,0.0],[44.09623,56.28479,0.0],[44.09636,56.28475,0.0],[44.09643,56.2848,0.0],[44.09657,56.2848,0.0],[44.0966,56.28474,0.0],[44.09668,56.28469,0.0],[44.09698,56.28467,0.0],[44.09768,56.28477,0.0],[44.09802,56.28478,0.0],[44.09811,56.28466,0.0],[44.09799,56.28457,0.0],[44.09799,56.28448,0.0],[44.09772,56.28434,0.0],[44.0975,56.28438,0.0],[44.0973,56.28415,0.0],[44.09666,56.28409,0.0],[44.09655,56.28406,0.0],[44.0964,56.28382,0.0],[44.09642,56.28347,0.0],[44.09615,56.28347,0.0],[44.09609,56.283,0.0],[44.09599,56.28292,0.0],[44.0963,56.28264,0.0],[44.09634,56.28238,0.0],[44.09649,56.2821,0.0],[44.09645,56.28041,0.0],[44.09734,56.27817,0.0],[44.09504,56.27765,0.0],[44.09206,56.28029,0.0],[44.08947,56.28106,0.0],[44.08782,56.28237,0.0],[44.08635,56.2819,0.0],[44.08545,56.28181,0.0],[44.08471,56.28178,0.0],[44.08312,56.28178,0.0],[44.08266,56.28172,0.0],[44.0818,56.28162,0.0],[44.08123,56.2815,0.0],[44.08101,56.28146,0.0],[44.08033,56.28129,0.0],[44.08424,56.27378,0.0],[44.08677,56.27183,0.0],[44.08626,56.27068,0.0],[44.08632,56.27055,0.0],[44.08691,56.27001,0.0],[44.08589,56.26967,0.0],[44.08507,56.26966,0.0],[44.0842,56.26941,0.0],[44.08361,56.26909,0.0],[44.08308,56.269,0.0],[44.08256,56.26899,0.0],[44.08275,56.2683,0.0],[44.08356,56.26715,0.0],[44.08148,56.26688,0.0],[44.08057,56.26675,0.0],[44.0799,56.26661,0.0],[44.0793,56.26654,0.0],[44.07887,56.26652,0.0],[44.07849,56.26643,0.0],[44.07756,56.26623,0.0],[44.0773,56.26613,0.0],[44.07695,56.26593,0.0],[44.0769,56.26599,0.0],[44.07688,56.26607,0.0],[44.07695,56.26616,0.0],[44.07695,56.26621,0.0],[44.0769,56.26627,0.0],[44.07678,56.26634,0.0],[44.07664,56.26638,0.0],[44.07648,56.26643,0.0],[44.076,56.26651,0.0],[44.07577,56.26655,0.0],[44.07563,56.26659,0.0],[44.07546,56.26663,0.0],[44.0753,56.26664,0.0],[44.0751,56.26663,0.0],[44.07495,56.26667,0.0],[44.07479,56.26676,0.0],[44.07405,56.26721,0.0],[44.0739,56.26734,0.0],[44.07372,56.26743,0.0],[44.07313,56.26795,0.0],[44.07299,56.2681,0.0],[44.07288,56.26813,0.0],[44.07285,56.26818,0.0],[44.07275,56.26822,0.0],[44.07268,56.2683,0.0],[44.07235,56.26865,0.0],[44.07223,56.26871,0.0],[44.07212,56.26881,0.0],[44.07182,56.26896,0.0],[44.07159,56.26916,0.0],[44.07115,56.26931,0.0],[44.07078,56.26942,0.0],[44.07059,56.26953,0.0],[44.0703,56.26974,0.0],[44.07013,56.26994,0.0],[44.06997,56.2702,0.0],[44.06988,56.2702,0.0],[44.06987,56.27037,0.0],[44.06991,56.27044,0.0],[44.06991,56.2705,0.0],[44.06983,56.27064,0.0],[44.06974,56.27069,0.0],[44.06963,56.27073,0.0],[44.06953,56.27073,0.0],[44.06938,56.27072,0.0],[44.06928,56.27074,0.0],[44.06924,56.27077,0.0],[44.06882,56.271,0.0],[44.06875,56.27102,0.0],[44.06869,56.27102,0.0],[44.06859,56.27098,0.0],[44.06845,56.27091,0.0],[44.06838,56.27088,0.0],[44.06811,56.2709,0.0],[44.06758,56.2711,0.0],[44.06699,56.27124,0.0],[44.06653,56.27128,0.0],[44.06584,56.27146,0.0],[44.06521,56.27143,0.0],[44.06472,56.27136,0.0],[44.06452,56.27137,0.0],[44.06427,56.27144,0.0],[44.06418,56.27144,0.0],[44.06401,56.2714,0.0],[44.06368,56.27149,0.0],[44.06363,56.27155,0.0],[44.06366,56.2717,0.0],[44.06348,56.2719,0.0],[44.06322,56.27201,0.0],[44.06287,56.27237,0.0],[44.06283,56.27238,0.0],[44.06262,56.2724,0.0],[44.06256,56.27242,0.0],[44.06247,56.27258,0.0],[44.06239,56.27273,0.0],[44.06228,56.27278,0.0],[44.06207,56.27283,0.0],[44.06151,56.27299,0.0],[44.06117,56.27315,0.0],[44.06092,56.27344,0.0],[44.06057,56.27361,0.0],[44.06016,56.27371,0.0],[44.05979,56.27384,0.0],[44.05937,56.27457,0.0],[44.05826,56.27516,0.0],[44.05794,56.27526,0.0],[44.05771,56.2754,0.0],[44.05734,56.27605,0.0],[44.05708,56.27607,0.0],[44.05677,56.27602,0.0],[44.05494,56.27636,0.0],[44.0544,56.27648,0.0],[44.05426,56.27651,0.0],[44.05413,56.27654,0.0],[44.05396,56.27656,0.0],[44.05369,56.27652,0.0],[44.0536,56.27658,0.0],[44.0534,56.27695,0.0],[44.05396,56.2771,0.0],[44.05356,56.27806,0.0],[44.0532,56.27838,0.0],[44.05321,56.27903,0.0],[44.053,56.27908,0.0],[44.05273,56.27942,0.0],[44.05269,56.27986,0.0],[44.0528,56.28014,0.0],[44.05295,56.28043,0.0],[44.05288,56.28057,0.0],[44.05265,56.28068,0.0],[44.05265,56.28084,0.0],[44.0528,56.28101,0.0],[44.05287,56.2812,0.0],[44.05353,56.28228,0.0],[44.05397,56.28293,0.0],[44.05423,56.28304,0.0],[44.0543,56.28315,0.0],[44.05422,56.28326,0.0],[44.05455,56.28355,0.0],[44.05527,56.28404,0.0],[44.056,56.28464,0.0],[44.05613,56.28495,0.0],[44.05608,56.28542,0.0],[44.05624,56.28561,0.0],[44.05683,56.28582,0.0],[44.05696,56.28593,0.0],[44.05697,56.28622,0.0],[44.05723,56.2866,0.0],[44.05727,56.2868,0.0],[44.05699,56.28706,0.0],[44.05691,56.28716,0.0],[44.05682,56.28727,0.0],[44.05683,56.28735,0.0],[44.05678,56.28748,0.0],[44.05664,56.28755,0.0],[44.05649,56.28757,0.0],[44.05635,56.28763,0.0],[44.05623,56.28775,0.0],[44.0561,56.28803,0.0],[44.05616,56.28823,0.0],[44.05635,56.28825,0.0],[44.05644,56.2883,0.0],[44.05658,56.28852,0.0],[44.0566,56.28866,0.0],[44.05649,56.28876,0.0],[44.05638,56.28892,0.0],[44.05625,56.28915,0.0],[44.05626,56.28925,0.0],[44.05628,56.28929,0.0],[44.05637,56.28935,0.0],[44.05641,56.28946,0.0],[44.05627,56.28973,0.0],[44.05627,56.28977,0.0],[44.05638,56.28997,0.0],[44.05636,56.29008,0.0],[44.05631,56.29015,0.0],[44.05584,56.29059,0.0],[44.05577,56.29067,0.0],[44.05579,56.29074,0.0],[44.05583,56.29081,0.0],[44.05588,56.29087,0.0],[44.05629,56.29111,0.0],[44.0563,56.2912,0.0],[44.05638,56.29134,0.0],[44.05641,56.29143,0.0],[44.05636,56.29154,0.0],[44.05626,56.29163,0.0],[44.05604,56.29179,0.0],[44.0559,56.29206,0.0],[44.05589,56.29215,0.0],[44.05593,56.29224,0.0],[44.05612,56.29253,0.0],[44.05613,56.2926,0.0],[44.05608,56.29273,0.0],[44.05588,56.29296,0.0],[44.05573,56.29311,0.0],[44.05565,56.29327,0.0],[44.05564,56.29335,0.0],[44.05567,56.29341,0.0],[44.05575,56.29348,0.0],[44.05586,56.29359,0.0],[44.05591,56.29375,0.0],[44.05597,56.294,0.0],[44.05612,56.29415,0.0],[44.05618,56.29429,0.0],[44.05621,56.29441,0.0],[44.05615,56.29452,0.0],[44.05601,56.29473,0.0],[44.05591,56.29499,0.0],[44.05589,56.29517,0.0],[44.05599,56.29551,0.0],[44.056,56.29568,0.0],[44.05598,56.29576,0.0],[44.05585,56.29591,0.0],[44.05568,56.29601,0.0],[44.05523,56.29649,0.0],[44.05516,56.29667,0.0],[44.05519,56.29682,0.0],[44.05526,56.29695,0.0],[44.05526,56.29703,0.0],[44.05513,56.29709,0.0],[44.05491,56.29755,0.0],[44.05475,56.29779,0.0],[44.05452,56.29794,0.0],[44.05442,56.29805,0.0],[44.05431,56.29822,0.0],[44.0543,56.29828,0.0],[44.05433,56.29834,0.0],[44.05424,56.29887,0.0],[44.0542,56.299,0.0],[44.05408,56.29919,0.0],[44.05405,56.29933,0.0],[44.05405,56.29947,0.0],[44.05409,56.29958,0.0],[44.0542,56.29974,0.0],[44.05443,56.29996,0.0],[44.05479,56.30017,0.0],[44.05498,56.30038,0.0],[44.0551,56.30047,0.0],[44.05531,56.30051,0.0],[44.05545,56.30059,0.0],[44.0555,56.3007,0.0],[44.05552,56.30096,0.0],[44.0557,56.3014,0.0],[44.05545,56.30158,0.0],[44.05518,56.30164,0.0],[44.05498,56.30162,0.0],[44.05482,56.30161,0.0],[44.05417,56.30176,0.0],[44.05345,56.30193,0.0],[44.05324,56.30205,0.0],[44.0525,56.3023,0.0],[44.05216,56.3024,0.0],[44.05217,56.30263,0.0],[44.05225,56.30273,0.0],[44.05224,56.30278,0.0],[44.05196,56.30305,0.0],[44.05147,56.3036,0.0],[44.05112,56.30363,0.0],[44.05101,56.30367,0.0],[44.05069,56.30369,0.0],[44.05043,56.30376,0.0],[44.04964,56.30395,0.0],[44.04949,56.30394,0.0],[44.04923,56.30386,0.0],[44.04905,56.30377,0.0],[44.04888,56.30375,0.0],[44.04869,56.30377,0.0],[44.04846,56.30383,0.0],[44.04817,56.30405,0.0],[44.04786,56.30424,0.0],[44.04781,56.30433,0.0],[44.04755,56.30449,0.0],[44.04732,56.30477,0.0],[44.04713,56.30487,0.0],[44.04705,56.30499,0.0],[44.04693,56.30532,0.0],[44.04692,56.30536,0.0],[44.0469,56.3054,0.0],[44.04677,56.30552,0.0],[44.04664,56.3058,0.0],[44.04667,56.30591,0.0],[44.04686,56.30605,0.0],[44.04695,56.30615,0.0],[44.04695,56.30626,0.0],[44.04683,56.30646,0.0],[44.04671,56.30658,0.0],[44.0466,56.30667,0.0],[44.04602,56.30689,0.0],[44.04591,56.30695,0.0],[44.04571,56.30727,0.0],[44.04567,56.30731,0.0],[44.04559,56.30738,0.0],[44.04557,56.30743,0.0],[44.04552,56.30758,0.0],[44.04543,56.30768,0.0],[44.04535,56.30783,0.0],[44.0452,56.30796,0.0],[44.04511,56.30804,0.0],[44.04486,56.30824,0.0],[44.04475,56.30846,0.0],[44.04463,56.3086,0.0],[44.04453,56.30864,0.0],[44.04432,56.30872,0.0],[44.04421,56.30877,0.0],[44.04412,56.3088,0.0],[44.04407,56.30883,0.0],[44.04398,56.30905,0.0],[44.04402,56.30928,0.0],[44.04405,56.30935,0.0],[44.04394,56.30942,0.0],[44.0441,56.31009,0.0],[44.04402,56.31027,0.0],[44.04398,56.31048,0.0],[44.04381,56.31067,0.0],[44.0435,56.31105,0.0],[44.04355,56.31117,0.0],[44.04359,56.31124,0.0],[44.04362,56.31135,0.0],[44.0436,56.31139,0.0],[44.04352,56.31143,0.0],[44.04346,56.3115,0.0],[44.04345,56.31155,0.0],[44.04349,56.31171,0.0],[44.04339,56.31187,0.0],[44.04338,56.31192,0.0],[44.04335,56.31194,0.0],[44.04326,56.31197,0.0],[44.04293,56.31222,0.0],[44.04282,56.31221,0.0],[44.04274,56.31229,0.0],[44.04269,56.31246,0.0],[44.0426,56.31262,0.0],[44.04244,56.31275,0.0],[44.04227,56.31291,0.0],[44.04208,56.31315,0.0],[44.04207,56.31327,0.0],[44.04201,56.31331,0.0],[44.04193,56.31328,0.0],[44.04186,56.31339,0.0],[44.04174,56.31374,0.0],[44.04132,56.31394,0.0],[44.0407,56.31406,0.0],[44.03943,56.31439,0.0],[44.0393,56.31439,0.0],[44.03918,56.31442,0.0],[44.03901,56.31448,0.0],[44.03887,56.31459,0.0],[44.03826,56.31488,0.0],[44.03784,56.31504,0.0],[44.03772,56.31516,0.0],[44.03752,56.31532,0.0],[44.03726,56.31534,0.0],[44.03712,56.3154,0.0],[44.03664,56.31585,0.0],[44.03657,56.31592,0.0],[44.03651,56.31602,0.0],[44.03649,56.31622,0.0],[44.0365,56.31632,0.0],[44.03654,56.31639,0.0],[44.03656,56.31641,0.0],[44.03654,56.31659,0.0],[44.03569,56.31735,0.0],[44.03515,56.31744,0.0],[44.03486,56.31743,0.0],[44.03472,56.31744,0.0],[44.03447,56.31759,0.0],[44.03356,56.3179,0.0],[44.03308,56.3182,0.0],[44.0327,56.31852,0.0],[44.03211,56.31908,0.0],[44.0325,56.31922,0.0],[44.03175,56.31987,0.0],[44.03126,56.31974,0.0],[44.03095,56.3199,0.0],[44.03067,56.32014,0.0],[44.03063,56.32029,0.0],[44.03047,56.32019,0.0],[44.03031,56.32011,0.0],[44.02968,56.31986,0.0],[44.02922,56.31968,0.0],[44.02865,56.3195,0.0],[44.02772,56.31927,0.0],[44.02734,56.31918,0.0],[44.02697,56.31909,0.0],[44.02637,56.31893,0.0],[44.0262,56.31889,0.0],[44.02602,56.31884,0.0],[44.02591,56.31882,0.0],[44.02575,56.31877,0.0],[44.02531,56.31866,0.0],[44.02357,56.31824,0.0],[44.02339,56.3182,0.0],[44.0231,56.31813,0.0],[44.02284,56.31805,0.0],[44.02277,56.31803,0.0],[44.02267,56.318,0.0],[44.02187,56.31776,0.0],[44.02161,56.31768,0.0],[44.02103,56.31751,0.0],[44.01952,56.31707,0.0],[44.01939,56.31703,0.0],[44.01923,56.31698,0.0],[44.01825,56.31668,0.0],[44.01772,56.31652,0.0],[44.0172,56.31637,0.0],[44.01657,56.31619,0.0],[44.01596,56.316,0.0],[44.01571,56.31593,0.0],[44.0151,56.31574,0.0],[44.01362,56.31528,0.0],[44.01348,56.31524,0.0],[44.01302,56.3151,0.0],[44.01287,56.31505,0.0],[44.01271,56.315,0.0],[44.01232,56.31488,0.0],[44.01221,56.31485,0.0],[44.01215,56.31483,0.0],[44.01196,56.31476,0.0],[44.01042,56.31422,0.0],[44.0098,56.314,0.0],[44.00969,56.31396,0.0],[44.00957,56.31392,0.0],[44.00939,56.31386,0.0],[44.00815,56.31341,0.0],[44.00769,56.31324,0.0],[44.00705,56.31302,0.0],[44.0068,56.31293,0.0],[44.0067,56.31289,0.0],[44.0066,56.31285,0.0],[44.00647,56.31281,0.0],[44.00634,56.31276,0.0],[44.00583,56.3126,0.0],[44.00507,56.31235,0.0],[44.00379,56.31192,0.0],[44.00363,56.31187,0.0],[44.00351,56.31183,0.0],[44.00117,56.31105,0.0],[43.99972,56.31057,0.0],[43.99948,56.31048,0.0],[43.99925,56.31042,0.0],[43.99901,56.31035,0.0],[43.99818,56.31012,0.0],[43.99542,56.30956,0.0],[43.99263,56.309,0.0],[43.99212,56.3089,0.0],[43.99192,56.30886,0.0],[43.99175,56.30882,0.0],[43.99154,56.30878,0.0],[43.99059,56.30856,0.0],[43.99024,56.30849,0.0],[43.98956,56.30835,0.0],[43.98901,56.30826,0.0],[43.98797,56.30805,0.0],[43.98785,56.30803,0.0],[43.98768,56.30802,0.0],[43.98713,56.30805,0.0],[43.98557,56.30821,0.0],[43.98486,56.3083,0.0],[43.98444,56.30835,0.0],[43.98376,56.30843,0.0],[43.98357,56.30846,0.0],[43.98313,56.30851,0.0],[43.98285,56.30854,0.0],[43.98267,56.30856,0.0],[43.98249,56.3086,0.0],[43.98226,56.30866,0.0],[43.98194,56.30874,0.0],[43.98148,56.30882,0.0],[43.98033,56.30897,0.0],[43.98004,56.309,0.0],[43.9798,56.30903,0.0],[43.97918,56.30912,0.0],[43.97904,56.30914,0.0],[43.97874,56.30918,0.0],[43.9786,56.3092,0.0],[43.97807,56.30928,0.0],[43.97731,56.30939,0.0],[43.9771,56.30942,0.0],[43.97697,56.30944,0.0],[43.97644,56.30952,0.0],[43.97578,56.30958,0.0],[43.9755,56.3095,0.0],[43.97552,56.31021,0.0],[43.97547,56.31082,0.0],[43.9755,56.31108,0.0],[43.97564,56.31129,0.0],[43.97232,56.31194,0.0],[43.9701,56.31186,0.0],[43.97004,56.31165,0.0],[43.97002,56.31147,0.0],[43.9701,56.31122,0.0],[43.9702,56.31107,0.0],[43.97015,56.311,0.0],[43.97011,56.3104,0.0],[43.97003,56.31024,0.0],[43.96997,56.31004,0.0],[43.96996,56.30981,0.0],[43.97,56.30955,0.0],[43.96997,56.30936,0.0],[43.9698,56.30904,0.0],[43.9698,56.30889,0.0],[43.96969,56.30858,0.0],[43.96969,56.30801,0.0],[43.96962,56.30778,0.0],[43.96959,56.30749,0.0],[43.96965,56.30702,0.0],[43.97006,56.30662,0.0],[43.97049,56.30632,0.0],[43.9705,56.30626,0.0],[43.97041,56.30622,0.0],[43.96969,56.30622,0.0],[43.96942,56.30614,0.0],[43.96933,56.30605,0.0],[43.96933,56.30592,0.0],[43.9694,56.30567,0.0],[43.96931,56.30492,0.0],[43.96917,56.3047,0.0],[43.96875,56.30455,0.0],[43.96859,56.30404,0.0],[43.9684,56.29887,0.0],[43.96273,56.29893,0.0],[43.96289,56.30382,0.0],[43.96215,56.31177,0.0],[43.96256,56.31723,0.0],[43.97133,56.32683,0.0],[43.97231,56.32763,0.0],[43.98125,56.33238,0.0],[43.99083,56.33615,0.0],[43.99134,56.33641,0.0],[43.99247,56.33624,0.0],[44.00063,56.33721,0.0],[44.00945,56.33822,0.0],[44.02603,56.33716,0.0],[44.03332,56.33684,0.0],[44.04546,56.33759,0.0],[44.06825,56.33804,0.0],[44.07537,56.33718,0.0],[44.08244,56.33472,0.0],[44.08575,56.33329,0.0],[44.09059,56.33031,0.0],[44.09697,56.32135,0.0],[44.11917,56.29813,0.0],[44.11325,56.29527,0.0]]]]}}]}