{"type":"FeatureCollection","name":"RUS_R4442556","crs":{"type":"name","properties":{"name":"urn:ogc:def:crs:OGC:1.3:CRS84"}},"features":[{"type":"Feature","properties":{"uesi_id":"RUS_R4442556","nbhd_code":"RUS_R4442556_1","nbhd_name":"\u00d0\u0161\u00d1\u0192\u00d1\u20ac\u00d1\u2021\u00d0\u00b0\u00d1\u201a\u00d0\u00be\u00d0\u00b2\u00d1\u0081\u00d0\u00ba\u00d0\u00b8\u00d0\u00b9 \u00d1\u20ac\u00d0\u00b0\u00d0\u00b9\u00d0\u00be\u00d0\u00bd"},"geometry":{"type":"MultiPolygon","coordinates":[[[[61.40205,55.19895,0.0],[61.40109,55.19894,0.0],[61.39823,55.19885,0.0],[61.39787,55.19883,0.0],[61.39683,55.1988,0.0],[61.3958,55.19873,0.0],[61.39479,55.19861,0.0],[61.3939,55.19848,0.0],[61.39311,55.19834,0.0],[61.38699,55.19723,0.0],[61.38804,55.19589,0.0],[61.38847,55.19533,0.0],[61.38918,55.19431,0.0],[61.39055,55.19228,0.0],[61.39104,55.19155,0.0],[61.3916,55.19074,0.0],[61.39394,55.18662,0.0],[61.39407,55.18619,0.0],[61.39419,55.18441,0.0],[61.39412,55.18433,0.0],[61.39398,55.18425,0.0],[61.39369,55.18418,0.0],[61.38759,55.18396,0.0],[61.38697,55.18393,0.0],[61.38635,55.18391,0.0],[61.38021,55.18383,0.0],[61.37989,55.18382,0.0],[61.37946,55.18382,0.0],[61.37266,55.1837,0.0],[61.37214,55.18369,0.0],[61.37172,55.18372,0.0],[61.37122,55.18383,0.0],[61.3604,55.18813,0.0],[61.35973,55.18838,0.0],[61.35917,55.18856,0.0],[61.35876,55.18867,0.0],[61.35822,55.1888,0.0],[61.35766,55.18888,0.0],[61.35694,55.18896,0.0],[61.35626,55.18897,0.0],[61.34744,55.18897,0.0],[61.33351,55.18896,0.0],[61.33269,55.18896,0.0],[61.33179,55.18896,0.0],[61.32346,55.18895,0.0],[61.32224,55.18895,0.0],[61.32214,55.18895,0.0],[61.32116,55.18895,0.0],[61.32029,55.18895,0.0],[61.31809,55.18894,0.0],[61.3179,55.18894,0.0],[61.31366,55.18892,0.0],[61.31258,55.18892,0.0],[61.31163,55.18889,0.0],[61.31054,55.18882,0.0],[61.30967,55.18875,0.0],[61.30875,55.18865,0.0],[61.30784,55.18852,0.0],[61.30713,55.1884,0.0],[61.30594,55.18813,0.0],[61.30498,55.18789,0.0],[61.30378,55.18754,0.0],[61.30274,55.18721,0.0],[61.30196,55.18694,0.0],[61.30111,55.1866,0.0],[61.29974,55.186,0.0],[61.29927,55.18581,0.0],[61.29919,55.18577,0.0],[61.29895,55.18566,0.0],[61.29874,55.18557,0.0],[61.29433,55.18356,0.0],[61.29181,55.18244,0.0],[61.29069,55.18198,0.0],[61.28413,55.17908,0.0],[61.2815,55.17793,0.0],[61.28018,55.17702,0.0],[61.27973,55.17644,0.0],[61.27976,55.1754,0.0],[61.26997,55.16082,0.0],[61.26432,55.16122,0.0],[61.25039,55.16221,0.0],[61.2631,55.19969,0.0],[61.26717,55.21169,0.0],[61.27269,55.22425,0.0],[61.28627,55.23057,0.0],[61.27851,55.23638,0.0],[61.28378,55.23874,0.0],[61.27164,55.24821,0.0],[61.24524,55.27042,0.0],[61.26785,55.27644,0.0],[61.28296,55.27222,0.0],[61.30783,55.26587,0.0],[61.31404,55.26698,0.0],[61.31889,55.2691,0.0],[61.32299,55.27031,0.0],[61.32553,55.26595,0.0],[61.3251,55.26572,0.0],[61.32745,55.26075,0.0],[61.34689,55.26067,0.0],[61.34688,55.26085,0.0],[61.34831,55.26088,0.0],[61.34551,55.26539,0.0],[61.34755,55.26573,0.0],[61.34873,55.26615,0.0],[61.34915,55.26605,0.0],[61.3493,55.26577,0.0],[61.35203,55.26567,0.0],[61.35501,55.26505,0.0],[61.35698,55.26538,0.0],[61.35927,55.26537,0.0],[61.36051,55.26556,0.0],[61.36017,55.26509,0.0],[61.35905,55.26424,0.0],[61.35594,55.26165,0.0],[61.35595,55.26163,0.0],[61.35481,55.26077,0.0],[61.35477,55.26072,0.0],[61.35394,55.25972,0.0],[61.35345,55.25829,0.0],[61.35303,55.25794,0.0],[61.35295,55.25759,0.0],[61.35332,55.25696,0.0],[61.35427,55.2564,0.0],[61.35522,55.25585,0.0],[61.35579,55.25553,0.0],[61.35614,55.25515,0.0],[61.35873,55.25332,0.0],[61.35927,55.25294,0.0],[61.35961,55.24942,0.0],[61.35961,55.24876,0.0],[61.35961,55.24853,0.0],[61.35969,55.24815,0.0],[61.36013,55.24629,0.0],[61.36022,55.24604,0.0],[61.36166,55.24433,0.0],[61.36235,55.24285,0.0],[61.36241,55.24273,0.0],[61.36323,55.24239,0.0],[61.36382,55.24112,0.0],[61.36475,55.23922,0.0],[61.36489,55.23802,0.0],[61.36648,55.23728,0.0],[61.36778,55.23651,0.0],[61.36923,55.23621,0.0],[61.37077,55.23575,0.0],[61.37249,55.23552,0.0],[61.37493,55.23568,0.0],[61.37697,55.23533,0.0],[61.37901,55.23484,0.0],[61.38036,55.23455,0.0],[61.38141,55.23405,0.0],[61.38245,55.23299,0.0],[61.38407,55.23256,0.0],[61.38509,55.23207,0.0],[61.38637,55.23189,0.0],[61.38782,55.23161,0.0],[61.38898,55.23131,0.0],[61.38938,55.23107,0.0],[61.39009,55.23117,0.0],[61.39122,55.23119,0.0],[61.39206,55.23092,0.0],[61.39238,55.23043,0.0],[61.39311,55.22992,0.0],[61.39366,55.22939,0.0],[61.39355,55.22851,0.0],[61.39342,55.22811,0.0],[61.3932,55.22774,0.0],[61.39301,55.22752,0.0],[61.39265,55.22682,0.0],[61.39308,55.22642,0.0],[61.39303,55.22577,0.0],[61.39315,55.22539,0.0],[61.39298,55.22507,0.0],[61.39245,55.22483,0.0],[61.39154,55.22471,0.0],[61.39071,55.22472,0.0],[61.39025,55.22435,0.0],[61.39032,55.22345,0.0],[61.391,55.22282,0.0],[61.39118,55.22163,0.0],[61.39094,55.2212,0.0],[61.39103,55.22094,0.0],[61.39091,55.22081,0.0],[61.39088,55.22051,0.0],[61.3908,55.21979,0.0],[61.39019,55.2189,0.0],[61.39006,55.21838,0.0],[61.3901,55.21781,0.0],[61.39027,55.21709,0.0],[61.39079,55.21565,0.0],[61.39171,55.2145,0.0],[61.39228,55.21407,0.0],[61.39369,55.21329,0.0],[61.39497,55.21237,0.0],[61.39604,55.21131,0.0],[61.39628,55.21094,0.0],[61.39657,55.21005,0.0],[61.3965,55.20956,0.0],[61.39622,55.20932,0.0],[61.39647,55.20797,0.0],[61.39662,55.20761,0.0],[61.39741,55.20643,0.0],[61.39823,55.20611,0.0],[61.39892,55.20543,0.0],[61.40057,55.20365,0.0],[61.40124,55.20254,0.0],[61.4015,55.2012,0.0],[61.40205,55.19895,0.0]]]]}},{"type":"Feature","properties":{"uesi_id":"RUS_R4442556","nbhd_code":"RUS_R4442556_2","nbhd_name":"\u00d0\u0161\u00d0\u00b0\u00d0\u00bb\u00d0\u00b8\u00d0\u00bd\u00d0\u00b8\u00d0\u00bd\u00d1\u0081\u00d0\u00ba\u00d0\u00b8\u00d0\u00b9 \u00d1\u20ac\u00d0\u00b0\u00d0\u00b9\u00d0\u00be\u00d0\u00bd"},"geometry":{"type":"MultiPolygon","coordinates":[[[[61.49197,55.22142,0.0],[61.49296,55.22086,0.0],[61.48622,55.21926,0.0],[61.48456,55.21877,0.0],[61.4833,55.21831,0.0],[61.48253,55.21799,0.0],[61.48165,55.21765,0.0],[61.48057,55.21714,0.0],[61.47961,55.21673,0.0],[61.47808,55.21609,0.0],[61.4724,55.21368,0.0],[61.46478,55.21045,0.0],[61.4627,55.20956,0.0],[61.45796,55.2075,0.0],[61.45676,55.20702,0.0],[61.4561,55.20679,0.0],[61.45547,55.20663,0.0],[61.45582,55.20563,0.0],[61.4563,55.20424,0.0],[61.45661,55.20342,0.0],[61.45674,55.20325,0.0],[61.45658,55.20315,0.0],[61.45412,55.20216,0.0],[61.45423,55.20206,0.0],[61.45468,55.20162,0.0],[61.45543,55.20088,0.0],[61.45565,55.20068,0.0],[61.4566,55.19977,0.0],[61.45824,55.19835,0.0],[61.45859,55.19804,0.0],[61.45934,55.19736,0.0],[61.46039,55.19642,0.0],[61.46098,55.19589,0.0],[61.46143,55.19533,0.0],[61.46241,55.19385,0.0],[61.46297,55.19293,0.0],[61.46304,55.19281,0.0],[61.46332,55.19235,0.0],[61.46453,55.19042,0.0],[61.46453,55.19042,0.0],[61.4641,55.18987,0.0],[61.46372,55.18937,0.0],[61.46276,55.18814,0.0],[61.46237,55.18829,0.0],[61.46202,55.1888,0.0],[61.46164,55.18938,0.0],[61.46021,55.18908,0.0],[61.45873,55.18878,0.0],[61.45721,55.18847,0.0],[61.45563,55.18815,0.0],[61.45612,55.18735,0.0],[61.45568,55.18673,0.0],[61.45472,55.18539,0.0],[61.45352,55.18513,0.0],[61.45335,55.18508,0.0],[61.45329,55.18503,0.0],[61.45328,55.18498,0.0],[61.45095,55.18451,0.0],[61.45039,55.1844,0.0],[61.44977,55.18427,0.0],[61.4494,55.1842,0.0],[61.44917,55.18415,0.0],[61.44833,55.18398,0.0],[61.44788,55.18389,0.0],[61.44513,55.18331,0.0],[61.44473,55.18323,0.0],[61.44464,55.18337,0.0],[61.44379,55.18462,0.0],[61.44308,55.18447,0.0],[61.44261,55.18437,0.0],[61.44221,55.18428,0.0],[61.44185,55.18421,0.0],[61.44097,55.18402,0.0],[61.44009,55.18383,0.0],[61.43981,55.18377,0.0],[61.43923,55.18365,0.0],[61.43797,55.18339,0.0],[61.43688,55.18317,0.0],[61.43588,55.18296,0.0],[61.43545,55.18288,0.0],[61.43511,55.18281,0.0],[61.4347,55.18273,0.0],[61.43452,55.18268,0.0],[61.42701,55.18111,0.0],[61.42822,55.17925,0.0],[61.42475,55.1785,0.0],[61.42234,55.17798,0.0],[61.42049,55.17756,0.0],[61.42125,55.17632,0.0],[61.422,55.17529,0.0],[61.42243,55.17485,0.0],[61.42203,55.1748,0.0],[61.4219,55.17476,0.0],[61.42182,55.17474,0.0],[61.42151,55.17468,0.0],[61.4213,55.17462,0.0],[61.42094,55.17455,0.0],[61.42042,55.1746,0.0],[61.42017,55.17485,0.0],[61.41963,55.17484,0.0],[61.41776,55.17478,0.0],[61.41734,55.17481,0.0],[61.41684,55.17479,0.0],[61.41584,55.17474,0.0],[61.41517,55.17472,0.0],[61.41498,55.17471,0.0],[61.41332,55.17466,0.0],[61.41277,55.17464,0.0],[61.41173,55.17463,0.0],[61.41163,55.17537,0.0],[61.4097,55.17564,0.0],[61.40908,55.17505,0.0],[61.40829,55.17377,0.0],[61.40867,55.17266,0.0],[61.40885,55.17216,0.0],[61.40858,55.17192,0.0],[61.40672,55.17025,0.0],[61.40294,55.16897,0.0],[61.40105,55.16864,0.0],[61.39934,55.16862,0.0],[61.39589,55.17005,0.0],[61.38977,55.17117,0.0],[61.38766,55.17138,0.0],[61.38575,55.17157,0.0],[61.38314,55.1719,0.0],[61.38137,55.17187,0.0],[61.38033,55.17196,0.0],[61.37962,55.17222,0.0],[61.37736,55.17284,0.0],[61.37603,55.17319,0.0],[61.37595,55.17343,0.0],[61.37529,55.17377,0.0],[61.37323,55.17418,0.0],[61.37134,55.17449,0.0],[61.36974,55.17447,0.0],[61.36722,55.17433,0.0],[61.36536,55.17444,0.0],[61.36423,55.17462,0.0],[61.36337,55.17475,0.0],[61.36175,55.17504,0.0],[61.3608,55.17504,0.0],[61.36035,55.17504,0.0],[61.35987,55.17495,0.0],[61.35946,55.17467,0.0],[61.35878,55.17444,0.0],[61.35739,55.17434,0.0],[61.35725,55.17433,0.0],[61.35668,55.17404,0.0],[61.35542,55.17359,0.0],[61.35393,55.17312,0.0],[61.35207,55.17295,0.0],[61.35049,55.17329,0.0],[61.34925,55.17348,0.0],[61.34822,55.17349,0.0],[61.34749,55.17335,0.0],[61.34664,55.173,0.0],[61.34582,55.17285,0.0],[61.34522,55.17291,0.0],[61.34453,55.17312,0.0],[61.34342,55.1735,0.0],[61.34211,55.1735,0.0],[61.34007,55.17317,0.0],[61.33622,55.17211,0.0],[61.33366,55.17063,0.0],[61.32819,55.17022,0.0],[61.3268,55.1692,0.0],[61.32669,55.16863,0.0],[61.32622,55.16826,0.0],[61.32536,55.16807,0.0],[61.32457,55.16803,0.0],[61.32437,55.16802,0.0],[61.32343,55.16831,0.0],[61.32249,55.16932,0.0],[61.32128,55.16988,0.0],[61.3197,55.17005,0.0],[61.31751,55.17,0.0],[61.31669,55.16973,0.0],[61.31506,55.16839,0.0],[61.31395,55.16719,0.0],[61.31339,55.16569,0.0],[61.31399,55.1651,0.0],[61.31412,55.16471,0.0],[61.31352,55.16392,0.0],[61.31233,55.16345,0.0],[61.3122,55.16335,0.0],[61.3118,55.16231,0.0],[61.31214,55.16106,0.0],[61.31393,55.16002,0.0],[61.31505,55.15963,0.0],[61.31712,55.15858,0.0],[61.31816,55.15802,0.0],[61.31975,55.15768,0.0],[61.3209,55.15726,0.0],[61.3221,55.15679,0.0],[61.32279,55.15603,0.0],[61.32288,55.15566,0.0],[61.3227,55.15534,0.0],[61.32151,55.15479,0.0],[61.32133,55.15414,0.0],[61.31656,55.15475,0.0],[61.31598,55.15482,0.0],[61.31491,55.15502,0.0],[61.31426,55.15513,0.0],[61.3138,55.15523,0.0],[61.31302,55.1554,0.0],[61.31144,55.1557,0.0],[61.31003,55.15598,0.0],[61.30922,55.15612,0.0],[61.30815,55.1564,0.0],[61.30733,55.15674,0.0],[61.30643,55.15733,0.0],[61.30577,55.1578,0.0],[61.30485,55.15838,0.0],[61.30411,55.15886,0.0],[61.30349,55.15923,0.0],[61.30295,55.15957,0.0],[61.30267,55.1598,0.0],[61.30257,55.15995,0.0],[61.30225,55.15995,0.0],[61.30071,55.15993,0.0],[61.29871,55.15994,0.0],[61.29717,55.15993,0.0],[61.29698,55.15992,0.0],[61.29678,55.15992,0.0],[61.29431,55.15995,0.0],[61.2921,55.15997,0.0],[61.28866,55.15998,0.0],[61.28585,55.15999,0.0],[61.28029,55.15998,0.0],[61.28024,55.16064,0.0],[61.28018,55.16157,0.0],[61.28002,55.16377,0.0],[61.27989,55.16413,0.0],[61.27988,55.16457,0.0],[61.27992,55.16475,0.0],[61.27993,55.16482,0.0],[61.27991,55.16499,0.0],[61.27975,55.16681,0.0],[61.27974,55.16695,0.0],[61.27974,55.16699,0.0],[61.27976,55.17223,0.0],[61.27976,55.17311,0.0],[61.27976,55.1733,0.0],[61.27976,55.1754,0.0],[61.27973,55.17644,0.0],[61.28018,55.17702,0.0],[61.2815,55.17793,0.0],[61.28413,55.17908,0.0],[61.29069,55.18198,0.0],[61.29181,55.18244,0.0],[61.29433,55.18356,0.0],[61.29874,55.18557,0.0],[61.29895,55.18566,0.0],[61.29919,55.18577,0.0],[61.29927,55.18581,0.0],[61.29974,55.186,0.0],[61.30111,55.1866,0.0],[61.30196,55.18694,0.0],[61.30274,55.18721,0.0],[61.30378,55.18754,0.0],[61.30498,55.18789,0.0],[61.30594,55.18813,0.0],[61.30713,55.1884,0.0],[61.30784,55.18852,0.0],[61.30875,55.18865,0.0],[61.30967,55.18875,0.0],[61.31054,55.18882,0.0],[61.31163,55.18889,0.0],[61.31258,55.18892,0.0],[61.31366,55.18892,0.0],[61.3179,55.18894,0.0],[61.31809,55.18894,0.0],[61.32029,55.18895,0.0],[61.32116,55.18895,0.0],[61.32214,55.18895,0.0],[61.32224,55.18895,0.0],[61.32346,55.18895,0.0],[61.33179,55.18896,0.0],[61.33269,55.18896,0.0],[61.33351,55.18896,0.0],[61.34744,55.18897,0.0],[61.35626,55.18897,0.0],[61.35694,55.18896,0.0],[61.35766,55.18888,0.0],[61.35822,55.1888,0.0],[61.35876,55.18867,0.0],[61.35917,55.18856,0.0],[61.35973,55.18838,0.0],[61.3604,55.18813,0.0],[61.37122,55.18383,0.0],[61.37172,55.18372,0.0],[61.37214,55.18369,0.0],[61.37266,55.1837,0.0],[61.37946,55.18382,0.0],[61.37989,55.18382,0.0],[61.38021,55.18383,0.0],[61.38635,55.18391,0.0],[61.38697,55.18393,0.0],[61.38759,55.18396,0.0],[61.39369,55.18418,0.0],[61.39398,55.18425,0.0],[61.39412,55.18433,0.0],[61.39419,55.18441,0.0],[61.39407,55.18619,0.0],[61.39394,55.18662,0.0],[61.3916,55.19074,0.0],[61.39104,55.19155,0.0],[61.39055,55.19228,0.0],[61.38918,55.19431,0.0],[61.38847,55.19533,0.0],[61.38804,55.19589,0.0],[61.38699,55.19723,0.0],[61.39311,55.19834,0.0],[61.3939,55.19848,0.0],[61.39479,55.19861,0.0],[61.3958,55.19873,0.0],[61.39683,55.1988,0.0],[61.39787,55.19883,0.0],[61.39823,55.19885,0.0],[61.40109,55.19894,0.0],[61.40205,55.19895,0.0],[61.4015,55.2012,0.0],[61.40124,55.20254,0.0],[61.40057,55.20365,0.0],[61.39892,55.20543,0.0],[61.39823,55.20611,0.0],[61.39741,55.20643,0.0],[61.39662,55.20761,0.0],[61.39647,55.20797,0.0],[61.39622,55.20932,0.0],[61.3965,55.20956,0.0],[61.39657,55.21005,0.0],[61.39628,55.21094,0.0],[61.39604,55.21131,0.0],[61.39497,55.21237,0.0],[61.39369,55.21329,0.0],[61.39228,55.21407,0.0],[61.39171,55.2145,0.0],[61.39079,55.21565,0.0],[61.39027,55.21709,0.0],[61.3901,55.21781,0.0],[61.39006,55.21838,0.0],[61.39019,55.2189,0.0],[61.3908,55.21979,0.0],[61.39088,55.22051,0.0],[61.39173,55.22026,0.0],[61.39411,55.2198,0.0],[61.39451,55.21974,0.0],[61.39474,55.21971,0.0],[61.39543,55.21964,0.0],[61.39629,55.2196,0.0],[61.40721,55.2195,0.0],[61.40731,55.2195,0.0],[61.41149,55.21946,0.0],[61.41291,55.21942,0.0],[61.41371,55.21941,0.0],[61.41549,55.21943,0.0],[61.41563,55.21943,0.0],[61.4159,55.21943,0.0],[61.41625,55.21944,0.0],[61.41673,55.21944,0.0],[61.4181,55.21944,0.0],[61.41886,55.21944,0.0],[61.42034,55.21944,0.0],[61.42113,55.21946,0.0],[61.42542,55.21947,0.0],[61.42589,55.21947,0.0],[61.42626,55.21943,0.0],[61.42657,55.21939,0.0],[61.42691,55.21932,0.0],[61.42736,55.2192,0.0],[61.42798,55.21901,0.0],[61.42918,55.21859,0.0],[61.43045,55.21815,0.0],[61.43253,55.22012,0.0],[61.43371,55.22013,0.0],[61.43372,55.2203,0.0],[61.43488,55.22029,0.0],[61.43947,55.2199,0.0],[61.44044,55.21986,0.0],[61.45189,55.21883,0.0],[61.45234,55.2172,0.0],[61.45654,55.21924,0.0],[61.45774,55.21966,0.0],[61.45856,55.21661,0.0],[61.45884,55.21563,0.0],[61.45885,55.21518,0.0],[61.45924,55.21532,0.0],[61.46818,55.21871,0.0],[61.46887,55.21898,0.0],[61.47501,55.22277,0.0],[61.47874,55.22474,0.0],[61.48043,55.22555,0.0],[61.4815,55.226,0.0],[61.48259,55.22611,0.0],[61.48366,55.22604,0.0],[61.48433,55.22578,0.0],[61.48462,55.22546,0.0],[61.48511,55.22554,0.0],[61.4854,55.22544,0.0],[61.48588,55.22519,0.0],[61.48634,55.22527,0.0],[61.48667,55.22521,0.0],[61.48868,55.2248,0.0],[61.4896,55.22462,0.0],[61.48981,55.22458,0.0],[61.49039,55.2241,0.0],[61.49197,55.22142,0.0]]]]}},{"type":"Feature","properties":{"uesi_id":"RUS_R4442556","nbhd_code":"RUS_R4442556_3","nbhd_name":"\u00d0\u00a6\u00d0\u00b5\u00d0\u00bd\u00d1\u201a\u00d1\u20ac\u00d0\u00b0\u00d0\u00bb\u00d1\u0152\u00d0\u00bd\u00d1\u2039\u00d0\u00b9 \u00d1\u20ac\u00d0\u00b0\u00d0\u00b9\u00d0\u00be\u00d0\u00bd"},"geometry":{"type":"MultiPolygon","coordinates":[[[[61.42822,55.16743,0.0],[61.42814,55.16682,0.0],[61.42802,55.1663,0.0],[61.42786,55.16574,0.0],[61.42734,55.16423,0.0],[61.42721,55.16377,0.0],[61.42709,55.16335,0.0],[61.42707,55.16296,0.0],[61.42709,55.16252,0.0],[61.42717,55.16219,0.0],[61.4273,55.16181,0.0],[61.42747,55.16146,0.0],[61.42756,55.16128,0.0],[61.42775,55.16105,0.0],[61.42765,55.16105,0.0],[61.42744,55.16104,0.0],[61.42727,55.16104,0.0],[61.42667,55.16102,0.0],[61.42604,55.16101,0.0],[61.42573,55.161,0.0],[61.42532,55.16099,0.0],[61.42408,55.16095,0.0],[61.42398,55.16094,0.0],[61.42161,55.16089,0.0],[61.42062,55.16086,0.0],[61.41734,55.16077,0.0],[61.41642,55.16075,0.0],[61.41619,55.16074,0.0],[61.41396,55.16068,0.0],[61.41273,55.16065,0.0],[61.41242,55.16064,0.0],[61.41153,55.16062,0.0],[61.41107,55.1606,0.0],[61.40979,55.16057,0.0],[61.40918,55.16055,0.0],[61.409,55.16055,0.0],[61.40877,55.16054,0.0],[61.40661,55.16049,0.0],[61.40644,55.16048,0.0],[61.40565,55.16046,0.0],[61.40427,55.16042,0.0],[61.40402,55.16042,0.0],[61.40307,55.16039,0.0],[61.40204,55.16036,0.0],[61.40124,55.16034,0.0],[61.40082,55.16026,0.0],[61.40044,55.15998,0.0],[61.39883,55.15877,0.0],[61.3986,55.1586,0.0],[61.39827,55.15836,0.0],[61.39758,55.15784,0.0],[61.39738,55.15769,0.0],[61.39716,55.15753,0.0],[61.3969,55.15733,0.0],[61.39613,55.15675,0.0],[61.39516,55.15601,0.0],[61.39478,55.15572,0.0],[61.39457,55.15556,0.0],[61.39439,55.15542,0.0],[61.39395,55.15509,0.0],[61.39269,55.15413,0.0],[61.39192,55.15354,0.0],[61.39088,55.15275,0.0],[61.39008,55.15215,0.0],[61.38966,55.15186,0.0],[61.38954,55.15177,0.0],[61.38943,55.1517,0.0],[61.38885,55.15127,0.0],[61.38822,55.15082,0.0],[61.38808,55.15072,0.0],[61.38803,55.15068,0.0],[61.38755,55.15033,0.0],[61.38729,55.15014,0.0],[61.38643,55.14952,0.0],[61.38594,55.14915,0.0],[61.3849,55.14839,0.0],[61.38421,55.1479,0.0],[61.38266,55.14676,0.0],[61.38233,55.14652,0.0],[61.38201,55.14628,0.0],[61.38189,55.14619,0.0],[61.38013,55.14489,0.0],[61.37991,55.14473,0.0],[61.37936,55.14432,0.0],[61.37857,55.14373,0.0],[61.37771,55.14309,0.0],[61.37686,55.14246,0.0],[61.37596,55.1418,0.0],[61.37566,55.14157,0.0],[61.37527,55.14126,0.0],[61.37516,55.14114,0.0],[61.37513,55.14099,0.0],[61.37515,55.14065,0.0],[61.37517,55.14027,0.0],[61.37526,55.13861,0.0],[61.37522,55.13729,0.0],[61.37501,55.13656,0.0],[61.37502,55.1363,0.0],[61.37459,55.13595,0.0],[61.37342,55.13509,0.0],[61.37333,55.13503,0.0],[61.37263,55.13453,0.0],[61.37106,55.1334,0.0],[61.37033,55.13283,0.0],[61.37012,55.13268,0.0],[61.37001,55.1326,0.0],[61.36988,55.13251,0.0],[61.3682,55.13128,0.0],[61.367,55.13043,0.0],[61.36662,55.13008,0.0],[61.36644,55.12986,0.0],[61.36628,55.12961,0.0],[61.36605,55.1291,0.0],[61.36591,55.12879,0.0],[61.36563,55.12812,0.0],[61.36547,55.12775,0.0],[61.36508,55.12671,0.0],[61.36462,55.12541,0.0],[61.36429,55.12459,0.0],[61.36392,55.12363,0.0],[61.36317,55.12174,0.0],[61.36288,55.12098,0.0],[61.36285,55.1209,0.0],[61.36239,55.11975,0.0],[61.36227,55.11944,0.0],[61.36205,55.11885,0.0],[61.3618,55.11825,0.0],[61.36091,55.11816,0.0],[61.36034,55.11812,0.0],[61.35841,55.11802,0.0],[61.35807,55.11799,0.0],[61.35656,55.11779,0.0],[61.35521,55.11753,0.0],[61.3541,55.11731,0.0],[61.35302,55.11771,0.0],[61.35223,55.11791,0.0],[61.35195,55.11797,0.0],[61.3505,55.11829,0.0],[61.34955,55.11849,0.0],[61.34743,55.11895,0.0],[61.34642,55.11917,0.0],[61.34549,55.11939,0.0],[61.34442,55.11964,0.0],[61.34258,55.12011,0.0],[61.34252,55.12012,0.0],[61.34224,55.12019,0.0],[61.34169,55.12033,0.0],[61.34141,55.1204,0.0],[61.34109,55.12048,0.0],[61.33994,55.12085,0.0],[61.33979,55.1209,0.0],[61.33899,55.1211,0.0],[61.33856,55.12116,0.0],[61.33696,55.12123,0.0],[61.33638,55.12118,0.0],[61.33567,55.12112,0.0],[61.33547,55.12112,0.0],[61.3344,55.12111,0.0],[61.33353,55.12111,0.0],[61.33285,55.12114,0.0],[61.33183,55.12121,0.0],[61.33172,55.12122,0.0],[61.33144,55.12127,0.0],[61.33105,55.12141,0.0],[61.33064,55.12161,0.0],[61.3304,55.12172,0.0],[61.33022,55.12181,0.0],[61.33008,55.12188,0.0],[61.32913,55.12275,0.0],[61.32897,55.12288,0.0],[61.3287,55.12314,0.0],[61.32867,55.12363,0.0],[61.32865,55.12413,0.0],[61.30046,55.12394,0.0],[61.30194,55.12672,0.0],[61.30196,55.12899,0.0],[61.29561,55.1351,0.0],[61.28919,55.13727,0.0],[61.28661,55.13643,0.0],[61.28539,55.13752,0.0],[61.28577,55.13985,0.0],[61.27295,55.14255,0.0],[61.25224,55.14112,0.0],[61.24631,55.14116,0.0],[61.24361,55.14174,0.0],[61.24521,55.14648,0.0],[61.24948,55.15947,0.0],[61.24953,55.15961,0.0],[61.25039,55.16221,0.0],[61.26432,55.16122,0.0],[61.26997,55.16082,0.0],[61.27976,55.1754,0.0],[61.27976,55.1733,0.0],[61.27976,55.17311,0.0],[61.27976,55.17223,0.0],[61.27974,55.16699,0.0],[61.27974,55.16695,0.0],[61.27975,55.16681,0.0],[61.27991,55.16499,0.0],[61.27993,55.16482,0.0],[61.27992,55.16475,0.0],[61.27988,55.16457,0.0],[61.27989,55.16413,0.0],[61.28002,55.16377,0.0],[61.28018,55.16157,0.0],[61.28024,55.16064,0.0],[61.28029,55.15998,0.0],[61.28585,55.15999,0.0],[61.28866,55.15998,0.0],[61.2921,55.15997,0.0],[61.29431,55.15995,0.0],[61.29678,55.15992,0.0],[61.29698,55.15992,0.0],[61.29717,55.15993,0.0],[61.29871,55.15994,0.0],[61.30071,55.15993,0.0],[61.30225,55.15995,0.0],[61.30257,55.15995,0.0],[61.30267,55.1598,0.0],[61.30295,55.15957,0.0],[61.30349,55.15923,0.0],[61.30411,55.15886,0.0],[61.30485,55.15838,0.0],[61.30577,55.1578,0.0],[61.30643,55.15733,0.0],[61.30733,55.15674,0.0],[61.30815,55.1564,0.0],[61.30922,55.15612,0.0],[61.31003,55.15598,0.0],[61.31144,55.1557,0.0],[61.31302,55.1554,0.0],[61.3138,55.15523,0.0],[61.31426,55.15513,0.0],[61.31491,55.15502,0.0],[61.31598,55.15482,0.0],[61.31656,55.15475,0.0],[61.32133,55.15414,0.0],[61.32151,55.15479,0.0],[61.3227,55.15534,0.0],[61.32288,55.15566,0.0],[61.32279,55.15603,0.0],[61.3221,55.15679,0.0],[61.3209,55.15726,0.0],[61.31975,55.15768,0.0],[61.31816,55.15802,0.0],[61.31712,55.15858,0.0],[61.31505,55.15963,0.0],[61.31393,55.16002,0.0],[61.31214,55.16106,0.0],[61.3118,55.16231,0.0],[61.3122,55.16335,0.0],[61.31233,55.16345,0.0],[61.31352,55.16392,0.0],[61.31412,55.16471,0.0],[61.31399,55.1651,0.0],[61.31339,55.16569,0.0],[61.31395,55.16719,0.0],[61.31506,55.16839,0.0],[61.31669,55.16973,0.0],[61.31751,55.17,0.0],[61.3197,55.17005,0.0],[61.32128,55.16988,0.0],[61.32249,55.16932,0.0],[61.32343,55.16831,0.0],[61.32437,55.16802,0.0],[61.32457,55.16803,0.0],[61.32536,55.16807,0.0],[61.32622,55.16826,0.0],[61.32669,55.16863,0.0],[61.3268,55.1692,0.0],[61.32819,55.17022,0.0],[61.33366,55.17063,0.0],[61.33622,55.17211,0.0],[61.34007,55.17317,0.0],[61.34211,55.1735,0.0],[61.34342,55.1735,0.0],[61.34453,55.17312,0.0],[61.34522,55.17291,0.0],[61.34582,55.17285,0.0],[61.34664,55.173,0.0],[61.34749,55.17335,0.0],[61.34822,55.17349,0.0],[61.34925,55.17348,0.0],[61.35049,55.17329,0.0],[61.35207,55.17295,0.0],[61.35393,55.17312,0.0],[61.35542,55.17359,0.0],[61.35668,55.17404,0.0],[61.35725,55.17433,0.0],[61.35739,55.17434,0.0],[61.35878,55.17444,0.0],[61.35946,55.17467,0.0],[61.35987,55.17495,0.0],[61.36035,55.17504,0.0],[61.3608,55.17504,0.0],[61.36175,55.17504,0.0],[61.36337,55.17475,0.0],[61.36423,55.17462,0.0],[61.36536,55.17444,0.0],[61.36722,55.17433,0.0],[61.36974,55.17447,0.0],[61.37134,55.17449,0.0],[61.37323,55.17418,0.0],[61.37529,55.17377,0.0],[61.37595,55.17343,0.0],[61.37603,55.17319,0.0],[61.37736,55.17284,0.0],[61.37962,55.17222,0.0],[61.38033,55.17196,0.0],[61.38137,55.17187,0.0],[61.38314,55.1719,0.0],[61.38575,55.17157,0.0],[61.38766,55.17138,0.0],[61.38977,55.17117,0.0],[61.39589,55.17005,0.0],[61.39934,55.16862,0.0],[61.40105,55.16864,0.0],[61.40294,55.16897,0.0],[61.40672,55.17025,0.0],[61.40858,55.17192,0.0],[61.40885,55.17216,0.0],[61.40867,55.17266,0.0],[61.40829,55.17377,0.0],[61.40908,55.17505,0.0],[61.4097,55.17564,0.0],[61.41163,55.17537,0.0],[61.41173,55.17463,0.0],[61.41277,55.17464,0.0],[61.41332,55.17466,0.0],[61.41498,55.17471,0.0],[61.41517,55.17472,0.0],[61.41584,55.17474,0.0],[61.41684,55.17479,0.0],[61.41734,55.17481,0.0],[61.41776,55.17478,0.0],[61.41963,55.17484,0.0],[61.42017,55.17485,0.0],[61.42042,55.1746,0.0],[61.42094,55.17455,0.0],[61.4213,55.17462,0.0],[61.42151,55.17468,0.0],[61.42182,55.17474,0.0],[61.4219,55.17476,0.0],[61.42203,55.1748,0.0],[61.42243,55.17485,0.0],[61.42273,55.17458,0.0],[61.42291,55.17445,0.0],[61.42346,55.17404,0.0],[61.42416,55.17355,0.0],[61.42469,55.17314,0.0],[61.42512,55.17273,0.0],[61.42566,55.1721,0.0],[61.4269,55.17054,0.0],[61.42733,55.16998,0.0],[61.42756,55.16967,0.0],[61.42773,55.16937,0.0],[61.42796,55.16892,0.0],[61.42813,55.16839,0.0],[61.4282,55.16799,0.0],[61.42821,55.16771,0.0],[61.42822,55.16743,0.0]]]]}},{"type":"Feature","properties":{"uesi_id":"RUS_R4442556","nbhd_code":"RUS_R4442556_4","nbhd_name":"\u00d0\u0153\u00d0\u00b5\u00d1\u201a\u00d0\u00b0\u00d0\u00bb\u00d0\u00bb\u00d1\u0192\u00d1\u20ac\u00d0\u00b3\u00d0\u00b8\u00d1\u2021\u00d0\u00b5\u00d1\u0081\u00d0\u00ba\u00d0\u00b8\u00d0\u00b9 \u00d1\u20ac\u00d0\u00b0\u00d0\u00b9\u00d0\u00be\u00d0\u00bd"},"geometry":{"type":"MultiPolygon","coordinates":[[[[61.55227,55.27929,0.0],[61.54352,55.279,0.0],[61.52564,55.2616,0.0],[61.52129,55.25916,0.0],[61.51016,55.25693,0.0],[61.49343,55.25473,0.0],[61.49137,55.25067,0.0],[61.48578,55.24041,0.0],[61.48553,55.24033,0.0],[61.48499,55.24019,0.0],[61.48326,55.23704,0.0],[61.48025,55.23157,0.0],[61.48307,55.23072,0.0],[61.47898,55.22706,0.0],[61.4815,55.226,0.0],[61.48043,55.22555,0.0],[61.47874,55.22474,0.0],[61.47501,55.22277,0.0],[61.46887,55.21898,0.0],[61.46818,55.21871,0.0],[61.45924,55.21532,0.0],[61.45885,55.21518,0.0],[61.45884,55.21563,0.0],[61.45856,55.21661,0.0],[61.45774,55.21966,0.0],[61.45654,55.21924,0.0],[61.45234,55.2172,0.0],[61.45189,55.21883,0.0],[61.44044,55.21986,0.0],[61.43947,55.2199,0.0],[61.43488,55.22029,0.0],[61.43372,55.2203,0.0],[61.43371,55.22013,0.0],[61.43253,55.22012,0.0],[61.43045,55.21815,0.0],[61.42918,55.21859,0.0],[61.42798,55.21901,0.0],[61.42736,55.2192,0.0],[61.42691,55.21932,0.0],[61.42657,55.21939,0.0],[61.42626,55.21943,0.0],[61.42589,55.21947,0.0],[61.42542,55.21947,0.0],[61.42113,55.21946,0.0],[61.42034,55.21944,0.0],[61.41886,55.21944,0.0],[61.4181,55.21944,0.0],[61.41673,55.21944,0.0],[61.41625,55.21944,0.0],[61.4159,55.21943,0.0],[61.41563,55.21943,0.0],[61.41549,55.21943,0.0],[61.41371,55.21941,0.0],[61.41291,55.21942,0.0],[61.41149,55.21946,0.0],[61.40731,55.2195,0.0],[61.40721,55.2195,0.0],[61.39629,55.2196,0.0],[61.39543,55.21964,0.0],[61.39474,55.21971,0.0],[61.39451,55.21974,0.0],[61.39411,55.2198,0.0],[61.39173,55.22026,0.0],[61.39088,55.22051,0.0],[61.39091,55.22081,0.0],[61.39103,55.22094,0.0],[61.39094,55.2212,0.0],[61.39118,55.22163,0.0],[61.391,55.22282,0.0],[61.39032,55.22345,0.0],[61.39025,55.22435,0.0],[61.39071,55.22472,0.0],[61.39154,55.22471,0.0],[61.39245,55.22483,0.0],[61.39298,55.22507,0.0],[61.39315,55.22539,0.0],[61.39303,55.22577,0.0],[61.39308,55.22642,0.0],[61.39265,55.22682,0.0],[61.39301,55.22752,0.0],[61.3932,55.22774,0.0],[61.39342,55.22811,0.0],[61.39355,55.22851,0.0],[61.39366,55.22939,0.0],[61.39311,55.22992,0.0],[61.39238,55.23043,0.0],[61.39206,55.23092,0.0],[61.39122,55.23119,0.0],[61.39009,55.23117,0.0],[61.38938,55.23107,0.0],[61.38898,55.23131,0.0],[61.38782,55.23161,0.0],[61.38637,55.23189,0.0],[61.38509,55.23207,0.0],[61.38407,55.23256,0.0],[61.38245,55.23299,0.0],[61.38141,55.23405,0.0],[61.38036,55.23455,0.0],[61.37901,55.23484,0.0],[61.37697,55.23533,0.0],[61.37493,55.23568,0.0],[61.37249,55.23552,0.0],[61.37077,55.23575,0.0],[61.36923,55.23621,0.0],[61.36778,55.23651,0.0],[61.36648,55.23728,0.0],[61.36489,55.23802,0.0],[61.36475,55.23922,0.0],[61.36382,55.24112,0.0],[61.36323,55.24239,0.0],[61.36241,55.24273,0.0],[61.36235,55.24285,0.0],[61.36166,55.24433,0.0],[61.36022,55.24604,0.0],[61.36013,55.24629,0.0],[61.35969,55.24815,0.0],[61.35961,55.24853,0.0],[61.35961,55.24876,0.0],[61.35961,55.24942,0.0],[61.35927,55.25294,0.0],[61.35873,55.25332,0.0],[61.35614,55.25515,0.0],[61.35579,55.25553,0.0],[61.35522,55.25585,0.0],[61.35427,55.2564,0.0],[61.35332,55.25696,0.0],[61.35295,55.25759,0.0],[61.35303,55.25794,0.0],[61.35345,55.25829,0.0],[61.35394,55.25972,0.0],[61.35477,55.26072,0.0],[61.35481,55.26077,0.0],[61.35595,55.26163,0.0],[61.35594,55.26165,0.0],[61.35905,55.26424,0.0],[61.36017,55.26509,0.0],[61.36051,55.26556,0.0],[61.36074,55.26583,0.0],[61.36033,55.26643,0.0],[61.35975,55.26702,0.0],[61.35872,55.2675,0.0],[61.35854,55.26823,0.0],[61.35832,55.26847,0.0],[61.3583,55.26902,0.0],[61.35867,55.26925,0.0],[61.35875,55.26988,0.0],[61.35864,55.26999,0.0],[61.35912,55.27076,0.0],[61.35927,55.27141,0.0],[61.359,55.27223,0.0],[61.35926,55.27246,0.0],[61.35917,55.27256,0.0],[61.35929,55.27277,0.0],[61.35997,55.27309,0.0],[61.35987,55.27324,0.0],[61.36003,55.27333,0.0],[61.35956,55.27423,0.0],[61.35975,55.27454,0.0],[61.35926,55.27501,0.0],[61.35834,55.27538,0.0],[61.3568,55.27615,0.0],[61.3558,55.27639,0.0],[61.35504,55.2769,0.0],[61.35383,55.27738,0.0],[61.35322,55.27784,0.0],[61.35329,55.27818,0.0],[61.35387,55.27839,0.0],[61.35377,55.27847,0.0],[61.35395,55.27874,0.0],[61.35397,55.27926,0.0],[61.35425,55.27937,0.0],[61.35416,55.27943,0.0],[61.35446,55.27978,0.0],[61.35439,55.28029,0.0],[61.35419,55.28036,0.0],[61.35407,55.28069,0.0],[61.35425,55.28157,0.0],[61.35404,55.2817,0.0],[61.35411,55.28208,0.0],[61.35462,55.28262,0.0],[61.35465,55.28291,0.0],[61.35433,55.28321,0.0],[61.35448,55.28396,0.0],[61.3539,55.28473,0.0],[61.35335,55.28509,0.0],[61.35341,55.28532,0.0],[61.35313,55.28548,0.0],[61.35319,55.28578,0.0],[61.35288,55.28594,0.0],[61.35276,55.28651,0.0],[61.3514,55.28719,0.0],[61.35072,55.28701,0.0],[61.34946,55.28758,0.0],[61.3495,55.28776,0.0],[61.3486,55.28829,0.0],[61.34839,55.28893,0.0],[61.34713,55.29058,0.0],[61.3473,55.29184,0.0],[61.34676,55.29316,0.0],[61.34683,55.29366,0.0],[61.34709,55.29377,0.0],[61.34747,55.29482,0.0],[61.34796,55.29519,0.0],[61.34811,55.29555,0.0],[61.34798,55.29553,0.0],[61.34878,55.29626,0.0],[61.34866,55.29628,0.0],[61.34974,55.29661,0.0],[61.34998,55.29695,0.0],[61.35174,55.29809,0.0],[61.35333,55.29925,0.0],[61.35457,55.29976,0.0],[61.35492,55.30025,0.0],[61.35569,55.30053,0.0],[61.35586,55.30085,0.0],[61.35543,55.30106,0.0],[61.35544,55.3012,0.0],[61.35571,55.30125,0.0],[61.35579,55.30183,0.0],[61.35516,55.30272,0.0],[61.35364,55.30337,0.0],[61.35293,55.30383,0.0],[61.35236,55.30391,0.0],[61.35209,55.30417,0.0],[61.35193,55.30411,0.0],[61.35181,55.30436,0.0],[61.35164,55.3043,0.0],[61.35148,55.30463,0.0],[61.3504,55.30549,0.0],[61.35031,55.30594,0.0],[61.35068,55.30625,0.0],[61.35047,55.30628,0.0],[61.3507,55.30633,0.0],[61.35134,55.30701,0.0],[61.35158,55.30739,0.0],[61.35149,55.3076,0.0],[61.35161,55.30761,0.0],[61.35131,55.30808,0.0],[61.36399,55.30956,0.0],[61.373,55.30667,0.0],[61.37799,55.30112,0.0],[61.39863,55.30468,0.0],[61.40157,55.32081,0.0],[61.43172,55.31965,0.0],[61.43474,55.3141,0.0],[61.43988,55.31054,0.0],[61.43937,55.30117,0.0],[61.4599,55.30108,0.0],[61.4667,55.30997,0.0],[61.46789,55.30999,0.0],[61.46875,55.31022,0.0],[61.47192,55.30952,0.0],[61.47306,55.31056,0.0],[61.47559,55.31066,0.0],[61.50073,55.30787,0.0],[61.50236,55.31129,0.0],[61.51304,55.30992,0.0],[61.5239,55.30858,0.0],[61.52456,55.30552,0.0],[61.5347,55.3049,0.0],[61.54394,55.30315,0.0],[61.54559,55.30284,0.0],[61.54668,55.3002,0.0],[61.54615,55.30011,0.0],[61.54868,55.29311,0.0],[61.54883,55.29313,0.0],[61.55048,55.28877,0.0],[61.55131,55.28623,0.0],[61.55099,55.2862,0.0],[61.55111,55.28357,0.0],[61.55154,55.28085,0.0],[61.55216,55.28085,0.0],[61.55227,55.27929,0.0]]]]}},{"type":"Feature","properties":{"uesi_id":"RUS_R4442556","nbhd_code":"RUS_R4442556_5","nbhd_name":"\u00d0\u00a1\u00d0\u00be\u00d0\u00b2\u00d0\u00b5\u00d1\u201a\u00d1\u0081\u00d0\u00ba\u00d0\u00b8\u00d0\u00b9 \u00d1\u20ac\u00d0\u00b0\u00d0\u00b9\u00d0\u00be\u00d0\u00bd"},"geometry":{"type":"MultiPolygon","coordinates":[[[[61.4633,55.0511,0.0],[61.46575,55.04931,0.0],[61.44358,55.04,0.0],[61.44209,55.0395,0.0],[61.43928,55.03933,0.0],[61.43873,55.03915,0.0],[61.43863,55.03898,0.0],[61.43853,55.03882,0.0],[61.43871,55.03822,0.0],[61.43921,55.0377,0.0],[61.44062,55.03707,0.0],[61.44089,55.03659,0.0],[61.43794,55.0367,0.0],[61.43703,55.03685,0.0],[61.42631,55.03862,0.0],[61.39716,54.99336,0.0],[61.39525,54.99417,0.0],[61.39326,54.99116,0.0],[61.39121,54.99093,0.0],[61.38952,54.99451,0.0],[61.38831,54.99705,0.0],[61.38879,54.99845,0.0],[61.39071,54.99962,0.0],[61.39256,55.01234,0.0],[61.38907,55.01441,0.0],[61.38519,55.01837,0.0],[61.38519,55.02136,0.0],[61.38109,55.02278,0.0],[61.37814,55.02457,0.0],[61.37387,55.02456,0.0],[61.3696,55.02397,0.0],[61.36698,55.01688,0.0],[61.36485,55.01567,0.0],[61.36387,55.016,0.0],[61.36219,55.016,0.0],[61.35861,55.01668,0.0],[61.35706,55.01663,0.0],[61.35973,55.02486,0.0],[61.35396,55.02873,0.0],[61.34887,55.02923,0.0],[61.33842,55.02617,0.0],[61.32622,55.03631,0.0],[61.33931,55.03977,0.0],[61.33376,55.04303,0.0],[61.32836,55.04861,0.0],[61.32217,55.05794,0.0],[61.32531,55.06561,0.0],[61.32585,55.06779,0.0],[61.32597,55.0715,0.0],[61.32604,55.07339,0.0],[61.32607,55.07594,0.0],[61.31928,55.07816,0.0],[61.31454,55.07623,0.0],[61.31398,55.07668,0.0],[61.31227,55.07802,0.0],[61.31079,55.07722,0.0],[61.30943,55.0767,0.0],[61.30714,55.07603,0.0],[61.2973,55.07099,0.0],[61.2594,55.05157,0.0],[61.25188,55.04772,0.0],[61.24048,55.0461,0.0],[61.23301,55.04175,0.0],[61.22578,55.03945,0.0],[61.22172,55.03815,0.0],[61.21514,55.03783,0.0],[61.2007,55.03843,0.0],[61.19344,55.04072,0.0],[61.19141,55.04475,0.0],[61.17978,55.04789,0.0],[61.17531,55.04394,0.0],[61.17301,55.04253,0.0],[61.17103,55.04004,0.0],[61.16631,55.03996,0.0],[61.15855,55.04623,0.0],[61.15501,55.04713,0.0],[61.14699,55.04915,0.0],[61.14364,55.05356,0.0],[61.14836,55.05299,0.0],[61.15254,55.05068,0.0],[61.15764,55.05434,0.0],[61.17452,55.05413,0.0],[61.18952,55.05392,0.0],[61.19945,55.04693,0.0],[61.2069,55.04642,0.0],[61.21422,55.04623,0.0],[61.22425,55.05064,0.0],[61.23247,55.0628,0.0],[61.24497,55.08598,0.0],[61.25301,55.09132,0.0],[61.2787,55.10717,0.0],[61.29298,55.11621,0.0],[61.29371,55.11667,0.0],[61.30046,55.12394,0.0],[61.32865,55.12413,0.0],[61.32867,55.12363,0.0],[61.3287,55.12314,0.0],[61.32897,55.12288,0.0],[61.32913,55.12275,0.0],[61.33008,55.12188,0.0],[61.33022,55.12181,0.0],[61.3304,55.12172,0.0],[61.33064,55.12161,0.0],[61.33105,55.12141,0.0],[61.33144,55.12127,0.0],[61.33172,55.12122,0.0],[61.33183,55.12121,0.0],[61.33285,55.12114,0.0],[61.33353,55.12111,0.0],[61.3344,55.12111,0.0],[61.33547,55.12112,0.0],[61.33567,55.12112,0.0],[61.33638,55.12118,0.0],[61.33696,55.12123,0.0],[61.33856,55.12116,0.0],[61.33899,55.1211,0.0],[61.33979,55.1209,0.0],[61.33994,55.12085,0.0],[61.34109,55.12048,0.0],[61.34141,55.1204,0.0],[61.34169,55.12033,0.0],[61.34224,55.12019,0.0],[61.34252,55.12012,0.0],[61.34258,55.12011,0.0],[61.34442,55.11964,0.0],[61.34549,55.11939,0.0],[61.34642,55.11917,0.0],[61.34743,55.11895,0.0],[61.34955,55.11849,0.0],[61.3505,55.11829,0.0],[61.35195,55.11797,0.0],[61.35223,55.11791,0.0],[61.35302,55.11771,0.0],[61.3541,55.11731,0.0],[61.35521,55.11753,0.0],[61.35656,55.11779,0.0],[61.35807,55.11799,0.0],[61.35841,55.11802,0.0],[61.36034,55.11812,0.0],[61.36091,55.11816,0.0],[61.3618,55.11825,0.0],[61.36205,55.11885,0.0],[61.36227,55.11944,0.0],[61.36239,55.11975,0.0],[61.36285,55.1209,0.0],[61.36288,55.12098,0.0],[61.36317,55.12174,0.0],[61.36392,55.12363,0.0],[61.36429,55.12459,0.0],[61.36462,55.12541,0.0],[61.36508,55.12671,0.0],[61.36547,55.12775,0.0],[61.36563,55.12812,0.0],[61.36591,55.12879,0.0],[61.36605,55.1291,0.0],[61.36628,55.12961,0.0],[61.36644,55.12986,0.0],[61.36662,55.13008,0.0],[61.367,55.13043,0.0],[61.3682,55.13128,0.0],[61.36988,55.13251,0.0],[61.37001,55.1326,0.0],[61.37012,55.13268,0.0],[61.37033,55.13283,0.0],[61.37106,55.1334,0.0],[61.37263,55.13453,0.0],[61.37333,55.13503,0.0],[61.37342,55.13509,0.0],[61.37459,55.13595,0.0],[61.37502,55.1363,0.0],[61.37501,55.13656,0.0],[61.37522,55.13729,0.0],[61.37526,55.13861,0.0],[61.37517,55.14027,0.0],[61.37515,55.14065,0.0],[61.37513,55.14099,0.0],[61.37516,55.14114,0.0],[61.37527,55.14126,0.0],[61.37566,55.14157,0.0],[61.37596,55.1418,0.0],[61.37686,55.14246,0.0],[61.37771,55.14309,0.0],[61.37857,55.14373,0.0],[61.37936,55.14432,0.0],[61.37991,55.14473,0.0],[61.38013,55.14489,0.0],[61.38189,55.14619,0.0],[61.38201,55.14628,0.0],[61.38233,55.14652,0.0],[61.38266,55.14676,0.0],[61.38421,55.1479,0.0],[61.3849,55.14839,0.0],[61.38594,55.14915,0.0],[61.38643,55.14952,0.0],[61.38729,55.15014,0.0],[61.38755,55.15033,0.0],[61.38803,55.15068,0.0],[61.38808,55.15072,0.0],[61.38822,55.15082,0.0],[61.38885,55.15127,0.0],[61.38943,55.1517,0.0],[61.38954,55.15177,0.0],[61.38966,55.15186,0.0],[61.39008,55.15215,0.0],[61.39088,55.15275,0.0],[61.39192,55.15354,0.0],[61.39269,55.15413,0.0],[61.39395,55.15509,0.0],[61.39439,55.15542,0.0],[61.39457,55.15556,0.0],[61.39478,55.15572,0.0],[61.39516,55.15601,0.0],[61.39613,55.15675,0.0],[61.3969,55.15733,0.0],[61.39716,55.15753,0.0],[61.39738,55.15769,0.0],[61.39758,55.15784,0.0],[61.39827,55.15836,0.0],[61.3986,55.1586,0.0],[61.39883,55.15877,0.0],[61.40044,55.15998,0.0],[61.40082,55.16026,0.0],[61.40124,55.16034,0.0],[61.40204,55.16036,0.0],[61.40307,55.16039,0.0],[61.40402,55.16042,0.0],[61.40427,55.16042,0.0],[61.40565,55.16046,0.0],[61.40644,55.16048,0.0],[61.40661,55.16049,0.0],[61.40877,55.16054,0.0],[61.409,55.16055,0.0],[61.40918,55.16055,0.0],[61.40979,55.16057,0.0],[61.41107,55.1606,0.0],[61.41153,55.16062,0.0],[61.41242,55.16064,0.0],[61.41273,55.16065,0.0],[61.41396,55.16068,0.0],[61.41619,55.16074,0.0],[61.41642,55.16075,0.0],[61.41734,55.16077,0.0],[61.42062,55.16086,0.0],[61.42161,55.16089,0.0],[61.42398,55.16094,0.0],[61.42408,55.16095,0.0],[61.42532,55.16099,0.0],[61.42573,55.161,0.0],[61.42604,55.16101,0.0],[61.42667,55.16102,0.0],[61.42727,55.16104,0.0],[61.42744,55.16104,0.0],[61.42765,55.16105,0.0],[61.42775,55.16105,0.0],[61.43269,55.15727,0.0],[61.43176,55.1571,0.0],[61.43065,55.1568,0.0],[61.42996,55.15654,0.0],[61.42912,55.15611,0.0],[61.42857,55.15581,0.0],[61.42798,55.15484,0.0],[61.42371,55.14887,0.0],[61.42385,55.14754,0.0],[61.42353,55.14695,0.0],[61.42313,55.14623,0.0],[61.42305,55.14606,0.0],[61.42298,55.14588,0.0],[61.4229,55.14531,0.0],[61.42282,55.1447,0.0],[61.42265,55.14385,0.0],[61.42252,55.14294,0.0],[61.42249,55.14265,0.0],[61.42237,55.14216,0.0],[61.42232,55.14196,0.0],[61.42216,55.14133,0.0],[61.42198,55.14085,0.0],[61.42103,55.13926,0.0],[61.42053,55.13836,0.0],[61.42018,55.13767,0.0],[61.42002,55.13734,0.0],[61.41972,55.13661,0.0],[61.41939,55.13586,0.0],[61.418,55.13234,0.0],[61.41783,55.13191,0.0],[61.41774,55.13173,0.0],[61.41757,55.13148,0.0],[61.41748,55.13124,0.0],[61.41741,55.13107,0.0],[61.4171,55.13029,0.0],[61.41681,55.12961,0.0],[61.41662,55.12914,0.0],[61.41656,55.1289,0.0],[61.41652,55.12862,0.0],[61.41652,55.12839,0.0],[61.41659,55.12816,0.0],[61.41675,55.1277,0.0],[61.41701,55.12714,0.0],[61.41716,55.12682,0.0],[61.41724,55.12649,0.0],[61.41725,55.1262,0.0],[61.41721,55.12592,0.0],[61.41711,55.12555,0.0],[61.41699,55.12511,0.0],[61.41686,55.12463,0.0],[61.41675,55.12362,0.0],[61.41658,55.12235,0.0],[61.41631,55.1213,0.0],[61.41583,55.12008,0.0],[61.41521,55.11861,0.0],[61.41506,55.11833,0.0],[61.41485,55.11802,0.0],[61.41456,55.11765,0.0],[61.41403,55.11712,0.0],[61.41312,55.11632,0.0],[61.41089,55.11439,0.0],[61.41055,55.11392,0.0],[61.41017,55.11323,0.0],[61.40972,55.11249,0.0],[61.40921,55.11191,0.0],[61.40891,55.11161,0.0],[61.40855,55.11114,0.0],[61.40835,55.11084,0.0],[61.40793,55.10999,0.0],[61.40774,55.10949,0.0],[61.40761,55.10906,0.0],[61.40751,55.10857,0.0],[61.40739,55.10831,0.0],[61.40694,55.10744,0.0],[61.40816,55.10705,0.0],[61.40857,55.10689,0.0],[61.40937,55.10658,0.0],[61.41232,55.1058,0.0],[61.41234,55.1058,0.0],[61.41277,55.10572,0.0],[61.41442,55.10543,0.0],[61.41445,55.10542,0.0],[61.41448,55.10542,0.0],[61.4159,55.10506,0.0],[61.41583,55.10462,0.0],[61.41671,55.10372,0.0],[61.41678,55.10365,0.0],[61.41737,55.10304,0.0],[61.41755,55.10274,0.0],[61.4633,55.0511,0.0]]]]}},{"type":"Feature","properties":{"uesi_id":"RUS_R4442556","nbhd_code":"RUS_R4442556_6","nbhd_name":"\u00d0\u00a2\u00d1\u20ac\u00d0\u00b0\u00d0\u00ba\u00d1\u201a\u00d0\u00be\u00d1\u20ac\u00d0\u00be\u00d0\u00b7\u00d0\u00b0\u00d0\u00b2\u00d0\u00be\u00d0\u00b4\u00d1\u0081\u00d0\u00ba\u00d0\u00b8\u00d0\u00b9 \u00d1\u20ac\u00d0\u00b0\u00d0\u00b9\u00d0\u00be\u00d0\u00bd"},"geometry":{"type":"MultiPolygon","coordinates":[[[[61.59156,55.18135,0.0],[61.58856,55.18049,0.0],[61.58444,55.17867,0.0],[61.58355,55.17803,0.0],[61.58373,55.17707,0.0],[61.5828,55.17635,0.0],[61.57816,55.17367,0.0],[61.57234,55.17174,0.0],[61.57059,55.17043,0.0],[61.56515,55.16679,0.0],[61.56339,55.16575,0.0],[61.55696,55.16571,0.0],[61.55736,55.16493,0.0],[61.55658,55.1649,0.0],[61.55586,55.16318,0.0],[61.55242,55.16284,0.0],[61.54685,55.16152,0.0],[61.5429,55.16104,0.0],[61.53909,55.16008,0.0],[61.53505,55.15911,0.0],[61.53106,55.15809,0.0],[61.53058,55.14976,0.0],[61.53011,55.14915,0.0],[61.5273,55.14913,0.0],[61.5255,55.14943,0.0],[61.52542,55.14944,0.0],[61.52513,55.14988,0.0],[61.52508,55.15005,0.0],[61.52509,55.15017,0.0],[61.52556,55.15114,0.0],[61.52446,55.15127,0.0],[61.52425,55.15131,0.0],[61.52414,55.15136,0.0],[61.52404,55.15145,0.0],[61.52389,55.15163,0.0],[61.52272,55.15316,0.0],[61.52142,55.15474,0.0],[61.52095,55.15524,0.0],[61.52077,55.15544,0.0],[61.52037,55.15507,0.0],[61.51993,55.15471,0.0],[61.51939,55.15437,0.0],[61.51884,55.15406,0.0],[61.51818,55.15375,0.0],[61.51756,55.1535,0.0],[61.51548,55.15287,0.0],[61.51504,55.15274,0.0],[61.51513,55.15261,0.0],[61.51251,55.15189,0.0],[61.51138,55.15167,0.0],[61.51078,55.15159,0.0],[61.51019,55.15154,0.0],[61.50904,55.15144,0.0],[61.50347,55.15093,0.0],[61.49781,55.15046,0.0],[61.49611,55.15031,0.0],[61.4946,55.15015,0.0],[61.49386,55.15006,0.0],[61.49278,55.14999,0.0],[61.49158,55.14995,0.0],[61.49092,55.14994,0.0],[61.49019,55.14996,0.0],[61.48911,55.15001,0.0],[61.48854,55.15005,0.0],[61.4878,55.15009,0.0],[61.48733,55.15012,0.0],[61.48586,55.15021,0.0],[61.4842,55.15032,0.0],[61.48053,55.15046,0.0],[61.47944,55.15052,0.0],[61.47868,55.15055,0.0],[61.47728,55.15065,0.0],[61.4767,55.15067,0.0],[61.47626,55.15066,0.0],[61.47578,55.15061,0.0],[61.47545,55.15054,0.0],[61.47456,55.15027,0.0],[61.47418,55.15019,0.0],[61.47375,55.15009,0.0],[61.4731,55.15006,0.0],[61.47243,55.15001,0.0],[61.47189,55.14993,0.0],[61.46856,55.14942,0.0],[61.46812,55.14937,0.0],[61.46771,55.14933,0.0],[61.46683,55.14933,0.0],[61.4662,55.14935,0.0],[61.46576,55.14939,0.0],[61.46519,55.1494,0.0],[61.46435,55.14943,0.0],[61.46373,55.14945,0.0],[61.46327,55.14945,0.0],[61.46286,55.1494,0.0],[61.46255,55.14929,0.0],[61.46224,55.14914,0.0],[61.46199,55.14896,0.0],[61.46151,55.14854,0.0],[61.46124,55.14833,0.0],[61.46091,55.14817,0.0],[61.46067,55.14806,0.0],[61.46028,55.14796,0.0],[61.45992,55.14788,0.0],[61.45949,55.14785,0.0],[61.45888,55.14785,0.0],[61.45842,55.14785,0.0],[61.45763,55.14782,0.0],[61.45705,55.14779,0.0],[61.4568,55.14777,0.0],[61.45459,55.14769,0.0],[61.44813,55.14715,0.0],[61.44797,55.148,0.0],[61.44781,55.1486,0.0],[61.44763,55.14887,0.0],[61.44729,55.14918,0.0],[61.44691,55.14942,0.0],[61.4455,55.15006,0.0],[61.44473,55.15042,0.0],[61.44418,55.15067,0.0],[61.44376,55.15086,0.0],[61.44335,55.15108,0.0],[61.44288,55.15145,0.0],[61.44275,55.1518,0.0],[61.44278,55.15194,0.0],[61.44284,55.15233,0.0],[61.44252,55.15364,0.0],[61.44203,55.15431,0.0],[61.43929,55.15632,0.0],[61.43837,55.15688,0.0],[61.43775,55.15712,0.0],[61.43675,55.15726,0.0],[61.43319,55.15733,0.0],[61.43269,55.15727,0.0],[61.42775,55.16105,0.0],[61.42756,55.16128,0.0],[61.42747,55.16146,0.0],[61.4273,55.16181,0.0],[61.42717,55.16219,0.0],[61.42709,55.16252,0.0],[61.42707,55.16296,0.0],[61.42709,55.16335,0.0],[61.42721,55.16377,0.0],[61.42734,55.16423,0.0],[61.42786,55.16574,0.0],[61.42802,55.1663,0.0],[61.42814,55.16682,0.0],[61.42822,55.16743,0.0],[61.42821,55.16771,0.0],[61.4282,55.16799,0.0],[61.42813,55.16839,0.0],[61.42796,55.16892,0.0],[61.42773,55.16937,0.0],[61.42756,55.16967,0.0],[61.42733,55.16998,0.0],[61.4269,55.17054,0.0],[61.42566,55.1721,0.0],[61.42512,55.17273,0.0],[61.42469,55.17314,0.0],[61.42416,55.17355,0.0],[61.42346,55.17404,0.0],[61.42291,55.17445,0.0],[61.42273,55.17458,0.0],[61.42243,55.17485,0.0],[61.422,55.17529,0.0],[61.42125,55.17632,0.0],[61.42049,55.17756,0.0],[61.42234,55.17798,0.0],[61.42475,55.1785,0.0],[61.42822,55.17925,0.0],[61.42701,55.18111,0.0],[61.43452,55.18268,0.0],[61.4347,55.18273,0.0],[61.43511,55.18281,0.0],[61.43545,55.18288,0.0],[61.43588,55.18296,0.0],[61.43688,55.18317,0.0],[61.43797,55.18339,0.0],[61.43923,55.18365,0.0],[61.43981,55.18377,0.0],[61.44009,55.18383,0.0],[61.44097,55.18402,0.0],[61.44185,55.18421,0.0],[61.44221,55.18428,0.0],[61.44261,55.18437,0.0],[61.44308,55.18447,0.0],[61.44379,55.18462,0.0],[61.44464,55.18337,0.0],[61.44473,55.18323,0.0],[61.44513,55.18331,0.0],[61.44788,55.18389,0.0],[61.44833,55.18398,0.0],[61.44917,55.18415,0.0],[61.4494,55.1842,0.0],[61.44977,55.18427,0.0],[61.45039,55.1844,0.0],[61.45095,55.18451,0.0],[61.45328,55.18498,0.0],[61.45329,55.18503,0.0],[61.45335,55.18508,0.0],[61.45352,55.18513,0.0],[61.45472,55.18539,0.0],[61.45568,55.18673,0.0],[61.45612,55.18735,0.0],[61.45563,55.18815,0.0],[61.45721,55.18847,0.0],[61.45873,55.18878,0.0],[61.46021,55.18908,0.0],[61.46164,55.18938,0.0],[61.46202,55.1888,0.0],[61.46237,55.18829,0.0],[61.46276,55.18814,0.0],[61.46372,55.18937,0.0],[61.4641,55.18987,0.0],[61.46453,55.19042,0.0],[61.46453,55.19042,0.0],[61.46332,55.19235,0.0],[61.46304,55.19281,0.0],[61.46297,55.19293,0.0],[61.46241,55.19385,0.0],[61.46143,55.19533,0.0],[61.46098,55.19589,0.0],[61.46039,55.19642,0.0],[61.45934,55.19736,0.0],[61.45859,55.19804,0.0],[61.45824,55.19835,0.0],[61.4566,55.19977,0.0],[61.45565,55.20068,0.0],[61.45543,55.20088,0.0],[61.45468,55.20162,0.0],[61.45423,55.20206,0.0],[61.45412,55.20216,0.0],[61.45658,55.20315,0.0],[61.45674,55.20325,0.0],[61.45661,55.20342,0.0],[61.4563,55.20424,0.0],[61.45582,55.20563,0.0],[61.45547,55.20663,0.0],[61.4561,55.20679,0.0],[61.45676,55.20702,0.0],[61.45796,55.2075,0.0],[61.4627,55.20956,0.0],[61.46478,55.21045,0.0],[61.4724,55.21368,0.0],[61.47808,55.21609,0.0],[61.47961,55.21673,0.0],[61.48057,55.21714,0.0],[61.48165,55.21765,0.0],[61.48253,55.21799,0.0],[61.4833,55.21831,0.0],[61.48456,55.21877,0.0],[61.48622,55.21926,0.0],[61.49296,55.22086,0.0],[61.49197,55.22142,0.0],[61.49039,55.2241,0.0],[61.48981,55.22458,0.0],[61.4896,55.22462,0.0],[61.48868,55.2248,0.0],[61.48667,55.22521,0.0],[61.48634,55.22527,0.0],[61.48588,55.22519,0.0],[61.4854,55.22544,0.0],[61.48511,55.22554,0.0],[61.48462,55.22546,0.0],[61.48433,55.22578,0.0],[61.48366,55.22604,0.0],[61.48259,55.22611,0.0],[61.4815,55.226,0.0],[61.47898,55.22706,0.0],[61.48307,55.23072,0.0],[61.48025,55.23157,0.0],[61.48326,55.23704,0.0],[61.48499,55.24019,0.0],[61.48553,55.24033,0.0],[61.48578,55.24041,0.0],[61.48646,55.24072,0.0],[61.4874,55.24079,0.0],[61.49253,55.2391,0.0],[61.49286,55.23913,0.0],[61.49493,55.24042,0.0],[61.49597,55.24062,0.0],[61.49712,55.24033,0.0],[61.50004,55.24045,0.0],[61.50242,55.24006,0.0],[61.50597,55.24018,0.0],[61.5094,55.23929,0.0],[61.51715,55.23949,0.0],[61.51724,55.24004,0.0],[61.52615,55.24005,0.0],[61.52878,55.2348,0.0],[61.52938,55.23399,0.0],[61.53035,55.23355,0.0],[61.55245,55.23133,0.0],[61.55248,55.23268,0.0],[61.55607,55.2327,0.0],[61.55647,55.22367,0.0],[61.55587,55.22083,0.0],[61.55637,55.21977,0.0],[61.55868,55.21723,0.0],[61.55921,55.21561,0.0],[61.55874,55.21458,0.0],[61.55688,55.21243,0.0],[61.55742,55.20276,0.0],[61.55806,55.20279,0.0],[61.55814,55.20212,0.0],[61.55748,55.20173,0.0],[61.55822,55.19262,0.0],[61.57671,55.18474,0.0],[61.57726,55.18308,0.0],[61.57988,55.18125,0.0],[61.58139,55.18085,0.0],[61.58333,55.18068,0.0],[61.58562,55.18086,0.0],[61.59101,55.18212,0.0],[61.59156,55.18135,0.0]]]]}},{"type":"Feature","properties":{"uesi_id":"RUS_R4442556","nbhd_code":"RUS_R4442556_7","nbhd_name":"\u00d0\u203a\u00d0\u00b5\u00d0\u00bd\u00d0\u00b8\u00d0\u00bd\u00d1\u0081\u00d0\u00ba\u00d0\u00b8\u00d0\u00b9 \u00d1\u20ac\u00d0\u00b0\u00d0\u00b9\u00d0\u00be\u00d0\u00bd"},"geometry":{"type":"MultiPolygon","coordinates":[[[[61.55586,55.16318,0.0],[61.55568,55.16274,0.0],[61.55502,55.15962,0.0],[61.55462,55.15882,0.0],[61.55373,55.15457,0.0],[61.5534,55.15398,0.0],[61.55187,55.14759,0.0],[61.55161,55.14534,0.0],[61.55041,55.14076,0.0],[61.55022,55.13886,0.0],[61.54968,55.13885,0.0],[61.54747,55.13127,0.0],[61.54345,55.11933,0.0],[61.54258,55.11808,0.0],[61.53717,55.11181,0.0],[61.53454,55.11139,0.0],[61.52318,55.11194,0.0],[61.51698,55.10888,0.0],[61.5169,55.10681,0.0],[61.51715,55.10511,0.0],[61.52926,55.10174,0.0],[61.53524,55.10359,0.0],[61.53896,55.1026,0.0],[61.54007,55.1015,0.0],[61.55073,55.09673,0.0],[61.54437,55.09274,0.0],[61.53945,55.08902,0.0],[61.53943,55.08823,0.0],[61.54062,55.08762,0.0],[61.5416,55.08632,0.0],[61.52878,55.07925,0.0],[61.52655,55.0786,0.0],[61.51075,55.07027,0.0],[61.49525,55.06171,0.0],[61.49008,55.05955,0.0],[61.49042,55.05929,0.0],[61.48474,55.05694,0.0],[61.48448,55.05717,0.0],[61.47885,55.05481,0.0],[61.47428,55.05289,0.0],[61.46575,55.04931,0.0],[61.4633,55.0511,0.0],[61.41755,55.10274,0.0],[61.41737,55.10304,0.0],[61.41678,55.10365,0.0],[61.41671,55.10372,0.0],[61.41583,55.10462,0.0],[61.4159,55.10506,0.0],[61.41448,55.10542,0.0],[61.41445,55.10542,0.0],[61.41442,55.10543,0.0],[61.41277,55.10572,0.0],[61.41234,55.1058,0.0],[61.41232,55.1058,0.0],[61.40937,55.10658,0.0],[61.40857,55.10689,0.0],[61.40816,55.10705,0.0],[61.40694,55.10744,0.0],[61.40739,55.10831,0.0],[61.40751,55.10857,0.0],[61.40761,55.10906,0.0],[61.40774,55.10949,0.0],[61.40793,55.10999,0.0],[61.40835,55.11084,0.0],[61.40855,55.11114,0.0],[61.40891,55.11161,0.0],[61.40921,55.11191,0.0],[61.40972,55.11249,0.0],[61.41017,55.11323,0.0],[61.41055,55.11392,0.0],[61.41089,55.11439,0.0],[61.41312,55.11632,0.0],[61.41403,55.11712,0.0],[61.41456,55.11765,0.0],[61.41485,55.11802,0.0],[61.41506,55.11833,0.0],[61.41521,55.11861,0.0],[61.41583,55.12008,0.0],[61.41631,55.1213,0.0],[61.41658,55.12235,0.0],[61.41675,55.12362,0.0],[61.41686,55.12463,0.0],[61.41699,55.12511,0.0],[61.41711,55.12555,0.0],[61.41721,55.12592,0.0],[61.41725,55.1262,0.0],[61.41724,55.12649,0.0],[61.41716,55.12682,0.0],[61.41701,55.12714,0.0],[61.41675,55.1277,0.0],[61.41659,55.12816,0.0],[61.41652,55.12839,0.0],[61.41652,55.12862,0.0],[61.41656,55.1289,0.0],[61.41662,55.12914,0.0],[61.41681,55.12961,0.0],[61.4171,55.13029,0.0],[61.41741,55.13107,0.0],[61.41748,55.13124,0.0],[61.41757,55.13148,0.0],[61.41774,55.13173,0.0],[61.41783,55.13191,0.0],[61.418,55.13234,0.0],[61.41939,55.13586,0.0],[61.41972,55.13661,0.0],[61.42002,55.13734,0.0],[61.42018,55.13767,0.0],[61.42053,55.13836,0.0],[61.42103,55.13926,0.0],[61.42198,55.14085,0.0],[61.42216,55.14133,0.0],[61.42232,55.14196,0.0],[61.42237,55.14216,0.0],[61.42249,55.14265,0.0],[61.42252,55.14294,0.0],[61.42265,55.14385,0.0],[61.42282,55.1447,0.0],[61.4229,55.14531,0.0],[61.42298,55.14588,0.0],[61.42305,55.14606,0.0],[61.42313,55.14623,0.0],[61.42353,55.14695,0.0],[61.42385,55.14754,0.0],[61.42371,55.14887,0.0],[61.42798,55.15484,0.0],[61.42857,55.15581,0.0],[61.42912,55.15611,0.0],[61.42996,55.15654,0.0],[61.43065,55.1568,0.0],[61.43176,55.1571,0.0],[61.43269,55.15727,0.0],[61.43319,55.15733,0.0],[61.43675,55.15726,0.0],[61.43775,55.15712,0.0],[61.43837,55.15688,0.0],[61.43929,55.15632,0.0],[61.44203,55.15431,0.0],[61.44252,55.15364,0.0],[61.44284,55.15233,0.0],[61.44278,55.15194,0.0],[61.44275,55.1518,0.0],[61.44288,55.15145,0.0],[61.44335,55.15108,0.0],[61.44376,55.15086,0.0],[61.44418,55.15067,0.0],[61.44473,55.15042,0.0],[61.4455,55.15006,0.0],[61.44691,55.14942,0.0],[61.44729,55.14918,0.0],[61.44763,55.14887,0.0],[61.44781,55.1486,0.0],[61.44797,55.148,0.0],[61.44813,55.14715,0.0],[61.45459,55.14769,0.0],[61.4568,55.14777,0.0],[61.45705,55.14779,0.0],[61.45763,55.14782,0.0],[61.45842,55.14785,0.0],[61.45888,55.14785,0.0],[61.45949,55.14785,0.0],[61.45992,55.14788,0.0],[61.46028,55.14796,0.0],[61.46067,55.14806,0.0],[61.46091,55.14817,0.0],[61.46124,55.14833,0.0],[61.46151,55.14854,0.0],[61.46199,55.14896,0.0],[61.46224,55.14914,0.0],[61.46255,55.14929,0.0],[61.46286,55.1494,0.0],[61.46327,55.14945,0.0],[61.46373,55.14945,0.0],[61.46435,55.14943,0.0],[61.46519,55.1494,0.0],[61.46576,55.14939,0.0],[61.4662,55.14935,0.0],[61.46683,55.14933,0.0],[61.46771,55.14933,0.0],[61.46812,55.14937,0.0],[61.46856,55.14942,0.0],[61.47189,55.14993,0.0],[61.47243,55.15001,0.0],[61.4731,55.15006,0.0],[61.47375,55.15009,0.0],[61.47418,55.15019,0.0],[61.47456,55.15027,0.0],[61.47545,55.15054,0.0],[61.47578,55.15061,0.0],[61.47626,55.15066,0.0],[61.4767,55.15067,0.0],[61.47728,55.15065,0.0],[61.47868,55.15055,0.0],[61.47944,55.15052,0.0],[61.48053,55.15046,0.0],[61.4842,55.15032,0.0],[61.48586,55.15021,0.0],[61.48733,55.15012,0.0],[61.4878,55.15009,0.0],[61.48854,55.15005,0.0],[61.48911,55.15001,0.0],[61.49019,55.14996,0.0],[61.49092,55.14994,0.0],[61.49158,55.14995,0.0],[61.49278,55.14999,0.0],[61.49386,55.15006,0.0],[61.4946,55.15015,0.0],[61.49611,55.15031,0.0],[61.49781,55.15046,0.0],[61.50347,55.15093,0.0],[61.50904,55.15144,0.0],[61.51019,55.15154,0.0],[61.51078,55.15159,0.0],[61.51138,55.15167,0.0],[61.51251,55.15189,0.0],[61.51513,55.15261,0.0],[61.51504,55.15274,0.0],[61.51548,55.15287,0.0],[61.51756,55.1535,0.0],[61.51818,55.15375,0.0],[61.51884,55.15406,0.0],[61.51939,55.15437,0.0],[61.51993,55.15471,0.0],[61.52037,55.15507,0.0],[61.52077,55.15544,0.0],[61.52095,55.15524,0.0],[61.52142,55.15474,0.0],[61.52272,55.15316,0.0],[61.52389,55.15163,0.0],[61.52404,55.15145,0.0],[61.52414,55.15136,0.0],[61.52425,55.15131,0.0],[61.52446,55.15127,0.0],[61.52556,55.15114,0.0],[61.52509,55.15017,0.0],[61.52508,55.15005,0.0],[61.52513,55.14988,0.0],[61.52542,55.14944,0.0],[61.5255,55.14943,0.0],[61.5273,55.14913,0.0],[61.53011,55.14915,0.0],[61.53058,55.14976,0.0],[61.53106,55.15809,0.0],[61.53505,55.15911,0.0],[61.53909,55.16008,0.0],[61.5429,55.16104,0.0],[61.54685,55.16152,0.0],[61.55242,55.16284,0.0],[61.55586,55.16318,0.0]]]]}}]}