{"type":"FeatureCollection","name":"SLE_N27565056","crs":{"type":"name","properties":{"name":"urn:ogc:def:crs:OGC:1.3:CRS84"}},"features":[{"type":"Feature","properties":{"uesi_id":"SLE_N27565056","nbhd_code":"SLE_N27565056_1","nbhd_name":"Central I"},"geometry":{"type":"MultiPolygon","coordinates":[[[[-13.22646,8.48972,0.0],[-13.22648,8.48955,0.0],[-13.22644,8.48951,0.0],[-13.22663,8.48923,0.0],[-13.22689,8.48901,0.0],[-13.22709,8.48882,0.0],[-13.22718,8.48861,0.0],[-13.2272,8.48848,0.0],[-13.22722,8.48839,0.0],[-13.22719,8.48828,0.0],[-13.22704,8.48816,0.0],[-13.22684,8.48809,0.0],[-13.22677,8.48807,0.0],[-13.22671,8.48797,0.0],[-13.22675,8.48791,0.0],[-13.22679,8.48785,0.0],[-13.22689,8.48775,0.0],[-13.22697,8.48769,0.0],[-13.22705,8.48761,0.0],[-13.22721,8.48747,0.0],[-13.22739,8.48734,0.0],[-13.22734,8.48728,0.0],[-13.22732,8.48717,0.0],[-13.22735,8.48704,0.0],[-13.22741,8.48674,0.0],[-13.22734,8.48661,0.0],[-13.22735,8.48648,0.0],[-13.22741,8.48602,0.0],[-13.22742,8.48594,0.0],[-13.22748,8.48561,0.0],[-13.22756,8.48544,0.0],[-13.22759,8.48536,0.0],[-13.22761,8.48531,0.0],[-13.22759,8.48518,0.0],[-13.22759,8.48513,0.0],[-13.22755,8.48507,0.0],[-13.22754,8.48488,0.0],[-13.22752,8.4848,0.0],[-13.22747,8.4846,0.0],[-13.22743,8.48444,0.0],[-13.22743,8.48444,0.0],[-13.2275,8.48416,0.0],[-13.22751,8.4841,0.0],[-13.22754,8.48397,0.0],[-13.22755,8.48381,0.0],[-13.22755,8.48377,0.0],[-13.22754,8.48368,0.0],[-13.22753,8.48362,0.0],[-13.22737,8.48356,0.0],[-13.22738,8.48343,0.0],[-13.22744,8.48325,0.0],[-13.22747,8.48316,0.0],[-13.22749,8.48308,0.0],[-13.2275,8.48299,0.0],[-13.22751,8.48279,0.0],[-13.22749,8.48274,0.0],[-13.22745,8.48266,0.0],[-13.2274,8.48259,0.0],[-13.22717,8.48219,0.0],[-13.22703,8.48197,0.0],[-13.22692,8.48189,0.0],[-13.22693,8.48184,0.0],[-13.22685,8.48174,0.0],[-13.22657,8.48139,0.0],[-13.22633,8.48099,0.0],[-13.22611,8.48076,0.0],[-13.22603,8.48069,0.0],[-13.22584,8.48046,0.0],[-13.22567,8.48032,0.0],[-13.22558,8.48005,0.0],[-13.22536,8.47953,0.0],[-13.22519,8.47936,0.0],[-13.22519,8.47929,0.0],[-13.22521,8.47922,0.0],[-13.22522,8.47915,0.0],[-13.22525,8.4791,0.0],[-13.22527,8.47878,0.0],[-13.22528,8.47865,0.0],[-13.22524,8.47856,0.0],[-13.2252,8.47847,0.0],[-13.22507,8.47819,0.0],[-13.22492,8.478,0.0],[-13.22486,8.47786,0.0],[-13.22461,8.4776,0.0],[-13.22456,8.47754,0.0],[-13.22429,8.47739,0.0],[-13.2235,8.47664,0.0],[-13.223,8.47634,0.0],[-13.22289,8.47621,0.0],[-13.22278,8.47583,0.0],[-13.22247,8.47505,0.0],[-13.22243,8.47496,0.0],[-13.22237,8.47467,0.0],[-13.22213,8.47429,0.0],[-13.22194,8.47384,0.0],[-13.22183,8.4735,0.0],[-13.22177,8.47341,0.0],[-13.22156,8.47305,0.0],[-13.22149,8.47264,0.0],[-13.22147,8.47238,0.0],[-13.22153,8.47226,0.0],[-13.22129,8.47226,0.0],[-13.2213,8.47214,0.0],[-13.2215,8.47174,0.0],[-13.22189,8.47123,0.0],[-13.22232,8.47062,0.0],[-13.22239,8.47049,0.0],[-13.22251,8.47017,0.0],[-13.2226,8.46995,0.0],[-13.22275,8.46939,0.0],[-13.22279,8.46912,0.0],[-13.22276,8.46892,0.0],[-13.22253,8.46845,0.0],[-13.2224,8.46824,0.0],[-13.2224,8.46805,0.0],[-13.22257,8.468,0.0],[-13.22261,8.46805,0.0],[-13.22295,8.46842,0.0],[-13.22332,8.46876,0.0],[-13.22344,8.46836,0.0],[-13.2234,8.46826,0.0],[-13.22336,8.46815,0.0],[-13.22359,8.46837,0.0],[-13.22421,8.46878,0.0],[-13.22527,8.46931,0.0],[-13.22572,8.46952,0.0],[-13.22593,8.46961,0.0],[-13.22613,8.4697,0.0],[-13.2265,8.46981,0.0],[-13.22719,8.47001,0.0],[-13.2275,8.47004,0.0],[-13.22798,8.47022,0.0],[-13.22824,8.47032,0.0],[-13.22867,8.47053,0.0],[-13.2293,8.47077,0.0],[-13.22964,8.47083,0.0],[-13.2302,8.47092,0.0],[-13.23042,8.47107,0.0],[-13.23053,8.47134,0.0],[-13.2306,8.4715,0.0],[-13.23075,8.47185,0.0],[-13.23098,8.47214,0.0],[-13.23107,8.47221,0.0],[-13.23135,8.4724,0.0],[-13.23142,8.47251,0.0],[-13.23157,8.47277,0.0],[-13.23177,8.47311,0.0],[-13.232,8.47336,0.0],[-13.23208,8.47347,0.0],[-13.23218,8.47363,0.0],[-13.23227,8.47376,0.0],[-13.23251,8.47414,0.0],[-13.23264,8.47445,0.0],[-13.23272,8.47464,0.0],[-13.23297,8.47534,0.0],[-13.23297,8.47541,0.0],[-13.23299,8.47567,0.0],[-13.23294,8.47592,0.0],[-13.23293,8.47611,0.0],[-13.23305,8.47614,0.0],[-13.23313,8.47613,0.0],[-13.23333,8.47612,0.0],[-13.23357,8.47615,0.0],[-13.23385,8.47627,0.0],[-13.23419,8.47648,0.0],[-13.23446,8.47659,0.0],[-13.23467,8.47652,0.0],[-13.23491,8.47644,0.0],[-13.23525,8.47638,0.0],[-13.23563,8.47646,0.0],[-13.23608,8.47657,0.0],[-13.23622,8.47668,0.0],[-13.23631,8.47669,0.0],[-13.23629,8.47676,0.0],[-13.23628,8.47681,0.0],[-13.23626,8.47724,0.0],[-13.23622,8.47796,0.0],[-13.23617,8.47846,0.0],[-13.23615,8.4786,0.0],[-13.23613,8.47883,0.0],[-13.23602,8.48018,0.0],[-13.23601,8.48039,0.0],[-13.23598,8.4807,0.0],[-13.23594,8.48129,0.0],[-13.23591,8.48143,0.0],[-13.23587,8.48221,0.0],[-13.23584,8.48254,0.0],[-13.23579,8.48319,0.0],[-13.23578,8.4833,0.0],[-13.2357,8.48439,0.0],[-13.2356,8.4857,0.0],[-13.23556,8.4862,0.0],[-13.23555,8.48676,0.0],[-13.2356,8.48708,0.0],[-13.23538,8.48734,0.0],[-13.23476,8.48786,0.0],[-13.23441,8.48815,0.0],[-13.23412,8.48832,0.0],[-13.23381,8.48853,0.0],[-13.2333,8.48892,0.0],[-13.23302,8.4891,0.0],[-13.23271,8.4893,0.0],[-13.23208,8.48972,0.0],[-13.23142,8.49018,0.0],[-13.23094,8.49048,0.0],[-13.23088,8.49052,0.0],[-13.23067,8.49069,0.0],[-13.2308,8.49089,0.0],[-13.23069,8.49094,0.0],[-13.23063,8.49097,0.0],[-13.2306,8.49092,0.0],[-13.23052,8.49087,0.0],[-13.23043,8.49087,0.0],[-13.23032,8.49082,0.0],[-13.23025,8.49076,0.0],[-13.23017,8.49069,0.0],[-13.23009,8.4906,0.0],[-13.22999,8.49049,0.0],[-13.22989,8.49036,0.0],[-13.22977,8.49022,0.0],[-13.22965,8.49005,0.0],[-13.22953,8.48991,0.0],[-13.22945,8.48984,0.0],[-13.2294,8.48982,0.0],[-13.2293,8.48972,0.0],[-13.22921,8.48967,0.0],[-13.22915,8.48963,0.0],[-13.22901,8.48961,0.0],[-13.22897,8.48977,0.0],[-13.22894,8.48986,0.0],[-13.22869,8.48974,0.0],[-13.2285,8.48963,0.0],[-13.22836,8.48968,0.0],[-13.2283,8.48972,0.0],[-13.22814,8.48985,0.0],[-13.22804,8.49007,0.0],[-13.22801,8.49015,0.0],[-13.22794,8.49016,0.0],[-13.22785,8.49019,0.0],[-13.22785,8.4903,0.0],[-13.22778,8.49034,0.0],[-13.22772,8.49041,0.0],[-13.22763,8.49047,0.0],[-13.22761,8.49053,0.0],[-13.22756,8.49063,0.0],[-13.22754,8.49072,0.0],[-13.22751,8.49078,0.0],[-13.22751,8.49089,0.0],[-13.22745,8.49093,0.0],[-13.22738,8.49103,0.0],[-13.22732,8.49106,0.0],[-13.22725,8.49117,0.0],[-13.22714,8.49126,0.0],[-13.2271,8.49132,0.0],[-13.22708,8.49126,0.0],[-13.22704,8.49108,0.0],[-13.22703,8.49092,0.0],[-13.22702,8.49084,0.0],[-13.22686,8.49062,0.0],[-13.22681,8.49058,0.0],[-13.22669,8.49055,0.0],[-13.22667,8.4905,0.0],[-13.2267,8.49037,0.0],[-13.22665,8.49016,0.0],[-13.22648,8.48988,0.0],[-13.22646,8.48972,0.0]]]]}},{"type":"Feature","properties":{"uesi_id":"SLE_N27565056","nbhd_code":"SLE_N27565056_2","nbhd_name":"East I"},"geometry":{"type":"MultiPolygon","coordinates":[[[[-13.2129,8.49403,0.0],[-13.21076,8.49403,0.0],[-13.21013,8.49404,0.0],[-13.2096,8.49403,0.0],[-13.20915,8.4937,0.0],[-13.20888,8.49352,0.0],[-13.20879,8.49323,0.0],[-13.20858,8.49299,0.0],[-13.20832,8.49281,0.0],[-13.20791,8.49249,0.0],[-13.20786,8.49245,0.0],[-13.20736,8.49213,0.0],[-13.20709,8.49194,0.0],[-13.20692,8.49182,0.0],[-13.20657,8.49161,0.0],[-13.20626,8.49129,0.0],[-13.20587,8.49099,0.0],[-13.2058,8.49093,0.0],[-13.20551,8.49078,0.0],[-13.20497,8.49064,0.0],[-13.20467,8.49055,0.0],[-13.20446,8.49056,0.0],[-13.20427,8.49058,0.0],[-13.20411,8.49059,0.0],[-13.20365,8.49071,0.0],[-13.20334,8.49071,0.0],[-13.20319,8.49068,0.0],[-13.20286,8.49042,0.0],[-13.20255,8.48969,0.0],[-13.20265,8.48904,0.0],[-13.20318,8.48861,0.0],[-13.20309,8.48826,0.0],[-13.20284,8.48807,0.0],[-13.20331,8.48765,0.0],[-13.20364,8.48747,0.0],[-13.20399,8.48729,0.0],[-13.20405,8.48734,0.0],[-13.2041,8.48738,0.0],[-13.20415,8.48743,0.0],[-13.20419,8.48748,0.0],[-13.20426,8.48752,0.0],[-13.20435,8.48754,0.0],[-13.20443,8.48749,0.0],[-13.20451,8.48737,0.0],[-13.20467,8.48744,0.0],[-13.20486,8.48752,0.0],[-13.20486,8.48765,0.0],[-13.20498,8.48766,0.0],[-13.205,8.48761,0.0],[-13.20507,8.48761,0.0],[-13.2053,8.48777,0.0],[-13.2054,8.48776,0.0],[-13.20558,8.48786,0.0],[-13.20576,8.48788,0.0],[-13.20603,8.48787,0.0],[-13.20628,8.48778,0.0],[-13.20641,8.48766,0.0],[-13.20662,8.4876,0.0],[-13.20671,8.48743,0.0],[-13.20679,8.48719,0.0],[-13.20689,8.4869,0.0],[-13.20692,8.48672,0.0],[-13.20692,8.48661,0.0],[-13.20694,8.48649,0.0],[-13.20694,8.48636,0.0],[-13.20693,8.48624,0.0],[-13.20694,8.48605,0.0],[-13.20693,8.48588,0.0],[-13.20703,8.48579,0.0],[-13.20708,8.48575,0.0],[-13.20725,8.48567,0.0],[-13.20741,8.48555,0.0],[-13.20752,8.48541,0.0],[-13.20766,8.48524,0.0],[-13.20773,8.48506,0.0],[-13.20779,8.4849,0.0],[-13.20779,8.48475,0.0],[-13.20779,8.48464,0.0],[-13.20782,8.48449,0.0],[-13.20787,8.48438,0.0],[-13.20792,8.48431,0.0],[-13.20799,8.48423,0.0],[-13.20828,8.48403,0.0],[-13.20846,8.48392,0.0],[-13.20867,8.48382,0.0],[-13.20874,8.48378,0.0],[-13.20899,8.48364,0.0],[-13.20918,8.48353,0.0],[-13.20923,8.48346,0.0],[-13.20931,8.48336,0.0],[-13.20944,8.48326,0.0],[-13.20959,8.48312,0.0],[-13.20966,8.48298,0.0],[-13.2097,8.48287,0.0],[-13.20959,8.48264,0.0],[-13.20951,8.48252,0.0],[-13.20959,8.4823,0.0],[-13.20967,8.48199,0.0],[-13.20969,8.48181,0.0],[-13.20963,8.48163,0.0],[-13.20955,8.48144,0.0],[-13.20963,8.48121,0.0],[-13.20968,8.48106,0.0],[-13.2097,8.48095,0.0],[-13.2097,8.48088,0.0],[-13.20976,8.4809,0.0],[-13.20984,8.48096,0.0],[-13.21013,8.48101,0.0],[-13.21022,8.48104,0.0],[-13.2104,8.48112,0.0],[-13.21058,8.48117,0.0],[-13.21087,8.48126,0.0],[-13.21119,8.48148,0.0],[-13.21141,8.4817,0.0],[-13.21159,8.48192,0.0],[-13.21163,8.48203,0.0],[-13.2117,8.48214,0.0],[-13.21175,8.48231,0.0],[-13.21178,8.48244,0.0],[-13.21182,8.48265,0.0],[-13.21182,8.48283,0.0],[-13.21182,8.48296,0.0],[-13.21191,8.48301,0.0],[-13.21204,8.48302,0.0],[-13.2122,8.48303,0.0],[-13.21235,8.48308,0.0],[-13.21252,8.48312,0.0],[-13.21257,8.48309,0.0],[-13.21264,8.48311,0.0],[-13.21276,8.48318,0.0],[-13.21297,8.4833,0.0],[-13.21362,8.48355,0.0],[-13.21435,8.48383,0.0],[-13.21444,8.48386,0.0],[-13.21455,8.48391,0.0],[-13.21506,8.48411,0.0],[-13.21555,8.4843,0.0],[-13.21579,8.48439,0.0],[-13.216,8.48446,0.0],[-13.21622,8.48453,0.0],[-13.21684,8.48472,0.0],[-13.21725,8.48485,0.0],[-13.21731,8.48487,0.0],[-13.21777,8.48503,0.0],[-13.21794,8.48509,0.0],[-13.21864,8.48534,0.0],[-13.21889,8.48542,0.0],[-13.2195,8.48561,0.0],[-13.21958,8.48563,0.0],[-13.21988,8.48575,0.0],[-13.2205,8.48599,0.0],[-13.22074,8.48608,0.0],[-13.22084,8.48611,0.0],[-13.22138,8.48631,0.0],[-13.2218,8.48647,0.0],[-13.22186,8.48649,0.0],[-13.22276,8.48684,0.0],[-13.22306,8.48695,0.0],[-13.22284,8.48739,0.0],[-13.22278,8.48752,0.0],[-13.22276,8.48757,0.0],[-13.22273,8.48762,0.0],[-13.22262,8.48788,0.0],[-13.2226,8.48793,0.0],[-13.22256,8.48801,0.0],[-13.22249,8.48816,0.0],[-13.22244,8.48826,0.0],[-13.22233,8.48848,0.0],[-13.22228,8.48858,0.0],[-13.22217,8.48882,0.0],[-13.22212,8.48892,0.0],[-13.22208,8.489,0.0],[-13.22199,8.4892,0.0],[-13.22193,8.48939,0.0],[-13.22183,8.48977,0.0],[-13.22182,8.48981,0.0],[-13.22179,8.48991,0.0],[-13.22174,8.49007,0.0],[-13.22167,8.49034,0.0],[-13.22165,8.49041,0.0],[-13.22162,8.49058,0.0],[-13.22155,8.4908,0.0],[-13.22158,8.49086,0.0],[-13.22112,8.4908,0.0],[-13.22066,8.49076,0.0],[-13.22034,8.49076,0.0],[-13.22012,8.49074,0.0],[-13.21997,8.49074,0.0],[-13.21976,8.49069,0.0],[-13.21961,8.49068,0.0],[-13.21926,8.49071,0.0],[-13.21898,8.49085,0.0],[-13.21888,8.49088,0.0],[-13.21875,8.49094,0.0],[-13.21861,8.49103,0.0],[-13.21834,8.49122,0.0],[-13.21806,8.49129,0.0],[-13.21744,8.49145,0.0],[-13.21686,8.49167,0.0],[-13.21652,8.49183,0.0],[-13.21643,8.4919,0.0],[-13.21631,8.492,0.0],[-13.21623,8.4921,0.0],[-13.21623,8.49223,0.0],[-13.21625,8.49247,0.0],[-13.21629,8.49273,0.0],[-13.21628,8.4929,0.0],[-13.2162,8.49294,0.0],[-13.21619,8.49324,0.0],[-13.21622,8.49354,0.0],[-13.21621,8.49407,0.0],[-13.21572,8.49407,0.0],[-13.2138,8.49404,0.0],[-13.2129,8.49403,0.0]]]]}},{"type":"Feature","properties":{"uesi_id":"SLE_N27565056","nbhd_code":"SLE_N27565056_3","nbhd_name":"East II"},"geometry":{"type":"MultiPolygon","coordinates":[[[[-13.22653,8.49188,0.0],[-13.22647,8.49185,0.0],[-13.22642,8.49186,0.0],[-13.22633,8.49181,0.0],[-13.22633,8.49175,0.0],[-13.22628,8.4917,0.0],[-13.22624,8.49166,0.0],[-13.22621,8.49162,0.0],[-13.22609,8.49157,0.0],[-13.22604,8.49156,0.0],[-13.22598,8.49153,0.0],[-13.22587,8.49148,0.0],[-13.22585,8.49143,0.0],[-13.2259,8.49137,0.0],[-13.22591,8.49129,0.0],[-13.22585,8.49121,0.0],[-13.22581,8.49118,0.0],[-13.22573,8.49112,0.0],[-13.22567,8.49109,0.0],[-13.2256,8.49105,0.0],[-13.22547,8.49099,0.0],[-13.22542,8.49099,0.0],[-13.2253,8.49098,0.0],[-13.22519,8.491,0.0],[-13.22512,8.49099,0.0],[-13.22499,8.491,0.0],[-13.22492,8.49103,0.0],[-13.2248,8.49102,0.0],[-13.22473,8.49104,0.0],[-13.22466,8.49102,0.0],[-13.22457,8.49103,0.0],[-13.22448,8.49098,0.0],[-13.22442,8.49092,0.0],[-13.22438,8.49088,0.0],[-13.22422,8.49093,0.0],[-13.22415,8.49095,0.0],[-13.22411,8.491,0.0],[-13.22403,8.49099,0.0],[-13.22398,8.49096,0.0],[-13.22394,8.4909,0.0],[-13.22384,8.49091,0.0],[-13.22377,8.49083,0.0],[-13.22368,8.49076,0.0],[-13.22356,8.49067,0.0],[-13.2235,8.49064,0.0],[-13.22342,8.49069,0.0],[-13.22335,8.49068,0.0],[-13.2233,8.49066,0.0],[-13.22321,8.4907,0.0],[-13.22317,8.49076,0.0],[-13.22315,8.49078,0.0],[-13.22305,8.49078,0.0],[-13.22295,8.49081,0.0],[-13.22281,8.49086,0.0],[-13.22273,8.49086,0.0],[-13.2226,8.4909,0.0],[-13.22246,8.49088,0.0],[-13.22227,8.49087,0.0],[-13.22213,8.49081,0.0],[-13.22199,8.49078,0.0],[-13.22183,8.49079,0.0],[-13.22182,8.49084,0.0],[-13.22172,8.49084,0.0],[-13.22181,8.49092,0.0],[-13.22174,8.49093,0.0],[-13.22165,8.49088,0.0],[-13.22158,8.49086,0.0],[-13.22155,8.4908,0.0],[-13.22162,8.49058,0.0],[-13.22165,8.49041,0.0],[-13.22167,8.49034,0.0],[-13.22174,8.49007,0.0],[-13.22179,8.48991,0.0],[-13.22182,8.48981,0.0],[-13.22183,8.48977,0.0],[-13.22193,8.48939,0.0],[-13.22199,8.4892,0.0],[-13.22208,8.489,0.0],[-13.22212,8.48892,0.0],[-13.22217,8.48882,0.0],[-13.22228,8.48858,0.0],[-13.22233,8.48848,0.0],[-13.22244,8.48826,0.0],[-13.22249,8.48816,0.0],[-13.22256,8.48801,0.0],[-13.2226,8.48793,0.0],[-13.22262,8.48788,0.0],[-13.22273,8.48762,0.0],[-13.22276,8.48757,0.0],[-13.22278,8.48752,0.0],[-13.22284,8.48739,0.0],[-13.22306,8.48695,0.0],[-13.22276,8.48684,0.0],[-13.22186,8.48649,0.0],[-13.2218,8.48647,0.0],[-13.22138,8.48631,0.0],[-13.22084,8.48611,0.0],[-13.22074,8.48608,0.0],[-13.2205,8.48599,0.0],[-13.21988,8.48575,0.0],[-13.21958,8.48563,0.0],[-13.2195,8.48561,0.0],[-13.21889,8.48542,0.0],[-13.21864,8.48534,0.0],[-13.21794,8.48509,0.0],[-13.21777,8.48503,0.0],[-13.21731,8.48487,0.0],[-13.21725,8.48485,0.0],[-13.21684,8.48472,0.0],[-13.21622,8.48453,0.0],[-13.216,8.48446,0.0],[-13.21579,8.48439,0.0],[-13.21555,8.4843,0.0],[-13.21506,8.48411,0.0],[-13.21455,8.48391,0.0],[-13.21444,8.48386,0.0],[-13.21435,8.48383,0.0],[-13.21362,8.48355,0.0],[-13.21297,8.4833,0.0],[-13.21276,8.48318,0.0],[-13.21264,8.48311,0.0],[-13.21257,8.48309,0.0],[-13.21252,8.48312,0.0],[-13.21235,8.48308,0.0],[-13.2122,8.48303,0.0],[-13.21204,8.48302,0.0],[-13.21191,8.48301,0.0],[-13.21182,8.48296,0.0],[-13.21182,8.48283,0.0],[-13.21182,8.48265,0.0],[-13.21178,8.48244,0.0],[-13.21175,8.48231,0.0],[-13.2117,8.48214,0.0],[-13.21163,8.48203,0.0],[-13.21159,8.48192,0.0],[-13.21141,8.4817,0.0],[-13.21119,8.48148,0.0],[-13.21087,8.48126,0.0],[-13.21058,8.48117,0.0],[-13.2104,8.48112,0.0],[-13.21022,8.48104,0.0],[-13.21013,8.48101,0.0],[-13.20984,8.48096,0.0],[-13.20976,8.4809,0.0],[-13.2097,8.48088,0.0],[-13.20964,8.48078,0.0],[-13.20952,8.4807,0.0],[-13.20967,8.48055,0.0],[-13.2097,8.48026,0.0],[-13.20978,8.47995,0.0],[-13.20978,8.47983,0.0],[-13.20959,8.47973,0.0],[-13.20943,8.47962,0.0],[-13.20941,8.4796,0.0],[-13.20921,8.47945,0.0],[-13.20923,8.47935,0.0],[-13.20942,8.47918,0.0],[-13.20958,8.47907,0.0],[-13.20974,8.47897,0.0],[-13.20995,8.47897,0.0],[-13.21008,8.479,0.0],[-13.21026,8.47904,0.0],[-13.21042,8.47893,0.0],[-13.21032,8.47876,0.0],[-13.21027,8.4786,0.0],[-13.21007,8.47854,0.0],[-13.2097,8.47838,0.0],[-13.2097,8.4783,0.0],[-13.20974,8.47822,0.0],[-13.20998,8.47802,0.0],[-13.21001,8.47798,0.0],[-13.21013,8.47782,0.0],[-13.21028,8.47767,0.0],[-13.2103,8.4774,0.0],[-13.21037,8.47713,0.0],[-13.21042,8.477,0.0],[-13.21043,8.47684,0.0],[-13.21039,8.47665,0.0],[-13.21028,8.47639,0.0],[-13.21017,8.47626,0.0],[-13.20991,8.47613,0.0],[-13.2098,8.47608,0.0],[-13.20967,8.47623,0.0],[-13.20951,8.47621,0.0],[-13.20936,8.47608,0.0],[-13.20927,8.47596,0.0],[-13.20921,8.47586,0.0],[-13.20913,8.47576,0.0],[-13.20909,8.47568,0.0],[-13.20905,8.47562,0.0],[-13.20911,8.47557,0.0],[-13.20932,8.47553,0.0],[-13.20948,8.47543,0.0],[-13.20963,8.47523,0.0],[-13.20971,8.47514,0.0],[-13.20971,8.47505,0.0],[-13.20982,8.47495,0.0],[-13.20985,8.47486,0.0],[-13.2099,8.47474,0.0],[-13.20992,8.47466,0.0],[-13.21002,8.47457,0.0],[-13.21006,8.47452,0.0],[-13.21015,8.47443,0.0],[-13.21019,8.4742,0.0],[-13.21027,8.47401,0.0],[-13.21031,8.47391,0.0],[-13.21048,8.47373,0.0],[-13.21052,8.47369,0.0],[-13.21064,8.47355,0.0],[-13.21067,8.47344,0.0],[-13.21068,8.47333,0.0],[-13.21081,8.47327,0.0],[-13.2109,8.47319,0.0],[-13.21098,8.47311,0.0],[-13.2111,8.47303,0.0],[-13.21112,8.47294,0.0],[-13.21115,8.47283,0.0],[-13.21115,8.47268,0.0],[-13.21115,8.47259,0.0],[-13.2112,8.4725,0.0],[-13.21122,8.4724,0.0],[-13.21138,8.47239,0.0],[-13.21141,8.47231,0.0],[-13.2115,8.47201,0.0],[-13.21157,8.47183,0.0],[-13.21161,8.47172,0.0],[-13.2117,8.4716,0.0],[-13.21177,8.47148,0.0],[-13.21178,8.47131,0.0],[-13.2117,8.47118,0.0],[-13.21165,8.47106,0.0],[-13.21169,8.47094,0.0],[-13.21163,8.47062,0.0],[-13.21163,8.47043,0.0],[-13.21166,8.47027,0.0],[-13.21168,8.47015,0.0],[-13.21161,8.47002,0.0],[-13.21162,8.46988,0.0],[-13.21165,8.46973,0.0],[-13.21161,8.46961,0.0],[-13.21156,8.4695,0.0],[-13.21157,8.46939,0.0],[-13.21155,8.46929,0.0],[-13.2116,8.46913,0.0],[-13.21164,8.46901,0.0],[-13.21164,8.46881,0.0],[-13.21178,8.46891,0.0],[-13.21192,8.46905,0.0],[-13.21197,8.4691,0.0],[-13.21208,8.46921,0.0],[-13.21227,8.46937,0.0],[-13.21242,8.46948,0.0],[-13.21248,8.46952,0.0],[-13.21267,8.46971,0.0],[-13.2128,8.46983,0.0],[-13.21288,8.46991,0.0],[-13.21296,8.46998,0.0],[-13.21303,8.47006,0.0],[-13.21309,8.47013,0.0],[-13.21322,8.47029,0.0],[-13.21331,8.47039,0.0],[-13.21351,8.4707,0.0],[-13.21363,8.47088,0.0],[-13.21366,8.47092,0.0],[-13.21385,8.47108,0.0],[-13.21403,8.47124,0.0],[-13.21406,8.47129,0.0],[-13.21411,8.47136,0.0],[-13.21423,8.47155,0.0],[-13.21423,8.4717,0.0],[-13.21423,8.47182,0.0],[-13.21425,8.47227,0.0],[-13.21397,8.47252,0.0],[-13.21391,8.47256,0.0],[-13.21365,8.47273,0.0],[-13.21358,8.4728,0.0],[-13.21351,8.47287,0.0],[-13.21344,8.47294,0.0],[-13.21346,8.47319,0.0],[-13.21354,8.47335,0.0],[-13.21358,8.47341,0.0],[-13.21375,8.47372,0.0],[-13.2138,8.47381,0.0],[-13.21387,8.47397,0.0],[-13.21395,8.47413,0.0],[-13.21404,8.47419,0.0],[-13.21415,8.4743,0.0],[-13.2142,8.4743,0.0],[-13.21437,8.4743,0.0],[-13.21455,8.4743,0.0],[-13.21465,8.4743,0.0],[-13.21479,8.47429,0.0],[-13.21496,8.47434,0.0],[-13.21509,8.47442,0.0],[-13.21524,8.47462,0.0],[-13.21528,8.4754,0.0],[-13.21531,8.47548,0.0],[-13.21538,8.4757,0.0],[-13.21562,8.47645,0.0],[-13.21571,8.47675,0.0],[-13.21587,8.47721,0.0],[-13.21599,8.47734,0.0],[-13.21613,8.47752,0.0],[-13.21671,8.47798,0.0],[-13.21704,8.47814,0.0],[-13.21754,8.47838,0.0],[-13.21849,8.47885,0.0],[-13.21854,8.47888,0.0],[-13.21872,8.47897,0.0],[-13.21933,8.47928,0.0],[-13.2199,8.47956,0.0],[-13.2206,8.47991,0.0],[-13.22068,8.47995,0.0],[-13.22105,8.48014,0.0],[-13.22133,8.48028,0.0],[-13.22146,8.48065,0.0],[-13.22151,8.48078,0.0],[-13.22169,8.48123,0.0],[-13.22177,8.48138,0.0],[-13.22209,8.48199,0.0],[-13.22217,8.48206,0.0],[-13.22246,8.48249,0.0],[-13.22257,8.48263,0.0],[-13.2228,8.48309,0.0],[-13.22284,8.48317,0.0],[-13.22289,8.48327,0.0],[-13.22295,8.48336,0.0],[-13.223,8.48342,0.0],[-13.22312,8.48356,0.0],[-13.22319,8.48352,0.0],[-13.22331,8.48339,0.0],[-13.22348,8.48321,0.0],[-13.22354,8.48315,0.0],[-13.22362,8.48307,0.0],[-13.22384,8.48282,0.0],[-13.22393,8.48256,0.0],[-13.224,8.48234,0.0],[-13.22412,8.48198,0.0],[-13.22418,8.4818,0.0],[-13.22432,8.48145,0.0],[-13.22436,8.48136,0.0],[-13.22467,8.48051,0.0],[-13.22472,8.48037,0.0],[-13.22511,8.47927,0.0],[-13.22521,8.47922,0.0],[-13.22519,8.47929,0.0],[-13.22519,8.47936,0.0],[-13.22536,8.47953,0.0],[-13.22558,8.48005,0.0],[-13.22567,8.48032,0.0],[-13.22584,8.48046,0.0],[-13.22603,8.48069,0.0],[-13.22611,8.48076,0.0],[-13.22633,8.48099,0.0],[-13.22657,8.48139,0.0],[-13.22685,8.48174,0.0],[-13.22693,8.48184,0.0],[-13.22692,8.48189,0.0],[-13.22703,8.48197,0.0],[-13.22717,8.48219,0.0],[-13.2274,8.48259,0.0],[-13.22745,8.48266,0.0],[-13.22749,8.48274,0.0],[-13.22751,8.48279,0.0],[-13.2275,8.48299,0.0],[-13.22749,8.48308,0.0],[-13.22747,8.48316,0.0],[-13.22744,8.48325,0.0],[-13.22738,8.48343,0.0],[-13.22737,8.48356,0.0],[-13.22753,8.48362,0.0],[-13.22754,8.48368,0.0],[-13.22755,8.48377,0.0],[-13.22755,8.48381,0.0],[-13.22754,8.48397,0.0],[-13.22751,8.4841,0.0],[-13.2275,8.48416,0.0],[-13.22743,8.48444,0.0],[-13.22743,8.48444,0.0],[-13.22747,8.4846,0.0],[-13.22752,8.4848,0.0],[-13.22754,8.48488,0.0],[-13.22755,8.48507,0.0],[-13.22759,8.48513,0.0],[-13.22759,8.48518,0.0],[-13.22761,8.48531,0.0],[-13.22759,8.48536,0.0],[-13.22756,8.48544,0.0],[-13.22748,8.48561,0.0],[-13.22742,8.48594,0.0],[-13.22741,8.48602,0.0],[-13.22735,8.48648,0.0],[-13.22734,8.48661,0.0],[-13.22741,8.48674,0.0],[-13.22735,8.48704,0.0],[-13.22732,8.48717,0.0],[-13.22734,8.48728,0.0],[-13.22739,8.48734,0.0],[-13.22721,8.48747,0.0],[-13.22705,8.48761,0.0],[-13.22697,8.48769,0.0],[-13.22689,8.48775,0.0],[-13.22679,8.48785,0.0],[-13.22675,8.48791,0.0],[-13.22671,8.48797,0.0],[-13.22677,8.48807,0.0],[-13.22684,8.48809,0.0],[-13.22704,8.48816,0.0],[-13.22719,8.48828,0.0],[-13.22722,8.48839,0.0],[-13.2272,8.48848,0.0],[-13.22718,8.48861,0.0],[-13.22709,8.48882,0.0],[-13.22689,8.48901,0.0],[-13.22663,8.48923,0.0],[-13.22644,8.48951,0.0],[-13.22648,8.48955,0.0],[-13.22646,8.48972,0.0],[-13.22648,8.48988,0.0],[-13.22665,8.49016,0.0],[-13.2267,8.49037,0.0],[-13.22667,8.4905,0.0],[-13.22669,8.49055,0.0],[-13.22681,8.49058,0.0],[-13.22686,8.49062,0.0],[-13.22702,8.49084,0.0],[-13.22703,8.49092,0.0],[-13.22704,8.49108,0.0],[-13.22708,8.49126,0.0],[-13.2271,8.49132,0.0],[-13.22706,8.49137,0.0],[-13.22712,8.49164,0.0],[-13.22717,8.49168,0.0],[-13.22723,8.49167,0.0],[-13.22736,8.49162,0.0],[-13.22739,8.49177,0.0],[-13.22726,8.49178,0.0],[-13.22715,8.49176,0.0],[-13.22709,8.49182,0.0],[-13.227,8.49193,0.0],[-13.22694,8.49196,0.0],[-13.22686,8.49196,0.0],[-13.22667,8.49194,0.0],[-13.22658,8.4919,0.0],[-13.22653,8.49188,0.0]]]]}},{"type":"Feature","properties":{"uesi_id":"SLE_N27565056","nbhd_code":"SLE_N27565056_4","nbhd_name":"Central II"},"geometry":{"type":"MultiPolygon","coordinates":[[[[-13.23154,8.49177,0.0],[-13.23141,8.49157,0.0],[-13.23144,8.49146,0.0],[-13.23131,8.49129,0.0],[-13.23117,8.49115,0.0],[-13.23105,8.49106,0.0],[-13.23095,8.49096,0.0],[-13.2308,8.49089,0.0],[-13.23067,8.49069,0.0],[-13.23088,8.49052,0.0],[-13.23094,8.49048,0.0],[-13.23142,8.49018,0.0],[-13.23208,8.48972,0.0],[-13.23271,8.4893,0.0],[-13.23302,8.4891,0.0],[-13.2333,8.48892,0.0],[-13.23381,8.48853,0.0],[-13.23412,8.48832,0.0],[-13.23441,8.48815,0.0],[-13.23476,8.48786,0.0],[-13.23538,8.48734,0.0],[-13.2356,8.48708,0.0],[-13.23555,8.48676,0.0],[-13.23556,8.4862,0.0],[-13.2356,8.4857,0.0],[-13.2357,8.48439,0.0],[-13.23578,8.4833,0.0],[-13.23579,8.48319,0.0],[-13.23584,8.48254,0.0],[-13.23587,8.48221,0.0],[-13.23591,8.48143,0.0],[-13.23594,8.48129,0.0],[-13.23598,8.4807,0.0],[-13.23601,8.48039,0.0],[-13.23602,8.48018,0.0],[-13.23613,8.47883,0.0],[-13.23615,8.4786,0.0],[-13.23617,8.47846,0.0],[-13.23622,8.47796,0.0],[-13.23626,8.47724,0.0],[-13.23628,8.47681,0.0],[-13.23629,8.47676,0.0],[-13.23631,8.47669,0.0],[-13.23634,8.47665,0.0],[-13.23641,8.47666,0.0],[-13.23657,8.47671,0.0],[-13.23673,8.47675,0.0],[-13.23695,8.47684,0.0],[-13.23718,8.47692,0.0],[-13.23737,8.47699,0.0],[-13.2376,8.47705,0.0],[-13.23768,8.47708,0.0],[-13.23806,8.4772,0.0],[-13.23823,8.47724,0.0],[-13.23832,8.47727,0.0],[-13.23851,8.47734,0.0],[-13.23871,8.47743,0.0],[-13.23963,8.47777,0.0],[-13.24023,8.47799,0.0],[-13.24055,8.47817,0.0],[-13.23986,8.47854,0.0],[-13.23895,8.47914,0.0],[-13.23918,8.47962,0.0],[-13.23948,8.48022,0.0],[-13.23951,8.48028,0.0],[-13.2397,8.48077,0.0],[-13.23981,8.48103,0.0],[-13.23984,8.48121,0.0],[-13.23989,8.48147,0.0],[-13.24004,8.48179,0.0],[-13.24022,8.48218,0.0],[-13.24013,8.48227,0.0],[-13.2399,8.48253,0.0],[-13.23929,8.48308,0.0],[-13.23922,8.48314,0.0],[-13.23916,8.48319,0.0],[-13.23907,8.48332,0.0],[-13.23897,8.48344,0.0],[-13.23873,8.48375,0.0],[-13.23908,8.4841,0.0],[-13.23959,8.48433,0.0],[-13.23985,8.48476,0.0],[-13.23995,8.48507,0.0],[-13.24003,8.48518,0.0],[-13.24016,8.48544,0.0],[-13.2403,8.4857,0.0],[-13.24036,8.48581,0.0],[-13.24044,8.48599,0.0],[-13.24051,8.48609,0.0],[-13.24063,8.48643,0.0],[-13.24074,8.48674,0.0],[-13.24084,8.48689,0.0],[-13.2407,8.48723,0.0],[-13.24064,8.48737,0.0],[-13.24057,8.48763,0.0],[-13.2405,8.48786,0.0],[-13.24037,8.48772,0.0],[-13.24024,8.48761,0.0],[-13.24,8.48751,0.0],[-13.23979,8.48744,0.0],[-13.23964,8.48743,0.0],[-13.23946,8.48741,0.0],[-13.2393,8.48738,0.0],[-13.23915,8.48737,0.0],[-13.23907,8.48746,0.0],[-13.23898,8.48759,0.0],[-13.23898,8.48768,0.0],[-13.23899,8.48784,0.0],[-13.23896,8.48793,0.0],[-13.2389,8.48798,0.0],[-13.2389,8.48812,0.0],[-13.23894,8.48821,0.0],[-13.23898,8.48828,0.0],[-13.23902,8.48835,0.0],[-13.239,8.48852,0.0],[-13.23898,8.48875,0.0],[-13.23892,8.48882,0.0],[-13.23886,8.48889,0.0],[-13.23883,8.48898,0.0],[-13.23876,8.48908,0.0],[-13.23865,8.48913,0.0],[-13.23856,8.48916,0.0],[-13.23847,8.4892,0.0],[-13.23837,8.48926,0.0],[-13.2383,8.48927,0.0],[-13.23822,8.48929,0.0],[-13.23815,8.48928,0.0],[-13.23804,8.48921,0.0],[-13.23791,8.48931,0.0],[-13.23778,8.48938,0.0],[-13.23772,8.48941,0.0],[-13.23761,8.48946,0.0],[-13.23753,8.48948,0.0],[-13.23745,8.48958,0.0],[-13.23732,8.48963,0.0],[-13.23725,8.48972,0.0],[-13.23719,8.48986,0.0],[-13.23718,8.48994,0.0],[-13.23716,8.49006,0.0],[-13.23719,8.49014,0.0],[-13.2372,8.49028,0.0],[-13.23725,8.49036,0.0],[-13.2373,8.49043,0.0],[-13.23718,8.49057,0.0],[-13.23701,8.49072,0.0],[-13.2369,8.4908,0.0],[-13.23674,8.49093,0.0],[-13.23657,8.49108,0.0],[-13.2363,8.4913,0.0],[-13.23619,8.49134,0.0],[-13.23606,8.49124,0.0],[-13.23585,8.49147,0.0],[-13.23566,8.4916,0.0],[-13.23546,8.49179,0.0],[-13.23537,8.49188,0.0],[-13.23517,8.49181,0.0],[-13.23501,8.49182,0.0],[-13.23489,8.49178,0.0],[-13.23483,8.49171,0.0],[-13.23485,8.49159,0.0],[-13.23471,8.49157,0.0],[-13.23467,8.49167,0.0],[-13.23456,8.49172,0.0],[-13.23439,8.49186,0.0],[-13.23429,8.49195,0.0],[-13.23413,8.49205,0.0],[-13.23386,8.49221,0.0],[-13.23366,8.49235,0.0],[-13.23237,8.49312,0.0],[-13.23216,8.49317,0.0],[-13.23209,8.49308,0.0],[-13.23199,8.49295,0.0],[-13.23181,8.49259,0.0],[-13.23182,8.49237,0.0],[-13.23182,8.49226,0.0],[-13.23174,8.49206,0.0],[-13.23164,8.49192,0.0],[-13.23154,8.49177,0.0]]]]}},{"type":"Feature","properties":{"uesi_id":"SLE_N27565056","nbhd_code":"SLE_N27565056_5","nbhd_name":"West III"},"geometry":{"type":"MultiPolygon","coordinates":[[[[-13.28529,8.49735,0.0],[-13.28456,8.4965,0.0],[-13.28403,8.49621,0.0],[-13.28338,8.49609,0.0],[-13.28311,8.49608,0.0],[-13.28285,8.49608,0.0],[-13.28228,8.4962,0.0],[-13.2817,8.49648,0.0],[-13.28133,8.4966,0.0],[-13.2808,8.49648,0.0],[-13.28048,8.49595,0.0],[-13.28011,8.49542,0.0],[-13.27955,8.49485,0.0],[-13.27934,8.49472,0.0],[-13.2791,8.49456,0.0],[-13.27849,8.49436,0.0],[-13.27779,8.49427,0.0],[-13.27665,8.49427,0.0],[-13.27583,8.49434,0.0],[-13.27493,8.49422,0.0],[-13.27387,8.49381,0.0],[-13.27331,8.49303,0.0],[-13.27322,8.49292,0.0],[-13.27353,8.49297,0.0],[-13.27369,8.49298,0.0],[-13.27398,8.49302,0.0],[-13.27419,8.49283,0.0],[-13.27442,8.49262,0.0],[-13.27478,8.49245,0.0],[-13.27502,8.49222,0.0],[-13.27501,8.492,0.0],[-13.27507,8.49181,0.0],[-13.27546,8.4918,0.0],[-13.27582,8.49188,0.0],[-13.27601,8.49198,0.0],[-13.2763,8.49199,0.0],[-13.27683,8.49218,0.0],[-13.27734,8.49228,0.0],[-13.27789,8.49219,0.0],[-13.27847,8.49208,0.0],[-13.27913,8.49202,0.0],[-13.27932,8.49204,0.0],[-13.27947,8.4919,0.0],[-13.27954,8.49156,0.0],[-13.28015,8.49112,0.0],[-13.28034,8.49074,0.0],[-13.2807,8.49039,0.0],[-13.28102,8.49031,0.0],[-13.28124,8.49022,0.0],[-13.28127,8.49005,0.0],[-13.28131,8.48972,0.0],[-13.28135,8.48939,0.0],[-13.28148,8.48908,0.0],[-13.28171,8.48873,0.0],[-13.28205,8.48871,0.0],[-13.28225,8.48887,0.0],[-13.28235,8.48872,0.0],[-13.28233,8.48828,0.0],[-13.28246,8.48801,0.0],[-13.28264,8.48771,0.0],[-13.28288,8.48741,0.0],[-13.28307,8.48707,0.0],[-13.28307,8.48679,0.0],[-13.28303,8.48656,0.0],[-13.28285,8.48664,0.0],[-13.28255,8.48712,0.0],[-13.28224,8.48732,0.0],[-13.28178,8.48745,0.0],[-13.28143,8.48745,0.0],[-13.28114,8.48733,0.0],[-13.28072,8.48721,0.0],[-13.2804,8.4869,0.0],[-13.28009,8.4867,0.0],[-13.28007,8.48643,0.0],[-13.27999,8.4862,0.0],[-13.27995,8.48595,0.0],[-13.27985,8.48568,0.0],[-13.27964,8.48548,0.0],[-13.27963,8.48523,0.0],[-13.27954,8.48475,0.0],[-13.27956,8.48451,0.0],[-13.27959,8.48438,0.0],[-13.27982,8.48423,0.0],[-13.28028,8.48423,0.0],[-13.27978,8.48406,0.0],[-13.27984,8.48375,0.0],[-13.28005,8.48352,0.0],[-13.28057,8.48336,0.0],[-13.28022,8.48312,0.0],[-13.28036,8.48281,0.0],[-13.28,8.4829,0.0],[-13.27962,8.48289,0.0],[-13.27955,8.48233,0.0],[-13.27948,8.48192,0.0],[-13.27946,8.4816,0.0],[-13.27943,8.48141,0.0],[-13.27934,8.48143,0.0],[-13.27888,8.48151,0.0],[-13.27862,8.48155,0.0],[-13.27858,8.48146,0.0],[-13.2784,8.48107,0.0],[-13.2783,8.48078,0.0],[-13.27803,8.48004,0.0],[-13.27795,8.47938,0.0],[-13.2784,8.47873,0.0],[-13.27892,8.47759,0.0],[-13.27924,8.47665,0.0],[-13.27934,8.47637,0.0],[-13.27928,8.47615,0.0],[-13.27894,8.47521,0.0],[-13.27872,8.47424,0.0],[-13.27854,8.47457,0.0],[-13.27836,8.47475,0.0],[-13.2781,8.47514,0.0],[-13.2781,8.47544,0.0],[-13.27805,8.47571,0.0],[-13.27799,8.47589,0.0],[-13.27767,8.47593,0.0],[-13.27759,8.47585,0.0],[-13.27749,8.47588,0.0],[-13.27728,8.47598,0.0],[-13.2771,8.4761,0.0],[-13.27699,8.47613,0.0],[-13.277,8.47626,0.0],[-13.27703,8.47642,0.0],[-13.27693,8.47653,0.0],[-13.27685,8.47661,0.0],[-13.27685,8.47681,0.0],[-13.2767,8.47698,0.0],[-13.2766,8.47714,0.0],[-13.27638,8.47725,0.0],[-13.27629,8.47752,0.0],[-13.27618,8.47774,0.0],[-13.276,8.47793,0.0],[-13.276,8.4783,0.0],[-13.27611,8.47859,0.0],[-13.27585,8.47876,0.0],[-13.27589,8.47893,0.0],[-13.27589,8.47906,0.0],[-13.27595,8.47917,0.0],[-13.27596,8.47931,0.0],[-13.27609,8.47963,0.0],[-13.2762,8.4799,0.0],[-13.27625,8.48018,0.0],[-13.27626,8.48041,0.0],[-13.2764,8.48054,0.0],[-13.27646,8.48073,0.0],[-13.27646,8.48092,0.0],[-13.27659,8.48114,0.0],[-13.27666,8.48127,0.0],[-13.2768,8.48159,0.0],[-13.27682,8.4819,0.0],[-13.27679,8.48214,0.0],[-13.27661,8.48209,0.0],[-13.27645,8.48221,0.0],[-13.27625,8.48219,0.0],[-13.27602,8.48217,0.0],[-13.27594,8.48241,0.0],[-13.27578,8.48253,0.0],[-13.2756,8.48241,0.0],[-13.27543,8.48241,0.0],[-13.27531,8.4825,0.0],[-13.2751,8.48254,0.0],[-13.27487,8.48251,0.0],[-13.27471,8.48233,0.0],[-13.2746,8.48246,0.0],[-13.27431,8.48253,0.0],[-13.27431,8.48266,0.0],[-13.2742,8.48282,0.0],[-13.27416,8.48303,0.0],[-13.27441,8.48323,0.0],[-13.27446,8.48345,0.0],[-13.27447,8.48369,0.0],[-13.27447,8.48382,0.0],[-13.27432,8.48387,0.0],[-13.27458,8.48393,0.0],[-13.2746,8.48409,0.0],[-13.2746,8.48433,0.0],[-13.27458,8.48443,0.0],[-13.2744,8.48442,0.0],[-13.27438,8.48456,0.0],[-13.27425,8.48455,0.0],[-13.27417,8.48479,0.0],[-13.2742,8.48495,0.0],[-13.27421,8.48507,0.0],[-13.27429,8.48524,0.0],[-13.27427,8.48537,0.0],[-13.27422,8.48562,0.0],[-13.2742,8.48578,0.0],[-13.27394,8.48597,0.0],[-13.27357,8.48614,0.0],[-13.27331,8.48624,0.0],[-13.27327,8.48618,0.0],[-13.27299,8.48598,0.0],[-13.27294,8.48616,0.0],[-13.27298,8.48626,0.0],[-13.27293,8.48643,0.0],[-13.27298,8.48658,0.0],[-13.27322,8.48663,0.0],[-13.27335,8.48664,0.0],[-13.27339,8.48683,0.0],[-13.27328,8.48706,0.0],[-13.27334,8.48706,0.0],[-13.27347,8.48728,0.0],[-13.27351,8.48744,0.0],[-13.27363,8.48759,0.0],[-13.27377,8.48791,0.0],[-13.27366,8.48821,0.0],[-13.27344,8.48828,0.0],[-13.27332,8.48839,0.0],[-13.27324,8.48841,0.0],[-13.2732,8.48843,0.0],[-13.27306,8.48861,0.0],[-13.27271,8.48896,0.0],[-13.27243,8.48923,0.0],[-13.27229,8.48948,0.0],[-13.27243,8.48953,0.0],[-13.27231,8.48968,0.0],[-13.27211,8.48983,0.0],[-13.27175,8.49014,0.0],[-13.27161,8.49038,0.0],[-13.27164,8.49054,0.0],[-13.27173,8.49059,0.0],[-13.27178,8.49075,0.0],[-13.27178,8.49088,0.0],[-13.27185,8.49104,0.0],[-13.27185,8.49126,0.0],[-13.27204,8.49142,0.0],[-13.27212,8.49142,0.0],[-13.27211,8.49159,0.0],[-13.27219,8.49173,0.0],[-13.27221,8.49199,0.0],[-13.27219,8.49223,0.0],[-13.27205,8.49242,0.0],[-13.27193,8.49257,0.0],[-13.27211,8.49271,0.0],[-13.27174,8.49269,0.0],[-13.27161,8.4928,0.0],[-13.27133,8.49311,0.0],[-13.271,8.49338,0.0],[-13.27084,8.49363,0.0],[-13.27094,8.49395,0.0],[-13.27103,8.49445,0.0],[-13.27094,8.49467,0.0],[-13.27067,8.49474,0.0],[-13.27053,8.495,0.0],[-13.27031,8.49532,0.0],[-13.27008,8.49535,0.0],[-13.2699,8.4955,0.0],[-13.26975,8.49561,0.0],[-13.26952,8.49571,0.0],[-13.26941,8.49592,0.0],[-13.26921,8.49605,0.0],[-13.26902,8.49634,0.0],[-13.26881,8.49659,0.0],[-13.26835,8.49681,0.0],[-13.26804,8.49713,0.0],[-13.26771,8.49697,0.0],[-13.26734,8.4967,0.0],[-13.26725,8.49664,0.0],[-13.26709,8.49653,0.0],[-13.26633,8.49643,0.0],[-13.26597,8.49649,0.0],[-13.26574,8.49638,0.0],[-13.26557,8.49618,0.0],[-13.26501,8.49602,0.0],[-13.26429,8.49577,0.0],[-13.26398,8.49561,0.0],[-13.26391,8.49557,0.0],[-13.26349,8.49529,0.0],[-13.26326,8.49498,0.0],[-13.26284,8.49457,0.0],[-13.26254,8.49418,0.0],[-13.26194,8.49398,0.0],[-13.2613,8.49396,0.0],[-13.26118,8.49362,0.0],[-13.2611,8.4933,0.0],[-13.26072,8.49278,0.0],[-13.2605,8.49248,0.0],[-13.26034,8.49228,0.0],[-13.2603,8.49207,0.0],[-13.26027,8.49185,0.0],[-13.26002,8.49143,0.0],[-13.25971,8.49114,0.0],[-13.25945,8.49067,0.0],[-13.25907,8.49025,0.0],[-13.25895,8.48992,0.0],[-13.25909,8.48971,0.0],[-13.25926,8.48947,0.0],[-13.25966,8.48928,0.0],[-13.25983,8.48896,0.0],[-13.26011,8.48867,0.0],[-13.2601,8.48832,0.0],[-13.26012,8.48793,0.0],[-13.25989,8.48762,0.0],[-13.25942,8.48714,0.0],[-13.25872,8.48702,0.0],[-13.25849,8.48769,0.0],[-13.25818,8.48781,0.0],[-13.25795,8.48791,0.0],[-13.25757,8.48803,0.0],[-13.25726,8.48778,0.0],[-13.2573,8.48754,0.0],[-13.25736,8.48749,0.0],[-13.25769,8.48741,0.0],[-13.25786,8.4873,0.0],[-13.25798,8.48719,0.0],[-13.25814,8.48701,0.0],[-13.25812,8.48685,0.0],[-13.25812,8.48671,0.0],[-13.2582,8.48659,0.0],[-13.25829,8.4865,0.0],[-13.25844,8.48642,0.0],[-13.25853,8.48627,0.0],[-13.25857,8.48616,0.0],[-13.25857,8.48594,0.0],[-13.25859,8.48576,0.0],[-13.25867,8.48555,0.0],[-13.25893,8.48523,0.0],[-13.2591,8.48494,0.0],[-13.25932,8.48471,0.0],[-13.25948,8.48458,0.0],[-13.2596,8.48446,0.0],[-13.25947,8.48434,0.0],[-13.25914,8.48405,0.0],[-13.25906,8.48391,0.0],[-13.25888,8.48361,0.0],[-13.25885,8.48355,0.0],[-13.25882,8.48345,0.0],[-13.25879,8.48337,0.0],[-13.25877,8.48331,0.0],[-13.25879,8.48322,0.0],[-13.25881,8.48306,0.0],[-13.25911,8.48292,0.0],[-13.2591,8.48259,0.0],[-13.25921,8.48227,0.0],[-13.2593,8.48193,0.0],[-13.2594,8.4817,0.0],[-13.25946,8.48158,0.0],[-13.25948,8.48152,0.0],[-13.25959,8.48128,0.0],[-13.25961,8.48103,0.0],[-13.25962,8.48097,0.0],[-13.25963,8.48084,0.0],[-13.25958,8.48066,0.0],[-13.25942,8.48061,0.0],[-13.25929,8.48058,0.0],[-13.25915,8.48053,0.0],[-13.25908,8.4805,0.0],[-13.25883,8.48042,0.0],[-13.25873,8.48036,0.0],[-13.25855,8.48024,0.0],[-13.25841,8.48015,0.0],[-13.25834,8.4801,0.0],[-13.25821,8.48,0.0],[-13.25813,8.47987,0.0],[-13.25804,8.47974,0.0],[-13.25801,8.47969,0.0],[-13.25778,8.47938,0.0],[-13.25765,8.47903,0.0],[-13.25759,8.47864,0.0],[-13.2576,8.47833,0.0],[-13.25758,8.47801,0.0],[-13.25775,8.47766,0.0],[-13.2579,8.47746,0.0],[-13.25794,8.47741,0.0],[-13.25808,8.47718,0.0],[-13.25817,8.47704,0.0],[-13.25822,8.47693,0.0],[-13.25824,8.47688,0.0],[-13.25826,8.47683,0.0],[-13.2583,8.47676,0.0],[-13.25831,8.47662,0.0],[-13.25833,8.47655,0.0],[-13.25837,8.47642,0.0],[-13.25838,8.47636,0.0],[-13.25838,8.47629,0.0],[-13.25838,8.47596,0.0],[-13.2584,8.47568,0.0],[-13.2584,8.47558,0.0],[-13.25837,8.47551,0.0],[-13.25832,8.47539,0.0],[-13.25858,8.47529,0.0],[-13.25878,8.47504,0.0],[-13.25884,8.47497,0.0],[-13.25896,8.47482,0.0],[-13.25909,8.47461,0.0],[-13.25923,8.47439,0.0],[-13.25932,8.47425,0.0],[-13.25938,8.47415,0.0],[-13.25947,8.47401,0.0],[-13.2595,8.47395,0.0],[-13.2596,8.47375,0.0],[-13.25964,8.4737,0.0],[-13.25967,8.47366,0.0],[-13.25974,8.47356,0.0],[-13.25983,8.47345,0.0],[-13.25991,8.47325,0.0],[-13.25996,8.47305,0.0],[-13.25997,8.47276,0.0],[-13.25997,8.47267,0.0],[-13.25997,8.47241,0.0],[-13.25998,8.4723,0.0],[-13.25998,8.4722,0.0],[-13.25998,8.47206,0.0],[-13.25989,8.4721,0.0],[-13.25977,8.47218,0.0],[-13.25957,8.47231,0.0],[-13.25937,8.47244,0.0],[-13.25925,8.47252,0.0],[-13.25917,8.47257,0.0],[-13.25909,8.47262,0.0],[-13.25905,8.47265,0.0],[-13.25866,8.47247,0.0],[-13.25856,8.47246,0.0],[-13.25852,8.47245,0.0],[-13.25845,8.47244,0.0],[-13.25836,8.47242,0.0],[-13.25831,8.47241,0.0],[-13.25826,8.4724,0.0],[-13.2582,8.47239,0.0],[-13.25808,8.47237,0.0],[-13.25796,8.47235,0.0],[-13.25787,8.47233,0.0],[-13.2578,8.4723,0.0],[-13.25772,8.47227,0.0],[-13.25755,8.47219,0.0],[-13.25747,8.47211,0.0],[-13.25739,8.47203,0.0],[-13.25729,8.47193,0.0],[-13.25717,8.47183,0.0],[-13.25711,8.47169,0.0],[-13.25708,8.4716,0.0],[-13.25705,8.47153,0.0],[-13.25703,8.47149,0.0],[-13.25701,8.47144,0.0],[-13.25697,8.47134,0.0],[-13.25694,8.47127,0.0],[-13.25692,8.47123,0.0],[-13.25689,8.47116,0.0],[-13.25684,8.47104,0.0],[-13.25679,8.47086,0.0],[-13.25674,8.47069,0.0],[-13.25671,8.47057,0.0],[-13.25667,8.47044,0.0],[-13.25665,8.4704,0.0],[-13.25663,8.47034,0.0],[-13.25655,8.47032,0.0],[-13.25628,8.47021,0.0],[-13.25585,8.47003,0.0],[-13.25549,8.46989,0.0],[-13.25543,8.46987,0.0],[-13.25515,8.46976,0.0],[-13.25492,8.46964,0.0],[-13.25486,8.46961,0.0],[-13.25471,8.46952,0.0],[-13.25466,8.46945,0.0],[-13.25449,8.46931,0.0],[-13.25446,8.46922,0.0],[-13.25437,8.46899,0.0],[-13.2543,8.46875,0.0],[-13.25424,8.46858,0.0],[-13.25425,8.46842,0.0],[-13.25423,8.46824,0.0],[-13.25421,8.46807,0.0],[-13.25424,8.4679,0.0],[-13.25497,8.46754,0.0],[-13.25552,8.46713,0.0],[-13.25603,8.46665,0.0],[-13.25614,8.46637,0.0],[-13.2561,8.46623,0.0],[-13.25608,8.46614,0.0],[-13.2559,8.46617,0.0],[-13.25548,8.4664,0.0],[-13.25533,8.46648,0.0],[-13.25526,8.46648,0.0],[-13.25521,8.46649,0.0],[-13.25514,8.46649,0.0],[-13.25498,8.46658,0.0],[-13.25489,8.46663,0.0],[-13.2548,8.46667,0.0],[-13.25469,8.46669,0.0],[-13.25455,8.46671,0.0],[-13.25447,8.46672,0.0],[-13.25433,8.46684,0.0],[-13.2542,8.46695,0.0],[-13.2541,8.46703,0.0],[-13.25403,8.46709,0.0],[-13.25391,8.46717,0.0],[-13.25387,8.46721,0.0],[-13.25372,8.46729,0.0],[-13.25366,8.46733,0.0],[-13.2536,8.46736,0.0],[-13.25347,8.46736,0.0],[-13.25309,8.46735,0.0],[-13.25288,8.46731,0.0],[-13.2526,8.46726,0.0],[-13.25245,8.46723,0.0],[-13.25217,8.46718,0.0],[-13.25191,8.46713,0.0],[-13.25185,8.46709,0.0],[-13.25177,8.46701,0.0],[-13.25163,8.4669,0.0],[-13.2516,8.4666,0.0],[-13.25171,8.46647,0.0],[-13.25171,8.46624,0.0],[-13.25174,8.46605,0.0],[-13.25183,8.46584,0.0],[-13.2518,8.4658,0.0],[-13.25179,8.46565,0.0],[-13.25181,8.46546,0.0],[-13.25188,8.46536,0.0],[-13.25201,8.46522,0.0],[-13.2521,8.46517,0.0],[-13.25211,8.46504,0.0],[-13.25197,8.46476,0.0],[-13.25192,8.46465,0.0],[-13.25189,8.46451,0.0],[-13.25188,8.46428,0.0],[-13.25168,8.46409,0.0],[-13.25144,8.46393,0.0],[-13.25127,8.46374,0.0],[-13.25116,8.46354,0.0],[-13.25113,8.46335,0.0],[-13.25093,8.46305,0.0],[-13.25077,8.46282,0.0],[-13.25071,8.4626,0.0],[-13.25068,8.46245,0.0],[-13.25064,8.46234,0.0],[-13.25061,8.46222,0.0],[-13.25061,8.46217,0.0],[-13.25061,8.46189,0.0],[-13.25031,8.46177,0.0],[-13.24988,8.46162,0.0],[-13.24956,8.46155,0.0],[-13.2491,8.46135,0.0],[-13.24878,8.46114,0.0],[-13.24857,8.4609,0.0],[-13.24842,8.46078,0.0],[-13.24822,8.46068,0.0],[-13.24788,8.46057,0.0],[-13.24738,8.4605,0.0],[-13.24702,8.46044,0.0],[-13.24692,8.46042,0.0],[-13.24667,8.46039,0.0],[-13.24607,8.46028,0.0],[-13.24651,8.45981,0.0],[-13.2469,8.45942,0.0],[-13.24744,8.45887,0.0],[-13.24777,8.45847,0.0],[-13.24767,8.45827,0.0],[-13.24747,8.45782,0.0],[-13.2471,8.45779,0.0],[-13.24671,8.45776,0.0],[-13.24633,8.45773,0.0],[-13.24611,8.45771,0.0],[-13.24551,8.45766,0.0],[-13.24518,8.45763,0.0],[-13.24502,8.45762,0.0],[-13.24487,8.45758,0.0],[-13.24455,8.45731,0.0],[-13.2442,8.45672,0.0],[-13.24387,8.45577,0.0],[-13.24451,8.45522,0.0],[-13.24457,8.45523,0.0],[-13.2451,8.45537,0.0],[-13.24548,8.45554,0.0],[-13.24531,8.45502,0.0],[-13.24516,8.45449,0.0],[-13.24492,8.45333,0.0],[-13.24467,8.45276,0.0],[-13.2446,8.45245,0.0],[-13.24418,8.45228,0.0],[-13.24377,8.452,0.0],[-13.24375,8.4516,0.0],[-13.24373,8.45133,0.0],[-13.24374,8.45112,0.0],[-13.24375,8.45075,0.0],[-13.24375,8.45066,0.0],[-13.24374,8.44997,0.0],[-13.24373,8.44929,0.0],[-13.24372,8.44924,0.0],[-13.24368,8.44839,0.0],[-13.24364,8.44749,0.0],[-13.24363,8.44743,0.0],[-13.24356,8.44682,0.0],[-13.24334,8.44646,0.0],[-13.24329,8.44614,0.0],[-13.24328,8.44586,0.0],[-13.24327,8.44578,0.0],[-13.24326,8.44542,0.0],[-13.24325,8.44485,0.0],[-13.24321,8.44365,0.0],[-13.24321,8.44346,0.0],[-13.2432,8.44308,0.0],[-13.2432,8.4428,0.0],[-13.24309,8.44249,0.0],[-13.24305,8.44239,0.0],[-13.24293,8.44184,0.0],[-13.24288,8.44124,0.0],[-13.24277,8.44072,0.0],[-13.24272,8.44046,0.0],[-13.24271,8.4404,0.0],[-13.24259,8.43981,0.0],[-13.24254,8.43957,0.0],[-13.24245,8.43933,0.0],[-13.24216,8.43896,0.0],[-13.24192,8.43874,0.0],[-13.24205,8.43878,0.0],[-13.2425,8.43888,0.0],[-13.2443,8.43898,0.0],[-13.24618,8.43911,0.0],[-13.24779,8.43921,0.0],[-13.24993,8.43927,0.0],[-13.2524,8.43928,0.0],[-13.25368,8.43942,0.0],[-13.25425,8.43952,0.0],[-13.2562,8.43934,0.0],[-13.25652,8.43929,0.0],[-13.25657,8.43928,0.0],[-13.258,8.43906,0.0],[-13.25915,8.43898,0.0],[-13.26024,8.43917,0.0],[-13.26123,8.43946,0.0],[-13.26174,8.43939,0.0],[-13.26169,8.43861,0.0],[-13.26169,8.43837,0.0],[-13.263,8.43869,0.0],[-13.26324,8.43879,0.0],[-13.26353,8.43884,0.0],[-13.26373,8.43882,0.0],[-13.264,8.43866,0.0],[-13.26458,8.4385,0.0],[-13.26511,8.43846,0.0],[-13.26556,8.43847,0.0],[-13.26631,8.43852,0.0],[-13.2668,8.43836,0.0],[-13.26718,8.4382,0.0],[-13.26772,8.43821,0.0],[-13.26843,8.43833,0.0],[-13.26867,8.43857,0.0],[-13.26893,8.43886,0.0],[-13.26922,8.43925,0.0],[-13.26933,8.43943,0.0],[-13.26946,8.43966,0.0],[-13.26953,8.43982,0.0],[-13.2697,8.44018,0.0],[-13.26981,8.44041,0.0],[-13.27001,8.44072,0.0],[-13.27027,8.44109,0.0],[-13.27087,8.44145,0.0],[-13.27098,8.44151,0.0],[-13.2715,8.44169,0.0],[-13.27156,8.44168,0.0],[-13.27177,8.44164,0.0],[-13.27231,8.44153,0.0],[-13.27275,8.44151,0.0],[-13.27319,8.44163,0.0],[-13.27372,8.44179,0.0],[-13.27439,8.442,0.0],[-13.27485,8.4421,0.0],[-13.27555,8.44219,0.0],[-13.27601,8.44229,0.0],[-13.27632,8.44241,0.0],[-13.27694,8.44244,0.0],[-13.27728,8.44236,0.0],[-13.27754,8.44224,0.0],[-13.27779,8.442,0.0],[-13.27784,8.44195,0.0],[-13.27806,8.44174,0.0],[-13.27829,8.44141,0.0],[-13.27847,8.4413,0.0],[-13.27902,8.44121,0.0],[-13.27945,8.44122,0.0],[-13.28,8.44127,0.0],[-13.27993,8.44163,0.0],[-13.27985,8.44249,0.0],[-13.27959,8.44439,0.0],[-13.27965,8.44673,0.0],[-13.27982,8.44848,0.0],[-13.27987,8.44901,0.0],[-13.27996,8.45014,0.0],[-13.28003,8.45089,0.0],[-13.28035,8.45143,0.0],[-13.28053,8.45179,0.0],[-13.28071,8.45204,0.0],[-13.28074,8.45244,0.0],[-13.28078,8.45291,0.0],[-13.28065,8.45299,0.0],[-13.28033,8.45299,0.0],[-13.27996,8.45342,0.0],[-13.27973,8.45329,0.0],[-13.27959,8.45308,0.0],[-13.27941,8.45293,0.0],[-13.27926,8.453,0.0],[-13.27901,8.4534,0.0],[-13.27861,8.4535,0.0],[-13.27857,8.45379,0.0],[-13.27832,8.45422,0.0],[-13.2777,8.45434,0.0],[-13.27791,8.45454,0.0],[-13.27839,8.45501,0.0],[-13.27857,8.45602,0.0],[-13.27898,8.45896,0.0],[-13.27927,8.46053,0.0],[-13.27959,8.46104,0.0],[-13.27973,8.46169,0.0],[-13.28011,8.46279,0.0],[-13.2804,8.4641,0.0],[-13.28058,8.46525,0.0],[-13.28133,8.46719,0.0],[-13.28186,8.46827,0.0],[-13.28229,8.47017,0.0],[-13.28275,8.47179,0.0],[-13.28314,8.47258,0.0],[-13.28357,8.47373,0.0],[-13.28414,8.47484,0.0],[-13.28457,8.47617,0.0],[-13.28492,8.47743,0.0],[-13.28581,8.4793,0.0],[-13.28738,8.48158,0.0],[-13.28805,8.48293,0.0],[-13.28862,8.4844,0.0],[-13.28953,8.4862,0.0],[-13.29024,8.48774,0.0],[-13.29105,8.48904,0.0],[-13.2919,8.49031,0.0],[-13.29259,8.49108,0.0],[-13.29316,8.49178,0.0],[-13.29389,8.49207,0.0],[-13.29438,8.49192,0.0],[-13.29454,8.49187,0.0],[-13.29516,8.49179,0.0],[-13.29585,8.49175,0.0],[-13.29646,8.49212,0.0],[-13.29728,8.49277,0.0],[-13.29768,8.4931,0.0],[-13.29846,8.49375,0.0],[-13.29886,8.49408,0.0],[-13.29894,8.49453,0.0],[-13.29882,8.49485,0.0],[-13.29829,8.49517,0.0],[-13.29808,8.49562,0.0],[-13.298,8.49607,0.0],[-13.29783,8.49643,0.0],[-13.2975,8.49676,0.0],[-13.29742,8.49708,0.0],[-13.29734,8.49733,0.0],[-13.2973,8.49769,0.0],[-13.29726,8.49798,0.0],[-13.29721,8.49842,0.0],[-13.29709,8.49887,0.0],[-13.29708,8.49936,0.0],[-13.29655,8.49936,0.0],[-13.29623,8.49939,0.0],[-13.29582,8.49915,0.0],[-13.29537,8.49874,0.0],[-13.29472,8.49813,0.0],[-13.29428,8.49739,0.0],[-13.29375,8.49707,0.0],[-13.29322,8.49698,0.0],[-13.29277,8.49706,0.0],[-13.29224,8.49699,0.0],[-13.29211,8.49698,0.0],[-13.29181,8.49709,0.0],[-13.29166,8.49714,0.0],[-13.29117,8.4973,0.0],[-13.29089,8.49762,0.0],[-13.29084,8.49811,0.0],[-13.29068,8.49884,0.0],[-13.29022,8.49933,0.0],[-13.28957,8.49965,0.0],[-13.28883,8.49981,0.0],[-13.28806,8.49981,0.0],[-13.28712,8.49972,0.0],[-13.28635,8.49931,0.0],[-13.28586,8.49866,0.0],[-13.28562,8.49805,0.0],[-13.28529,8.49735,0.0]]]]}},{"type":"Feature","properties":{"uesi_id":"SLE_N27565056","nbhd_code":"SLE_N27565056_6","nbhd_name":"West I"},"geometry":{"type":"MultiPolygon","coordinates":[[[[-13.24677,8.49345,0.0],[-13.24669,8.49328,0.0],[-13.2464,8.49313,0.0],[-13.24627,8.49313,0.0],[-13.24608,8.49301,0.0],[-13.24574,8.49288,0.0],[-13.24547,8.49272,0.0],[-13.24522,8.49249,0.0],[-13.24509,8.49245,0.0],[-13.24507,8.49267,0.0],[-13.24547,8.49301,0.0],[-13.24542,8.49311,0.0],[-13.24495,8.49272,0.0],[-13.24497,8.49233,0.0],[-13.24485,8.49225,0.0],[-13.24477,8.49203,0.0],[-13.24461,8.49188,0.0],[-13.24448,8.49173,0.0],[-13.24433,8.49159,0.0],[-13.24418,8.49144,0.0],[-13.24399,8.49135,0.0],[-13.24374,8.49113,0.0],[-13.2435,8.491,0.0],[-13.24332,8.49061,0.0],[-13.24327,8.49051,0.0],[-13.24327,8.49031,0.0],[-13.24325,8.49014,0.0],[-13.2433,8.48992,0.0],[-13.2432,8.48972,0.0],[-13.24302,8.48943,0.0],[-13.24277,8.48919,0.0],[-13.24258,8.48894,0.0],[-13.24236,8.48872,0.0],[-13.24221,8.48858,0.0],[-13.24214,8.48838,0.0],[-13.24206,8.48825,0.0],[-13.24186,8.48808,0.0],[-13.24179,8.48803,0.0],[-13.24175,8.48793,0.0],[-13.24157,8.48793,0.0],[-13.24121,8.48791,0.0],[-13.24087,8.48792,0.0],[-13.2405,8.48786,0.0],[-13.24057,8.48763,0.0],[-13.24064,8.48737,0.0],[-13.2407,8.48723,0.0],[-13.24084,8.48689,0.0],[-13.24074,8.48674,0.0],[-13.24063,8.48643,0.0],[-13.24051,8.48609,0.0],[-13.24044,8.48599,0.0],[-13.24036,8.48581,0.0],[-13.2403,8.4857,0.0],[-13.24016,8.48544,0.0],[-13.24003,8.48518,0.0],[-13.23995,8.48507,0.0],[-13.23985,8.48476,0.0],[-13.23959,8.48433,0.0],[-13.23908,8.4841,0.0],[-13.23873,8.48375,0.0],[-13.23897,8.48344,0.0],[-13.23907,8.48332,0.0],[-13.23916,8.48319,0.0],[-13.23922,8.48314,0.0],[-13.23929,8.48308,0.0],[-13.2399,8.48253,0.0],[-13.24013,8.48227,0.0],[-13.24022,8.48218,0.0],[-13.24004,8.48179,0.0],[-13.23989,8.48147,0.0],[-13.23984,8.48121,0.0],[-13.23981,8.48103,0.0],[-13.2397,8.48077,0.0],[-13.23951,8.48028,0.0],[-13.23948,8.48022,0.0],[-13.23918,8.47962,0.0],[-13.23895,8.47914,0.0],[-13.23986,8.47854,0.0],[-13.24055,8.47817,0.0],[-13.24065,8.4782,0.0],[-13.24093,8.47829,0.0],[-13.24107,8.47835,0.0],[-13.24112,8.47835,0.0],[-13.24143,8.47844,0.0],[-13.24183,8.47856,0.0],[-13.24212,8.47869,0.0],[-13.24254,8.47885,0.0],[-13.2432,8.47911,0.0],[-13.24329,8.47915,0.0],[-13.24335,8.47909,0.0],[-13.24335,8.47901,0.0],[-13.24338,8.47895,0.0],[-13.24345,8.47887,0.0],[-13.2435,8.47882,0.0],[-13.24355,8.47877,0.0],[-13.24352,8.47867,0.0],[-13.24348,8.47856,0.0],[-13.24346,8.4784,0.0],[-13.24343,8.47826,0.0],[-13.24341,8.47815,0.0],[-13.24333,8.47804,0.0],[-13.24323,8.47808,0.0],[-13.24323,8.4779,0.0],[-13.24323,8.47779,0.0],[-13.24325,8.4775,0.0],[-13.24334,8.47717,0.0],[-13.24339,8.47706,0.0],[-13.24346,8.47691,0.0],[-13.24354,8.47682,0.0],[-13.24371,8.4767,0.0],[-13.24393,8.47663,0.0],[-13.24403,8.4766,0.0],[-13.24409,8.47657,0.0],[-13.24423,8.47655,0.0],[-13.2443,8.47652,0.0],[-13.2443,8.47647,0.0],[-13.24467,8.47643,0.0],[-13.24481,8.47639,0.0],[-13.24532,8.47626,0.0],[-13.24587,8.47614,0.0],[-13.24642,8.47595,0.0],[-13.24658,8.47585,0.0],[-13.24674,8.47574,0.0],[-13.2469,8.47567,0.0],[-13.24703,8.47561,0.0],[-13.24711,8.47558,0.0],[-13.24728,8.4753,0.0],[-13.24736,8.47516,0.0],[-13.24751,8.47504,0.0],[-13.24815,8.47442,0.0],[-13.24837,8.47424,0.0],[-13.24842,8.4742,0.0],[-13.24847,8.47417,0.0],[-13.24878,8.47389,0.0],[-13.24911,8.4736,0.0],[-13.24913,8.47352,0.0],[-13.24922,8.47315,0.0],[-13.24929,8.47284,0.0],[-13.24941,8.47261,0.0],[-13.24953,8.47239,0.0],[-13.24969,8.47218,0.0],[-13.24982,8.47206,0.0],[-13.24988,8.472,0.0],[-13.24995,8.47193,0.0],[-13.2501,8.47178,0.0],[-13.2502,8.47169,0.0],[-13.25042,8.47145,0.0],[-13.25058,8.47131,0.0],[-13.25069,8.47122,0.0],[-13.25077,8.47115,0.0],[-13.2509,8.47105,0.0],[-13.25108,8.47106,0.0],[-13.25123,8.47115,0.0],[-13.25111,8.47126,0.0],[-13.25107,8.47129,0.0],[-13.25105,8.47142,0.0],[-13.25104,8.47148,0.0],[-13.25102,8.47156,0.0],[-13.251,8.47171,0.0],[-13.2509,8.47191,0.0],[-13.2509,8.47202,0.0],[-13.2509,8.47209,0.0],[-13.2509,8.47216,0.0],[-13.2508,8.47238,0.0],[-13.25075,8.47249,0.0],[-13.25069,8.47259,0.0],[-13.25059,8.47275,0.0],[-13.25053,8.47285,0.0],[-13.25048,8.47292,0.0],[-13.25043,8.47301,0.0],[-13.25038,8.47309,0.0],[-13.25035,8.47321,0.0],[-13.25033,8.47329,0.0],[-13.25031,8.47342,0.0],[-13.2503,8.47354,0.0],[-13.2503,8.47369,0.0],[-13.25035,8.47393,0.0],[-13.25039,8.47399,0.0],[-13.25058,8.47422,0.0],[-13.25072,8.47441,0.0],[-13.25078,8.4745,0.0],[-13.25084,8.47459,0.0],[-13.25087,8.47464,0.0],[-13.25092,8.4747,0.0],[-13.25104,8.47485,0.0],[-13.25118,8.47502,0.0],[-13.25122,8.47505,0.0],[-13.25129,8.47511,0.0],[-13.25132,8.47516,0.0],[-13.25134,8.47522,0.0],[-13.2514,8.47529,0.0],[-13.25146,8.47537,0.0],[-13.25153,8.4755,0.0],[-13.25162,8.47568,0.0],[-13.25167,8.47579,0.0],[-13.2517,8.47592,0.0],[-13.25172,8.47601,0.0],[-13.25174,8.47611,0.0],[-13.25177,8.47621,0.0],[-13.25175,8.47636,0.0],[-13.25174,8.47646,0.0],[-13.25173,8.47655,0.0],[-13.25172,8.4766,0.0],[-13.2517,8.47666,0.0],[-13.25167,8.47681,0.0],[-13.25165,8.47688,0.0],[-13.2516,8.47699,0.0],[-13.25157,8.47705,0.0],[-13.25153,8.47714,0.0],[-13.2515,8.4772,0.0],[-13.25144,8.4773,0.0],[-13.25139,8.4774,0.0],[-13.25115,8.47783,0.0],[-13.25085,8.47835,0.0],[-13.25078,8.47848,0.0],[-13.25075,8.47855,0.0],[-13.2507,8.47866,0.0],[-13.25071,8.47897,0.0],[-13.25081,8.47929,0.0],[-13.25095,8.47954,0.0],[-13.25108,8.47967,0.0],[-13.25109,8.47978,0.0],[-13.25109,8.47986,0.0],[-13.25109,8.47994,0.0],[-13.25107,8.48011,0.0],[-13.25101,8.48031,0.0],[-13.25092,8.48051,0.0],[-13.25074,8.48071,0.0],[-13.25072,8.48072,0.0],[-13.25083,8.48085,0.0],[-13.25093,8.48096,0.0],[-13.25109,8.48116,0.0],[-13.25114,8.48123,0.0],[-13.25113,8.48145,0.0],[-13.25138,8.48181,0.0],[-13.25134,8.48184,0.0],[-13.2513,8.48188,0.0],[-13.25143,8.48203,0.0],[-13.25158,8.48232,0.0],[-13.25163,8.48251,0.0],[-13.2516,8.48271,0.0],[-13.2515,8.48286,0.0],[-13.25127,8.48309,0.0],[-13.25113,8.48323,0.0],[-13.25103,8.48344,0.0],[-13.25092,8.48345,0.0],[-13.25081,8.48355,0.0],[-13.25077,8.48359,0.0],[-13.25073,8.48363,0.0],[-13.25061,8.48383,0.0],[-13.25059,8.48391,0.0],[-13.25057,8.484,0.0],[-13.25053,8.48423,0.0],[-13.25051,8.48428,0.0],[-13.25046,8.48453,0.0],[-13.25043,8.4846,0.0],[-13.25041,8.48466,0.0],[-13.25044,8.48479,0.0],[-13.25046,8.48487,0.0],[-13.25045,8.48502,0.0],[-13.2504,8.48517,0.0],[-13.25046,8.4852,0.0],[-13.25066,8.48528,0.0],[-13.25098,8.48541,0.0],[-13.25125,8.48558,0.0],[-13.25143,8.48581,0.0],[-13.25154,8.48609,0.0],[-13.25161,8.48635,0.0],[-13.25164,8.48653,0.0],[-13.25163,8.48672,0.0],[-13.2519,8.48673,0.0],[-13.25221,8.48672,0.0],[-13.25261,8.48677,0.0],[-13.2528,8.48699,0.0],[-13.25288,8.48719,0.0],[-13.25304,8.48757,0.0],[-13.25288,8.48789,0.0],[-13.25289,8.48796,0.0],[-13.25292,8.48823,0.0],[-13.25295,8.4887,0.0],[-13.25311,8.4892,0.0],[-13.25303,8.48966,0.0],[-13.25285,8.48994,0.0],[-13.25251,8.49014,0.0],[-13.25226,8.49056,0.0],[-13.25212,8.49098,0.0],[-13.25198,8.49128,0.0],[-13.25168,8.49159,0.0],[-13.25146,8.49187,0.0],[-13.25127,8.49215,0.0],[-13.25074,8.49279,0.0],[-13.25021,8.49303,0.0],[-13.24999,8.4932,0.0],[-13.24951,8.49328,0.0],[-13.24934,8.49336,0.0],[-13.24906,8.4933,0.0],[-13.24887,8.49333,0.0],[-13.2486,8.49336,0.0],[-13.24838,8.49331,0.0],[-13.24819,8.49334,0.0],[-13.24797,8.49337,0.0],[-13.24775,8.49354,0.0],[-13.24721,8.49376,0.0],[-13.24714,8.49372,0.0],[-13.24677,8.49345,0.0]]]]}},{"type":"Feature","properties":{"uesi_id":"SLE_N27565056","nbhd_code":"SLE_N27565056_7","nbhd_name":"West II"},"geometry":{"type":"MultiPolygon","coordinates":[[[[-13.25698,8.48552,0.0],[-13.25685,8.4855,0.0],[-13.25668,8.4855,0.0],[-13.25657,8.4855,0.0],[-13.25641,8.48546,0.0],[-13.25637,8.48535,0.0],[-13.25637,8.4852,0.0],[-13.25641,8.48502,0.0],[-13.25641,8.48493,0.0],[-13.25634,8.48481,0.0],[-13.25627,8.48468,0.0],[-13.25618,8.48451,0.0],[-13.25603,8.48447,0.0],[-13.25599,8.48433,0.0],[-13.2559,8.48433,0.0],[-13.25577,8.48429,0.0],[-13.25555,8.48429,0.0],[-13.25542,8.4843,0.0],[-13.25523,8.48428,0.0],[-13.25502,8.48424,0.0],[-13.25483,8.48425,0.0],[-13.25456,8.48427,0.0],[-13.25435,8.48435,0.0],[-13.25421,8.48446,0.0],[-13.25398,8.48452,0.0],[-13.25379,8.48456,0.0],[-13.25359,8.48463,0.0],[-13.25323,8.48478,0.0],[-13.25304,8.48493,0.0],[-13.25291,8.48497,0.0],[-13.25272,8.48503,0.0],[-13.25258,8.48513,0.0],[-13.25234,8.48517,0.0],[-13.25216,8.48519,0.0],[-13.25203,8.48521,0.0],[-13.2519,8.48508,0.0],[-13.25171,8.48508,0.0],[-13.25152,8.48512,0.0],[-13.25142,8.48512,0.0],[-13.25116,8.48507,0.0],[-13.25081,8.48506,0.0],[-13.25045,8.48502,0.0],[-13.25046,8.48487,0.0],[-13.25044,8.48479,0.0],[-13.25041,8.48466,0.0],[-13.25043,8.4846,0.0],[-13.25046,8.48453,0.0],[-13.25051,8.48428,0.0],[-13.25053,8.48423,0.0],[-13.25057,8.484,0.0],[-13.25059,8.48391,0.0],[-13.25061,8.48383,0.0],[-13.25073,8.48363,0.0],[-13.25077,8.48359,0.0],[-13.25081,8.48355,0.0],[-13.25092,8.48345,0.0],[-13.25103,8.48344,0.0],[-13.25113,8.48323,0.0],[-13.25127,8.48309,0.0],[-13.2515,8.48286,0.0],[-13.2516,8.48271,0.0],[-13.25163,8.48251,0.0],[-13.25158,8.48232,0.0],[-13.25143,8.48203,0.0],[-13.2513,8.48188,0.0],[-13.25134,8.48184,0.0],[-13.25138,8.48181,0.0],[-13.25113,8.48145,0.0],[-13.25114,8.48123,0.0],[-13.25109,8.48116,0.0],[-13.25093,8.48096,0.0],[-13.25083,8.48085,0.0],[-13.25072,8.48072,0.0],[-13.25074,8.48071,0.0],[-13.25092,8.48051,0.0],[-13.25101,8.48031,0.0],[-13.25107,8.48011,0.0],[-13.25109,8.47994,0.0],[-13.25109,8.47986,0.0],[-13.25109,8.47978,0.0],[-13.25108,8.47967,0.0],[-13.25095,8.47954,0.0],[-13.25081,8.47929,0.0],[-13.25071,8.47897,0.0],[-13.2507,8.47866,0.0],[-13.25075,8.47855,0.0],[-13.25078,8.47848,0.0],[-13.25085,8.47835,0.0],[-13.25115,8.47783,0.0],[-13.25139,8.4774,0.0],[-13.25144,8.4773,0.0],[-13.2515,8.4772,0.0],[-13.25153,8.47714,0.0],[-13.25157,8.47705,0.0],[-13.2516,8.47699,0.0],[-13.25165,8.47688,0.0],[-13.25167,8.47681,0.0],[-13.2517,8.47666,0.0],[-13.25172,8.4766,0.0],[-13.25173,8.47655,0.0],[-13.25174,8.47646,0.0],[-13.25175,8.47636,0.0],[-13.25177,8.47621,0.0],[-13.25174,8.47611,0.0],[-13.25172,8.47601,0.0],[-13.2517,8.47592,0.0],[-13.25167,8.47579,0.0],[-13.25162,8.47568,0.0],[-13.25153,8.4755,0.0],[-13.25146,8.47537,0.0],[-13.2514,8.47529,0.0],[-13.25134,8.47522,0.0],[-13.25132,8.47516,0.0],[-13.25129,8.47511,0.0],[-13.25122,8.47505,0.0],[-13.25118,8.47502,0.0],[-13.25104,8.47485,0.0],[-13.25092,8.4747,0.0],[-13.25087,8.47464,0.0],[-13.25084,8.47459,0.0],[-13.25078,8.4745,0.0],[-13.25072,8.47441,0.0],[-13.25058,8.47422,0.0],[-13.25039,8.47399,0.0],[-13.25035,8.47393,0.0],[-13.2503,8.47369,0.0],[-13.2503,8.47354,0.0],[-13.25031,8.47342,0.0],[-13.25033,8.47329,0.0],[-13.25035,8.47321,0.0],[-13.25038,8.47309,0.0],[-13.25043,8.47301,0.0],[-13.25048,8.47292,0.0],[-13.25053,8.47285,0.0],[-13.25059,8.47275,0.0],[-13.25069,8.47259,0.0],[-13.25075,8.47249,0.0],[-13.2508,8.47238,0.0],[-13.2509,8.47216,0.0],[-13.2509,8.47209,0.0],[-13.2509,8.47202,0.0],[-13.2509,8.47191,0.0],[-13.251,8.47171,0.0],[-13.25102,8.47156,0.0],[-13.25104,8.47148,0.0],[-13.25105,8.47142,0.0],[-13.25107,8.47129,0.0],[-13.25111,8.47126,0.0],[-13.25123,8.47115,0.0],[-13.25108,8.47106,0.0],[-13.2509,8.47105,0.0],[-13.25077,8.47115,0.0],[-13.25069,8.47122,0.0],[-13.25058,8.47131,0.0],[-13.25042,8.47145,0.0],[-13.2502,8.47169,0.0],[-13.2501,8.47178,0.0],[-13.24995,8.47193,0.0],[-13.24988,8.472,0.0],[-13.24982,8.47206,0.0],[-13.24969,8.47218,0.0],[-13.24953,8.47239,0.0],[-13.24941,8.47261,0.0],[-13.24929,8.47284,0.0],[-13.24922,8.47315,0.0],[-13.24913,8.47352,0.0],[-13.24911,8.4736,0.0],[-13.24878,8.47389,0.0],[-13.24847,8.47417,0.0],[-13.24842,8.4742,0.0],[-13.24837,8.47424,0.0],[-13.24815,8.47442,0.0],[-13.24751,8.47504,0.0],[-13.24736,8.47516,0.0],[-13.24728,8.4753,0.0],[-13.24711,8.47558,0.0],[-13.24703,8.47561,0.0],[-13.2469,8.47567,0.0],[-13.24674,8.47574,0.0],[-13.24658,8.47585,0.0],[-13.24642,8.47595,0.0],[-13.24587,8.47614,0.0],[-13.24532,8.47626,0.0],[-13.24481,8.47639,0.0],[-13.24467,8.47643,0.0],[-13.2443,8.47647,0.0],[-13.2443,8.47652,0.0],[-13.24423,8.47655,0.0],[-13.24409,8.47657,0.0],[-13.24403,8.4766,0.0],[-13.24393,8.47663,0.0],[-13.24371,8.4767,0.0],[-13.24354,8.47682,0.0],[-13.24346,8.47691,0.0],[-13.24339,8.47706,0.0],[-13.24334,8.47717,0.0],[-13.24325,8.4775,0.0],[-13.24323,8.47779,0.0],[-13.24323,8.4779,0.0],[-13.24323,8.47808,0.0],[-13.24333,8.47804,0.0],[-13.24341,8.47815,0.0],[-13.24343,8.47826,0.0],[-13.24346,8.4784,0.0],[-13.24348,8.47856,0.0],[-13.24352,8.47867,0.0],[-13.24355,8.47877,0.0],[-13.2435,8.47882,0.0],[-13.24345,8.47887,0.0],[-13.24338,8.47895,0.0],[-13.24335,8.47901,0.0],[-13.24335,8.47909,0.0],[-13.24329,8.47915,0.0],[-13.2432,8.47911,0.0],[-13.24254,8.47885,0.0],[-13.24212,8.47869,0.0],[-13.24183,8.47856,0.0],[-13.24143,8.47844,0.0],[-13.24112,8.47835,0.0],[-13.24107,8.47835,0.0],[-13.24093,8.47829,0.0],[-13.24065,8.4782,0.0],[-13.24055,8.47817,0.0],[-13.24023,8.47799,0.0],[-13.23963,8.47777,0.0],[-13.23871,8.47743,0.0],[-13.23851,8.47734,0.0],[-13.23832,8.47727,0.0],[-13.23823,8.47724,0.0],[-13.23806,8.4772,0.0],[-13.23768,8.47708,0.0],[-13.2376,8.47705,0.0],[-13.23737,8.47699,0.0],[-13.23718,8.47692,0.0],[-13.23695,8.47684,0.0],[-13.23673,8.47675,0.0],[-13.23657,8.47671,0.0],[-13.23641,8.47666,0.0],[-13.23634,8.47665,0.0],[-13.23631,8.47669,0.0],[-13.23622,8.47668,0.0],[-13.23608,8.47657,0.0],[-13.23563,8.47646,0.0],[-13.23525,8.47638,0.0],[-13.23491,8.47644,0.0],[-13.23467,8.47652,0.0],[-13.23446,8.47659,0.0],[-13.23419,8.47648,0.0],[-13.23385,8.47627,0.0],[-13.23357,8.47615,0.0],[-13.23333,8.47612,0.0],[-13.23313,8.47613,0.0],[-13.23305,8.47614,0.0],[-13.23293,8.47611,0.0],[-13.23294,8.47592,0.0],[-13.23299,8.47567,0.0],[-13.23297,8.47541,0.0],[-13.23297,8.47534,0.0],[-13.23272,8.47464,0.0],[-13.23264,8.47445,0.0],[-13.23251,8.47414,0.0],[-13.23227,8.47376,0.0],[-13.23218,8.47363,0.0],[-13.23208,8.47347,0.0],[-13.232,8.47336,0.0],[-13.23177,8.47311,0.0],[-13.23157,8.47277,0.0],[-13.23142,8.47251,0.0],[-13.23135,8.4724,0.0],[-13.23107,8.47221,0.0],[-13.23098,8.47214,0.0],[-13.23075,8.47185,0.0],[-13.2306,8.4715,0.0],[-13.23053,8.47134,0.0],[-13.23042,8.47107,0.0],[-13.2302,8.47092,0.0],[-13.22964,8.47083,0.0],[-13.2293,8.47077,0.0],[-13.22867,8.47053,0.0],[-13.22824,8.47032,0.0],[-13.22798,8.47022,0.0],[-13.2275,8.47004,0.0],[-13.22719,8.47001,0.0],[-13.2265,8.46981,0.0],[-13.22613,8.4697,0.0],[-13.22593,8.46961,0.0],[-13.22572,8.46952,0.0],[-13.22527,8.46931,0.0],[-13.22421,8.46878,0.0],[-13.22359,8.46837,0.0],[-13.22336,8.46815,0.0],[-13.22318,8.4678,0.0],[-13.22302,8.46751,0.0],[-13.22292,8.46732,0.0],[-13.22317,8.4672,0.0],[-13.22328,8.46715,0.0],[-13.22374,8.46693,0.0],[-13.22382,8.46689,0.0],[-13.22435,8.46664,0.0],[-13.22454,8.46655,0.0],[-13.2247,8.46645,0.0],[-13.22486,8.46634,0.0],[-13.22574,8.46576,0.0],[-13.22533,8.46543,0.0],[-13.22475,8.46495,0.0],[-13.22434,8.46461,0.0],[-13.22399,8.46432,0.0],[-13.22375,8.46413,0.0],[-13.22363,8.464,0.0],[-13.22355,8.46396,0.0],[-13.22348,8.46391,0.0],[-13.22341,8.46385,0.0],[-13.22273,8.4633,0.0],[-13.22277,8.46289,0.0],[-13.22293,8.46183,0.0],[-13.22325,8.46057,0.0],[-13.22403,8.46002,0.0],[-13.22452,8.45952,0.0],[-13.22522,8.45885,0.0],[-13.22555,8.45854,0.0],[-13.22633,8.45791,0.0],[-13.22662,8.45736,0.0],[-13.22713,8.45694,0.0],[-13.22821,8.45641,0.0],[-13.22855,8.45625,0.0],[-13.22877,8.45614,0.0],[-13.22897,8.45603,0.0],[-13.22937,8.45584,0.0],[-13.22973,8.45565,0.0],[-13.2299,8.45555,0.0],[-13.23024,8.45535,0.0],[-13.23067,8.45511,0.0],[-13.23112,8.45488,0.0],[-13.23141,8.45473,0.0],[-13.23145,8.45471,0.0],[-13.23191,8.45524,0.0],[-13.23211,8.45563,0.0],[-13.23284,8.4561,0.0],[-13.23353,8.45658,0.0],[-13.23365,8.45671,0.0],[-13.23447,8.45727,0.0],[-13.23472,8.45745,0.0],[-13.23544,8.45792,0.0],[-13.2359,8.45827,0.0],[-13.23599,8.45831,0.0],[-13.23646,8.45853,0.0],[-13.23664,8.45865,0.0],[-13.23676,8.45873,0.0],[-13.23683,8.45879,0.0],[-13.23716,8.45901,0.0],[-13.23734,8.45912,0.0],[-13.2381,8.45967,0.0],[-13.23832,8.45982,0.0],[-13.23887,8.46021,0.0],[-13.23928,8.4605,0.0],[-13.23959,8.46071,0.0],[-13.23992,8.46093,0.0],[-13.24009,8.46102,0.0],[-13.24026,8.46115,0.0],[-13.24061,8.46145,0.0],[-13.24084,8.46161,0.0],[-13.24111,8.4618,0.0],[-13.2415,8.46207,0.0],[-13.24155,8.4621,0.0],[-13.24176,8.46226,0.0],[-13.2419,8.46232,0.0],[-13.24211,8.4622,0.0],[-13.24223,8.4621,0.0],[-13.24238,8.46199,0.0],[-13.24246,8.46192,0.0],[-13.24282,8.46162,0.0],[-13.24343,8.46113,0.0],[-13.24355,8.46102,0.0],[-13.24359,8.46099,0.0],[-13.24397,8.46067,0.0],[-13.24405,8.46044,0.0],[-13.24418,8.45999,0.0],[-13.24435,8.46,0.0],[-13.24472,8.46006,0.0],[-13.24503,8.46011,0.0],[-13.24519,8.46017,0.0],[-13.24535,8.46024,0.0],[-13.24578,8.46052,0.0],[-13.24607,8.46028,0.0],[-13.24667,8.46039,0.0],[-13.24692,8.46042,0.0],[-13.24702,8.46044,0.0],[-13.24738,8.4605,0.0],[-13.24788,8.46057,0.0],[-13.24822,8.46068,0.0],[-13.24842,8.46078,0.0],[-13.24857,8.4609,0.0],[-13.24878,8.46114,0.0],[-13.2491,8.46135,0.0],[-13.24956,8.46155,0.0],[-13.24988,8.46162,0.0],[-13.25031,8.46177,0.0],[-13.25061,8.46189,0.0],[-13.25061,8.46217,0.0],[-13.25061,8.46222,0.0],[-13.25064,8.46234,0.0],[-13.25068,8.46245,0.0],[-13.25071,8.4626,0.0],[-13.25077,8.46282,0.0],[-13.25093,8.46305,0.0],[-13.25113,8.46335,0.0],[-13.25116,8.46354,0.0],[-13.25127,8.46374,0.0],[-13.25144,8.46393,0.0],[-13.25168,8.46409,0.0],[-13.25188,8.46428,0.0],[-13.25189,8.46451,0.0],[-13.25192,8.46465,0.0],[-13.25197,8.46476,0.0],[-13.25211,8.46504,0.0],[-13.2521,8.46517,0.0],[-13.25201,8.46522,0.0],[-13.25188,8.46536,0.0],[-13.25181,8.46546,0.0],[-13.25179,8.46565,0.0],[-13.2518,8.4658,0.0],[-13.25183,8.46584,0.0],[-13.25174,8.46605,0.0],[-13.25171,8.46624,0.0],[-13.25171,8.46647,0.0],[-13.2516,8.4666,0.0],[-13.25163,8.4669,0.0],[-13.25177,8.46701,0.0],[-13.25185,8.46709,0.0],[-13.25191,8.46713,0.0],[-13.25217,8.46718,0.0],[-13.25245,8.46723,0.0],[-13.2526,8.46726,0.0],[-13.25288,8.46731,0.0],[-13.25309,8.46735,0.0],[-13.25347,8.46736,0.0],[-13.2536,8.46736,0.0],[-13.25366,8.46733,0.0],[-13.25372,8.46729,0.0],[-13.25387,8.46721,0.0],[-13.25391,8.46717,0.0],[-13.25403,8.46709,0.0],[-13.2541,8.46703,0.0],[-13.2542,8.46695,0.0],[-13.25433,8.46684,0.0],[-13.25447,8.46672,0.0],[-13.25455,8.46671,0.0],[-13.25469,8.46669,0.0],[-13.2548,8.46667,0.0],[-13.25489,8.46663,0.0],[-13.25498,8.46658,0.0],[-13.25514,8.46649,0.0],[-13.25521,8.46649,0.0],[-13.25526,8.46648,0.0],[-13.25533,8.46648,0.0],[-13.25548,8.4664,0.0],[-13.2559,8.46617,0.0],[-13.25608,8.46614,0.0],[-13.2561,8.46623,0.0],[-13.25614,8.46637,0.0],[-13.25603,8.46665,0.0],[-13.25552,8.46713,0.0],[-13.25497,8.46754,0.0],[-13.25424,8.4679,0.0],[-13.25421,8.46807,0.0],[-13.25423,8.46824,0.0],[-13.25425,8.46842,0.0],[-13.25424,8.46858,0.0],[-13.2543,8.46875,0.0],[-13.25437,8.46899,0.0],[-13.25446,8.46922,0.0],[-13.25449,8.46931,0.0],[-13.25466,8.46945,0.0],[-13.25471,8.46952,0.0],[-13.25486,8.46961,0.0],[-13.25492,8.46964,0.0],[-13.25515,8.46976,0.0],[-13.25543,8.46987,0.0],[-13.25549,8.46989,0.0],[-13.25585,8.47003,0.0],[-13.25628,8.47021,0.0],[-13.25655,8.47032,0.0],[-13.25663,8.47034,0.0],[-13.25665,8.4704,0.0],[-13.25667,8.47044,0.0],[-13.25671,8.47057,0.0],[-13.25674,8.47069,0.0],[-13.25679,8.47086,0.0],[-13.25684,8.47104,0.0],[-13.25689,8.47116,0.0],[-13.25692,8.47123,0.0],[-13.25694,8.47127,0.0],[-13.25697,8.47134,0.0],[-13.25701,8.47144,0.0],[-13.25703,8.47149,0.0],[-13.25705,8.47153,0.0],[-13.25708,8.4716,0.0],[-13.25711,8.47169,0.0],[-13.25717,8.47183,0.0],[-13.25729,8.47193,0.0],[-13.25739,8.47203,0.0],[-13.25747,8.47211,0.0],[-13.25755,8.47219,0.0],[-13.25772,8.47227,0.0],[-13.2578,8.4723,0.0],[-13.25787,8.47233,0.0],[-13.25796,8.47235,0.0],[-13.25808,8.47237,0.0],[-13.2582,8.47239,0.0],[-13.25826,8.4724,0.0],[-13.25831,8.47241,0.0],[-13.25836,8.47242,0.0],[-13.25845,8.47244,0.0],[-13.25852,8.47245,0.0],[-13.25856,8.47246,0.0],[-13.25866,8.47247,0.0],[-13.25905,8.47265,0.0],[-13.25909,8.47262,0.0],[-13.25917,8.47257,0.0],[-13.25925,8.47252,0.0],[-13.25937,8.47244,0.0],[-13.25957,8.47231,0.0],[-13.25977,8.47218,0.0],[-13.25989,8.4721,0.0],[-13.25998,8.47206,0.0],[-13.25998,8.4722,0.0],[-13.25998,8.4723,0.0],[-13.25997,8.47241,0.0],[-13.25997,8.47267,0.0],[-13.25997,8.47276,0.0],[-13.25996,8.47305,0.0],[-13.25991,8.47325,0.0],[-13.25983,8.47345,0.0],[-13.25974,8.47356,0.0],[-13.25967,8.47366,0.0],[-13.25964,8.4737,0.0],[-13.2596,8.47375,0.0],[-13.2595,8.47395,0.0],[-13.25947,8.47401,0.0],[-13.25938,8.47415,0.0],[-13.25932,8.47425,0.0],[-13.25923,8.47439,0.0],[-13.25909,8.47461,0.0],[-13.25896,8.47482,0.0],[-13.25884,8.47497,0.0],[-13.25878,8.47504,0.0],[-13.25858,8.47529,0.0],[-13.25832,8.47539,0.0],[-13.25837,8.47551,0.0],[-13.2584,8.47558,0.0],[-13.2584,8.47568,0.0],[-13.25838,8.47596,0.0],[-13.25838,8.47629,0.0],[-13.25838,8.47636,0.0],[-13.25837,8.47642,0.0],[-13.25833,8.47655,0.0],[-13.25831,8.47662,0.0],[-13.2583,8.47676,0.0],[-13.25826,8.47683,0.0],[-13.25824,8.47688,0.0],[-13.25822,8.47693,0.0],[-13.25817,8.47704,0.0],[-13.25808,8.47718,0.0],[-13.25794,8.47741,0.0],[-13.2579,8.47746,0.0],[-13.25775,8.47766,0.0],[-13.25758,8.47801,0.0],[-13.2576,8.47833,0.0],[-13.25759,8.47864,0.0],[-13.25765,8.47903,0.0],[-13.25778,8.47938,0.0],[-13.25801,8.47969,0.0],[-13.25804,8.47974,0.0],[-13.25813,8.47987,0.0],[-13.25821,8.48,0.0],[-13.25834,8.4801,0.0],[-13.25841,8.48015,0.0],[-13.25855,8.48024,0.0],[-13.25873,8.48036,0.0],[-13.25883,8.48042,0.0],[-13.25908,8.4805,0.0],[-13.25915,8.48053,0.0],[-13.25929,8.48058,0.0],[-13.25942,8.48061,0.0],[-13.25958,8.48066,0.0],[-13.25963,8.48084,0.0],[-13.25962,8.48097,0.0],[-13.25961,8.48103,0.0],[-13.25959,8.48128,0.0],[-13.25948,8.48152,0.0],[-13.25946,8.48158,0.0],[-13.2594,8.4817,0.0],[-13.2593,8.48193,0.0],[-13.25921,8.48227,0.0],[-13.2591,8.48259,0.0],[-13.25911,8.48292,0.0],[-13.25881,8.48306,0.0],[-13.25879,8.48322,0.0],[-13.25877,8.48331,0.0],[-13.25879,8.48337,0.0],[-13.25882,8.48345,0.0],[-13.25885,8.48355,0.0],[-13.25888,8.48361,0.0],[-13.25906,8.48391,0.0],[-13.25914,8.48405,0.0],[-13.25947,8.48434,0.0],[-13.2596,8.48446,0.0],[-13.25948,8.48458,0.0],[-13.25932,8.48471,0.0],[-13.2591,8.48494,0.0],[-13.25893,8.48523,0.0],[-13.25867,8.48555,0.0],[-13.25859,8.48576,0.0],[-13.25857,8.48594,0.0],[-13.25857,8.48616,0.0],[-13.25853,8.48627,0.0],[-13.25844,8.48642,0.0],[-13.25829,8.4865,0.0],[-13.2582,8.48659,0.0],[-13.25812,8.48671,0.0],[-13.25812,8.48685,0.0],[-13.25814,8.48701,0.0],[-13.25798,8.48719,0.0],[-13.25786,8.4873,0.0],[-13.25769,8.48741,0.0],[-13.25773,8.48724,0.0],[-13.25768,8.48709,0.0],[-13.25773,8.48698,0.0],[-13.25785,8.48683,0.0],[-13.25795,8.48668,0.0],[-13.25793,8.4865,0.0],[-13.25782,8.48627,0.0],[-13.25781,8.48619,0.0],[-13.25781,8.48608,0.0],[-13.25773,8.48594,0.0],[-13.25756,8.48586,0.0],[-13.2575,8.48583,0.0],[-13.2574,8.48575,0.0],[-13.25722,8.48563,0.0],[-13.25698,8.48552,0.0]]]]}},{"type":"Feature","properties":{"uesi_id":"SLE_N27565056","nbhd_code":"SLE_N27565056_8","nbhd_name":"East III"},"geometry":{"type":"MultiPolygon","coordinates":[[[[-13.20465,8.48576,0.0],[-13.20461,8.4857,0.0],[-13.20449,8.48576,0.0],[-13.20431,8.48558,0.0],[-13.20425,8.48548,0.0],[-13.20401,8.48544,0.0],[-13.20385,8.48544,0.0],[-13.20371,8.48544,0.0],[-13.20361,8.48548,0.0],[-13.20341,8.48555,0.0],[-13.20327,8.48558,0.0],[-13.20306,8.48562,0.0],[-13.20292,8.48568,0.0],[-13.20272,8.48569,0.0],[-13.2026,8.48577,0.0],[-13.20239,8.48572,0.0],[-13.20233,8.48562,0.0],[-13.20237,8.48542,0.0],[-13.20261,8.4851,0.0],[-13.20288,8.48471,0.0],[-13.20312,8.48433,0.0],[-13.20325,8.48381,0.0],[-13.20318,8.4835,0.0],[-13.20319,8.48305,0.0],[-13.20331,8.48285,0.0],[-13.20323,8.48253,0.0],[-13.20307,8.48233,0.0],[-13.20283,8.48215,0.0],[-13.20267,8.48194,0.0],[-13.20259,8.48176,0.0],[-13.20257,8.48171,0.0],[-13.20251,8.48157,0.0],[-13.2022,8.48118,0.0],[-13.202,8.481,0.0],[-13.20178,8.48089,0.0],[-13.20158,8.48086,0.0],[-13.20127,8.48087,0.0],[-13.20116,8.48099,0.0],[-13.20098,8.4811,0.0],[-13.2008,8.48122,0.0],[-13.20074,8.48131,0.0],[-13.2006,8.48139,0.0],[-13.20036,8.48141,0.0],[-13.20012,8.48153,0.0],[-13.20003,8.48163,0.0],[-13.19997,8.48172,0.0],[-13.19969,8.48176,0.0],[-13.19939,8.4818,0.0],[-13.19897,8.48172,0.0],[-13.19848,8.48148,0.0],[-13.19829,8.48118,0.0],[-13.19802,8.48094,0.0],[-13.19766,8.48091,0.0],[-13.19723,8.48074,0.0],[-13.19697,8.48063,0.0],[-13.19653,8.48059,0.0],[-13.19638,8.48074,0.0],[-13.19627,8.48079,0.0],[-13.19608,8.48089,0.0],[-13.19564,8.48104,0.0],[-13.19544,8.48112,0.0],[-13.1955,8.48149,0.0],[-13.1955,8.48176,0.0],[-13.19544,8.48195,0.0],[-13.19516,8.48198,0.0],[-13.19502,8.48189,0.0],[-13.19466,8.48208,0.0],[-13.1943,8.48224,0.0],[-13.19405,8.48241,0.0],[-13.19386,8.48243,0.0],[-13.19361,8.48237,0.0],[-13.19331,8.48212,0.0],[-13.19305,8.48173,0.0],[-13.19288,8.48151,0.0],[-13.19264,8.4813,0.0],[-13.19219,8.48115,0.0],[-13.19174,8.48106,0.0],[-13.19143,8.4809,0.0],[-13.19086,8.48101,0.0],[-13.19018,8.48076,0.0],[-13.18979,8.4808,0.0],[-13.18934,8.4811,0.0],[-13.18897,8.48137,0.0],[-13.18835,8.48184,0.0],[-13.18755,8.4823,0.0],[-13.18713,8.4823,0.0],[-13.18676,8.48221,0.0],[-13.18647,8.48198,0.0],[-13.18625,8.48177,0.0],[-13.18599,8.48162,0.0],[-13.18569,8.48157,0.0],[-13.18552,8.48145,0.0],[-13.1854,8.48123,0.0],[-13.18535,8.48117,0.0],[-13.18511,8.48089,0.0],[-13.18502,8.4806,0.0],[-13.18496,8.48046,0.0],[-13.18499,8.48025,0.0],[-13.18522,8.47983,0.0],[-13.18541,8.47947,0.0],[-13.18541,8.47907,0.0],[-13.18538,8.47887,0.0],[-13.18561,8.47839,0.0],[-13.18588,8.47799,0.0],[-13.186,8.47766,0.0],[-13.18612,8.47738,0.0],[-13.18605,8.47713,0.0],[-13.18585,8.47708,0.0],[-13.18567,8.47722,0.0],[-13.18544,8.47743,0.0],[-13.1851,8.47749,0.0],[-13.18485,8.47754,0.0],[-13.18463,8.47781,0.0],[-13.18444,8.47781,0.0],[-13.18432,8.47781,0.0],[-13.18392,8.47786,0.0],[-13.18346,8.47812,0.0],[-13.18305,8.47831,0.0],[-13.18275,8.47831,0.0],[-13.18233,8.47811,0.0],[-13.18205,8.47794,0.0],[-13.18193,8.47756,0.0],[-13.18181,8.47718,0.0],[-13.18155,8.47679,0.0],[-13.18119,8.47639,0.0],[-13.18096,8.47603,0.0],[-13.18089,8.47574,0.0],[-13.18086,8.47528,0.0],[-13.18066,8.47493,0.0],[-13.1802,8.47442,0.0],[-13.17984,8.47399,0.0],[-13.17953,8.47369,0.0],[-13.17929,8.47343,0.0],[-13.17896,8.47321,0.0],[-13.17866,8.47303,0.0],[-13.17851,8.47293,0.0],[-13.17839,8.47286,0.0],[-13.17793,8.47259,0.0],[-13.17772,8.47236,0.0],[-13.17758,8.47222,0.0],[-13.17704,8.47173,0.0],[-13.17697,8.47166,0.0],[-13.17648,8.47123,0.0],[-13.17642,8.47118,0.0],[-13.17606,8.47086,0.0],[-13.17601,8.47081,0.0],[-13.17569,8.47055,0.0],[-13.17516,8.4703,0.0],[-13.17453,8.46994,0.0],[-13.17436,8.46983,0.0],[-13.17408,8.46967,0.0],[-13.1739,8.46937,0.0],[-13.17382,8.46917,0.0],[-13.17353,8.46905,0.0],[-13.17335,8.46889,0.0],[-13.17328,8.4688,0.0],[-13.17309,8.46855,0.0],[-13.17279,8.46813,0.0],[-13.17251,8.46799,0.0],[-13.17202,8.46766,0.0],[-13.17191,8.46744,0.0],[-13.17188,8.46739,0.0],[-13.17156,8.46691,0.0],[-13.17148,8.4668,0.0],[-13.17139,8.46667,0.0],[-13.17118,8.46628,0.0],[-13.17099,8.46587,0.0],[-13.1709,8.4654,0.0],[-13.1709,8.46502,0.0],[-13.17101,8.4647,0.0],[-13.17109,8.46457,0.0],[-13.17122,8.46421,0.0],[-13.17126,8.46413,0.0],[-13.17137,8.4639,0.0],[-13.17132,8.46386,0.0],[-13.17125,8.4638,0.0],[-13.17119,8.46375,0.0],[-13.17108,8.46371,0.0],[-13.17097,8.46371,0.0],[-13.17083,8.46353,0.0],[-13.17076,8.4635,0.0],[-13.17059,8.46334,0.0],[-13.16997,8.46292,0.0],[-13.16992,8.46287,0.0],[-13.16954,8.46251,0.0],[-13.16933,8.46226,0.0],[-13.16923,8.46193,0.0],[-13.16923,8.46157,0.0],[-13.16924,8.46131,0.0],[-13.16926,8.46105,0.0],[-13.16926,8.46074,0.0],[-13.1692,8.46046,0.0],[-13.16914,8.46019,0.0],[-13.16913,8.45998,0.0],[-13.16908,8.45993,0.0],[-13.16895,8.45984,0.0],[-13.16885,8.45974,0.0],[-13.16873,8.45953,0.0],[-13.1687,8.45935,0.0],[-13.1688,8.45918,0.0],[-13.16883,8.45906,0.0],[-13.169,8.45893,0.0],[-13.16905,8.45875,0.0],[-13.16892,8.45863,0.0],[-13.16879,8.45864,0.0],[-13.16873,8.45879,0.0],[-13.16863,8.45892,0.0],[-13.16828,8.45876,0.0],[-13.16812,8.45876,0.0],[-13.168,8.45871,0.0],[-13.16797,8.45859,0.0],[-13.1679,8.45852,0.0],[-13.16782,8.45843,0.0],[-13.16763,8.45842,0.0],[-13.16733,8.45823,0.0],[-13.16727,8.45802,0.0],[-13.16696,8.45784,0.0],[-13.16692,8.45766,0.0],[-13.16669,8.4574,0.0],[-13.16665,8.45724,0.0],[-13.16669,8.45713,0.0],[-13.16674,8.45698,0.0],[-13.16672,8.45685,0.0],[-13.16647,8.45687,0.0],[-13.16642,8.45697,0.0],[-13.16632,8.45706,0.0],[-13.16634,8.45682,0.0],[-13.16605,8.45694,0.0],[-13.16592,8.45679,0.0],[-13.16588,8.45641,0.0],[-13.16589,8.45612,0.0],[-13.1658,8.4561,0.0],[-13.16571,8.45607,0.0],[-13.16542,8.45634,0.0],[-13.16517,8.45648,0.0],[-13.16503,8.45648,0.0],[-13.16467,8.45646,0.0],[-13.1644,8.45645,0.0],[-13.16407,8.45637,0.0],[-13.16385,8.45612,0.0],[-13.16339,8.45611,0.0],[-13.16309,8.45604,0.0],[-13.16262,8.4559,0.0],[-13.16232,8.45582,0.0],[-13.16206,8.45557,0.0],[-13.16175,8.45533,0.0],[-13.16149,8.45519,0.0],[-13.16136,8.45513,0.0],[-13.16113,8.45505,0.0],[-13.16085,8.45497,0.0],[-13.1606,8.45492,0.0],[-13.16042,8.45464,0.0],[-13.16003,8.45449,0.0],[-13.15985,8.45432,0.0],[-13.1595,8.45409,0.0],[-13.15933,8.45401,0.0],[-13.15911,8.45391,0.0],[-13.15886,8.4537,0.0],[-13.15877,8.45338,0.0],[-13.15868,8.45304,0.0],[-13.15882,8.45288,0.0],[-13.1588,8.4527,0.0],[-13.15879,8.45264,0.0],[-13.15869,8.45237,0.0],[-13.15837,8.45249,0.0],[-13.15801,8.45228,0.0],[-13.15791,8.45204,0.0],[-13.15768,8.45168,0.0],[-13.15743,8.45132,0.0],[-13.15724,8.45117,0.0],[-13.15701,8.45097,0.0],[-13.15685,8.45061,0.0],[-13.1567,8.45034,0.0],[-13.15644,8.45011,0.0],[-13.15612,8.44973,0.0],[-13.15606,8.44962,0.0],[-13.15596,8.44941,0.0],[-13.15568,8.44911,0.0],[-13.1554,8.44888,0.0],[-13.15535,8.4485,0.0],[-13.15534,8.44833,0.0],[-13.15552,8.44809,0.0],[-13.15565,8.44773,0.0],[-13.15545,8.44783,0.0],[-13.1553,8.448,0.0],[-13.15512,8.448,0.0],[-13.15477,8.44792,0.0],[-13.15469,8.44765,0.0],[-13.15472,8.44725,0.0],[-13.15474,8.44682,0.0],[-13.15467,8.44653,0.0],[-13.15463,8.44624,0.0],[-13.15452,8.44597,0.0],[-13.15448,8.44578,0.0],[-13.15445,8.44568,0.0],[-13.15438,8.44548,0.0],[-13.15404,8.44541,0.0],[-13.15375,8.44536,0.0],[-13.15366,8.445,0.0],[-13.15332,8.44476,0.0],[-13.15329,8.44454,0.0],[-13.15294,8.44434,0.0],[-13.1528,8.44405,0.0],[-13.15273,8.44381,0.0],[-13.15263,8.4435,0.0],[-13.15264,8.4432,0.0],[-13.15265,8.44299,0.0],[-13.15274,8.44287,0.0],[-13.15295,8.44304,0.0],[-13.15323,8.44319,0.0],[-13.15328,8.4431,0.0],[-13.15317,8.44304,0.0],[-13.15301,8.44295,0.0],[-13.15317,8.44279,0.0],[-13.15303,8.44268,0.0],[-13.15285,8.4425,0.0],[-13.15272,8.44218,0.0],[-13.15245,8.44199,0.0],[-13.15228,8.44188,0.0],[-13.15209,8.44137,0.0],[-13.15198,8.44114,0.0],[-13.15165,8.44069,0.0],[-13.15153,8.44038,0.0],[-13.15149,8.44004,0.0],[-13.15148,8.43998,0.0],[-13.15131,8.43964,0.0],[-13.151,8.4391,0.0],[-13.15096,8.43903,0.0],[-13.15076,8.43868,0.0],[-13.15066,8.43838,0.0],[-13.15053,8.43819,0.0],[-13.1506,8.43799,0.0],[-13.15088,8.43787,0.0],[-13.15116,8.43784,0.0],[-13.15145,8.43778,0.0],[-13.15136,8.43771,0.0],[-13.15097,8.43764,0.0],[-13.15064,8.4377,0.0],[-13.15038,8.43757,0.0],[-13.15063,8.43718,0.0],[-13.1506,8.43703,0.0],[-13.15027,8.4372,0.0],[-13.14998,8.43703,0.0],[-13.14974,8.43668,0.0],[-13.1496,8.4365,0.0],[-13.14956,8.4362,0.0],[-13.14955,8.43594,0.0],[-13.14955,8.43563,0.0],[-13.14941,8.43569,0.0],[-13.14927,8.43576,0.0],[-13.14914,8.43563,0.0],[-13.14903,8.43544,0.0],[-13.14897,8.43536,0.0],[-13.14884,8.43518,0.0],[-13.14861,8.43494,0.0],[-13.14851,8.43479,0.0],[-13.14832,8.43453,0.0],[-13.14817,8.43425,0.0],[-13.14805,8.43407,0.0],[-13.14779,8.4339,0.0],[-13.14763,8.4336,0.0],[-13.14759,8.43352,0.0],[-13.1475,8.43335,0.0],[-13.14722,8.43323,0.0],[-13.14691,8.43292,0.0],[-13.14679,8.43281,0.0],[-13.14676,8.43278,0.0],[-13.14655,8.4325,0.0],[-13.14641,8.43224,0.0],[-13.14622,8.43213,0.0],[-13.14592,8.43201,0.0],[-13.14557,8.43177,0.0],[-13.1455,8.43159,0.0],[-13.14517,8.43132,0.0],[-13.14487,8.43094,0.0],[-13.14457,8.43072,0.0],[-13.14397,8.43052,0.0],[-13.14381,8.43034,0.0],[-13.14379,8.43012,0.0],[-13.14363,8.43,0.0],[-13.14329,8.42984,0.0],[-13.14307,8.42973,0.0],[-13.14283,8.42951,0.0],[-13.14272,8.42932,0.0],[-13.14266,8.42907,0.0],[-13.14258,8.42879,0.0],[-13.14259,8.42864,0.0],[-13.14279,8.42853,0.0],[-13.14316,8.42839,0.0],[-13.14329,8.42827,0.0],[-13.14331,8.42809,0.0],[-13.14336,8.42796,0.0],[-13.1433,8.42782,0.0],[-13.14305,8.4275,0.0],[-13.14282,8.42749,0.0],[-13.14265,8.42739,0.0],[-13.14233,8.42737,0.0],[-13.14208,8.42733,0.0],[-13.14186,8.42732,0.0],[-13.14173,8.42725,0.0],[-13.1416,8.42706,0.0],[-13.14149,8.42708,0.0],[-13.14142,8.42709,0.0],[-13.1411,8.42716,0.0],[-13.14098,8.42708,0.0],[-13.14082,8.42679,0.0],[-13.14081,8.4266,0.0],[-13.14044,8.42632,0.0],[-13.14036,8.42614,0.0],[-13.14021,8.42602,0.0],[-13.1401,8.42621,0.0],[-13.13978,8.42628,0.0],[-13.13958,8.42626,0.0],[-13.13943,8.42626,0.0],[-13.1392,8.42626,0.0],[-13.13902,8.42617,0.0],[-13.13877,8.42595,0.0],[-13.13848,8.42598,0.0],[-13.13828,8.42592,0.0],[-13.13817,8.42575,0.0],[-13.13799,8.4257,0.0],[-13.13774,8.42558,0.0],[-13.13763,8.42565,0.0],[-13.13752,8.42566,0.0],[-13.13756,8.42553,0.0],[-13.13749,8.42546,0.0],[-13.13735,8.4254,0.0],[-13.13724,8.42547,0.0],[-13.13718,8.42553,0.0],[-13.13703,8.42549,0.0],[-13.13694,8.4255,0.0],[-13.13685,8.42537,0.0],[-13.13702,8.42531,0.0],[-13.13696,8.42514,0.0],[-13.13691,8.42506,0.0],[-13.13684,8.42495,0.0],[-13.13664,8.4249,0.0],[-13.13645,8.42502,0.0],[-13.13652,8.42517,0.0],[-13.13666,8.42517,0.0],[-13.13669,8.42531,0.0],[-13.13648,8.42536,0.0],[-13.13628,8.42526,0.0],[-13.13616,8.42515,0.0],[-13.13597,8.42508,0.0],[-13.13568,8.42507,0.0],[-13.13533,8.42503,0.0],[-13.13519,8.42493,0.0],[-13.13509,8.42472,0.0],[-13.13502,8.42484,0.0],[-13.13501,8.42493,0.0],[-13.13485,8.425,0.0],[-13.13465,8.42508,0.0],[-13.13449,8.42503,0.0],[-13.13437,8.42516,0.0],[-13.13422,8.42517,0.0],[-13.13412,8.42535,0.0],[-13.13394,8.42537,0.0],[-13.13378,8.42535,0.0],[-13.13376,8.42522,0.0],[-13.13368,8.42527,0.0],[-13.1337,8.42539,0.0],[-13.13376,8.42549,0.0],[-13.1337,8.4256,0.0],[-13.13354,8.42562,0.0],[-13.13341,8.42566,0.0],[-13.13335,8.4257,0.0],[-13.13333,8.42579,0.0],[-13.13325,8.42591,0.0],[-13.13309,8.42583,0.0],[-13.13292,8.42573,0.0],[-13.13279,8.42567,0.0],[-13.13276,8.42579,0.0],[-13.13275,8.4259,0.0],[-13.13269,8.42594,0.0],[-13.13274,8.42604,0.0],[-13.13272,8.4264,0.0],[-13.13262,8.42634,0.0],[-13.13256,8.42647,0.0],[-13.13254,8.42655,0.0],[-13.13261,8.42668,0.0],[-13.13235,8.42694,0.0],[-13.13212,8.42708,0.0],[-13.13196,8.4272,0.0],[-13.13163,8.4274,0.0],[-13.13123,8.42691,0.0],[-13.13108,8.42673,0.0],[-13.13076,8.42643,0.0],[-13.13079,8.42623,0.0],[-13.13067,8.42623,0.0],[-13.13062,8.42607,0.0],[-13.13057,8.42602,0.0],[-13.13055,8.42589,0.0],[-13.13051,8.42572,0.0],[-13.13049,8.42553,0.0],[-13.13036,8.42532,0.0],[-13.1302,8.4252,0.0],[-13.12998,8.42511,0.0],[-13.12992,8.42482,0.0],[-13.12986,8.42445,0.0],[-13.12956,8.42373,0.0],[-13.1294,8.42339,0.0],[-13.12915,8.42289,0.0],[-13.12894,8.42239,0.0],[-13.1288,8.42198,0.0],[-13.12827,8.42136,0.0],[-13.12767,8.42078,0.0],[-13.12718,8.42052,0.0],[-13.12678,8.42033,0.0],[-13.12657,8.42007,0.0],[-13.12632,8.41974,0.0],[-13.12612,8.41926,0.0],[-13.12625,8.4189,0.0],[-13.12647,8.41844,0.0],[-13.12696,8.41815,0.0],[-13.12729,8.41808,0.0],[-13.12768,8.41812,0.0],[-13.12798,8.41809,0.0],[-13.12823,8.41811,0.0],[-13.12869,8.4182,0.0],[-13.12921,8.41836,0.0],[-13.12938,8.41863,0.0],[-13.12978,8.41896,0.0],[-13.13017,8.41917,0.0],[-13.13063,8.41931,0.0],[-13.13149,8.41938,0.0],[-13.13224,8.41943,0.0],[-13.13311,8.41922,0.0],[-13.1336,8.419,0.0],[-13.13379,8.4189,0.0],[-13.13401,8.41872,0.0],[-13.13396,8.41847,0.0],[-13.1338,8.41836,0.0],[-13.13369,8.4183,0.0],[-13.13382,8.41781,0.0],[-13.13366,8.41708,0.0],[-13.13332,8.4168,0.0],[-13.1327,8.41635,0.0],[-13.1321,8.41604,0.0],[-13.13169,8.41561,0.0],[-13.13161,8.41535,0.0],[-13.13163,8.41495,0.0],[-13.13191,8.4145,0.0],[-13.13256,8.41406,0.0],[-13.13336,8.41341,0.0],[-13.13373,8.41289,0.0],[-13.13423,8.4127,0.0],[-13.13437,8.41275,0.0],[-13.13487,8.41323,0.0],[-13.13511,8.41368,0.0],[-13.13532,8.41464,0.0],[-13.13551,8.41502,0.0],[-13.1359,8.41541,0.0],[-13.13629,8.41556,0.0],[-13.13674,8.41544,0.0],[-13.13717,8.41504,0.0],[-13.13757,8.41439,0.0],[-13.1379,8.4137,0.0],[-13.13856,8.41303,0.0],[-13.13918,8.41258,0.0],[-13.14015,8.41156,0.0],[-13.14062,8.41079,0.0],[-13.14085,8.40979,0.0],[-13.1406,8.40914,0.0],[-13.14011,8.4086,0.0],[-13.14009,8.40855,0.0],[-13.13953,8.40794,0.0],[-13.13785,8.4065,0.0],[-13.13735,8.40604,0.0],[-13.13711,8.40563,0.0],[-13.13714,8.40511,0.0],[-13.13733,8.40499,0.0],[-13.13769,8.40468,0.0],[-13.13825,8.40454,0.0],[-13.13897,8.40423,0.0],[-13.13957,8.40354,0.0],[-13.14016,8.40237,0.0],[-13.14081,8.40115,0.0],[-13.14098,8.40027,0.0],[-13.14114,8.39988,0.0],[-13.14123,8.39965,0.0],[-13.14176,8.39927,0.0],[-13.14233,8.39936,0.0],[-13.14291,8.39922,0.0],[-13.14351,8.39932,0.0],[-13.14422,8.39934,0.0],[-13.14447,8.39935,0.0],[-13.14494,8.39908,0.0],[-13.14569,8.39863,0.0],[-13.14617,8.39832,0.0],[-13.14665,8.39806,0.0],[-13.14699,8.39813,0.0],[-13.14775,8.39837,0.0],[-13.14846,8.39863,0.0],[-13.14877,8.39863,0.0],[-13.14937,8.39832,0.0],[-13.14956,8.39821,0.0],[-13.14986,8.39804,0.0],[-13.15043,8.39828,0.0],[-13.15113,8.39862,0.0],[-13.15158,8.39886,0.0],[-13.15187,8.39886,0.0],[-13.15264,8.3991,0.0],[-13.15324,8.39965,0.0],[-13.15408,8.3998,0.0],[-13.15475,8.3994,0.0],[-13.15554,8.39957,0.0],[-13.15614,8.39988,0.0],[-13.15674,8.40044,0.0],[-13.15736,8.40051,0.0],[-13.15831,8.40038,0.0],[-13.15884,8.4006,0.0],[-13.15913,8.40063,0.0],[-13.15973,8.4008,0.0],[-13.1605,8.40126,0.0],[-13.16126,8.40131,0.0],[-13.16191,8.40122,0.0],[-13.16235,8.40122,0.0],[-13.16263,8.40165,0.0],[-13.16248,8.40222,0.0],[-13.16227,8.40284,0.0],[-13.16231,8.40354,0.0],[-13.16264,8.40404,0.0],[-13.16329,8.4044,0.0],[-13.16418,8.40446,0.0],[-13.16492,8.40439,0.0],[-13.16497,8.4044,0.0],[-13.16537,8.40464,0.0],[-13.16582,8.40488,0.0],[-13.16647,8.40517,0.0],[-13.16688,8.40517,0.0],[-13.16717,8.40534,0.0],[-13.16721,8.40568,0.0],[-13.16721,8.40601,0.0],[-13.16709,8.40627,0.0],[-13.16704,8.40661,0.0],[-13.16716,8.40694,0.0],[-13.16836,8.40721,0.0],[-13.16905,8.40738,0.0],[-13.16946,8.40763,0.0],[-13.1697,8.40803,0.0],[-13.16972,8.40846,0.0],[-13.16996,8.40911,0.0],[-13.17037,8.40904,0.0],[-13.17078,8.40859,0.0],[-13.17133,8.40811,0.0],[-13.17204,8.4081,0.0],[-13.17208,8.40814,0.0],[-13.17262,8.40837,0.0],[-13.17315,8.40875,0.0],[-13.1736,8.40909,0.0],[-13.17418,8.40937,0.0],[-13.17451,8.40973,0.0],[-13.1746,8.41005,0.0],[-13.17465,8.41036,0.0],[-13.17495,8.41051,0.0],[-13.1752,8.41059,0.0],[-13.17553,8.41062,0.0],[-13.17577,8.41062,0.0],[-13.17613,8.41074,0.0],[-13.17617,8.41095,0.0],[-13.17614,8.41106,0.0],[-13.17614,8.41134,0.0],[-13.1762,8.41145,0.0],[-13.17624,8.41173,0.0],[-13.17647,8.41219,0.0],[-13.17757,8.41279,0.0],[-13.17844,8.41339,0.0],[-13.17913,8.41385,0.0],[-13.17935,8.41624,0.0],[-13.17938,8.41789,0.0],[-13.17939,8.41797,0.0],[-13.17943,8.41862,0.0],[-13.17961,8.41926,0.0],[-13.17969,8.4205,0.0],[-13.17983,8.4213,0.0],[-13.17987,8.4216,0.0],[-13.17991,8.42289,0.0],[-13.17982,8.42417,0.0],[-13.17949,8.4255,0.0],[-13.17915,8.42606,0.0],[-13.17882,8.42669,0.0],[-13.18061,8.42891,0.0],[-13.18192,8.43053,0.0],[-13.18239,8.43112,0.0],[-13.18479,8.43413,0.0],[-13.1856,8.43507,0.0],[-13.18789,8.43773,0.0],[-13.18807,8.43788,0.0],[-13.18971,8.43921,0.0],[-13.19041,8.43978,0.0],[-13.19154,8.44133,0.0],[-13.19303,8.44338,0.0],[-13.19379,8.44433,0.0],[-13.19421,8.44486,0.0],[-13.19429,8.44497,0.0],[-13.19626,8.44746,0.0],[-13.19769,8.44974,0.0],[-13.19856,8.45116,0.0],[-13.20037,8.45412,0.0],[-13.20089,8.45431,0.0],[-13.20155,8.45461,0.0],[-13.20281,8.4552,0.0],[-13.2044,8.4568,0.0],[-13.20508,8.45749,0.0],[-13.20749,8.45984,0.0],[-13.20774,8.46004,0.0],[-13.20837,8.46087,0.0],[-13.2086,8.46126,0.0],[-13.20907,8.46237,0.0],[-13.20912,8.46265,0.0],[-13.2096,8.46353,0.0],[-13.20986,8.46405,0.0],[-13.20987,8.4644,0.0],[-13.2103,8.46523,0.0],[-13.21042,8.46569,0.0],[-13.21046,8.46582,0.0],[-13.21057,8.4662,0.0],[-13.21064,8.46676,0.0],[-13.21063,8.46704,0.0],[-13.21071,8.46714,0.0],[-13.21101,8.46766,0.0],[-13.21114,8.46788,0.0],[-13.21117,8.46804,0.0],[-13.2112,8.46822,0.0],[-13.21121,8.46847,0.0],[-13.21143,8.46867,0.0],[-13.21164,8.46881,0.0],[-13.21164,8.46901,0.0],[-13.2116,8.46913,0.0],[-13.21155,8.46929,0.0],[-13.21157,8.46939,0.0],[-13.21156,8.4695,0.0],[-13.21161,8.46961,0.0],[-13.21165,8.46973,0.0],[-13.21162,8.46988,0.0],[-13.21161,8.47002,0.0],[-13.21168,8.47015,0.0],[-13.21166,8.47027,0.0],[-13.21163,8.47043,0.0],[-13.21163,8.47062,0.0],[-13.21169,8.47094,0.0],[-13.21165,8.47106,0.0],[-13.2117,8.47118,0.0],[-13.21178,8.47131,0.0],[-13.21177,8.47148,0.0],[-13.2117,8.4716,0.0],[-13.21161,8.47172,0.0],[-13.21157,8.47183,0.0],[-13.2115,8.47201,0.0],[-13.21141,8.47231,0.0],[-13.21138,8.47239,0.0],[-13.21122,8.4724,0.0],[-13.2112,8.4725,0.0],[-13.21115,8.47259,0.0],[-13.21115,8.47268,0.0],[-13.21115,8.47283,0.0],[-13.21112,8.47294,0.0],[-13.2111,8.47303,0.0],[-13.21098,8.47311,0.0],[-13.2109,8.47319,0.0],[-13.21081,8.47327,0.0],[-13.21068,8.47333,0.0],[-13.21067,8.47344,0.0],[-13.21064,8.47355,0.0],[-13.21052,8.47369,0.0],[-13.21048,8.47373,0.0],[-13.21031,8.47391,0.0],[-13.21027,8.47401,0.0],[-13.21019,8.4742,0.0],[-13.21015,8.47443,0.0],[-13.21006,8.47452,0.0],[-13.21002,8.47457,0.0],[-13.20992,8.47466,0.0],[-13.2099,8.47474,0.0],[-13.20985,8.47486,0.0],[-13.20982,8.47495,0.0],[-13.20971,8.47505,0.0],[-13.20971,8.47514,0.0],[-13.20963,8.47523,0.0],[-13.20948,8.47543,0.0],[-13.20932,8.47553,0.0],[-13.20911,8.47557,0.0],[-13.20905,8.47562,0.0],[-13.20909,8.47568,0.0],[-13.20913,8.47576,0.0],[-13.20921,8.47586,0.0],[-13.20927,8.47596,0.0],[-13.20936,8.47608,0.0],[-13.20951,8.47621,0.0],[-13.20967,8.47623,0.0],[-13.2098,8.47608,0.0],[-13.20991,8.47613,0.0],[-13.21017,8.47626,0.0],[-13.21028,8.47639,0.0],[-13.21039,8.47665,0.0],[-13.21043,8.47684,0.0],[-13.21042,8.477,0.0],[-13.21037,8.47713,0.0],[-13.2103,8.4774,0.0],[-13.21028,8.47767,0.0],[-13.21013,8.47782,0.0],[-13.21001,8.47798,0.0],[-13.20998,8.47802,0.0],[-13.20974,8.47822,0.0],[-13.2097,8.4783,0.0],[-13.2097,8.47838,0.0],[-13.21007,8.47854,0.0],[-13.21027,8.4786,0.0],[-13.21032,8.47876,0.0],[-13.21042,8.47893,0.0],[-13.21026,8.47904,0.0],[-13.21008,8.479,0.0],[-13.20995,8.47897,0.0],[-13.20974,8.47897,0.0],[-13.20958,8.47907,0.0],[-13.20942,8.47918,0.0],[-13.20923,8.47935,0.0],[-13.20921,8.47945,0.0],[-13.20941,8.4796,0.0],[-13.20943,8.47962,0.0],[-13.20959,8.47973,0.0],[-13.20978,8.47983,0.0],[-13.20978,8.47995,0.0],[-13.2097,8.48026,0.0],[-13.20967,8.48055,0.0],[-13.20952,8.4807,0.0],[-13.20964,8.48078,0.0],[-13.2097,8.48088,0.0],[-13.2097,8.48095,0.0],[-13.20968,8.48106,0.0],[-13.20963,8.48121,0.0],[-13.20955,8.48144,0.0],[-13.20963,8.48163,0.0],[-13.20969,8.48181,0.0],[-13.20967,8.48199,0.0],[-13.20959,8.4823,0.0],[-13.20951,8.48252,0.0],[-13.20959,8.48264,0.0],[-13.2097,8.48287,0.0],[-13.20966,8.48298,0.0],[-13.20959,8.48312,0.0],[-13.20944,8.48326,0.0],[-13.20931,8.48336,0.0],[-13.20923,8.48346,0.0],[-13.20918,8.48353,0.0],[-13.20899,8.48364,0.0],[-13.20874,8.48378,0.0],[-13.20867,8.48382,0.0],[-13.20846,8.48392,0.0],[-13.20828,8.48403,0.0],[-13.20799,8.48423,0.0],[-13.20792,8.48431,0.0],[-13.20787,8.48438,0.0],[-13.20782,8.48449,0.0],[-13.20779,8.48464,0.0],[-13.20779,8.48475,0.0],[-13.20779,8.4849,0.0],[-13.20773,8.48506,0.0],[-13.20766,8.48524,0.0],[-13.20752,8.48541,0.0],[-13.20741,8.48555,0.0],[-13.20725,8.48567,0.0],[-13.20703,8.48535,0.0],[-13.2069,8.48527,0.0],[-13.2068,8.48519,0.0],[-13.20668,8.48515,0.0],[-13.2066,8.48511,0.0],[-13.20626,8.48492,0.0],[-13.20621,8.48481,0.0],[-13.20612,8.48479,0.0],[-13.20598,8.48487,0.0],[-13.20591,8.48493,0.0],[-13.20585,8.48501,0.0],[-13.20579,8.48525,0.0],[-13.20575,8.48541,0.0],[-13.20562,8.48549,0.0],[-13.20555,8.48564,0.0],[-13.20538,8.48583,0.0],[-13.20513,8.48586,0.0],[-13.20491,8.48576,0.0],[-13.20465,8.48576,0.0]]]]}}]}