{"type":"FeatureCollection","name":"SLV_R6462027","crs":{"type":"name","properties":{"name":"urn:ogc:def:crs:OGC:1.3:CRS84"}},"features":[{"type":"Feature","properties":{"nbhd_name":"Distrito Municipal 5","uesi_id":"SLV_R6462027","nbhd_code":"SLV_R6462027_2"},"geometry":{"type":"MultiPolygon","coordinates":[[[[-89.21307,13.67012],[-89.21283,13.67113],[-89.21284,13.67139],[-89.21284,13.67139],[-89.21275,13.67145],[-89.21257,13.67164],[-89.21247,13.6719],[-89.21223,13.67215],[-89.21203,13.67239],[-89.21194,13.67258],[-89.21192,13.6727],[-89.21182,13.67289],[-89.21172,13.67303],[-89.21149,13.67325],[-89.21117,13.67359],[-89.21104,13.67373],[-89.21086,13.67382],[-89.21073,13.67379],[-89.21041,13.67356],[-89.21019,13.67346],[-89.20995,13.67337],[-89.20968,13.67335],[-89.20952,13.67332],[-89.2094,13.6732],[-89.20932,13.67308],[-89.20909,13.67308],[-89.20897,13.67313],[-89.20888,13.67325],[-89.20866,13.67338],[-89.20852,13.67343],[-89.20838,13.67343],[-89.20821,13.67351],[-89.208,13.67354],[-89.2077,13.6735],[-89.20747,13.67351],[-89.20728,13.67355],[-89.20709,13.67363],[-89.20689,13.67369],[-89.20675,13.67368],[-89.20645,13.67356],[-89.20622,13.6735],[-89.20592,13.67348],[-89.20569,13.67351],[-89.20551,13.67361],[-89.20532,13.67373],[-89.20517,13.67378],[-89.20504,13.67381],[-89.2049,13.6738],[-89.20472,13.67383],[-89.20465,13.67382],[-89.20465,13.67382],[-89.20464,13.674],[-89.2046,13.67461],[-89.2043,13.67481],[-89.20445,13.67496],[-89.20461,13.67512],[-89.2048,13.67532],[-89.20554,13.67613],[-89.20836,13.67881],[-89.20862,13.67899],[-89.20901,13.67915],[-89.20934,13.67925],[-89.20956,13.67929],[-89.20975,13.67932],[-89.20995,13.67932],[-89.21022,13.67929],[-89.21057,13.67921],[-89.21075,13.67916],[-89.21098,13.6791],[-89.21129,13.67903],[-89.2116,13.679],[-89.2116,13.679],[-89.21173,13.67901],[-89.21199,13.67905],[-89.2122,13.6791],[-89.21243,13.67918],[-89.21268,13.67928],[-89.21289,13.6794],[-89.21323,13.67964],[-89.21366,13.67996],[-89.21366,13.67996],[-89.21413,13.68037],[-89.21413,13.68037],[-89.21485,13.68092],[-89.21485,13.68092],[-89.21527,13.68123],[-89.21545,13.68134],[-89.21545,13.68134],[-89.21655,13.68221],[-89.21691,13.68252],[-89.21748,13.68297],[-89.21757,13.68304],[-89.21757,13.68304],[-89.21764,13.68314],[-89.21769,13.68322],[-89.21774,13.68331],[-89.21777,13.68339],[-89.21777,13.68342],[-89.2178,13.68351],[-89.21783,13.68362],[-89.21785,13.68374],[-89.21785,13.68374],[-89.21786,13.68383],[-89.21786,13.68418],[-89.21786,13.68433],[-89.21787,13.68452],[-89.21787,13.68459],[-89.21786,13.68465],[-89.21786,13.68474],[-89.21786,13.68479],[-89.21786,13.68479],[-89.21784,13.68487],[-89.21775,13.68527],[-89.21774,13.68535],[-89.21773,13.68542],[-89.21767,13.68589],[-89.21762,13.68635],[-89.2176,13.68656],[-89.2176,13.68656],[-89.21739,13.68889],[-89.21739,13.68889],[-89.21738,13.68895],[-89.21738,13.68895],[-89.21737,13.68918],[-89.21736,13.68926],[-89.21735,13.68939],[-89.21733,13.68952],[-89.2173,13.6897],[-89.21726,13.68989],[-89.21725,13.68994],[-89.21722,13.69006],[-89.21715,13.69036],[-89.21712,13.69047],[-89.2171,13.69058],[-89.21706,13.69079],[-89.21704,13.69083],[-89.21703,13.6909],[-89.21702,13.69098],[-89.21701,13.69109],[-89.217,13.69121],[-89.21696,13.69167],[-89.21696,13.69167],[-89.21689,13.6926],[-89.21685,13.69303],[-89.21685,13.69303],[-89.2168,13.69361],[-89.2168,13.69361],[-89.2167,13.69467],[-89.2167,13.69467],[-89.21654,13.69473],[-89.21649,13.69476],[-89.21638,13.69482],[-89.21634,13.69483],[-89.21628,13.69484],[-89.21622,13.69483],[-89.21616,13.69483],[-89.21608,13.69486],[-89.216,13.69491],[-89.21597,13.69493],[-89.21593,13.69495],[-89.21589,13.69496],[-89.21584,13.69496],[-89.21579,13.69494],[-89.21574,13.69491],[-89.21558,13.69479],[-89.21553,13.69476],[-89.21553,13.69476],[-89.21498,13.69444],[-89.21447,13.6942],[-89.21447,13.6942],[-89.21445,13.69419],[-89.21426,13.69413],[-89.21413,13.69411],[-89.21406,13.6941],[-89.21403,13.6941],[-89.21403,13.6941],[-89.21399,13.6941],[-89.21393,13.69412],[-89.21389,13.69414],[-89.21385,13.69419],[-89.21383,13.69425],[-89.21382,13.69432],[-89.21379,13.69441],[-89.21378,13.69443],[-89.21378,13.69443],[-89.21375,13.69449],[-89.21369,13.69458],[-89.21363,13.69466],[-89.21363,13.69466],[-89.21357,13.69473],[-89.21352,13.69477],[-89.21346,13.6948],[-89.21312,13.69491],[-89.21275,13.695],[-89.21253,13.695],[-89.2121,13.69498],[-89.21178,13.69527],[-89.21174,13.69528],[-89.21174,13.69528],[-89.21127,13.69533],[-89.21047,13.69575],[-89.21015,13.69586],[-89.20964,13.69567],[-89.20898,13.69588],[-89.20801,13.69554],[-89.20747,13.69565],[-89.20708,13.69566],[-89.20708,13.69566],[-89.2066,13.6958],[-89.20569,13.69646],[-89.2054,13.69658],[-89.2054,13.69658],[-89.20519,13.69669],[-89.20519,13.69669],[-89.20531,13.69546],[-89.20533,13.6952],[-89.20551,13.69332],[-89.20551,13.69332],[-89.20555,13.69289],[-89.20556,13.69278],[-89.20556,13.69276],[-89.20556,13.69258],[-89.20556,13.69258],[-89.20434,13.69285],[-89.20425,13.69287],[-89.20418,13.69289],[-89.20412,13.69289],[-89.20406,13.6929],[-89.20401,13.6929],[-89.20396,13.6929],[-89.20392,13.6929],[-89.20387,13.6929],[-89.20383,13.69289],[-89.20301,13.69282],[-89.20301,13.69282],[-89.20207,13.69274],[-89.20199,13.69273],[-89.2019,13.69272],[-89.20181,13.69271],[-89.20172,13.69269],[-89.20168,13.69268],[-89.20164,13.69267],[-89.20074,13.69245],[-89.20071,13.69245],[-89.20071,13.69245],[-89.20066,13.69244],[-89.20066,13.69244],[-89.20058,13.69243],[-89.19992,13.69235],[-89.19992,13.69235],[-89.19971,13.69233],[-89.19971,13.69233],[-89.19958,13.69231],[-89.19866,13.69223],[-89.19824,13.69218],[-89.19775,13.69214],[-89.19742,13.6921],[-89.19678,13.69203],[-89.19678,13.69203],[-89.19617,13.69197],[-89.19617,13.69197],[-89.19611,13.69197],[-89.19602,13.69197],[-89.19592,13.69197],[-89.19577,13.69199],[-89.19563,13.69202],[-89.19563,13.69202],[-89.19553,13.69204],[-89.19541,13.69205],[-89.19527,13.69206],[-89.19514,13.69205],[-89.19501,13.69205],[-89.19501,13.69205],[-89.19467,13.69203],[-89.19467,13.69203],[-89.19451,13.69204],[-89.19439,13.69204],[-89.19427,13.69205],[-89.19341,13.69217],[-89.19341,13.69217],[-89.19315,13.69221],[-89.19308,13.69221],[-89.19245,13.69228],[-89.19241,13.69229],[-89.19179,13.69239],[-89.19176,13.6924],[-89.1917,13.69242],[-89.19163,13.69244],[-89.19146,13.69252],[-89.1914,13.69255],[-89.19131,13.6926],[-89.19112,13.69271],[-89.19107,13.69273],[-89.19107,13.69273],[-89.19102,13.69275],[-89.19097,13.69277],[-89.1909,13.6928],[-89.19079,13.69284],[-89.19053,13.6929],[-89.19032,13.69293],[-89.18775,13.69339],[-89.18762,13.69342],[-89.18762,13.69342],[-89.18728,13.6935],[-89.18709,13.69355],[-89.187,13.6936],[-89.18682,13.69372],[-89.18658,13.69389],[-89.18649,13.69399],[-89.186,13.69451],[-89.186,13.69451],[-89.18584,13.69468],[-89.18584,13.69468],[-89.18573,13.69468],[-89.18564,13.69468],[-89.18553,13.6947],[-89.18543,13.69472],[-89.18533,13.69476],[-89.18517,13.69484],[-89.18506,13.69488],[-89.18491,13.69492],[-89.18483,13.69495],[-89.18475,13.69499],[-89.18453,13.69505],[-89.18439,13.69509],[-89.18424,13.69511],[-89.18413,13.69513],[-89.18399,13.69513],[-89.18394,13.69513],[-89.18391,13.69513],[-89.18389,13.69512],[-89.18386,13.69511],[-89.18383,13.69509],[-89.18379,13.69508],[-89.18376,13.69507],[-89.18373,13.69508],[-89.18371,13.69508],[-89.18368,13.69507],[-89.18363,13.69506],[-89.18353,13.69502],[-89.18349,13.69501],[-89.18343,13.69498],[-89.1834,13.69496],[-89.18336,13.69494],[-89.18324,13.69487],[-89.18319,13.69485],[-89.18316,13.69485],[-89.18316,13.69485],[-89.18312,13.69485],[-89.18307,13.69483],[-89.18304,13.69481],[-89.18301,13.69473],[-89.18298,13.6947],[-89.18295,13.69469],[-89.18294,13.69469],[-89.18292,13.69469],[-89.1829,13.6947],[-89.18288,13.6947],[-89.18286,13.69468],[-89.18285,13.69464],[-89.18282,13.69457],[-89.18279,13.69448],[-89.18274,13.69431],[-89.18271,13.69423],[-89.18268,13.69408],[-89.18261,13.69393],[-89.18259,13.69391],[-89.18255,13.69388],[-89.1825,13.69386],[-89.18248,13.69384],[-89.18247,13.69381],[-89.18247,13.69377],[-89.18248,13.69374],[-89.18252,13.69372],[-89.18256,13.69369],[-89.18259,13.69367],[-89.18259,13.69364],[-89.18261,13.69337],[-89.18262,13.69303],[-89.18267,13.69269],[-89.18276,13.69225],[-89.18291,13.69152],[-89.18303,13.69102],[-89.18303,13.69102],[-89.18305,13.69083],[-89.18307,13.69062],[-89.18304,13.69035],[-89.18296,13.69012],[-89.18283,13.68991],[-89.18271,13.68974],[-89.18253,13.68967],[-89.18235,13.68966],[-89.18219,13.68972],[-89.18188,13.68997],[-89.18163,13.69029],[-89.18134,13.69066],[-89.18089,13.69113],[-89.1805,13.6914],[-89.18009,13.69163],[-89.17977,13.69168],[-89.17959,13.69164],[-89.17929,13.69147],[-89.17883,13.69109],[-89.17854,13.69083],[-89.17837,13.69075],[-89.17824,13.69073],[-89.17812,13.69079],[-89.17805,13.69091],[-89.17805,13.69107],[-89.17811,13.69121],[-89.17811,13.69121],[-89.17796,13.69156],[-89.17796,13.69156],[-89.17779,13.69165],[-89.17776,13.69167],[-89.17773,13.69169],[-89.17735,13.69199],[-89.17727,13.69205],[-89.17719,13.6921],[-89.17706,13.69218],[-89.1769,13.69229],[-89.17684,13.69232],[-89.1768,13.69235],[-89.17675,13.69237],[-89.17668,13.6924],[-89.17661,13.69242],[-89.17656,13.69244],[-89.17651,13.69245],[-89.17638,13.69248],[-89.1763,13.6925],[-89.17589,13.69258],[-89.17572,13.69262],[-89.17554,13.69266],[-89.17532,13.69272],[-89.17488,13.69287],[-89.17474,13.69292],[-89.17458,13.69298],[-89.17417,13.69315],[-89.17404,13.6932],[-89.17393,13.69324],[-89.17378,13.69328],[-89.17365,13.69331],[-89.17348,13.69335],[-89.1733,13.69337],[-89.17315,13.69338],[-89.17297,13.69338],[-89.17279,13.69338],[-89.17263,13.69336],[-89.17249,13.69333],[-89.17193,13.69316],[-89.17148,13.69307],[-89.17148,13.69307],[-89.17149,13.69303],[-89.17165,13.69295],[-89.17168,13.69277],[-89.17168,13.69277],[-89.1716,13.69276],[-89.17135,13.69266],[-89.17109,13.69247],[-89.17068,13.69215],[-89.17068,13.69215],[-89.17088,13.6917],[-89.17081,13.69169],[-89.17077,13.69148],[-89.1706,13.69131],[-89.17067,13.69124],[-89.17056,13.69111],[-89.17047,13.69118],[-89.17013,13.69081],[-89.17007,13.6908],[-89.17021,13.69037],[-89.17022,13.69025],[-89.17022,13.69009],[-89.17014,13.68975],[-89.17007,13.68959],[-89.16972,13.68975],[-89.16949,13.68982],[-89.16884,13.68987],[-89.16891,13.68895],[-89.1684,13.68894],[-89.16821,13.68893],[-89.16665,13.68872],[-89.16637,13.68782],[-89.1659,13.68777],[-89.16575,13.68774],[-89.16534,13.68761],[-89.16499,13.68746],[-89.1646,13.68727],[-89.16465,13.6871],[-89.16398,13.68686],[-89.16467,13.68433],[-89.16516,13.68448],[-89.16492,13.6836],[-89.16491,13.68331],[-89.16541,13.67998],[-89.16541,13.67998],[-89.17377,13.67404],[-89.1801,13.67123],[-89.1801,13.67123],[-89.18759,13.6679],[-89.18851,13.66822],[-89.18867,13.66827],[-89.18883,13.66831],[-89.18893,13.66832],[-89.18909,13.66832],[-89.18927,13.6683],[-89.18961,13.66826],[-89.19016,13.66791],[-89.19048,13.66788],[-89.19048,13.66788],[-89.19039,13.66706],[-89.19023,13.66617],[-89.18941,13.66057],[-89.18941,13.66057],[-89.18992,13.66025],[-89.18992,13.66025],[-89.19003,13.66019],[-89.19006,13.66013],[-89.19017,13.65991],[-89.19041,13.65937],[-89.19043,13.65931],[-89.1904,13.65921],[-89.19034,13.65899],[-89.19022,13.65888],[-89.19018,13.65884],[-89.19017,13.65878],[-89.19021,13.65874],[-89.19035,13.65853],[-89.19043,13.65845],[-89.19062,13.65828],[-89.19088,13.6582],[-89.19115,13.65819],[-89.19133,13.65825],[-89.19141,13.65827],[-89.19151,13.65826],[-89.19157,13.65823],[-89.19168,13.65805],[-89.19176,13.65801],[-89.19181,13.65798],[-89.19186,13.65795],[-89.19196,13.65781],[-89.19202,13.65767],[-89.19208,13.65765],[-89.19218,13.65768],[-89.19231,13.65766],[-89.19254,13.65753],[-89.1926,13.65718],[-89.1927,13.6571],[-89.19274,13.65684],[-89.19282,13.65608],[-89.19299,13.65563],[-89.19353,13.65528],[-89.19363,13.65515],[-89.19378,13.6548],[-89.19385,13.65465],[-89.19443,13.65395],[-89.19449,13.6539],[-89.19457,13.65388],[-89.19474,13.65384],[-89.19491,13.65377],[-89.19501,13.65371],[-89.1952,13.65357],[-89.19553,13.65296],[-89.19588,13.65152],[-89.19601,13.65115],[-89.19601,13.65115],[-89.19595,13.65086],[-89.1959,13.65068],[-89.19584,13.6505],[-89.19576,13.65023],[-89.19566,13.64994],[-89.19548,13.64962],[-89.19534,13.64936],[-89.19527,13.64924],[-89.1952,13.64905],[-89.19518,13.64899],[-89.19511,13.6488],[-89.19505,13.64868],[-89.19501,13.64862],[-89.19497,13.64857],[-89.19478,13.64844],[-89.19473,13.64841],[-89.19457,13.64831],[-89.19431,13.64812],[-89.19405,13.6479],[-89.19383,13.64777],[-89.19348,13.6476],[-89.19312,13.64747],[-89.19289,13.64738],[-89.19279,13.64735],[-89.19273,13.64734],[-89.19267,13.64733],[-89.19262,13.64733],[-89.19254,13.64732],[-89.19245,13.64732],[-89.19236,13.64733],[-89.19227,13.64735],[-89.19199,13.64743],[-89.19191,13.64749],[-89.19183,13.64755],[-89.19167,13.64768],[-89.19123,13.64808],[-89.19057,13.64871],[-89.19045,13.6488],[-89.19035,13.6489],[-89.19025,13.64895],[-89.19019,13.64899],[-89.19014,13.64902],[-89.19009,13.64903],[-89.19003,13.64904],[-89.18998,13.64904],[-89.18992,13.64905],[-89.18987,13.64905],[-89.1898,13.64903],[-89.18973,13.64902],[-89.18967,13.649],[-89.18963,13.64898],[-89.18959,13.64896],[-89.18954,13.64892],[-89.18936,13.64863],[-89.18919,13.64837],[-89.18914,13.64828],[-89.18895,13.64799],[-89.18891,13.64793],[-89.18883,13.64773],[-89.18877,13.64757],[-89.18873,13.64745],[-89.1887,13.64737],[-89.18866,13.64729],[-89.18861,13.64722],[-89.18856,13.64712],[-89.18848,13.64699],[-89.18832,13.64677],[-89.18825,13.64666],[-89.18797,13.64627],[-89.18787,13.64613],[-89.18781,13.64604],[-89.18777,13.646],[-89.18777,13.646],[-89.18776,13.64589],[-89.18774,13.64583],[-89.18774,13.64578],[-89.18774,13.64572],[-89.18773,13.64563],[-89.18773,13.64563],[-89.18774,13.64552],[-89.18775,13.64544],[-89.18777,13.64528],[-89.18782,13.64491],[-89.18787,13.64462],[-89.18787,13.64453],[-89.18787,13.6444],[-89.18784,13.64405],[-89.18782,13.64397],[-89.18777,13.64385],[-89.18773,13.64371],[-89.18768,13.64358],[-89.18746,13.64316],[-89.18738,13.643],[-89.1873,13.64287],[-89.18724,13.64278],[-89.1872,13.6427],[-89.18715,13.64249],[-89.18713,13.64239],[-89.18712,13.64226],[-89.18709,13.64192],[-89.18709,13.64185],[-89.18709,13.64185],[-89.18703,13.64176],[-89.18702,13.6417],[-89.18701,13.64162],[-89.187,13.64153],[-89.187,13.64148],[-89.18701,13.64143],[-89.18702,13.64139],[-89.18704,13.64129],[-89.18711,13.64122],[-89.18711,13.64122],[-89.18713,13.64113],[-89.18725,13.63988],[-89.18737,13.6384],[-89.18742,13.638],[-89.18744,13.63785],[-89.18745,13.63776],[-89.18748,13.63768],[-89.18749,13.63764],[-89.18771,13.6371],[-89.18776,13.63701],[-89.18781,13.63692],[-89.1879,13.6368],[-89.18794,13.63673],[-89.18803,13.63664],[-89.1881,13.63658],[-89.18812,13.63653],[-89.18813,13.63647],[-89.18813,13.6364],[-89.18813,13.63632],[-89.18808,13.63612],[-89.18806,13.63597],[-89.18803,13.63583],[-89.18803,13.63573],[-89.18803,13.63566],[-89.18803,13.63558],[-89.18819,13.63514],[-89.18822,13.63506],[-89.18825,13.635],[-89.18831,13.63484],[-89.18842,13.63457],[-89.18849,13.63438],[-89.18858,13.63427],[-89.18871,13.63414],[-89.18885,13.63402],[-89.18912,13.63382],[-89.18918,13.63377],[-89.18922,13.63372],[-89.18925,13.63367],[-89.18929,13.63352],[-89.18929,13.63352],[-89.18933,13.63346],[-89.18934,13.63341],[-89.18934,13.63338],[-89.18934,13.63334],[-89.18925,13.633],[-89.18925,13.63296],[-89.18925,13.63292],[-89.18925,13.63279],[-89.18925,13.63275],[-89.18928,13.6327],[-89.18929,13.63267],[-89.1894,13.63262],[-89.1894,13.63262],[-89.18962,13.63299],[-89.19044,13.63389],[-89.1913,13.63431],[-89.19205,13.63426],[-89.19357,13.6344],[-89.1944,13.63447],[-89.19549,13.63492],[-89.19576,13.63514],[-89.19593,13.63492],[-89.19611,13.63482],[-89.1963,13.63485],[-89.19652,13.63507],[-89.19789,13.63748],[-89.19822,13.63751],[-89.19833,13.63756],[-89.19878,13.63802],[-89.1992,13.63869],[-89.20038,13.63939],[-89.20145,13.63983],[-89.20202,13.64059],[-89.20213,13.64071],[-89.20248,13.64075],[-89.2031,13.64071],[-89.20411,13.64085],[-89.20411,13.64085],[-89.20398,13.64094],[-89.20391,13.64114],[-89.2039,13.64147],[-89.2039,13.64177],[-89.2038,13.64215],[-89.20371,13.64227],[-89.20338,13.64237],[-89.20316,13.64245],[-89.20306,13.64232],[-89.2028,13.64252],[-89.20261,13.64278],[-89.20238,13.64296],[-89.20237,13.64323],[-89.20251,13.64333],[-89.20243,13.64349],[-89.20225,13.64361],[-89.20217,13.64385],[-89.20206,13.64407],[-89.20188,13.64426],[-89.20171,13.64448],[-89.20171,13.64448],[-89.20248,13.64474],[-89.20276,13.64595],[-89.20313,13.64611],[-89.20293,13.64641],[-89.20329,13.64674],[-89.20329,13.64674],[-89.20393,13.64959],[-89.20447,13.65033],[-89.20506,13.65071],[-89.20661,13.65283],[-89.20698,13.65334],[-89.2075,13.65411],[-89.20733,13.65525],[-89.20733,13.65525],[-89.20726,13.6553],[-89.20714,13.65534],[-89.20686,13.65543],[-89.20675,13.65545],[-89.20669,13.65553],[-89.20667,13.65561],[-89.20665,13.65573],[-89.2066,13.65589],[-89.2065,13.656],[-89.20594,13.65628],[-89.20573,13.65645],[-89.20557,13.65664],[-89.20545,13.65694],[-89.20506,13.65733],[-89.20491,13.6574],[-89.20454,13.65745],[-89.20446,13.65749],[-89.20428,13.65776],[-89.20403,13.65807],[-89.20393,13.65818],[-89.20378,13.65833],[-89.20361,13.6586],[-89.20356,13.65868],[-89.20357,13.65874],[-89.2038,13.6592],[-89.20382,13.65925],[-89.20377,13.65928],[-89.20338,13.65946],[-89.2033,13.65952],[-89.2033,13.65952],[-89.20329,13.65961],[-89.2033,13.65973],[-89.20338,13.65995],[-89.20358,13.66036],[-89.20364,13.6605],[-89.2037,13.66056],[-89.20379,13.66058],[-89.20386,13.66057],[-89.20393,13.66053],[-89.20405,13.66046],[-89.20415,13.66044],[-89.20432,13.66046],[-89.20448,13.66046],[-89.20465,13.6605],[-89.2048,13.66057],[-89.20489,13.66066],[-89.20508,13.66093],[-89.20514,13.66098],[-89.2052,13.66102],[-89.2054,13.66113],[-89.20544,13.6612],[-89.20545,13.66128],[-89.20544,13.66136],[-89.20547,13.66145],[-89.20558,13.66161],[-89.20573,13.6617],[-89.20591,13.66177],[-89.20599,13.66183],[-89.20605,13.66198],[-89.20611,13.66203],[-89.20616,13.66203],[-89.20621,13.66199],[-89.20628,13.66196],[-89.20639,13.66191],[-89.20663,13.66185],[-89.20711,13.66187],[-89.20729,13.66191],[-89.20729,13.66191],[-89.20735,13.66195],[-89.20741,13.662],[-89.20743,13.66206],[-89.20741,13.66216],[-89.20735,13.66226],[-89.20737,13.66232],[-89.20745,13.66237],[-89.20762,13.6624],[-89.20769,13.66243],[-89.20773,13.66246],[-89.20786,13.66265],[-89.2079,13.6628],[-89.20793,13.66334],[-89.20788,13.66359],[-89.20776,13.66379],[-89.20744,13.66411],[-89.20731,13.66427],[-89.20722,13.66441],[-89.20717,13.66461],[-89.20717,13.66461],[-89.20688,13.66465],[-89.20643,13.66483],[-89.20695,13.66651],[-89.20695,13.66651],[-89.20729,13.6675],[-89.20782,13.66763],[-89.20807,13.66784],[-89.20805,13.66838],[-89.20752,13.66889],[-89.20758,13.66916],[-89.20766,13.6695],[-89.20767,13.66952],[-89.20787,13.66984],[-89.2091,13.66992],[-89.21024,13.6697],[-89.21035,13.6697],[-89.2113,13.66996],[-89.21198,13.67061],[-89.21207,13.67055],[-89.21307,13.67012]]]]}},{"type":"Feature","properties":{"nbhd_name":"Distrito Municipal 2","uesi_id":"SLV_R6462027","nbhd_code":"SLV_R6462027_3"},"geometry":{"type":"MultiPolygon","coordinates":[[[[-89.20542,13.72033],[-89.20555,13.72018],[-89.20565,13.72004],[-89.2057,13.7199],[-89.20573,13.71976],[-89.20576,13.71953],[-89.20582,13.71878],[-89.20586,13.71837],[-89.20592,13.71785],[-89.20598,13.71726],[-89.20604,13.7166],[-89.20604,13.7166],[-89.20614,13.71572],[-89.20616,13.71533],[-89.20616,13.71528],[-89.20615,13.71524],[-89.20614,13.71521],[-89.20613,13.71519],[-89.20612,13.71517],[-89.20609,13.71514],[-89.20606,13.71512],[-89.20604,13.71511],[-89.20599,13.71509],[-89.20595,13.71507],[-89.20585,13.71504],[-89.20585,13.71504],[-89.20535,13.7151],[-89.20527,13.71512],[-89.20522,13.71513],[-89.20512,13.71515],[-89.20473,13.71527],[-89.20433,13.71539],[-89.20433,13.71539],[-89.20419,13.71542],[-89.20406,13.71544],[-89.20396,13.71545],[-89.2038,13.71544],[-89.2037,13.7154],[-89.20364,13.71536],[-89.20361,13.71534],[-89.20361,13.71534],[-89.20358,13.7153],[-89.20352,13.71524],[-89.20348,13.71518],[-89.20348,13.71513],[-89.20346,13.71507],[-89.20346,13.71499],[-89.20345,13.71486],[-89.20345,13.71476],[-89.20377,13.71141],[-89.20381,13.71104],[-89.20372,13.711],[-89.2036,13.71088],[-89.20354,13.71078],[-89.20354,13.71072],[-89.20354,13.71072],[-89.20356,13.71067],[-89.2036,13.71057],[-89.20364,13.71053],[-89.20368,13.7105],[-89.20375,13.71047],[-89.20382,13.71045],[-89.20387,13.71045],[-89.20387,13.71045],[-89.20418,13.70722],[-89.20418,13.70722],[-89.20437,13.70526],[-89.20437,13.70526],[-89.20464,13.70251],[-89.20464,13.70251],[-89.20465,13.70229],[-89.20493,13.69955],[-89.20493,13.69955],[-89.20499,13.69871],[-89.20509,13.69772],[-89.20509,13.69772],[-89.20519,13.69669],[-89.20519,13.69669],[-89.2054,13.69658],[-89.2054,13.69658],[-89.20569,13.69646],[-89.2066,13.6958],[-89.20708,13.69566],[-89.20708,13.69566],[-89.20747,13.69565],[-89.20801,13.69554],[-89.20898,13.69588],[-89.20964,13.69567],[-89.21015,13.69586],[-89.21047,13.69575],[-89.21127,13.69533],[-89.21174,13.69528],[-89.21174,13.69528],[-89.21178,13.69527],[-89.2121,13.69498],[-89.21253,13.695],[-89.21275,13.695],[-89.21312,13.69491],[-89.21346,13.6948],[-89.21352,13.69477],[-89.21357,13.69473],[-89.21363,13.69466],[-89.21363,13.69466],[-89.21369,13.69458],[-89.21375,13.69449],[-89.21378,13.69443],[-89.21378,13.69443],[-89.21379,13.69441],[-89.21382,13.69432],[-89.21383,13.69425],[-89.21385,13.69419],[-89.21389,13.69414],[-89.21393,13.69412],[-89.21399,13.6941],[-89.21403,13.6941],[-89.21403,13.6941],[-89.21406,13.6941],[-89.21413,13.69411],[-89.21426,13.69413],[-89.21445,13.69419],[-89.21447,13.6942],[-89.21447,13.6942],[-89.21498,13.69444],[-89.21553,13.69476],[-89.21553,13.69476],[-89.21558,13.69479],[-89.21574,13.69491],[-89.21579,13.69494],[-89.21584,13.69496],[-89.21589,13.69496],[-89.21593,13.69495],[-89.21597,13.69493],[-89.216,13.69491],[-89.21608,13.69486],[-89.21616,13.69483],[-89.21622,13.69483],[-89.21628,13.69484],[-89.21634,13.69483],[-89.21638,13.69482],[-89.21649,13.69476],[-89.21654,13.69473],[-89.2167,13.69467],[-89.2167,13.69467],[-89.21692,13.69456],[-89.21706,13.69452],[-89.21719,13.69448],[-89.21752,13.6944],[-89.21759,13.69439],[-89.21767,13.69439],[-89.21775,13.69441],[-89.21779,13.69444],[-89.21782,13.69447],[-89.21793,13.69461],[-89.21796,13.69466],[-89.21812,13.69484],[-89.2182,13.69491],[-89.21826,13.69496],[-89.21832,13.69498],[-89.21843,13.695],[-89.2185,13.69501],[-89.21854,13.69501],[-89.21854,13.69501],[-89.2186,13.695],[-89.21867,13.69498],[-89.21875,13.69493],[-89.21882,13.69487],[-89.21894,13.69478],[-89.21898,13.69476],[-89.21902,13.69476],[-89.21906,13.69478],[-89.21909,13.69481],[-89.21915,13.69485],[-89.21925,13.69488],[-89.21935,13.69489],[-89.21943,13.69489],[-89.21947,13.69488],[-89.21953,13.69487],[-89.21959,13.69485],[-89.2197,13.69483],[-89.21982,13.69483],[-89.2199,13.69486],[-89.21994,13.69488],[-89.21997,13.69492],[-89.21998,13.69496],[-89.21996,13.69502],[-89.21995,13.69507],[-89.21982,13.69524],[-89.21977,13.69529],[-89.21975,13.69537],[-89.21974,13.69543],[-89.21975,13.69548],[-89.21975,13.69548],[-89.21977,13.69553],[-89.21983,13.69557],[-89.21989,13.69561],[-89.21992,13.69561],[-89.21996,13.69561],[-89.22001,13.69558],[-89.22007,13.69553],[-89.22021,13.69539],[-89.22027,13.69536],[-89.22035,13.69533],[-89.22047,13.69531],[-89.22057,13.69531],[-89.22094,13.69537],[-89.22098,13.69538],[-89.22101,13.6954],[-89.22104,13.69543],[-89.22104,13.69543],[-89.22105,13.69546],[-89.22107,13.69551],[-89.22108,13.69557],[-89.2211,13.69566],[-89.22114,13.69573],[-89.22116,13.69575],[-89.22153,13.69594],[-89.2218,13.69573],[-89.22185,13.6954],[-89.22211,13.69527],[-89.22237,13.69546],[-89.22292,13.69552],[-89.2232,13.69531],[-89.22352,13.69502],[-89.22407,13.69503],[-89.22407,13.69503],[-89.22443,13.69598],[-89.22498,13.69612],[-89.22498,13.69612],[-89.22601,13.69594],[-89.22632,13.69597],[-89.22647,13.69611],[-89.22662,13.69632],[-89.22675,13.69655],[-89.22691,13.69681],[-89.2272,13.69671],[-89.22757,13.69649],[-89.22772,13.6965],[-89.22772,13.6965],[-89.22783,13.6965],[-89.22783,13.6965],[-89.22726,13.69748],[-89.22695,13.698],[-89.22695,13.698],[-89.22652,13.6987],[-89.22623,13.69918],[-89.2261,13.69939],[-89.22588,13.69968],[-89.22574,13.69983],[-89.22556,13.70001],[-89.22544,13.70011],[-89.22527,13.70025],[-89.22511,13.70037],[-89.225,13.70044],[-89.22485,13.70054],[-89.22466,13.70063],[-89.22436,13.70081],[-89.2242,13.70085],[-89.2242,13.70085],[-89.22411,13.70088],[-89.22405,13.7009],[-89.22399,13.70091],[-89.22392,13.70093],[-89.22383,13.70095],[-89.22356,13.70101],[-89.22356,13.70101],[-89.22334,13.70105],[-89.22317,13.70108],[-89.22305,13.7011],[-89.22291,13.70112],[-89.22283,13.70113],[-89.22275,13.70114],[-89.22275,13.70114],[-89.22274,13.70119],[-89.22274,13.70119],[-89.22304,13.70122],[-89.22324,13.70126],[-89.2234,13.70131],[-89.22356,13.70135],[-89.22356,13.70135],[-89.22369,13.70142],[-89.22385,13.7015],[-89.22401,13.70159],[-89.22417,13.7017],[-89.22417,13.7017],[-89.22449,13.70193],[-89.22466,13.70206],[-89.22472,13.70212],[-89.22479,13.70218],[-89.22504,13.70245],[-89.22536,13.70285],[-89.22543,13.70297],[-89.22556,13.7032],[-89.22565,13.70341],[-89.22572,13.70362],[-89.22583,13.7039],[-89.22601,13.70434],[-89.22617,13.70481],[-89.22617,13.70481],[-89.22633,13.70529],[-89.22633,13.70529],[-89.22643,13.70558],[-89.22643,13.70558],[-89.22668,13.70562],[-89.22668,13.70562],[-89.22679,13.70563],[-89.22689,13.70561],[-89.22704,13.70558],[-89.22709,13.70558],[-89.22715,13.70561],[-89.22728,13.70569],[-89.22752,13.70586],[-89.22763,13.70589],[-89.22773,13.7059],[-89.22781,13.70587],[-89.22792,13.70585],[-89.22794,13.70582],[-89.22807,13.70572],[-89.22816,13.70571],[-89.22821,13.70572],[-89.22828,13.70574],[-89.22842,13.70583],[-89.22857,13.70597],[-89.2286,13.70597],[-89.22863,13.70597],[-89.22867,13.70596],[-89.22884,13.70583],[-89.22889,13.7058],[-89.22895,13.70579],[-89.22906,13.70579],[-89.22932,13.70581],[-89.22944,13.70585],[-89.2296,13.70591],[-89.22969,13.70599],[-89.22976,13.70611],[-89.2298,13.7062],[-89.22983,13.70631],[-89.22982,13.70641],[-89.22979,13.70648],[-89.22977,13.70653],[-89.22977,13.70658],[-89.2298,13.70663],[-89.22986,13.70671],[-89.23,13.70682],[-89.23011,13.70689],[-89.23021,13.70691],[-89.23028,13.70691],[-89.23041,13.7069],[-89.23057,13.70682],[-89.23061,13.7068],[-89.23064,13.70679],[-89.23067,13.7068],[-89.23067,13.7068],[-89.23119,13.70716],[-89.23119,13.70716],[-89.23176,13.70765],[-89.2318,13.7077],[-89.23185,13.70783],[-89.2319,13.70789],[-89.23197,13.70794],[-89.23215,13.70807],[-89.23219,13.70811],[-89.23219,13.70811],[-89.23249,13.7083],[-89.23249,13.7083],[-89.23254,13.70833],[-89.2326,13.70835],[-89.23289,13.70843],[-89.23299,13.70847],[-89.23309,13.70861],[-89.23315,13.70868],[-89.23317,13.70872],[-89.23329,13.70901],[-89.23335,13.70911],[-89.23338,13.70915],[-89.23342,13.70918],[-89.23351,13.70922],[-89.23358,13.70923],[-89.23365,13.70923],[-89.23376,13.7092],[-89.23383,13.70916],[-89.23386,13.70917],[-89.2339,13.7092],[-89.23401,13.70935],[-89.23412,13.70956],[-89.23415,13.70959],[-89.2342,13.7096],[-89.23428,13.7096],[-89.23431,13.70957],[-89.23447,13.70949],[-89.23455,13.70947],[-89.2347,13.70949],[-89.23475,13.70954],[-89.23477,13.70962],[-89.23486,13.71058],[-89.2349,13.71071],[-89.23493,13.71074],[-89.23505,13.71082],[-89.23511,13.71082],[-89.23516,13.7108],[-89.23524,13.71076],[-89.23531,13.71068],[-89.23547,13.71057],[-89.23553,13.71057],[-89.23563,13.7106],[-89.23576,13.71068],[-89.23593,13.71087],[-89.23601,13.71091],[-89.2362,13.71095],[-89.2364,13.71091],[-89.23691,13.71094],[-89.23727,13.71105],[-89.23737,13.71115],[-89.23744,13.71141],[-89.23756,13.71162],[-89.23771,13.71186],[-89.23783,13.71193],[-89.23797,13.71197],[-89.23808,13.71195],[-89.23839,13.71175],[-89.23846,13.71173],[-89.23856,13.71178],[-89.23883,13.71198],[-89.23888,13.71206],[-89.23894,13.7122],[-89.23897,13.71224],[-89.23904,13.71226],[-89.23904,13.71226],[-89.23904,13.71257],[-89.23913,13.71271],[-89.23936,13.71285],[-89.23981,13.71291],[-89.24005,13.71299],[-89.24026,13.71325],[-89.24048,13.71337],[-89.24062,13.71338],[-89.24073,13.71339],[-89.24085,13.71332],[-89.24108,13.71321],[-89.24125,13.7132],[-89.24125,13.7132],[-89.24134,13.71432],[-89.24134,13.71432],[-89.24135,13.71436],[-89.24197,13.71416],[-89.24204,13.71414],[-89.24209,13.71414],[-89.24234,13.71419],[-89.24284,13.71422],[-89.24298,13.71428],[-89.24343,13.71445],[-89.24379,13.71451],[-89.24429,13.7145],[-89.24261,13.71591],[-89.24226,13.717],[-89.24192,13.71759],[-89.24223,13.71821],[-89.24256,13.71904],[-89.24305,13.71986],[-89.24336,13.72043],[-89.24371,13.72073],[-89.24403,13.72105],[-89.24396,13.72129],[-89.24409,13.72135],[-89.244,13.72166],[-89.244,13.72166],[-89.2439,13.72162],[-89.24376,13.72157],[-89.24314,13.72136],[-89.24314,13.72136],[-89.24255,13.72191],[-89.24265,13.722],[-89.24273,13.72201],[-89.24283,13.722],[-89.2427,13.72224],[-89.24259,13.72243],[-89.24232,13.72234],[-89.2422,13.72279],[-89.24183,13.72272],[-89.24193,13.72318],[-89.24172,13.72416],[-89.24179,13.72456],[-89.24163,13.72502],[-89.24163,13.72502],[-89.24075,13.72482],[-89.24055,13.72478],[-89.24055,13.72478],[-89.24052,13.72579],[-89.24027,13.72572],[-89.24015,13.7257],[-89.24,13.72573],[-89.23985,13.72574],[-89.23969,13.72572],[-89.23929,13.72554],[-89.23911,13.72551],[-89.23899,13.72551],[-89.23887,13.72552],[-89.23877,13.72556],[-89.23865,13.72563],[-89.23833,13.7258],[-89.23814,13.72595],[-89.23814,13.72595],[-89.23828,13.72597],[-89.23855,13.72602],[-89.23895,13.72626],[-89.23907,13.72642],[-89.2391,13.72658],[-89.23909,13.72671],[-89.23914,13.72682],[-89.23947,13.72719],[-89.23951,13.72727],[-89.23951,13.72727],[-89.23838,13.7272],[-89.23833,13.7286],[-89.23833,13.7286],[-89.23824,13.7286],[-89.23806,13.72864],[-89.23775,13.72886],[-89.23753,13.7289],[-89.2373,13.72885],[-89.23697,13.7287],[-89.23647,13.72835],[-89.23606,13.72815],[-89.23576,13.72813],[-89.23523,13.72825],[-89.23442,13.72846],[-89.23422,13.7285],[-89.23375,13.72856],[-89.23286,13.72849],[-89.23186,13.72849],[-89.23156,13.72851],[-89.23096,13.72865],[-89.23009,13.72868],[-89.22979,13.72867],[-89.22971,13.72865],[-89.22964,13.72862],[-89.22948,13.72857],[-89.22942,13.72856],[-89.22929,13.72853],[-89.22921,13.72852],[-89.22911,13.72851],[-89.22911,13.72851],[-89.22836,13.72834],[-89.22836,13.72834],[-89.22826,13.7283],[-89.2282,13.72824],[-89.2281,13.72815],[-89.22806,13.72812],[-89.22801,13.72809],[-89.22798,13.72807],[-89.22796,13.72804],[-89.22786,13.72789],[-89.22777,13.72783],[-89.22768,13.72778],[-89.22741,13.72764],[-89.22696,13.72731],[-89.22649,13.727],[-89.22627,13.72678],[-89.22603,13.7266],[-89.22583,13.72647],[-89.22565,13.72641],[-89.22533,13.72635],[-89.22512,13.7263],[-89.22491,13.72621],[-89.22416,13.72575],[-89.22392,13.72559],[-89.22382,13.72546],[-89.22372,13.72536],[-89.22356,13.72526],[-89.22338,13.72521],[-89.22317,13.72522],[-89.22266,13.72521],[-89.22236,13.72526],[-89.22212,13.72524],[-89.22202,13.72521],[-89.22143,13.72493],[-89.22143,13.72493],[-89.22123,13.7249],[-89.22086,13.72494],[-89.22066,13.72494],[-89.22032,13.72484],[-89.22005,13.72478],[-89.21984,13.72475],[-89.21957,13.72475],[-89.219,13.72486],[-89.21892,13.72489],[-89.21863,13.72506],[-89.2185,13.7251],[-89.21829,13.72511],[-89.21804,13.72508],[-89.2178,13.72503],[-89.21767,13.72503],[-89.21723,13.72518],[-89.21703,13.72524],[-89.21686,13.7253],[-89.2168,13.7253],[-89.21621,13.72515],[-89.21591,13.72514],[-89.21535,13.72521],[-89.21489,13.72521],[-89.21463,13.72524],[-89.21443,13.72528],[-89.21428,13.7253],[-89.2142,13.72529],[-89.21405,13.72521],[-89.21369,13.72504],[-89.21358,13.725],[-89.21339,13.72497],[-89.21312,13.725],[-89.21306,13.72502],[-89.21297,13.72506],[-89.21285,13.72523],[-89.21278,13.72531],[-89.2127,13.72537],[-89.21265,13.72537],[-89.21261,13.72537],[-89.2125,13.72528],[-89.2123,13.72509],[-89.21228,13.72501],[-89.21224,13.72482],[-89.21222,13.72472],[-89.21217,13.72468],[-89.21209,13.72464],[-89.21198,13.72465],[-89.21187,13.72465],[-89.21181,13.72463],[-89.21176,13.72459],[-89.21172,13.7245],[-89.21172,13.7245],[-89.21166,13.72449],[-89.21162,13.7245],[-89.21157,13.72452],[-89.21152,13.72452],[-89.21128,13.72446],[-89.21128,13.72446],[-89.21114,13.7244],[-89.21108,13.72437],[-89.21096,13.72422],[-89.21082,13.72412],[-89.21078,13.72406],[-89.21078,13.72406],[-89.21076,13.72405],[-89.2107,13.72391],[-89.21062,13.72369],[-89.21056,13.72359],[-89.2105,13.72357],[-89.21043,13.72359],[-89.2104,13.72362],[-89.21035,13.72374],[-89.21032,13.72379],[-89.21029,13.72383],[-89.21024,13.72388],[-89.21017,13.72392],[-89.21017,13.72392],[-89.2101,13.72395],[-89.21004,13.72401],[-89.20997,13.72412],[-89.20992,13.72423],[-89.20986,13.72426],[-89.20979,13.72428],[-89.20969,13.72426],[-89.20964,13.72421],[-89.20959,13.72417],[-89.20955,13.72417],[-89.20951,13.72418],[-89.20948,13.72421],[-89.20945,13.72427],[-89.20935,13.72458],[-89.20921,13.72475],[-89.20914,13.72485],[-89.20908,13.72489],[-89.20902,13.72492],[-89.20892,13.72493],[-89.20878,13.72492],[-89.2086,13.72486],[-89.20851,13.72481],[-89.20839,13.72473],[-89.20826,13.72468],[-89.2082,13.72468],[-89.20811,13.7247],[-89.20788,13.72475],[-89.20732,13.72498],[-89.20722,13.72501],[-89.20708,13.72505],[-89.20703,13.72507],[-89.20699,13.72511],[-89.20696,13.72515],[-89.20696,13.72515],[-89.20692,13.72516],[-89.20684,13.72512],[-89.20673,13.72505],[-89.20664,13.72504],[-89.20625,13.72507],[-89.20605,13.7251],[-89.20596,13.72511],[-89.20584,13.72515],[-89.20576,13.72519],[-89.20576,13.72519],[-89.20572,13.72521],[-89.20569,13.72523],[-89.20562,13.72524],[-89.20553,13.72523],[-89.20545,13.72523],[-89.20537,13.72518],[-89.20514,13.72472],[-89.20504,13.7246],[-89.20478,13.72439],[-89.2047,13.72436],[-89.20452,13.72434],[-89.20433,13.72432],[-89.20425,13.72429],[-89.20415,13.72424],[-89.20398,13.72423],[-89.20388,13.72424],[-89.20388,13.72424],[-89.20384,13.72422],[-89.2038,13.72415],[-89.2038,13.72402],[-89.20377,13.72387],[-89.20373,13.72382],[-89.20361,13.72377],[-89.20338,13.72362],[-89.20324,13.72346],[-89.20324,13.72346],[-89.20329,13.72338],[-89.20338,13.72317],[-89.20347,13.72297],[-89.20358,13.72261],[-89.20365,13.72238],[-89.20372,13.7221],[-89.20372,13.7221],[-89.20379,13.72175],[-89.20386,13.72141],[-89.20386,13.72141],[-89.20393,13.72113],[-89.20395,13.72105],[-89.20397,13.72101],[-89.20398,13.721],[-89.20401,13.72097],[-89.20407,13.72092],[-89.20467,13.72068],[-89.20467,13.72068],[-89.2047,13.72063],[-89.2048,13.72059],[-89.205,13.72052],[-89.20518,13.72044],[-89.20535,13.72034],[-89.20542,13.72033]]]]}},{"type":"Feature","properties":{"nbhd_name":"Distrito Municipal 6","uesi_id":"SLV_R6462027","nbhd_code":"SLV_R6462027_4"},"geometry":{"type":"MultiPolygon","coordinates":[[[[-89.16542,13.70819],[-89.16541,13.70801],[-89.16548,13.70778],[-89.16557,13.70755],[-89.16567,13.70725],[-89.16577,13.70697],[-89.16582,13.70664],[-89.16579,13.70642],[-89.16566,13.70617],[-89.16544,13.70597],[-89.16524,13.70589],[-89.16497,13.70582],[-89.16469,13.70592],[-89.16437,13.70607],[-89.16397,13.70619],[-89.16373,13.70622],[-89.16343,13.70619],[-89.16319,13.70603],[-89.16304,13.70583],[-89.16299,13.70568],[-89.16301,13.70557],[-89.16308,13.7055],[-89.16351,13.70532],[-89.16359,13.70518],[-89.16359,13.70506],[-89.16354,13.70495],[-89.16328,13.70479],[-89.1631,13.70474],[-89.16302,13.70469],[-89.16294,13.70459],[-89.1629,13.7045],[-89.16289,13.7044],[-89.16292,13.70426],[-89.16322,13.70371],[-89.16338,13.70352],[-89.16354,13.70339],[-89.16379,13.70326],[-89.16396,13.70322],[-89.16438,13.7031],[-89.16465,13.70308],[-89.16494,13.70304],[-89.16508,13.70302],[-89.16513,13.70299],[-89.16518,13.70294],[-89.1652,13.70287],[-89.16515,13.70268],[-89.16509,13.70255],[-89.16512,13.70231],[-89.16518,13.70224],[-89.16533,13.70219],[-89.16547,13.70217],[-89.1656,13.70211],[-89.16571,13.70202],[-89.16579,13.70192],[-89.16588,13.70177],[-89.16592,13.70157],[-89.16596,13.70136],[-89.16595,13.7012],[-89.16588,13.70082],[-89.16581,13.70058],[-89.16574,13.70038],[-89.16567,13.70027],[-89.16557,13.70018],[-89.16548,13.70005],[-89.16539,13.69989],[-89.16538,13.69976],[-89.16542,13.69969],[-89.16547,13.69963],[-89.16567,13.69939],[-89.16581,13.69922],[-89.16611,13.69884],[-89.16634,13.6985],[-89.16653,13.69826],[-89.16668,13.69799],[-89.16682,13.69774],[-89.16694,13.69755],[-89.16705,13.69745],[-89.16714,13.69742],[-89.16724,13.69744],[-89.16736,13.69754],[-89.16759,13.6978],[-89.16776,13.69794],[-89.16819,13.69826],[-89.16849,13.69845],[-89.16849,13.69845],[-89.16882,13.69855],[-89.1689,13.69854],[-89.16904,13.6985],[-89.16924,13.69843],[-89.16943,13.69839],[-89.16978,13.69833],[-89.17002,13.69828],[-89.17033,13.69812],[-89.17072,13.69786],[-89.17072,13.69786],[-89.17081,13.69778],[-89.17096,13.6976],[-89.17111,13.69747],[-89.17144,13.69724],[-89.17144,13.69724],[-89.17158,13.69715],[-89.17158,13.69715],[-89.17153,13.69685],[-89.17146,13.69666],[-89.17146,13.69655],[-89.17149,13.69628],[-89.17148,13.69612],[-89.17142,13.69559],[-89.17131,13.69408],[-89.17136,13.69392],[-89.17165,13.69346],[-89.17166,13.69343],[-89.17165,13.6934],[-89.17145,13.69322],[-89.17148,13.69307],[-89.17148,13.69307],[-89.17193,13.69316],[-89.17249,13.69333],[-89.17263,13.69336],[-89.17279,13.69338],[-89.17297,13.69338],[-89.17315,13.69338],[-89.1733,13.69337],[-89.17348,13.69335],[-89.17365,13.69331],[-89.17378,13.69328],[-89.17393,13.69324],[-89.17404,13.6932],[-89.17417,13.69315],[-89.17458,13.69298],[-89.17474,13.69292],[-89.17488,13.69287],[-89.17532,13.69272],[-89.17554,13.69266],[-89.17572,13.69262],[-89.17589,13.69258],[-89.1763,13.6925],[-89.17638,13.69248],[-89.17651,13.69245],[-89.17656,13.69244],[-89.17661,13.69242],[-89.17668,13.6924],[-89.17675,13.69237],[-89.1768,13.69235],[-89.17684,13.69232],[-89.1769,13.69229],[-89.17706,13.69218],[-89.17719,13.6921],[-89.17727,13.69205],[-89.17735,13.69199],[-89.17773,13.69169],[-89.17776,13.69167],[-89.17779,13.69165],[-89.17796,13.69156],[-89.17796,13.69156],[-89.17811,13.69121],[-89.17811,13.69121],[-89.17805,13.69107],[-89.17805,13.69091],[-89.17812,13.69079],[-89.17824,13.69073],[-89.17837,13.69075],[-89.17854,13.69083],[-89.17883,13.69109],[-89.17929,13.69147],[-89.17959,13.69164],[-89.17977,13.69168],[-89.18009,13.69163],[-89.1805,13.6914],[-89.18089,13.69113],[-89.18134,13.69066],[-89.18163,13.69029],[-89.18188,13.68997],[-89.18219,13.68972],[-89.18235,13.68966],[-89.18253,13.68967],[-89.18271,13.68974],[-89.18283,13.68991],[-89.18296,13.69012],[-89.18304,13.69035],[-89.18307,13.69062],[-89.18305,13.69083],[-89.18303,13.69102],[-89.18303,13.69102],[-89.18291,13.69152],[-89.18276,13.69225],[-89.18267,13.69269],[-89.18262,13.69303],[-89.18261,13.69337],[-89.18259,13.69364],[-89.18259,13.69367],[-89.18256,13.69369],[-89.18252,13.69372],[-89.18248,13.69374],[-89.18247,13.69377],[-89.18247,13.69381],[-89.18248,13.69384],[-89.1825,13.69386],[-89.18255,13.69388],[-89.18259,13.69391],[-89.18261,13.69393],[-89.18268,13.69408],[-89.18271,13.69423],[-89.18274,13.69431],[-89.18279,13.69448],[-89.18282,13.69457],[-89.18285,13.69464],[-89.18286,13.69468],[-89.18288,13.6947],[-89.1829,13.6947],[-89.18292,13.69469],[-89.18294,13.69469],[-89.18295,13.69469],[-89.18298,13.6947],[-89.18301,13.69473],[-89.18304,13.69481],[-89.18307,13.69483],[-89.18312,13.69485],[-89.18316,13.69485],[-89.18316,13.69485],[-89.18307,13.69507],[-89.18307,13.69507],[-89.18268,13.69493],[-89.18259,13.6949],[-89.1825,13.69489],[-89.18237,13.69486],[-89.18223,13.69485],[-89.18223,13.69485],[-89.18219,13.69501],[-89.18219,13.69501],[-89.18225,13.69514],[-89.18228,13.69519],[-89.18233,13.69526],[-89.18237,13.69532],[-89.1824,13.69535],[-89.18244,13.69539],[-89.18244,13.69539],[-89.18249,13.69544],[-89.18253,13.69548],[-89.18276,13.69567],[-89.18278,13.69568],[-89.1828,13.69569],[-89.18282,13.6957],[-89.18345,13.69582],[-89.18345,13.69582],[-89.18335,13.69633],[-89.18335,13.69633],[-89.18329,13.69656],[-89.18324,13.6968],[-89.18319,13.69703],[-89.18317,13.69718],[-89.18314,13.69752],[-89.18315,13.69768],[-89.18316,13.69786],[-89.18317,13.69792],[-89.18322,13.6983],[-89.18322,13.6983],[-89.18329,13.69901],[-89.18329,13.69901],[-89.18325,13.6998],[-89.18324,13.69988],[-89.1832,13.70052],[-89.18317,13.70129],[-89.18317,13.70129],[-89.18316,13.70141],[-89.18316,13.70141],[-89.18314,13.70173],[-89.18314,13.70173],[-89.18311,13.70223],[-89.18302,13.70359],[-89.18302,13.70359],[-89.18356,13.70364],[-89.18356,13.70364],[-89.18396,13.70368],[-89.18396,13.70368],[-89.1846,13.70375],[-89.18549,13.70386],[-89.18646,13.70397],[-89.18646,13.70397],[-89.18636,13.70482],[-89.1863,13.70537],[-89.18629,13.70553],[-89.18625,13.70589],[-89.18625,13.70589],[-89.18617,13.70592],[-89.18617,13.70592],[-89.18539,13.70539],[-89.18469,13.70492],[-89.18443,13.70483],[-89.18403,13.70493],[-89.1836,13.7051],[-89.18319,13.70529],[-89.18319,13.70529],[-89.1826,13.70594],[-89.18246,13.70621],[-89.18223,13.7063],[-89.18202,13.70641],[-89.18202,13.70641],[-89.18196,13.70648],[-89.18188,13.70663],[-89.18172,13.70678],[-89.18112,13.70693],[-89.17964,13.70735],[-89.17798,13.70799],[-89.1774,13.70821],[-89.1774,13.70821],[-89.17731,13.70855],[-89.17731,13.70855],[-89.17718,13.70911],[-89.17712,13.70922],[-89.17712,13.70922],[-89.17697,13.70924],[-89.17685,13.70926],[-89.17669,13.70928],[-89.17669,13.70928],[-89.17651,13.70932],[-89.17608,13.70942],[-89.17608,13.70942],[-89.1757,13.70953],[-89.1757,13.70953],[-89.17442,13.70988],[-89.17442,13.70988],[-89.17407,13.70992],[-89.17343,13.70992],[-89.17338,13.70992],[-89.17268,13.70987],[-89.17268,13.70987],[-89.1724,13.70984],[-89.17212,13.70981],[-89.17212,13.70981],[-89.1719,13.70978],[-89.1717,13.70975],[-89.1715,13.70973],[-89.1714,13.70972],[-89.17132,13.70971],[-89.17125,13.70969],[-89.17119,13.70968],[-89.17113,13.70964],[-89.17107,13.7096],[-89.17104,13.70956],[-89.171,13.70952],[-89.17096,13.70947],[-89.17094,13.70942],[-89.17091,13.70935],[-89.17089,13.70931],[-89.17088,13.70926],[-89.17078,13.70869],[-89.17075,13.70793],[-89.17075,13.70793],[-89.17077,13.70774],[-89.17075,13.70769],[-89.17073,13.70763],[-89.17072,13.70757],[-89.17069,13.70753],[-89.17065,13.70748],[-89.17061,13.70742],[-89.17053,13.70738],[-89.17047,13.70735],[-89.1704,13.70732],[-89.1703,13.7073],[-89.17011,13.70727],[-89.16964,13.70722],[-89.16954,13.70721],[-89.16946,13.70721],[-89.16935,13.70721],[-89.16929,13.70721],[-89.16923,13.70722],[-89.16916,13.70724],[-89.16909,13.70726],[-89.16888,13.70733],[-89.16888,13.70733],[-89.16863,13.70744],[-89.1685,13.7075],[-89.1684,13.70755],[-89.1683,13.7076],[-89.16824,13.70764],[-89.16818,13.70767],[-89.16818,13.70767],[-89.16814,13.70771],[-89.1681,13.70776],[-89.16807,13.7078],[-89.16804,13.70786],[-89.16793,13.70808],[-89.16757,13.70877],[-89.16753,13.70883],[-89.1675,13.70887],[-89.16745,13.70892],[-89.16741,13.70895],[-89.16734,13.70899],[-89.16728,13.70901],[-89.16724,13.70901],[-89.16718,13.70902],[-89.1671,13.70902],[-89.16703,13.70901],[-89.16687,13.70899],[-89.16674,13.70898],[-89.16662,13.70896],[-89.16653,13.70893],[-89.16631,13.70888],[-89.16611,13.70881],[-89.16601,13.70877],[-89.16593,13.70875],[-89.16586,13.70871],[-89.16579,13.70868],[-89.16573,13.70864],[-89.16566,13.7086],[-89.1656,13.70856],[-89.16557,13.70853],[-89.1655,13.70847],[-89.1655,13.70847],[-89.16542,13.70819]]]]}},{"type":"Feature","properties":{"nbhd_name":"Centro Hist\u00f3rico","uesi_id":"SLV_R6462027","nbhd_code":"SLV_R6462027_5"},"geometry":{"type":"MultiPolygon","coordinates":[[[[-89.19259,13.70529],[-89.19259,13.70546],[-89.19259,13.70546],[-89.19197,13.70539],[-89.19197,13.70539],[-89.19083,13.70527],[-89.19083,13.70527],[-89.18994,13.70519],[-89.18966,13.70516],[-89.18916,13.70511],[-89.18916,13.70511],[-89.18907,13.70447],[-89.1891,13.7042],[-89.1891,13.7042],[-89.18771,13.70409],[-89.18744,13.70406],[-89.18646,13.70397],[-89.18646,13.70397],[-89.18549,13.70386],[-89.1846,13.70375],[-89.18396,13.70368],[-89.18396,13.70368],[-89.18356,13.70364],[-89.18356,13.70364],[-89.18302,13.70359],[-89.18302,13.70359],[-89.18311,13.70223],[-89.18314,13.70173],[-89.18314,13.70173],[-89.18316,13.70141],[-89.18316,13.70141],[-89.18317,13.70129],[-89.18317,13.70129],[-89.1832,13.70052],[-89.18324,13.69988],[-89.18325,13.6998],[-89.18329,13.69901],[-89.18329,13.69901],[-89.18322,13.6983],[-89.18322,13.6983],[-89.18317,13.69792],[-89.18316,13.69786],[-89.18315,13.69768],[-89.18314,13.69752],[-89.18317,13.69718],[-89.18319,13.69703],[-89.18324,13.6968],[-89.18329,13.69656],[-89.18335,13.69633],[-89.18335,13.69633],[-89.18345,13.69582],[-89.18345,13.69582],[-89.18282,13.6957],[-89.1828,13.69569],[-89.18278,13.69568],[-89.18276,13.69567],[-89.18253,13.69548],[-89.18249,13.69544],[-89.18244,13.69539],[-89.18244,13.69539],[-89.1824,13.69535],[-89.18237,13.69532],[-89.18233,13.69526],[-89.18228,13.69519],[-89.18225,13.69514],[-89.18219,13.69501],[-89.18219,13.69501],[-89.18223,13.69485],[-89.18223,13.69485],[-89.18237,13.69486],[-89.1825,13.69489],[-89.18259,13.6949],[-89.18268,13.69493],[-89.18307,13.69507],[-89.18307,13.69507],[-89.18316,13.69485],[-89.18316,13.69485],[-89.18319,13.69485],[-89.18324,13.69487],[-89.18336,13.69494],[-89.1834,13.69496],[-89.18343,13.69498],[-89.18349,13.69501],[-89.18353,13.69502],[-89.18363,13.69506],[-89.18368,13.69507],[-89.18371,13.69508],[-89.18373,13.69508],[-89.18376,13.69507],[-89.18379,13.69508],[-89.18383,13.69509],[-89.18386,13.69511],[-89.18389,13.69512],[-89.18391,13.69513],[-89.18394,13.69513],[-89.18399,13.69513],[-89.18413,13.69513],[-89.18424,13.69511],[-89.18439,13.69509],[-89.18453,13.69505],[-89.18475,13.69499],[-89.18483,13.69495],[-89.18491,13.69492],[-89.18506,13.69488],[-89.18517,13.69484],[-89.18533,13.69476],[-89.18543,13.69472],[-89.18553,13.6947],[-89.18564,13.69468],[-89.18573,13.69468],[-89.18584,13.69468],[-89.18584,13.69468],[-89.186,13.69451],[-89.186,13.69451],[-89.18649,13.69399],[-89.18658,13.69389],[-89.18682,13.69372],[-89.187,13.6936],[-89.18709,13.69355],[-89.18728,13.6935],[-89.18762,13.69342],[-89.18762,13.69342],[-89.18775,13.69339],[-89.19032,13.69293],[-89.19053,13.6929],[-89.19079,13.69284],[-89.1909,13.6928],[-89.19097,13.69277],[-89.19102,13.69275],[-89.19107,13.69273],[-89.19107,13.69273],[-89.19112,13.69271],[-89.19131,13.6926],[-89.1914,13.69255],[-89.19146,13.69252],[-89.19163,13.69244],[-89.1917,13.69242],[-89.19176,13.6924],[-89.19179,13.69239],[-89.19241,13.69229],[-89.19245,13.69228],[-89.19308,13.69221],[-89.19315,13.69221],[-89.19341,13.69217],[-89.19341,13.69217],[-89.19427,13.69205],[-89.19439,13.69204],[-89.19451,13.69204],[-89.19467,13.69203],[-89.19467,13.69203],[-89.19501,13.69205],[-89.19501,13.69205],[-89.19514,13.69205],[-89.19527,13.69206],[-89.19541,13.69205],[-89.19553,13.69204],[-89.19563,13.69202],[-89.19563,13.69202],[-89.19577,13.69199],[-89.19592,13.69197],[-89.19602,13.69197],[-89.19611,13.69197],[-89.19617,13.69197],[-89.19617,13.69197],[-89.19678,13.69203],[-89.19678,13.69203],[-89.19742,13.6921],[-89.19775,13.69214],[-89.19824,13.69218],[-89.19866,13.69223],[-89.19958,13.69231],[-89.19971,13.69233],[-89.19971,13.69233],[-89.19992,13.69235],[-89.19992,13.69235],[-89.20058,13.69243],[-89.20066,13.69244],[-89.20066,13.69244],[-89.20071,13.69245],[-89.20071,13.69245],[-89.20074,13.69245],[-89.20164,13.69267],[-89.20168,13.69268],[-89.20172,13.69269],[-89.20181,13.69271],[-89.2019,13.69272],[-89.20199,13.69273],[-89.20207,13.69274],[-89.20301,13.69282],[-89.20301,13.69282],[-89.20383,13.69289],[-89.20387,13.6929],[-89.20392,13.6929],[-89.20396,13.6929],[-89.20401,13.6929],[-89.20406,13.6929],[-89.20412,13.69289],[-89.20418,13.69289],[-89.20425,13.69287],[-89.20434,13.69285],[-89.20556,13.69258],[-89.20556,13.69258],[-89.20556,13.69276],[-89.20556,13.69278],[-89.20555,13.69289],[-89.20551,13.69332],[-89.20551,13.69332],[-89.20533,13.6952],[-89.20531,13.69546],[-89.20519,13.69669],[-89.20519,13.69669],[-89.20509,13.69772],[-89.20509,13.69772],[-89.20499,13.69871],[-89.20493,13.69955],[-89.20493,13.69955],[-89.20465,13.70229],[-89.20464,13.70251],[-89.20464,13.70251],[-89.2036,13.70241],[-89.20344,13.70241],[-89.20331,13.70241],[-89.20316,13.70244],[-89.20301,13.70247],[-89.20289,13.70251],[-89.20274,13.70257],[-89.2026,13.70265],[-89.20248,13.70271],[-89.20235,13.70279],[-89.20202,13.703],[-89.20174,13.70316],[-89.20161,13.70324],[-89.20152,13.70329],[-89.20142,13.70333],[-89.20132,13.70337],[-89.2012,13.70341],[-89.20116,13.70342],[-89.20103,13.70346],[-89.2009,13.7035],[-89.20075,13.70352],[-89.20061,13.70354],[-89.20041,13.70356],[-89.20021,13.70356],[-89.20001,13.70354],[-89.19962,13.70351],[-89.19839,13.70337],[-89.19839,13.70337],[-89.19798,13.70333],[-89.19772,13.70331],[-89.19749,13.70328],[-89.19635,13.70318],[-89.19579,13.70315],[-89.19579,13.70315],[-89.19549,13.70313],[-89.1932,13.70293],[-89.1932,13.70293],[-89.1929,13.7029],[-89.1929,13.7029],[-89.1929,13.70296],[-89.19277,13.70381],[-89.19267,13.70457],[-89.19267,13.70457],[-89.19259,13.70529]]]]}},{"type":"Feature","properties":{"nbhd_name":"Distrito Municipal 4","uesi_id":"SLV_R6462027","nbhd_code":"SLV_R6462027_6"},"geometry":{"type":"MultiPolygon","coordinates":[[[[-89.20838,13.63791],[-89.20863,13.63863],[-89.20876,13.6396],[-89.20892,13.63977],[-89.20905,13.63985],[-89.2093,13.64031],[-89.20985,13.6414],[-89.21014,13.64176],[-89.21042,13.64194],[-89.21183,13.64364],[-89.21423,13.64374],[-89.21423,13.64374],[-89.22491,13.6442],[-89.22488,13.64431],[-89.22485,13.64435],[-89.2244,13.64487],[-89.2243,13.64499],[-89.22424,13.64508],[-89.22414,13.64526],[-89.22397,13.64573],[-89.22394,13.64585],[-89.22389,13.64609],[-89.22388,13.64632],[-89.22388,13.64637],[-89.22383,13.64646],[-89.22383,13.64646],[-89.22393,13.64644],[-89.22401,13.64642],[-89.22408,13.64642],[-89.22415,13.64642],[-89.22424,13.64643],[-89.22431,13.64646],[-89.22438,13.64648],[-89.22444,13.6465],[-89.2245,13.64654],[-89.22456,13.64659],[-89.22472,13.64673],[-89.22497,13.64697],[-89.22522,13.64717],[-89.22559,13.64747],[-89.22585,13.64764],[-89.22602,13.64776],[-89.22626,13.64791],[-89.22637,13.648],[-89.22651,13.64813],[-89.22672,13.64835],[-89.2268,13.64842],[-89.22692,13.6485],[-89.227,13.64854],[-89.22713,13.64861],[-89.22734,13.64868],[-89.22749,13.64874],[-89.22761,13.64882],[-89.22769,13.64888],[-89.22778,13.64897],[-89.22792,13.64914],[-89.228,13.64926],[-89.22804,13.64933],[-89.22807,13.6494],[-89.2281,13.6495],[-89.22814,13.64962],[-89.22823,13.64989],[-89.22828,13.65],[-89.22833,13.6501],[-89.22842,13.6502],[-89.22848,13.65025],[-89.22853,13.65028],[-89.2287,13.65037],[-89.22887,13.65044],[-89.22907,13.65055],[-89.22923,13.65069],[-89.22944,13.65084],[-89.22952,13.65093],[-89.22959,13.65102],[-89.22964,13.65111],[-89.22969,13.65127],[-89.2297,13.65135],[-89.2297,13.65135],[-89.2297,13.6515],[-89.22969,13.65157],[-89.22967,13.65163],[-89.22965,13.65168],[-89.22963,13.65175],[-89.22955,13.65195],[-89.22955,13.65195],[-89.22951,13.65213],[-89.22945,13.65244],[-89.22945,13.65253],[-89.22945,13.65265],[-89.22948,13.65279],[-89.22951,13.65293],[-89.2296,13.6533],[-89.22961,13.65339],[-89.22962,13.65347],[-89.22961,13.65357],[-89.2296,13.65361],[-89.22958,13.65368],[-89.22938,13.65408],[-89.22935,13.65418],[-89.22931,13.65427],[-89.22929,13.65441],[-89.22928,13.65451],[-89.22929,13.65459],[-89.22935,13.65492],[-89.22936,13.65504],[-89.22937,13.65517],[-89.22936,13.65527],[-89.22935,13.65535],[-89.22934,13.65547],[-89.22932,13.65558],[-89.22928,13.65569],[-89.22924,13.65579],[-89.22921,13.65586],[-89.22916,13.65594],[-89.22916,13.65594],[-89.22882,13.65629],[-89.22868,13.6564],[-89.22864,13.65645],[-89.2286,13.65649],[-89.22852,13.65657],[-89.22847,13.65666],[-89.22811,13.65733],[-89.22782,13.65786],[-89.22774,13.65799],[-89.22771,13.65803],[-89.22768,13.65807],[-89.22762,13.65813],[-89.22754,13.65819],[-89.22754,13.65819],[-89.22751,13.65822],[-89.2269,13.65867],[-89.2264,13.65907],[-89.22602,13.6594],[-89.22569,13.65968],[-89.22567,13.65972],[-89.22562,13.65976],[-89.22556,13.65985],[-89.22552,13.65992],[-89.22548,13.66003],[-89.22546,13.66013],[-89.22543,13.66028],[-89.22541,13.66041],[-89.22538,13.6605],[-89.22532,13.66068],[-89.2253,13.66073],[-89.22519,13.6611],[-89.22512,13.66125],[-89.22496,13.66155],[-89.22489,13.66169],[-89.22482,13.66184],[-89.22474,13.66205],[-89.2263,13.66422],[-89.2263,13.66422],[-89.22672,13.6648],[-89.22779,13.66826],[-89.22779,13.66826],[-89.22805,13.66908],[-89.22805,13.66908],[-89.22865,13.67098],[-89.22865,13.67098],[-89.23203,13.68185],[-89.23189,13.68195],[-89.23164,13.68208],[-89.23136,13.68218],[-89.23116,13.68225],[-89.23097,13.68229],[-89.23058,13.68235],[-89.23022,13.68319],[-89.23296,13.68333],[-89.23689,13.68349],[-89.23895,13.68356],[-89.23901,13.68356],[-89.23925,13.68351],[-89.23936,13.68347],[-89.23994,13.68325],[-89.23994,13.68325],[-89.23978,13.68345],[-89.23927,13.68446],[-89.23906,13.68477],[-89.23888,13.68496],[-89.23856,13.68522],[-89.23834,13.68539],[-89.23219,13.68989],[-89.23196,13.69006],[-89.23186,13.69014],[-89.23167,13.69029],[-89.23151,13.69048],[-89.23135,13.69068],[-89.2311,13.69109],[-89.22783,13.6965],[-89.22783,13.6965],[-89.22772,13.6965],[-89.22772,13.6965],[-89.22757,13.69649],[-89.2272,13.69671],[-89.22691,13.69681],[-89.22675,13.69655],[-89.22662,13.69632],[-89.22647,13.69611],[-89.22632,13.69597],[-89.22601,13.69594],[-89.22498,13.69612],[-89.22498,13.69612],[-89.22443,13.69598],[-89.22407,13.69503],[-89.22407,13.69503],[-89.22352,13.69502],[-89.2232,13.69531],[-89.22292,13.69552],[-89.22237,13.69546],[-89.22211,13.69527],[-89.22185,13.6954],[-89.2218,13.69573],[-89.22153,13.69594],[-89.22116,13.69575],[-89.22114,13.69573],[-89.2211,13.69566],[-89.22108,13.69557],[-89.22107,13.69551],[-89.22105,13.69546],[-89.22104,13.69543],[-89.22104,13.69543],[-89.22101,13.6954],[-89.22098,13.69538],[-89.22094,13.69537],[-89.22057,13.69531],[-89.22047,13.69531],[-89.22035,13.69533],[-89.22027,13.69536],[-89.22021,13.69539],[-89.22007,13.69553],[-89.22001,13.69558],[-89.21996,13.69561],[-89.21992,13.69561],[-89.21989,13.69561],[-89.21983,13.69557],[-89.21977,13.69553],[-89.21975,13.69548],[-89.21975,13.69548],[-89.21974,13.69543],[-89.21975,13.69537],[-89.21977,13.69529],[-89.21982,13.69524],[-89.21995,13.69507],[-89.21996,13.69502],[-89.21998,13.69496],[-89.21997,13.69492],[-89.21994,13.69488],[-89.2199,13.69486],[-89.21982,13.69483],[-89.2197,13.69483],[-89.21959,13.69485],[-89.21953,13.69487],[-89.21947,13.69488],[-89.21943,13.69489],[-89.21935,13.69489],[-89.21925,13.69488],[-89.21915,13.69485],[-89.21909,13.69481],[-89.21906,13.69478],[-89.21902,13.69476],[-89.21898,13.69476],[-89.21894,13.69478],[-89.21882,13.69487],[-89.21875,13.69493],[-89.21867,13.69498],[-89.2186,13.695],[-89.21854,13.69501],[-89.21854,13.69501],[-89.2185,13.69501],[-89.21843,13.695],[-89.21832,13.69498],[-89.21826,13.69496],[-89.2182,13.69491],[-89.21812,13.69484],[-89.21796,13.69466],[-89.21793,13.69461],[-89.21782,13.69447],[-89.21779,13.69444],[-89.21775,13.69441],[-89.21767,13.69439],[-89.21759,13.69439],[-89.21752,13.6944],[-89.21719,13.69448],[-89.21706,13.69452],[-89.21692,13.69456],[-89.2167,13.69467],[-89.2167,13.69467],[-89.2168,13.69361],[-89.2168,13.69361],[-89.21685,13.69303],[-89.21685,13.69303],[-89.21689,13.6926],[-89.21696,13.69167],[-89.21696,13.69167],[-89.217,13.69121],[-89.21701,13.69109],[-89.21702,13.69098],[-89.21703,13.6909],[-89.21704,13.69083],[-89.21706,13.69079],[-89.2171,13.69058],[-89.21712,13.69047],[-89.21715,13.69036],[-89.21722,13.69006],[-89.21725,13.68994],[-89.21726,13.68989],[-89.2173,13.6897],[-89.21733,13.68952],[-89.21735,13.68939],[-89.21736,13.68926],[-89.21737,13.68918],[-89.21738,13.68895],[-89.21738,13.68895],[-89.21739,13.68889],[-89.21739,13.68889],[-89.2176,13.68656],[-89.2176,13.68656],[-89.21762,13.68635],[-89.21767,13.68589],[-89.21773,13.68542],[-89.21774,13.68535],[-89.21775,13.68527],[-89.21784,13.68487],[-89.21786,13.68479],[-89.21786,13.68479],[-89.21786,13.68474],[-89.21786,13.68465],[-89.21787,13.68459],[-89.21787,13.68452],[-89.21786,13.68433],[-89.21786,13.68418],[-89.21786,13.68383],[-89.21785,13.68374],[-89.21785,13.68374],[-89.21783,13.68362],[-89.2178,13.68351],[-89.21777,13.68342],[-89.21777,13.68339],[-89.21774,13.68331],[-89.21769,13.68322],[-89.21764,13.68314],[-89.21757,13.68304],[-89.21757,13.68304],[-89.21748,13.68297],[-89.21691,13.68252],[-89.21655,13.68221],[-89.21545,13.68134],[-89.21545,13.68134],[-89.21527,13.68123],[-89.21485,13.68092],[-89.21485,13.68092],[-89.21413,13.68037],[-89.21413,13.68037],[-89.21366,13.67996],[-89.21366,13.67996],[-89.21323,13.67964],[-89.21289,13.6794],[-89.21268,13.67928],[-89.21243,13.67918],[-89.2122,13.6791],[-89.21199,13.67905],[-89.21173,13.67901],[-89.2116,13.679],[-89.2116,13.679],[-89.21129,13.67903],[-89.21098,13.6791],[-89.21075,13.67916],[-89.21057,13.67921],[-89.21022,13.67929],[-89.20995,13.67932],[-89.20975,13.67932],[-89.20956,13.67929],[-89.20934,13.67925],[-89.20901,13.67915],[-89.20862,13.67899],[-89.20836,13.67881],[-89.20554,13.67613],[-89.2048,13.67532],[-89.20461,13.67512],[-89.20445,13.67496],[-89.2043,13.67481],[-89.2046,13.67461],[-89.20464,13.674],[-89.20465,13.67382],[-89.20465,13.67382],[-89.20472,13.67383],[-89.2049,13.6738],[-89.20504,13.67381],[-89.20517,13.67378],[-89.20532,13.67373],[-89.20551,13.67361],[-89.20569,13.67351],[-89.20592,13.67348],[-89.20622,13.6735],[-89.20645,13.67356],[-89.20675,13.67368],[-89.20689,13.67369],[-89.20709,13.67363],[-89.20728,13.67355],[-89.20747,13.67351],[-89.2077,13.6735],[-89.208,13.67354],[-89.20821,13.67351],[-89.20838,13.67343],[-89.20852,13.67343],[-89.20866,13.67338],[-89.20888,13.67325],[-89.20897,13.67313],[-89.20909,13.67308],[-89.20932,13.67308],[-89.2094,13.6732],[-89.20952,13.67332],[-89.20968,13.67335],[-89.20995,13.67337],[-89.21019,13.67346],[-89.21041,13.67356],[-89.21073,13.67379],[-89.21086,13.67382],[-89.21104,13.67373],[-89.21117,13.67359],[-89.21149,13.67325],[-89.21172,13.67303],[-89.21182,13.67289],[-89.21192,13.6727],[-89.21194,13.67258],[-89.21203,13.67239],[-89.21223,13.67215],[-89.21247,13.6719],[-89.21257,13.67164],[-89.21275,13.67145],[-89.21284,13.67139],[-89.21284,13.67139],[-89.21283,13.67113],[-89.21307,13.67012],[-89.21307,13.67012],[-89.21207,13.67055],[-89.21198,13.67061],[-89.2113,13.66996],[-89.21035,13.6697],[-89.21024,13.6697],[-89.2091,13.66992],[-89.20787,13.66984],[-89.20767,13.66952],[-89.20766,13.6695],[-89.20758,13.66916],[-89.20752,13.66889],[-89.20805,13.66838],[-89.20807,13.66784],[-89.20782,13.66763],[-89.20729,13.6675],[-89.20695,13.66651],[-89.20695,13.66651],[-89.20643,13.66483],[-89.20688,13.66465],[-89.20717,13.66461],[-89.20717,13.66461],[-89.20722,13.66441],[-89.20731,13.66427],[-89.20744,13.66411],[-89.20776,13.66379],[-89.20788,13.66359],[-89.20793,13.66334],[-89.2079,13.6628],[-89.20786,13.66265],[-89.20773,13.66246],[-89.20769,13.66243],[-89.20762,13.6624],[-89.20745,13.66237],[-89.20737,13.66232],[-89.20735,13.66226],[-89.20741,13.66216],[-89.20743,13.66206],[-89.20741,13.662],[-89.20735,13.66195],[-89.20729,13.66191],[-89.20729,13.66191],[-89.20711,13.66187],[-89.20663,13.66185],[-89.20639,13.66191],[-89.20628,13.66196],[-89.20621,13.66199],[-89.20616,13.66203],[-89.20611,13.66203],[-89.20605,13.66198],[-89.20599,13.66183],[-89.20591,13.66177],[-89.20573,13.6617],[-89.20558,13.66161],[-89.20547,13.66145],[-89.20544,13.66136],[-89.20545,13.66128],[-89.20544,13.6612],[-89.2054,13.66113],[-89.2052,13.66102],[-89.20514,13.66098],[-89.20508,13.66093],[-89.20489,13.66066],[-89.2048,13.66057],[-89.20465,13.6605],[-89.20448,13.66046],[-89.20432,13.66046],[-89.20415,13.66044],[-89.20405,13.66046],[-89.20393,13.66053],[-89.20386,13.66057],[-89.20379,13.66058],[-89.2037,13.66056],[-89.20364,13.6605],[-89.20358,13.66036],[-89.20338,13.65995],[-89.2033,13.65973],[-89.20329,13.65961],[-89.2033,13.65952],[-89.2033,13.65952],[-89.20338,13.65946],[-89.20377,13.65928],[-89.20382,13.65925],[-89.2038,13.6592],[-89.20357,13.65874],[-89.20356,13.65868],[-89.20361,13.6586],[-89.20378,13.65833],[-89.20393,13.65818],[-89.20403,13.65807],[-89.20428,13.65776],[-89.20446,13.65749],[-89.20454,13.65745],[-89.20491,13.6574],[-89.20506,13.65733],[-89.20545,13.65694],[-89.20557,13.65664],[-89.20573,13.65645],[-89.20594,13.65628],[-89.2065,13.656],[-89.2066,13.65589],[-89.20665,13.65573],[-89.20667,13.65561],[-89.20669,13.65553],[-89.20675,13.65545],[-89.20686,13.65543],[-89.20714,13.65534],[-89.20726,13.6553],[-89.20733,13.65525],[-89.20733,13.65525],[-89.2075,13.65411],[-89.20698,13.65334],[-89.20661,13.65283],[-89.20506,13.65071],[-89.20447,13.65033],[-89.20393,13.64959],[-89.20329,13.64674],[-89.20329,13.64674],[-89.20293,13.64641],[-89.20313,13.64611],[-89.20276,13.64595],[-89.20248,13.64474],[-89.20171,13.64448],[-89.20171,13.64448],[-89.20188,13.64426],[-89.20206,13.64407],[-89.20217,13.64385],[-89.20225,13.64361],[-89.20243,13.64349],[-89.20251,13.64333],[-89.20237,13.64323],[-89.20238,13.64296],[-89.20261,13.64278],[-89.2028,13.64252],[-89.20306,13.64232],[-89.20316,13.64245],[-89.20338,13.64237],[-89.20371,13.64227],[-89.2038,13.64215],[-89.2039,13.64177],[-89.2039,13.64147],[-89.20391,13.64114],[-89.20398,13.64094],[-89.20411,13.64085],[-89.20411,13.64085],[-89.2042,13.64078],[-89.20447,13.64065],[-89.20484,13.64029],[-89.20506,13.63994],[-89.20567,13.6395],[-89.20612,13.63924],[-89.20642,13.63921],[-89.20679,13.63922],[-89.20705,13.63921],[-89.20715,13.63913],[-89.20747,13.63883],[-89.20773,13.63879],[-89.2079,13.63857],[-89.20813,13.6383],[-89.2083,13.63817],[-89.20836,13.63805],[-89.20838,13.63791]]]]}},{"type":"Feature","properties":{"nbhd_name":"Distrito Municipal 1","uesi_id":"SLV_R6462027","nbhd_code":"SLV_R6462027_7"},"geometry":{"type":"MultiPolygon","coordinates":[[[[-89.19259,13.70529],[-89.19267,13.70457],[-89.19267,13.70457],[-89.19277,13.70381],[-89.1929,13.70296],[-89.1929,13.7029],[-89.1929,13.7029],[-89.1932,13.70293],[-89.1932,13.70293],[-89.19549,13.70313],[-89.19579,13.70315],[-89.19579,13.70315],[-89.19635,13.70318],[-89.19749,13.70328],[-89.19772,13.70331],[-89.19798,13.70333],[-89.19839,13.70337],[-89.19839,13.70337],[-89.19962,13.70351],[-89.20001,13.70354],[-89.20021,13.70356],[-89.20041,13.70356],[-89.20061,13.70354],[-89.20075,13.70352],[-89.2009,13.7035],[-89.20103,13.70346],[-89.20116,13.70342],[-89.2012,13.70341],[-89.20132,13.70337],[-89.20142,13.70333],[-89.20152,13.70329],[-89.20161,13.70324],[-89.20174,13.70316],[-89.20202,13.703],[-89.20235,13.70279],[-89.20248,13.70271],[-89.2026,13.70265],[-89.20274,13.70257],[-89.20289,13.70251],[-89.20301,13.70247],[-89.20316,13.70244],[-89.20331,13.70241],[-89.20344,13.70241],[-89.2036,13.70241],[-89.20464,13.70251],[-89.20464,13.70251],[-89.20437,13.70526],[-89.20437,13.70526],[-89.20418,13.70722],[-89.20418,13.70722],[-89.20387,13.71045],[-89.20387,13.71045],[-89.20382,13.71045],[-89.20375,13.71047],[-89.20368,13.7105],[-89.20364,13.71053],[-89.2036,13.71057],[-89.20356,13.71067],[-89.20354,13.71072],[-89.20354,13.71072],[-89.20354,13.71078],[-89.2036,13.71088],[-89.20372,13.711],[-89.20381,13.71104],[-89.20377,13.71141],[-89.20345,13.71476],[-89.20345,13.71486],[-89.20346,13.71499],[-89.20346,13.71507],[-89.20348,13.71513],[-89.20348,13.71518],[-89.20352,13.71524],[-89.20358,13.7153],[-89.20361,13.71534],[-89.20361,13.71534],[-89.20364,13.71536],[-89.2037,13.7154],[-89.2038,13.71544],[-89.20396,13.71545],[-89.20406,13.71544],[-89.20419,13.71542],[-89.20433,13.71539],[-89.20433,13.71539],[-89.20473,13.71527],[-89.20512,13.71515],[-89.20522,13.71513],[-89.20527,13.71512],[-89.20535,13.7151],[-89.20585,13.71504],[-89.20585,13.71504],[-89.20595,13.71507],[-89.20599,13.71509],[-89.20604,13.71511],[-89.20606,13.71512],[-89.20609,13.71514],[-89.20612,13.71517],[-89.20613,13.71519],[-89.20614,13.71521],[-89.20615,13.71524],[-89.20616,13.71528],[-89.20616,13.71533],[-89.20614,13.71572],[-89.20604,13.7166],[-89.20604,13.7166],[-89.20598,13.71726],[-89.20592,13.71785],[-89.20586,13.71837],[-89.20582,13.71878],[-89.20576,13.71953],[-89.20573,13.71976],[-89.2057,13.7199],[-89.20565,13.72004],[-89.20555,13.72018],[-89.20542,13.72033],[-89.20542,13.72033],[-89.20535,13.72034],[-89.20518,13.72044],[-89.205,13.72052],[-89.2048,13.72059],[-89.2047,13.72063],[-89.20467,13.72068],[-89.20467,13.72068],[-89.20407,13.72092],[-89.20401,13.72097],[-89.20398,13.721],[-89.20397,13.72101],[-89.20395,13.72105],[-89.20393,13.72113],[-89.20386,13.72141],[-89.20386,13.72141],[-89.20379,13.72175],[-89.20372,13.7221],[-89.20372,13.7221],[-89.20365,13.72238],[-89.20358,13.72261],[-89.20347,13.72297],[-89.20338,13.72317],[-89.20329,13.72338],[-89.20324,13.72346],[-89.20324,13.72346],[-89.20307,13.72327],[-89.20304,13.72312],[-89.20303,13.72282],[-89.203,13.72273],[-89.20296,13.72268],[-89.20286,13.72265],[-89.20184,13.7226],[-89.20127,13.72262],[-89.20113,13.72261],[-89.20103,13.72257],[-89.20087,13.72244],[-89.20058,13.72227],[-89.20049,13.72225],[-89.20014,13.72224],[-89.20007,13.72225],[-89.2,13.72229],[-89.19995,13.72231],[-89.19991,13.72231],[-89.19979,13.72227],[-89.19965,13.72213],[-89.19962,13.72199],[-89.19958,13.72194],[-89.19915,13.72164],[-89.19894,13.7215],[-89.19849,13.72131],[-89.1984,13.72126],[-89.19832,13.72122],[-89.19827,13.72122],[-89.19822,13.72126],[-89.19805,13.72146],[-89.19788,13.7216],[-89.19775,13.72171],[-89.19768,13.72173],[-89.19756,13.72172],[-89.19749,13.72168],[-89.1974,13.72158],[-89.19736,13.72141],[-89.1973,13.72132],[-89.19724,13.72129],[-89.19716,13.72131],[-89.19679,13.72146],[-89.19672,13.72145],[-89.19652,13.72138],[-89.19631,13.72127],[-89.19623,13.7212],[-89.19609,13.72112],[-89.19604,13.72111],[-89.196,13.72111],[-89.19588,13.72112],[-89.19581,13.72111],[-89.19574,13.72106],[-89.19569,13.72101],[-89.19566,13.72095],[-89.19563,13.72087],[-89.19563,13.72087],[-89.1955,13.72045],[-89.19479,13.7205],[-89.19469,13.72032],[-89.19463,13.72008],[-89.1946,13.72005],[-89.19453,13.72003],[-89.19453,13.72003],[-89.19437,13.71998],[-89.19429,13.71993],[-89.19419,13.7198],[-89.19408,13.71973],[-89.19374,13.71967],[-89.19348,13.71967],[-89.19327,13.71962],[-89.19312,13.71934],[-89.19295,13.71933],[-89.19284,13.71938],[-89.19285,13.7197],[-89.19296,13.71992],[-89.19298,13.72022],[-89.1927,13.72019],[-89.19231,13.72003],[-89.19176,13.71998],[-89.19135,13.71991],[-89.19102,13.7198],[-89.19068,13.71963],[-89.19036,13.71936],[-89.18996,13.71918],[-89.18961,13.71931],[-89.18923,13.71949],[-89.18931,13.72019],[-89.18941,13.72045],[-89.18938,13.72062],[-89.18924,13.7208],[-89.18893,13.72076],[-89.18867,13.72061],[-89.18847,13.72042],[-89.18836,13.72037],[-89.1883,13.72038],[-89.18818,13.7204],[-89.18804,13.72045],[-89.18751,13.72051],[-89.1873,13.72046],[-89.18726,13.72042],[-89.18725,13.72039],[-89.18724,13.72034],[-89.18725,13.72031],[-89.18726,13.72027],[-89.18729,13.72024],[-89.18731,13.72021],[-89.18731,13.72017],[-89.18731,13.72011],[-89.18729,13.72004],[-89.18726,13.71999],[-89.18723,13.71994],[-89.18719,13.7199],[-89.18709,13.71988],[-89.18695,13.71991],[-89.18695,13.71991],[-89.18685,13.71989],[-89.18657,13.71973],[-89.18607,13.71962],[-89.18549,13.71999],[-89.18524,13.72023],[-89.18523,13.72054],[-89.18506,13.72077],[-89.18491,13.72081],[-89.18459,13.72052],[-89.18433,13.72028],[-89.1842,13.72013],[-89.1842,13.72013],[-89.18407,13.72006],[-89.1839,13.72009],[-89.18369,13.72028],[-89.1834,13.7204],[-89.18316,13.72031],[-89.18291,13.72013],[-89.18273,13.72021],[-89.18239,13.72046],[-89.18199,13.7208],[-89.1816,13.72121],[-89.18117,13.72124],[-89.18117,13.72124],[-89.18068,13.72085],[-89.18048,13.72059],[-89.18005,13.72036],[-89.18005,13.72036],[-89.17979,13.72031],[-89.17979,13.72031],[-89.17959,13.72037],[-89.17938,13.72052],[-89.17934,13.72076],[-89.17944,13.72094],[-89.17931,13.72108],[-89.17902,13.72087],[-89.17881,13.72094],[-89.17858,13.72086],[-89.17828,13.72082],[-89.17822,13.7207],[-89.17822,13.7207],[-89.17815,13.72058],[-89.17788,13.72054],[-89.17765,13.72037],[-89.17745,13.72004],[-89.17714,13.71989],[-89.17694,13.71981],[-89.1767,13.71976],[-89.17649,13.71971],[-89.17625,13.71986],[-89.17609,13.71977],[-89.17589,13.71973],[-89.17566,13.7197],[-89.17531,13.71978],[-89.1752,13.71989],[-89.17487,13.72034],[-89.17464,13.72057],[-89.17445,13.72054],[-89.17413,13.72031],[-89.17398,13.72033],[-89.17398,13.72048],[-89.17392,13.72065],[-89.17375,13.72068],[-89.17361,13.72058],[-89.17354,13.72062],[-89.17354,13.72062],[-89.17337,13.72047],[-89.17337,13.72047],[-89.17312,13.72025],[-89.17315,13.71994],[-89.17319,13.71964],[-89.17272,13.71911],[-89.17226,13.71873],[-89.17198,13.71837],[-89.17195,13.71792],[-89.17214,13.71766],[-89.17241,13.71749],[-89.1731,13.71735],[-89.17339,13.71738],[-89.17377,13.71736],[-89.17377,13.71736],[-89.17394,13.71718],[-89.17375,13.71695],[-89.17402,13.71655],[-89.17413,13.71639],[-89.17404,13.71597],[-89.17415,13.71567],[-89.17392,13.71531],[-89.17383,13.71497],[-89.17386,13.71482],[-89.17386,13.71482],[-89.1739,13.71461],[-89.17397,13.71431],[-89.17389,13.71397],[-89.17407,13.71372],[-89.17431,13.7136],[-89.17427,13.71343],[-89.17427,13.71343],[-89.17418,13.71334],[-89.17403,13.71319],[-89.17402,13.71293],[-89.174,13.71276],[-89.17397,13.71253],[-89.17396,13.71228],[-89.1741,13.71209],[-89.17413,13.71189],[-89.17405,13.71162],[-89.17406,13.71146],[-89.17407,13.7112],[-89.17435,13.71099],[-89.17539,13.71028],[-89.17576,13.70996],[-89.17583,13.70981],[-89.17588,13.70967],[-89.17589,13.70948],[-89.17589,13.70948],[-89.17608,13.70942],[-89.17608,13.70942],[-89.17651,13.70932],[-89.17669,13.70928],[-89.17669,13.70928],[-89.17685,13.70926],[-89.17697,13.70924],[-89.17712,13.70922],[-89.17712,13.70922],[-89.17718,13.70911],[-89.17731,13.70855],[-89.17731,13.70855],[-89.1774,13.70821],[-89.1774,13.70821],[-89.17798,13.70799],[-89.17964,13.70735],[-89.18112,13.70693],[-89.18172,13.70678],[-89.18188,13.70663],[-89.18196,13.70648],[-89.18202,13.70641],[-89.18202,13.70641],[-89.18223,13.7063],[-89.18246,13.70621],[-89.1826,13.70594],[-89.18319,13.70529],[-89.18319,13.70529],[-89.1836,13.7051],[-89.18403,13.70493],[-89.18443,13.70483],[-89.18469,13.70492],[-89.18539,13.70539],[-89.18617,13.70592],[-89.18617,13.70592],[-89.18625,13.70589],[-89.18625,13.70589],[-89.18629,13.70553],[-89.1863,13.70537],[-89.18636,13.70482],[-89.18646,13.70397],[-89.18646,13.70397],[-89.18744,13.70406],[-89.18771,13.70409],[-89.1891,13.7042],[-89.1891,13.7042],[-89.18907,13.70447],[-89.18916,13.70511],[-89.18916,13.70511],[-89.18966,13.70516],[-89.18994,13.70519],[-89.19083,13.70527],[-89.19083,13.70527],[-89.19197,13.70539],[-89.19197,13.70539],[-89.19259,13.70546],[-89.19259,13.70546],[-89.19259,13.70529]]]]}},{"type":"Feature","properties":{"nbhd_name":"Distrito Municipal 3","uesi_id":"SLV_R6462027","nbhd_code":"SLV_R6462027_8"},"geometry":{"type":"MultiPolygon","coordinates":[[[[-89.25972,13.70465],[-89.25963,13.70521],[-89.25992,13.70537],[-89.25977,13.70569],[-89.25977,13.70569],[-89.25986,13.70577],[-89.25986,13.70577],[-89.25999,13.70606],[-89.26009,13.70622],[-89.26016,13.70628],[-89.26023,13.70638],[-89.2603,13.70649],[-89.26035,13.70663],[-89.26033,13.70676],[-89.26033,13.70676],[-89.26038,13.70679],[-89.26038,13.70679],[-89.26042,13.70676],[-89.26047,13.70682],[-89.26045,13.70683],[-89.26059,13.7071],[-89.26061,13.7073],[-89.2606,13.70747],[-89.26057,13.70761],[-89.26054,13.7078],[-89.26057,13.70802],[-89.2606,13.70806],[-89.2606,13.70806],[-89.26067,13.70811],[-89.26067,13.70811],[-89.26083,13.70836],[-89.26095,13.70844],[-89.26095,13.70844],[-89.26118,13.70907],[-89.26115,13.70932],[-89.26117,13.70946],[-89.26122,13.7095],[-89.26128,13.70952],[-89.26454,13.70945],[-89.26454,13.70945],[-89.27528,13.70924],[-89.27528,13.70924],[-89.2754,13.70933],[-89.27556,13.70941],[-89.27568,13.70949],[-89.27577,13.70957],[-89.27586,13.7097],[-89.27592,13.70984],[-89.276,13.71006],[-89.27609,13.71051],[-89.27618,13.71111],[-89.2762,13.71123],[-89.27624,13.71134],[-89.27645,13.71194],[-89.27654,13.71212],[-89.27663,13.71229],[-89.27663,13.71229],[-89.27672,13.71251],[-89.27672,13.71274],[-89.27642,13.71293],[-89.27627,13.71324],[-89.27614,13.71331],[-89.2759,13.71316],[-89.27565,13.71304],[-89.27526,13.71304],[-89.27502,13.71308],[-89.27473,13.71295],[-89.27457,13.71306],[-89.27457,13.71322],[-89.27464,13.71343],[-89.27464,13.71375],[-89.27464,13.71393],[-89.27438,13.71402],[-89.27434,13.71433],[-89.27442,13.71458],[-89.2747,13.7147],[-89.27502,13.71479],[-89.27524,13.71495],[-89.27532,13.71512],[-89.2755,13.71512],[-89.27554,13.71529],[-89.27532,13.71543],[-89.27522,13.71555],[-89.27527,13.71559],[-89.27532,13.71564],[-89.27532,13.71564],[-89.27527,13.71567],[-89.27522,13.7157],[-89.27518,13.71572],[-89.27514,13.71576],[-89.27509,13.7158],[-89.2749,13.71596],[-89.27485,13.71601],[-89.2748,13.71605],[-89.27476,13.7161],[-89.27472,13.71614],[-89.27469,13.71618],[-89.27466,13.71622],[-89.27464,13.71627],[-89.27462,13.71634],[-89.27458,13.71651],[-89.27444,13.71763],[-89.27443,13.71769],[-89.27443,13.71775],[-89.27443,13.7178],[-89.27443,13.71786],[-89.27444,13.71791],[-89.27444,13.71798],[-89.27456,13.7186],[-89.27457,13.71869],[-89.27458,13.71874],[-89.27459,13.71881],[-89.2746,13.71885],[-89.2746,13.71889],[-89.2746,13.71894],[-89.2746,13.71898],[-89.27459,13.71902],[-89.27458,13.71906],[-89.27457,13.71909],[-89.27456,13.71914],[-89.27454,13.71917],[-89.27452,13.71921],[-89.2745,13.71925],[-89.27447,13.71929],[-89.27443,13.71933],[-89.27439,13.71936],[-89.27435,13.71939],[-89.2743,13.71941],[-89.27425,13.71944],[-89.27353,13.71973],[-89.27347,13.71976],[-89.27341,13.71979],[-89.27337,13.71982],[-89.27332,13.71985],[-89.27328,13.71988],[-89.27325,13.71991],[-89.27321,13.71995],[-89.27318,13.71999],[-89.27307,13.72018],[-89.27275,13.72088],[-89.27256,13.72129],[-89.27242,13.72157],[-89.2724,13.72163],[-89.27237,13.72167],[-89.27234,13.72171],[-89.27231,13.72175],[-89.27228,13.72179],[-89.27224,13.72182],[-89.2722,13.72186],[-89.27216,13.72189],[-89.27211,13.72193],[-89.27205,13.72197],[-89.27154,13.72222],[-89.27149,13.72225],[-89.27145,13.72228],[-89.27141,13.72231],[-89.27137,13.72235],[-89.27134,13.72239],[-89.27131,13.72242],[-89.27128,13.72247],[-89.27126,13.72252],[-89.27122,13.72257],[-89.2712,13.72264],[-89.27107,13.72313],[-89.2709,13.72377],[-89.27085,13.72396],[-89.27085,13.72396],[-89.27082,13.72407],[-89.27071,13.7245],[-89.27061,13.72492],[-89.27058,13.72498],[-89.27056,13.72502],[-89.27055,13.72507],[-89.27041,13.72526],[-89.27034,13.72535],[-89.27003,13.72578],[-89.27,13.72584],[-89.26998,13.72588],[-89.26996,13.72593],[-89.26994,13.72597],[-89.26994,13.72603],[-89.26993,13.72608],[-89.26992,13.72612],[-89.26992,13.72617],[-89.26992,13.72622],[-89.26998,13.72668],[-89.27004,13.72711],[-89.27006,13.72719],[-89.27007,13.72724],[-89.27008,13.72728],[-89.2701,13.72734],[-89.27013,13.72739],[-89.27015,13.72744],[-89.27017,13.72748],[-89.27031,13.72771],[-89.27051,13.728],[-89.27052,13.72804],[-89.27054,13.72808],[-89.27055,13.72813],[-89.27055,13.72816],[-89.27055,13.72822],[-89.27055,13.72825],[-89.27055,13.7283],[-89.27053,13.72835],[-89.27052,13.72838],[-89.2705,13.72842],[-89.27048,13.72846],[-89.27045,13.7285],[-89.27042,13.72853],[-89.27039,13.72856],[-89.27035,13.72859],[-89.26953,13.729],[-89.26945,13.72904],[-89.26939,13.72908],[-89.26934,13.72911],[-89.26929,13.72915],[-89.26925,13.72919],[-89.26921,13.72922],[-89.26913,13.72931],[-89.2691,13.72934],[-89.26894,13.72965],[-89.26876,13.72999],[-89.26872,13.73005],[-89.2687,13.73008],[-89.26868,13.73011],[-89.26864,13.73016],[-89.26861,13.7302],[-89.26857,13.73024],[-89.26853,13.73028],[-89.26849,13.73031],[-89.26845,13.73034],[-89.2684,13.73037],[-89.26799,13.73063],[-89.26794,13.73067],[-89.26791,13.73071],[-89.26788,13.73075],[-89.26787,13.73078],[-89.26784,13.73083],[-89.26782,13.73086],[-89.26781,13.7309],[-89.26779,13.73094],[-89.26778,13.73098],[-89.26777,13.73103],[-89.26777,13.73108],[-89.26776,13.73113],[-89.26778,13.73142],[-89.26781,13.73184],[-89.26782,13.73193],[-89.26782,13.73197],[-89.26782,13.732],[-89.26781,13.73205],[-89.26781,13.7321],[-89.2678,13.73215],[-89.26778,13.7322],[-89.26776,13.73225],[-89.26767,13.73239],[-89.26765,13.73242],[-89.26761,13.73245],[-89.26756,13.73249],[-89.26752,13.73252],[-89.26694,13.73292],[-89.26664,13.73313],[-89.26662,13.73315],[-89.26606,13.73364],[-89.26603,13.73367],[-89.26576,13.73389],[-89.2657,13.73393],[-89.26536,13.73411],[-89.26532,13.73413],[-89.26527,13.73417],[-89.26523,13.73421],[-89.26519,13.73424],[-89.26504,13.7344],[-89.265,13.73446],[-89.26495,13.73453],[-89.26492,13.7346],[-89.2649,13.73466],[-89.26488,13.73474],[-89.26487,13.73478],[-89.26485,13.73485],[-89.26479,13.7359],[-89.26474,13.73666],[-89.2647,13.73706],[-89.26468,13.7373],[-89.26468,13.7378],[-89.26468,13.73789],[-89.26468,13.73832],[-89.26471,13.73882],[-89.26473,13.73936],[-89.26476,13.73954],[-89.26488,13.74034],[-89.26488,13.74038],[-89.26488,13.74044],[-89.26488,13.7405],[-89.26488,13.74057],[-89.26488,13.74062],[-89.26488,13.74067],[-89.26486,13.74074],[-89.26456,13.74133],[-89.26437,13.74162],[-89.26425,13.74178],[-89.2639,13.74213],[-89.26346,13.7426],[-89.26342,13.74264],[-89.26338,13.74269],[-89.26334,13.74277],[-89.26333,13.74284],[-89.26332,13.74289],[-89.26331,13.74301],[-89.26329,13.74331],[-89.26328,13.74356],[-89.26329,13.74379],[-89.26334,13.74425],[-89.26337,13.74453],[-89.26341,13.74475],[-89.26341,13.74475],[-89.2627,13.74474],[-89.26163,13.74483],[-89.26157,13.74431],[-89.26088,13.74433],[-89.26086,13.74347],[-89.25999,13.74325],[-89.2599,13.74353],[-89.25951,13.74341],[-89.25896,13.74592],[-89.25639,13.74546],[-89.25639,13.74546],[-89.25648,13.74516],[-89.2565,13.74513],[-89.25652,13.7451],[-89.25655,13.74506],[-89.25658,13.74502],[-89.2566,13.74497],[-89.25662,13.74489],[-89.25669,13.74453],[-89.25674,13.74426],[-89.25675,13.74416],[-89.25675,13.74405],[-89.25675,13.74376],[-89.25681,13.74354],[-89.25688,13.74321],[-89.25698,13.74251],[-89.25687,13.74198],[-89.2569,13.73983],[-89.2569,13.73927],[-89.25687,13.73899],[-89.25671,13.73808],[-89.25489,13.73651],[-89.25394,13.73587],[-89.25374,13.73573],[-89.25374,13.73573],[-89.25239,13.73477],[-89.25058,13.73392],[-89.24999,13.73367],[-89.24895,13.73351],[-89.24849,13.73337],[-89.2481,13.7332],[-89.2476,13.73295],[-89.24734,13.7328],[-89.24679,13.73271],[-89.24666,13.73267],[-89.24644,13.73258],[-89.24644,13.73258],[-89.24628,13.73248],[-89.2461,13.73232],[-89.24595,13.73225],[-89.2458,13.7322],[-89.24567,13.73212],[-89.24559,13.73203],[-89.24554,13.73199],[-89.24545,13.73196],[-89.24538,13.73194],[-89.24531,13.73193],[-89.24525,13.7319],[-89.24522,13.73187],[-89.2452,13.73179],[-89.2452,13.73172],[-89.24516,13.73166],[-89.24509,13.73162],[-89.24487,13.7316],[-89.24476,13.73158],[-89.24464,13.73153],[-89.24458,13.73146],[-89.24451,13.73134],[-89.24449,13.73128],[-89.24448,13.73123],[-89.2445,13.73108],[-89.24449,13.73101],[-89.24446,13.73094],[-89.24441,13.73086],[-89.24437,13.73082],[-89.24412,13.73074],[-89.24356,13.7305],[-89.24239,13.72984],[-89.242,13.72955],[-89.24148,13.72942],[-89.24115,13.72936],[-89.24088,13.7293],[-89.24058,13.72913],[-89.23956,13.72898],[-89.23919,13.72895],[-89.2387,13.72879],[-89.23853,13.72864],[-89.23833,13.7286],[-89.23833,13.7286],[-89.23838,13.7272],[-89.23951,13.72727],[-89.23951,13.72727],[-89.23947,13.72719],[-89.23914,13.72682],[-89.23909,13.72671],[-89.2391,13.72658],[-89.23907,13.72642],[-89.23895,13.72626],[-89.23855,13.72602],[-89.23828,13.72597],[-89.23814,13.72595],[-89.23814,13.72595],[-89.23833,13.7258],[-89.23865,13.72563],[-89.23877,13.72556],[-89.23887,13.72552],[-89.23899,13.72551],[-89.23911,13.72551],[-89.23929,13.72554],[-89.23969,13.72572],[-89.23985,13.72574],[-89.24,13.72573],[-89.24015,13.7257],[-89.24027,13.72572],[-89.24052,13.72579],[-89.24055,13.72478],[-89.24055,13.72478],[-89.24075,13.72482],[-89.24163,13.72502],[-89.24163,13.72502],[-89.24179,13.72456],[-89.24172,13.72416],[-89.24193,13.72318],[-89.24183,13.72272],[-89.2422,13.72279],[-89.24232,13.72234],[-89.24259,13.72243],[-89.2427,13.72224],[-89.24283,13.722],[-89.24273,13.72201],[-89.24265,13.722],[-89.24255,13.72191],[-89.24314,13.72136],[-89.24314,13.72136],[-89.24376,13.72157],[-89.2439,13.72162],[-89.244,13.72166],[-89.244,13.72166],[-89.24409,13.72135],[-89.24396,13.72129],[-89.24403,13.72105],[-89.24371,13.72073],[-89.24336,13.72043],[-89.24305,13.71986],[-89.24256,13.71904],[-89.24223,13.71821],[-89.24192,13.71759],[-89.24226,13.717],[-89.24261,13.71591],[-89.24429,13.7145],[-89.24379,13.71451],[-89.24343,13.71445],[-89.24298,13.71428],[-89.24284,13.71422],[-89.24234,13.71419],[-89.24209,13.71414],[-89.24204,13.71414],[-89.24197,13.71416],[-89.24135,13.71436],[-89.24134,13.71432],[-89.24134,13.71432],[-89.24125,13.7132],[-89.24125,13.7132],[-89.24108,13.71321],[-89.24085,13.71332],[-89.24073,13.71339],[-89.24062,13.71338],[-89.24048,13.71337],[-89.24026,13.71325],[-89.24005,13.71299],[-89.23981,13.71291],[-89.23936,13.71285],[-89.23913,13.71271],[-89.23904,13.71257],[-89.23904,13.71226],[-89.23904,13.71226],[-89.23897,13.71224],[-89.23894,13.7122],[-89.23888,13.71206],[-89.23883,13.71198],[-89.23856,13.71178],[-89.23846,13.71173],[-89.23839,13.71175],[-89.23808,13.71195],[-89.23797,13.71197],[-89.23783,13.71193],[-89.23771,13.71186],[-89.23756,13.71162],[-89.23744,13.71141],[-89.23737,13.71115],[-89.23727,13.71105],[-89.23691,13.71094],[-89.2364,13.71091],[-89.2362,13.71095],[-89.23601,13.71091],[-89.23593,13.71087],[-89.23576,13.71068],[-89.23563,13.7106],[-89.23553,13.71057],[-89.23547,13.71057],[-89.23531,13.71068],[-89.23524,13.71076],[-89.23516,13.7108],[-89.23511,13.71082],[-89.23505,13.71082],[-89.23493,13.71074],[-89.2349,13.71071],[-89.23486,13.71058],[-89.23477,13.70962],[-89.23475,13.70954],[-89.2347,13.70949],[-89.23455,13.70947],[-89.23447,13.70949],[-89.23431,13.70957],[-89.23428,13.7096],[-89.2342,13.7096],[-89.23415,13.70959],[-89.23412,13.70956],[-89.23401,13.70935],[-89.2339,13.7092],[-89.23386,13.70917],[-89.23383,13.70916],[-89.23376,13.7092],[-89.23365,13.70923],[-89.23358,13.70923],[-89.23351,13.70922],[-89.23342,13.70918],[-89.23338,13.70915],[-89.23335,13.70911],[-89.23329,13.70901],[-89.23317,13.70872],[-89.23315,13.70868],[-89.23309,13.70861],[-89.23299,13.70847],[-89.23289,13.70843],[-89.2326,13.70835],[-89.23254,13.70833],[-89.23249,13.7083],[-89.23249,13.7083],[-89.23219,13.70811],[-89.23219,13.70811],[-89.23215,13.70807],[-89.23197,13.70794],[-89.2319,13.70789],[-89.23185,13.70783],[-89.2318,13.7077],[-89.23176,13.70765],[-89.23119,13.70716],[-89.23119,13.70716],[-89.23067,13.7068],[-89.23067,13.7068],[-89.23064,13.70679],[-89.23061,13.7068],[-89.23057,13.70682],[-89.23041,13.7069],[-89.23028,13.70691],[-89.23021,13.70691],[-89.23011,13.70689],[-89.23,13.70682],[-89.22986,13.70671],[-89.2298,13.70663],[-89.22977,13.70658],[-89.22977,13.70653],[-89.22979,13.70648],[-89.22982,13.70641],[-89.22983,13.70631],[-89.2298,13.7062],[-89.22976,13.70611],[-89.22969,13.70599],[-89.2296,13.70591],[-89.22944,13.70585],[-89.22932,13.70581],[-89.22906,13.70579],[-89.22895,13.70579],[-89.22889,13.7058],[-89.22884,13.70583],[-89.22867,13.70596],[-89.22863,13.70597],[-89.2286,13.70597],[-89.22857,13.70597],[-89.22842,13.70583],[-89.22828,13.70574],[-89.22821,13.70572],[-89.22816,13.70571],[-89.22807,13.70572],[-89.22794,13.70582],[-89.22792,13.70585],[-89.22781,13.70587],[-89.22773,13.7059],[-89.22763,13.70589],[-89.22752,13.70586],[-89.22728,13.70569],[-89.22715,13.70561],[-89.22709,13.70558],[-89.22704,13.70558],[-89.22689,13.70561],[-89.22679,13.70563],[-89.22668,13.70562],[-89.22668,13.70562],[-89.22643,13.70558],[-89.22643,13.70558],[-89.22633,13.70529],[-89.22633,13.70529],[-89.22617,13.70481],[-89.22617,13.70481],[-89.22601,13.70434],[-89.22583,13.7039],[-89.22572,13.70362],[-89.22565,13.70341],[-89.22556,13.7032],[-89.22543,13.70297],[-89.22536,13.70285],[-89.22504,13.70245],[-89.22479,13.70218],[-89.22472,13.70212],[-89.22466,13.70206],[-89.22449,13.70193],[-89.22417,13.7017],[-89.22417,13.7017],[-89.22401,13.70159],[-89.22385,13.7015],[-89.22369,13.70142],[-89.22356,13.70135],[-89.22356,13.70135],[-89.2234,13.70131],[-89.22324,13.70126],[-89.22304,13.70122],[-89.22274,13.70119],[-89.22274,13.70119],[-89.22275,13.70114],[-89.22275,13.70114],[-89.22283,13.70113],[-89.22291,13.70112],[-89.22305,13.7011],[-89.22317,13.70108],[-89.22334,13.70105],[-89.22356,13.70101],[-89.22356,13.70101],[-89.22383,13.70095],[-89.22392,13.70093],[-89.22399,13.70091],[-89.22405,13.7009],[-89.22411,13.70088],[-89.2242,13.70085],[-89.2242,13.70085],[-89.22436,13.70081],[-89.22466,13.70063],[-89.22485,13.70054],[-89.225,13.70044],[-89.22511,13.70037],[-89.22527,13.70025],[-89.22544,13.70011],[-89.22556,13.70001],[-89.22574,13.69983],[-89.22588,13.69968],[-89.2261,13.69939],[-89.22623,13.69918],[-89.22652,13.6987],[-89.22695,13.698],[-89.22695,13.698],[-89.22726,13.69748],[-89.22783,13.6965],[-89.22783,13.6965],[-89.2311,13.69109],[-89.23135,13.69068],[-89.23151,13.69048],[-89.23167,13.69029],[-89.23186,13.69014],[-89.23196,13.69006],[-89.23219,13.68989],[-89.23834,13.68539],[-89.23856,13.68522],[-89.23888,13.68496],[-89.23906,13.68477],[-89.23927,13.68446],[-89.23978,13.68345],[-89.23994,13.68325],[-89.23994,13.68325],[-89.24015,13.68317],[-89.2404,13.68305],[-89.24069,13.68294],[-89.24084,13.68289],[-89.24089,13.68288],[-89.24137,13.68278],[-89.24149,13.68275],[-89.24157,13.68271],[-89.24166,13.68267],[-89.24181,13.68257],[-89.24194,13.68247],[-89.24203,13.68238],[-89.24257,13.68168],[-89.24275,13.6818],[-89.24313,13.68167],[-89.24336,13.68165],[-89.24365,13.68173],[-89.24409,13.68182],[-89.24432,13.68181],[-89.24436,13.68181],[-89.24448,13.68177],[-89.24603,13.68107],[-89.24664,13.68172],[-89.24664,13.68172],[-89.24602,13.68339],[-89.2463,13.68451],[-89.246,13.68607],[-89.246,13.68607],[-89.24612,13.68612],[-89.24626,13.68616],[-89.24636,13.6862],[-89.24644,13.68626],[-89.24648,13.68631],[-89.24648,13.68639],[-89.24682,13.68786],[-89.24686,13.68794],[-89.24688,13.68798],[-89.24732,13.68862],[-89.24734,13.68868],[-89.24736,13.68871],[-89.2474,13.68875],[-89.2476,13.68885],[-89.24763,13.68886],[-89.24769,13.68885],[-89.24792,13.68886],[-89.24796,13.68886],[-89.248,13.68887],[-89.24807,13.68891],[-89.24814,13.68899],[-89.24817,13.68907],[-89.24819,13.6892],[-89.2482,13.68927],[-89.24823,13.68935],[-89.24818,13.68942],[-89.24812,13.68942],[-89.24802,13.68944],[-89.24796,13.68946],[-89.24796,13.68948],[-89.24796,13.68959],[-89.24798,13.68964],[-89.24807,13.6897],[-89.24876,13.68994],[-89.2488,13.69],[-89.24882,13.69006],[-89.24887,13.69056],[-89.24891,13.69063],[-89.249,13.69069],[-89.24919,13.69072],[-89.24939,13.69069],[-89.2495,13.69072],[-89.25025,13.69143],[-89.25031,13.69148],[-89.2504,13.69151],[-89.25044,13.69151],[-89.25044,13.69151],[-89.25056,13.69151],[-89.25056,13.69151],[-89.25064,13.69152],[-89.25064,13.69152],[-89.25069,13.69152],[-89.25069,13.69152],[-89.25132,13.69153],[-89.2514,13.69156],[-89.25197,13.692],[-89.25214,13.6921],[-89.25224,13.69215],[-89.25249,13.69226],[-89.25298,13.69244],[-89.25308,13.69253],[-89.25381,13.69338],[-89.25397,13.69355],[-89.25432,13.69378],[-89.2545,13.69393],[-89.2546,13.69403],[-89.25476,13.69425],[-89.25491,13.69438],[-89.2551,13.69448],[-89.25526,13.69452],[-89.25562,13.69448],[-89.25562,13.69448],[-89.25753,13.70115],[-89.25753,13.70115],[-89.25774,13.70145],[-89.25778,13.7016],[-89.2578,13.70176],[-89.25784,13.70192],[-89.25787,13.70204],[-89.25796,13.70223],[-89.25809,13.70251],[-89.25815,13.70261],[-89.25822,13.7027],[-89.25841,13.703],[-89.25848,13.70306],[-89.25854,13.70309],[-89.25858,13.70311],[-89.25869,13.70334],[-89.25872,13.70347],[-89.25873,13.70355],[-89.25874,13.70362],[-89.25878,13.70367],[-89.25884,13.70369],[-89.25902,13.70373],[-89.25918,13.70378],[-89.25927,13.70385],[-89.25944,13.70402],[-89.25951,13.70415],[-89.25952,13.70424],[-89.25951,13.70435],[-89.25951,13.70447],[-89.25952,13.70449],[-89.25953,13.7045],[-89.25972,13.70465]]]]}}]}