{"type":"FeatureCollection","name":"TGO_R6607308","crs":{"type":"name","properties":{"name":"urn:ogc:def:crs:OGC:1.3:CRS84"}},"features":[{"type":"Feature","properties":{"uesi_id":"TGO_R6607308","nbhd_code":"TGO_R6607308_1","nbhd_name":"1er Arrondissement"},"geometry":{"type":"MultiPolygon","coordinates":[[[[1.20921,6.12624,0.0],[1.20923,6.12672,0.0],[1.20935,6.12706,0.0],[1.20981,6.12784,0.0],[1.21007,6.12818,0.0],[1.2104,6.12852,0.0],[1.21126,6.12939,0.0],[1.21186,6.12999,0.0],[1.21225,6.13038,0.0],[1.21365,6.13181,0.0],[1.21415,6.13234,0.0],[1.21478,6.13294,0.0],[1.21511,6.13328,0.0],[1.21556,6.13371,0.0],[1.21752,6.13511,0.0],[1.21807,6.13548,0.0],[1.21815,6.13553,0.0],[1.21837,6.13562,0.0],[1.21914,6.13591,0.0],[1.22034,6.13634,0.0],[1.22107,6.13662,0.0],[1.22169,6.13684,0.0],[1.22209,6.13689,0.0],[1.22511,6.13688,0.0],[1.22526,6.13686,0.0],[1.22649,6.13664,0.0],[1.2279,6.13635,0.0],[1.22898,6.13615,0.0],[1.23093,6.13582,0.0],[1.23182,6.13547,0.0],[1.23241,6.13522,0.0],[1.2325,6.13517,0.0],[1.23262,6.13509,0.0],[1.23277,6.13498,0.0],[1.23342,6.13451,0.0],[1.23395,6.13412,0.0],[1.23457,6.13365,0.0],[1.23519,6.13318,0.0],[1.23586,6.13269,0.0],[1.23613,6.13247,0.0],[1.23632,6.13224,0.0],[1.23712,6.13064,0.0],[1.23746,6.12948,0.0],[1.23764,6.12882,0.0],[1.2379,6.12778,0.0],[1.23837,6.12597,0.0],[1.23605,6.12535,0.0],[1.23035,6.12367,0.0],[1.2299,6.1235,0.0],[1.22863,6.12302,0.0],[1.22687,6.12221,0.0],[1.22619,6.12195,0.0],[1.22482,6.12152,0.0],[1.22302,6.12091,0.0],[1.2226,6.12072,0.0],[1.2223,6.12059,0.0],[1.21966,6.11953,0.0],[1.21805,6.119,0.0],[1.21534,6.11828,0.0],[1.21191,6.11707,0.0],[1.21162,6.1178,0.0],[1.21152,6.11801,0.0],[1.21145,6.11815,0.0],[1.2112,6.11906,0.0],[1.21079,6.12054,0.0],[1.21056,6.12137,0.0],[1.21039,6.12196,0.0],[1.21032,6.12219,0.0],[1.2098,6.1241,0.0],[1.2096,6.12483,0.0],[1.20921,6.12624,0.0]]]]}},{"type":"Feature","properties":{"uesi_id":"TGO_R6607308","nbhd_code":"TGO_R6607308_2","nbhd_name":"4e Arrondissement"},"geometry":{"type":"MultiPolygon","coordinates":[[[[1.19935,6.11316,0.0],[1.19942,6.11419,0.0],[1.19951,6.11419,0.0],[1.19952,6.11432,0.0],[1.19954,6.11488,0.0],[1.19955,6.11528,0.0],[1.1995,6.11788,0.0],[1.19942,6.12347,0.0],[1.19942,6.12443,0.0],[1.19954,6.12926,0.0],[1.19952,6.13419,0.0],[1.20159,6.13475,0.0],[1.20589,6.13595,0.0],[1.2081,6.13657,0.0],[1.20926,6.13681,0.0],[1.21081,6.13718,0.0],[1.21108,6.13723,0.0],[1.21274,6.13783,0.0],[1.21388,6.13821,0.0],[1.21576,6.13889,0.0],[1.21654,6.13912,0.0],[1.2171,6.13931,0.0],[1.21809,6.13968,0.0],[1.22102,6.14044,0.0],[1.22107,6.14031,0.0],[1.22123,6.13976,0.0],[1.22126,6.13965,0.0],[1.22127,6.13961,0.0],[1.22138,6.13926,0.0],[1.22152,6.13877,0.0],[1.22169,6.13824,0.0],[1.22185,6.13772,0.0],[1.22198,6.13725,0.0],[1.22209,6.13689,0.0],[1.22169,6.13684,0.0],[1.22107,6.13662,0.0],[1.22034,6.13634,0.0],[1.21914,6.13591,0.0],[1.21837,6.13562,0.0],[1.21815,6.13553,0.0],[1.21807,6.13548,0.0],[1.21752,6.13511,0.0],[1.21556,6.13371,0.0],[1.21511,6.13328,0.0],[1.21478,6.13294,0.0],[1.21415,6.13234,0.0],[1.21365,6.13181,0.0],[1.21225,6.13038,0.0],[1.21186,6.12999,0.0],[1.21126,6.12939,0.0],[1.2104,6.12852,0.0],[1.21007,6.12818,0.0],[1.20981,6.12784,0.0],[1.20935,6.12706,0.0],[1.20923,6.12672,0.0],[1.20921,6.12624,0.0],[1.2096,6.12483,0.0],[1.2098,6.1241,0.0],[1.21032,6.12219,0.0],[1.21039,6.12196,0.0],[1.21056,6.12137,0.0],[1.21079,6.12054,0.0],[1.2112,6.11906,0.0],[1.21145,6.11815,0.0],[1.21152,6.11801,0.0],[1.21162,6.1178,0.0],[1.21191,6.11707,0.0],[1.20993,6.11604,0.0],[1.20656,6.1149,0.0],[1.20476,6.11423,0.0],[1.20301,6.11354,0.0],[1.20156,6.11315,0.0],[1.20072,6.11284,0.0],[1.19965,6.11243,0.0],[1.19962,6.11243,0.0],[1.19949,6.11281,0.0],[1.19936,6.11314,0.0],[1.19935,6.11316,0.0]]]]}},{"type":"Feature","properties":{"uesi_id":"TGO_R6607308","nbhd_code":"TGO_R6607308_3","nbhd_name":"2e Arrondissement"},"geometry":{"type":"MultiPolygon","coordinates":[[[[1.2086,6.20082,0.0],[1.21011,6.20127,0.0],[1.21197,6.20195,0.0],[1.21699,6.20361,0.0],[1.21961,6.20389,0.0],[1.22349,6.20397,0.0],[1.23,6.20402,0.0],[1.23649,6.2041,0.0],[1.23696,6.2041,0.0],[1.23745,6.20409,0.0],[1.2386,6.2041,0.0],[1.2389,6.20411,0.0],[1.23913,6.20405,0.0],[1.23924,6.20393,0.0],[1.23979,6.20388,0.0],[1.24035,6.20379,0.0],[1.24061,6.20374,0.0],[1.24089,6.20366,0.0],[1.24114,6.2036,0.0],[1.24169,6.2034,0.0],[1.24164,6.20325,0.0],[1.2421,6.20316,0.0],[1.24276,6.20305,0.0],[1.24355,6.20291,0.0],[1.2441,6.20281,0.0],[1.24414,6.2028,0.0],[1.24478,6.20269,0.0],[1.24487,6.20267,0.0],[1.24553,6.20255,0.0],[1.24659,6.20235,0.0],[1.247,6.20227,0.0],[1.24785,6.20211,0.0],[1.24791,6.2021,0.0],[1.24871,6.20196,0.0],[1.24937,6.20185,0.0],[1.24945,6.20185,0.0],[1.25075,6.20169,0.0],[1.25175,6.20151,0.0],[1.25233,6.20142,0.0],[1.25301,6.2013,0.0],[1.25367,6.20118,0.0],[1.25451,6.20104,0.0],[1.25509,6.20093,0.0],[1.25563,6.20084,0.0],[1.2569,6.20063,0.0],[1.25712,6.20058,0.0],[1.25734,6.2005,0.0],[1.25764,6.20033,0.0],[1.25776,6.20029,0.0],[1.25826,6.20019,0.0],[1.25845,6.20016,0.0],[1.25894,6.20008,0.0],[1.25916,6.20005,0.0],[1.25951,6.20004,0.0],[1.25958,6.20003,0.0],[1.26019,6.20001,0.0],[1.26051,6.2,0.0],[1.26075,6.19999,0.0],[1.26087,6.19999,0.0],[1.26129,6.19998,0.0],[1.26162,6.19997,0.0],[1.2617,6.19998,0.0],[1.26181,6.20001,0.0],[1.26194,6.20008,0.0],[1.26221,6.1999,0.0],[1.26226,6.19986,0.0],[1.26264,6.2005,0.0],[1.26451,6.19938,0.0],[1.26492,6.1991,0.0],[1.26511,6.1992,0.0],[1.26634,6.19894,0.0],[1.2662,6.19825,0.0],[1.26637,6.19814,0.0],[1.26648,6.19818,0.0],[1.26657,6.19818,0.0],[1.26684,6.19812,0.0],[1.26718,6.19804,0.0],[1.26722,6.19818,0.0],[1.26789,6.19802,0.0],[1.26798,6.19802,0.0],[1.2681,6.19798,0.0],[1.26828,6.19792,0.0],[1.2692,6.1983,0.0],[1.26961,6.19733,0.0],[1.26966,6.1972,0.0],[1.26969,6.19706,0.0],[1.26997,6.1966,0.0],[1.27002,6.19646,0.0],[1.27006,6.19637,0.0],[1.27033,6.19577,0.0],[1.27041,6.1956,0.0],[1.27066,6.19501,0.0],[1.27083,6.19462,0.0],[1.27089,6.19448,0.0],[1.27048,6.1943,0.0],[1.27037,6.19424,0.0],[1.27031,6.19422,0.0],[1.27169,6.1924,0.0],[1.27258,6.19133,0.0],[1.2738,6.19003,0.0],[1.27529,6.18861,0.0],[1.27627,6.18774,0.0],[1.27683,6.18726,0.0],[1.27735,6.18673,0.0],[1.27795,6.186,0.0],[1.27864,6.18512,0.0],[1.27868,6.18267,0.0],[1.27878,6.18248,0.0],[1.27935,6.1828,0.0],[1.27952,6.18249,0.0],[1.27984,6.18193,0.0],[1.28048,6.18075,0.0],[1.28074,6.1803,0.0],[1.28085,6.18032,0.0],[1.28095,6.18035,0.0],[1.28105,6.18037,0.0],[1.28196,6.18102,0.0],[1.28201,6.18088,0.0],[1.28267,6.18104,0.0],[1.2829,6.18014,0.0],[1.28354,6.18029,0.0],[1.28346,6.18058,0.0],[1.2834,6.18084,0.0],[1.28326,6.18081,0.0],[1.2832,6.18117,0.0],[1.28463,6.18153,0.0],[1.28452,6.1823,0.0],[1.28518,6.18244,0.0],[1.28562,6.18253,0.0],[1.28694,6.1828,0.0],[1.2875,6.18292,0.0],[1.28763,6.18235,0.0],[1.28769,6.18184,0.0],[1.28715,6.18155,0.0],[1.28592,6.18084,0.0],[1.28596,6.18057,0.0],[1.28538,6.18047,0.0],[1.28546,6.1798,0.0],[1.28478,6.17959,0.0],[1.28482,6.17937,0.0],[1.28607,6.17963,0.0],[1.28731,6.17996,0.0],[1.28749,6.17896,0.0],[1.28776,6.179,0.0],[1.2879,6.17812,0.0],[1.28874,6.17811,0.0],[1.28882,6.17825,0.0],[1.2888,6.17846,0.0],[1.2891,6.17877,0.0],[1.2892,6.17885,0.0],[1.29023,6.17908,0.0],[1.2902,6.17935,0.0],[1.29053,6.1794,0.0],[1.29177,6.1796,0.0],[1.29204,6.17963,0.0],[1.29248,6.17967,0.0],[1.29262,6.17972,0.0],[1.29291,6.17973,0.0],[1.29292,6.18021,0.0],[1.29291,6.1804,0.0],[1.29294,6.1805,0.0],[1.29301,6.18058,0.0],[1.29308,6.18063,0.0],[1.29315,6.18073,0.0],[1.2932,6.18084,0.0],[1.29343,6.18104,0.0],[1.29352,6.18116,0.0],[1.2937,6.18116,0.0],[1.29459,6.18116,0.0],[1.29457,6.18084,0.0],[1.29455,6.18067,0.0],[1.29448,6.18058,0.0],[1.29436,6.17995,0.0],[1.29433,6.17926,0.0],[1.29449,6.17926,0.0],[1.29487,6.17853,0.0],[1.29493,6.17798,0.0],[1.29496,6.17733,0.0],[1.29523,6.17703,0.0],[1.2958,6.17642,0.0],[1.29596,6.17592,0.0],[1.29602,6.17584,0.0],[1.29621,6.17531,0.0],[1.29747,6.17567,0.0],[1.29761,6.17629,0.0],[1.29821,6.17629,0.0],[1.2983,6.17718,0.0],[1.29824,6.17844,0.0],[1.29848,6.17846,0.0],[1.29856,6.17823,0.0],[1.2986,6.17801,0.0],[1.29885,6.17708,0.0],[1.29904,6.17637,0.0],[1.29906,6.17631,0.0],[1.29919,6.17581,0.0],[1.29927,6.17551,0.0],[1.29937,6.17512,0.0],[1.29941,6.17502,0.0],[1.29942,6.17494,0.0],[1.29959,6.17436,0.0],[1.29981,6.17359,0.0],[1.29998,6.17306,0.0],[1.30016,6.17242,0.0],[1.30026,6.17204,0.0],[1.30034,6.17178,0.0],[1.30074,6.17038,0.0],[1.30093,6.16972,0.0],[1.30097,6.16955,0.0],[1.30115,6.16901,0.0],[1.30134,6.16829,0.0],[1.30146,6.16786,0.0],[1.30162,6.16719,0.0],[1.30199,6.16595,0.0],[1.30212,6.16546,0.0],[1.30227,6.1648,0.0],[1.3024,6.16429,0.0],[1.30242,6.16421,0.0],[1.30256,6.16386,0.0],[1.30229,6.16379,0.0],[1.29186,6.16079,0.0],[1.29166,6.16074,0.0],[1.29134,6.16064,0.0],[1.29014,6.16029,0.0],[1.28874,6.15989,0.0],[1.28807,6.15969,0.0],[1.28762,6.15957,0.0],[1.28655,6.15925,0.0],[1.28515,6.15886,0.0],[1.28504,6.15883,0.0],[1.28502,6.15894,0.0],[1.28488,6.15946,0.0],[1.28481,6.15972,0.0],[1.28471,6.16013,0.0],[1.28453,6.16089,0.0],[1.28439,6.16089,0.0],[1.2833,6.16066,0.0],[1.28259,6.16055,0.0],[1.28253,6.16052,0.0],[1.28225,6.16043,0.0],[1.28208,6.16037,0.0],[1.282,6.16034,0.0],[1.28196,6.16027,0.0],[1.2819,6.16025,0.0],[1.28186,6.16027,0.0],[1.2818,6.16032,0.0],[1.28162,6.16028,0.0],[1.28163,6.16015,0.0],[1.28163,6.16012,0.0],[1.28118,6.16004,0.0],[1.28094,6.16,0.0],[1.28078,6.16001,0.0],[1.27997,6.15979,0.0],[1.27937,6.1594,0.0],[1.27929,6.1594,0.0],[1.27909,6.15942,0.0],[1.27819,6.15932,0.0],[1.27732,6.15928,0.0],[1.27686,6.15923,0.0],[1.27643,6.15907,0.0],[1.27609,6.15896,0.0],[1.27589,6.15893,0.0],[1.27571,6.15903,0.0],[1.27563,6.15919,0.0],[1.27529,6.15902,0.0],[1.27497,6.1589,0.0],[1.27467,6.15877,0.0],[1.27443,6.15874,0.0],[1.2743,6.15877,0.0],[1.2741,6.15876,0.0],[1.27377,6.15868,0.0],[1.27327,6.15859,0.0],[1.27263,6.15841,0.0],[1.27225,6.15831,0.0],[1.27125,6.15808,0.0],[1.27071,6.15796,0.0],[1.27023,6.15787,0.0],[1.26886,6.15755,0.0],[1.26883,6.15755,0.0],[1.2688,6.15757,0.0],[1.26877,6.15768,0.0],[1.26875,6.1577,0.0],[1.26872,6.1577,0.0],[1.26746,6.1574,0.0],[1.26692,6.15728,0.0],[1.26687,6.15727,0.0],[1.26649,6.15718,0.0],[1.26633,6.15711,0.0],[1.2662,6.15706,0.0],[1.26605,6.15698,0.0],[1.26627,6.1569,0.0],[1.26634,6.15687,0.0],[1.26659,6.15671,0.0],[1.26662,6.15672,0.0],[1.26689,6.15638,0.0],[1.26676,6.15631,0.0],[1.26662,6.1563,0.0],[1.26605,6.15637,0.0],[1.26584,6.15639,0.0],[1.26573,6.15641,0.0],[1.26559,6.15641,0.0],[1.26534,6.15637,0.0],[1.26515,6.15636,0.0],[1.26501,6.15637,0.0],[1.26495,6.1564,0.0],[1.2649,6.15641,0.0],[1.26404,6.15625,0.0],[1.26358,6.15617,0.0],[1.26304,6.15606,0.0],[1.26284,6.15602,0.0],[1.2616,6.15584,0.0],[1.26141,6.15579,0.0],[1.26095,6.15568,0.0],[1.26071,6.15563,0.0],[1.26036,6.15555,0.0],[1.26009,6.1555,0.0],[1.25994,6.15548,0.0],[1.2597,6.15542,0.0],[1.25965,6.1554,0.0],[1.25935,6.15529,0.0],[1.25842,6.15495,0.0],[1.25785,6.15478,0.0],[1.25783,6.15477,0.0],[1.25726,6.1546,0.0],[1.25611,6.15426,0.0],[1.25557,6.15409,0.0],[1.25485,6.15387,0.0],[1.25424,6.15369,0.0],[1.2537,6.15351,0.0],[1.25315,6.15332,0.0],[1.25289,6.15323,0.0],[1.25261,6.15314,0.0],[1.25243,6.15308,0.0],[1.25221,6.153,0.0],[1.25207,6.15296,0.0],[1.25154,6.15278,0.0],[1.25128,6.1527,0.0],[1.25107,6.15264,0.0],[1.25056,6.1525,0.0],[1.25006,6.15236,0.0],[1.2496,6.15222,0.0],[1.2491,6.15208,0.0],[1.24852,6.15191,0.0],[1.24798,6.15175,0.0],[1.24763,6.15164,0.0],[1.24721,6.15151,0.0],[1.24679,6.15138,0.0],[1.24615,6.15118,0.0],[1.24564,6.15102,0.0],[1.24461,6.15072,0.0],[1.2446,6.15066,0.0],[1.24458,6.15055,0.0],[1.24456,6.15035,0.0],[1.2442,6.15027,0.0],[1.24221,6.14984,0.0],[1.23937,6.14906,0.0],[1.23547,6.148,0.0],[1.23256,6.1472,0.0],[1.23166,6.14682,0.0],[1.23121,6.14657,0.0],[1.22996,6.14619,0.0],[1.23003,6.14893,0.0],[1.23005,6.14908,0.0],[1.23005,6.14932,0.0],[1.23005,6.14949,0.0],[1.23007,6.14968,0.0],[1.23008,6.15066,0.0],[1.23005,6.15091,0.0],[1.22998,6.15119,0.0],[1.22985,6.15145,0.0],[1.22922,6.15259,0.0],[1.22857,6.15379,0.0],[1.22818,6.15448,0.0],[1.22787,6.15506,0.0],[1.2277,6.15535,0.0],[1.22754,6.15567,0.0],[1.22747,6.15581,0.0],[1.22742,6.15594,0.0],[1.22718,6.15639,0.0],[1.22709,6.15655,0.0],[1.22677,6.15708,0.0],[1.22658,6.15744,0.0],[1.22642,6.15774,0.0],[1.22639,6.1578,0.0],[1.22635,6.15786,0.0],[1.22558,6.15928,0.0],[1.22445,6.16134,0.0],[1.22413,6.16193,0.0],[1.22405,6.16209,0.0],[1.22389,6.16238,0.0],[1.2238,6.16258,0.0],[1.22367,6.16288,0.0],[1.22353,6.16319,0.0],[1.22334,6.16363,0.0],[1.22317,6.16402,0.0],[1.22308,6.16426,0.0],[1.223,6.16444,0.0],[1.22292,6.16464,0.0],[1.22284,6.16483,0.0],[1.22271,6.16517,0.0],[1.22254,6.16554,0.0],[1.22242,6.16585,0.0],[1.22208,6.16671,0.0],[1.22156,6.16793,0.0],[1.2214,6.16834,0.0],[1.22122,6.16873,0.0],[1.22104,6.16915,0.0],[1.22095,6.16934,0.0],[1.22081,6.16964,0.0],[1.22071,6.16986,0.0],[1.22057,6.17012,0.0],[1.22041,6.17045,0.0],[1.22021,6.1708,0.0],[1.22008,6.17103,0.0],[1.21979,6.17158,0.0],[1.21957,6.17204,0.0],[1.21945,6.17225,0.0],[1.21929,6.17257,0.0],[1.21913,6.17286,0.0],[1.21895,6.17322,0.0],[1.21882,6.17348,0.0],[1.21865,6.17382,0.0],[1.21854,6.17402,0.0],[1.21844,6.17422,0.0],[1.21834,6.17439,0.0],[1.21815,6.17476,0.0],[1.21809,6.17488,0.0],[1.21789,6.1753,0.0],[1.21781,6.17544,0.0],[1.21773,6.1756,0.0],[1.21763,6.17579,0.0],[1.21757,6.17592,0.0],[1.21751,6.17605,0.0],[1.21744,6.17618,0.0],[1.21736,6.17633,0.0],[1.21722,6.17659,0.0],[1.21712,6.1768,0.0],[1.21679,6.17742,0.0],[1.21673,6.17753,0.0],[1.21653,6.17791,0.0],[1.21634,6.1783,0.0],[1.21596,6.17904,0.0],[1.21558,6.17979,0.0],[1.21541,6.18012,0.0],[1.21524,6.18047,0.0],[1.21489,6.18116,0.0],[1.21439,6.18215,0.0],[1.21432,6.18235,0.0],[1.21413,6.18276,0.0],[1.21398,6.18308,0.0],[1.21389,6.18327,0.0],[1.21356,6.18392,0.0],[1.21344,6.1842,0.0],[1.21317,6.18476,0.0],[1.21219,6.18679,0.0],[1.21162,6.18798,0.0],[1.21132,6.18861,0.0],[1.21127,6.18871,0.0],[1.21126,6.18879,0.0],[1.21121,6.1889,0.0],[1.2111,6.18915,0.0],[1.21099,6.18941,0.0],[1.21089,6.18967,0.0],[1.21078,6.18995,0.0],[1.21072,6.19009,0.0],[1.21062,6.19028,0.0],[1.21046,6.19061,0.0],[1.21031,6.19092,0.0],[1.21016,6.19122,0.0],[1.21003,6.19148,0.0],[1.20991,6.1917,0.0],[1.20979,6.19198,0.0],[1.20969,6.19216,0.0],[1.20958,6.19238,0.0],[1.20952,6.19253,0.0],[1.20945,6.19273,0.0],[1.20933,6.19355,0.0],[1.20926,6.19396,0.0],[1.20919,6.19429,0.0],[1.20903,6.19515,0.0],[1.209,6.1954,0.0],[1.20893,6.1962,0.0],[1.20879,6.19796,0.0],[1.2086,6.20082,0.0]]]]}},{"type":"Feature","properties":{"uesi_id":"TGO_R6607308","nbhd_code":"TGO_R6607308_4","nbhd_name":"3e Arrondissement"},"geometry":{"type":"MultiPolygon","coordinates":[[[[1.22102,6.14044,0.0],[1.22118,6.14061,0.0],[1.22145,6.14093,0.0],[1.22157,6.14104,0.0],[1.22171,6.14113,0.0],[1.22365,6.14203,0.0],[1.22517,6.14266,0.0],[1.22519,6.14267,0.0],[1.22675,6.14327,0.0],[1.22756,6.14349,0.0],[1.22784,6.14357,0.0],[1.22924,6.14397,0.0],[1.22986,6.14409,0.0],[1.22987,6.14412,0.0],[1.22999,6.14415,0.0],[1.23011,6.14416,0.0],[1.23028,6.14418,0.0],[1.23048,6.14427,0.0],[1.23116,6.14443,0.0],[1.23133,6.14454,0.0],[1.2329,6.14496,0.0],[1.23368,6.14517,0.0],[1.23389,6.14525,0.0],[1.23424,6.14534,0.0],[1.23441,6.14536,0.0],[1.23467,6.14543,0.0],[1.23476,6.14548,0.0],[1.23499,6.14551,0.0],[1.23532,6.14564,0.0],[1.23547,6.14565,0.0],[1.23552,6.14565,0.0],[1.2356,6.1457,0.0],[1.23566,6.14572,0.0],[1.2357,6.14571,0.0],[1.23677,6.14597,0.0],[1.23752,6.14632,0.0],[1.23842,6.14671,0.0],[1.2393,6.14708,0.0],[1.23934,6.14713,0.0],[1.23939,6.14716,0.0],[1.23945,6.14716,0.0],[1.23992,6.14736,0.0],[1.24009,6.14744,0.0],[1.24096,6.14781,0.0],[1.2419,6.14806,0.0],[1.24283,6.14832,0.0],[1.24349,6.14847,0.0],[1.24379,6.14855,0.0],[1.24386,6.14856,0.0],[1.24387,6.14859,0.0],[1.24395,6.14861,0.0],[1.24396,6.14859,0.0],[1.24409,6.1486,0.0],[1.24416,6.14862,0.0],[1.24422,6.14868,0.0],[1.24429,6.14872,0.0],[1.24444,6.14874,0.0],[1.2445,6.14871,0.0],[1.24458,6.1487,0.0],[1.24471,6.14874,0.0],[1.24482,6.14878,0.0],[1.24683,6.14932,0.0],[1.2479,6.1496,0.0],[1.24931,6.14999,0.0],[1.25007,6.1502,0.0],[1.2507,6.15037,0.0],[1.25078,6.1504,0.0],[1.25082,6.1506,0.0],[1.25086,6.15081,0.0],[1.25088,6.15095,0.0],[1.25093,6.15104,0.0],[1.25175,6.15127,0.0],[1.25262,6.1515,0.0],[1.25301,6.1516,0.0],[1.25314,6.15162,0.0],[1.25328,6.15166,0.0],[1.25336,6.15166,0.0],[1.25366,6.15176,0.0],[1.25389,6.15183,0.0],[1.25505,6.15209,0.0],[1.25571,6.1523,0.0],[1.25738,6.15274,0.0],[1.25757,6.15278,0.0],[1.25791,6.15298,0.0],[1.25841,6.15328,0.0],[1.25932,6.15349,0.0],[1.25926,6.15418,0.0],[1.26223,6.15514,0.0],[1.26276,6.15524,0.0],[1.26286,6.15496,0.0],[1.26349,6.15513,0.0],[1.26343,6.15539,0.0],[1.26629,6.1562,0.0],[1.26697,6.15602,0.0],[1.26702,6.15632,0.0],[1.26717,6.15628,0.0],[1.26732,6.15625,0.0],[1.26757,6.15613,0.0],[1.2678,6.15604,0.0],[1.26805,6.15594,0.0],[1.2683,6.15581,0.0],[1.2685,6.15568,0.0],[1.26875,6.1555,0.0],[1.2689,6.15539,0.0],[1.26905,6.15523,0.0],[1.26917,6.1551,0.0],[1.26934,6.1549,0.0],[1.26949,6.15468,0.0],[1.26965,6.15449,0.0],[1.27232,6.15529,0.0],[1.27242,6.15532,0.0],[1.27281,6.15534,0.0],[1.27346,6.15549,0.0],[1.27384,6.15559,0.0],[1.28493,6.1588,0.0],[1.28504,6.15883,0.0],[1.28515,6.15886,0.0],[1.28655,6.15925,0.0],[1.28762,6.15957,0.0],[1.28807,6.15969,0.0],[1.28874,6.15989,0.0],[1.29014,6.16029,0.0],[1.29134,6.16064,0.0],[1.29166,6.16074,0.0],[1.29186,6.16079,0.0],[1.30229,6.16379,0.0],[1.30256,6.16386,0.0],[1.30259,6.16372,0.0],[1.30316,6.16136,0.0],[1.30343,6.16018,0.0],[1.30345,6.16011,0.0],[1.30369,6.15908,0.0],[1.30373,6.15888,0.0],[1.30406,6.15747,0.0],[1.30492,6.1578,0.0],[1.30495,6.15771,0.0],[1.30492,6.15766,0.0],[1.30504,6.15728,0.0],[1.305,6.15715,0.0],[1.30568,6.15545,0.0],[1.30574,6.15382,0.0],[1.3054,6.15359,0.0],[1.30559,6.15245,0.0],[1.30565,6.15215,0.0],[1.30553,6.15213,0.0],[1.3051,6.15193,0.0],[1.30451,6.15169,0.0],[1.30437,6.15163,0.0],[1.3042,6.15158,0.0],[1.30387,6.1515,0.0],[1.30352,6.1514,0.0],[1.30309,6.15136,0.0],[1.30283,6.15132,0.0],[1.30243,6.15131,0.0],[1.30204,6.15125,0.0],[1.30148,6.15111,0.0],[1.30096,6.15089,0.0],[1.30054,6.1508,0.0],[1.30025,6.15071,0.0],[1.30012,6.15065,0.0],[1.29996,6.15058,0.0],[1.2998,6.15053,0.0],[1.29949,6.15041,0.0],[1.29918,6.15029,0.0],[1.29883,6.15018,0.0],[1.29861,6.1501,0.0],[1.29837,6.15001,0.0],[1.29829,6.14997,0.0],[1.29819,6.14994,0.0],[1.29804,6.14994,0.0],[1.29789,6.14993,0.0],[1.29773,6.14991,0.0],[1.29759,6.14986,0.0],[1.29738,6.1498,0.0],[1.29723,6.14975,0.0],[1.29714,6.14968,0.0],[1.29686,6.14951,0.0],[1.29656,6.14936,0.0],[1.29637,6.14926,0.0],[1.29609,6.14917,0.0],[1.29544,6.14914,0.0],[1.29505,6.14908,0.0],[1.29487,6.14901,0.0],[1.29469,6.14891,0.0],[1.29439,6.14869,0.0],[1.29406,6.14838,0.0],[1.29381,6.14804,0.0],[1.29361,6.14751,0.0],[1.29352,6.14739,0.0],[1.29341,6.1473,0.0],[1.29286,6.1471,0.0],[1.29172,6.1467,0.0],[1.29104,6.1464,0.0],[1.29061,6.14607,0.0],[1.29043,6.1458,0.0],[1.29044,6.14481,0.0],[1.29038,6.14187,0.0],[1.29037,6.13744,0.0],[1.29037,6.13741,0.0],[1.29035,6.13738,0.0],[1.29033,6.13736,0.0],[1.2903,6.13735,0.0],[1.29027,6.13734,0.0],[1.29116,6.13573,0.0],[1.29205,6.13412,0.0],[1.29208,6.1341,0.0],[1.29211,6.13408,0.0],[1.29212,6.13404,0.0],[1.29212,6.13401,0.0],[1.29212,6.13397,0.0],[1.2921,6.13394,0.0],[1.29207,6.13392,0.0],[1.29203,6.13391,0.0],[1.28794,6.13426,0.0],[1.28792,6.13424,0.0],[1.2879,6.13422,0.0],[1.28789,6.1342,0.0],[1.28787,6.13379,0.0],[1.28787,6.13345,0.0],[1.28787,6.13214,0.0],[1.28787,6.13211,0.0],[1.28786,6.13209,0.0],[1.28784,6.13207,0.0],[1.28782,6.13205,0.0],[1.28779,6.13205,0.0],[1.28776,6.13205,0.0],[1.28774,6.13206,0.0],[1.28772,6.13209,0.0],[1.28771,6.13211,0.0],[1.2877,6.13214,0.0],[1.28772,6.13362,0.0],[1.28636,6.13371,0.0],[1.28406,6.13391,0.0],[1.28216,6.13385,0.0],[1.27729,6.13359,0.0],[1.2733,6.13379,0.0],[1.27236,6.13382,0.0],[1.27168,6.13366,0.0],[1.26962,6.13329,0.0],[1.26871,6.13326,0.0],[1.26641,6.13302,0.0],[1.2646,6.13292,0.0],[1.26358,6.13283,0.0],[1.26318,6.13281,0.0],[1.2619,6.13269,0.0],[1.2579,6.13163,0.0],[1.25373,6.12992,0.0],[1.25296,6.12968,0.0],[1.25185,6.1295,0.0],[1.2491,6.12901,0.0],[1.24747,6.12853,0.0],[1.24596,6.12798,0.0],[1.23837,6.12597,0.0],[1.2379,6.12778,0.0],[1.23764,6.12882,0.0],[1.23746,6.12948,0.0],[1.23712,6.13064,0.0],[1.23632,6.13224,0.0],[1.23613,6.13247,0.0],[1.23586,6.13269,0.0],[1.23519,6.13318,0.0],[1.23457,6.13365,0.0],[1.23395,6.13412,0.0],[1.23342,6.13451,0.0],[1.23277,6.13498,0.0],[1.23262,6.13509,0.0],[1.2325,6.13517,0.0],[1.23241,6.13522,0.0],[1.23182,6.13547,0.0],[1.23093,6.13582,0.0],[1.22898,6.13615,0.0],[1.2279,6.13635,0.0],[1.22649,6.13664,0.0],[1.22526,6.13686,0.0],[1.22511,6.13688,0.0],[1.22209,6.13689,0.0],[1.22198,6.13725,0.0],[1.22185,6.13772,0.0],[1.22169,6.13824,0.0],[1.22152,6.13877,0.0],[1.22138,6.13926,0.0],[1.22127,6.13961,0.0],[1.22126,6.13965,0.0],[1.22123,6.13976,0.0],[1.22107,6.14031,0.0],[1.22102,6.14044,0.0]]]]}},{"type":"Feature","properties":{"uesi_id":"TGO_R6607308","nbhd_code":"TGO_R6607308_5","nbhd_name":"5e Arrondissement"},"geometry":{"type":"MultiPolygon","coordinates":[[[[1.17544,6.1881,0.0],[1.17556,6.18824,0.0],[1.17598,6.18883,0.0],[1.17648,6.18965,0.0],[1.17711,6.19052,0.0],[1.17726,6.19073,0.0],[1.17799,6.19172,0.0],[1.17852,6.19246,0.0],[1.17877,6.1923,0.0],[1.17887,6.19215,0.0],[1.17936,6.19274,0.0],[1.17971,6.19323,0.0],[1.18009,6.1937,0.0],[1.18014,6.19365,0.0],[1.18062,6.19318,0.0],[1.18113,6.19395,0.0],[1.1815,6.19448,0.0],[1.18186,6.19505,0.0],[1.18222,6.19565,0.0],[1.18227,6.19573,0.0],[1.18261,6.19621,0.0],[1.18266,6.19628,0.0],[1.18305,6.19688,0.0],[1.18375,6.19801,0.0],[1.18413,6.19856,0.0],[1.18422,6.19851,0.0],[1.18489,6.19806,0.0],[1.18529,6.19779,0.0],[1.18634,6.19705,0.0],[1.18674,6.19678,0.0],[1.18707,6.19657,0.0],[1.18766,6.19619,0.0],[1.18824,6.19584,0.0],[1.18858,6.19562,0.0],[1.18876,6.19556,0.0],[1.18877,6.19589,0.0],[1.18871,6.19638,0.0],[1.18863,6.19724,0.0],[1.18857,6.19794,0.0],[1.18856,6.19814,0.0],[1.18854,6.19845,0.0],[1.18851,6.19876,0.0],[1.18985,6.19892,0.0],[1.1914,6.19913,0.0],[1.19185,6.19918,0.0],[1.19197,6.1992,0.0],[1.19244,6.19965,0.0],[1.19272,6.19993,0.0],[1.19323,6.20042,0.0],[1.19363,6.20082,0.0],[1.19372,6.2009,0.0],[1.19422,6.20143,0.0],[1.19427,6.20153,0.0],[1.19447,6.20145,0.0],[1.19481,6.20128,0.0],[1.19669,6.20022,0.0],[1.2003,6.19817,0.0],[1.20113,6.1977,0.0],[1.20158,6.19744,0.0],[1.20175,6.19734,0.0],[1.20286,6.19675,0.0],[1.20316,6.19658,0.0],[1.20345,6.1964,0.0],[1.20476,6.19566,0.0],[1.20524,6.19541,0.0],[1.20578,6.19507,0.0],[1.20602,6.19492,0.0],[1.20613,6.19486,0.0],[1.20644,6.19468,0.0],[1.2068,6.19451,0.0],[1.20709,6.19441,0.0],[1.20724,6.19437,0.0],[1.20743,6.19433,0.0],[1.20777,6.1943,0.0],[1.20825,6.1943,0.0],[1.20866,6.1943,0.0],[1.20919,6.19429,0.0],[1.20926,6.19396,0.0],[1.20933,6.19355,0.0],[1.20945,6.19273,0.0],[1.20952,6.19253,0.0],[1.20958,6.19238,0.0],[1.20969,6.19216,0.0],[1.20979,6.19198,0.0],[1.20991,6.1917,0.0],[1.21003,6.19148,0.0],[1.21016,6.19122,0.0],[1.21031,6.19092,0.0],[1.21046,6.19061,0.0],[1.21062,6.19028,0.0],[1.21072,6.19009,0.0],[1.21078,6.18995,0.0],[1.21089,6.18967,0.0],[1.21099,6.18941,0.0],[1.2111,6.18915,0.0],[1.21121,6.1889,0.0],[1.21126,6.18879,0.0],[1.21127,6.18871,0.0],[1.21132,6.18861,0.0],[1.21162,6.18798,0.0],[1.21219,6.18679,0.0],[1.21317,6.18476,0.0],[1.21344,6.1842,0.0],[1.21356,6.18392,0.0],[1.21389,6.18327,0.0],[1.21398,6.18308,0.0],[1.21413,6.18276,0.0],[1.21432,6.18235,0.0],[1.21439,6.18215,0.0],[1.21489,6.18116,0.0],[1.21524,6.18047,0.0],[1.21541,6.18012,0.0],[1.21558,6.17979,0.0],[1.21596,6.17904,0.0],[1.21634,6.1783,0.0],[1.21653,6.17791,0.0],[1.21673,6.17753,0.0],[1.21679,6.17742,0.0],[1.21712,6.1768,0.0],[1.21722,6.17659,0.0],[1.21736,6.17633,0.0],[1.21744,6.17618,0.0],[1.21751,6.17605,0.0],[1.21757,6.17592,0.0],[1.21763,6.17579,0.0],[1.21773,6.1756,0.0],[1.21781,6.17544,0.0],[1.21789,6.1753,0.0],[1.21809,6.17488,0.0],[1.21815,6.17476,0.0],[1.21834,6.17439,0.0],[1.21844,6.17422,0.0],[1.21854,6.17402,0.0],[1.21865,6.17382,0.0],[1.21882,6.17348,0.0],[1.21895,6.17322,0.0],[1.21913,6.17286,0.0],[1.21929,6.17257,0.0],[1.21945,6.17225,0.0],[1.21957,6.17204,0.0],[1.21979,6.17158,0.0],[1.22008,6.17103,0.0],[1.22021,6.1708,0.0],[1.22041,6.17045,0.0],[1.22057,6.17012,0.0],[1.22071,6.16986,0.0],[1.22081,6.16964,0.0],[1.22095,6.16934,0.0],[1.22104,6.16915,0.0],[1.22122,6.16873,0.0],[1.2214,6.16834,0.0],[1.22156,6.16793,0.0],[1.22208,6.16671,0.0],[1.22242,6.16585,0.0],[1.22254,6.16554,0.0],[1.22271,6.16517,0.0],[1.22284,6.16483,0.0],[1.22292,6.16464,0.0],[1.223,6.16444,0.0],[1.22308,6.16426,0.0],[1.22317,6.16402,0.0],[1.22334,6.16363,0.0],[1.22353,6.16319,0.0],[1.22367,6.16288,0.0],[1.2238,6.16258,0.0],[1.22389,6.16238,0.0],[1.22405,6.16209,0.0],[1.22413,6.16193,0.0],[1.22445,6.16134,0.0],[1.22558,6.15928,0.0],[1.22635,6.15786,0.0],[1.22639,6.1578,0.0],[1.22642,6.15774,0.0],[1.22658,6.15744,0.0],[1.22677,6.15708,0.0],[1.22709,6.15655,0.0],[1.22718,6.15639,0.0],[1.22742,6.15594,0.0],[1.22747,6.15581,0.0],[1.22754,6.15567,0.0],[1.2277,6.15535,0.0],[1.22787,6.15506,0.0],[1.22818,6.15448,0.0],[1.22857,6.15379,0.0],[1.22922,6.15259,0.0],[1.22985,6.15145,0.0],[1.22998,6.15119,0.0],[1.23005,6.15091,0.0],[1.23008,6.15066,0.0],[1.23007,6.14968,0.0],[1.23005,6.14949,0.0],[1.23005,6.14932,0.0],[1.23005,6.14908,0.0],[1.23003,6.14893,0.0],[1.22996,6.14619,0.0],[1.22983,6.14614,0.0],[1.22801,6.14586,0.0],[1.22809,6.14542,0.0],[1.22545,6.1449,0.0],[1.2249,6.14481,0.0],[1.22338,6.14428,0.0],[1.22263,6.14404,0.0],[1.22076,6.14332,0.0],[1.22074,6.14341,0.0],[1.22066,6.14336,0.0],[1.22043,6.14328,0.0],[1.22026,6.14323,0.0],[1.22016,6.14317,0.0],[1.21988,6.14306,0.0],[1.2194,6.14289,0.0],[1.21827,6.14254,0.0],[1.21725,6.14221,0.0],[1.21644,6.14205,0.0],[1.21585,6.14193,0.0],[1.2156,6.14266,0.0],[1.21284,6.14173,0.0],[1.21315,6.14089,0.0],[1.21276,6.14074,0.0],[1.21156,6.14028,0.0],[1.2099,6.13962,0.0],[1.20971,6.14001,0.0],[1.20717,6.13915,0.0],[1.20586,6.13859,0.0],[1.20392,6.138,0.0],[1.20261,6.1376,0.0],[1.19978,6.13673,0.0],[1.19943,6.13662,0.0],[1.19939,6.13764,0.0],[1.19955,6.14458,0.0],[1.19957,6.1512,0.0],[1.19945,6.1574,0.0],[1.19943,6.15827,0.0],[1.19941,6.15957,0.0],[1.19938,6.16084,0.0],[1.19944,6.16912,0.0],[1.19599,6.1692,0.0],[1.19543,6.16941,0.0],[1.17731,6.16938,0.0],[1.17726,6.17057,0.0],[1.17724,6.17119,0.0],[1.17723,6.17147,0.0],[1.17721,6.17273,0.0],[1.17741,6.17344,0.0],[1.17749,6.17363,0.0],[1.17736,6.17369,0.0],[1.17727,6.17507,0.0],[1.17725,6.1755,0.0],[1.1773,6.17553,0.0],[1.17729,6.17583,0.0],[1.17726,6.17608,0.0],[1.17722,6.17623,0.0],[1.17715,6.17627,0.0],[1.17708,6.17632,0.0],[1.17678,6.17652,0.0],[1.17639,6.1768,0.0],[1.17648,6.17694,0.0],[1.17667,6.17771,0.0],[1.17665,6.17778,0.0],[1.17667,6.17795,0.0],[1.17695,6.17848,0.0],[1.17728,6.17906,0.0],[1.17744,6.17933,0.0],[1.17795,6.1791,0.0],[1.17859,6.17882,0.0],[1.17915,6.18008,0.0],[1.17965,6.18119,0.0],[1.17963,6.1812,0.0],[1.17993,6.18188,0.0],[1.18013,6.18239,0.0],[1.18042,6.18304,0.0],[1.18077,6.18384,0.0],[1.18082,6.18399,0.0],[1.17909,6.18532,0.0],[1.17766,6.18639,0.0],[1.17544,6.1881,0.0]]]]}}]}