{"type":"FeatureCollection","name":"TWN_R3155553","crs":{"type":"name","properties":{"name":"urn:ogc:def:crs:OGC:1.3:CRS84"}},"features":[{"type":"Feature","properties":{"uesi_id":"TWN_R3155553","nbhd_code":"TWN_R3155553_1","nbhd_name":"\u601d\u6e90\u91cc"},"geometry":{"type":"MultiPolygon","coordinates":[[[[121.74199,24.74902],[121.74203,24.74895],[121.74208,24.74887],[121.74214,24.74885],[121.74219,24.74884],[121.74226,24.74883],[121.74229,24.74883],[121.7429,24.74867],[121.74322,24.74859],[121.74328,24.74857],[121.74375,24.74846],[121.74413,24.74835],[121.74419,24.74834],[121.7447,24.74821],[121.74515,24.74809],[121.74539,24.74803],[121.74546,24.74801],[121.7474,24.74747],[121.74792,24.74733],[121.74817,24.74726],[121.74829,24.74722],[121.74858,24.74714],[121.7487,24.74711],[121.74896,24.74705],[121.7492,24.74698],[121.74925,24.74697],[121.7494,24.74693],[121.74902,24.74617],[121.74894,24.74599],[121.74842,24.74493],[121.74835,24.74479],[121.74742,24.74484],[121.74702,24.74485],[121.74629,24.74489],[121.74544,24.74494],[121.745,24.74497],[121.74478,24.74501],[121.74467,24.74503],[121.74444,24.74507],[121.74434,24.74509],[121.74402,24.74516],[121.74321,24.74534],[121.74252,24.74553],[121.74246,24.74555],[121.74233,24.74558],[121.74213,24.74497],[121.742,24.74457],[121.74184,24.74457],[121.74165,24.74461],[121.74146,24.74467],[121.74137,24.7447],[121.74128,24.74472],[121.74107,24.74478],[121.74098,24.74479],[121.74073,24.74486],[121.74064,24.74487],[121.74043,24.74489],[121.74017,24.74493],[121.74001,24.74494],[121.73988,24.74495],[121.73975,24.74497],[121.73957,24.74498],[121.7395,24.74498],[121.73929,24.74499],[121.73911,24.745],[121.73884,24.74502],[121.73868,24.74504],[121.73842,24.74509],[121.73825,24.74512],[121.73819,24.74515],[121.73803,24.74518],[121.73791,24.74521],[121.73782,24.74522],[121.73768,24.74526],[121.73748,24.7453],[121.73739,24.74532],[121.73723,24.74536],[121.73706,24.7454],[121.73698,24.74542],[121.7368,24.74547],[121.73664,24.74552],[121.73654,24.74557],[121.7364,24.74561],[121.73628,24.74566],[121.73617,24.7457],[121.73604,24.74574],[121.73579,24.74583],[121.73561,24.7459],[121.73541,24.74597],[121.73527,24.74603],[121.73518,24.74606],[121.73493,24.74616],[121.73484,24.74619],[121.73475,24.74622],[121.73455,24.7463],[121.73449,24.74633],[121.73434,24.74641],[121.73421,24.74649],[121.73412,24.74655],[121.73406,24.74659],[121.73401,24.74662],[121.73391,24.74669],[121.73385,24.74674],[121.73377,24.74679],[121.73372,24.74683],[121.73332,24.74715],[121.73322,24.74722],[121.73308,24.74733],[121.73294,24.74744],[121.73267,24.74767],[121.73244,24.74784],[121.73217,24.74806],[121.73208,24.74814],[121.73202,24.74819],[121.73207,24.74821],[121.7324,24.74836],[121.73767,24.74684],[121.73768,24.74684],[121.73907,24.74756],[121.74196,24.74906],[121.74199,24.74902]]]]}},{"type":"Feature","properties":{"uesi_id":"TWN_R3155553","nbhd_code":"TWN_R3155553_2","nbhd_name":"\u6587\u5316\u91cc"},"geometry":{"type":"MultiPolygon","coordinates":[[[[121.74494,24.75229],[121.74613,24.75199],[121.74616,24.75198],[121.74683,24.7518],[121.74697,24.75164],[121.7479,24.75121],[121.7485,24.75088],[121.74871,24.75078],[121.74952,24.75055],[121.75064,24.75016],[121.75063,24.75015],[121.7506,24.75003],[121.75055,24.74988],[121.75051,24.74976],[121.75037,24.74942],[121.75021,24.74902],[121.75011,24.74877],[121.74998,24.74841],[121.74987,24.74812],[121.7494,24.74693],[121.74925,24.74697],[121.7492,24.74698],[121.74896,24.74705],[121.7487,24.74711],[121.74858,24.74714],[121.74829,24.74722],[121.74817,24.74726],[121.74792,24.74733],[121.7474,24.74747],[121.74546,24.74801],[121.74539,24.74803],[121.74515,24.74809],[121.7447,24.74821],[121.74419,24.74834],[121.74413,24.74835],[121.74375,24.74846],[121.74328,24.74857],[121.74322,24.74859],[121.74372,24.75018],[121.74375,24.75028],[121.74388,24.75071],[121.74396,24.75097],[121.74401,24.75114],[121.74408,24.75133],[121.74409,24.75136],[121.74418,24.75168],[121.74432,24.75211],[121.74439,24.75235],[121.74442,24.75243],[121.74494,24.75229]]]]}},{"type":"Feature","properties":{"uesi_id":"TWN_R3155553","nbhd_code":"TWN_R3155553_3","nbhd_name":"\u5fa9\u8208\u91cc"},"geometry":{"type":"MultiPolygon","coordinates":[[[[121.75164,24.74991],[121.7528,24.7497],[121.75284,24.74959],[121.75292,24.74938],[121.75294,24.74933],[121.75294,24.74932],[121.75309,24.74894],[121.75322,24.74859],[121.75362,24.74757],[121.75361,24.74757],[121.75334,24.74748],[121.75303,24.74739],[121.75297,24.74737],[121.75266,24.74727],[121.75264,24.74726],[121.75266,24.74721],[121.75282,24.74679],[121.7529,24.74658],[121.75295,24.74647],[121.75296,24.74645],[121.75299,24.74636],[121.75319,24.7459],[121.7532,24.74588],[121.7533,24.74561],[121.75209,24.74521],[121.75125,24.74492],[121.75064,24.74474],[121.74935,24.74477],[121.74835,24.74479],[121.74842,24.74493],[121.74894,24.74599],[121.74902,24.74617],[121.7494,24.74693],[121.74987,24.74812],[121.74998,24.74841],[121.75011,24.74877],[121.75021,24.74902],[121.75037,24.74942],[121.75051,24.74976],[121.75055,24.74988],[121.7506,24.75003],[121.75063,24.75015],[121.75064,24.75016],[121.75164,24.74991]]]]}},{"type":"Feature","properties":{"uesi_id":"TWN_R3155553","nbhd_code":"TWN_R3155553_4","nbhd_name":"\u5927\u65b0\u91cc"},"geometry":{"type":"MultiPolygon","coordinates":[[[[121.75707,24.75836],[121.75757,24.75827],[121.75798,24.7582],[121.75882,24.75805],[121.75889,24.75804],[121.75939,24.75798],[121.75952,24.75796],[121.75834,24.75462],[121.75829,24.75448],[121.75822,24.75426],[121.75725,24.75193],[121.75562,24.75231],[121.75562,24.75231],[121.75563,24.75235],[121.75576,24.75268],[121.75589,24.75305],[121.75603,24.75338],[121.75608,24.75351],[121.75619,24.75376],[121.75635,24.75417],[121.75638,24.75424],[121.75653,24.75462],[121.75668,24.75499],[121.75608,24.75513],[121.75564,24.75523],[121.75575,24.75568],[121.75576,24.7557],[121.75581,24.75592],[121.75597,24.75632],[121.75598,24.75636],[121.75622,24.75701],[121.75632,24.75726],[121.75672,24.75841],[121.75707,24.75836]]]]}},{"type":"Feature","properties":{"uesi_id":"TWN_R3155553","nbhd_code":"TWN_R3155553_5","nbhd_name":"\u65b0\u6771\u91cc"},"geometry":{"type":"MultiPolygon","coordinates":[[[[121.75974,24.75793],[121.75985,24.7579],[121.75991,24.75788],[121.76014,24.75778],[121.76019,24.75775],[121.76038,24.75758],[121.76064,24.75728],[121.76092,24.75696],[121.76115,24.75668],[121.76147,24.75631],[121.7621,24.75558],[121.76213,24.75555],[121.7622,24.75548],[121.76225,24.75543],[121.76236,24.75531],[121.76246,24.75518],[121.76254,24.75509],[121.76279,24.7548],[121.76307,24.75447],[121.7636,24.75384],[121.76379,24.75362],[121.76391,24.75349],[121.76409,24.75326],[121.76423,24.75309],[121.76464,24.75262],[121.76492,24.75229],[121.76502,24.75218],[121.76504,24.75216],[121.76514,24.75207],[121.76522,24.75202],[121.7654,24.75192],[121.76547,24.7519],[121.76585,24.75183],[121.76601,24.75179],[121.76673,24.75165],[121.76674,24.75165],[121.76692,24.75161],[121.76712,24.75157],[121.76777,24.75144],[121.7678,24.75099],[121.76783,24.75067],[121.76786,24.75016],[121.76793,24.74936],[121.76793,24.74929],[121.76631,24.74874],[121.76559,24.74851],[121.76468,24.74829],[121.76446,24.74851],[121.76439,24.74872],[121.76393,24.74957],[121.76273,24.75163],[121.75743,24.75011],[121.7567,24.75015],[121.75675,24.75056],[121.75679,24.75071],[121.75725,24.75193],[121.75822,24.75426],[121.75829,24.75448],[121.75834,24.75462],[121.75952,24.75796],[121.75974,24.75793]]]]}},{"type":"Feature","properties":{"uesi_id":"TWN_R3155553","nbhd_code":"TWN_R3155553_6","nbhd_name":"\u6cf0\u5c71\u91cc"},"geometry":{"type":"MultiPolygon","coordinates":[[[[121.73583,24.75955],[121.73631,24.75917],[121.73663,24.75896],[121.73674,24.7589],[121.73684,24.75884],[121.73774,24.75851],[121.7383,24.75848],[121.73885,24.75845],[121.73943,24.75844],[121.73988,24.75827],[121.74032,24.75811],[121.74053,24.758],[121.74074,24.75789],[121.7419,24.7574],[121.74218,24.75736],[121.7422,24.75736],[121.74246,24.75732],[121.74264,24.75731],[121.74314,24.7564],[121.74257,24.75601],[121.74124,24.75504],[121.74084,24.75476],[121.74181,24.75314],[121.73835,24.75157],[121.73703,24.75065],[121.7324,24.74836],[121.73207,24.74821],[121.73202,24.74819],[121.73201,24.74819],[121.73186,24.74831],[121.73175,24.74838],[121.73156,24.74853],[121.73151,24.74856],[121.73134,24.7487],[121.73124,24.74878],[121.73113,24.74886],[121.73094,24.74903],[121.73082,24.74912],[121.73063,24.74928],[121.73051,24.74938],[121.73031,24.74954],[121.73019,24.74964],[121.72997,24.74982],[121.72988,24.74991],[121.7298,24.74997],[121.72959,24.75014],[121.7295,24.75022],[121.72927,24.7504],[121.72897,24.75065],[121.72882,24.75076],[121.72871,24.75086],[121.72864,24.7509],[121.72853,24.75101],[121.72832,24.75119],[121.72819,24.75129],[121.72822,24.75129],[121.7284,24.75127],[121.72857,24.75126],[121.72874,24.75125],[121.72892,24.75125],[121.72909,24.75126],[121.72927,24.75127],[121.72944,24.75129],[121.72961,24.75132],[121.72978,24.75135],[121.72995,24.75139],[121.73012,24.75144],[121.73028,24.75149],[121.73044,24.75155],[121.7306,24.75161],[121.73071,24.75167],[121.73081,24.75173],[121.73091,24.7518],[121.731,24.75187],[121.73109,24.75195],[121.73117,24.75204],[121.73124,24.75213],[121.73131,24.75222],[121.73138,24.75232],[121.73143,24.75242],[121.73148,24.75252],[121.73153,24.75263],[121.73156,24.75273],[121.73159,24.75284],[121.73161,24.75295],[121.73162,24.75307],[121.73163,24.75318],[121.73163,24.75329],[121.73162,24.7534],[121.73161,24.75342],[121.7316,24.75351],[121.73157,24.75362],[121.73151,24.7538],[121.73145,24.75397],[121.73143,24.75404],[121.7314,24.75415],[121.73136,24.75432],[121.73132,24.7545],[121.7313,24.75468],[121.73128,24.75486],[121.73126,24.75504],[121.73126,24.75523],[121.73126,24.75541],[121.73127,24.75559],[121.73129,24.75577],[121.73131,24.75595],[121.73134,24.75613],[121.73138,24.75631],[121.73143,24.75648],[121.73148,24.75666],[121.73154,24.75683],[121.73161,24.757],[121.73169,24.75717],[121.73177,24.75734],[121.73186,24.7575],[121.73195,24.75766],[121.73205,24.75782],[121.73216,24.75797],[121.73228,24.75812],[121.7324,24.75826],[121.73252,24.7584],[121.73266,24.75854],[121.73279,24.75867],[121.73294,24.75879],[121.73309,24.75892],[121.73324,24.75903],[121.73326,24.75906],[121.73329,24.75908],[121.73331,24.7591],[121.73344,24.75922],[121.73357,24.75932],[121.73424,24.75961],[121.73535,24.75994],[121.73583,24.75955]]]]}},{"type":"Feature","properties":{"uesi_id":"TWN_R3155553","nbhd_code":"TWN_R3155553_7","nbhd_name":"\u4e03\u7d50\u91cc"},"geometry":{"type":"MultiPolygon","coordinates":[[[[121.73727,24.75056],[121.7373,24.75055],[121.73747,24.75049],[121.73765,24.75045],[121.73798,24.75036],[121.73807,24.75034],[121.73823,24.75029],[121.73836,24.75025],[121.73858,24.75019],[121.73859,24.75019],[121.73885,24.75012],[121.73894,24.7501],[121.7393,24.75001],[121.73943,24.74998],[121.73971,24.7499],[121.73996,24.74983],[121.74007,24.7498],[121.74028,24.74975],[121.74035,24.74973],[121.74129,24.74949],[121.74138,24.74947],[121.74148,24.74945],[121.74173,24.7494],[121.74182,24.74934],[121.74193,24.74922],[121.74196,24.74917],[121.74196,24.74911],[121.74196,24.74906],[121.73907,24.74756],[121.73768,24.74684],[121.73767,24.74684],[121.7324,24.74836],[121.73703,24.75065],[121.73727,24.75056]]]]}},{"type":"Feature","properties":{"uesi_id":"TWN_R3155553","nbhd_code":"TWN_R3155553_8","nbhd_name":"\u64fa\u5398\u91cc"},"geometry":{"type":"MultiPolygon","coordinates":[[[[121.75464,24.74481],[121.75517,24.74352],[121.7553,24.7434],[121.7555,24.74327],[121.75559,24.74323],[121.75568,24.7432],[121.75582,24.74317],[121.75594,24.74316],[121.75604,24.74315],[121.7552,24.74283],[121.75416,24.74262],[121.75302,24.74243],[121.75056,24.74221],[121.7482,24.74194],[121.747,24.74202],[121.74835,24.74479],[121.74935,24.74477],[121.75064,24.74474],[121.75125,24.74492],[121.75209,24.74521],[121.7533,24.74561],[121.75337,24.74563],[121.7542,24.7459],[121.75464,24.74481]]]]}},{"type":"Feature","properties":{"uesi_id":"TWN_R3155553","nbhd_code":"TWN_R3155553_9","nbhd_name":"\u4e2d\u8208\u91cc"},"geometry":{"type":"MultiPolygon","coordinates":[[[[121.76527,24.76122],[121.76537,24.76103],[121.76538,24.76062],[121.76539,24.76057],[121.76552,24.75979],[121.76547,24.75905],[121.76542,24.75844],[121.76541,24.75843],[121.76522,24.75788],[121.76504,24.75768],[121.76475,24.75747],[121.76459,24.75732],[121.76422,24.75691],[121.76394,24.75659],[121.76376,24.7564],[121.7637,24.75633],[121.76363,24.75614],[121.7635,24.75595],[121.76325,24.7557],[121.76307,24.75559],[121.76282,24.7556],[121.76261,24.75559],[121.7624,24.75554],[121.7622,24.75548],[121.76213,24.75555],[121.7621,24.75558],[121.76147,24.75631],[121.76115,24.75668],[121.76092,24.75696],[121.76064,24.75728],[121.76038,24.75758],[121.76278,24.75958],[121.76331,24.75978],[121.76413,24.76008],[121.76517,24.76146],[121.76527,24.76122]]]]}},{"type":"Feature","properties":{"uesi_id":"TWN_R3155553","nbhd_code":"TWN_R3155553_10","nbhd_name":"\u6210\u529f\u91cc"},"geometry":{"type":"MultiPolygon","coordinates":[[[[121.7678,24.76186],[121.76815,24.76176],[121.7685,24.76165],[121.76865,24.76164],[121.76892,24.76161],[121.76913,24.76158],[121.76934,24.76155],[121.77025,24.76146],[121.77042,24.76145],[121.7706,24.76144],[121.7708,24.76141],[121.77156,24.76152],[121.77232,24.76163],[121.77283,24.76164],[121.77293,24.76164],[121.77304,24.76164],[121.77337,24.76152],[121.77354,24.76146],[121.7737,24.76139],[121.77437,24.76119],[121.77447,24.76113],[121.77456,24.76108],[121.775,24.76078],[121.77513,24.76067],[121.77531,24.76054],[121.77559,24.76031],[121.77573,24.76023],[121.77587,24.76015],[121.77618,24.76001],[121.77634,24.75993],[121.77641,24.7599],[121.77664,24.75979],[121.77691,24.75967],[121.77722,24.75957],[121.77477,24.75771],[121.77449,24.7575],[121.77416,24.75728],[121.77121,24.75666],[121.76619,24.75561],[121.7663,24.7551],[121.76637,24.75436],[121.76631,24.75418],[121.76677,24.75229],[121.76683,24.75203],[121.76673,24.75165],[121.76601,24.75179],[121.76585,24.75183],[121.76547,24.7519],[121.7654,24.75192],[121.76522,24.75202],[121.76514,24.75207],[121.76504,24.75216],[121.76502,24.75218],[121.76492,24.75229],[121.76464,24.75262],[121.76423,24.75309],[121.76409,24.75326],[121.76391,24.75349],[121.76379,24.75362],[121.7636,24.75384],[121.76307,24.75447],[121.76279,24.7548],[121.76254,24.75509],[121.76246,24.75518],[121.76236,24.75531],[121.76225,24.75543],[121.7622,24.75548],[121.7624,24.75554],[121.76261,24.75559],[121.76282,24.7556],[121.76307,24.75559],[121.76325,24.7557],[121.7635,24.75595],[121.76363,24.75614],[121.7637,24.75633],[121.76376,24.7564],[121.76394,24.75659],[121.76422,24.75691],[121.76459,24.75732],[121.76475,24.75747],[121.76504,24.75768],[121.76522,24.75788],[121.76541,24.75843],[121.76542,24.75844],[121.76547,24.75905],[121.76552,24.75979],[121.76539,24.76057],[121.76538,24.76062],[121.76537,24.76103],[121.76527,24.76122],[121.76517,24.76146],[121.76519,24.76149],[121.76519,24.76149],[121.76533,24.76184],[121.76534,24.76187],[121.76551,24.76181],[121.76568,24.76178],[121.76599,24.76179],[121.76669,24.76184],[121.76738,24.7619],[121.7678,24.76186]]]]}},{"type":"Feature","properties":{"uesi_id":"TWN_R3155553","nbhd_code":"TWN_R3155553_11","nbhd_name":"\u795e\u8fb2\u91cc"},"geometry":{"type":"MultiPolygon","coordinates":[[[[121.75608,24.75513],[121.75668,24.75499],[121.75653,24.75462],[121.75638,24.75424],[121.75635,24.75417],[121.75619,24.75376],[121.75608,24.75351],[121.75603,24.75338],[121.75589,24.75305],[121.75576,24.75268],[121.75563,24.75235],[121.75562,24.75231],[121.75562,24.75231],[121.75725,24.75193],[121.75679,24.75071],[121.75675,24.75056],[121.7567,24.75015],[121.75662,24.7494],[121.75662,24.74928],[121.75685,24.74811],[121.7575,24.74654],[121.75766,24.74628],[121.75836,24.74516],[121.75866,24.7446],[121.75904,24.74386],[121.75925,24.74347],[121.75903,24.7434],[121.75886,24.74334],[121.75873,24.74335],[121.75862,24.74336],[121.75746,24.74406],[121.75735,24.74411],[121.75726,24.74413],[121.75718,24.74414],[121.75709,24.74413],[121.7569,24.74408],[121.75664,24.74398],[121.75658,24.74393],[121.75635,24.74373],[121.75622,24.74355],[121.75617,24.7437],[121.75421,24.74914],[121.75402,24.7497],[121.75388,24.75],[121.75386,24.75004],[121.75386,24.75004],[121.75376,24.75035],[121.75344,24.75121],[121.75328,24.75167],[121.75309,24.7522],[121.75282,24.75285],[121.75156,24.75311],[121.75189,24.75402],[121.75199,24.75451],[121.75206,24.7545],[121.75264,24.75438],[121.75305,24.75435],[121.7531,24.75435],[121.75339,24.75438],[121.7539,24.75446],[121.75396,24.75447],[121.75414,24.75452],[121.75442,24.75462],[121.75481,24.75482],[121.75564,24.75523],[121.75608,24.75513]]]]}},{"type":"Feature","properties":{"uesi_id":"TWN_R3155553","nbhd_code":"TWN_R3155553_12","nbhd_name":"\u6c11\u6b0a\u91cc"},"geometry":{"type":"MultiPolygon","coordinates":[[[[121.75156,24.75311],[121.75282,24.75285],[121.75309,24.7522],[121.75328,24.75167],[121.75344,24.75121],[121.75376,24.75035],[121.75386,24.75004],[121.75386,24.75004],[121.75388,24.75],[121.75402,24.7497],[121.75421,24.74914],[121.75617,24.7437],[121.75622,24.74355],[121.75617,24.74347],[121.75608,24.74324],[121.75604,24.74315],[121.75594,24.74316],[121.75582,24.74317],[121.75568,24.7432],[121.75559,24.74323],[121.7555,24.74327],[121.7553,24.7434],[121.75517,24.74352],[121.75464,24.74481],[121.7542,24.7459],[121.75337,24.74563],[121.7533,24.74561],[121.7532,24.74588],[121.75319,24.7459],[121.75299,24.74636],[121.75296,24.74645],[121.75295,24.74647],[121.7529,24.74658],[121.75282,24.74679],[121.75266,24.74721],[121.75264,24.74726],[121.75266,24.74727],[121.75297,24.74737],[121.75303,24.74739],[121.75334,24.74748],[121.75361,24.74757],[121.75362,24.74757],[121.75322,24.74859],[121.75309,24.74894],[121.75294,24.74932],[121.75294,24.74933],[121.75292,24.74938],[121.75284,24.74959],[121.7528,24.7497],[121.75164,24.74991],[121.75064,24.75016],[121.75064,24.75018],[121.75071,24.75044],[121.75078,24.75069],[121.75078,24.75069],[121.75085,24.75094],[121.75086,24.75098],[121.75088,24.75104],[121.75101,24.75152],[121.75112,24.75191],[121.75112,24.75192],[121.75114,24.75196],[121.75119,24.7521],[121.75126,24.75234],[121.75133,24.75253],[121.75133,24.75256],[121.75146,24.75293],[121.7515,24.75307],[121.75151,24.75309],[121.75152,24.75312],[121.75156,24.75311]]]]}},{"type":"Feature","properties":{"uesi_id":"TWN_R3155553","nbhd_code":"TWN_R3155553_13","nbhd_name":"\u9032\u58eb\u91cc"},"geometry":{"type":"MultiPolygon","coordinates":[[[[121.74246,24.74555],[121.74252,24.74553],[121.74321,24.74534],[121.74402,24.74516],[121.74434,24.74509],[121.74444,24.74507],[121.74467,24.74503],[121.74478,24.74501],[121.745,24.74497],[121.74544,24.74494],[121.74629,24.74489],[121.74702,24.74485],[121.74742,24.74484],[121.74835,24.74479],[121.747,24.74202],[121.7482,24.74194],[121.75056,24.74221],[121.75302,24.74243],[121.75416,24.74262],[121.7552,24.74283],[121.75604,24.74315],[121.75597,24.74298],[121.75585,24.74269],[121.75563,24.74232],[121.7553,24.74205],[121.75508,24.74186],[121.75483,24.7418],[121.75459,24.74173],[121.75448,24.7417],[121.75447,24.74163],[121.75441,24.74154],[121.75431,24.74138],[121.75422,24.74119],[121.7542,24.74115],[121.75415,24.74108],[121.75401,24.74088],[121.75375,24.74073],[121.75348,24.74057],[121.75316,24.74049],[121.75298,24.74046],[121.75288,24.74045],[121.75266,24.74036],[121.75254,24.74035],[121.75234,24.74033],[121.75217,24.74032],[121.75208,24.74015],[121.75211,24.73994],[121.75203,24.73963],[121.75194,24.73931],[121.75184,24.73929],[121.7517,24.73921],[121.75156,24.73912],[121.75121,24.73898],[121.75108,24.73893],[121.75095,24.73889],[121.75087,24.73871],[121.75073,24.73868],[121.7506,24.73864],[121.75039,24.73856],[121.75008,24.7384],[121.75004,24.73838],[121.74983,24.73827],[121.74977,24.73819],[121.74964,24.73791],[121.74951,24.73763],[121.74938,24.73755],[121.74923,24.73748],[121.74917,24.73745],[121.74911,24.73742],[121.74896,24.73738],[121.74893,24.73709],[121.74913,24.73488],[121.74735,24.73413],[121.74241,24.73195],[121.74207,24.7318],[121.74137,24.73267],[121.74134,24.73512],[121.74092,24.73575],[121.74082,24.73581],[121.74057,24.73595],[121.74146,24.73695],[121.74115,24.7373],[121.74082,24.73701],[121.73735,24.73999],[121.73732,24.74001],[121.73737,24.74009],[121.73732,24.74013],[121.73716,24.74027],[121.73705,24.74038],[121.73708,24.74042],[121.73712,24.74046],[121.73732,24.74062],[121.73764,24.74089],[121.73787,24.74109],[121.73798,24.74118],[121.73824,24.74094],[121.73849,24.74071],[121.73875,24.74046],[121.73887,24.74034],[121.73899,24.74025],[121.73923,24.74046],[121.73948,24.74068],[121.73977,24.74095],[121.73999,24.74115],[121.74012,24.74126],[121.74036,24.74148],[121.74054,24.74163],[121.74067,24.74174],[121.74071,24.74178],[121.7407,24.74183],[121.74057,24.74194],[121.74044,24.74205],[121.74017,24.74228],[121.73994,24.74248],[121.73989,24.74252],[121.73994,24.74257],[121.74008,24.74271],[121.74025,24.74288],[121.74056,24.74315],[121.74095,24.74352],[121.74119,24.74373],[121.74126,24.74379],[121.74151,24.74402],[121.74182,24.7443],[121.74205,24.74451],[121.74212,24.74457],[121.74203,24.74457],[121.742,24.74457],[121.74213,24.74497],[121.74233,24.74558],[121.74246,24.74555]]]]}},{"type":"Feature","properties":{"uesi_id":"TWN_R3155553","nbhd_code":"TWN_R3155553_14","nbhd_name":"\u5357\u6a4b\u91cc"},"geometry":{"type":"MultiPolygon","coordinates":[[[[121.73735,24.73999],[121.74082,24.73701],[121.74115,24.7373],[121.74146,24.73695],[121.74057,24.73595],[121.74082,24.73581],[121.74092,24.73575],[121.74134,24.73512],[121.74137,24.73267],[121.74207,24.7318],[121.74241,24.73195],[121.74735,24.73413],[121.74933,24.73012],[121.74932,24.73006],[121.74932,24.72996],[121.74941,24.72954],[121.74995,24.72825],[121.75015,24.72778],[121.75017,24.72763],[121.75019,24.72747],[121.75031,24.72725],[121.75032,24.72703],[121.7503,24.72686],[121.75032,24.72664],[121.75035,24.72648],[121.75036,24.72641],[121.7504,24.72623],[121.75042,24.72601],[121.75043,24.72572],[121.75042,24.72537],[121.75043,24.72519],[121.75039,24.72514],[121.75036,24.7248],[121.75036,24.72464],[121.75046,24.72448],[121.75049,24.72438],[121.75048,24.72415],[121.75048,24.72414],[121.75048,24.72407],[121.75048,24.72383],[121.75049,24.72346],[121.7505,24.72311],[121.75053,24.72218],[121.75045,24.72219],[121.75031,24.7222],[121.75024,24.7222],[121.74999,24.72222],[121.7498,24.72224],[121.74949,24.72229],[121.74925,24.72231],[121.74909,24.72232],[121.74846,24.72237],[121.74828,24.72239],[121.74773,24.72246],[121.74759,24.72247],[121.74728,24.72251],[121.747,24.72254],[121.74689,24.72256],[121.74678,24.72258],[121.74679,24.72267],[121.74681,24.72285],[121.74681,24.72292],[121.74682,24.72319],[121.74683,24.7233],[121.74683,24.72337],[121.74684,24.72344],[121.74684,24.72349],[121.74681,24.72354],[121.74674,24.72354],[121.74665,24.72355],[121.74646,24.72355],[121.74627,24.72356],[121.74618,24.72357],[121.74594,24.72358],[121.74578,24.72358],[121.74567,24.72357],[121.74542,24.72358],[121.74534,24.72359],[121.74528,24.72361],[121.74521,24.72366],[121.74518,24.72372],[121.74513,24.72377],[121.74509,24.72381],[121.74504,24.72385],[121.745,24.72389],[121.74494,24.72391],[121.74489,24.72393],[121.74477,24.72394],[121.74466,24.72392],[121.74442,24.72392],[121.74435,24.72392],[121.74424,24.72392],[121.74413,24.72392],[121.74401,24.7239],[121.7439,24.72389],[121.74381,24.7239],[121.74368,24.72392],[121.74349,24.72397],[121.7433,24.72403],[121.74312,24.72409],[121.74295,24.72416],[121.74277,24.72425],[121.7427,24.72429],[121.74254,24.72437],[121.74225,24.72452],[121.74206,24.72464],[121.74192,24.72472],[121.74179,24.72479],[121.7415,24.72496],[121.7413,24.72507],[121.74117,24.72514],[121.7411,24.72517],[121.74091,24.72524],[121.74081,24.72527],[121.74074,24.72529],[121.74063,24.72529],[121.74056,24.72526],[121.74049,24.72522],[121.74041,24.72519],[121.74034,24.72516],[121.74029,24.72515],[121.74028,24.72515],[121.7402,24.72515],[121.74012,24.72516],[121.7399,24.72527],[121.73978,24.72537],[121.73959,24.72552],[121.73939,24.72568],[121.73919,24.72583],[121.73914,24.72587],[121.73907,24.72593],[121.73885,24.7261],[121.73867,24.72623],[121.73852,24.72632],[121.73842,24.72638],[121.73831,24.72643],[121.73823,24.72646],[121.73817,24.72648],[121.73808,24.72651],[121.73802,24.72653],[121.73797,24.72653],[121.73788,24.72652],[121.73778,24.72645],[121.73768,24.72638],[121.73758,24.72631],[121.73748,24.72626],[121.7374,24.72623],[121.73729,24.7262],[121.73718,24.72617],[121.73713,24.72616],[121.73704,24.72615],[121.73693,24.72612],[121.73672,24.72599],[121.73661,24.7259],[121.73655,24.72584],[121.73648,24.72576],[121.73645,24.7257],[121.73643,24.72565],[121.73642,24.72557],[121.73641,24.72549],[121.7364,24.72536],[121.73638,24.72527],[121.73636,24.72521],[121.73633,24.72514],[121.73628,24.72504],[121.73623,24.72499],[121.73618,24.72492],[121.73612,24.72485],[121.73607,24.72481],[121.73599,24.72475],[121.73585,24.72467],[121.73569,24.7246],[121.73563,24.72457],[121.73556,24.72453],[121.73544,24.72447],[121.73538,24.72445],[121.73529,24.72442],[121.73518,24.72438],[121.73507,24.72434],[121.735,24.72433],[121.73492,24.72431],[121.73485,24.7243],[121.73479,24.72433],[121.73477,24.72437],[121.73475,24.72443],[121.73472,24.72451],[121.73469,24.72459],[121.7346,24.72481],[121.73459,24.72488],[121.7345,24.72518],[121.73448,24.72526],[121.73444,24.72533],[121.73442,24.7254],[121.73437,24.72562],[121.73434,24.7257],[121.73428,24.72591],[121.73424,24.72606],[121.73418,24.72633],[121.73416,24.72641],[121.73413,24.72655],[121.73411,24.72661],[121.73406,24.72667],[121.73401,24.72675],[121.73399,24.72679],[121.73392,24.72693],[121.73385,24.7271],[121.7338,24.72721],[121.73377,24.72728],[121.73371,24.72741],[121.73366,24.72753],[121.73363,24.72763],[121.73361,24.72772],[121.73359,24.72779],[121.73356,24.7279],[121.73352,24.72809],[121.73347,24.72829],[121.73345,24.72838],[121.7334,24.72851],[121.73338,24.72858],[121.73337,24.72864],[121.73337,24.72872],[121.73335,24.72882],[121.73334,24.7289],[121.73331,24.72908],[121.73331,24.72922],[121.73331,24.72929],[121.7333,24.72941],[121.73329,24.7295],[121.73329,24.72961],[121.73329,24.7297],[121.7333,24.72981],[121.73331,24.72988],[121.73331,24.72993],[121.7333,24.73001],[121.73329,24.73011],[121.7333,24.73016],[121.73333,24.73025],[121.73338,24.73031],[121.73346,24.73037],[121.7336,24.73049],[121.73367,24.73054],[121.73378,24.73065],[121.73389,24.73073],[121.73396,24.7308],[121.73405,24.73088],[121.73422,24.73102],[121.73434,24.73112],[121.73451,24.73126],[121.73465,24.73136],[121.73485,24.73149],[121.73493,24.73153],[121.73503,24.73158],[121.73517,24.73164],[121.73529,24.73169],[121.73535,24.73173],[121.73555,24.73182],[121.73564,24.73187],[121.73586,24.73198],[121.73608,24.73209],[121.73619,24.73214],[121.73625,24.73216],[121.73631,24.73218],[121.73638,24.73222],[121.73643,24.73225],[121.73646,24.73228],[121.73649,24.73234],[121.73648,24.73239],[121.73641,24.73244],[121.73634,24.7325],[121.73619,24.73264],[121.73599,24.73281],[121.73581,24.73298],[121.73575,24.73302],[121.73556,24.73319],[121.73543,24.73329],[121.73516,24.73354],[121.73488,24.73376],[121.7348,24.73384],[121.73455,24.73405],[121.7344,24.73418],[121.7342,24.73436],[121.73406,24.73448],[121.73385,24.73467],[121.73375,24.73477],[121.7337,24.7348],[121.73371,24.73482],[121.73372,24.73485],[121.73377,24.7349],[121.7339,24.73503],[121.73411,24.73524],[121.73439,24.7355],[121.73466,24.73577],[121.73478,24.73589],[121.73508,24.73618],[121.73532,24.73641],[121.73564,24.73672],[121.73588,24.73695],[121.73618,24.73725],[121.73647,24.73752],[121.7367,24.73773],[121.73681,24.73784],[121.73687,24.73789],[121.73683,24.73792],[121.73675,24.73797],[121.73662,24.73804],[121.73634,24.7382],[121.73603,24.73838],[121.73588,24.73847],[121.73583,24.73854],[121.73605,24.73877],[121.73637,24.73909],[121.73669,24.7394],[121.73702,24.73971],[121.73719,24.73988],[121.73731,24.73999],[121.73732,24.74001],[121.73735,24.73999]]]]}},{"type":"Feature","properties":{"uesi_id":"TWN_R3155553","nbhd_code":"TWN_R3155553_15","nbhd_name":"\u5efa\u696d\u91cc"},"geometry":{"type":"MultiPolygon","coordinates":[[[[121.75726,24.74413],[121.75735,24.74411],[121.75746,24.74406],[121.75862,24.74336],[121.75873,24.74335],[121.75886,24.74334],[121.75903,24.7434],[121.75925,24.74347],[121.75935,24.74328],[121.75983,24.74233],[121.75986,24.74228],[121.76031,24.74141],[121.76004,24.74132],[121.76001,24.74127],[121.75996,24.74121],[121.75988,24.74112],[121.75982,24.74101],[121.75974,24.74091],[121.75938,24.74016],[121.75931,24.73999],[121.75906,24.7393],[121.75916,24.7387],[121.75934,24.73761],[121.75955,24.73658],[121.75921,24.73638],[121.75893,24.73622],[121.75893,24.73622],[121.75995,24.73353],[121.76095,24.7309],[121.7614,24.72961],[121.76152,24.72886],[121.76169,24.72836],[121.76195,24.72794],[121.76231,24.72696],[121.7609,24.72662],[121.76023,24.72658],[121.75996,24.72566],[121.75937,24.72457],[121.75937,24.72456],[121.75927,24.72405],[121.75918,24.72368],[121.75892,24.72264],[121.75885,24.7227],[121.75871,24.72283],[121.75851,24.72297],[121.75839,24.72306],[121.75822,24.72317],[121.75809,24.72319],[121.75797,24.72324],[121.75791,24.72327],[121.75767,24.72335],[121.75751,24.7234],[121.75743,24.72343],[121.75735,24.72345],[121.75725,24.72348],[121.75711,24.72351],[121.75702,24.72353],[121.75687,24.72356],[121.75673,24.72359],[121.75662,24.72362],[121.75653,24.72363],[121.75646,24.72364],[121.75635,24.72365],[121.7562,24.72366],[121.75611,24.72366],[121.75602,24.72364],[121.75592,24.7236],[121.75577,24.7235],[121.75567,24.72343],[121.75561,24.7234],[121.75554,24.72337],[121.75549,24.72335],[121.75534,24.72332],[121.75528,24.72331],[121.75513,24.72327],[121.75505,24.72325],[121.75503,24.72324],[121.75498,24.72322],[121.75482,24.72319],[121.75471,24.72316],[121.75438,24.72306],[121.75419,24.72298],[121.75397,24.72288],[121.75361,24.7227],[121.75348,24.72264],[121.75328,24.72256],[121.75304,24.72247],[121.75292,24.72243],[121.75283,24.72241],[121.7526,24.72236],[121.75237,24.72232],[121.75205,24.72227],[121.75178,24.72224],[121.75139,24.7222],[121.75131,24.72219],[121.75123,24.72216],[121.75115,24.72214],[121.75103,24.72213],[121.75088,24.72213],[121.75079,24.72213],[121.75071,24.72215],[121.75053,24.72218],[121.7505,24.72311],[121.75049,24.72346],[121.75048,24.72383],[121.75048,24.72407],[121.75048,24.72414],[121.75048,24.72415],[121.75049,24.72438],[121.75046,24.72448],[121.75036,24.72464],[121.75036,24.7248],[121.75039,24.72514],[121.75043,24.72519],[121.75042,24.72537],[121.75043,24.72572],[121.75042,24.72601],[121.7504,24.72623],[121.75036,24.72641],[121.75035,24.72648],[121.75032,24.72664],[121.7503,24.72686],[121.75032,24.72703],[121.75031,24.72725],[121.75019,24.72747],[121.75017,24.72763],[121.75015,24.72778],[121.74995,24.72825],[121.74941,24.72954],[121.74932,24.72996],[121.74932,24.73006],[121.74933,24.73012],[121.74735,24.73413],[121.74913,24.73488],[121.74893,24.73709],[121.74896,24.73738],[121.74911,24.73742],[121.74917,24.73745],[121.74923,24.73748],[121.74938,24.73755],[121.74951,24.73763],[121.74964,24.73791],[121.74977,24.73819],[121.74983,24.73827],[121.75004,24.73838],[121.75008,24.7384],[121.75039,24.73856],[121.7506,24.73864],[121.75073,24.73868],[121.75087,24.73871],[121.75095,24.73889],[121.75108,24.73893],[121.75121,24.73898],[121.75156,24.73912],[121.7517,24.73921],[121.75184,24.73929],[121.75194,24.73931],[121.75203,24.73963],[121.75211,24.73994],[121.75208,24.74015],[121.75217,24.74032],[121.75234,24.74033],[121.75254,24.74035],[121.75266,24.74036],[121.75288,24.74045],[121.75298,24.74046],[121.75316,24.74049],[121.75348,24.74057],[121.75375,24.74073],[121.75401,24.74088],[121.75415,24.74108],[121.7542,24.74115],[121.75422,24.74119],[121.75431,24.74138],[121.75441,24.74154],[121.75447,24.74163],[121.75448,24.7417],[121.75459,24.74173],[121.75483,24.7418],[121.75508,24.74186],[121.7553,24.74205],[121.75563,24.74232],[121.75585,24.74269],[121.75597,24.74298],[121.75604,24.74315],[121.75608,24.74324],[121.75617,24.74347],[121.75622,24.74355],[121.75635,24.74373],[121.75658,24.74393],[121.75664,24.74398],[121.7569,24.74408],[121.75709,24.74413],[121.75718,24.74414],[121.75726,24.74413]]]]}},{"type":"Feature","properties":{"uesi_id":"TWN_R3155553","nbhd_code":"TWN_R3155553_16","nbhd_name":"\u5357\u6d25\u91cc"},"geometry":{"type":"MultiPolygon","coordinates":[[[[121.76047,24.73908],[121.76451,24.73162],[121.76755,24.72602],[121.76762,24.7259],[121.76923,24.7227],[121.77048,24.72019],[121.77077,24.71963],[121.77224,24.71375],[121.77224,24.71374],[121.77221,24.71373],[121.77215,24.71372],[121.77198,24.7137],[121.7717,24.71365],[121.7713,24.71359],[121.77104,24.71357],[121.77076,24.71355],[121.77048,24.71353],[121.77027,24.71351],[121.77011,24.71348],[121.76989,24.71344],[121.76964,24.71339],[121.76942,24.71334],[121.76914,24.71329],[121.76897,24.71328],[121.76874,24.71325],[121.76857,24.71326],[121.76836,24.71326],[121.76818,24.71325],[121.76795,24.71326],[121.76787,24.71327],[121.76776,24.7133],[121.76754,24.71332],[121.76721,24.71334],[121.76676,24.71336],[121.76656,24.71337],[121.76618,24.71339],[121.76602,24.7134],[121.76579,24.71344],[121.76553,24.71348],[121.76538,24.7135],[121.76529,24.71351],[121.76516,24.71354],[121.76504,24.71358],[121.76492,24.71365],[121.76482,24.7137],[121.76471,24.71378],[121.76456,24.7139],[121.76444,24.71405],[121.7643,24.71422],[121.7642,24.71437],[121.76406,24.71455],[121.76391,24.71472],[121.76379,24.71487],[121.76366,24.71504],[121.76353,24.71522],[121.76344,24.71532],[121.76336,24.71541],[121.76323,24.71552],[121.76312,24.7156],[121.76298,24.71569],[121.76275,24.71584],[121.76259,24.71593],[121.76243,24.71602],[121.76224,24.71611],[121.76193,24.71624],[121.76185,24.71627],[121.76175,24.71631],[121.7616,24.71638],[121.76147,24.71642],[121.76133,24.71647],[121.76108,24.71654],[121.76093,24.71658],[121.76081,24.71661],[121.7609,24.71667],[121.76104,24.71678],[121.76113,24.71684],[121.76129,24.71694],[121.76144,24.71702],[121.76153,24.71707],[121.76167,24.71722],[121.76177,24.71736],[121.76185,24.71748],[121.76192,24.71759],[121.76197,24.7177],[121.76201,24.71785],[121.76202,24.71792],[121.76202,24.718],[121.76201,24.71804],[121.76196,24.71812],[121.76189,24.71816],[121.76182,24.71818],[121.76169,24.71823],[121.76164,24.71827],[121.76159,24.7183],[121.76153,24.71836],[121.76145,24.71845],[121.76138,24.71853],[121.76132,24.71862],[121.76125,24.71876],[121.76119,24.71889],[121.76116,24.71898],[121.76112,24.71906],[121.76106,24.71914],[121.76101,24.7192],[121.76093,24.71926],[121.76084,24.71934],[121.76074,24.7194],[121.76062,24.71947],[121.76055,24.71952],[121.76041,24.71961],[121.76031,24.71967],[121.76023,24.71973],[121.76017,24.71978],[121.76009,24.71987],[121.76004,24.71995],[121.75999,24.72003],[121.75995,24.72015],[121.75992,24.72027],[121.7599,24.72037],[121.75988,24.72051],[121.75985,24.72064],[121.75981,24.72081],[121.7598,24.72091],[121.75977,24.72103],[121.75973,24.72119],[121.75968,24.72132],[121.75966,24.72142],[121.7596,24.7216],[121.75956,24.72173],[121.75956,24.72173],[121.75951,24.72183],[121.75943,24.72199],[121.75935,24.72213],[121.75928,24.72225],[121.7592,24.72235],[121.75909,24.72247],[121.75901,24.72255],[121.75892,24.72264],[121.75918,24.72368],[121.75927,24.72405],[121.75937,24.72456],[121.75937,24.72457],[121.75996,24.72566],[121.76023,24.72658],[121.7609,24.72662],[121.76231,24.72696],[121.76195,24.72794],[121.76169,24.72836],[121.76152,24.72886],[121.7614,24.72961],[121.76095,24.7309],[121.75995,24.73353],[121.75893,24.73622],[121.75893,24.73622],[121.75921,24.73638],[121.75955,24.73658],[121.75934,24.73761],[121.75916,24.7387],[121.75906,24.7393],[121.75931,24.73999],[121.76047,24.73908]]]]}},{"type":"Feature","properties":{"uesi_id":"TWN_R3155553","nbhd_code":"TWN_R3155553_17","nbhd_name":"\u51f1\u65cb\u91cc"},"geometry":{"type":"MultiPolygon","coordinates":[[[[121.76137,24.74149],[121.76372,24.73928],[121.76597,24.73754],[121.76632,24.73736],[121.76688,24.73727],[121.76717,24.73704],[121.7676,24.73688],[121.76806,24.73679],[121.76893,24.73641],[121.76973,24.73597],[121.76993,24.73591],[121.7701,24.73589],[121.77039,24.73585],[121.7707,24.73584],[121.77072,24.73584],[121.77133,24.73569],[121.77147,24.73569],[121.77149,24.73569],[121.77176,24.73575],[121.77189,24.73583],[121.77198,24.73585],[121.77222,24.73589],[121.77241,24.736],[121.77246,24.73614],[121.77255,24.73627],[121.77269,24.73632],[121.77313,24.73646],[121.77348,24.73663],[121.77368,24.73664],[121.7739,24.73662],[121.77575,24.73566],[121.77577,24.73564],[121.77573,24.73558],[121.77571,24.73549],[121.7757,24.73544],[121.77569,24.73528],[121.77569,24.73514],[121.77567,24.73481],[121.77564,24.73448],[121.77563,24.73415],[121.77561,24.73371],[121.77559,24.73352],[121.77557,24.73323],[121.77555,24.73307],[121.77551,24.73294],[121.77548,24.73279],[121.77546,24.73271],[121.77545,24.73265],[121.77545,24.73256],[121.77546,24.73237],[121.77547,24.73211],[121.77547,24.73205],[121.77549,24.73173],[121.7755,24.73142],[121.77551,24.73111],[121.77552,24.7308],[121.77552,24.73048],[121.77554,24.72998],[121.77555,24.72984],[121.77556,24.72953],[121.77557,24.72927],[121.77558,24.72919],[121.77558,24.72901],[121.77556,24.72892],[121.77552,24.72873],[121.7755,24.72862],[121.77545,24.72831],[121.77538,24.728],[121.77532,24.72768],[121.77527,24.72736],[121.77523,24.72704],[121.77517,24.72673],[121.77513,24.72641],[121.77508,24.7261],[121.77502,24.72578],[121.77499,24.72554],[121.77498,24.72547],[121.77495,24.7253],[121.77493,24.72518],[121.77492,24.72508],[121.77489,24.72497],[121.77486,24.72485],[121.77482,24.72464],[121.77479,24.72454],[121.77472,24.72424],[121.77464,24.72394],[121.7746,24.72379],[121.77454,24.72356],[121.77452,24.72346],[121.77445,24.72319],[121.77428,24.72251],[121.77418,24.72209],[121.77412,24.7219],[121.7741,24.72174],[121.77408,24.7216],[121.77402,24.72139],[121.77393,24.72111],[121.77381,24.72078],[121.77376,24.7206],[121.77367,24.72025],[121.77359,24.7199],[121.77347,24.71939],[121.77346,24.71926],[121.77347,24.71906],[121.77349,24.71891],[121.77353,24.7187],[121.77357,24.71849],[121.77365,24.71823],[121.77371,24.718],[121.77378,24.71775],[121.77385,24.71752],[121.7739,24.71721],[121.77393,24.71701],[121.77397,24.71679],[121.77401,24.71649],[121.77403,24.71632],[121.77404,24.71619],[121.77408,24.71604],[121.77413,24.71583],[121.77414,24.71578],[121.77419,24.71574],[121.77432,24.71565],[121.7746,24.71549],[121.77484,24.71535],[121.77502,24.71526],[121.77529,24.71512],[121.77541,24.71507],[121.77558,24.715],[121.77581,24.71488],[121.77597,24.71479],[121.77605,24.71474],[121.7761,24.7147],[121.77604,24.71469],[121.77576,24.71464],[121.77557,24.7146],[121.77531,24.71455],[121.77515,24.71451],[121.77487,24.71446],[121.77471,24.71442],[121.77446,24.71436],[121.77428,24.71433],[121.77403,24.71428],[121.77382,24.71422],[121.77357,24.71415],[121.77339,24.71407],[121.77311,24.71398],[121.77292,24.71393],[121.77272,24.71388],[121.77265,24.71387],[121.77247,24.71381],[121.77233,24.71375],[121.77224,24.71374],[121.77224,24.71375],[121.77077,24.71963],[121.77048,24.72019],[121.76923,24.7227],[121.76762,24.7259],[121.76755,24.72602],[121.76451,24.73162],[121.76047,24.73908],[121.75931,24.73999],[121.75938,24.74016],[121.75974,24.74091],[121.75982,24.74101],[121.75988,24.74112],[121.75996,24.74121],[121.76001,24.74127],[121.76004,24.74132],[121.76031,24.74141],[121.75986,24.74228],[121.76072,24.74233],[121.76137,24.74149]]]]}},{"type":"Feature","properties":{"uesi_id":"TWN_R3155553","nbhd_code":"TWN_R3155553_18","nbhd_name":"\u9ece\u660e\u91cc"},"geometry":{"type":"MultiPolygon","coordinates":[[[[121.76822,24.75133],[121.77044,24.75086],[121.77081,24.75078],[121.77162,24.7506],[121.77206,24.7505],[121.77224,24.75048],[121.77236,24.75045],[121.77271,24.75037],[121.7734,24.75023],[121.77371,24.75017],[121.774,24.7501],[121.77524,24.74985],[121.77539,24.7498],[121.77615,24.74965],[121.7765,24.74957],[121.77677,24.74952],[121.77758,24.74937],[121.77837,24.74921],[121.77873,24.74913],[121.77956,24.74896],[121.77972,24.74891],[121.78084,24.74842],[121.78096,24.74837],[121.781,24.74835],[121.78105,24.74833],[121.78117,24.74828],[121.78252,24.74775],[121.78258,24.74773],[121.78258,24.74773],[121.78251,24.74764],[121.78243,24.74745],[121.78238,24.74733],[121.7824,24.74726],[121.78244,24.74723],[121.7825,24.7472],[121.78259,24.74715],[121.78278,24.74707],[121.78291,24.74702],[121.78297,24.74701],[121.78305,24.747],[121.78314,24.74699],[121.78322,24.74696],[121.7834,24.74688],[121.78341,24.74661],[121.78345,24.74624],[121.78347,24.74586],[121.78348,24.74571],[121.78352,24.74528],[121.78353,24.7451],[121.78354,24.74503],[121.78358,24.74471],[121.7836,24.74438],[121.78363,24.74403],[121.78366,24.74368],[121.78369,24.74334],[121.78371,24.74299],[121.78375,24.74269],[121.78375,24.74262],[121.78376,24.74243],[121.78417,24.74245],[121.7844,24.74247],[121.78492,24.7425],[121.785,24.7425],[121.78504,24.74215],[121.78507,24.74181],[121.78509,24.7415],[121.78511,24.74118],[121.78514,24.74086],[121.78517,24.74055],[121.78519,24.74023],[121.78522,24.73991],[121.78525,24.73959],[121.78527,24.73927],[121.78528,24.73918],[121.7853,24.73895],[121.78531,24.73881],[121.78531,24.73879],[121.78487,24.73877],[121.78466,24.73876],[121.78434,24.73873],[121.78403,24.73871],[121.78331,24.73867],[121.78322,24.73864],[121.78287,24.73863],[121.78247,24.73861],[121.78208,24.7386],[121.78183,24.73858],[121.78119,24.73855],[121.78088,24.73853],[121.78053,24.73851],[121.78032,24.7385],[121.78029,24.73904],[121.77953,24.739],[121.77905,24.739],[121.77912,24.73844],[121.7783,24.73869],[121.77814,24.73832],[121.77804,24.73834],[121.77794,24.73835],[121.77787,24.73836],[121.7778,24.73836],[121.77754,24.73835],[121.77737,24.73833],[121.77724,24.73831],[121.77698,24.73828],[121.77685,24.73822],[121.77685,24.73818],[121.77687,24.73812],[121.77694,24.73798],[121.77699,24.73789],[121.77707,24.73767],[121.7771,24.73757],[121.7771,24.73749],[121.77709,24.73742],[121.77706,24.73734],[121.77699,24.73725],[121.77685,24.73708],[121.7768,24.73701],[121.77656,24.7367],[121.77631,24.73639],[121.77607,24.73607],[121.77593,24.73589],[121.77583,24.73575],[121.77577,24.73564],[121.77575,24.73566],[121.7739,24.73662],[121.77368,24.73664],[121.77348,24.73663],[121.77313,24.73646],[121.77269,24.73632],[121.77255,24.73627],[121.77246,24.73614],[121.77241,24.736],[121.77222,24.73589],[121.77198,24.73585],[121.77189,24.73583],[121.77176,24.73575],[121.77149,24.73569],[121.77147,24.73569],[121.77133,24.73569],[121.77072,24.73584],[121.7707,24.73584],[121.77039,24.73585],[121.7701,24.73589],[121.76993,24.73591],[121.76973,24.73597],[121.76893,24.73641],[121.76806,24.73679],[121.7676,24.73688],[121.76717,24.73704],[121.76688,24.73727],[121.76632,24.73736],[121.76597,24.73754],[121.76372,24.73928],[121.76137,24.74149],[121.76072,24.74233],[121.76109,24.74236],[121.76357,24.74254],[121.76599,24.74271],[121.76625,24.74273],[121.76785,24.74283],[121.76895,24.7429],[121.76887,24.74401],[121.76881,24.74455],[121.76826,24.74561],[121.76805,24.74785],[121.76797,24.74872],[121.76794,24.74917],[121.76793,24.74929],[121.76793,24.74936],[121.76786,24.75016],[121.76783,24.75067],[121.7678,24.75099],[121.76777,24.75144],[121.76822,24.75133]]]]}},{"type":"Feature","properties":{"uesi_id":"TWN_R3155553","nbhd_code":"TWN_R3155553_19","nbhd_name":"\u6771\u6751\u91cc"},"geometry":{"type":"MultiPolygon","coordinates":[[[[121.76393,24.74957],[121.76439,24.74872],[121.76446,24.74851],[121.76468,24.74829],[121.76559,24.74851],[121.76631,24.74874],[121.76793,24.74929],[121.76794,24.74917],[121.76797,24.74872],[121.76805,24.74785],[121.76826,24.74561],[121.76881,24.74455],[121.76887,24.74401],[121.76895,24.7429],[121.76785,24.74283],[121.76625,24.74273],[121.76599,24.74271],[121.76357,24.74254],[121.76109,24.74236],[121.76072,24.74233],[121.75986,24.74228],[121.75983,24.74233],[121.75935,24.74328],[121.75925,24.74347],[121.75904,24.74386],[121.75866,24.7446],[121.75836,24.74516],[121.75766,24.74628],[121.7575,24.74654],[121.75685,24.74811],[121.75662,24.74928],[121.75662,24.7494],[121.7567,24.75015],[121.75743,24.75011],[121.76273,24.75163],[121.76393,24.74957]]]]}},{"type":"Feature","properties":{"uesi_id":"TWN_R3155553","nbhd_code":"TWN_R3155553_20","nbhd_name":"\u5ef6\u5e73\u91cc"},"geometry":{"type":"MultiPolygon","coordinates":[[[[121.77764,24.75952],[121.77793,24.75945],[121.77848,24.75932],[121.77877,24.75917],[121.77915,24.7589],[121.77941,24.75866],[121.77973,24.75821],[121.78021,24.75745],[121.78042,24.75734],[121.78091,24.75723],[121.78116,24.75708],[121.78168,24.75678],[121.78191,24.75661],[121.78202,24.75643],[121.78207,24.75622],[121.78201,24.75564],[121.782,24.75505],[121.78201,24.75445],[121.78205,24.75384],[121.78236,24.75314],[121.78325,24.75213],[121.78402,24.75147],[121.78452,24.75122],[121.78532,24.75111],[121.7864,24.75124],[121.78641,24.75124],[121.78659,24.75127],[121.78659,24.75127],[121.78657,24.75125],[121.78656,24.75118],[121.78655,24.75112],[121.78651,24.75108],[121.78643,24.75104],[121.78638,24.75101],[121.78629,24.75098],[121.78618,24.75091],[121.78599,24.75079],[121.78597,24.75074],[121.78596,24.75066],[121.78595,24.75059],[121.78591,24.7505],[121.7858,24.7504],[121.78574,24.75039],[121.78563,24.75039],[121.78551,24.75038],[121.78538,24.75037],[121.78531,24.75036],[121.78525,24.7503],[121.78525,24.75027],[121.78524,24.75014],[121.78526,24.7499],[121.78525,24.74985],[121.78525,24.74951],[121.78525,24.74944],[121.78524,24.74925],[121.78523,24.74912],[121.78524,24.74906],[121.78524,24.74887],[121.78526,24.74869],[121.7852,24.74864],[121.78511,24.74864],[121.78498,24.74864],[121.78474,24.74866],[121.78468,24.74866],[121.78461,24.74867],[121.78432,24.74868],[121.78425,24.74869],[121.78408,24.7487],[121.78388,24.7487],[121.78365,24.74871],[121.78343,24.74872],[121.78326,24.74873],[121.78322,24.74881],[121.78318,24.74873],[121.78316,24.74868],[121.78304,24.7485],[121.78296,24.74837],[121.78289,24.74829],[121.78283,24.74824],[121.78281,24.74819],[121.78282,24.74806],[121.78282,24.74799],[121.78282,24.74793],[121.78279,24.74785],[121.78273,24.74781],[121.78264,24.74777],[121.78259,24.74774],[121.78258,24.74773],[121.78258,24.74773],[121.78252,24.74775],[121.78117,24.74828],[121.78105,24.74833],[121.781,24.74835],[121.78096,24.74837],[121.78084,24.74842],[121.77972,24.74891],[121.77956,24.74896],[121.77873,24.74913],[121.77837,24.74921],[121.77758,24.74937],[121.77677,24.74952],[121.7765,24.74957],[121.77615,24.74965],[121.77539,24.7498],[121.77524,24.74985],[121.774,24.7501],[121.77371,24.75017],[121.7734,24.75023],[121.77271,24.75037],[121.77236,24.75045],[121.77224,24.75048],[121.77206,24.7505],[121.77162,24.7506],[121.77081,24.75078],[121.77044,24.75086],[121.76822,24.75133],[121.76777,24.75144],[121.76712,24.75157],[121.76692,24.75161],[121.76674,24.75165],[121.76673,24.75165],[121.76683,24.75203],[121.76677,24.75229],[121.76631,24.75418],[121.76637,24.75436],[121.7663,24.7551],[121.76619,24.75561],[121.77121,24.75666],[121.77416,24.75728],[121.77449,24.7575],[121.77477,24.75771],[121.77722,24.75957],[121.77764,24.75952]]]]}},{"type":"Feature","properties":{"uesi_id":"TWN_R3155553","nbhd_code":"TWN_R3155553_21","nbhd_name":"\u4e03\u5f35\u91cc"},"geometry":{"type":"MultiPolygon","coordinates":[[[[121.77678,24.76864],[121.7768,24.7686],[121.77681,24.76847],[121.77682,24.76838],[121.77683,24.7683],[121.77686,24.76819],[121.77689,24.76808],[121.77698,24.7678],[121.77702,24.76769],[121.77707,24.76757],[121.77711,24.76748],[121.77714,24.76743],[121.77727,24.76747],[121.7776,24.76757],[121.7778,24.76763],[121.77786,24.76765],[121.77788,24.76757],[121.77793,24.76739],[121.77798,24.76724],[121.77806,24.76703],[121.77812,24.76688],[121.77822,24.76661],[121.77851,24.76671],[121.77881,24.7668],[121.77921,24.76689],[121.77927,24.76673],[121.77939,24.76642],[121.77948,24.76613],[121.77951,24.76603],[121.77953,24.76591],[121.77958,24.76579],[121.77967,24.76582],[121.78014,24.76597],[121.78042,24.76606],[121.78068,24.76611],[121.78058,24.76577],[121.78052,24.76558],[121.78041,24.7652],[121.78034,24.765],[121.7803,24.76487],[121.78035,24.76486],[121.78069,24.76496],[121.78074,24.7648],[121.78085,24.76448],[121.78097,24.76414],[121.78101,24.76402],[121.78104,24.76396],[121.78109,24.76386],[121.78155,24.76399],[121.78161,24.76384],[121.78171,24.76358],[121.78176,24.76344],[121.78188,24.76311],[121.78197,24.76288],[121.78201,24.7628],[121.78223,24.76288],[121.7825,24.76297],[121.78274,24.76305],[121.78291,24.76311],[121.78315,24.76318],[121.78322,24.76316],[121.78353,24.76325],[121.78363,24.76327],[121.7839,24.76335],[121.78399,24.76337],[121.78427,24.76346],[121.7844,24.76348],[121.78462,24.76356],[121.7847,24.76358],[121.78476,24.7636],[121.78498,24.76368],[121.78507,24.7637],[121.78513,24.76373],[121.78536,24.7638],[121.78543,24.76382],[121.78551,24.76385],[121.78568,24.76391],[121.78573,24.76389],[121.78577,24.76384],[121.7858,24.76378],[121.78588,24.76363],[121.78592,24.76354],[121.78596,24.76348],[121.78605,24.76328],[121.78611,24.76314],[121.78622,24.76293],[121.78627,24.76293],[121.78633,24.76291],[121.78636,24.76286],[121.78639,24.76277],[121.78643,24.76265],[121.78651,24.76241],[121.78656,24.76231],[121.78665,24.76209],[121.7867,24.762],[121.78675,24.76191],[121.7868,24.76187],[121.78686,24.76186],[121.78693,24.76187],[121.78704,24.76189],[121.78709,24.76186],[121.78711,24.76182],[121.78716,24.76165],[121.78722,24.76145],[121.78727,24.76131],[121.78735,24.76109],[121.78738,24.76102],[121.78739,24.76096],[121.78747,24.76083],[121.78754,24.76085],[121.78759,24.76082],[121.78762,24.76078],[121.78768,24.76057],[121.78773,24.76047],[121.78782,24.76027],[121.78787,24.76016],[121.78795,24.75994],[121.78798,24.75988],[121.78801,24.7598],[121.78807,24.75962],[121.7881,24.7595],[121.78818,24.75927],[121.78823,24.75918],[121.78832,24.75897],[121.78835,24.75891],[121.78836,24.75886],[121.78838,24.7588],[121.78844,24.75882],[121.7885,24.75889],[121.78858,24.75896],[121.78865,24.75896],[121.78873,24.75895],[121.78878,24.75893],[121.78881,24.75888],[121.78887,24.7588],[121.78899,24.7586],[121.78907,24.75845],[121.78912,24.75836],[121.78915,24.7583],[121.78915,24.75825],[121.78913,24.75814],[121.78907,24.75808],[121.78901,24.75806],[121.78894,24.75803],[121.78875,24.75798],[121.7886,24.75794],[121.78838,24.75786],[121.78823,24.75781],[121.78818,24.75778],[121.78812,24.75774],[121.78809,24.75768],[121.78809,24.75763],[121.78811,24.75759],[121.78817,24.75741],[121.78819,24.75733],[121.78821,24.75729],[121.78825,24.75721],[121.7883,24.75714],[121.78836,24.75709],[121.78843,24.75701],[121.78844,24.75696],[121.78844,24.75689],[121.78845,24.75682],[121.78845,24.75675],[121.78849,24.75656],[121.78851,24.7565],[121.78854,24.75642],[121.78854,24.75636],[121.78853,24.75635],[121.78848,24.75632],[121.78843,24.7563],[121.78829,24.75625],[121.78808,24.7562],[121.78799,24.75618],[121.78791,24.75615],[121.78767,24.75609],[121.78751,24.75605],[121.78727,24.75598],[121.78721,24.75597],[121.78701,24.75591],[121.78685,24.75586],[121.78663,24.75579],[121.78645,24.75573],[121.78626,24.75567],[121.78605,24.75562],[121.78586,24.75555],[121.7858,24.75553],[121.78578,24.75549],[121.7858,24.75543],[121.78584,24.75536],[121.78588,24.75529],[121.78595,24.75516],[121.78601,24.75504],[121.78607,24.75493],[121.78613,24.75484],[121.7862,24.75474],[121.78636,24.75449],[121.78667,24.75413],[121.78693,24.75389],[121.78722,24.75362],[121.78751,24.75339],[121.78783,24.75316],[121.78806,24.753],[121.78824,24.7529],[121.78837,24.75284],[121.78863,24.75274],[121.78864,24.75273],[121.78861,24.75265],[121.78854,24.75246],[121.78851,24.75237],[121.78841,24.75215],[121.7884,24.7521],[121.78832,24.75189],[121.78826,24.75177],[121.78822,24.75175],[121.78812,24.7517],[121.78795,24.75165],[121.78785,24.75162],[121.78774,24.75159],[121.78766,24.75158],[121.78751,24.75156],[121.78733,24.75153],[121.78718,24.75151],[121.78707,24.75149],[121.78693,24.75145],[121.78681,24.75141],[121.78672,24.75138],[121.78664,24.75133],[121.78659,24.75127],[121.78641,24.75124],[121.7864,24.75124],[121.78532,24.75111],[121.78452,24.75122],[121.78402,24.75147],[121.78325,24.75213],[121.78236,24.75314],[121.78205,24.75384],[121.78201,24.75445],[121.782,24.75505],[121.78201,24.75564],[121.78207,24.75622],[121.78202,24.75643],[121.78191,24.75661],[121.78168,24.75678],[121.78116,24.75708],[121.78091,24.75723],[121.78042,24.75734],[121.78021,24.75745],[121.77973,24.75821],[121.77941,24.75866],[121.77915,24.7589],[121.77877,24.75917],[121.77848,24.75932],[121.77793,24.75945],[121.77764,24.75952],[121.77722,24.75957],[121.77691,24.75967],[121.77664,24.75979],[121.77641,24.7599],[121.77634,24.75993],[121.77618,24.76001],[121.77587,24.76015],[121.77573,24.76023],[121.77559,24.76031],[121.77531,24.76054],[121.77513,24.76067],[121.775,24.76078],[121.77456,24.76108],[121.77447,24.76113],[121.77437,24.76119],[121.7737,24.76139],[121.77354,24.76146],[121.77337,24.76152],[121.77304,24.76164],[121.77293,24.76164],[121.77283,24.76164],[121.77232,24.76163],[121.77156,24.76152],[121.7708,24.76141],[121.7706,24.76144],[121.77042,24.76145],[121.77025,24.76146],[121.76934,24.76155],[121.76913,24.76158],[121.76892,24.76161],[121.76865,24.76164],[121.7685,24.76165],[121.76815,24.76176],[121.7678,24.76186],[121.76738,24.7619],[121.76669,24.76184],[121.76599,24.76179],[121.76568,24.76178],[121.76551,24.76181],[121.76534,24.76187],[121.76595,24.76339],[121.76655,24.76488],[121.76667,24.76506],[121.76682,24.76521],[121.76736,24.76559],[121.76754,24.7656],[121.768,24.7656],[121.76847,24.76561],[121.76914,24.76581],[121.76992,24.76605],[121.77011,24.76609],[121.77042,24.76615],[121.77102,24.76628],[121.77131,24.76634],[121.77161,24.7664],[121.77222,24.76651],[121.7726,24.76661],[121.77266,24.76664],[121.77277,24.76668],[121.77282,24.7667],[121.77288,24.76675],[121.77296,24.7668],[121.77307,24.7669],[121.77318,24.76701],[121.77337,24.76718],[121.77354,24.76734],[121.77371,24.76749],[121.77375,24.76753],[121.77392,24.7677],[121.77402,24.76775],[121.77408,24.76773],[121.77416,24.76774],[121.77425,24.76778],[121.7743,24.76781],[121.7744,24.76792],[121.77445,24.76793],[121.77456,24.76793],[121.77466,24.76793],[121.77476,24.76794],[121.77486,24.76797],[121.77507,24.76804],[121.77552,24.76817],[121.77574,24.76824],[121.77588,24.76827],[121.77609,24.76833],[121.77632,24.76841],[121.77642,24.76844],[121.77654,24.76848],[121.77661,24.76854],[121.77665,24.7686],[121.77669,24.76865],[121.77678,24.76864]]]]}},{"type":"Feature","properties":{"uesi_id":"TWN_R3155553","nbhd_code":"TWN_R3155553_22","nbhd_name":"\u6148\u5b89\u91cc"},"geometry":{"type":"MultiPolygon","coordinates":[[[[121.76181,24.76341],[121.76253,24.76298],[121.76336,24.76242],[121.76364,24.76218],[121.76388,24.76199],[121.7641,24.76191],[121.76471,24.76194],[121.76517,24.76191],[121.76534,24.76187],[121.76533,24.76184],[121.76519,24.76149],[121.76519,24.76149],[121.76517,24.76146],[121.76413,24.76008],[121.76331,24.75978],[121.76278,24.75958],[121.76038,24.75758],[121.76019,24.75775],[121.76014,24.75778],[121.75991,24.75788],[121.75985,24.7579],[121.75974,24.75793],[121.75952,24.75796],[121.75939,24.75798],[121.75889,24.75804],[121.7589,24.75809],[121.75985,24.76046],[121.76008,24.76105],[121.76045,24.762],[121.76063,24.76247],[121.76093,24.76321],[121.76113,24.76377],[121.76181,24.76341]]]]}},{"type":"Feature","properties":{"uesi_id":"TWN_R3155553","nbhd_code":"TWN_R3155553_23","nbhd_name":"\u65b0\u6c11\u91cc"},"geometry":{"type":"MultiPolygon","coordinates":[[[[121.75352,24.75767],[121.75397,24.75755],[121.75483,24.75734],[121.75532,24.75723],[121.75622,24.75701],[121.75598,24.75636],[121.75597,24.75632],[121.75581,24.75592],[121.75576,24.7557],[121.75575,24.75568],[121.75564,24.75523],[121.75481,24.75482],[121.75442,24.75462],[121.75414,24.75452],[121.75396,24.75447],[121.7539,24.75446],[121.75339,24.75438],[121.7531,24.75435],[121.75305,24.75435],[121.75264,24.75438],[121.75206,24.7545],[121.75199,24.75451],[121.75204,24.75474],[121.75205,24.75491],[121.75211,24.75518],[121.75231,24.75587],[121.75245,24.75651],[121.75245,24.75652],[121.75247,24.75659],[121.7526,24.75716],[121.75276,24.75782],[121.75352,24.75767]]]]}},{"type":"Feature","properties":{"uesi_id":"TWN_R3155553","nbhd_code":"TWN_R3155553_24","nbhd_name":"\u6771\u9580\u91cc"},"geometry":{"type":"MultiPolygon","coordinates":[[[[121.75341,24.76045],[121.75363,24.76036],[121.75367,24.76035],[121.75368,24.76034],[121.7539,24.76025],[121.75401,24.76021],[121.75404,24.76019],[121.75405,24.76019],[121.75407,24.76018],[121.75438,24.76005],[121.75471,24.75985],[121.7548,24.7598],[121.75524,24.75952],[121.75542,24.75941],[121.75565,24.75928],[121.75569,24.75926],[121.75615,24.75898],[121.75677,24.75858],[121.75707,24.75836],[121.75672,24.75841],[121.75632,24.75726],[121.75622,24.75701],[121.75532,24.75723],[121.75483,24.75734],[121.75397,24.75755],[121.75352,24.75767],[121.75276,24.75782],[121.75301,24.759],[121.75322,24.75996],[121.75334,24.76048],[121.75341,24.76045]]]]}},{"type":"Feature","properties":{"uesi_id":"TWN_R3155553","nbhd_code":"TWN_R3155553_25","nbhd_name":"\u5c0f\u6771\u91cc"},"geometry":{"type":"MultiPolygon","coordinates":[[[[121.76053,24.76408],[121.76113,24.76377],[121.76093,24.76321],[121.76063,24.76247],[121.76045,24.762],[121.76008,24.76105],[121.75985,24.76046],[121.7589,24.75809],[121.75889,24.75804],[121.75882,24.75805],[121.75798,24.7582],[121.75757,24.75827],[121.75707,24.75836],[121.75677,24.75858],[121.75712,24.75957],[121.7572,24.75979],[121.75726,24.75998],[121.75756,24.7608],[121.75706,24.76162],[121.75831,24.76129],[121.75832,24.76128],[121.7586,24.76204],[121.75877,24.76253],[121.7591,24.76337],[121.75965,24.76463],[121.76053,24.76408]]]]}},{"type":"Feature","properties":{"uesi_id":"TWN_R3155553","nbhd_code":"TWN_R3155553_26","nbhd_name":"\u83dc\u5712\u91cc"},"geometry":{"type":"MultiPolygon","coordinates":[[[[121.75841,24.7655],[121.75844,24.76548],[121.75879,24.76527],[121.75942,24.76478],[121.75965,24.76463],[121.7591,24.76337],[121.75877,24.76253],[121.7586,24.76204],[121.75832,24.76128],[121.75831,24.76129],[121.75706,24.76162],[121.75756,24.7608],[121.75726,24.75998],[121.7572,24.75979],[121.75712,24.75957],[121.75677,24.75858],[121.75615,24.75898],[121.75569,24.75926],[121.75565,24.75928],[121.75542,24.75941],[121.75524,24.75952],[121.7548,24.7598],[121.75483,24.75992],[121.75494,24.76029],[121.75508,24.76061],[121.75525,24.76056],[121.75529,24.76064],[121.75553,24.76106],[121.75561,24.7611],[121.75568,24.76112],[121.75569,24.76113],[121.75602,24.76201],[121.75626,24.76263],[121.75648,24.76321],[121.75705,24.76303],[121.75706,24.76303],[121.75708,24.76309],[121.75723,24.76342],[121.75733,24.76366],[121.75738,24.76377],[121.75774,24.76473],[121.75808,24.76558],[121.75811,24.76565],[121.75841,24.7655]]]]}},{"type":"Feature","properties":{"uesi_id":"TWN_R3155553","nbhd_code":"TWN_R3155553_27","nbhd_name":"\u5b5d\u5ec9\u91cc"},"geometry":{"type":"MultiPolygon","coordinates":[[[[121.75704,24.76591],[121.75722,24.76587],[121.75763,24.76584],[121.75791,24.76574],[121.75811,24.76565],[121.75808,24.76558],[121.75774,24.76473],[121.75738,24.76377],[121.75733,24.76366],[121.75723,24.76342],[121.75708,24.76309],[121.75706,24.76303],[121.75705,24.76303],[121.75648,24.76321],[121.75626,24.76263],[121.75602,24.76201],[121.75569,24.76113],[121.75568,24.76112],[121.75561,24.7611],[121.75553,24.76106],[121.75529,24.76064],[121.75525,24.76056],[121.75508,24.76061],[121.75494,24.76029],[121.75483,24.75992],[121.7548,24.7598],[121.75471,24.75985],[121.75438,24.76005],[121.75407,24.76018],[121.75405,24.76019],[121.75404,24.76019],[121.75401,24.76021],[121.7539,24.76025],[121.75368,24.76034],[121.75367,24.76035],[121.75363,24.76036],[121.75341,24.76045],[121.75334,24.76048],[121.75335,24.76054],[121.75355,24.76109],[121.75357,24.76114],[121.75409,24.76254],[121.75451,24.76362],[121.75459,24.76382],[121.75475,24.76431],[121.75483,24.76457],[121.75536,24.76599],[121.75679,24.766],[121.75681,24.76603],[121.75704,24.76591]]]]}},{"type":"Feature","properties":{"uesi_id":"TWN_R3155553","nbhd_code":"TWN_R3155553_28","nbhd_name":"\u65b0\u751f\u91cc"},"geometry":{"type":"MultiPolygon","coordinates":[[[[121.76099,24.78294],[121.76106,24.7829],[121.7612,24.78282],[121.76151,24.78263],[121.76168,24.78252],[121.76168,24.78252],[121.76179,24.78243],[121.76186,24.78238],[121.76194,24.78235],[121.76198,24.78234],[121.76205,24.78232],[121.76212,24.78231],[121.76222,24.78231],[121.76228,24.78229],[121.76234,24.78226],[121.76237,24.78222],[121.76251,24.78205],[121.76268,24.78186],[121.7628,24.78172],[121.76282,24.78167],[121.76282,24.78163],[121.7628,24.78158],[121.76275,24.78151],[121.76266,24.78151],[121.76261,24.78154],[121.76255,24.78159],[121.76246,24.78162],[121.76242,24.78159],[121.76235,24.78151],[121.76234,24.78144],[121.76236,24.78138],[121.76239,24.78133],[121.76246,24.78125],[121.7625,24.78119],[121.76252,24.78113],[121.76252,24.781],[121.76251,24.78092],[121.76248,24.78084],[121.76245,24.78079],[121.7624,24.78074],[121.76234,24.7807],[121.76229,24.78067],[121.76223,24.78066],[121.76215,24.78065],[121.7621,24.78064],[121.76206,24.78059],[121.76206,24.78053],[121.76209,24.78045],[121.76215,24.7803],[121.76219,24.78024],[121.76229,24.7801],[121.76242,24.77992],[121.76244,24.77985],[121.76242,24.7798],[121.76236,24.77976],[121.7623,24.77974],[121.76222,24.77973],[121.76222,24.77969],[121.76227,24.77966],[121.76237,24.77963],[121.76244,24.77959],[121.76252,24.77951],[121.76261,24.77942],[121.76268,24.77934],[121.7628,24.77924],[121.76294,24.77919],[121.76313,24.77908],[121.76317,24.77903],[121.76316,24.77894],[121.76313,24.7789],[121.76302,24.77879],[121.76301,24.77875],[121.76302,24.77869],[121.76304,24.77864],[121.76313,24.77851],[121.76317,24.77843],[121.76325,24.7783],[121.7633,24.77824],[121.76336,24.77818],[121.76343,24.77816],[121.76359,24.77816],[121.76365,24.77819],[121.7637,24.77825],[121.76377,24.77833],[121.76383,24.77836],[121.76394,24.77836],[121.764,24.77835],[121.76404,24.77833],[121.7641,24.77829],[121.76414,24.77825],[121.76415,24.77819],[121.76414,24.77814],[121.76411,24.77807],[121.76405,24.77798],[121.764,24.77788],[121.76399,24.7778],[121.764,24.77773],[121.76402,24.77769],[121.76405,24.77765],[121.7641,24.77758],[121.76417,24.77748],[121.76422,24.77738],[121.76426,24.77729],[121.76429,24.77722],[121.76432,24.77716],[121.76436,24.7771],[121.76444,24.77703],[121.76452,24.77697],[121.76458,24.77693],[121.76472,24.77686],[121.76485,24.77679],[121.7649,24.77675],[121.76495,24.77671],[121.76498,24.77665],[121.76499,24.77658],[121.76499,24.77652],[121.76498,24.77648],[121.76495,24.77643],[121.7649,24.77638],[121.76482,24.77634],[121.76474,24.7763],[121.76471,24.77624],[121.76474,24.77617],[121.76478,24.77609],[121.76482,24.776],[121.76485,24.77593],[121.76492,24.77578],[121.76499,24.77572],[121.76505,24.77566],[121.76508,24.7756],[121.76514,24.7755],[121.7652,24.77541],[121.76525,24.77537],[121.7653,24.77534],[121.76535,24.77531],[121.76541,24.77529],[121.76548,24.77529],[121.76553,24.77532],[121.76567,24.77542],[121.76572,24.77545],[121.7658,24.77547],[121.76587,24.77547],[121.76599,24.77545],[121.76606,24.77541],[121.76609,24.77536],[121.76609,24.77529],[121.76608,24.77524],[121.76607,24.77516],[121.76607,24.77504],[121.76611,24.77497],[121.76617,24.77493],[121.76623,24.7749],[121.7663,24.77488],[121.76647,24.77488],[121.76657,24.77487],[121.76664,24.77485],[121.76671,24.7748],[121.7668,24.77467],[121.76683,24.7746],[121.76691,24.77446],[121.76695,24.77434],[121.76699,24.77415],[121.76701,24.77405],[121.76704,24.77395],[121.76708,24.7738],[121.76708,24.77373],[121.76707,24.77367],[121.76704,24.77355],[121.76704,24.77341],[121.7671,24.77336],[121.76715,24.77333],[121.76724,24.77332],[121.76733,24.7733],[121.76739,24.77329],[121.76746,24.77324],[121.7675,24.77319],[121.76741,24.77305],[121.76734,24.77296],[121.76716,24.77277],[121.76707,24.77268],[121.76705,24.77264],[121.76705,24.77256],[121.76706,24.77252],[121.76711,24.77245],[121.76718,24.77238],[121.76723,24.77232],[121.76733,24.77222],[121.76738,24.77217],[121.76742,24.77214],[121.76752,24.77211],[121.76763,24.77213],[121.76778,24.77218],[121.76788,24.7722],[121.76799,24.77221],[121.76805,24.77219],[121.76814,24.77216],[121.76819,24.77214],[121.76825,24.77208],[121.76827,24.77203],[121.76827,24.77198],[121.76824,24.77189],[121.76819,24.77184],[121.76811,24.7718],[121.76804,24.77175],[121.76804,24.7717],[121.76805,24.7716],[121.76806,24.77153],[121.76805,24.77144],[121.76804,24.77139],[121.76803,24.77134],[121.768,24.77129],[121.76796,24.7712],[121.76794,24.77111],[121.76796,24.77103],[121.76802,24.771],[121.76812,24.77102],[121.7682,24.77105],[121.76827,24.77108],[121.76832,24.7711],[121.76837,24.77115],[121.76844,24.77124],[121.76852,24.77132],[121.76861,24.7714],[121.76874,24.7715],[121.76884,24.77157],[121.76891,24.77162],[121.76897,24.77164],[121.76906,24.77165],[121.76914,24.77163],[121.76924,24.77161],[121.76932,24.77159],[121.76938,24.77158],[121.76956,24.77157],[121.76965,24.77157],[121.76971,24.77157],[121.76977,24.77159],[121.76991,24.77171],[121.76997,24.77175],[121.77006,24.77178],[121.77013,24.77182],[121.77025,24.77184],[121.77041,24.77187],[121.77046,24.77188],[121.77052,24.77187],[121.77056,24.77186],[121.77067,24.77182],[121.77079,24.77181],[121.77094,24.77181],[121.77106,24.7718],[121.77112,24.77179],[121.77134,24.77175],[121.77153,24.77171],[121.77164,24.77168],[121.77178,24.77164],[121.77186,24.77161],[121.77194,24.77157],[121.772,24.77152],[121.77202,24.77147],[121.77198,24.77134],[121.77193,24.77118],[121.77192,24.7711],[121.77189,24.771],[121.77182,24.7709],[121.77171,24.77089],[121.77166,24.77088],[121.77159,24.77084],[121.77136,24.7707],[121.77123,24.77062],[121.7712,24.77059],[121.7712,24.77052],[121.77122,24.77043],[121.77121,24.77038],[121.77117,24.77034],[121.77106,24.77025],[121.77094,24.77018],[121.77081,24.7701],[121.77076,24.77007],[121.77073,24.77002],[121.77072,24.76997],[121.77073,24.76991],[121.77078,24.76979],[121.77083,24.76968],[121.77088,24.76956],[121.77103,24.7692],[121.77115,24.76893],[121.77119,24.76884],[121.77128,24.76868],[121.77133,24.7686],[121.77141,24.76847],[121.77156,24.76824],[121.77163,24.76813],[121.77172,24.76794],[121.77177,24.76781],[121.7718,24.76775],[121.77184,24.76763],[121.77186,24.76756],[121.77191,24.76748],[121.77195,24.7674],[121.77206,24.76721],[121.77211,24.76709],[121.77215,24.76701],[121.77233,24.76668],[121.77238,24.76663],[121.77244,24.76661],[121.77249,24.7666],[121.7726,24.76661],[121.77222,24.76651],[121.77161,24.7664],[121.77131,24.76634],[121.77102,24.76628],[121.77042,24.76615],[121.77011,24.76609],[121.76992,24.76605],[121.76914,24.76581],[121.76847,24.76561],[121.768,24.7656],[121.76754,24.7656],[121.76736,24.76559],[121.76682,24.76521],[121.76667,24.76506],[121.76655,24.76488],[121.76595,24.76339],[121.76534,24.76187],[121.76517,24.76191],[121.76471,24.76194],[121.7641,24.76191],[121.76388,24.76199],[121.76364,24.76218],[121.76336,24.76242],[121.76253,24.76298],[121.76181,24.76341],[121.76113,24.76377],[121.76053,24.76408],[121.75965,24.76463],[121.75942,24.76478],[121.75879,24.76527],[121.75844,24.76548],[121.75841,24.7655],[121.75811,24.76565],[121.75791,24.76574],[121.75763,24.76584],[121.75722,24.76587],[121.75704,24.76591],[121.75681,24.76603],[121.75679,24.766],[121.75536,24.76599],[121.75637,24.76878],[121.75676,24.77],[121.75694,24.77055],[121.75731,24.77176],[121.75741,24.77207],[121.75751,24.77247],[121.75775,24.77323],[121.75793,24.77375],[121.75833,24.77506],[121.75849,24.77557],[121.75891,24.77697],[121.75903,24.77738],[121.75928,24.77829],[121.75948,24.77896],[121.75957,24.77926],[121.76001,24.78069],[121.76007,24.7809],[121.7602,24.7813],[121.76036,24.78184],[121.7606,24.78264],[121.76061,24.78267],[121.76066,24.78286],[121.76068,24.78285],[121.76073,24.78284],[121.7608,24.78286],[121.76085,24.7829],[121.76093,24.78294],[121.76099,24.78294]]]]}},{"type":"Feature","properties":{"uesi_id":"TWN_R3155553","nbhd_code":"TWN_R3155553_29","nbhd_name":"\u832d\u767d\u91cc"},"geometry":{"type":"MultiPolygon","coordinates":[[[[121.76047,24.78292],[121.76057,24.78289],[121.76066,24.78286],[121.76061,24.78267],[121.7606,24.78264],[121.76036,24.78184],[121.7602,24.7813],[121.76007,24.7809],[121.76001,24.78069],[121.75957,24.77926],[121.75948,24.77896],[121.75928,24.77829],[121.75903,24.77738],[121.75891,24.77697],[121.75849,24.77557],[121.75833,24.77506],[121.75793,24.77375],[121.75775,24.77323],[121.75751,24.77247],[121.75741,24.77207],[121.75731,24.77176],[121.75694,24.77055],[121.75676,24.77],[121.75637,24.76878],[121.75581,24.76907],[121.75442,24.7699],[121.75259,24.77106],[121.75259,24.77107],[121.74979,24.77296],[121.74908,24.77342],[121.74823,24.77393],[121.74743,24.77449],[121.74575,24.77564],[121.74527,24.77597],[121.74424,24.77684],[121.74404,24.77699],[121.74369,24.77725],[121.74352,24.77738],[121.74353,24.77738],[121.74354,24.77739],[121.74358,24.77744],[121.7436,24.7775],[121.7436,24.77755],[121.74363,24.77761],[121.74367,24.77769],[121.74371,24.77773],[121.74376,24.77783],[121.74384,24.77786],[121.74389,24.77787],[121.74397,24.77785],[121.74402,24.77784],[121.74415,24.77782],[121.74423,24.77784],[121.74428,24.77787],[121.74432,24.77791],[121.74435,24.77796],[121.74438,24.77802],[121.7444,24.77807],[121.74443,24.77822],[121.74444,24.77831],[121.74448,24.77848],[121.74451,24.77861],[121.74457,24.77868],[121.74462,24.77869],[121.74468,24.77865],[121.74472,24.77862],[121.74477,24.77859],[121.74484,24.77857],[121.74496,24.77859],[121.74501,24.77863],[121.74504,24.77866],[121.74508,24.7787],[121.74513,24.77877],[121.74519,24.77888],[121.74528,24.77891],[121.74539,24.77891],[121.74546,24.77893],[121.74551,24.77898],[121.74558,24.77904],[121.74563,24.7791],[121.74567,24.77916],[121.74569,24.77922],[121.74572,24.77928],[121.74572,24.77937],[121.74572,24.77944],[121.74573,24.77949],[121.74576,24.77956],[121.74576,24.77964],[121.74575,24.77968],[121.74574,24.77974],[121.74575,24.77979],[121.74579,24.77985],[121.74582,24.77988],[121.7459,24.77993],[121.74596,24.77996],[121.74602,24.78],[121.7461,24.78008],[121.74614,24.78014],[121.74619,24.7802],[121.74624,24.78025],[121.74629,24.78028],[121.74634,24.7803],[121.7464,24.78033],[121.74646,24.78033],[121.7465,24.78029],[121.74656,24.78026],[121.74665,24.78023],[121.7467,24.78022],[121.74678,24.78022],[121.74684,24.78022],[121.74697,24.78021],[121.74704,24.7802],[121.74714,24.78016],[121.74723,24.78012],[121.74729,24.7801],[121.74738,24.7801],[121.74747,24.78012],[121.74753,24.78014],[121.74759,24.78017],[121.74765,24.78021],[121.74781,24.78028],[121.7479,24.7803],[121.74802,24.78031],[121.74811,24.78034],[121.74815,24.78037],[121.74826,24.78043],[121.74836,24.7805],[121.7485,24.78062],[121.74859,24.78067],[121.74866,24.78066],[121.7487,24.78063],[121.74877,24.7806],[121.74887,24.78056],[121.74894,24.78054],[121.74901,24.78052],[121.74908,24.78053],[121.74914,24.78055],[121.7492,24.78057],[121.74927,24.7806],[121.74936,24.78064],[121.74942,24.78067],[121.7495,24.7807],[121.74952,24.78075],[121.74955,24.78083],[121.74952,24.7809],[121.74954,24.78095],[121.74958,24.78099],[121.74965,24.78102],[121.74974,24.78104],[121.7498,24.781],[121.74988,24.78094],[121.74996,24.78089],[121.75001,24.78085],[121.75006,24.78079],[121.75014,24.78073],[121.75021,24.78067],[121.75027,24.78064],[121.75037,24.78062],[121.75052,24.78062],[121.75062,24.7806],[121.75069,24.78055],[121.75075,24.78047],[121.75081,24.78036],[121.75087,24.78029],[121.75091,24.78023],[121.75094,24.78019],[121.75102,24.78016],[121.75108,24.78019],[121.75113,24.78023],[121.75117,24.78026],[121.75122,24.78034],[121.75127,24.78039],[121.75133,24.78041],[121.75142,24.78039],[121.7515,24.78039],[121.75158,24.78039],[121.75171,24.78043],[121.75174,24.78048],[121.75175,24.78055],[121.75176,24.78062],[121.75178,24.78067],[121.75183,24.78069],[121.75195,24.78072],[121.75211,24.78074],[121.75224,24.78076],[121.75235,24.78076],[121.75244,24.78077],[121.75251,24.78078],[121.75257,24.78082],[121.75264,24.78086],[121.75282,24.78099],[121.75291,24.78104],[121.75302,24.78107],[121.75309,24.78106],[121.75318,24.78106],[121.75326,24.78104],[121.75333,24.78101],[121.75339,24.78097],[121.75346,24.78091],[121.75353,24.78086],[121.75359,24.78084],[121.75366,24.78082],[121.75375,24.78083],[121.75382,24.78085],[121.75394,24.78092],[121.75401,24.78096],[121.75408,24.78098],[121.75413,24.78098],[121.75421,24.78099],[121.7543,24.78098],[121.75449,24.781],[121.75461,24.78101],[121.75476,24.78103],[121.75482,24.78103],[121.75487,24.78102],[121.75498,24.781],[121.75508,24.78095],[121.7552,24.78089],[121.75528,24.78084],[121.75534,24.78078],[121.75538,24.78075],[121.75549,24.78066],[121.75568,24.78055],[121.75578,24.7805],[121.75584,24.78046],[121.75592,24.78039],[121.75599,24.78034],[121.75612,24.78026],[121.75617,24.78023],[121.75625,24.78022],[121.75637,24.78022],[121.75645,24.78022],[121.75653,24.78024],[121.75658,24.78025],[121.75663,24.78028],[121.75671,24.78035],[121.75682,24.78046],[121.75692,24.78054],[121.75707,24.78064],[121.7572,24.78073],[121.75732,24.78081],[121.7574,24.78085],[121.75744,24.78081],[121.75749,24.78075],[121.75754,24.7807],[121.75762,24.78063],[121.75767,24.7806],[121.75776,24.78058],[121.75783,24.7806],[121.75787,24.78063],[121.75795,24.7807],[121.75797,24.78075],[121.75798,24.7808],[121.75798,24.78087],[121.758,24.78094],[121.75806,24.781],[121.75812,24.78104],[121.75822,24.7811],[121.7583,24.78117],[121.75855,24.78138],[121.75862,24.78146],[121.75887,24.78172],[121.75896,24.78179],[121.75905,24.78187],[121.75911,24.78194],[121.75919,24.78204],[121.75921,24.78211],[121.75922,24.78216],[121.75921,24.78222],[121.75918,24.78227],[121.75914,24.78233],[121.75909,24.78237],[121.75903,24.78242],[121.75897,24.78246],[121.75894,24.7825],[121.75891,24.78255],[121.7589,24.78261],[121.75893,24.78262],[121.75897,24.78264],[121.75907,24.78262],[121.75913,24.78261],[121.7592,24.7826],[121.75929,24.7826],[121.75937,24.78261],[121.75947,24.78265],[121.75949,24.78266],[121.75953,24.78268],[121.75958,24.78272],[121.75967,24.78278],[121.75973,24.7828],[121.7598,24.78281],[121.7599,24.78281],[121.76008,24.78281],[121.76018,24.78286],[121.76023,24.78289],[121.76028,24.78292],[121.76035,24.78292],[121.76047,24.78292]]]]}},{"type":"Feature","properties":{"uesi_id":"TWN_R3155553","nbhd_code":"TWN_R3155553_30","nbhd_name":"\u5317\u6d25\u91cc"},"geometry":{"type":"MultiPolygon","coordinates":[[[[121.74979,24.77296],[121.75259,24.77107],[121.75259,24.77106],[121.75442,24.7699],[121.75581,24.76907],[121.75637,24.76878],[121.75536,24.76599],[121.75418,24.76595],[121.75324,24.76584],[121.7524,24.76554],[121.7517,24.7651],[121.75091,24.76442],[121.75072,24.76424],[121.75031,24.76384],[121.7503,24.76383],[121.74929,24.76467],[121.74532,24.76798],[121.74514,24.76815],[121.745,24.76836],[121.74493,24.76861],[121.74492,24.76882],[121.74498,24.76903],[121.74512,24.76928],[121.74532,24.76953],[121.7455,24.76974],[121.74551,24.76975],[121.74738,24.77162],[121.74874,24.77297],[121.74879,24.77303],[121.74881,24.77306],[121.74908,24.77342],[121.74979,24.77296]]]]}},{"type":"Feature","properties":{"uesi_id":"TWN_R3155553","nbhd_code":"TWN_R3155553_31","nbhd_name":"\u6885\u6d32\u91cc"},"geometry":{"type":"MultiPolygon","coordinates":[[[[121.7319,24.78447],[121.73208,24.78445],[121.73221,24.78441],[121.73245,24.78425],[121.7327,24.78406],[121.73282,24.78398],[121.73293,24.7839],[121.73307,24.78381],[121.73313,24.78375],[121.73322,24.78367],[121.73337,24.7836],[121.73343,24.78356],[121.73348,24.78354],[121.73359,24.78345],[121.73372,24.78339],[121.73378,24.78336],[121.73391,24.78327],[121.73399,24.78323],[121.73411,24.78316],[121.73422,24.78311],[121.73433,24.78307],[121.73438,24.78306],[121.73445,24.78305],[121.73453,24.78304],[121.73466,24.78302],[121.73479,24.78301],[121.73489,24.78302],[121.73503,24.78301],[121.73513,24.783],[121.73522,24.78298],[121.73531,24.78289],[121.73542,24.78278],[121.7355,24.78268],[121.73564,24.78256],[121.73575,24.78245],[121.73587,24.78233],[121.73595,24.78225],[121.73601,24.78217],[121.73606,24.7821],[121.73612,24.78211],[121.73622,24.78218],[121.73638,24.78229],[121.73656,24.78242],[121.73662,24.78243],[121.73667,24.78239],[121.73684,24.78217],[121.73693,24.78207],[121.737,24.78199],[121.73707,24.78191],[121.73713,24.78186],[121.7372,24.7818],[121.73728,24.78173],[121.73736,24.78173],[121.73743,24.78175],[121.73756,24.7818],[121.73765,24.78184],[121.7378,24.78193],[121.7379,24.782],[121.73804,24.78211],[121.73809,24.78214],[121.73815,24.78214],[121.73825,24.78207],[121.73833,24.78198],[121.73854,24.78173],[121.73875,24.78154],[121.739,24.78129],[121.73929,24.78101],[121.73953,24.78077],[121.7398,24.78048],[121.74002,24.78027],[121.74023,24.78006],[121.74028,24.77998],[121.74034,24.77992],[121.7405,24.77975],[121.74056,24.77968],[121.74072,24.77948],[121.74081,24.77938],[121.74091,24.77927],[121.741,24.77916],[121.7412,24.77897],[121.74134,24.77884],[121.74152,24.77869],[121.74168,24.77855],[121.74188,24.77839],[121.74193,24.77835],[121.74213,24.7782],[121.74224,24.77813],[121.74238,24.77801],[121.74253,24.77789],[121.74264,24.7778],[121.74273,24.7777],[121.74284,24.77761],[121.74296,24.77753],[121.74309,24.77742],[121.74316,24.77735],[121.74324,24.77727],[121.7433,24.77724],[121.74336,24.77726],[121.74342,24.7773],[121.74347,24.77733],[121.74352,24.77738],[121.74369,24.77725],[121.74404,24.77699],[121.74424,24.77684],[121.74527,24.77597],[121.74575,24.77564],[121.74743,24.77449],[121.74823,24.77393],[121.74908,24.77342],[121.74881,24.77306],[121.74879,24.77303],[121.74874,24.77297],[121.74738,24.77162],[121.74551,24.76975],[121.7455,24.76974],[121.74532,24.76953],[121.74512,24.76928],[121.74498,24.76903],[121.74492,24.76882],[121.74493,24.76861],[121.745,24.76836],[121.74514,24.76815],[121.74532,24.76798],[121.74929,24.76467],[121.7503,24.76383],[121.74937,24.76304],[121.74888,24.76266],[121.74761,24.76165],[121.74617,24.76037],[121.74577,24.76001],[121.74414,24.75849],[121.74401,24.75818],[121.74401,24.75816],[121.74398,24.75812],[121.74383,24.75781],[121.74376,24.75766],[121.74359,24.75748],[121.74338,24.75736],[121.74292,24.75728],[121.74264,24.75731],[121.74246,24.75732],[121.7422,24.75736],[121.74218,24.75736],[121.7419,24.7574],[121.74074,24.75789],[121.74053,24.758],[121.74032,24.75811],[121.73988,24.75827],[121.73943,24.75844],[121.73885,24.75845],[121.7383,24.75848],[121.73774,24.75851],[121.73684,24.75884],[121.73674,24.7589],[121.73663,24.75896],[121.73631,24.75917],[121.73583,24.75955],[121.73535,24.75994],[121.73424,24.75961],[121.73357,24.75932],[121.73344,24.75922],[121.73331,24.7591],[121.73329,24.75908],[121.73326,24.75906],[121.73324,24.75903],[121.73309,24.75892],[121.73294,24.75879],[121.73279,24.75867],[121.73266,24.75854],[121.73252,24.7584],[121.7324,24.75826],[121.73228,24.75812],[121.73216,24.75797],[121.73205,24.75782],[121.73195,24.75766],[121.73186,24.7575],[121.73177,24.75734],[121.73169,24.75717],[121.73161,24.757],[121.73154,24.75683],[121.73148,24.75666],[121.73143,24.75648],[121.73138,24.75631],[121.73134,24.75613],[121.73131,24.75595],[121.73129,24.75577],[121.73127,24.75559],[121.73126,24.75541],[121.73126,24.75523],[121.73126,24.75504],[121.73128,24.75486],[121.7313,24.75468],[121.73132,24.7545],[121.73136,24.75432],[121.7314,24.75415],[121.73143,24.75404],[121.73145,24.75397],[121.73151,24.7538],[121.73157,24.75362],[121.7316,24.75351],[121.73161,24.75342],[121.73162,24.7534],[121.73163,24.75329],[121.73163,24.75318],[121.73162,24.75307],[121.73161,24.75295],[121.73159,24.75284],[121.73156,24.75273],[121.73153,24.75263],[121.73148,24.75252],[121.73143,24.75242],[121.73138,24.75232],[121.73131,24.75222],[121.73124,24.75213],[121.73117,24.75204],[121.73109,24.75195],[121.731,24.75187],[121.73091,24.7518],[121.73081,24.75173],[121.73071,24.75167],[121.7306,24.75161],[121.73044,24.75155],[121.73028,24.75149],[121.73012,24.75144],[121.72995,24.75139],[121.72978,24.75135],[121.72961,24.75132],[121.72944,24.75129],[121.72927,24.75127],[121.72909,24.75126],[121.72892,24.75125],[121.72874,24.75125],[121.72857,24.75126],[121.7284,24.75127],[121.72822,24.75129],[121.72819,24.75129],[121.72812,24.75134],[121.72807,24.75139],[121.72804,24.75141],[121.72801,24.75144],[121.72801,24.75144],[121.72806,24.75149],[121.72825,24.75168],[121.72844,24.75187],[121.72859,24.75202],[121.72875,24.75218],[121.72892,24.75237],[121.72912,24.75258],[121.72923,24.75268],[121.72942,24.75287],[121.72948,24.75296],[121.72929,24.75313],[121.72919,24.75322],[121.729,24.75339],[121.72884,24.7535],[121.72865,24.75367],[121.72854,24.75377],[121.72831,24.75397],[121.72814,24.75411],[121.72802,24.75421],[121.72768,24.75451],[121.72742,24.75473],[121.72733,24.75481],[121.72717,24.75496],[121.72707,24.75504],[121.72712,24.7551],[121.72727,24.7553],[121.72752,24.75563],[121.72761,24.75575],[121.72776,24.75595],[121.72784,24.75608],[121.72789,24.75616],[121.72794,24.75622],[121.72801,24.75629],[121.72813,24.75633],[121.72829,24.75639],[121.72838,24.75643],[121.72852,24.75648],[121.72867,24.75656],[121.72885,24.75666],[121.729,24.75674],[121.72916,24.75682],[121.72923,24.75688],[121.72926,24.75691],[121.72931,24.75701],[121.72931,24.75711],[121.72928,24.75725],[121.72926,24.75731],[121.7292,24.75747],[121.72913,24.75757],[121.72905,24.75762],[121.72899,24.75764],[121.72891,24.75768],[121.72882,24.75773],[121.72871,24.75775],[121.72863,24.75778],[121.72857,24.75781],[121.72852,24.75783],[121.72849,24.75788],[121.72854,24.75792],[121.72859,24.75794],[121.72873,24.758],[121.7288,24.75805],[121.72894,24.75817],[121.72904,24.75824],[121.72906,24.75826],[121.72908,24.75827],[121.72919,24.7583],[121.72924,24.75831],[121.72931,24.75832],[121.72944,24.75833],[121.72949,24.75834],[121.72955,24.75835],[121.7296,24.75836],[121.72968,24.7584],[121.72973,24.75845],[121.72976,24.7585],[121.72978,24.75856],[121.72973,24.75862],[121.72969,24.75869],[121.72972,24.75874],[121.72982,24.75882],[121.72987,24.75887],[121.7299,24.75893],[121.72993,24.759],[121.72995,24.75905],[121.72994,24.75914],[121.72991,24.7592],[121.72989,24.75925],[121.72988,24.75929],[121.72991,24.75935],[121.72997,24.75942],[121.73002,24.75948],[121.73006,24.75951],[121.73015,24.75959],[121.73033,24.75978],[121.73047,24.75987],[121.73056,24.75987],[121.73062,24.75986],[121.73068,24.75985],[121.73082,24.75985],[121.73093,24.75985],[121.73099,24.75987],[121.73106,24.75994],[121.73109,24.75999],[121.73112,24.76004],[121.73113,24.76011],[121.7311,24.76017],[121.73102,24.76029],[121.73096,24.76041],[121.73086,24.76068],[121.73082,24.76079],[121.73081,24.76086],[121.73083,24.76098],[121.73086,24.76105],[121.7309,24.7611],[121.73095,24.76115],[121.73099,24.76121],[121.73103,24.76126],[121.73109,24.76134],[121.73119,24.76148],[121.73135,24.76168],[121.73141,24.76177],[121.73146,24.7619],[121.73151,24.76201],[121.73152,24.76206],[121.73152,24.76212],[121.73154,24.76233],[121.73154,24.76245],[121.73152,24.76263],[121.7315,24.76279],[121.73151,24.76298],[121.73152,24.7631],[121.73153,24.76316],[121.73156,24.76325],[121.73158,24.7633],[121.73165,24.76345],[121.73175,24.76361],[121.73178,24.76366],[121.73179,24.76374],[121.73182,24.76384],[121.73185,24.76395],[121.73186,24.76401],[121.73185,24.76411],[121.73185,24.76419],[121.7319,24.76422],[121.73197,24.76422],[121.73202,24.76419],[121.73209,24.76417],[121.73214,24.76415],[121.73222,24.76415],[121.73231,24.76417],[121.73239,24.76419],[121.73244,24.76421],[121.73247,24.76425],[121.73249,24.76428],[121.73249,24.76434],[121.73247,24.76445],[121.73246,24.76456],[121.73242,24.76471],[121.73237,24.76482],[121.73232,24.76494],[121.73228,24.76499],[121.73222,24.76505],[121.73216,24.76514],[121.73214,24.76519],[121.73213,24.76525],[121.73213,24.76533],[121.73215,24.76548],[121.73213,24.76562],[121.73212,24.76567],[121.73212,24.76575],[121.73213,24.7658],[121.73217,24.76588],[121.73224,24.76599],[121.7323,24.76613],[121.73232,24.7662],[121.73235,24.76632],[121.73235,24.76639],[121.73238,24.7665],[121.7324,24.76657],[121.73242,24.76663],[121.73246,24.76677],[121.73247,24.76689],[121.73251,24.76704],[121.73254,24.76712],[121.7326,24.76725],[121.7327,24.76741],[121.7328,24.76753],[121.73293,24.76769],[121.73303,24.76775],[121.73309,24.76778],[121.73322,24.76789],[121.73331,24.76801],[121.73334,24.76806],[121.73341,24.76814],[121.73344,24.7682],[121.73349,24.76827],[121.73354,24.76834],[121.73364,24.76844],[121.73369,24.76851],[121.73377,24.7686],[121.73385,24.76871],[121.73394,24.76883],[121.73399,24.76891],[121.73407,24.76905],[121.73411,24.76912],[121.73421,24.76929],[121.7343,24.76947],[121.73437,24.76963],[121.7344,24.7697],[121.73445,24.76987],[121.73447,24.76997],[121.73448,24.77016],[121.73447,24.77032],[121.73447,24.77039],[121.73448,24.77054],[121.73448,24.77065],[121.7345,24.77081],[121.73453,24.77099],[121.73456,24.77108],[121.73458,24.77119],[121.7346,24.77133],[121.73462,24.77155],[121.73465,24.77168],[121.73468,24.77183],[121.7347,24.77202],[121.73471,24.77212],[121.7347,24.77228],[121.7347,24.77243],[121.7347,24.77255],[121.7347,24.77265],[121.73468,24.77271],[121.73466,24.77278],[121.7346,24.77292],[121.73454,24.77302],[121.73447,24.77312],[121.73443,24.7732],[121.73426,24.77346],[121.73408,24.77375],[121.73401,24.77388],[121.73394,24.77402],[121.73387,24.7742],[121.73381,24.77436],[121.73376,24.77452],[121.7337,24.77475],[121.73368,24.77486],[121.73366,24.77509],[121.73365,24.77523],[121.73359,24.77544],[121.73353,24.77565],[121.7335,24.77572],[121.73346,24.77578],[121.73339,24.77587],[121.7333,24.77599],[121.73322,24.77602],[121.7331,24.7762],[121.73304,24.77627],[121.73297,24.77636],[121.73291,24.77642],[121.73282,24.77651],[121.7327,24.77662],[121.73253,24.7768],[121.73244,24.77688],[121.73227,24.777],[121.73212,24.77711],[121.73201,24.77721],[121.73198,24.77724],[121.73186,24.7774],[121.73173,24.7776],[121.73165,24.77771],[121.73155,24.77791],[121.73148,24.77804],[121.73142,24.77814],[121.73132,24.7783],[121.73121,24.77849],[121.73111,24.77863],[121.73104,24.77874],[121.73093,24.77895],[121.73079,24.77922],[121.73072,24.77933],[121.73064,24.77947],[121.73058,24.77959],[121.73052,24.77974],[121.73045,24.7799],[121.73043,24.77997],[121.73041,24.78004],[121.73039,24.78025],[121.73039,24.78039],[121.73037,24.78056],[121.73036,24.78081],[121.73036,24.78102],[121.73036,24.78104],[121.73036,24.7811],[121.73035,24.78131],[121.73034,24.78154],[121.73034,24.78176],[121.73033,24.78193],[121.73034,24.78214],[121.73035,24.78227],[121.73034,24.78242],[121.73034,24.7825],[121.73032,24.78264],[121.73032,24.78278],[121.73031,24.78291],[121.73031,24.78316],[121.7303,24.78335],[121.7303,24.78345],[121.7303,24.78359],[121.7303,24.78371],[121.73029,24.7839],[121.73029,24.78399],[121.73029,24.78413],[121.73029,24.78427],[121.73029,24.78435],[121.7303,24.78439],[121.73037,24.78443],[121.73053,24.78444],[121.73076,24.78445],[121.731,24.78447],[121.73134,24.78447],[121.73153,24.78447],[121.73173,24.78448],[121.7319,24.78447]]]]}},{"type":"Feature","properties":{"uesi_id":"TWN_R3155553","nbhd_code":"TWN_R3155553_32","nbhd_name":"\u5317\u9580\u91cc"},"geometry":{"type":"MultiPolygon","coordinates":[[[[121.75483,24.76457],[121.75475,24.76431],[121.75459,24.76382],[121.75451,24.76362],[121.75409,24.76254],[121.75357,24.76114],[121.75355,24.76109],[121.7527,24.7613],[121.75176,24.7615],[121.75123,24.76162],[121.75081,24.76172],[121.74986,24.76192],[121.74965,24.76196],[121.74961,24.76204],[121.74944,24.76222],[121.74888,24.76266],[121.74937,24.76304],[121.7503,24.76383],[121.75031,24.76384],[121.75072,24.76424],[121.75091,24.76442],[121.7517,24.7651],[121.7524,24.76554],[121.75324,24.76584],[121.75418,24.76595],[121.75536,24.76599],[121.75483,24.76457]]]]}},{"type":"Feature","properties":{"uesi_id":"TWN_R3155553","nbhd_code":"TWN_R3155553_33","nbhd_name":"\u4e2d\u5c71\u91cc"},"geometry":{"type":"MultiPolygon","coordinates":[[[[121.75324,24.76051],[121.75334,24.76048],[121.75322,24.75996],[121.75301,24.759],[121.75276,24.75782],[121.75192,24.75796],[121.7516,24.758],[121.7511,24.75807],[121.75067,24.75813],[121.74963,24.75828],[121.74961,24.75828],[121.74962,24.7585],[121.74969,24.75871],[121.74987,24.75913],[121.75004,24.75945],[121.75029,24.75974],[121.75048,24.75994],[121.75065,24.76006],[121.75104,24.76027],[121.75154,24.76044],[121.75177,24.76045],[121.75211,24.76049],[121.75246,24.76053],[121.75287,24.76055],[121.75324,24.76051]]]]}},{"type":"Feature","properties":{"uesi_id":"TWN_R3155553","nbhd_code":"TWN_R3155553_34","nbhd_name":"\u897f\u9580\u91cc"},"geometry":{"type":"MultiPolygon","coordinates":[[[[121.74944,24.76222],[121.74961,24.76204],[121.74965,24.76196],[121.74986,24.76192],[121.75081,24.76172],[121.75123,24.76162],[121.75176,24.7615],[121.7527,24.7613],[121.75355,24.76109],[121.75335,24.76054],[121.75334,24.76048],[121.75324,24.76051],[121.75287,24.76055],[121.75246,24.76053],[121.75211,24.76049],[121.75177,24.76045],[121.75154,24.76044],[121.75104,24.76027],[121.75065,24.76006],[121.75048,24.75994],[121.75029,24.75974],[121.75004,24.75945],[121.74987,24.75913],[121.74969,24.75871],[121.74962,24.7585],[121.74961,24.75828],[121.74938,24.75831],[121.74923,24.75831],[121.74891,24.75831],[121.74809,24.75828],[121.74796,24.75827],[121.74782,24.75826],[121.74771,24.75826],[121.74738,24.75824],[121.74703,24.75821],[121.74618,24.75817],[121.74607,24.75817],[121.74606,24.75817],[121.74531,24.75813],[121.74401,24.75818],[121.74414,24.75849],[121.74577,24.76001],[121.74617,24.76037],[121.74761,24.76165],[121.74888,24.76266],[121.74944,24.76222]]]]}},{"type":"Feature","properties":{"uesi_id":"TWN_R3155553","nbhd_code":"TWN_R3155553_35","nbhd_name":"\u5357\u9580\u91cc"},"geometry":{"type":"MultiPolygon","coordinates":[[[[121.74961,24.75828],[121.74963,24.75828],[121.75067,24.75813],[121.7511,24.75807],[121.7516,24.758],[121.75192,24.75796],[121.75276,24.75782],[121.7526,24.75716],[121.75247,24.75659],[121.75245,24.75652],[121.75245,24.75651],[121.75231,24.75587],[121.75211,24.75518],[121.75205,24.75491],[121.75204,24.75474],[121.75199,24.75451],[121.75189,24.75402],[121.75156,24.75311],[121.75152,24.75312],[121.75084,24.75329],[121.75015,24.75355],[121.75008,24.75359],[121.74968,24.75373],[121.7492,24.75396],[121.74906,24.75403],[121.74885,24.75414],[121.7488,24.75418],[121.74863,24.75429],[121.74839,24.75446],[121.74812,24.75471],[121.74791,24.75535],[121.74761,24.75627],[121.74721,24.75648],[121.74666,24.75675],[121.74647,24.75685],[121.74621,24.75699],[121.74598,24.7571],[121.74482,24.75769],[121.74398,24.75812],[121.74401,24.75816],[121.74401,24.75818],[121.74531,24.75813],[121.74606,24.75817],[121.74607,24.75817],[121.74618,24.75817],[121.74703,24.75821],[121.74738,24.75824],[121.74771,24.75826],[121.74782,24.75826],[121.74796,24.75827],[121.74809,24.75828],[121.74891,24.75831],[121.74923,24.75831],[121.74938,24.75831],[121.74961,24.75828]]]]}},{"type":"Feature","properties":{"uesi_id":"TWN_R3155553","nbhd_code":"TWN_R3155553_36","nbhd_name":"\u8ca0\u90ed\u91cc"},"geometry":{"type":"MultiPolygon","coordinates":[[[[121.74482,24.75769],[121.74598,24.7571],[121.74621,24.75699],[121.74647,24.75685],[121.74666,24.75675],[121.74721,24.75648],[121.74761,24.75627],[121.74791,24.75535],[121.74812,24.75471],[121.74786,24.75454],[121.74752,24.7544],[121.74689,24.75435],[121.74667,24.7537],[121.74664,24.75361],[121.7466,24.75349],[121.74655,24.7533],[121.74625,24.75236],[121.74614,24.75201],[121.74613,24.75199],[121.74494,24.75229],[121.74442,24.75243],[121.74309,24.75278],[121.74298,24.7528],[121.74181,24.75314],[121.74084,24.75476],[121.74124,24.75504],[121.74257,24.75601],[121.74314,24.7564],[121.74264,24.75731],[121.74292,24.75728],[121.74338,24.75736],[121.74359,24.75748],[121.74376,24.75766],[121.74383,24.75781],[121.74398,24.75812],[121.74482,24.75769]]]]}},{"type":"Feature","properties":{"uesi_id":"TWN_R3155553","nbhd_code":"TWN_R3155553_37","nbhd_name":"\u6c11\u65cf\u91cc"},"geometry":{"type":"MultiPolygon","coordinates":[[[[121.74839,24.75446],[121.74863,24.75429],[121.7488,24.75418],[121.74885,24.75414],[121.74906,24.75403],[121.7492,24.75396],[121.74968,24.75373],[121.75008,24.75359],[121.75015,24.75355],[121.75084,24.75329],[121.75152,24.75312],[121.75151,24.75309],[121.7515,24.75307],[121.75146,24.75293],[121.75133,24.75256],[121.75133,24.75253],[121.75126,24.75234],[121.75119,24.7521],[121.75114,24.75196],[121.75112,24.75192],[121.75112,24.75191],[121.75101,24.75152],[121.75088,24.75104],[121.75086,24.75098],[121.75085,24.75094],[121.75078,24.75069],[121.75078,24.75069],[121.75071,24.75044],[121.75064,24.75018],[121.75064,24.75016],[121.74952,24.75055],[121.74871,24.75078],[121.7485,24.75088],[121.7479,24.75121],[121.74697,24.75164],[121.74683,24.7518],[121.74616,24.75198],[121.74613,24.75199],[121.74614,24.75201],[121.74625,24.75236],[121.74655,24.7533],[121.7466,24.75349],[121.74664,24.75361],[121.74667,24.7537],[121.74689,24.75435],[121.74752,24.7544],[121.74786,24.75454],[121.74812,24.75471],[121.74839,24.75446]]]]}},{"type":"Feature","properties":{"uesi_id":"TWN_R3155553","nbhd_code":"TWN_R3155553_38","nbhd_name":"\u5efa\u8ecd\u91cc"},"geometry":{"type":"MultiPolygon","coordinates":[[[[121.74298,24.7528],[121.74309,24.75278],[121.74442,24.75243],[121.74439,24.75235],[121.74432,24.75211],[121.74418,24.75168],[121.74409,24.75136],[121.74408,24.75133],[121.74401,24.75114],[121.74396,24.75097],[121.74388,24.75071],[121.74375,24.75028],[121.74372,24.75018],[121.74322,24.74859],[121.7429,24.74867],[121.74229,24.74883],[121.74226,24.74883],[121.74219,24.74884],[121.74214,24.74885],[121.74208,24.74887],[121.74203,24.74895],[121.74199,24.74902],[121.74196,24.74906],[121.74196,24.74911],[121.74196,24.74917],[121.74193,24.74922],[121.74182,24.74934],[121.74173,24.7494],[121.74148,24.74945],[121.74138,24.74947],[121.74129,24.74949],[121.74035,24.74973],[121.74028,24.74975],[121.74007,24.7498],[121.73996,24.74983],[121.73971,24.7499],[121.73943,24.74998],[121.7393,24.75001],[121.73894,24.7501],[121.73885,24.75012],[121.73859,24.75019],[121.73858,24.75019],[121.73836,24.75025],[121.73823,24.75029],[121.73807,24.75034],[121.73798,24.75036],[121.73765,24.75045],[121.73747,24.75049],[121.7373,24.75055],[121.73727,24.75056],[121.73703,24.75065],[121.73835,24.75157],[121.74181,24.75314],[121.74298,24.7528]]]]}}]}