{"type":"FeatureCollection","name":"UKR_R11859916","crs":{"type":"name","properties":{"name":"urn:ogc:def:crs:OGC:1.3:CRS84"}},"features":[{"type":"Feature","properties":{"uesi_id":"UKR_R11859916","nbhd_code":"UKR_R11859916_1","nbhd_name":"\u0426\u0435\u043d\u0442\u0440\u0430\u043b\u044c\u043d\u0438\u0439 \u0440\u0430\u0439\u043e\u043d"},"geometry":{"type":"MultiPolygon","coordinates":[[[[31.98393,46.96536,0.0],[31.98391,46.96537,0.0],[31.98381,46.96539,0.0],[31.98224,46.96576,0.0],[31.98211,46.9658,0.0],[31.98207,46.96583,0.0],[31.98201,46.96584,0.0],[31.98179,46.9659,0.0],[31.98166,46.96593,0.0],[31.98164,46.96594,0.0],[31.98126,46.96604,0.0],[31.98119,46.96603,0.0],[31.98115,46.96602,0.0],[31.98109,46.96601,0.0],[31.98085,46.96606,0.0],[31.98039,46.96617,0.0],[31.98025,46.9662,0.0],[31.98031,46.96628,0.0],[31.98046,46.96653,0.0],[31.98058,46.96672,0.0],[31.98063,46.96681,0.0],[31.98069,46.96689,0.0],[31.98071,46.96695,0.0],[31.98073,46.96702,0.0],[31.98073,46.96709,0.0],[31.98073,46.96715,0.0],[31.98073,46.96722,0.0],[31.98071,46.96724,0.0],[31.98067,46.96729,0.0],[31.98064,46.96735,0.0],[31.98063,46.96741,0.0],[31.98065,46.96747,0.0],[31.98068,46.96753,0.0],[31.98074,46.96757,0.0],[31.98081,46.96761,0.0],[31.98094,46.96765,0.0],[31.98098,46.96767,0.0],[31.98102,46.96771,0.0],[31.98105,46.96774,0.0],[31.98108,46.96777,0.0],[31.98109,46.96781,0.0],[31.9811,46.96785,0.0],[31.9811,46.96789,0.0],[31.98108,46.96802,0.0],[31.98102,46.96821,0.0],[31.98071,46.96911,0.0],[31.9806,46.96945,0.0],[31.98055,46.96959,0.0],[31.98046,46.96983,0.0],[31.98042,46.96995,0.0],[31.98039,46.97006,0.0],[31.9803,46.97034,0.0],[31.98017,46.97073,0.0],[31.98009,46.97098,0.0],[31.98008,46.97101,0.0],[31.98,46.97118,0.0],[31.97996,46.97126,0.0],[31.97992,46.97132,0.0],[31.97988,46.97137,0.0],[31.97978,46.97144,0.0],[31.97977,46.97145,0.0],[31.97893,46.97172,0.0],[31.97817,46.97195,0.0],[31.97759,46.97213,0.0],[31.97752,46.97215,0.0],[31.97749,46.97217,0.0],[31.97743,46.9722,0.0],[31.97732,46.97227,0.0],[31.97714,46.97239,0.0],[31.9762,46.97299,0.0],[31.97571,46.9733,0.0],[31.97519,46.97369,0.0],[31.9747,46.97401,0.0],[31.97458,46.97408,0.0],[31.97446,46.97415,0.0],[31.97349,46.9748,0.0],[31.97294,46.97515,0.0],[31.97294,46.97527,0.0],[31.97295,46.97588,0.0],[31.97296,46.97646,0.0],[31.97295,46.97651,0.0],[31.97296,46.97734,0.0],[31.97297,46.97742,0.0],[31.97299,46.97748,0.0],[31.973,46.97751,0.0],[31.973,46.97752,0.0],[31.97301,46.97757,0.0],[31.973,46.97765,0.0],[31.97281,46.9784,0.0],[31.97277,46.9785,0.0],[31.97271,46.97855,0.0],[31.97262,46.97858,0.0],[31.9725,46.9786,0.0],[31.97164,46.97847,0.0],[31.971,46.97847,0.0],[31.97068,46.97868,0.0],[31.97037,46.97887,0.0],[31.96996,46.97913,0.0],[31.96985,46.97921,0.0],[31.96957,46.97938,0.0],[31.9691,46.97969,0.0],[31.96836,46.98016,0.0],[31.96806,46.98035,0.0],[31.96795,46.98042,0.0],[31.96707,46.981,0.0],[31.96432,46.98312,0.0],[31.95395,46.9775,0.0],[31.94391,46.97222,0.0],[31.93675,46.9788,0.0],[31.93493,46.98102,0.0],[31.93378,46.98109,0.0],[31.93056,46.98395,0.0],[31.92829,46.98235,0.0],[31.92795,46.98211,0.0],[31.92668,46.98121,0.0],[31.92597,46.98151,0.0],[31.92572,46.98288,0.0],[31.92578,46.98326,0.0],[31.92596,46.98364,0.0],[31.92575,46.98385,0.0],[31.92451,46.984,0.0],[31.92395,46.98429,0.0],[31.92356,46.98466,0.0],[31.92263,46.98597,0.0],[31.9226,46.98627,0.0],[31.9225,46.98645,0.0],[31.92232,46.9865,0.0],[31.9213,46.98643,0.0],[31.92109,46.98605,0.0],[31.92109,46.98595,0.0],[31.92077,46.98582,0.0],[31.91979,46.9856,0.0],[31.91867,46.98787,0.0],[31.91865,46.98787,0.0],[31.91754,46.9876,0.0],[31.91692,46.98745,0.0],[31.91594,46.98721,0.0],[31.91577,46.98717,0.0],[31.91574,46.98716,0.0],[31.91566,46.98714,0.0],[31.91537,46.98708,0.0],[31.91499,46.98699,0.0],[31.91456,46.9869,0.0],[31.91418,46.98683,0.0],[31.91396,46.98679,0.0],[31.91364,46.98673,0.0],[31.91288,46.9866,0.0],[31.91226,46.98649,0.0],[31.90982,46.98609,0.0],[31.90838,46.98585,0.0],[31.9076,46.98572,0.0],[31.90742,46.98569,0.0],[31.90647,46.98552,0.0],[31.90575,46.98539,0.0],[31.9032,46.98492,0.0],[31.90209,46.98472,0.0],[31.90086,46.9845,0.0],[31.90076,46.98448,0.0],[31.90011,46.98436,0.0],[31.89945,46.98424,0.0],[31.89829,46.98403,0.0],[31.89795,46.98397,0.0],[31.8972,46.98383,0.0],[31.89693,46.98378,0.0],[31.89566,46.98355,0.0],[31.89483,46.9834,0.0],[31.89448,46.98333,0.0],[31.89423,46.98331,0.0],[31.89404,46.98329,0.0],[31.89382,46.98329,0.0],[31.89343,46.9833,0.0],[31.89316,46.98332,0.0],[31.89297,46.98333,0.0],[31.89223,46.98342,0.0],[31.8916,46.98352,0.0],[31.89106,46.98364,0.0],[31.89037,46.98381,0.0],[31.89005,46.98388,0.0],[31.88975,46.98393,0.0],[31.88949,46.98397,0.0],[31.88924,46.98399,0.0],[31.8889,46.984,0.0],[31.88859,46.98401,0.0],[31.88845,46.98402,0.0],[31.88789,46.98404,0.0],[31.88574,46.98436,0.0],[31.88387,46.98465,0.0],[31.88048,46.98516,0.0],[31.88138,46.98649,0.0],[31.88371,46.99689,0.0],[31.8865,47.00739,0.0],[31.8869,47.00908,0.0],[31.89326,47.01034,0.0],[31.89413,47.01175,0.0],[31.89435,47.01134,0.0],[31.89512,47.01085,0.0],[31.89555,47.01111,0.0],[31.89562,47.01121,0.0],[31.89616,47.01202,0.0],[31.89607,47.01231,0.0],[31.89556,47.01276,0.0],[31.89457,47.01313,0.0],[31.89485,47.01406,0.0],[31.89627,47.01613,0.0],[31.90139,47.02436,0.0],[31.90369,47.02678,0.0],[31.91009,47.03055,0.0],[31.92326,47.035,0.0],[31.92542,47.03592,0.0],[31.92727,47.03655,0.0],[31.92929,47.03718,0.0],[31.93152,47.03768,0.0],[31.93506,47.03826,0.0],[31.94185,47.0388,0.0],[31.95099,47.03952,0.0],[31.95204,47.03947,0.0],[31.95291,47.03935,0.0],[31.95461,47.03914,0.0],[31.95603,47.03902,0.0],[31.95716,47.03894,0.0],[31.95874,47.03896,0.0],[31.96126,47.0389,0.0],[31.96378,47.03883,0.0],[31.96608,47.03879,0.0],[31.96869,47.03873,0.0],[31.97023,47.03944,0.0],[31.97054,47.0396,0.0],[31.97168,47.04013,0.0],[31.97196,47.04027,0.0],[31.97198,47.04028,0.0],[31.97209,47.04036,0.0],[31.97218,47.04041,0.0],[31.97253,47.0406,0.0],[31.97284,47.04079,0.0],[31.97346,47.04117,0.0],[31.9738,47.04136,0.0],[31.97548,47.04233,0.0],[31.9765,47.04282,0.0],[31.97719,47.04308,0.0],[31.97795,47.0433,0.0],[31.97903,47.04352,0.0],[31.98047,47.04369,0.0],[31.98116,47.04371,0.0],[31.98167,47.04371,0.0],[31.98244,47.04366,0.0],[31.98314,47.04359,0.0],[31.98505,47.04333,0.0],[31.98841,47.04285,0.0],[31.98925,47.04271,0.0],[31.9926,47.04227,0.0],[31.99425,47.04204,0.0],[31.99585,47.04181,0.0],[31.99715,47.04164,0.0],[31.99791,47.04155,0.0],[31.99881,47.0415,0.0],[31.99941,47.0415,0.0],[32.00019,47.04153,0.0],[32.00086,47.04159,0.0],[32.0015,47.04169,0.0],[32.00218,47.0418,0.0],[32.00316,47.04201,0.0],[32.0065,47.04284,0.0],[32.00662,47.04287,0.0],[32.0074,47.04306,0.0],[32.00803,47.04321,0.0],[32.01098,47.04389,0.0],[32.01224,47.0442,0.0],[32.01729,47.04541,0.0],[32.0183,47.04566,0.0],[32.0186,47.04573,0.0],[32.0197,47.04599,0.0],[32.02013,47.04609,0.0],[32.02022,47.04611,0.0],[32.02059,47.04619,0.0],[32.0212,47.04633,0.0],[32.02174,47.04645,0.0],[32.0228,47.04669,0.0],[32.02344,47.04684,0.0],[32.0235,47.04686,0.0],[32.02419,47.04702,0.0],[32.02525,47.04724,0.0],[32.0259,47.04735,0.0],[32.02632,47.04739,0.0],[32.02697,47.04746,0.0],[32.02834,47.04752,0.0],[32.03079,47.04738,0.0],[32.03481,47.04714,0.0],[32.03498,47.04534,0.0],[32.0344,47.04542,0.0],[32.03428,47.04542,0.0],[32.0342,47.0454,0.0],[32.0342,47.04532,0.0],[32.03424,47.04514,0.0],[32.03433,47.04493,0.0],[32.03442,47.04476,0.0],[32.03449,47.04464,0.0],[32.0345,47.04447,0.0],[32.03448,47.04431,0.0],[32.03451,47.04411,0.0],[32.03457,47.04394,0.0],[32.03473,47.04378,0.0],[32.03488,47.04346,0.0],[32.03503,47.04289,0.0],[32.03514,47.04256,0.0],[32.0352,47.0423,0.0],[32.03521,47.04191,0.0],[32.03532,47.04133,0.0],[32.03537,47.04063,0.0],[32.03518,47.03957,0.0],[32.03512,47.03875,0.0],[32.03472,47.03688,0.0],[32.03451,47.03631,0.0],[32.03414,47.03524,0.0],[32.03268,47.03338,0.0],[32.03224,47.03284,0.0],[32.03179,47.03219,0.0],[32.0312,47.03165,0.0],[32.03045,47.03109,0.0],[32.02982,47.03072,0.0],[32.02911,47.03049,0.0],[32.02849,47.03036,0.0],[32.02782,47.03007,0.0],[32.02731,47.02983,0.0],[32.02701,47.02965,0.0],[32.0266,47.02944,0.0],[32.02547,47.0292,0.0],[32.0247,47.02903,0.0],[32.02404,47.02885,0.0],[32.02323,47.02872,0.0],[32.02146,47.02847,0.0],[32.0195,47.02831,0.0],[32.01992,47.02757,0.0],[32.02039,47.0267,0.0],[32.02086,47.02586,0.0],[32.02182,47.02419,0.0],[32.02228,47.02334,0.0],[32.02261,47.02276,0.0],[32.023,47.02284,0.0],[32.02385,47.02278,0.0],[32.02445,47.02268,0.0],[32.02447,47.02234,0.0],[32.02454,47.02195,0.0],[32.02475,47.02119,0.0],[32.02487,47.02044,0.0],[32.02496,47.01993,0.0],[32.02497,47.01924,0.0],[32.02506,47.01847,0.0],[32.02516,47.01682,0.0],[32.02534,47.01544,0.0],[32.02553,47.0145,0.0],[32.02552,47.01443,0.0],[32.02545,47.01438,0.0],[32.02518,47.01438,0.0],[32.02482,47.01435,0.0],[32.02464,47.01436,0.0],[32.02451,47.01439,0.0],[32.02391,47.01445,0.0],[32.02402,47.01406,0.0],[32.0241,47.01387,0.0],[32.0242,47.01366,0.0],[32.02437,47.01335,0.0],[32.02459,47.013,0.0],[32.02488,47.01261,0.0],[32.02511,47.01235,0.0],[32.02539,47.01207,0.0],[32.02579,47.01173,0.0],[32.02627,47.01139,0.0],[32.02724,47.01079,0.0],[32.02823,47.01019,0.0],[32.02921,47.0096,0.0],[32.02975,47.01008,0.0],[32.02986,47.01004,0.0],[32.03,47.01001,0.0],[32.03015,47.00998,0.0],[32.03026,47.00994,0.0],[32.03037,47.00982,0.0],[32.0305,47.00973,0.0],[32.03082,47.00953,0.0],[32.03111,47.00937,0.0],[32.03124,47.00926,0.0],[32.03137,47.00916,0.0],[32.03115,47.00897,0.0],[32.03078,47.00869,0.0],[32.032,47.00797,0.0],[32.03222,47.00783,0.0],[32.03245,47.00767,0.0],[32.03282,47.00736,0.0],[32.03308,47.00714,0.0],[32.03337,47.0069,0.0],[32.03359,47.00665,0.0],[32.03364,47.00658,0.0],[32.03381,47.00638,0.0],[32.03419,47.00584,0.0],[32.03435,47.00556,0.0],[32.03473,47.00474,0.0],[32.03514,47.00389,0.0],[32.03589,47.00233,0.0],[32.03615,47.00178,0.0],[32.03628,47.00153,0.0],[32.03645,47.00123,0.0],[32.03672,47.00084,0.0],[32.0371,47.00045,0.0],[32.03749,47.00002,0.0],[32.03782,46.99969,0.0],[32.03808,46.99946,0.0],[32.03843,46.99918,0.0],[32.03903,46.99877,0.0],[32.03927,46.99861,0.0],[32.03953,46.99846,0.0],[32.04021,46.99811,0.0],[32.04061,46.99793,0.0],[32.04089,46.99781,0.0],[32.0412,46.99769,0.0],[32.04157,46.99756,0.0],[32.04205,46.99743,0.0],[32.04295,46.99719,0.0],[32.04343,46.99709,0.0],[32.04447,46.99683,0.0],[32.04523,46.9936,0.0],[32.04763,46.9868,0.0],[32.04643,46.97662,0.0],[32.0442,46.97111,0.0],[32.04214,46.97029,0.0],[32.03939,46.97064,0.0],[32.03768,46.97121,0.0],[32.03744,46.97151,0.0],[32.03692,46.97136,0.0],[32.0368,46.9713,0.0],[32.03667,46.97117,0.0],[32.03658,46.97106,0.0],[32.03651,46.97095,0.0],[32.03645,46.97084,0.0],[32.03643,46.97078,0.0],[32.03645,46.9707,0.0],[32.03636,46.97067,0.0],[32.03621,46.97061,0.0],[32.03609,46.97055,0.0],[32.03594,46.97046,0.0],[32.03575,46.97036,0.0],[32.03563,46.97028,0.0],[32.03536,46.97015,0.0],[32.03521,46.97009,0.0],[32.03499,46.97002,0.0],[32.03479,46.96995,0.0],[32.03491,46.9698,0.0],[32.0352,46.96944,0.0],[32.03526,46.96936,0.0],[32.03565,46.96903,0.0],[32.03668,46.96827,0.0],[32.03701,46.96801,0.0],[32.03735,46.96775,0.0],[32.03776,46.96744,0.0],[32.03819,46.96711,0.0],[32.03841,46.96691,0.0],[32.03865,46.96664,0.0],[32.0389,46.96638,0.0],[32.03916,46.96611,0.0],[32.03925,46.96601,0.0],[32.03928,46.96593,0.0],[32.03919,46.96576,0.0],[32.03913,46.96559,0.0],[32.03908,46.96541,0.0],[32.03902,46.96516,0.0],[32.039,46.96507,0.0],[32.0389,46.96471,0.0],[32.03881,46.96439,0.0],[32.03874,46.96414,0.0],[32.03864,46.96374,0.0],[32.03858,46.96353,0.0],[32.03855,46.96331,0.0],[32.03852,46.96316,0.0],[32.03849,46.963,0.0],[32.03848,46.96291,0.0],[32.03846,46.9628,0.0],[32.03841,46.96259,0.0],[32.03821,46.9623,0.0],[32.03808,46.96217,0.0],[32.03471,46.96349,0.0],[32.03455,46.96354,0.0],[32.03439,46.96359,0.0],[32.03423,46.96363,0.0],[32.03399,46.96365,0.0],[32.03372,46.9638,0.0],[32.03356,46.96386,0.0],[32.03339,46.96389,0.0],[32.03323,46.9639,0.0],[32.03255,46.96395,0.0],[32.0325,46.96395,0.0],[32.03222,46.96397,0.0],[32.03168,46.964,0.0],[32.02986,46.96413,0.0],[32.0296,46.96415,0.0],[32.0295,46.96415,0.0],[32.0294,46.96415,0.0],[32.02916,46.96416,0.0],[32.02904,46.96417,0.0],[32.02741,46.96428,0.0],[32.02693,46.96431,0.0],[32.02459,46.96446,0.0],[32.02425,46.96449,0.0],[32.0234,46.96454,0.0],[32.02329,46.96455,0.0],[32.02322,46.96455,0.0],[32.02322,46.96452,0.0],[32.02322,46.96449,0.0],[32.02324,46.96446,0.0],[32.02327,46.96441,0.0],[32.02328,46.96436,0.0],[32.02328,46.96433,0.0],[32.02323,46.96414,0.0],[32.02292,46.96323,0.0],[32.02257,46.96159,0.0],[32.02256,46.96155,0.0],[32.02254,46.96146,0.0],[32.02253,46.96144,0.0],[32.0225,46.96126,0.0],[32.02249,46.96123,0.0],[32.02247,46.96115,0.0],[32.02245,46.96106,0.0],[32.02245,46.96103,0.0],[32.02241,46.96104,0.0],[32.02233,46.96104,0.0],[32.02229,46.96104,0.0],[32.02225,46.96104,0.0],[32.02212,46.96105,0.0],[32.01887,46.96123,0.0],[32.01636,46.96138,0.0],[32.01318,46.96158,0.0],[32.01303,46.96158,0.0],[32.0129,46.96159,0.0],[32.01225,46.96163,0.0],[32.01066,46.96172,0.0],[32.0106,46.96173,0.0],[32.00959,46.96178,0.0],[32.00897,46.96182,0.0],[32.00826,46.96186,0.0],[32.00714,46.96193,0.0],[32.00701,46.96194,0.0],[32.00688,46.96195,0.0],[32.00676,46.96195,0.0],[32.00648,46.96197,0.0],[32.00608,46.962,0.0],[32.00541,46.96204,0.0],[32.00497,46.96206,0.0],[32.00449,46.96209,0.0],[32.00351,46.96215,0.0],[32.00332,46.96216,0.0],[32.00279,46.96219,0.0],[32.00265,46.9622,0.0],[32.00261,46.9622,0.0],[32.00034,46.96235,0.0],[31.99894,46.96244,0.0],[31.99804,46.9625,0.0],[31.99767,46.96252,0.0],[31.99736,46.96254,0.0],[31.99728,46.96256,0.0],[31.99718,46.96259,0.0],[31.99713,46.96261,0.0],[31.99708,46.96264,0.0],[31.99702,46.96268,0.0],[31.99699,46.9627,0.0],[31.99697,46.96271,0.0],[31.99694,46.96272,0.0],[31.99689,46.96275,0.0],[31.99681,46.96279,0.0],[31.99672,46.96281,0.0],[31.9965,46.96282,0.0],[31.99629,46.96283,0.0],[31.99546,46.96288,0.0],[31.99506,46.9629,0.0],[31.9948,46.96292,0.0],[31.99474,46.96293,0.0],[31.99473,46.96293,0.0],[31.99461,46.96296,0.0],[31.99448,46.96298,0.0],[31.99324,46.96327,0.0],[31.99252,46.96343,0.0],[31.9924,46.96346,0.0],[31.99232,46.96348,0.0],[31.99204,46.96355,0.0],[31.99067,46.96387,0.0],[31.99045,46.96391,0.0],[31.99018,46.96397,0.0],[31.98887,46.96435,0.0],[31.98869,46.9644,0.0],[31.98843,46.96449,0.0],[31.98806,46.9646,0.0],[31.98795,46.96464,0.0],[31.98788,46.96466,0.0],[31.98759,46.96474,0.0],[31.98757,46.96475,0.0],[31.98746,46.96479,0.0],[31.98708,46.9649,0.0],[31.98704,46.96484,0.0],[31.98691,46.96488,0.0],[31.98659,46.96498,0.0],[31.98644,46.96503,0.0],[31.98625,46.96509,0.0],[31.98609,46.96514,0.0],[31.98599,46.96517,0.0],[31.9859,46.9652,0.0],[31.9858,46.96505,0.0],[31.98572,46.96507,0.0],[31.98567,46.96508,0.0],[31.9849,46.96526,0.0],[31.98423,46.96542,0.0],[31.98414,46.96542,0.0],[31.9841,46.96542,0.0],[31.98401,46.96544,0.0],[31.98399,46.96545,0.0],[31.98393,46.96536,0.0]]]]}},{"type":"Feature","properties":{"uesi_id":"UKR_R11859916","nbhd_code":"UKR_R11859916_2","nbhd_name":"\u0417\u0430\u0432\u043e\u0434\u0441\u044c\u043a\u0438\u0439 \u0440\u0430\u0439\u043e\u043d"},"geometry":{"type":"MultiPolygon","coordinates":[[[[31.98393,46.96536,0.0],[31.98399,46.96545,0.0],[31.98401,46.96544,0.0],[31.9841,46.96542,0.0],[31.98414,46.96542,0.0],[31.98423,46.96542,0.0],[31.9849,46.96526,0.0],[31.98567,46.96508,0.0],[31.98572,46.96507,0.0],[31.9858,46.96505,0.0],[31.9859,46.9652,0.0],[31.98599,46.96517,0.0],[31.98609,46.96514,0.0],[31.98625,46.96509,0.0],[31.98644,46.96503,0.0],[31.98659,46.96498,0.0],[31.98691,46.96488,0.0],[31.98704,46.96484,0.0],[31.98708,46.9649,0.0],[31.98746,46.96479,0.0],[31.98757,46.96475,0.0],[31.98759,46.96474,0.0],[31.98788,46.96466,0.0],[31.98795,46.96464,0.0],[31.98806,46.9646,0.0],[31.98843,46.96449,0.0],[31.98869,46.9644,0.0],[31.98887,46.96435,0.0],[31.99018,46.96397,0.0],[31.99045,46.96391,0.0],[31.99067,46.96387,0.0],[31.99204,46.96355,0.0],[31.99232,46.96348,0.0],[31.9924,46.96346,0.0],[31.99252,46.96343,0.0],[31.99324,46.96327,0.0],[31.99448,46.96298,0.0],[31.99461,46.96296,0.0],[31.99473,46.96293,0.0],[31.99474,46.96293,0.0],[31.9948,46.96292,0.0],[31.99506,46.9629,0.0],[31.99546,46.96288,0.0],[31.99629,46.96283,0.0],[31.9965,46.96282,0.0],[31.99672,46.96281,0.0],[31.99681,46.96279,0.0],[31.99689,46.96275,0.0],[31.99694,46.96272,0.0],[31.99697,46.96271,0.0],[31.99699,46.9627,0.0],[31.99702,46.96268,0.0],[31.99708,46.96264,0.0],[31.99713,46.96261,0.0],[31.99718,46.96259,0.0],[31.99728,46.96256,0.0],[31.99736,46.96254,0.0],[31.99767,46.96252,0.0],[31.99804,46.9625,0.0],[31.99894,46.96244,0.0],[32.00034,46.96235,0.0],[32.00261,46.9622,0.0],[32.00265,46.9622,0.0],[32.00279,46.96219,0.0],[32.00332,46.96216,0.0],[32.00351,46.96215,0.0],[32.00449,46.96209,0.0],[32.00497,46.96206,0.0],[32.00541,46.96204,0.0],[32.00608,46.962,0.0],[32.00648,46.96197,0.0],[32.00676,46.96195,0.0],[32.00688,46.96195,0.0],[32.00701,46.96194,0.0],[32.00714,46.96193,0.0],[32.00826,46.96186,0.0],[32.00897,46.96182,0.0],[32.00959,46.96178,0.0],[32.0106,46.96173,0.0],[32.01066,46.96172,0.0],[32.01225,46.96163,0.0],[32.0129,46.96159,0.0],[32.01303,46.96158,0.0],[32.01318,46.96158,0.0],[32.01636,46.96138,0.0],[32.01887,46.96123,0.0],[32.02212,46.96105,0.0],[32.02225,46.96104,0.0],[32.02229,46.96104,0.0],[32.02233,46.96104,0.0],[32.02241,46.96104,0.0],[32.02245,46.96103,0.0],[32.02244,46.96092,0.0],[32.02227,46.95975,0.0],[32.02218,46.95913,0.0],[32.02195,46.95787,0.0],[32.02192,46.95757,0.0],[32.02177,46.95617,0.0],[32.02148,46.95348,0.0],[32.02133,46.95349,0.0],[32.02132,46.95342,0.0],[32.02131,46.95339,0.0],[32.02131,46.95333,0.0],[32.02125,46.95282,0.0],[32.0212,46.95232,0.0],[32.0212,46.95227,0.0],[32.0212,46.95223,0.0],[32.0212,46.95219,0.0],[32.02121,46.95214,0.0],[32.02124,46.95206,0.0],[32.02127,46.952,0.0],[32.02129,46.95194,0.0],[32.02132,46.9519,0.0],[32.02138,46.9518,0.0],[32.02155,46.95159,0.0],[32.02163,46.95146,0.0],[32.02171,46.95135,0.0],[32.02176,46.95125,0.0],[32.02177,46.95123,0.0],[32.02178,46.95123,0.0],[32.02179,46.95122,0.0],[32.02183,46.95119,0.0],[32.02184,46.95119,0.0],[32.02185,46.95118,0.0],[32.02186,46.95115,0.0],[32.02187,46.95112,0.0],[32.02188,46.9511,0.0],[32.02188,46.9511,0.0],[32.02188,46.95107,0.0],[32.02189,46.95105,0.0],[32.02189,46.95104,0.0],[32.0219,46.95102,0.0],[32.02195,46.95092,0.0],[32.02197,46.95092,0.0],[32.02199,46.95092,0.0],[32.02201,46.95091,0.0],[32.0221,46.95086,0.0],[32.02219,46.9508,0.0],[32.02224,46.95076,0.0],[32.02227,46.95073,0.0],[32.02233,46.95067,0.0],[32.02236,46.95064,0.0],[32.02239,46.9506,0.0],[32.02251,46.95044,0.0],[32.02253,46.95041,0.0],[32.02258,46.95037,0.0],[32.02264,46.9503,0.0],[32.02269,46.95026,0.0],[32.02279,46.95025,0.0],[32.023,46.9501,0.0],[32.02319,46.94967,0.0],[32.02299,46.94964,0.0],[32.02294,46.94961,0.0],[32.0229,46.94959,0.0],[32.02283,46.94949,0.0],[32.02273,46.94935,0.0],[32.02268,46.94932,0.0],[32.02261,46.94931,0.0],[32.02251,46.94936,0.0],[32.02242,46.94944,0.0],[32.02237,46.94944,0.0],[32.02193,46.94934,0.0],[32.02144,46.94921,0.0],[32.02116,46.94914,0.0],[32.02097,46.9491,0.0],[32.02094,46.9491,0.0],[32.0209,46.94911,0.0],[32.02087,46.94906,0.0],[32.02086,46.94904,0.0],[32.02087,46.94902,0.0],[32.02089,46.94895,0.0],[32.02092,46.9489,0.0],[32.02095,46.94884,0.0],[32.02105,46.94872,0.0],[32.02112,46.94859,0.0],[32.02115,46.94852,0.0],[32.02119,46.94844,0.0],[32.02125,46.9483,0.0],[32.02129,46.94818,0.0],[32.02131,46.94815,0.0],[32.02133,46.94812,0.0],[32.02135,46.94809,0.0],[32.02136,46.94806,0.0],[32.02138,46.94805,0.0],[32.02155,46.94795,0.0],[32.02157,46.94794,0.0],[32.02159,46.94793,0.0],[32.02161,46.94791,0.0],[32.02165,46.94788,0.0],[32.02143,46.94774,0.0],[32.02135,46.94768,0.0],[32.02131,46.94765,0.0],[32.02128,46.94762,0.0],[32.02124,46.94758,0.0],[32.02121,46.94753,0.0],[32.02119,46.94747,0.0],[32.02117,46.94744,0.0],[32.02117,46.9474,0.0],[32.02117,46.94736,0.0],[32.02118,46.94732,0.0],[32.02119,46.94726,0.0],[32.02122,46.9472,0.0],[32.02125,46.94715,0.0],[32.02128,46.94711,0.0],[32.02135,46.94703,0.0],[32.02138,46.947,0.0],[32.02158,46.94683,0.0],[32.02184,46.94662,0.0],[32.02239,46.94616,0.0],[32.02269,46.9459,0.0],[32.023,46.94562,0.0],[32.02336,46.94522,0.0],[32.02352,46.945,0.0],[32.0237,46.94467,0.0],[32.0239,46.94431,0.0],[32.02393,46.94425,0.0],[32.02431,46.94355,0.0],[32.02497,46.9423,0.0],[32.0253,46.94167,0.0],[32.02601,46.94031,0.0],[32.02672,46.93896,0.0],[32.0274,46.93766,0.0],[32.02832,46.93614,0.0],[32.02735,46.93589,0.0],[32.02699,46.93582,0.0],[32.02692,46.93581,0.0],[32.0269,46.9358,0.0],[32.02681,46.93578,0.0],[32.02678,46.93577,0.0],[32.02672,46.93576,0.0],[32.02664,46.93574,0.0],[32.0266,46.93574,0.0],[32.02647,46.93571,0.0],[32.02642,46.9357,0.0],[32.02604,46.93639,0.0],[32.02333,46.93589,0.0],[32.02221,46.93569,0.0],[32.01135,46.93384,0.0],[32.01283,46.93339,0.0],[32.01442,46.9323,0.0],[32.01828,46.92902,0.0],[32.02167,46.92515,0.0],[32.02197,46.92377,0.0],[32.02172,46.92244,0.0],[31.99328,46.91911,0.0],[31.99287,46.91919,0.0],[31.99258,46.91921,0.0],[31.99213,46.91923,0.0],[31.99199,46.91924,0.0],[31.9918,46.91926,0.0],[31.9916,46.91927,0.0],[31.99139,46.91928,0.0],[31.99123,46.91932,0.0],[31.99111,46.91936,0.0],[31.99106,46.91937,0.0],[31.99096,46.91939,0.0],[31.99067,46.91944,0.0],[31.99051,46.91945,0.0],[31.99046,46.91944,0.0],[31.98997,46.91943,0.0],[31.98988,46.91942,0.0],[31.98982,46.91942,0.0],[31.98954,46.91938,0.0],[31.98949,46.91939,0.0],[31.9893,46.91938,0.0],[31.98906,46.91938,0.0],[31.9886,46.91935,0.0],[31.98857,46.91935,0.0],[31.98831,46.91933,0.0],[31.98775,46.91929,0.0],[31.98726,46.91927,0.0],[31.98721,46.91927,0.0],[31.98715,46.91928,0.0],[31.98706,46.91776,0.0],[31.98676,46.91766,0.0],[31.98657,46.91764,0.0],[31.98637,46.91765,0.0],[31.98617,46.91765,0.0],[31.98589,46.91764,0.0],[31.98543,46.91758,0.0],[31.98485,46.91753,0.0],[31.9846,46.91753,0.0],[31.98425,46.91756,0.0],[31.98395,46.91763,0.0],[31.98379,46.91768,0.0],[31.98364,46.91775,0.0],[31.9832,46.91795,0.0],[31.98308,46.91798,0.0],[31.98297,46.918,0.0],[31.98286,46.91798,0.0],[31.98272,46.91794,0.0],[31.98259,46.91785,0.0],[31.98247,46.91767,0.0],[31.98236,46.91749,0.0],[31.98223,46.91722,0.0],[31.98203,46.91699,0.0],[31.98196,46.91685,0.0],[31.98198,46.91671,0.0],[31.98198,46.91664,0.0],[31.98103,46.91627,0.0],[31.98095,46.91646,0.0],[31.98099,46.91689,0.0],[31.98087,46.91719,0.0],[31.98077,46.91737,0.0],[31.97839,46.91723,0.0],[31.97826,46.91708,0.0],[31.97804,46.91713,0.0],[31.97684,46.91741,0.0],[31.9766,46.91703,0.0],[31.97692,46.91855,0.0],[31.97724,46.91983,0.0],[31.97731,46.92012,0.0],[31.97733,46.9203,0.0],[31.97741,46.92053,0.0],[31.97761,46.92113,0.0],[31.97768,46.92132,0.0],[31.97338,46.92294,0.0],[31.96925,46.92131,0.0],[31.96861,46.92106,0.0],[31.9675,46.92063,0.0],[31.96728,46.92054,0.0],[31.96708,46.92047,0.0],[31.96691,46.92045,0.0],[31.96469,46.92014,0.0],[31.96424,46.92007,0.0],[31.96363,46.92003,0.0],[31.96286,46.91992,0.0],[31.9623,46.91988,0.0],[31.96119,46.91982,0.0],[31.96095,46.9198,0.0],[31.96045,46.91977,0.0],[31.9582,46.92028,0.0],[31.95772,46.92038,0.0],[31.95721,46.92037,0.0],[31.95686,46.92015,0.0],[31.95653,46.91951,0.0],[31.95588,46.91823,0.0],[31.95378,46.91867,0.0],[31.95325,46.91877,0.0],[31.95046,46.91915,0.0],[31.94913,46.91932,0.0],[31.94885,46.91936,0.0],[31.94771,46.91952,0.0],[31.94656,46.91968,0.0],[31.94595,46.91976,0.0],[31.9454,46.91983,0.0],[31.94531,46.91983,0.0],[31.94484,46.9199,0.0],[31.94449,46.91994,0.0],[31.94423,46.91998,0.0],[31.94364,46.92005,0.0],[31.94316,46.92011,0.0],[31.94255,46.92019,0.0],[31.94196,46.92027,0.0],[31.94041,46.9205,0.0],[31.93916,46.92063,0.0],[31.93836,46.92071,0.0],[31.93826,46.92072,0.0],[31.937,46.9208,0.0],[31.93562,46.92084,0.0],[31.93514,46.92085,0.0],[31.93219,46.92093,0.0],[31.93175,46.92094,0.0],[31.93145,46.92096,0.0],[31.93113,46.92099,0.0],[31.93077,46.92107,0.0],[31.92879,46.92175,0.0],[31.9278,46.92209,0.0],[31.92427,46.92332,0.0],[31.92415,46.92336,0.0],[31.91883,46.92521,0.0],[31.91706,46.92584,0.0],[31.9168,46.92591,0.0],[31.91659,46.92596,0.0],[31.91637,46.926,0.0],[31.91618,46.92601,0.0],[31.91598,46.92602,0.0],[31.91579,46.92602,0.0],[31.91555,46.926,0.0],[31.91532,46.92597,0.0],[31.91493,46.92588,0.0],[31.91247,46.92519,0.0],[31.91232,46.92515,0.0],[31.91212,46.92513,0.0],[31.912,46.92512,0.0],[31.91187,46.92513,0.0],[31.90738,46.9263,0.0],[31.90719,46.92699,0.0],[31.90655,46.92915,0.0],[31.90648,46.92937,0.0],[31.90633,46.9296,0.0],[31.90611,46.92981,0.0],[31.90564,46.93012,0.0],[31.90475,46.93062,0.0],[31.9043,46.93087,0.0],[31.90408,46.93101,0.0],[31.90405,46.93102,0.0],[31.9022,46.93201,0.0],[31.90171,46.93224,0.0],[31.90137,46.93233,0.0],[31.8998,46.93256,0.0],[31.89828,46.93274,0.0],[31.89757,46.93282,0.0],[31.89663,46.93294,0.0],[31.89629,46.93303,0.0],[31.89601,46.93313,0.0],[31.89584,46.93325,0.0],[31.89566,46.93343,0.0],[31.89545,46.93395,0.0],[31.89523,46.93451,0.0],[31.89505,46.93498,0.0],[31.89488,46.93539,0.0],[31.89425,46.93706,0.0],[31.89393,46.93788,0.0],[31.89365,46.93857,0.0],[31.89352,46.9389,0.0],[31.89343,46.93915,0.0],[31.89332,46.93942,0.0],[31.89253,46.94143,0.0],[31.89243,46.94167,0.0],[31.89205,46.94261,0.0],[31.89105,46.94502,0.0],[31.89088,46.9454,0.0],[31.89074,46.94577,0.0],[31.88985,46.9481,0.0],[31.88959,46.94878,0.0],[31.8894,46.94948,0.0],[31.88935,46.9498,0.0],[31.88935,46.95013,0.0],[31.88935,46.95061,0.0],[31.88942,46.95108,0.0],[31.8896,46.95147,0.0],[31.88975,46.95175,0.0],[31.88979,46.95184,0.0],[31.88992,46.9521,0.0],[31.89013,46.95238,0.0],[31.89028,46.95254,0.0],[31.89046,46.95269,0.0],[31.89067,46.9528,0.0],[31.89162,46.95304,0.0],[31.89197,46.9531,0.0],[31.89235,46.95319,0.0],[31.89302,46.95339,0.0],[31.89417,46.95387,0.0],[31.89504,46.9542,0.0],[31.89591,46.95455,0.0],[31.89625,46.95466,0.0],[31.89777,46.95524,0.0],[31.90022,46.9562,0.0],[31.90132,46.95663,0.0],[31.90159,46.95674,0.0],[31.9033,46.95747,0.0],[31.90453,46.95799,0.0],[31.90475,46.95809,0.0],[31.90575,46.95848,0.0],[31.90618,46.95871,0.0],[31.90659,46.95898,0.0],[31.90679,46.95918,0.0],[31.9072,46.95965,0.0],[31.9076,46.9602,0.0],[31.90776,46.96043,0.0],[31.90837,46.96119,0.0],[31.90883,46.9618,0.0],[31.90983,46.96322,0.0],[31.90996,46.96339,0.0],[31.91113,46.96528,0.0],[31.91137,46.96569,0.0],[31.91202,46.96672,0.0],[31.91293,46.96811,0.0],[31.91302,46.96822,0.0],[31.9132,46.96839,0.0],[31.91355,46.96869,0.0],[31.91405,46.96904,0.0],[31.91445,46.96933,0.0],[31.9151,46.96978,0.0],[31.91621,46.97061,0.0],[31.91978,46.97327,0.0],[31.92013,46.97352,0.0],[31.92127,46.97436,0.0],[31.92264,46.97537,0.0],[31.92288,46.97555,0.0],[31.92315,46.97575,0.0],[31.92333,46.97596,0.0],[31.92342,46.97612,0.0],[31.92361,46.97658,0.0],[31.92426,46.97817,0.0],[31.9244,46.97842,0.0],[31.92476,46.97896,0.0],[31.92492,46.97917,0.0],[31.92563,46.98004,0.0],[31.92623,46.98074,0.0],[31.92645,46.98098,0.0],[31.92663,46.98116,0.0],[31.92668,46.98121,0.0],[31.92795,46.98211,0.0],[31.92829,46.98235,0.0],[31.93056,46.98395,0.0],[31.93378,46.98109,0.0],[31.93493,46.98102,0.0],[31.93675,46.9788,0.0],[31.94391,46.97222,0.0],[31.95395,46.9775,0.0],[31.96432,46.98312,0.0],[31.96707,46.981,0.0],[31.96795,46.98042,0.0],[31.96806,46.98035,0.0],[31.96836,46.98016,0.0],[31.9691,46.97969,0.0],[31.96957,46.97938,0.0],[31.96985,46.97921,0.0],[31.96996,46.97913,0.0],[31.97037,46.97887,0.0],[31.97068,46.97868,0.0],[31.971,46.97847,0.0],[31.97164,46.97847,0.0],[31.9725,46.9786,0.0],[31.97262,46.97858,0.0],[31.97271,46.97855,0.0],[31.97277,46.9785,0.0],[31.97281,46.9784,0.0],[31.973,46.97765,0.0],[31.97301,46.97757,0.0],[31.973,46.97752,0.0],[31.973,46.97751,0.0],[31.97299,46.97748,0.0],[31.97297,46.97742,0.0],[31.97296,46.97734,0.0],[31.97295,46.97651,0.0],[31.97296,46.97646,0.0],[31.97295,46.97588,0.0],[31.97294,46.97527,0.0],[31.97294,46.97515,0.0],[31.97349,46.9748,0.0],[31.97446,46.97415,0.0],[31.97458,46.97408,0.0],[31.9747,46.97401,0.0],[31.97519,46.97369,0.0],[31.97571,46.9733,0.0],[31.9762,46.97299,0.0],[31.97714,46.97239,0.0],[31.97732,46.97227,0.0],[31.97743,46.9722,0.0],[31.97749,46.97217,0.0],[31.97752,46.97215,0.0],[31.97759,46.97213,0.0],[31.97817,46.97195,0.0],[31.97893,46.97172,0.0],[31.97977,46.97145,0.0],[31.97978,46.97144,0.0],[31.97988,46.97137,0.0],[31.97992,46.97132,0.0],[31.97996,46.97126,0.0],[31.98,46.97118,0.0],[31.98008,46.97101,0.0],[31.98009,46.97098,0.0],[31.98017,46.97073,0.0],[31.9803,46.97034,0.0],[31.98039,46.97006,0.0],[31.98042,46.96995,0.0],[31.98046,46.96983,0.0],[31.98055,46.96959,0.0],[31.9806,46.96945,0.0],[31.98071,46.96911,0.0],[31.98102,46.96821,0.0],[31.98108,46.96802,0.0],[31.9811,46.96789,0.0],[31.9811,46.96785,0.0],[31.98109,46.96781,0.0],[31.98108,46.96777,0.0],[31.98105,46.96774,0.0],[31.98102,46.96771,0.0],[31.98098,46.96767,0.0],[31.98094,46.96765,0.0],[31.98081,46.96761,0.0],[31.98074,46.96757,0.0],[31.98068,46.96753,0.0],[31.98065,46.96747,0.0],[31.98063,46.96741,0.0],[31.98064,46.96735,0.0],[31.98067,46.96729,0.0],[31.98071,46.96724,0.0],[31.98073,46.96722,0.0],[31.98073,46.96715,0.0],[31.98073,46.96709,0.0],[31.98073,46.96702,0.0],[31.98071,46.96695,0.0],[31.98069,46.96689,0.0],[31.98063,46.96681,0.0],[31.98058,46.96672,0.0],[31.98046,46.96653,0.0],[31.98031,46.96628,0.0],[31.98025,46.9662,0.0],[31.98039,46.96617,0.0],[31.98085,46.96606,0.0],[31.98109,46.96601,0.0],[31.98115,46.96602,0.0],[31.98119,46.96603,0.0],[31.98126,46.96604,0.0],[31.98164,46.96594,0.0],[31.98166,46.96593,0.0],[31.98179,46.9659,0.0],[31.98201,46.96584,0.0],[31.98207,46.96583,0.0],[31.98211,46.9658,0.0],[31.98224,46.96576,0.0],[31.98381,46.96539,0.0],[31.98391,46.96537,0.0],[31.98393,46.96536,0.0]]]]}},{"type":"Feature","properties":{"uesi_id":"UKR_R11859916","nbhd_code":"UKR_R11859916_3","nbhd_name":"\u0406\u043d\u0433\u0443\u043b\u044c\u0441\u044c\u043a\u0438\u0439 \u0440\u0430\u0439\u043e\u043d"},"geometry":{"type":"MultiPolygon","coordinates":[[[[32.06261,46.98628,0.0],[32.06401,46.98578,0.0],[32.06531,46.98493,0.0],[32.06546,46.98381,0.0],[32.07041,46.9843,0.0],[32.0708,46.98311,0.0],[32.0722,46.98305,0.0],[32.0733,46.98314,0.0],[32.07806,46.98609,0.0],[32.09974,46.98546,0.0],[32.09911,46.97407,0.0],[32.1043,46.97713,0.0],[32.10449,46.97696,0.0],[32.1047,46.97678,0.0],[32.1092,46.97278,0.0],[32.10945,46.97253,0.0],[32.10954,46.97248,0.0],[32.10985,46.97222,0.0],[32.10998,46.97203,0.0],[32.11051,46.97159,0.0],[32.11077,46.97142,0.0],[32.11197,46.97043,0.0],[32.1125,46.96996,0.0],[32.11283,46.96966,0.0],[32.11002,46.96559,0.0],[32.10889,46.96395,0.0],[32.10791,46.96433,0.0],[32.10467,46.95972,0.0],[32.10566,46.95939,0.0],[32.1039,46.95761,0.0],[32.1019,46.95629,0.0],[32.10096,46.95681,0.0],[32.09811,46.95548,0.0],[32.1008,46.95298,0.0],[32.10426,46.95251,0.0],[32.12542,46.95546,0.0],[32.12704,46.95395,0.0],[32.12975,46.95143,0.0],[32.13519,46.94637,0.0],[32.11933,46.93897,0.0],[32.11369,46.93621,0.0],[32.10351,46.93104,0.0],[32.09948,46.929,0.0],[32.09583,46.92715,0.0],[32.09383,46.92595,0.0],[32.09304,46.92639,0.0],[32.09284,46.92632,0.0],[32.09126,46.92589,0.0],[32.09054,46.92557,0.0],[32.06609,46.91818,0.0],[32.06533,46.91723,0.0],[32.06527,46.91716,0.0],[32.06429,46.91757,0.0],[32.06201,46.91857,0.0],[32.05951,46.91968,0.0],[32.057,46.92078,0.0],[32.05425,46.922,0.0],[32.0528,46.92264,0.0],[32.05248,46.92278,0.0],[32.05214,46.92292,0.0],[32.05154,46.92314,0.0],[32.05084,46.92334,0.0],[32.04983,46.92354,0.0],[32.04908,46.92362,0.0],[32.04856,46.92366,0.0],[32.04814,46.92367,0.0],[32.04769,46.92367,0.0],[32.04718,46.92365,0.0],[32.04601,46.92353,0.0],[32.04422,46.9233,0.0],[32.04333,46.92219,0.0],[32.04261,46.92169,0.0],[32.03912,46.92072,0.0],[32.03614,46.92079,0.0],[32.03624,46.92095,0.0],[32.03175,46.92175,0.0],[32.02841,46.92294,0.0],[32.02486,46.92271,0.0],[32.02381,46.92272,0.0],[32.02172,46.92244,0.0],[32.02197,46.92377,0.0],[32.02167,46.92515,0.0],[32.01828,46.92902,0.0],[32.01442,46.9323,0.0],[32.01283,46.93339,0.0],[32.01135,46.93384,0.0],[32.02221,46.93569,0.0],[32.02333,46.93589,0.0],[32.02604,46.93639,0.0],[32.02642,46.9357,0.0],[32.02647,46.93571,0.0],[32.0266,46.93574,0.0],[32.02664,46.93574,0.0],[32.02672,46.93576,0.0],[32.02678,46.93577,0.0],[32.02681,46.93578,0.0],[32.0269,46.9358,0.0],[32.02692,46.93581,0.0],[32.02699,46.93582,0.0],[32.02735,46.93589,0.0],[32.02832,46.93614,0.0],[32.0274,46.93766,0.0],[32.02672,46.93896,0.0],[32.02601,46.94031,0.0],[32.0253,46.94167,0.0],[32.02497,46.9423,0.0],[32.02431,46.94355,0.0],[32.02393,46.94425,0.0],[32.0239,46.94431,0.0],[32.0237,46.94467,0.0],[32.02352,46.945,0.0],[32.02336,46.94522,0.0],[32.023,46.94562,0.0],[32.02269,46.9459,0.0],[32.02239,46.94616,0.0],[32.02184,46.94662,0.0],[32.02158,46.94683,0.0],[32.02138,46.947,0.0],[32.02135,46.94703,0.0],[32.02128,46.94711,0.0],[32.02125,46.94715,0.0],[32.02122,46.9472,0.0],[32.02119,46.94726,0.0],[32.02118,46.94732,0.0],[32.02117,46.94736,0.0],[32.02117,46.9474,0.0],[32.02117,46.94744,0.0],[32.02119,46.94747,0.0],[32.02121,46.94753,0.0],[32.02124,46.94758,0.0],[32.02128,46.94762,0.0],[32.02131,46.94765,0.0],[32.02135,46.94768,0.0],[32.02143,46.94774,0.0],[32.02165,46.94788,0.0],[32.02161,46.94791,0.0],[32.02159,46.94793,0.0],[32.02157,46.94794,0.0],[32.02155,46.94795,0.0],[32.02138,46.94805,0.0],[32.02136,46.94806,0.0],[32.02135,46.94809,0.0],[32.02133,46.94812,0.0],[32.02131,46.94815,0.0],[32.02129,46.94818,0.0],[32.02125,46.9483,0.0],[32.02119,46.94844,0.0],[32.02115,46.94852,0.0],[32.02112,46.94859,0.0],[32.02105,46.94872,0.0],[32.02095,46.94884,0.0],[32.02092,46.9489,0.0],[32.02089,46.94895,0.0],[32.02087,46.94902,0.0],[32.02086,46.94904,0.0],[32.02087,46.94906,0.0],[32.0209,46.94911,0.0],[32.02094,46.9491,0.0],[32.02097,46.9491,0.0],[32.02116,46.94914,0.0],[32.02144,46.94921,0.0],[32.02193,46.94934,0.0],[32.02237,46.94944,0.0],[32.02242,46.94944,0.0],[32.02251,46.94936,0.0],[32.02261,46.94931,0.0],[32.02268,46.94932,0.0],[32.02273,46.94935,0.0],[32.02283,46.94949,0.0],[32.0229,46.94959,0.0],[32.02294,46.94961,0.0],[32.02299,46.94964,0.0],[32.02319,46.94967,0.0],[32.023,46.9501,0.0],[32.02279,46.95025,0.0],[32.02269,46.95026,0.0],[32.02264,46.9503,0.0],[32.02258,46.95037,0.0],[32.02253,46.95041,0.0],[32.02251,46.95044,0.0],[32.02239,46.9506,0.0],[32.02236,46.95064,0.0],[32.02233,46.95067,0.0],[32.02227,46.95073,0.0],[32.02224,46.95076,0.0],[32.02219,46.9508,0.0],[32.0221,46.95086,0.0],[32.02201,46.95091,0.0],[32.02199,46.95092,0.0],[32.02197,46.95092,0.0],[32.02195,46.95092,0.0],[32.0219,46.95102,0.0],[32.02189,46.95104,0.0],[32.02189,46.95105,0.0],[32.02188,46.95107,0.0],[32.02188,46.9511,0.0],[32.02188,46.9511,0.0],[32.02187,46.95112,0.0],[32.02186,46.95115,0.0],[32.02185,46.95118,0.0],[32.02184,46.95119,0.0],[32.02183,46.95119,0.0],[32.02179,46.95122,0.0],[32.02178,46.95123,0.0],[32.02177,46.95123,0.0],[32.02176,46.95125,0.0],[32.02171,46.95135,0.0],[32.02163,46.95146,0.0],[32.02155,46.95159,0.0],[32.02138,46.9518,0.0],[32.02132,46.9519,0.0],[32.02129,46.95194,0.0],[32.02127,46.952,0.0],[32.02124,46.95206,0.0],[32.02121,46.95214,0.0],[32.0212,46.95219,0.0],[32.0212,46.95223,0.0],[32.0212,46.95227,0.0],[32.0212,46.95232,0.0],[32.02125,46.95282,0.0],[32.02131,46.95333,0.0],[32.02131,46.95339,0.0],[32.02132,46.95342,0.0],[32.02133,46.95349,0.0],[32.02148,46.95348,0.0],[32.02177,46.95617,0.0],[32.02192,46.95757,0.0],[32.02195,46.95787,0.0],[32.02218,46.95913,0.0],[32.02227,46.95975,0.0],[32.02244,46.96092,0.0],[32.02245,46.96103,0.0],[32.02245,46.96106,0.0],[32.02247,46.96115,0.0],[32.02249,46.96123,0.0],[32.0225,46.96126,0.0],[32.02253,46.96144,0.0],[32.02254,46.96146,0.0],[32.02256,46.96155,0.0],[32.02257,46.96159,0.0],[32.02292,46.96323,0.0],[32.02323,46.96414,0.0],[32.02328,46.96433,0.0],[32.02328,46.96436,0.0],[32.02327,46.96441,0.0],[32.02324,46.96446,0.0],[32.02322,46.96449,0.0],[32.02322,46.96452,0.0],[32.02322,46.96455,0.0],[32.02329,46.96455,0.0],[32.0234,46.96454,0.0],[32.02425,46.96449,0.0],[32.02459,46.96446,0.0],[32.02693,46.96431,0.0],[32.02741,46.96428,0.0],[32.02904,46.96417,0.0],[32.02916,46.96416,0.0],[32.0294,46.96415,0.0],[32.0295,46.96415,0.0],[32.0296,46.96415,0.0],[32.02986,46.96413,0.0],[32.03168,46.964,0.0],[32.03222,46.96397,0.0],[32.0325,46.96395,0.0],[32.03255,46.96395,0.0],[32.03323,46.9639,0.0],[32.03339,46.96389,0.0],[32.03356,46.96386,0.0],[32.03372,46.9638,0.0],[32.03399,46.96365,0.0],[32.03423,46.96363,0.0],[32.03439,46.96359,0.0],[32.03455,46.96354,0.0],[32.03471,46.96349,0.0],[32.03808,46.96217,0.0],[32.03821,46.9623,0.0],[32.03841,46.96259,0.0],[32.03846,46.9628,0.0],[32.03848,46.96291,0.0],[32.03849,46.963,0.0],[32.03852,46.96316,0.0],[32.03855,46.96331,0.0],[32.03858,46.96353,0.0],[32.03864,46.96374,0.0],[32.03874,46.96414,0.0],[32.03881,46.96439,0.0],[32.0389,46.96471,0.0],[32.039,46.96507,0.0],[32.03902,46.96516,0.0],[32.03908,46.96541,0.0],[32.03913,46.96559,0.0],[32.03919,46.96576,0.0],[32.03928,46.96593,0.0],[32.03925,46.96601,0.0],[32.03916,46.96611,0.0],[32.0389,46.96638,0.0],[32.03865,46.96664,0.0],[32.03841,46.96691,0.0],[32.03819,46.96711,0.0],[32.03776,46.96744,0.0],[32.03735,46.96775,0.0],[32.03701,46.96801,0.0],[32.03668,46.96827,0.0],[32.03565,46.96903,0.0],[32.03526,46.96936,0.0],[32.0352,46.96944,0.0],[32.03491,46.9698,0.0],[32.03479,46.96995,0.0],[32.03499,46.97002,0.0],[32.03521,46.97009,0.0],[32.03536,46.97015,0.0],[32.03563,46.97028,0.0],[32.03575,46.97036,0.0],[32.03594,46.97046,0.0],[32.03609,46.97055,0.0],[32.03621,46.97061,0.0],[32.03636,46.97067,0.0],[32.03645,46.9707,0.0],[32.03643,46.97078,0.0],[32.03645,46.97084,0.0],[32.03651,46.97095,0.0],[32.03658,46.97106,0.0],[32.03667,46.97117,0.0],[32.0368,46.9713,0.0],[32.03692,46.97136,0.0],[32.03744,46.97151,0.0],[32.03768,46.97121,0.0],[32.03939,46.97064,0.0],[32.04214,46.97029,0.0],[32.0442,46.97111,0.0],[32.04643,46.97662,0.0],[32.04763,46.9868,0.0],[32.04523,46.9936,0.0],[32.04447,46.99683,0.0],[32.04871,46.99583,0.0],[32.04874,46.99591,0.0],[32.04951,46.99572,0.0],[32.05087,46.99539,0.0],[32.05159,46.99518,0.0],[32.05205,46.99497,0.0],[32.05233,46.99482,0.0],[32.05255,46.99468,0.0],[32.05272,46.99455,0.0],[32.05293,46.99437,0.0],[32.05306,46.99427,0.0],[32.05322,46.99416,0.0],[32.05336,46.99404,0.0],[32.05364,46.99414,0.0],[32.0538,46.99417,0.0],[32.05392,46.99419,0.0],[32.05422,46.99425,0.0],[32.05429,46.99426,0.0],[32.05436,46.99426,0.0],[32.05442,46.99425,0.0],[32.05449,46.99423,0.0],[32.05455,46.99419,0.0],[32.05461,46.99416,0.0],[32.05468,46.9941,0.0],[32.05481,46.99396,0.0],[32.05492,46.99385,0.0],[32.05499,46.99377,0.0],[32.05501,46.99372,0.0],[32.05516,46.99339,0.0],[32.05537,46.993,0.0],[32.05545,46.99286,0.0],[32.05559,46.99254,0.0],[32.05571,46.99224,0.0],[32.05573,46.99202,0.0],[32.05576,46.99174,0.0],[32.0558,46.99141,0.0],[32.05574,46.99081,0.0],[32.05581,46.99003,0.0],[32.056,46.98894,0.0],[32.05627,46.9884,0.0],[32.05674,46.98788,0.0],[32.05707,46.9875,0.0],[32.05738,46.98734,0.0],[32.05772,46.98725,0.0],[32.06167,46.98659,0.0],[32.06261,46.98628,0.0]]]]}},{"type":"Feature","properties":{"uesi_id":"UKR_R11859916","nbhd_code":"UKR_R11859916_4","nbhd_name":"\u041a\u043e\u0440\u0430\u0431\u0435\u043b\u044c\u043d\u0438\u0439 \u0440\u0430\u0439\u043e\u043d"},"geometry":{"type":"MultiPolygon","coordinates":[[[[31.91755,46.82412,0.0],[31.93451,46.83679,0.0],[31.94346,46.84344,0.0],[31.97328,46.86499,0.0],[31.98158,46.87127,0.0],[31.99175,46.87923,0.0],[32.00274,46.88876,0.0],[32.00557,46.89229,0.0],[32.0099,46.89873,0.0],[32.01638,46.90947,0.0],[32.02085,46.91847,0.0],[32.02128,46.92078,0.0],[32.02172,46.92244,0.0],[32.02381,46.92272,0.0],[32.02486,46.92271,0.0],[32.02841,46.92294,0.0],[32.03175,46.92175,0.0],[32.03624,46.92095,0.0],[32.03614,46.92079,0.0],[32.03912,46.92072,0.0],[32.04261,46.92169,0.0],[32.04333,46.92219,0.0],[32.04422,46.9233,0.0],[32.04601,46.92353,0.0],[32.04718,46.92365,0.0],[32.04769,46.92367,0.0],[32.04814,46.92367,0.0],[32.04856,46.92366,0.0],[32.04908,46.92362,0.0],[32.04983,46.92354,0.0],[32.05084,46.92334,0.0],[32.05154,46.92314,0.0],[32.05214,46.92292,0.0],[32.05248,46.92278,0.0],[32.0528,46.92264,0.0],[32.05425,46.922,0.0],[32.057,46.92078,0.0],[32.05951,46.91968,0.0],[32.06201,46.91857,0.0],[32.06429,46.91757,0.0],[32.06527,46.91716,0.0],[32.06533,46.91723,0.0],[32.06609,46.91818,0.0],[32.09054,46.92557,0.0],[32.09269,46.92411,0.0],[32.09069,46.92021,0.0],[32.09106,46.91999,0.0],[32.08944,46.91822,0.0],[32.08929,46.91833,0.0],[32.08865,46.9176,0.0],[32.08941,46.91731,0.0],[32.08892,46.91668,0.0],[32.08995,46.91636,0.0],[32.09001,46.91633,0.0],[32.08961,46.91574,0.0],[32.08922,46.91516,0.0],[32.08688,46.91168,0.0],[32.08687,46.91167,0.0],[32.08675,46.91146,0.0],[32.08675,46.91145,0.0],[32.08671,46.91123,0.0],[32.08671,46.91123,0.0],[32.08613,46.9108,0.0],[32.08613,46.9108,0.0],[32.08583,46.91058,0.0],[32.08543,46.9104,0.0],[32.08543,46.9104,0.0],[32.08463,46.90993,0.0],[32.08463,46.90993,0.0],[32.08394,46.90965,0.0],[32.08375,46.90946,0.0],[32.08386,46.90924,0.0],[32.08458,46.90922,0.0],[32.08476,46.90905,0.0],[32.08537,46.90908,0.0],[32.08552,46.90909,0.0],[32.08595,46.9091,0.0],[32.10218,46.91127,0.0],[32.1017,46.9134,0.0],[32.10725,46.91349,0.0],[32.10781,46.91186,0.0],[32.10668,46.91174,0.0],[32.10744,46.90909,0.0],[32.10774,46.90894,0.0],[32.10883,46.90902,0.0],[32.10899,46.90857,0.0],[32.10936,46.90844,0.0],[32.1129,46.909,0.0],[32.11335,46.90812,0.0],[32.11355,46.90715,0.0],[32.11244,46.90699,0.0],[32.11251,46.90599,0.0],[32.10628,46.90031,0.0],[32.10503,46.90088,0.0],[32.10331,46.8994,0.0],[32.1049,46.8987,0.0],[32.1038,46.89487,0.0],[32.10167,46.89202,0.0],[32.09717,46.88967,0.0],[32.09439,46.88911,0.0],[32.09152,46.88679,0.0],[32.0885,46.88539,0.0],[32.08678,46.88192,0.0],[32.08048,46.87773,0.0],[32.08234,46.87688,0.0],[32.07534,46.87334,0.0],[32.06293,46.86857,0.0],[32.04341,46.86124,0.0],[32.04106,46.84912,0.0],[32.03245,46.84808,0.0],[32.03167,46.83682,0.0],[32.02979,46.82823,0.0],[32.01187,46.82628,0.0],[32.01059,46.83189,0.0],[32.01056,46.83203,0.0],[32.00947,46.83305,0.0],[31.99928,46.83195,0.0],[31.99916,46.83196,0.0],[31.99805,46.82993,0.0],[31.99747,46.82888,0.0],[31.99649,46.82744,0.0],[31.99535,46.82586,0.0],[31.99392,46.82399,0.0],[31.9926,46.82231,0.0],[31.99086,46.82015,0.0],[31.99074,46.82001,0.0],[31.99062,46.82006,0.0],[31.99054,46.82007,0.0],[31.99022,46.82006,0.0],[31.98975,46.82002,0.0],[31.98851,46.81992,0.0],[31.98744,46.81983,0.0],[31.98655,46.81977,0.0],[31.97761,46.81941,0.0],[31.96458,46.81856,0.0],[31.95772,46.81826,0.0],[31.9528,46.81961,0.0],[31.9488,46.81955,0.0],[31.92464,46.82266,0.0],[31.91755,46.82412,0.0]]]]}}]}