{"type":"FeatureCollection","name":"UKR_R12152861","crs":{"type":"name","properties":{"name":"urn:ogc:def:crs:OGC:1.3:CRS84"}},"features":[{"type":"Feature","properties":{"uesi_id":"UKR_R12152861","nbhd_code":"UKR_R12152861_1","nbhd_name":"\u041e\u043b\u0435\u043a\u0441\u0430\u043d\u0434\u0440\u0456\u0432\u0441\u044c\u043a\u0438\u0439 \u0440\u0430\u0439\u043e\u043d"},"geometry":{"type":"MultiPolygon","coordinates":[[[[35.19158,47.80464,0.0],[35.18999,47.80471,0.0],[35.18577,47.80548,0.0],[35.18538,47.80542,0.0],[35.18477,47.80525,0.0],[35.18015,47.80628,0.0],[35.17822,47.80701,0.0],[35.17614,47.8077,0.0],[35.17631,47.80796,0.0],[35.17495,47.80812,0.0],[35.1736,47.80756,0.0],[35.17155,47.80375,0.0],[35.16876,47.80311,0.0],[35.1675,47.80255,0.0],[35.16495,47.80394,0.0],[35.16415,47.80414,0.0],[35.16345,47.8044,0.0],[35.16022,47.80844,0.0],[35.16016,47.80844,0.0],[35.1599,47.80822,0.0],[35.15727,47.81028,0.0],[35.1558,47.81207,0.0],[35.1543,47.81314,0.0],[35.15431,47.81389,0.0],[35.15144,47.81584,0.0],[35.15139,47.81757,0.0],[35.15022,47.81837,0.0],[35.14891,47.81939,0.0],[35.14669,47.82015,0.0],[35.14637,47.82103,0.0],[35.14474,47.82219,0.0],[35.1454,47.82289,0.0],[35.14554,47.82408,0.0],[35.14468,47.82487,0.0],[35.14474,47.8251,0.0],[35.14367,47.8254,0.0],[35.14454,47.82685,0.0],[35.14824,47.82971,0.0],[35.14915,47.83102,0.0],[35.14966,47.83078,0.0],[35.15134,47.83252,0.0],[35.15354,47.83514,0.0],[35.15305,47.83658,0.0],[35.15343,47.83709,0.0],[35.15489,47.83848,0.0],[35.15547,47.8395,0.0],[35.15384,47.84094,0.0],[35.15377,47.84127,0.0],[35.15391,47.842,0.0],[35.155,47.84369,0.0],[35.15527,47.84543,0.0],[35.15697,47.84572,0.0],[35.1593,47.84626,0.0],[35.16051,47.84685,0.0],[35.16176,47.8471,0.0],[35.16636,47.84017,0.0],[35.16953,47.83574,0.0],[35.17011,47.83513,0.0],[35.17098,47.83452,0.0],[35.17154,47.83413,0.0],[35.17298,47.83336,0.0],[35.17475,47.83273,0.0],[35.17746,47.83197,0.0],[35.17902,47.83133,0.0],[35.17996,47.83071,0.0],[35.18098,47.8298,0.0],[35.18138,47.82929,0.0],[35.18223,47.82775,0.0],[35.18349,47.82627,0.0],[35.1871,47.8195,0.0],[35.1874,47.81823,0.0],[35.18785,47.81733,0.0],[35.18889,47.81604,0.0],[35.18981,47.81482,0.0],[35.19102,47.8135,0.0],[35.1914,47.8132,0.0],[35.19331,47.81174,0.0],[35.1934,47.81162,0.0],[35.1941,47.81077,0.0],[35.19431,47.80924,0.0],[35.19436,47.80883,0.0],[35.19403,47.8081,0.0],[35.1928,47.80662,0.0],[35.19158,47.80464,0.0]]]]}},{"type":"Feature","properties":{"uesi_id":"UKR_R12152861","nbhd_code":"UKR_R12152861_2","nbhd_name":"\u0417\u0430\u0432\u043e\u0434\u0441\u044c\u043a\u0438\u0439 \u0440\u0430\u0439\u043e\u043d"},"geometry":{"type":"MultiPolygon","coordinates":[[[[35.16222,47.84734,0.0],[35.16096,47.84919,0.0],[35.15737,47.85318,0.0],[35.15448,47.8544,0.0],[35.15086,47.85499,0.0],[35.1479,47.85476,0.0],[35.13764,47.85408,0.0],[35.12979,47.85345,0.0],[35.12932,47.85448,0.0],[35.12956,47.85477,0.0],[35.12933,47.85526,0.0],[35.12847,47.8565,0.0],[35.12756,47.85642,0.0],[35.12728,47.85815,0.0],[35.12618,47.8586,0.0],[35.12948,47.8625,0.0],[35.12955,47.86248,0.0],[35.1384,47.8733,0.0],[35.13733,47.87403,0.0],[35.13391,47.8762,0.0],[35.13023,47.8802,0.0],[35.1284,47.8803,0.0],[35.12621,47.88009,0.0],[35.1241,47.87975,0.0],[35.1224,47.88022,0.0],[35.1203,47.87874,0.0],[35.12035,47.87788,0.0],[35.1175,47.87747,0.0],[35.11471,47.87735,0.0],[35.1149,47.87713,0.0],[35.11314,47.87696,0.0],[35.11261,47.8763,0.0],[35.10974,47.87596,0.0],[35.10876,47.87619,0.0],[35.11649,47.90579,0.0],[35.11858,47.93261,0.0],[35.11515,47.95258,0.0],[35.1291,47.95447,0.0],[35.13361,47.94524,0.0],[35.13804,47.93344,0.0],[35.14052,47.93343,0.0],[35.14096,47.9275,0.0],[35.14262,47.92697,0.0],[35.14337,47.92385,0.0],[35.145,47.92086,0.0],[35.14519,47.91066,0.0],[35.14075,47.91035,0.0],[35.14151,47.90876,0.0],[35.14226,47.90905,0.0],[35.14332,47.90935,0.0],[35.14444,47.90955,0.0],[35.1453,47.90963,0.0],[35.14646,47.90963,0.0],[35.14761,47.90953,0.0],[35.14872,47.90931,0.0],[35.14977,47.90899,0.0],[35.15055,47.90892,0.0],[35.15113,47.90894,0.0],[35.15171,47.90902,0.0],[35.15225,47.90917,0.0],[35.15292,47.90945,0.0],[35.15335,47.90971,0.0],[35.15371,47.91002,0.0],[35.15414,47.91061,0.0],[35.15431,47.91113,0.0],[35.15433,47.91152,0.0],[35.15489,47.91349,0.0],[35.15653,47.91526,0.0],[35.16125,47.91846,0.0],[35.16202,47.91954,0.0],[35.16299,47.91981,0.0],[35.1616,47.91712,0.0],[35.16062,47.91663,0.0],[35.15975,47.91605,0.0],[35.15919,47.91557,0.0],[35.15856,47.91487,0.0],[35.15798,47.91392,0.0],[35.15766,47.91292,0.0],[35.15738,47.91288,0.0],[35.15714,47.91278,0.0],[35.15688,47.91251,0.0],[35.15686,47.91219,0.0],[35.15709,47.91192,0.0],[35.15741,47.91178,0.0],[35.15778,47.91174,0.0],[35.15907,47.9121,0.0],[35.15962,47.91217,0.0],[35.16017,47.91218,0.0],[35.16396,47.91168,0.0],[35.167,47.91121,0.0],[35.17001,47.91068,0.0],[35.17399,47.90987,0.0],[35.17792,47.90895,0.0],[35.1809,47.90849,0.0],[35.18271,47.9083,0.0],[35.18453,47.90817,0.0],[35.18637,47.9081,0.0],[35.1882,47.9081,0.0],[35.19064,47.9082,0.0],[35.19367,47.90848,0.0],[35.19609,47.90859,0.0],[35.19848,47.90887,0.0],[35.19989,47.90911,0.0],[35.20128,47.90942,0.0],[35.20308,47.90991,0.0],[35.20438,47.91035,0.0],[35.20564,47.91084,0.0],[35.20686,47.91138,0.0],[35.20725,47.91157,0.0],[35.20803,47.91212,0.0],[35.20868,47.91248,0.0],[35.20938,47.91279,0.0],[35.21014,47.91304,0.0],[35.21119,47.9133,0.0],[35.21202,47.91343,0.0],[35.21285,47.91349,0.0],[35.2137,47.9135,0.0],[35.21467,47.91257,0.0],[35.21518,47.91123,0.0],[35.21513,47.9075,0.0],[35.19806,47.9007,0.0],[35.18268,47.9034,0.0],[35.17661,47.90513,0.0],[35.16468,47.90701,0.0],[35.17309,47.90244,0.0],[35.17584,47.90253,0.0],[35.18594,47.90066,0.0],[35.18474,47.89805,0.0],[35.18771,47.89651,0.0],[35.19212,47.89664,0.0],[35.19652,47.89688,0.0],[35.2009,47.89723,0.0],[35.20634,47.89783,0.0],[35.21386,47.89857,0.0],[35.22387,47.89964,0.0],[35.23385,47.90082,0.0],[35.24131,47.90177,0.0],[35.24261,47.90207,0.0],[35.24358,47.90242,0.0],[35.24467,47.90299,0.0],[35.24541,47.90353,0.0],[35.24616,47.90431,0.0],[35.2466,47.90499,0.0],[35.24692,47.90588,0.0],[35.247,47.90681,0.0],[35.25116,47.90659,0.0],[35.25147,47.90231,0.0],[35.25476,47.90228,0.0],[35.25515,47.90211,0.0],[35.25514,47.90136,0.0],[35.25507,47.90116,0.0],[35.25612,47.90091,0.0],[35.25607,47.90086,0.0],[35.25506,47.90008,0.0],[35.25147,47.8996,0.0],[35.24743,47.8994,0.0],[35.24289,47.8991,0.0],[35.23446,47.89816,0.0],[35.22408,47.89689,0.0],[35.22533,47.89104,0.0],[35.22832,47.88632,0.0],[35.23213,47.8877,0.0],[35.23897,47.89097,0.0],[35.24149,47.8884,0.0],[35.24066,47.88717,0.0],[35.24226,47.88544,0.0],[35.23904,47.88326,0.0],[35.23925,47.88249,0.0],[35.23742,47.88098,0.0],[35.23528,47.87985,0.0],[35.23511,47.8791,0.0],[35.23521,47.8789,0.0],[35.23577,47.87816,0.0],[35.23622,47.87669,0.0],[35.23549,47.87586,0.0],[35.23105,47.87181,0.0],[35.22484,47.86959,0.0],[35.2201,47.86813,0.0],[35.22068,47.86739,0.0],[35.21794,47.86613,0.0],[35.2097,47.86371,0.0],[35.20801,47.86427,0.0],[35.20575,47.86369,0.0],[35.20357,47.86272,0.0],[35.1987,47.86116,0.0],[35.19655,47.8601,0.0],[35.19336,47.85925,0.0],[35.1933,47.85928,0.0],[35.19026,47.85851,0.0],[35.18811,47.85811,0.0],[35.18632,47.85754,0.0],[35.18539,47.85661,0.0],[35.18321,47.85931,0.0],[35.16799,47.85126,0.0],[35.1673,47.84823,0.0],[35.16227,47.84726,0.0],[35.16222,47.84734,0.0]]]]}},{"type":"Feature","properties":{"uesi_id":"UKR_R12152861","nbhd_code":"UKR_R12152861_3","nbhd_name":"\u041a\u043e\u043c\u0443\u043d\u0430\u0440\u0441\u044c\u043a\u0438\u0439 \u0440\u0430\u0439\u043e\u043d"},"geometry":{"type":"MultiPolygon","coordinates":[[[[35.25779,47.80917,0.0],[35.26244,47.80229,0.0],[35.26371,47.80038,0.0],[35.25877,47.79977,0.0],[35.25955,47.79486,0.0],[35.26159,47.79481,0.0],[35.26295,47.78931,0.0],[35.26306,47.78878,0.0],[35.26726,47.78904,0.0],[35.2681,47.789,0.0],[35.27193,47.78879,0.0],[35.27844,47.7882,0.0],[35.28699,47.78736,0.0],[35.29636,47.78361,0.0],[35.32293,47.77274,0.0],[35.32753,47.77085,0.0],[35.32811,47.76868,0.0],[35.30049,47.76551,0.0],[35.28316,47.76347,0.0],[35.27358,47.76223,0.0],[35.27442,47.7585,0.0],[35.25917,47.75674,0.0],[35.22481,47.75262,0.0],[35.21932,47.75531,0.0],[35.21814,47.7558,0.0],[35.21265,47.75948,0.0],[35.20344,47.75827,0.0],[35.20338,47.75849,0.0],[35.19982,47.7582,0.0],[35.19716,47.75489,0.0],[35.19032,47.75497,0.0],[35.17449,47.75533,0.0],[35.17375,47.75575,0.0],[35.17157,47.75528,0.0],[35.16938,47.75681,0.0],[35.16612,47.75779,0.0],[35.16438,47.76032,0.0],[35.16325,47.76342,0.0],[35.16032,47.76947,0.0],[35.15987,47.77431,0.0],[35.16002,47.77527,0.0],[35.16124,47.77731,0.0],[35.16514,47.78125,0.0],[35.16411,47.78493,0.0],[35.16058,47.78608,0.0],[35.16224,47.79328,0.0],[35.1606,47.80157,0.0],[35.15939,47.80323,0.0],[35.16345,47.8044,0.0],[35.16415,47.80414,0.0],[35.16495,47.80394,0.0],[35.1675,47.80255,0.0],[35.16876,47.80311,0.0],[35.17155,47.80375,0.0],[35.1736,47.80756,0.0],[35.17495,47.80812,0.0],[35.17631,47.80796,0.0],[35.17614,47.8077,0.0],[35.17822,47.80701,0.0],[35.18015,47.80628,0.0],[35.18477,47.80525,0.0],[35.18538,47.80542,0.0],[35.18577,47.80548,0.0],[35.18999,47.80471,0.0],[35.19158,47.80464,0.0],[35.19149,47.80452,0.0],[35.1919,47.80449,0.0],[35.19279,47.80473,0.0],[35.19588,47.80492,0.0],[35.19812,47.80543,0.0],[35.19879,47.80633,0.0],[35.19957,47.80807,0.0],[35.20056,47.80876,0.0],[35.20213,47.80947,0.0],[35.20379,47.80949,0.0],[35.20375,47.80965,0.0],[35.20415,47.80961,0.0],[35.20472,47.80989,0.0],[35.20639,47.80834,0.0],[35.20759,47.80784,0.0],[35.20876,47.80713,0.0],[35.21021,47.80687,0.0],[35.21171,47.80742,0.0],[35.21235,47.80808,0.0],[35.21268,47.8088,0.0],[35.21272,47.81,0.0],[35.21181,47.81131,0.0],[35.21268,47.81192,0.0],[35.21379,47.81222,0.0],[35.21475,47.81292,0.0],[35.21571,47.81403,0.0],[35.21635,47.81436,0.0],[35.2167,47.81468,0.0],[35.21737,47.81468,0.0],[35.21828,47.81403,0.0],[35.21887,47.81338,0.0],[35.21972,47.81261,0.0],[35.21978,47.81179,0.0],[35.22014,47.81113,0.0],[35.22083,47.81006,0.0],[35.22175,47.80924,0.0],[35.22266,47.80895,0.0],[35.22269,47.80593,0.0],[35.22254,47.80391,0.0],[35.22725,47.80016,0.0],[35.22745,47.80026,0.0],[35.23102,47.79783,0.0],[35.23234,47.79788,0.0],[35.23436,47.79691,0.0],[35.23441,47.79692,0.0],[35.23479,47.79751,0.0],[35.23772,47.79861,0.0],[35.23993,47.79995,0.0],[35.2418,47.80132,0.0],[35.24314,47.80244,0.0],[35.24348,47.80315,0.0],[35.24423,47.80422,0.0],[35.24484,47.80613,0.0],[35.24811,47.80653,0.0],[35.25256,47.80825,0.0],[35.25519,47.80779,0.0],[35.25779,47.80917,0.0]]]]}},{"type":"Feature","properties":{"uesi_id":"UKR_R12152861","nbhd_code":"UKR_R12152861_4","nbhd_name":"\u0414\u043d\u0456\u043f\u0440\u043e\u0432\u0441\u044c\u043a\u0438\u0439 \u0440\u0430\u0439\u043e\u043d"},"geometry":{"type":"MultiPolygon","coordinates":[[[[35.07273,47.89823,0.0],[35.08058,47.89439,0.0],[35.08554,47.89878,0.0],[35.08844,47.89784,0.0],[35.08891,47.89819,0.0],[35.09243,47.89664,0.0],[35.09522,47.89526,0.0],[35.09636,47.89606,0.0],[35.09636,47.89696,0.0],[35.09539,47.89813,0.0],[35.09511,47.89854,0.0],[35.0949,47.89948,0.0],[35.09546,47.90055,0.0],[35.09752,47.90134,0.0],[35.09797,47.90192,0.0],[35.09759,47.90234,0.0],[35.09577,47.90204,0.0],[35.08918,47.9021,0.0],[35.0867,47.90311,0.0],[35.08451,47.90489,0.0],[35.08413,47.90616,0.0],[35.08417,47.90845,0.0],[35.08563,47.92617,0.0],[35.08598,47.93046,0.0],[35.08597,47.93106,0.0],[35.08588,47.93359,0.0],[35.08461,47.9335,0.0],[35.08437,47.94049,0.0],[35.08456,47.94515,0.0],[35.08519,47.94729,0.0],[35.08648,47.949,0.0],[35.11471,47.95229,0.0],[35.11515,47.95258,0.0],[35.11858,47.93261,0.0],[35.11649,47.90579,0.0],[35.10876,47.87619,0.0],[35.10911,47.87479,0.0],[35.10914,47.87465,0.0],[35.1098,47.8702,0.0],[35.10924,47.8681,0.0],[35.10927,47.86568,0.0],[35.11003,47.86453,0.0],[35.11583,47.85845,0.0],[35.11719,47.85501,0.0],[35.11015,47.85492,0.0],[35.10991,47.85492,0.0],[35.09988,47.8511,0.0],[35.09979,47.85113,0.0],[35.09391,47.84903,0.0],[35.09276,47.84861,0.0],[35.08349,47.84517,0.0],[35.08053,47.85694,0.0],[35.07688,47.8622,0.0],[35.07372,47.86384,0.0],[35.07263,47.86387,0.0],[35.0677,47.86341,0.0],[35.06227,47.86187,0.0],[35.05831,47.86063,0.0],[35.05508,47.85883,0.0],[35.05306,47.85648,0.0],[35.05255,47.85589,0.0],[35.05091,47.85227,0.0],[35.05001,47.84812,0.0],[35.05022,47.84491,0.0],[35.05063,47.84181,0.0],[35.05242,47.83914,0.0],[35.05308,47.83712,0.0],[35.05304,47.8357,0.0],[35.05312,47.83403,0.0],[35.05364,47.83291,0.0],[35.05444,47.83174,0.0],[35.0519,47.83201,0.0],[35.05094,47.83239,0.0],[35.05038,47.83279,0.0],[35.04971,47.83345,0.0],[35.04861,47.83412,0.0],[35.04747,47.83476,0.0],[35.04457,47.83547,0.0],[35.0414,47.83617,0.0],[35.03913,47.83728,0.0],[35.03674,47.83798,0.0],[35.03593,47.83908,0.0],[35.03498,47.83988,0.0],[35.03268,47.84169,0.0],[35.0263,47.84522,0.0],[35.02179,47.84745,0.0],[35.01869,47.84564,0.0],[35.00896,47.84452,0.0],[35.01019,47.84639,0.0],[35.01035,47.84665,0.0],[35.00897,47.84694,0.0],[35.00881,47.84583,0.0],[35.00538,47.84552,0.0],[35.00547,47.84654,0.0],[35.00436,47.84683,0.0],[35.00413,47.84689,0.0],[35.00335,47.84735,0.0],[35.00464,47.84764,0.0],[35.00496,47.848,0.0],[35.00527,47.84835,0.0],[35.00517,47.84849,0.0],[35.00463,47.84922,0.0],[35.0044,47.84985,0.0],[35.00392,47.85081,0.0],[35.0048,47.85244,0.0],[35.00474,47.85404,0.0],[35.00714,47.85511,0.0],[35.00158,47.85642,0.0],[35.00029,47.85703,0.0],[34.99937,47.85669,0.0],[35.00037,47.8561,0.0],[35.00277,47.85541,0.0],[34.9987,47.85418,0.0],[34.99677,47.85477,0.0],[34.99498,47.85516,0.0],[34.99317,47.85548,0.0],[34.99249,47.85554,0.0],[34.99182,47.85552,0.0],[34.98941,47.85567,0.0],[34.98797,47.85567,0.0],[34.98667,47.85743,0.0],[34.98778,47.85766,0.0],[34.99013,47.8585,0.0],[34.99094,47.8588,0.0],[34.99144,47.85904,0.0],[34.99221,47.85946,0.0],[34.99292,47.85994,0.0],[34.99372,47.86066,0.0],[34.99402,47.861,0.0],[34.9945,47.8618,0.0],[34.99489,47.86263,0.0],[34.99505,47.86324,0.0],[34.99511,47.86386,0.0],[34.99516,47.8648,0.0],[34.99509,47.86484,0.0],[34.99461,47.86581,0.0],[34.99466,47.86704,0.0],[34.99403,47.87006,0.0],[34.99152,47.87516,0.0],[34.99164,47.87584,0.0],[34.9939,47.87662,0.0],[34.99714,47.87841,0.0],[34.99931,47.87962,0.0],[34.99972,47.88168,0.0],[34.9993,47.88343,0.0],[34.99703,47.88349,0.0],[34.99602,47.88379,0.0],[34.99242,47.88547,0.0],[34.99223,47.89066,0.0],[34.99845,47.89173,0.0],[35.00126,47.89132,0.0],[35.00116,47.88931,0.0],[35.00044,47.88632,0.0],[35.0001,47.88492,0.0],[35.00103,47.88477,0.0],[35.0011,47.88417,0.0],[35.00289,47.88408,0.0],[35.00216,47.88724,0.0],[35.0046,47.88782,0.0],[35.0061,47.88737,0.0],[35.02107,47.88575,0.0],[35.02374,47.88548,0.0],[35.02452,47.88526,0.0],[35.02723,47.88397,0.0],[35.02717,47.88756,0.0],[35.02763,47.88814,0.0],[35.0288,47.88859,0.0],[35.03118,47.88905,0.0],[35.03789,47.89005,0.0],[35.04377,47.89073,0.0],[35.04863,47.89127,0.0],[35.05236,47.88968,0.0],[35.05233,47.89191,0.0],[35.05449,47.89089,0.0],[35.05868,47.89471,0.0],[35.06361,47.89272,0.0],[35.06471,47.8937,0.0],[35.06693,47.89261,0.0],[35.07273,47.89823,0.0]]]]}},{"type":"Feature","properties":{"uesi_id":"UKR_R12152861","nbhd_code":"UKR_R12152861_5","nbhd_name":"\u0412\u043e\u0437\u043d\u0435\u0441\u0435\u043d\u0456\u0432\u0441\u044c\u043a\u0438\u0439 \u0440\u0430\u0439\u043e\u043d"},"geometry":{"type":"MultiPolygon","coordinates":[[[[35.10876,47.87619,0.0],[35.10974,47.87596,0.0],[35.11261,47.8763,0.0],[35.11314,47.87696,0.0],[35.1149,47.87713,0.0],[35.11471,47.87735,0.0],[35.1175,47.87747,0.0],[35.12035,47.87788,0.0],[35.1203,47.87874,0.0],[35.1224,47.88022,0.0],[35.1241,47.87975,0.0],[35.12621,47.88009,0.0],[35.1284,47.8803,0.0],[35.13023,47.8802,0.0],[35.13391,47.8762,0.0],[35.13733,47.87403,0.0],[35.1384,47.8733,0.0],[35.12955,47.86248,0.0],[35.12948,47.8625,0.0],[35.12618,47.8586,0.0],[35.12728,47.85815,0.0],[35.12756,47.85642,0.0],[35.12847,47.8565,0.0],[35.12933,47.85526,0.0],[35.12956,47.85477,0.0],[35.12932,47.85448,0.0],[35.12979,47.85345,0.0],[35.13764,47.85408,0.0],[35.1479,47.85476,0.0],[35.15086,47.85499,0.0],[35.15448,47.8544,0.0],[35.15737,47.85318,0.0],[35.16096,47.84919,0.0],[35.16222,47.84734,0.0],[35.16176,47.8471,0.0],[35.16051,47.84685,0.0],[35.1593,47.84626,0.0],[35.15697,47.84572,0.0],[35.15527,47.84543,0.0],[35.155,47.84369,0.0],[35.15391,47.842,0.0],[35.15377,47.84127,0.0],[35.15384,47.84094,0.0],[35.15547,47.8395,0.0],[35.15489,47.83848,0.0],[35.15343,47.83709,0.0],[35.15305,47.83658,0.0],[35.15354,47.83514,0.0],[35.15134,47.83252,0.0],[35.14966,47.83078,0.0],[35.14915,47.83102,0.0],[35.14824,47.82971,0.0],[35.14454,47.82685,0.0],[35.14367,47.8254,0.0],[35.14474,47.8251,0.0],[35.14468,47.82487,0.0],[35.14554,47.82408,0.0],[35.1454,47.82289,0.0],[35.14474,47.82219,0.0],[35.14637,47.82103,0.0],[35.14669,47.82015,0.0],[35.14891,47.81939,0.0],[35.15022,47.81837,0.0],[35.15139,47.81757,0.0],[35.15144,47.81584,0.0],[35.15431,47.81389,0.0],[35.1543,47.81314,0.0],[35.1558,47.81207,0.0],[35.15727,47.81028,0.0],[35.1599,47.80822,0.0],[35.16016,47.80844,0.0],[35.16022,47.80844,0.0],[35.16345,47.8044,0.0],[35.15939,47.80323,0.0],[35.1606,47.80157,0.0],[35.16224,47.79328,0.0],[35.16058,47.78608,0.0],[35.16411,47.78493,0.0],[35.16514,47.78125,0.0],[35.16124,47.77731,0.0],[35.16002,47.77527,0.0],[35.15987,47.77431,0.0],[35.15627,47.77384,0.0],[35.15256,47.77379,0.0],[35.14796,47.77373,0.0],[35.13989,47.77713,0.0],[35.1324,47.78032,0.0],[35.12492,47.78627,0.0],[35.1187,47.7915,0.0],[35.11449,47.79486,0.0],[35.11212,47.79729,0.0],[35.10974,47.79933,0.0],[35.08213,47.8169,0.0],[35.07596,47.82004,0.0],[35.06824,47.82306,0.0],[35.05972,47.82899,0.0],[35.05444,47.83174,0.0],[35.05364,47.83291,0.0],[35.05312,47.83403,0.0],[35.05304,47.8357,0.0],[35.05308,47.83712,0.0],[35.05242,47.83914,0.0],[35.05063,47.84181,0.0],[35.05022,47.84491,0.0],[35.05001,47.84812,0.0],[35.05091,47.85227,0.0],[35.05255,47.85589,0.0],[35.05306,47.85648,0.0],[35.05508,47.85883,0.0],[35.05831,47.86063,0.0],[35.06227,47.86187,0.0],[35.0677,47.86341,0.0],[35.07263,47.86387,0.0],[35.07372,47.86384,0.0],[35.07688,47.8622,0.0],[35.08053,47.85694,0.0],[35.08349,47.84517,0.0],[35.09276,47.84861,0.0],[35.09391,47.84903,0.0],[35.09979,47.85113,0.0],[35.09988,47.8511,0.0],[35.10991,47.85492,0.0],[35.11015,47.85492,0.0],[35.11719,47.85501,0.0],[35.11583,47.85845,0.0],[35.11003,47.86453,0.0],[35.10927,47.86568,0.0],[35.10924,47.8681,0.0],[35.1098,47.8702,0.0],[35.10914,47.87465,0.0],[35.10911,47.87479,0.0],[35.10876,47.87619,0.0]]]]}},{"type":"Feature","properties":{"uesi_id":"UKR_R12152861","nbhd_code":"UKR_R12152861_6","nbhd_name":"\u0425\u043e\u0440\u0442\u0438\u0446\u044c\u043a\u0438\u0439 \u0440\u0430\u0439\u043e\u043d"},"geometry":{"type":"MultiPolygon","coordinates":[[[[35.16438,47.76032,0.0],[35.14132,47.77428,0.0],[35.14023,47.77465,0.0],[35.1387,47.7745,0.0],[35.13466,47.77379,0.0],[35.12887,47.77517,0.0],[35.1249,47.77968,0.0],[35.12408,47.78066,0.0],[35.12062,47.77947,0.0],[35.12053,47.78068,0.0],[35.12275,47.78191,0.0],[35.11975,47.78506,0.0],[35.11792,47.78519,0.0],[35.11479,47.78755,0.0],[35.11421,47.78568,0.0],[35.1135,47.78459,0.0],[35.11185,47.78532,0.0],[35.11049,47.78649,0.0],[35.10775,47.78638,0.0],[35.10715,47.78702,0.0],[35.10995,47.78796,0.0],[35.10907,47.78987,0.0],[35.10736,47.78939,0.0],[35.10606,47.78896,0.0],[35.10463,47.7908,0.0],[35.10249,47.79356,0.0],[35.09867,47.79405,0.0],[35.09096,47.79318,0.0],[35.09157,47.79697,0.0],[35.09276,47.79701,0.0],[35.09347,47.79857,0.0],[35.09368,47.79888,0.0],[35.0943,47.79979,0.0],[35.09365,47.80018,0.0],[35.09501,47.80181,0.0],[35.09555,47.80293,0.0],[35.09214,47.80493,0.0],[35.09107,47.80457,0.0],[35.08938,47.80589,0.0],[35.08587,47.80484,0.0],[35.0828,47.80562,0.0],[35.0834,47.80658,0.0],[35.0845,47.80764,0.0],[35.08638,47.80943,0.0],[35.08546,47.81015,0.0],[35.08542,47.81025,0.0],[35.08516,47.81085,0.0],[35.08196,47.8125,0.0],[35.08006,47.81349,0.0],[35.07914,47.81384,0.0],[35.0773,47.81454,0.0],[35.07534,47.81473,0.0],[35.07517,47.81475,0.0],[35.07454,47.81192,0.0],[35.07365,47.81187,0.0],[35.07339,47.81231,0.0],[35.07287,47.81317,0.0],[35.071,47.81412,0.0],[35.06907,47.8151,0.0],[35.07113,47.81668,0.0],[35.06924,47.81678,0.0],[35.06715,47.81721,0.0],[35.06557,47.81815,0.0],[35.0657,47.82017,0.0],[35.06409,47.82105,0.0],[35.06106,47.82236,0.0],[35.05985,47.82321,0.0],[35.05799,47.82408,0.0],[35.05792,47.82411,0.0],[35.05779,47.82452,0.0],[35.05747,47.82513,0.0],[35.05597,47.82659,0.0],[35.05327,47.82814,0.0],[35.05297,47.82832,0.0],[35.05085,47.83004,0.0],[35.0497,47.83033,0.0],[35.04969,47.83033,0.0],[35.04907,47.82963,0.0],[35.0474,47.82778,0.0],[35.04695,47.82532,0.0],[35.04743,47.82521,0.0],[35.04817,47.82509,0.0],[35.0486,47.82491,0.0],[35.04951,47.82436,0.0],[35.05177,47.82292,0.0],[35.05322,47.82208,0.0],[35.05421,47.82198,0.0],[35.05466,47.82132,0.0],[35.06362,47.81598,0.0],[35.06419,47.81577,0.0],[35.06811,47.81592,0.0],[35.06207,47.81142,0.0],[35.05892,47.81234,0.0],[35.05514,47.81245,0.0],[35.04843,47.81648,0.0],[35.04857,47.8159,0.0],[35.04959,47.81145,0.0],[35.04966,47.81117,0.0],[35.05104,47.80991,0.0],[35.05121,47.80999,0.0],[35.05179,47.81029,0.0],[35.05229,47.81048,0.0],[35.0529,47.81063,0.0],[35.05407,47.81086,0.0],[35.05504,47.81104,0.0],[35.05593,47.81113,0.0],[35.05782,47.8111,0.0],[35.05789,47.81051,0.0],[35.05665,47.80951,0.0],[35.05652,47.8094,0.0],[35.05477,47.80934,0.0],[35.05296,47.80826,0.0],[35.05512,47.80635,0.0],[35.05375,47.80581,0.0],[35.05202,47.80536,0.0],[35.05008,47.80505,0.0],[35.04606,47.80584,0.0],[35.04553,47.8055,0.0],[35.04303,47.80612,0.0],[35.03993,47.80734,0.0],[35.03836,47.80799,0.0],[35.03637,47.8087,0.0],[35.03283,47.81285,0.0],[35.03275,47.81295,0.0],[35.03218,47.81338,0.0],[35.03193,47.81357,0.0],[35.03014,47.81246,0.0],[35.02945,47.81301,0.0],[35.02804,47.81463,0.0],[35.02713,47.81431,0.0],[35.02615,47.81435,0.0],[35.02531,47.81428,0.0],[35.02565,47.8132,0.0],[35.02755,47.81341,0.0],[35.02878,47.81136,0.0],[35.03048,47.81069,0.0],[35.03016,47.81026,0.0],[35.02746,47.81121,0.0],[35.02584,47.81065,0.0],[35.0254,47.81079,0.0],[35.02506,47.81154,0.0],[35.02241,47.81126,0.0],[35.00921,47.81589,0.0],[35.00918,47.81635,0.0],[35.00692,47.81697,0.0],[35.00388,47.81881,0.0],[34.9977,47.81831,0.0],[34.99646,47.8189,0.0],[34.99692,47.8201,0.0],[34.99567,47.82597,0.0],[34.99687,47.82735,0.0],[35.0015,47.82787,0.0],[35.01082,47.83232,0.0],[35.01157,47.83301,0.0],[35.01005,47.83453,0.0],[35.00746,47.83698,0.0],[35.00723,47.83742,0.0],[35.011,47.83908,0.0],[35.01238,47.83964,0.0],[35.01329,47.8397,0.0],[35.01396,47.83975,0.0],[35.01584,47.83952,0.0],[35.01619,47.83948,0.0],[35.0162,47.83946,0.0],[35.01623,47.8391,0.0],[35.01637,47.83752,0.0],[35.01636,47.8364,0.0],[35.01676,47.83618,0.0],[35.01689,47.83638,0.0],[35.01767,47.83825,0.0],[35.01851,47.83856,0.0],[35.01889,47.83819,0.0],[35.01815,47.8379,0.0],[35.01801,47.83734,0.0],[35.01807,47.83727,0.0],[35.01928,47.83776,0.0],[35.02001,47.837,0.0],[35.02087,47.83734,0.0],[35.02138,47.83682,0.0],[35.02031,47.83639,0.0],[35.01982,47.83662,0.0],[35.01867,47.83605,0.0],[35.01877,47.83546,0.0],[35.01888,47.83466,0.0],[35.01943,47.83449,0.0],[35.02367,47.83334,0.0],[35.02244,47.8311,0.0],[35.01971,47.82974,0.0],[35.01691,47.8284,0.0],[35.01804,47.8278,0.0],[35.01952,47.82853,0.0],[35.02096,47.82922,0.0],[35.02419,47.83078,0.0],[35.02493,47.83103,0.0],[35.02593,47.83118,0.0],[35.02922,47.83117,0.0],[35.02951,47.83107,0.0],[35.02961,47.83083,0.0],[35.02969,47.82901,0.0],[35.02963,47.82574,0.0],[35.02964,47.82412,0.0],[35.02943,47.82339,0.0],[35.02896,47.82276,0.0],[35.02849,47.8224,0.0],[35.02795,47.82198,0.0],[35.02955,47.82137,0.0],[35.03132,47.8239,0.0],[35.03283,47.82606,0.0],[35.03435,47.82566,0.0],[35.03526,47.8245,0.0],[35.03514,47.82284,0.0],[35.03556,47.8227,0.0],[35.03504,47.81953,0.0],[35.03554,47.81938,0.0],[35.03572,47.82058,0.0],[35.03649,47.82141,0.0],[35.03657,47.82276,0.0],[35.03713,47.82424,0.0],[35.03577,47.82699,0.0],[35.03497,47.82756,0.0],[35.03479,47.82813,0.0],[35.03539,47.82894,0.0],[35.03671,47.83036,0.0],[35.03831,47.8321,0.0],[35.03878,47.83228,0.0],[35.04008,47.8323,0.0],[35.04169,47.83262,0.0],[35.04201,47.83261,0.0],[35.04218,47.83308,0.0],[35.04181,47.8337,0.0],[35.0413,47.83496,0.0],[35.04332,47.83523,0.0],[35.0414,47.83617,0.0],[35.04457,47.83547,0.0],[35.04747,47.83476,0.0],[35.04861,47.83412,0.0],[35.04971,47.83345,0.0],[35.05038,47.83279,0.0],[35.05094,47.83239,0.0],[35.0519,47.83201,0.0],[35.05444,47.83174,0.0],[35.05972,47.82899,0.0],[35.06824,47.82306,0.0],[35.07596,47.82004,0.0],[35.08213,47.8169,0.0],[35.10974,47.79933,0.0],[35.11212,47.79729,0.0],[35.11449,47.79486,0.0],[35.1187,47.7915,0.0],[35.12492,47.78627,0.0],[35.1324,47.78032,0.0],[35.13989,47.77713,0.0],[35.14796,47.77373,0.0],[35.15256,47.77379,0.0],[35.15627,47.77384,0.0],[35.15987,47.77431,0.0],[35.16032,47.76947,0.0],[35.16325,47.76342,0.0],[35.16438,47.76032,0.0]]]]}},{"type":"Feature","properties":{"uesi_id":"UKR_R12152861","nbhd_code":"UKR_R12152861_7","nbhd_name":"\u0428\u0435\u0432\u0447\u0435\u043d\u043a\u0456\u0432\u0441\u044c\u043a\u0438\u0439 \u0440\u0430\u0439\u043e\u043d"},"geometry":{"type":"MultiPolygon","coordinates":[[[[35.25912,47.88514,0.0],[35.25914,47.88464,0.0],[35.25015,47.88383,0.0],[35.25006,47.88098,0.0],[35.24461,47.87681,0.0],[35.24152,47.87151,0.0],[35.24084,47.86978,0.0],[35.25036,47.86489,0.0],[35.26946,47.88587,0.0],[35.27083,47.88596,0.0],[35.25023,47.86299,0.0],[35.25757,47.86371,0.0],[35.25847,47.86253,0.0],[35.26474,47.86086,0.0],[35.27497,47.86529,0.0],[35.27414,47.86647,0.0],[35.27195,47.8659,0.0],[35.27131,47.86642,0.0],[35.2704,47.86811,0.0],[35.26933,47.8681,0.0],[35.26644,47.86749,0.0],[35.26635,47.86793,0.0],[35.26191,47.86811,0.0],[35.26092,47.87102,0.0],[35.26431,47.87606,0.0],[35.26603,47.87632,0.0],[35.26749,47.88115,0.0],[35.27328,47.88049,0.0],[35.27229,47.87897,0.0],[35.27405,47.8754,0.0],[35.27985,47.87594,0.0],[35.28053,47.87188,0.0],[35.28119,47.86985,0.0],[35.28156,47.86869,0.0],[35.29667,47.87589,0.0],[35.29577,47.87659,0.0],[35.29478,47.87629,0.0],[35.28864,47.88205,0.0],[35.29725,47.88312,0.0],[35.29714,47.88386,0.0],[35.29963,47.88406,0.0],[35.29995,47.88289,0.0],[35.30135,47.88302,0.0],[35.30178,47.88045,0.0],[35.29892,47.87898,0.0],[35.30027,47.8777,0.0],[35.33115,47.89243,0.0],[35.33715,47.8929,0.0],[35.32482,47.88708,0.0],[35.32744,47.88619,0.0],[35.32474,47.88133,0.0],[35.32765,47.87522,0.0],[35.32682,47.87363,0.0],[35.32684,47.87324,0.0],[35.33179,47.8739,0.0],[35.33242,47.87358,0.0],[35.33491,47.87259,0.0],[35.33555,47.86713,0.0],[35.33594,47.86549,0.0],[35.3337,47.86553,0.0],[35.33259,47.86413,0.0],[35.33207,47.86308,0.0],[35.33178,47.86206,0.0],[35.33196,47.86139,0.0],[35.33326,47.85999,0.0],[35.33457,47.85722,0.0],[35.33508,47.8556,0.0],[35.33551,47.8555,0.0],[35.33905,47.85688,0.0],[35.33972,47.8573,0.0],[35.34025,47.85781,0.0],[35.34108,47.85842,0.0],[35.34187,47.85907,0.0],[35.343,47.86069,0.0],[35.3434,47.86244,0.0],[35.34334,47.86315,0.0],[35.33999,47.86587,0.0],[35.34014,47.86605,0.0],[35.34632,47.86726,0.0],[35.34638,47.86699,0.0],[35.3492,47.8673,0.0],[35.35042,47.86722,0.0],[35.35055,47.8668,0.0],[35.35217,47.8669,0.0],[35.35231,47.86675,0.0],[35.35154,47.86297,0.0],[35.35158,47.86171,0.0],[35.34531,47.86103,0.0],[35.34248,47.85764,0.0],[35.34252,47.85678,0.0],[35.34143,47.85555,0.0],[35.33944,47.85467,0.0],[35.33838,47.85403,0.0],[35.33667,47.85377,0.0],[35.33377,47.85334,0.0],[35.32657,47.84783,0.0],[35.3268,47.84783,0.0],[35.33486,47.84761,0.0],[35.34306,47.84554,0.0],[35.34812,47.84611,0.0],[35.34735,47.85113,0.0],[35.35744,47.85207,0.0],[35.35858,47.85149,0.0],[35.36818,47.85254,0.0],[35.36844,47.85238,0.0],[35.36886,47.85053,0.0],[35.36903,47.84944,0.0],[35.36844,47.84574,0.0],[35.36741,47.84661,0.0],[35.36547,47.84796,0.0],[35.36391,47.84767,0.0],[35.36228,47.84815,0.0],[35.36041,47.84817,0.0],[35.35781,47.84757,0.0],[35.35521,47.84754,0.0],[35.354,47.84665,0.0],[35.35373,47.84554,0.0],[35.352,47.8447,0.0],[35.35131,47.84341,0.0],[35.34967,47.8426,0.0],[35.34607,47.8427,0.0],[35.34484,47.84222,0.0],[35.34184,47.84172,0.0],[35.3387,47.84051,0.0],[35.33801,47.84011,0.0],[35.33721,47.83862,0.0],[35.33587,47.83762,0.0],[35.33381,47.83764,0.0],[35.32888,47.83655,0.0],[35.32522,47.83669,0.0],[35.32282,47.83639,0.0],[35.32054,47.83626,0.0],[35.31739,47.8365,0.0],[35.31572,47.8361,0.0],[35.31375,47.83513,0.0],[35.31264,47.83401,0.0],[35.31223,47.83268,0.0],[35.31032,47.83199,0.0],[35.30708,47.83103,0.0],[35.30841,47.82532,0.0],[35.31071,47.81735,0.0],[35.30606,47.81667,0.0],[35.3043,47.81402,0.0],[35.30412,47.81403,0.0],[35.30098,47.81426,0.0],[35.29875,47.81435,0.0],[35.29791,47.81585,0.0],[35.28489,47.81407,0.0],[35.28383,47.81769,0.0],[35.28323,47.81975,0.0],[35.27311,47.81828,0.0],[35.27271,47.81982,0.0],[35.27167,47.81968,0.0],[35.27103,47.82278,0.0],[35.26373,47.82297,0.0],[35.26014,47.82261,0.0],[35.25486,47.82169,0.0],[35.2506,47.81843,0.0],[35.25668,47.81463,0.0],[35.25636,47.81433,0.0],[35.25862,47.81327,0.0],[35.26488,47.81173,0.0],[35.26391,47.80968,0.0],[35.2636,47.80902,0.0],[35.2579,47.80996,0.0],[35.25779,47.80917,0.0],[35.25519,47.80779,0.0],[35.25256,47.80825,0.0],[35.24811,47.80653,0.0],[35.24484,47.80613,0.0],[35.24423,47.80422,0.0],[35.24348,47.80315,0.0],[35.24314,47.80244,0.0],[35.2418,47.80132,0.0],[35.23993,47.79995,0.0],[35.23772,47.79861,0.0],[35.23479,47.79751,0.0],[35.23441,47.79692,0.0],[35.23436,47.79691,0.0],[35.23234,47.79788,0.0],[35.23102,47.79783,0.0],[35.22745,47.80026,0.0],[35.22725,47.80016,0.0],[35.22254,47.80391,0.0],[35.22269,47.80593,0.0],[35.22266,47.80895,0.0],[35.22175,47.80924,0.0],[35.22083,47.81006,0.0],[35.22014,47.81113,0.0],[35.21978,47.81179,0.0],[35.21972,47.81261,0.0],[35.21887,47.81338,0.0],[35.21828,47.81403,0.0],[35.21737,47.81468,0.0],[35.2167,47.81468,0.0],[35.21635,47.81436,0.0],[35.21571,47.81403,0.0],[35.21475,47.81292,0.0],[35.21379,47.81222,0.0],[35.21268,47.81192,0.0],[35.21181,47.81131,0.0],[35.21272,47.81,0.0],[35.21268,47.8088,0.0],[35.21235,47.80808,0.0],[35.21171,47.80742,0.0],[35.21021,47.80687,0.0],[35.20876,47.80713,0.0],[35.20759,47.80784,0.0],[35.20639,47.80834,0.0],[35.20472,47.80989,0.0],[35.20415,47.80961,0.0],[35.20375,47.80965,0.0],[35.20379,47.80949,0.0],[35.20213,47.80947,0.0],[35.20056,47.80876,0.0],[35.19957,47.80807,0.0],[35.19879,47.80633,0.0],[35.19812,47.80543,0.0],[35.19588,47.80492,0.0],[35.19279,47.80473,0.0],[35.1919,47.80449,0.0],[35.19149,47.80452,0.0],[35.19158,47.80464,0.0],[35.1928,47.80662,0.0],[35.19403,47.8081,0.0],[35.19436,47.80883,0.0],[35.19431,47.80924,0.0],[35.1941,47.81077,0.0],[35.1934,47.81162,0.0],[35.19331,47.81174,0.0],[35.1914,47.8132,0.0],[35.19102,47.8135,0.0],[35.18981,47.81482,0.0],[35.18889,47.81604,0.0],[35.18785,47.81733,0.0],[35.1874,47.81823,0.0],[35.1871,47.8195,0.0],[35.18349,47.82627,0.0],[35.18223,47.82775,0.0],[35.18138,47.82929,0.0],[35.18098,47.8298,0.0],[35.17996,47.83071,0.0],[35.17902,47.83133,0.0],[35.17746,47.83197,0.0],[35.17475,47.83273,0.0],[35.17298,47.83336,0.0],[35.17154,47.83413,0.0],[35.17098,47.83452,0.0],[35.17011,47.83513,0.0],[35.16953,47.83574,0.0],[35.16636,47.84017,0.0],[35.16176,47.8471,0.0],[35.16222,47.84734,0.0],[35.16227,47.84726,0.0],[35.1673,47.84823,0.0],[35.16799,47.85126,0.0],[35.18321,47.85931,0.0],[35.18539,47.85661,0.0],[35.18632,47.85754,0.0],[35.18811,47.85811,0.0],[35.19026,47.85851,0.0],[35.1933,47.85928,0.0],[35.19336,47.85925,0.0],[35.19655,47.8601,0.0],[35.1987,47.86116,0.0],[35.20357,47.86272,0.0],[35.20575,47.86369,0.0],[35.20801,47.86427,0.0],[35.2097,47.86371,0.0],[35.21794,47.86613,0.0],[35.22068,47.86739,0.0],[35.2201,47.86813,0.0],[35.22484,47.86959,0.0],[35.23105,47.87181,0.0],[35.23549,47.87586,0.0],[35.23622,47.87669,0.0],[35.23577,47.87816,0.0],[35.23521,47.8789,0.0],[35.23511,47.8791,0.0],[35.23528,47.87985,0.0],[35.23742,47.88098,0.0],[35.23925,47.88249,0.0],[35.23904,47.88326,0.0],[35.24226,47.88544,0.0],[35.24066,47.88717,0.0],[35.24149,47.8884,0.0],[35.24453,47.89046,0.0],[35.24659,47.89159,0.0],[35.25161,47.89353,0.0],[35.25825,47.89474,0.0],[35.25837,47.89285,0.0],[35.24917,47.88935,0.0],[35.25064,47.88653,0.0],[35.25885,47.88842,0.0],[35.25895,47.88734,0.0],[35.25905,47.88594,0.0],[35.25912,47.88514,0.0]]]]}}]}