{"type":"FeatureCollection","name":"UKR_R1748539","crs":{"type":"name","properties":{"name":"urn:ogc:def:crs:OGC:1.3:CRS84"}},"features":[{"type":"Feature","properties":{"uesi_id":"UKR_R1748539","nbhd_code":"UKR_R1748539_1","nbhd_name":"\u041a\u0430\u043b\u044c\u043c\u0456\u0443\u0441\u044c\u043a\u0438\u0439 \u0440\u0430\u0439\u043e\u043d"},"geometry":{"type":"MultiPolygon","coordinates":[[[[37.64021,47.13898,0.0],[37.64003,47.13896,0.0],[37.63209,47.13802,0.0],[37.62978,47.13774,0.0],[37.62912,47.13766,0.0],[37.62855,47.13766,0.0],[37.6281,47.13761,0.0],[37.62598,47.13672,0.0],[37.62553,47.13647,0.0],[37.62482,47.13603,0.0],[37.62439,47.1358,0.0],[37.61942,47.13353,0.0],[37.6182,47.13265,0.0],[37.61763,47.13207,0.0],[37.61747,47.13185,0.0],[37.61728,47.13159,0.0],[37.61724,47.13114,0.0],[37.61704,47.13065,0.0],[37.61659,47.13025,0.0],[37.61609,47.13009,0.0],[37.61546,47.12999,0.0],[37.61484,47.12995,0.0],[37.61424,47.12999,0.0],[37.61355,47.13011,0.0],[37.61303,47.13029,0.0],[37.61212,47.13081,0.0],[37.61128,47.1314,0.0],[37.6104,47.13215,0.0],[37.60955,47.13253,0.0],[37.60868,47.13275,0.0],[37.60785,47.13277,0.0],[37.60706,47.13263,0.0],[37.60669,47.13245,0.0],[37.60584,47.13162,0.0],[37.60557,47.13114,0.0],[37.6045,47.12995,0.0],[37.60386,47.1294,0.0],[37.60344,47.12886,0.0],[37.60305,47.1283,0.0],[37.60264,47.12774,0.0],[37.60231,47.12713,0.0],[37.60222,47.12653,0.0],[37.60229,47.12587,0.0],[37.60264,47.12506,0.0],[37.60298,47.12453,0.0],[37.60347,47.12389,0.0],[37.60385,47.12356,0.0],[37.60453,47.12311,0.0],[37.60515,47.12285,0.0],[37.60426,47.12244,0.0],[37.60415,47.12242,0.0],[37.60319,47.12194,0.0],[37.60207,47.1214,0.0],[37.6013,47.12116,0.0],[37.6004,47.12103,0.0],[37.59703,47.12087,0.0],[37.59597,47.12089,0.0],[37.59369,47.12076,0.0],[37.59174,47.12065,0.0],[37.59054,47.12039,0.0],[37.58928,47.11909,0.0],[37.58852,47.11869,0.0],[37.5877,47.11838,0.0],[37.58691,47.11792,0.0],[37.58605,47.11779,0.0],[37.5843,47.11771,0.0],[37.58275,47.11732,0.0],[37.5814,47.11761,0.0],[37.58118,47.11782,0.0],[37.58119,47.11812,0.0],[37.58133,47.1186,0.0],[37.58119,47.11918,0.0],[37.58061,47.12004,0.0],[37.58054,47.12055,0.0],[37.58016,47.12077,0.0],[37.57887,47.12094,0.0],[37.57782,47.1215,0.0],[37.57728,47.12142,0.0],[37.57667,47.12109,0.0],[37.57566,47.12059,0.0],[37.57411,47.1194,0.0],[37.57322,47.11891,0.0],[37.57311,47.1187,0.0],[37.57337,47.11802,0.0],[37.57335,47.1178,0.0],[37.57263,47.11726,0.0],[37.57221,47.11705,0.0],[37.5716,47.11649,0.0],[37.57057,47.11573,0.0],[37.56952,47.1149,0.0],[37.56858,47.11444,0.0],[37.56796,47.11402,0.0],[37.56759,47.11354,0.0],[37.56741,47.11336,0.0],[37.56726,47.1131,0.0],[37.56697,47.11289,0.0],[37.56688,47.11285,0.0],[37.56677,47.11282,0.0],[37.56661,47.11282,0.0],[37.56647,47.11282,0.0],[37.56624,47.11279,0.0],[37.56611,47.11274,0.0],[37.56595,47.11269,0.0],[37.56581,47.11269,0.0],[37.56572,47.11271,0.0],[37.56513,47.11296,0.0],[37.56371,47.11361,0.0],[37.56272,47.11391,0.0],[37.56213,47.11402,0.0],[37.56136,47.11409,0.0],[37.55972,47.11427,0.0],[37.55878,47.11454,0.0],[37.55692,47.11462,0.0],[37.55642,47.11476,0.0],[37.55606,47.11502,0.0],[37.5559,47.1153,0.0],[37.55598,47.11562,0.0],[37.55622,47.11595,0.0],[37.55736,47.11709,0.0],[37.55761,47.1174,0.0],[37.55788,47.11787,0.0],[37.55885,47.11974,0.0],[37.55896,47.12013,0.0],[37.55894,47.12049,0.0],[37.55876,47.1208,0.0],[37.55849,47.12105,0.0],[37.55806,47.12119,0.0],[37.55757,47.12124,0.0],[37.55584,47.12126,0.0],[37.55556,47.12128,0.0],[37.55441,47.12133,0.0],[37.55339,47.12152,0.0],[37.55184,47.12188,0.0],[37.55077,47.12207,0.0],[37.54984,47.12217,0.0],[37.5489,47.12224,0.0],[37.54771,47.12236,0.0],[37.54679,47.12249,0.0],[37.54581,47.12263,0.0],[37.54484,47.12271,0.0],[37.54418,47.12289,0.0],[37.54321,47.12317,0.0],[37.54249,47.1234,0.0],[37.54179,47.12348,0.0],[37.54121,47.12349,0.0],[37.54071,47.12361,0.0],[37.54024,47.12387,0.0],[37.53982,47.12423,0.0],[37.53933,47.12468,0.0],[37.53881,47.12506,0.0],[37.53816,47.12552,0.0],[37.53792,47.1259,0.0],[37.53767,47.12614,0.0],[37.53728,47.12637,0.0],[37.53702,47.12657,0.0],[37.53681,47.12684,0.0],[37.53676,47.12714,0.0],[37.53683,47.1274,0.0],[37.53699,47.12768,0.0],[37.53754,47.12829,0.0],[37.53769,47.12863,0.0],[37.53776,47.12893,0.0],[37.53787,47.12936,0.0],[37.53866,47.1308,0.0],[37.53921,47.13152,0.0],[37.54052,47.13293,0.0],[37.54118,47.13323,0.0],[37.54161,47.13339,0.0],[37.54329,47.13361,0.0],[37.54467,47.13386,0.0],[37.54526,47.13407,0.0],[37.54552,47.13423,0.0],[37.54619,47.13497,0.0],[37.54665,47.13533,0.0],[37.54712,47.13553,0.0],[37.54772,47.13561,0.0],[37.54838,47.13571,0.0],[37.54916,47.13607,0.0],[37.54974,47.1364,0.0],[37.55018,47.13669,0.0],[37.55039,47.13679,0.0],[37.55104,47.13731,0.0],[37.55108,47.13742,0.0],[37.55121,47.1377,0.0],[37.55153,47.13809,0.0],[37.55174,47.1384,0.0],[37.5519,47.1389,0.0],[37.55199,47.13927,0.0],[37.55218,47.13982,0.0],[37.55215,47.14025,0.0],[37.5518,47.14084,0.0],[37.55166,47.14108,0.0],[37.55156,47.14177,0.0],[37.55175,47.14231,0.0],[37.55184,47.14256,0.0],[37.55212,47.1432,0.0],[37.55219,47.14348,0.0],[37.55204,47.14375,0.0],[37.55177,47.14398,0.0],[37.55147,47.14409,0.0],[37.5504,47.14414,0.0],[37.54961,47.14399,0.0],[37.54759,47.14423,0.0],[37.54717,47.14452,0.0],[37.54703,47.14473,0.0],[37.54652,47.14525,0.0],[37.54598,47.14574,0.0],[37.5458,47.14587,0.0],[37.54558,47.14593,0.0],[37.54529,47.14597,0.0],[37.5451,47.14598,0.0],[37.54486,47.14593,0.0],[37.54341,47.14542,0.0],[37.54328,47.14539,0.0],[37.54312,47.14538,0.0],[37.54209,47.14546,0.0],[37.54143,47.14555,0.0],[37.54091,47.14562,0.0],[37.53985,47.14581,0.0],[37.5394,47.146,0.0],[37.5393,47.14607,0.0],[37.53924,47.14616,0.0],[37.5391,47.14643,0.0],[37.53901,47.14654,0.0],[37.53892,47.14664,0.0],[37.53817,47.14726,0.0],[37.53787,47.14768,0.0],[37.53692,47.14842,0.0],[37.53659,47.14842,0.0],[37.53598,47.14829,0.0],[37.53528,47.14811,0.0],[37.53477,47.14789,0.0],[37.53443,47.14744,0.0],[37.53424,47.14591,0.0],[37.53341,47.14433,0.0],[37.53328,47.14373,0.0],[37.53329,47.14319,0.0],[37.53352,47.14283,0.0],[37.53476,47.14182,0.0],[37.53508,47.14085,0.0],[37.5354,47.13849,0.0],[37.53536,47.13818,0.0],[37.53529,47.13792,0.0],[37.53513,47.13763,0.0],[37.53478,47.1375,0.0],[37.53419,47.13748,0.0],[37.5336,47.13752,0.0],[37.53269,47.13736,0.0],[37.53237,47.13726,0.0],[37.53204,47.13709,0.0],[37.53198,47.13706,0.0],[37.53107,47.1364,0.0],[37.53076,47.13625,0.0],[37.53046,47.13604,0.0],[37.53009,47.13569,0.0],[37.5299,47.13559,0.0],[37.52946,47.13525,0.0],[37.52918,47.13497,0.0],[37.5289,47.13444,0.0],[37.52855,47.13392,0.0],[37.52832,47.13363,0.0],[37.52804,47.13336,0.0],[37.52785,47.13317,0.0],[37.52762,47.13304,0.0],[37.52696,47.13277,0.0],[37.52666,47.13244,0.0],[37.5261,47.13221,0.0],[37.52537,47.13181,0.0],[37.52494,47.13167,0.0],[37.5247,47.13158,0.0],[37.52445,47.1315,0.0],[37.52419,47.13145,0.0],[37.52396,47.13147,0.0],[37.52374,47.13153,0.0],[37.52336,47.13165,0.0],[37.523,47.13181,0.0],[37.5229,47.13185,0.0],[37.52274,47.13191,0.0],[37.52231,47.13197,0.0],[37.52212,47.13211,0.0],[37.52161,47.13221,0.0],[37.52133,47.13214,0.0],[37.52115,47.13212,0.0],[37.52106,47.13209,0.0],[37.52085,47.13191,0.0],[37.52079,47.13186,0.0],[37.51984,47.13141,0.0],[37.51884,47.13103,0.0],[37.51803,47.13079,0.0],[37.51746,47.13063,0.0],[37.51688,47.13063,0.0],[37.51674,47.13071,0.0],[37.51586,47.13122,0.0],[37.51571,47.13167,0.0],[37.51576,47.13181,0.0],[37.51585,47.13217,0.0],[37.51591,47.13254,0.0],[37.5164,47.13341,0.0],[37.51645,47.13356,0.0],[37.51648,47.13374,0.0],[37.51645,47.13423,0.0],[37.51631,47.13475,0.0],[37.5159,47.13513,0.0],[37.51567,47.13521,0.0],[37.51549,47.13525,0.0],[37.51531,47.13531,0.0],[37.51516,47.1354,0.0],[37.51502,47.13551,0.0],[37.51493,47.13555,0.0],[37.51482,47.13558,0.0],[37.51454,47.1356,0.0],[37.51427,47.13562,0.0],[37.51418,47.13567,0.0],[37.51401,47.13586,0.0],[37.51393,47.13608,0.0],[37.51399,47.13637,0.0],[37.51392,47.1366,0.0],[37.51391,47.13688,0.0],[37.51394,47.13717,0.0],[37.51385,47.13741,0.0],[37.51373,47.13753,0.0],[37.51363,47.13766,0.0],[37.51363,47.13787,0.0],[37.51354,47.13802,0.0],[37.51346,47.13827,0.0],[37.5134,47.13836,0.0],[37.51327,47.13843,0.0],[37.51297,47.13852,0.0],[37.51292,47.1386,0.0],[37.51297,47.13883,0.0],[37.51257,47.13957,0.0],[37.51239,47.1399,0.0],[37.5119,47.1405,0.0],[37.51183,47.14081,0.0],[37.51193,47.14125,0.0],[37.51206,47.14156,0.0],[37.51223,47.14178,0.0],[37.51248,47.14196,0.0],[37.51266,47.14209,0.0],[37.51277,47.14232,0.0],[37.51286,47.14258,0.0],[37.51288,47.1427,0.0],[37.51297,47.14283,0.0],[37.51292,47.14307,0.0],[37.51294,47.14332,0.0],[37.51308,47.14366,0.0],[37.51299,47.14382,0.0],[37.51265,47.14402,0.0],[37.51252,47.14429,0.0],[37.51248,47.14438,0.0],[37.51244,47.14453,0.0],[37.51225,47.14473,0.0],[37.51208,47.14481,0.0],[37.51169,47.14519,0.0],[37.51155,47.1454,0.0],[37.51141,47.14566,0.0],[37.51142,47.14582,0.0],[37.51151,47.14599,0.0],[37.51149,47.14608,0.0],[37.51124,47.14624,0.0],[37.51105,47.1463,0.0],[37.51087,47.14649,0.0],[37.51055,47.14701,0.0],[37.51026,47.14761,0.0],[37.51026,47.14782,0.0],[37.51032,47.14799,0.0],[37.51033,47.14818,0.0],[37.51028,47.14837,0.0],[37.51005,47.14857,0.0],[37.50998,47.1487,0.0],[37.50997,47.14888,0.0],[37.51016,47.14936,0.0],[37.5104,47.14999,0.0],[37.51067,47.15058,0.0],[37.51069,47.15068,0.0],[37.51069,47.1508,0.0],[37.51075,47.15098,0.0],[37.51085,47.15112,0.0],[37.51099,47.1512,0.0],[37.51121,47.15124,0.0],[37.51152,47.15144,0.0],[37.51161,47.15152,0.0],[37.51169,47.15166,0.0],[37.51179,47.15175,0.0],[37.51217,47.15197,0.0],[37.51227,47.15201,0.0],[37.51262,47.1521,0.0],[37.51272,47.15215,0.0],[37.51275,47.15222,0.0],[37.51275,47.15231,0.0],[37.51269,47.1526,0.0],[37.51257,47.15288,0.0],[37.51249,47.15296,0.0],[37.5124,47.15303,0.0],[37.51226,47.15309,0.0],[37.51215,47.15316,0.0],[37.51208,47.15318,0.0],[37.51202,47.15318,0.0],[37.51196,47.15316,0.0],[37.51194,47.15312,0.0],[37.51195,47.15304,0.0],[37.51192,47.15298,0.0],[37.51182,47.15293,0.0],[37.5117,47.1529,0.0],[37.51154,47.15291,0.0],[37.5114,47.15296,0.0],[37.5112,47.15311,0.0],[37.51094,47.15324,0.0],[37.51079,47.15328,0.0],[37.51064,47.15328,0.0],[37.5103,47.15323,0.0],[37.51013,47.15321,0.0],[37.50996,47.15323,0.0],[37.50878,47.15354,0.0],[37.50865,47.15355,0.0],[37.50706,47.15358,0.0],[37.50613,47.1535,0.0],[37.50588,47.15344,0.0],[37.50458,47.15303,0.0],[37.50441,47.15295,0.0],[37.5037,47.15252,0.0],[37.50352,47.15244,0.0],[37.50316,47.15236,0.0],[37.50305,47.15232,0.0],[37.50295,47.15226,0.0],[37.5029,47.15218,0.0],[37.50264,47.15142,0.0],[37.5025,47.15128,0.0],[37.50239,47.15124,0.0],[37.50067,47.15097,0.0],[37.50048,47.15097,0.0],[37.49979,47.1511,0.0],[37.49961,47.15112,0.0],[37.49918,47.15111,0.0],[37.49901,47.15111,0.0],[37.49872,47.15117,0.0],[37.49833,47.15127,0.0],[37.49823,47.15133,0.0],[37.49821,47.1514,0.0],[37.49827,47.15163,0.0],[37.49824,47.15171,0.0],[37.49799,47.15194,0.0],[37.49784,47.15215,0.0],[37.49771,47.15241,0.0],[37.49757,47.1529,0.0],[37.49668,47.15353,0.0],[37.49672,47.15372,0.0],[37.49586,47.1538,0.0],[37.49443,47.15354,0.0],[37.49445,47.15328,0.0],[37.49263,47.15286,0.0],[37.49223,47.15263,0.0],[37.49079,47.15239,0.0],[37.49001,47.15234,0.0],[37.48786,47.15251,0.0],[37.48761,47.1535,0.0],[37.48731,47.15401,0.0],[37.48643,47.15389,0.0],[37.48405,47.15387,0.0],[37.48405,47.15409,0.0],[37.48158,47.15439,0.0],[37.48169,47.15484,0.0],[37.47918,47.15504,0.0],[37.47986,47.15787,0.0],[37.47825,47.15806,0.0],[37.47611,47.15819,0.0],[37.47349,47.1582,0.0],[37.47084,47.15838,0.0],[37.4705,47.15915,0.0],[37.4711,47.15939,0.0],[37.47195,47.16196,0.0],[37.47334,47.16617,0.0],[37.48338,47.16599,0.0],[37.4933,47.16596,0.0],[37.4939,47.16647,0.0],[37.49968,47.16596,0.0],[37.49885,47.16674,0.0],[37.49864,47.16698,0.0],[37.49854,47.16723,0.0],[37.49851,47.16745,0.0],[37.49862,47.16764,0.0],[37.49901,47.16807,0.0],[37.49945,47.16828,0.0],[37.50018,47.16844,0.0],[37.50131,47.16913,0.0],[37.50161,47.1694,0.0],[37.50163,47.16967,0.0],[37.50159,47.16986,0.0],[37.50148,47.17014,0.0],[37.5014,47.17057,0.0],[37.50125,47.17096,0.0],[37.50123,47.17105,0.0],[37.50122,47.17111,0.0],[37.50102,47.17222,0.0],[37.50102,47.17232,0.0],[37.50105,47.17241,0.0],[37.50112,47.1725,0.0],[37.50115,47.17257,0.0],[37.50116,47.17264,0.0],[37.50115,47.17277,0.0],[37.5011,47.17296,0.0],[37.50111,47.17303,0.0],[37.50114,47.1731,0.0],[37.50119,47.17315,0.0],[37.50146,47.17334,0.0],[37.50157,47.17344,0.0],[37.50207,47.17411,0.0],[37.50207,47.17418,0.0],[37.50205,47.17424,0.0],[37.50191,47.17442,0.0],[37.50179,47.1748,0.0],[37.50179,47.17503,0.0],[37.50192,47.17522,0.0],[37.5022,47.17532,0.0],[37.50301,47.17545,0.0],[37.50444,47.17551,0.0],[37.50563,47.17567,0.0],[37.50768,47.17555,0.0],[37.50912,47.17586,0.0],[37.50969,47.17617,0.0],[37.50996,47.17641,0.0],[37.51032,47.17706,0.0],[37.51011,47.17851,0.0],[37.50952,47.18049,0.0],[37.50905,47.18188,0.0],[37.50842,47.18296,0.0],[37.50729,47.18504,0.0],[37.5071,47.1854,0.0],[37.50578,47.1881,0.0],[37.50537,47.18868,0.0],[37.50491,47.18914,0.0],[37.50426,47.18973,0.0],[37.50415,47.18982,0.0],[37.50311,47.19065,0.0],[37.50307,47.19069,0.0],[37.49926,47.18853,0.0],[37.49246,47.19269,0.0],[37.49095,47.1925,0.0],[37.48992,47.19094,0.0],[37.48977,47.19049,0.0],[37.49011,47.18646,0.0],[37.49023,47.18428,0.0],[37.49041,47.18156,0.0],[37.47413,47.18033,0.0],[37.46872,47.1799,0.0],[37.46443,47.18107,0.0],[37.46439,47.1797,0.0],[37.45366,47.17873,0.0],[37.44467,47.17801,0.0],[37.44556,47.17348,0.0],[37.44534,47.1727,0.0],[37.44499,47.1726,0.0],[37.44347,47.17299,0.0],[37.44088,47.17312,0.0],[37.44044,47.17227,0.0],[37.43963,47.17236,0.0],[37.43856,47.17269,0.0],[37.43835,47.17306,0.0],[37.43403,47.17297,0.0],[37.43212,47.17283,0.0],[37.42737,47.17223,0.0],[37.42256,47.1718,0.0],[37.42236,47.17282,0.0],[37.42199,47.17471,0.0],[37.42143,47.17756,0.0],[37.41588,47.17859,0.0],[37.41582,47.17889,0.0],[37.41472,47.18453,0.0],[37.41175,47.18426,0.0],[37.408,47.18695,0.0],[37.40777,47.18712,0.0],[37.40566,47.18693,0.0],[37.40505,47.1882,0.0],[37.40468,47.1882,0.0],[37.39996,47.18754,0.0],[37.3962,47.18717,0.0],[37.3953,47.19354,0.0],[37.40791,47.1945,0.0],[37.41033,47.19468,0.0],[37.41367,47.19494,0.0],[37.41481,47.19503,0.0],[37.41725,47.19522,0.0],[37.43435,47.19656,0.0],[37.43545,47.19665,0.0],[37.43601,47.19669,0.0],[37.43749,47.19681,0.0],[37.44155,47.19713,0.0],[37.46385,47.19891,0.0],[37.46553,47.19904,0.0],[37.47252,47.1996,0.0],[37.48112,47.20003,0.0],[37.48564,47.20058,0.0],[37.48739,47.20077,0.0],[37.4877,47.20081,0.0],[37.4899,47.20099,0.0],[37.49858,47.20117,0.0],[37.50057,47.20461,0.0],[37.50288,47.20844,0.0],[37.50352,47.21113,0.0],[37.50246,47.21379,0.0],[37.50011,47.21633,0.0],[37.50124,47.21986,0.0],[37.50352,47.22366,0.0],[37.50195,47.22521,0.0],[37.50915,47.2295,0.0],[37.50926,47.22905,0.0],[37.53832,47.22491,0.0],[37.55689,47.2223,0.0],[37.5576,47.22196,0.0],[37.55786,47.22067,0.0],[37.55963,47.21957,0.0],[37.56134,47.21864,0.0],[37.56312,47.21975,0.0],[37.5649,47.22111,0.0],[37.56559,47.22101,0.0],[37.56754,47.22078,0.0],[37.57407,47.21996,0.0],[37.57158,47.2169,0.0],[37.57219,47.21663,0.0],[37.57691,47.21605,0.0],[37.57664,47.2171,0.0],[37.57693,47.21903,0.0],[37.57734,47.2202,0.0],[37.57929,47.22,0.0],[37.57868,47.2183,0.0],[37.5785,47.21708,0.0],[37.57919,47.21468,0.0],[37.58257,47.20558,0.0],[37.58265,47.20393,0.0],[37.58219,47.20181,0.0],[37.58107,47.20002,0.0],[37.57731,47.196,0.0],[37.57479,47.1933,0.0],[37.57397,47.19211,0.0],[37.56988,47.1845,0.0],[37.57006,47.18403,0.0],[37.58054,47.1818,0.0],[37.59025,47.17973,0.0],[37.58856,47.17499,0.0],[37.58456,47.17248,0.0],[37.58312,47.16978,0.0],[37.58772,47.16885,0.0],[37.59083,47.16842,0.0],[37.59958,47.16412,0.0],[37.60261,47.16224,0.0],[37.6042,47.16134,0.0],[37.6061,47.16288,0.0],[37.60983,47.16393,0.0],[37.61653,47.16569,0.0],[37.6242,47.16391,0.0],[37.62348,47.16254,0.0],[37.63399,47.15991,0.0],[37.63372,47.15937,0.0],[37.63188,47.15555,0.0],[37.63075,47.15319,0.0],[37.63108,47.15316,0.0],[37.63238,47.15333,0.0],[37.63261,47.15262,0.0],[37.63348,47.15276,0.0],[37.63443,47.15266,0.0],[37.63478,47.15186,0.0],[37.635,47.15184,0.0],[37.63882,47.15243,0.0],[37.63888,47.15228,0.0],[37.64075,47.15261,0.0],[37.64129,47.15055,0.0],[37.64207,47.14984,0.0],[37.6425,47.14962,0.0],[37.64193,47.14925,0.0],[37.64123,47.14896,0.0],[37.63813,47.14758,0.0],[37.636,47.14681,0.0],[37.63542,47.14662,0.0],[37.63552,47.14589,0.0],[37.63594,47.14448,0.0],[37.63616,47.1433,0.0],[37.64021,47.13898,0.0]]]]}},{"type":"Feature","properties":{"uesi_id":"UKR_R1748539","nbhd_code":"UKR_R1748539_2","nbhd_name":"\u0426\u0435\u043d\u0442\u0440\u0430\u043b\u044c\u043d\u0438\u0439 \u0440\u0430\u0439\u043e\u043d"},"geometry":{"type":"MultiPolygon","coordinates":[[[[37.60515,47.12285,0.0],[37.60554,47.12279,0.0],[37.60609,47.12281,0.0],[37.60685,47.12288,0.0],[37.6077,47.12291,0.0],[37.60865,47.12288,0.0],[37.61061,47.12256,0.0],[37.61221,47.12207,0.0],[37.61278,47.12178,0.0],[37.61335,47.12139,0.0],[37.61343,47.1212,0.0],[37.61377,47.12039,0.0],[37.61379,47.11982,0.0],[37.6135,47.11931,0.0],[37.6121,47.11841,0.0],[37.61086,47.11778,0.0],[37.60665,47.11474,0.0],[37.60514,47.1138,0.0],[37.60269,47.11262,0.0],[37.60106,47.11191,0.0],[37.59841,47.11091,0.0],[37.59478,47.10993,0.0],[37.59385,47.10989,0.0],[37.59074,47.1095,0.0],[37.58895,47.10907,0.0],[37.58837,47.10879,0.0],[37.58391,47.10742,0.0],[37.58051,47.10621,0.0],[37.57703,47.10488,0.0],[37.5748,47.10407,0.0],[37.57365,47.10335,0.0],[37.57297,47.10277,0.0],[37.57197,47.10145,0.0],[37.57139,47.10027,0.0],[37.57086,47.09788,0.0],[37.57063,47.09656,0.0],[37.56873,47.09651,0.0],[37.56679,47.09621,0.0],[37.56703,47.09522,0.0],[37.56641,47.09515,0.0],[37.5669,47.09417,0.0],[37.56753,47.09263,0.0],[37.56756,47.09241,0.0],[37.56721,47.0924,0.0],[37.56703,47.0924,0.0],[37.56632,47.09232,0.0],[37.56579,47.09224,0.0],[37.56229,47.0917,0.0],[37.56111,47.09136,0.0],[37.56108,47.09089,0.0],[37.56106,47.09082,0.0],[37.56102,47.09077,0.0],[37.56057,47.0905,0.0],[37.56024,47.09037,0.0],[37.55974,47.09024,0.0],[37.55935,47.09015,0.0],[37.55742,47.0899,0.0],[37.55699,47.08952,0.0],[37.55627,47.08922,0.0],[37.55617,47.08919,0.0],[37.55605,47.08917,0.0],[37.55505,47.08905,0.0],[37.5547,47.08913,0.0],[37.55221,47.08881,0.0],[37.55155,47.08874,0.0],[37.55128,47.08888,0.0],[37.55083,47.08869,0.0],[37.55031,47.0886,0.0],[37.54964,47.08882,0.0],[37.549,47.08874,0.0],[37.54885,47.08836,0.0],[37.54776,47.08811,0.0],[37.54685,47.08752,0.0],[37.54528,47.0872,0.0],[37.54465,47.08706,0.0],[37.54408,47.08688,0.0],[37.54376,47.08674,0.0],[37.54347,47.08656,0.0],[37.54315,47.0863,0.0],[37.54166,47.08637,0.0],[37.54193,47.08948,0.0],[37.5411,47.08953,0.0],[37.54053,47.08954,0.0],[37.53912,47.08924,0.0],[37.53826,47.09018,0.0],[37.53705,47.09065,0.0],[37.53507,47.09103,0.0],[37.53445,47.09147,0.0],[37.53402,47.09119,0.0],[37.53139,47.09062,0.0],[37.53075,47.09102,0.0],[37.52245,47.09158,0.0],[37.51622,47.09202,0.0],[37.50769,47.09266,0.0],[37.5074,47.09265,0.0],[37.50512,47.09232,0.0],[37.50451,47.09231,0.0],[37.50379,47.0924,0.0],[37.50302,47.09258,0.0],[37.50515,47.0956,0.0],[37.50844,47.09865,0.0],[37.50857,47.09954,0.0],[37.49659,47.1004,0.0],[37.49067,47.09955,0.0],[37.48331,47.09835,0.0],[37.48067,47.09771,0.0],[37.47455,47.09622,0.0],[37.47404,47.10051,0.0],[37.47388,47.10183,0.0],[37.47363,47.10395,0.0],[37.47353,47.10478,0.0],[37.47222,47.11106,0.0],[37.47232,47.11233,0.0],[37.47137,47.11644,0.0],[37.4706,47.11981,0.0],[37.47013,47.12199,0.0],[37.467,47.13773,0.0],[37.46683,47.13849,0.0],[37.46681,47.13856,0.0],[37.46553,47.14581,0.0],[37.46831,47.14908,0.0],[37.48857,47.14979,0.0],[37.49255,47.14987,0.0],[37.49535,47.15338,0.0],[37.49659,47.15342,0.0],[37.49668,47.15353,0.0],[37.49757,47.1529,0.0],[37.49771,47.15241,0.0],[37.49784,47.15215,0.0],[37.49799,47.15194,0.0],[37.49824,47.15171,0.0],[37.49827,47.15163,0.0],[37.49821,47.1514,0.0],[37.49823,47.15133,0.0],[37.49833,47.15127,0.0],[37.49872,47.15117,0.0],[37.49901,47.15111,0.0],[37.49918,47.15111,0.0],[37.49961,47.15112,0.0],[37.49979,47.1511,0.0],[37.50048,47.15097,0.0],[37.50067,47.15097,0.0],[37.50239,47.15124,0.0],[37.5025,47.15128,0.0],[37.50264,47.15142,0.0],[37.5029,47.15218,0.0],[37.50295,47.15226,0.0],[37.50305,47.15232,0.0],[37.50316,47.15236,0.0],[37.50352,47.15244,0.0],[37.5037,47.15252,0.0],[37.50441,47.15295,0.0],[37.50458,47.15303,0.0],[37.50588,47.15344,0.0],[37.50613,47.1535,0.0],[37.50706,47.15358,0.0],[37.50865,47.15355,0.0],[37.50878,47.15354,0.0],[37.50996,47.15323,0.0],[37.51013,47.15321,0.0],[37.5103,47.15323,0.0],[37.51064,47.15328,0.0],[37.51079,47.15328,0.0],[37.51094,47.15324,0.0],[37.5112,47.15311,0.0],[37.5114,47.15296,0.0],[37.51154,47.15291,0.0],[37.5117,47.1529,0.0],[37.51182,47.15293,0.0],[37.51192,47.15298,0.0],[37.51195,47.15304,0.0],[37.51194,47.15312,0.0],[37.51196,47.15316,0.0],[37.51202,47.15318,0.0],[37.51208,47.15318,0.0],[37.51215,47.15316,0.0],[37.51226,47.15309,0.0],[37.5124,47.15303,0.0],[37.51249,47.15296,0.0],[37.51257,47.15288,0.0],[37.51269,47.1526,0.0],[37.51275,47.15231,0.0],[37.51275,47.15222,0.0],[37.51272,47.15215,0.0],[37.51262,47.1521,0.0],[37.51227,47.15201,0.0],[37.51217,47.15197,0.0],[37.51179,47.15175,0.0],[37.51169,47.15166,0.0],[37.51161,47.15152,0.0],[37.51152,47.15144,0.0],[37.51121,47.15124,0.0],[37.51099,47.1512,0.0],[37.51085,47.15112,0.0],[37.51075,47.15098,0.0],[37.51069,47.1508,0.0],[37.51069,47.15068,0.0],[37.51067,47.15058,0.0],[37.5104,47.14999,0.0],[37.51016,47.14936,0.0],[37.50997,47.14888,0.0],[37.50998,47.1487,0.0],[37.51005,47.14857,0.0],[37.51028,47.14837,0.0],[37.51033,47.14818,0.0],[37.51032,47.14799,0.0],[37.51026,47.14782,0.0],[37.51026,47.14761,0.0],[37.51055,47.14701,0.0],[37.51087,47.14649,0.0],[37.51105,47.1463,0.0],[37.51124,47.14624,0.0],[37.51149,47.14608,0.0],[37.51151,47.14599,0.0],[37.51142,47.14582,0.0],[37.51141,47.14566,0.0],[37.51155,47.1454,0.0],[37.51169,47.14519,0.0],[37.51208,47.14481,0.0],[37.51225,47.14473,0.0],[37.51244,47.14453,0.0],[37.51248,47.14438,0.0],[37.51252,47.14429,0.0],[37.51265,47.14402,0.0],[37.51299,47.14382,0.0],[37.51308,47.14366,0.0],[37.51294,47.14332,0.0],[37.51292,47.14307,0.0],[37.51297,47.14283,0.0],[37.51288,47.1427,0.0],[37.51286,47.14258,0.0],[37.51277,47.14232,0.0],[37.51266,47.14209,0.0],[37.51248,47.14196,0.0],[37.51223,47.14178,0.0],[37.51206,47.14156,0.0],[37.51193,47.14125,0.0],[37.51183,47.14081,0.0],[37.5119,47.1405,0.0],[37.51239,47.1399,0.0],[37.51257,47.13957,0.0],[37.51297,47.13883,0.0],[37.51292,47.1386,0.0],[37.51297,47.13852,0.0],[37.51327,47.13843,0.0],[37.5134,47.13836,0.0],[37.51346,47.13827,0.0],[37.51354,47.13802,0.0],[37.51363,47.13787,0.0],[37.51363,47.13766,0.0],[37.51373,47.13753,0.0],[37.51385,47.13741,0.0],[37.51394,47.13717,0.0],[37.51391,47.13688,0.0],[37.51392,47.1366,0.0],[37.51399,47.13637,0.0],[37.51393,47.13608,0.0],[37.51401,47.13586,0.0],[37.51418,47.13567,0.0],[37.51427,47.13562,0.0],[37.51454,47.1356,0.0],[37.51482,47.13558,0.0],[37.51493,47.13555,0.0],[37.51502,47.13551,0.0],[37.51516,47.1354,0.0],[37.51531,47.13531,0.0],[37.51549,47.13525,0.0],[37.51567,47.13521,0.0],[37.5159,47.13513,0.0],[37.51631,47.13475,0.0],[37.51645,47.13423,0.0],[37.51648,47.13374,0.0],[37.51645,47.13356,0.0],[37.5164,47.13341,0.0],[37.51591,47.13254,0.0],[37.51585,47.13217,0.0],[37.51576,47.13181,0.0],[37.51571,47.13167,0.0],[37.51586,47.13122,0.0],[37.51674,47.13071,0.0],[37.51688,47.13063,0.0],[37.51746,47.13063,0.0],[37.51803,47.13079,0.0],[37.51884,47.13103,0.0],[37.51984,47.13141,0.0],[37.52079,47.13186,0.0],[37.52085,47.13191,0.0],[37.52106,47.13209,0.0],[37.52115,47.13212,0.0],[37.52133,47.13214,0.0],[37.52161,47.13221,0.0],[37.52212,47.13211,0.0],[37.52231,47.13197,0.0],[37.52274,47.13191,0.0],[37.5229,47.13185,0.0],[37.523,47.13181,0.0],[37.52336,47.13165,0.0],[37.52374,47.13153,0.0],[37.52396,47.13147,0.0],[37.52419,47.13145,0.0],[37.52445,47.1315,0.0],[37.5247,47.13158,0.0],[37.52494,47.13167,0.0],[37.52537,47.13181,0.0],[37.5261,47.13221,0.0],[37.52666,47.13244,0.0],[37.52696,47.13277,0.0],[37.52762,47.13304,0.0],[37.52785,47.13317,0.0],[37.52804,47.13336,0.0],[37.52832,47.13363,0.0],[37.52855,47.13392,0.0],[37.5289,47.13444,0.0],[37.52918,47.13497,0.0],[37.52946,47.13525,0.0],[37.5299,47.13559,0.0],[37.53009,47.13569,0.0],[37.53046,47.13604,0.0],[37.53076,47.13625,0.0],[37.53107,47.1364,0.0],[37.53198,47.13706,0.0],[37.53204,47.13709,0.0],[37.53237,47.13726,0.0],[37.53269,47.13736,0.0],[37.5336,47.13752,0.0],[37.53419,47.13748,0.0],[37.53478,47.1375,0.0],[37.53513,47.13763,0.0],[37.53529,47.13792,0.0],[37.53536,47.13818,0.0],[37.5354,47.13849,0.0],[37.53508,47.14085,0.0],[37.53476,47.14182,0.0],[37.53352,47.14283,0.0],[37.53329,47.14319,0.0],[37.53328,47.14373,0.0],[37.53341,47.14433,0.0],[37.53424,47.14591,0.0],[37.53443,47.14744,0.0],[37.53477,47.14789,0.0],[37.53528,47.14811,0.0],[37.53598,47.14829,0.0],[37.53659,47.14842,0.0],[37.53692,47.14842,0.0],[37.53787,47.14768,0.0],[37.53817,47.14726,0.0],[37.53892,47.14664,0.0],[37.53901,47.14654,0.0],[37.5391,47.14643,0.0],[37.53924,47.14616,0.0],[37.5393,47.14607,0.0],[37.5394,47.146,0.0],[37.53985,47.14581,0.0],[37.54091,47.14562,0.0],[37.54143,47.14555,0.0],[37.54209,47.14546,0.0],[37.54312,47.14538,0.0],[37.54328,47.14539,0.0],[37.54341,47.14542,0.0],[37.54486,47.14593,0.0],[37.5451,47.14598,0.0],[37.54529,47.14597,0.0],[37.54558,47.14593,0.0],[37.5458,47.14587,0.0],[37.54598,47.14574,0.0],[37.54652,47.14525,0.0],[37.54703,47.14473,0.0],[37.54717,47.14452,0.0],[37.54759,47.14423,0.0],[37.54961,47.14399,0.0],[37.5504,47.14414,0.0],[37.55147,47.14409,0.0],[37.55177,47.14398,0.0],[37.55204,47.14375,0.0],[37.55219,47.14348,0.0],[37.55212,47.1432,0.0],[37.55184,47.14256,0.0],[37.55175,47.14231,0.0],[37.55156,47.14177,0.0],[37.55166,47.14108,0.0],[37.5518,47.14084,0.0],[37.55215,47.14025,0.0],[37.55218,47.13982,0.0],[37.55199,47.13927,0.0],[37.5519,47.1389,0.0],[37.55174,47.1384,0.0],[37.55153,47.13809,0.0],[37.55121,47.1377,0.0],[37.55108,47.13742,0.0],[37.55104,47.13731,0.0],[37.55039,47.13679,0.0],[37.55018,47.13669,0.0],[37.54974,47.1364,0.0],[37.54916,47.13607,0.0],[37.54838,47.13571,0.0],[37.54772,47.13561,0.0],[37.54712,47.13553,0.0],[37.54665,47.13533,0.0],[37.54619,47.13497,0.0],[37.54552,47.13423,0.0],[37.54526,47.13407,0.0],[37.54467,47.13386,0.0],[37.54329,47.13361,0.0],[37.54161,47.13339,0.0],[37.54118,47.13323,0.0],[37.54052,47.13293,0.0],[37.53921,47.13152,0.0],[37.53866,47.1308,0.0],[37.53787,47.12936,0.0],[37.53776,47.12893,0.0],[37.53769,47.12863,0.0],[37.53754,47.12829,0.0],[37.53699,47.12768,0.0],[37.53683,47.1274,0.0],[37.53676,47.12714,0.0],[37.53681,47.12684,0.0],[37.53702,47.12657,0.0],[37.53728,47.12637,0.0],[37.53767,47.12614,0.0],[37.53792,47.1259,0.0],[37.53816,47.12552,0.0],[37.53881,47.12506,0.0],[37.53933,47.12468,0.0],[37.53982,47.12423,0.0],[37.54024,47.12387,0.0],[37.54071,47.12361,0.0],[37.54121,47.12349,0.0],[37.54179,47.12348,0.0],[37.54249,47.1234,0.0],[37.54321,47.12317,0.0],[37.54418,47.12289,0.0],[37.54484,47.12271,0.0],[37.54581,47.12263,0.0],[37.54679,47.12249,0.0],[37.54771,47.12236,0.0],[37.5489,47.12224,0.0],[37.54984,47.12217,0.0],[37.55077,47.12207,0.0],[37.55184,47.12188,0.0],[37.55339,47.12152,0.0],[37.55441,47.12133,0.0],[37.55556,47.12128,0.0],[37.55584,47.12126,0.0],[37.55757,47.12124,0.0],[37.55806,47.12119,0.0],[37.55849,47.12105,0.0],[37.55876,47.1208,0.0],[37.55894,47.12049,0.0],[37.55896,47.12013,0.0],[37.55885,47.11974,0.0],[37.55788,47.11787,0.0],[37.55761,47.1174,0.0],[37.55736,47.11709,0.0],[37.55622,47.11595,0.0],[37.55598,47.11562,0.0],[37.5559,47.1153,0.0],[37.55606,47.11502,0.0],[37.55642,47.11476,0.0],[37.55692,47.11462,0.0],[37.55878,47.11454,0.0],[37.55972,47.11427,0.0],[37.56136,47.11409,0.0],[37.56213,47.11402,0.0],[37.56272,47.11391,0.0],[37.56371,47.11361,0.0],[37.56513,47.11296,0.0],[37.56572,47.11271,0.0],[37.56581,47.11269,0.0],[37.56595,47.11269,0.0],[37.56611,47.11274,0.0],[37.56624,47.11279,0.0],[37.56647,47.11282,0.0],[37.56661,47.11282,0.0],[37.56677,47.11282,0.0],[37.56688,47.11285,0.0],[37.56697,47.11289,0.0],[37.56726,47.1131,0.0],[37.56741,47.11336,0.0],[37.56759,47.11354,0.0],[37.56796,47.11402,0.0],[37.56858,47.11444,0.0],[37.56952,47.1149,0.0],[37.57057,47.11573,0.0],[37.5716,47.11649,0.0],[37.57221,47.11705,0.0],[37.57263,47.11726,0.0],[37.57335,47.1178,0.0],[37.57337,47.11802,0.0],[37.57311,47.1187,0.0],[37.57322,47.11891,0.0],[37.57411,47.1194,0.0],[37.57566,47.12059,0.0],[37.57667,47.12109,0.0],[37.57728,47.12142,0.0],[37.57782,47.1215,0.0],[37.57887,47.12094,0.0],[37.58016,47.12077,0.0],[37.58054,47.12055,0.0],[37.58061,47.12004,0.0],[37.58119,47.11918,0.0],[37.58133,47.1186,0.0],[37.58119,47.11812,0.0],[37.58118,47.11782,0.0],[37.5814,47.11761,0.0],[37.58275,47.11732,0.0],[37.5843,47.11771,0.0],[37.58605,47.11779,0.0],[37.58691,47.11792,0.0],[37.5877,47.11838,0.0],[37.58852,47.11869,0.0],[37.58928,47.11909,0.0],[37.59054,47.12039,0.0],[37.59174,47.12065,0.0],[37.59369,47.12076,0.0],[37.59597,47.12089,0.0],[37.59703,47.12087,0.0],[37.6004,47.12103,0.0],[37.6013,47.12116,0.0],[37.60207,47.1214,0.0],[37.60319,47.12194,0.0],[37.60415,47.12242,0.0],[37.60426,47.12244,0.0],[37.60515,47.12285,0.0]]]]}},{"type":"Feature","properties":{"uesi_id":"UKR_R1748539","nbhd_code":"UKR_R1748539_3","nbhd_name":"\u041b\u0456\u0432\u043e\u0431\u0435\u0440\u0435\u0436\u043d\u0438\u0439 \u0440\u0430\u0439\u043e\u043d"},"geometry":{"type":"MultiPolygon","coordinates":[[[[37.66951,47.08695,0.0],[37.66936,47.08672,0.0],[37.66918,47.08645,0.0],[37.66911,47.086,0.0],[37.66887,47.08562,0.0],[37.66155,47.0873,0.0],[37.65183,47.08998,0.0],[37.64514,47.0912,0.0],[37.64166,47.09187,0.0],[37.63806,47.09224,0.0],[37.63564,47.09228,0.0],[37.6337,47.0926,0.0],[37.63203,47.09315,0.0],[37.63031,47.0937,0.0],[37.62922,47.0939,0.0],[37.62807,47.09368,0.0],[37.62713,47.09314,0.0],[37.62633,47.09172,0.0],[37.62489,47.08986,0.0],[37.6236,47.08837,0.0],[37.62023,47.08604,0.0],[37.61503,47.08445,0.0],[37.60921,47.08306,0.0],[37.60493,47.0834,0.0],[37.60162,47.08233,0.0],[37.59773,47.07929,0.0],[37.59435,47.07743,0.0],[37.58927,47.0764,0.0],[37.58535,47.07756,0.0],[37.58169,47.0791,0.0],[37.57744,47.08119,0.0],[37.57574,47.08169,0.0],[37.57532,47.0861,0.0],[37.57466,47.08735,0.0],[37.57297,47.09026,0.0],[37.5721,47.09255,0.0],[37.57136,47.09432,0.0],[37.57111,47.09508,0.0],[37.57063,47.09656,0.0],[37.57086,47.09788,0.0],[37.57139,47.10027,0.0],[37.57197,47.10145,0.0],[37.57297,47.10277,0.0],[37.57365,47.10335,0.0],[37.5748,47.10407,0.0],[37.57703,47.10488,0.0],[37.58051,47.10621,0.0],[37.58391,47.10742,0.0],[37.58837,47.10879,0.0],[37.58895,47.10907,0.0],[37.59074,47.1095,0.0],[37.59385,47.10989,0.0],[37.59478,47.10993,0.0],[37.59841,47.11091,0.0],[37.60106,47.11191,0.0],[37.60269,47.11262,0.0],[37.60514,47.1138,0.0],[37.60665,47.11474,0.0],[37.61086,47.11778,0.0],[37.6121,47.11841,0.0],[37.6135,47.11931,0.0],[37.61379,47.11982,0.0],[37.61377,47.12039,0.0],[37.61343,47.1212,0.0],[37.61335,47.12139,0.0],[37.61278,47.12178,0.0],[37.61221,47.12207,0.0],[37.61061,47.12256,0.0],[37.60865,47.12288,0.0],[37.6077,47.12291,0.0],[37.60685,47.12288,0.0],[37.60609,47.12281,0.0],[37.60554,47.12279,0.0],[37.60515,47.12285,0.0],[37.60453,47.12311,0.0],[37.60385,47.12356,0.0],[37.60347,47.12389,0.0],[37.60298,47.12453,0.0],[37.60264,47.12506,0.0],[37.60229,47.12587,0.0],[37.60222,47.12653,0.0],[37.60231,47.12713,0.0],[37.60264,47.12774,0.0],[37.60305,47.1283,0.0],[37.60344,47.12886,0.0],[37.60386,47.1294,0.0],[37.6045,47.12995,0.0],[37.60557,47.13114,0.0],[37.60584,47.13162,0.0],[37.60669,47.13245,0.0],[37.60706,47.13263,0.0],[37.60785,47.13277,0.0],[37.60868,47.13275,0.0],[37.60955,47.13253,0.0],[37.6104,47.13215,0.0],[37.61128,47.1314,0.0],[37.61212,47.13081,0.0],[37.61303,47.13029,0.0],[37.61355,47.13011,0.0],[37.61424,47.12999,0.0],[37.61484,47.12995,0.0],[37.61546,47.12999,0.0],[37.61609,47.13009,0.0],[37.61659,47.13025,0.0],[37.61704,47.13065,0.0],[37.61724,47.13114,0.0],[37.61728,47.13159,0.0],[37.61747,47.13185,0.0],[37.61763,47.13207,0.0],[37.6182,47.13265,0.0],[37.61942,47.13353,0.0],[37.62439,47.1358,0.0],[37.62482,47.13603,0.0],[37.62553,47.13647,0.0],[37.62598,47.13672,0.0],[37.6281,47.13761,0.0],[37.62855,47.13766,0.0],[37.62912,47.13766,0.0],[37.62978,47.13774,0.0],[37.63209,47.13802,0.0],[37.63483,47.13682,0.0],[37.63807,47.13545,0.0],[37.63999,47.13436,0.0],[37.64058,47.13377,0.0],[37.64134,47.13272,0.0],[37.64156,47.13224,0.0],[37.64246,47.13247,0.0],[37.64373,47.13299,0.0],[37.64434,47.13339,0.0],[37.6458,47.13499,0.0],[37.64716,47.13497,0.0],[37.64766,47.13472,0.0],[37.64685,47.13398,0.0],[37.64828,47.13317,0.0],[37.64957,47.13491,0.0],[37.65023,47.13571,0.0],[37.65067,47.13612,0.0],[37.65192,47.13454,0.0],[37.65292,47.13324,0.0],[37.65366,47.13241,0.0],[37.66032,47.13634,0.0],[37.66084,47.13605,0.0],[37.66213,47.13532,0.0],[37.66307,47.13513,0.0],[37.66578,47.13449,0.0],[37.66796,47.13323,0.0],[37.67272,47.13474,0.0],[37.67481,47.13207,0.0],[37.67571,47.13236,0.0],[37.67674,47.13094,0.0],[37.67432,47.13021,0.0],[37.67456,47.12981,0.0],[37.675,47.12971,0.0],[37.67737,47.13,0.0],[37.68034,47.13038,0.0],[37.68682,47.13116,0.0],[37.68786,47.13006,0.0],[37.68869,47.12935,0.0],[37.69006,47.12786,0.0],[37.69087,47.12675,0.0],[37.69123,47.12611,0.0],[37.6919,47.12475,0.0],[37.69321,47.12155,0.0],[37.69484,47.11751,0.0],[37.69016,47.11567,0.0],[37.68975,47.11535,0.0],[37.68702,47.11318,0.0],[37.68649,47.11296,0.0],[37.68579,47.11266,0.0],[37.68523,47.11242,0.0],[37.6846,47.11215,0.0],[37.68343,47.11321,0.0],[37.68145,47.11246,0.0],[37.68073,47.1109,0.0],[37.67942,47.10882,0.0],[37.6786,47.10905,0.0],[37.67813,47.10847,0.0],[37.67684,47.10735,0.0],[37.67625,47.10686,0.0],[37.67483,47.10592,0.0],[37.67243,47.10426,0.0],[37.67475,47.10148,0.0],[37.67231,47.09849,0.0],[37.67013,47.09855,0.0],[37.66987,47.09669,0.0],[37.67059,47.09471,0.0],[37.66999,47.09468,0.0],[37.66985,47.09417,0.0],[37.66972,47.09291,0.0],[37.66213,47.09329,0.0],[37.66205,47.09272,0.0],[37.66184,47.09169,0.0],[37.66131,47.08964,0.0],[37.66217,47.08938,0.0],[37.66549,47.08856,0.0],[37.66954,47.08748,0.0],[37.66951,47.08695,0.0]]]]}},{"type":"Feature","properties":{"uesi_id":"UKR_R1748539","nbhd_code":"UKR_R1748539_4","nbhd_name":"\u041f\u0440\u0438\u043c\u043e\u0440\u0441\u044c\u043a\u0438\u0439 \u0440\u0430\u0439\u043e\u043d"},"geometry":{"type":"MultiPolygon","coordinates":[[[[37.47755,47.04606,0.0],[37.47718,47.04623,0.0],[37.47616,47.04667,0.0],[37.47605,47.04673,0.0],[37.47575,47.04683,0.0],[37.4754,47.0469,0.0],[37.47436,47.04729,0.0],[37.47401,47.04787,0.0],[37.47765,47.04998,0.0],[37.48067,47.05213,0.0],[37.48114,47.05282,0.0],[37.48127,47.05309,0.0],[37.48128,47.05322,0.0],[37.48106,47.05349,0.0],[37.47966,47.05396,0.0],[37.47965,47.05408,0.0],[37.47944,47.05435,0.0],[37.47925,47.05472,0.0],[37.47879,47.05513,0.0],[37.47838,47.05542,0.0],[37.47791,47.05567,0.0],[37.47746,47.05603,0.0],[37.47702,47.0565,0.0],[37.47665,47.05732,0.0],[37.47646,47.05828,0.0],[37.47689,47.05958,0.0],[37.47826,47.06263,0.0],[37.47798,47.06462,0.0],[37.47203,47.06433,0.0],[37.4675,47.06399,0.0],[37.46746,47.06412,0.0],[37.46662,47.06749,0.0],[37.46944,47.06784,0.0],[37.46935,47.06821,0.0],[37.47131,47.06841,0.0],[37.47069,47.07121,0.0],[37.47148,47.07192,0.0],[37.47952,47.07251,0.0],[37.47844,47.07888,0.0],[37.47952,47.0789,0.0],[37.48068,47.07921,0.0],[37.48125,47.07923,0.0],[37.48193,47.08025,0.0],[37.48393,47.08185,0.0],[37.48289,47.0859,0.0],[37.48156,47.09342,0.0],[37.48071,47.09758,0.0],[37.48067,47.09771,0.0],[37.48331,47.09835,0.0],[37.49067,47.09955,0.0],[37.49659,47.1004,0.0],[37.50857,47.09954,0.0],[37.50844,47.09865,0.0],[37.50515,47.0956,0.0],[37.50302,47.09258,0.0],[37.50379,47.0924,0.0],[37.50451,47.09231,0.0],[37.50512,47.09232,0.0],[37.5074,47.09265,0.0],[37.50769,47.09266,0.0],[37.51622,47.09202,0.0],[37.52245,47.09158,0.0],[37.53075,47.09102,0.0],[37.53139,47.09062,0.0],[37.53402,47.09119,0.0],[37.53445,47.09147,0.0],[37.53507,47.09103,0.0],[37.53705,47.09065,0.0],[37.53826,47.09018,0.0],[37.53912,47.08924,0.0],[37.54053,47.08954,0.0],[37.5411,47.08953,0.0],[37.54193,47.08948,0.0],[37.54166,47.08637,0.0],[37.54315,47.0863,0.0],[37.54347,47.08656,0.0],[37.54376,47.08674,0.0],[37.54408,47.08688,0.0],[37.54465,47.08706,0.0],[37.54528,47.0872,0.0],[37.54685,47.08752,0.0],[37.54776,47.08811,0.0],[37.54885,47.08836,0.0],[37.549,47.08874,0.0],[37.54964,47.08882,0.0],[37.55031,47.0886,0.0],[37.55083,47.08869,0.0],[37.55128,47.08888,0.0],[37.55155,47.08874,0.0],[37.55221,47.08881,0.0],[37.5547,47.08913,0.0],[37.55505,47.08905,0.0],[37.55605,47.08917,0.0],[37.55617,47.08919,0.0],[37.55627,47.08922,0.0],[37.55699,47.08952,0.0],[37.55742,47.0899,0.0],[37.55935,47.09015,0.0],[37.55974,47.09024,0.0],[37.56024,47.09037,0.0],[37.56057,47.0905,0.0],[37.56102,47.09077,0.0],[37.56106,47.09082,0.0],[37.56108,47.09089,0.0],[37.56111,47.09136,0.0],[37.56229,47.0917,0.0],[37.56579,47.09224,0.0],[37.56632,47.09232,0.0],[37.56703,47.0924,0.0],[37.56721,47.0924,0.0],[37.56756,47.09241,0.0],[37.56753,47.09263,0.0],[37.5669,47.09417,0.0],[37.56641,47.09515,0.0],[37.56703,47.09522,0.0],[37.56679,47.09621,0.0],[37.56873,47.09651,0.0],[37.57063,47.09656,0.0],[37.57111,47.09508,0.0],[37.57136,47.09432,0.0],[37.5721,47.09255,0.0],[37.57297,47.09026,0.0],[37.57466,47.08735,0.0],[37.57532,47.0861,0.0],[37.57574,47.08169,0.0],[37.57351,47.08233,0.0],[37.56758,47.08281,0.0],[37.56352,47.08275,0.0],[37.55856,47.08231,0.0],[37.55421,47.08153,0.0],[37.54639,47.08019,0.0],[37.54156,47.07911,0.0],[37.53703,47.07776,0.0],[37.53152,47.07608,0.0],[37.52926,47.07528,0.0],[37.52727,47.07447,0.0],[37.52536,47.07313,0.0],[37.52384,47.07146,0.0],[37.52296,47.0694,0.0],[37.52264,47.06727,0.0],[37.52279,47.06328,0.0],[37.52386,47.05963,0.0],[37.52598,47.05476,0.0],[37.52641,47.05208,0.0],[37.52503,47.05012,0.0],[37.52236,47.04831,0.0],[37.51852,47.04656,0.0],[37.51475,47.04524,0.0],[37.51087,47.04406,0.0],[37.50729,47.04296,0.0],[37.50397,47.04171,0.0],[37.50121,47.04025,0.0],[37.4978,47.03946,0.0],[37.49416,47.03924,0.0],[37.49141,47.03917,0.0],[37.48843,47.03874,0.0],[37.48664,47.03771,0.0],[37.48456,47.03577,0.0],[37.48208,47.03366,0.0],[37.4795,47.03181,0.0],[37.47737,47.03019,0.0],[37.47433,47.02761,0.0],[37.4711,47.0289,0.0],[37.47169,47.02963,0.0],[37.47482,47.03448,0.0],[37.4749,47.03469,0.0],[37.47548,47.03523,0.0],[37.47087,47.03587,0.0],[37.47235,47.03788,0.0],[37.47259,47.03813,0.0],[37.47311,47.03861,0.0],[37.47468,47.04003,0.0],[37.47488,47.04021,0.0],[37.47664,47.04183,0.0],[37.47884,47.04386,0.0],[37.47935,47.04432,0.0],[37.47971,47.04467,0.0],[37.47985,47.04478,0.0],[37.48006,47.04496,0.0],[37.47993,47.04502,0.0],[37.47981,47.04507,0.0],[37.47937,47.04526,0.0],[37.47918,47.04534,0.0],[37.47755,47.04606,0.0]]]]}}]}