{"type":"FeatureCollection","name":"USA_R1216769","crs":{"type":"name","properties":{"name":"urn:ogc:def:crs:OGC:1.3:CRS84"}},"features":[{"type":"Feature","properties":{"uesi_id":"USA_R1216769","nbhd_code":"USA_R1216769_1","nbhd_name":"Census Tract 24.02"},"geometry":{"type":"MultiPolygon","coordinates":[[[[-80.24,25.8017,0.0],[-80.2318,25.8019,0.0],[-80.2297,25.802,0.0],[-80.2236,25.8021,0.0],[-80.2234,25.7984,0.0],[-80.2233,25.7947,0.0],[-80.2274,25.7946,0.0],[-80.2315,25.7945,0.0],[-80.2398,25.7943,0.0],[-80.24,25.8017,0.0]]]]}},{"type":"Feature","properties":{"uesi_id":"USA_R1216769","nbhd_code":"USA_R1216769_2","nbhd_name":"Census Tract 53.02"},"geometry":{"type":"MultiPolygon","coordinates":[[[[-80.2147,25.7735,0.0],[-80.213,25.7736,0.0],[-80.2114,25.7737,0.0],[-80.2077,25.7737,0.0],[-80.2076,25.7698,0.0],[-80.2075,25.7679,0.0],[-80.2075,25.7669,0.0],[-80.2074,25.766,0.0],[-80.2112,25.7659,0.0],[-80.2145,25.7659,0.0],[-80.2145,25.7667,0.0],[-80.2146,25.7696,0.0],[-80.2147,25.7735,0.0]]]]}},{"type":"Feature","properties":{"uesi_id":"USA_R1216769","nbhd_code":"USA_R1216769_3","nbhd_name":"Census Tract 71.01"},"geometry":{"type":"MultiPolygon","coordinates":[[[[-80.2539,25.7327,0.0],[-80.2508,25.7352,0.0],[-80.2459,25.737,0.0],[-80.2457,25.7316,0.0],[-80.2456,25.7298,0.0],[-80.2455,25.728,0.0],[-80.2496,25.7278,0.0],[-80.2499,25.7278,0.0],[-80.2514,25.7298,0.0],[-80.2537,25.7297,0.0],[-80.2538,25.7314,0.0],[-80.2539,25.7327,0.0]]]]}},{"type":"Feature","properties":{"uesi_id":"USA_R1216769","nbhd_code":"USA_R1216769_4","nbhd_name":"Census Tract 18.01"},"geometry":{"type":"MultiPolygon","coordinates":[[[[-80.2411,25.8311,0.0],[-80.233,25.8314,0.0],[-80.2289,25.8316,0.0],[-80.2253,25.8317,0.0],[-80.2249,25.8317,0.0],[-80.2247,25.8281,0.0],[-80.2246,25.8244,0.0],[-80.2286,25.8243,0.0],[-80.2327,25.8242,0.0],[-80.2367,25.824,0.0],[-80.2408,25.8239,0.0],[-80.241,25.8276,0.0],[-80.2411,25.8311,0.0]]]]}},{"type":"Feature","properties":{"uesi_id":"USA_R1216769","nbhd_code":"USA_R1216769_5","nbhd_name":"Census Tract 19.04"},"geometry":{"type":"MultiPolygon","coordinates":[[[[-80.2246,25.8244,0.0],[-80.2162,25.8247,0.0],[-80.2164,25.8283,0.0],[-80.2124,25.8285,0.0],[-80.207,25.8287,0.0],[-80.2065,25.8286,0.0],[-80.2067,25.8272,0.0],[-80.2067,25.825,0.0],[-80.2067,25.8241,0.0],[-80.2066,25.8222,0.0],[-80.208,25.8212,0.0],[-80.2161,25.821,0.0],[-80.2244,25.8208,0.0],[-80.2246,25.8244,0.0]]]]}},{"type":"Feature","properties":{"uesi_id":"USA_R1216769","nbhd_code":"USA_R1216769_6","nbhd_name":"Census Tract 22.01"},"geometry":{"type":"MultiPolygon","coordinates":[[[[-80.1959,25.8253,0.0],[-80.1919,25.8254,0.0],[-80.1876,25.8255,0.0],[-80.1877,25.8252,0.0],[-80.1893,25.8186,0.0],[-80.1905,25.8128,0.0],[-80.1908,25.8113,0.0],[-80.1954,25.8114,0.0],[-80.1955,25.8141,0.0],[-80.1956,25.8169,0.0],[-80.1957,25.8186,0.0],[-80.1958,25.8216,0.0],[-80.1959,25.8253,0.0]]]]}},{"type":"Feature","properties":{"uesi_id":"USA_R1216769","nbhd_code":"USA_R1216769_7","nbhd_name":"Census Tract 27.02"},"geometry":{"type":"MultiPolygon","coordinates":[[[[-80.1945,25.7956,0.0],[-80.1926,25.8033,0.0],[-80.1908,25.8113,0.0],[-80.1894,25.8114,0.0],[-80.1895,25.8094,0.0],[-80.1894,25.8071,0.0],[-80.1894,25.8054,0.0],[-80.1894,25.8043,0.0],[-80.1891,25.8009,0.0],[-80.1891,25.7992,0.0],[-80.1891,25.7971,0.0],[-80.189,25.7948,0.0],[-80.189,25.7936,0.0],[-80.189,25.7923,0.0],[-80.1891,25.7895,0.0],[-80.1939,25.7894,0.0],[-80.196,25.7893,0.0],[-80.1945,25.7956,0.0]]]]}},{"type":"Feature","properties":{"uesi_id":"USA_R1216769","nbhd_code":"USA_R1216769_8","nbhd_name":"Census Tract 30.04"},"geometry":{"type":"MultiPolygon","coordinates":[[[[-80.2233,25.7947,0.0],[-80.2223,25.7948,0.0],[-80.2171,25.7949,0.0],[-80.2152,25.795,0.0],[-80.215,25.7876,0.0],[-80.215,25.786,0.0],[-80.2148,25.7854,0.0],[-80.2146,25.784,0.0],[-80.2147,25.7826,0.0],[-80.2155,25.783,0.0],[-80.217,25.7834,0.0],[-80.2186,25.7839,0.0],[-80.2191,25.7843,0.0],[-80.223,25.7855,0.0],[-80.2229,25.7862,0.0],[-80.2232,25.7921,0.0],[-80.2233,25.7947,0.0]]]]}},{"type":"Feature","properties":{"uesi_id":"USA_R1216769","nbhd_code":"USA_R1216769_9","nbhd_name":"Census Tract 37.04"},"geometry":{"type":"MultiPolygon","coordinates":[[[[-80.1937,25.7761,0.0],[-80.192,25.7761,0.0],[-80.1903,25.7762,0.0],[-80.1887,25.7762,0.0],[-80.1886,25.7753,0.0],[-80.1903,25.7752,0.0],[-80.19,25.7699,0.0],[-80.1925,25.7703,0.0],[-80.1935,25.7696,0.0],[-80.1936,25.7741,0.0],[-80.1937,25.7761,0.0]]]]}},{"type":"Feature","properties":{"uesi_id":"USA_R1216769","nbhd_code":"USA_R1216769_10","nbhd_name":"Census Tract 52.02"},"geometry":{"type":"MultiPolygon","coordinates":[[[[-80.2148,25.7802,0.0],[-80.2132,25.7802,0.0],[-80.2109,25.7803,0.0],[-80.2099,25.7802,0.0],[-80.2093,25.7795,0.0],[-80.2069,25.7783,0.0],[-80.2078,25.7767,0.0],[-80.2077,25.7737,0.0],[-80.2114,25.7737,0.0],[-80.213,25.7736,0.0],[-80.2147,25.7735,0.0],[-80.2147,25.7764,0.0],[-80.2148,25.7802,0.0]]]]}},{"type":"Feature","properties":{"uesi_id":"USA_R1216769","nbhd_code":"USA_R1216769_11","nbhd_name":"Census Tract 54.05"},"geometry":{"type":"MultiPolygon","coordinates":[[[[-80.2362,25.7756,0.0],[-80.2356,25.7757,0.0],[-80.2358,25.7796,0.0],[-80.2312,25.7797,0.0],[-80.2281,25.7798,0.0],[-80.228,25.7762,0.0],[-80.2291,25.7762,0.0],[-80.229,25.7726,0.0],[-80.231,25.7726,0.0],[-80.2361,25.7724,0.0],[-80.2362,25.7756,0.0]]]]}},{"type":"Feature","properties":{"uesi_id":"USA_R1216769","nbhd_code":"USA_R1216769_12","nbhd_name":"Census Tract 55.01"},"geometry":{"type":"MultiPolygon","coordinates":[[[[-80.2557,25.7789,0.0],[-80.2491,25.7791,0.0],[-80.2475,25.7792,0.0],[-80.2393,25.7795,0.0],[-80.2392,25.7763,0.0],[-80.2391,25.7723,0.0],[-80.2437,25.7722,0.0],[-80.2489,25.772,0.0],[-80.2514,25.7719,0.0],[-80.2542,25.7719,0.0],[-80.2555,25.7718,0.0],[-80.2556,25.7754,0.0],[-80.2557,25.7789,0.0]]]]}},{"type":"Feature","properties":{"uesi_id":"USA_R1216769","nbhd_code":"USA_R1216769_13","nbhd_name":"Census Tract 64.01"},"geometry":{"type":"MultiPolygon","coordinates":[[[[-80.2388,25.7652,0.0],[-80.2327,25.7654,0.0],[-80.2307,25.7654,0.0],[-80.2305,25.7613,0.0],[-80.2304,25.7581,0.0],[-80.2325,25.758,0.0],[-80.2386,25.7578,0.0],[-80.2386,25.7587,0.0],[-80.2387,25.7615,0.0],[-80.2388,25.7652,0.0]]]]}},{"type":"Feature","properties":{"uesi_id":"USA_R1216769","nbhd_code":"USA_R1216769_14","nbhd_name":"Census Tract 65.04"},"geometry":{"type":"MultiPolygon","coordinates":[[[[-80.2223,25.7579,0.0],[-80.2202,25.7579,0.0],[-80.2142,25.7578,0.0],[-80.2142,25.7572,0.0],[-80.2142,25.7547,0.0],[-80.2142,25.7513,0.0],[-80.2145,25.7511,0.0],[-80.222,25.7509,0.0],[-80.2221,25.7546,0.0],[-80.2223,25.7579,0.0]]]]}},{"type":"Feature","properties":{"uesi_id":"USA_R1216769","nbhd_code":"USA_R1216769_15","nbhd_name":"Census Tract 67.07"},"geometry":{"type":"MultiPolygon","coordinates":[[[[-80.1891,25.7579,0.0],[-80.1892,25.7597,0.0],[-80.1888,25.7608,0.0],[-80.1887,25.7616,0.0],[-80.1886,25.7625,0.0],[-80.1887,25.7638,0.0],[-80.1882,25.7656,0.0],[-80.1879,25.7689,0.0],[-80.1882,25.7698,0.0],[-80.1866,25.7697,0.0],[-80.1735,25.7698,0.0],[-80.1791,25.7513,0.0],[-80.1813,25.7513,0.0],[-80.1908,25.7568,0.0],[-80.1891,25.7579,0.0]]]]}},{"type":"Feature","properties":{"uesi_id":"USA_R1216769","nbhd_code":"USA_R1216769_16","nbhd_name":"Census Tract 69"},"geometry":{"type":"MultiPolygon","coordinates":[[[[-80.2383,25.7503,0.0],[-80.2301,25.7506,0.0],[-80.222,25.7509,0.0],[-80.2145,25.7511,0.0],[-80.2192,25.7478,0.0],[-80.2198,25.7469,0.0],[-80.2218,25.7462,0.0],[-80.2218,25.7458,0.0],[-80.2299,25.7428,0.0],[-80.2378,25.7399,0.0],[-80.238,25.7434,0.0],[-80.2381,25.7466,0.0],[-80.2381,25.7471,0.0],[-80.2383,25.7503,0.0]]]]}},{"type":"Feature","properties":{"uesi_id":"USA_R1216769","nbhd_code":"USA_R1216769_17","nbhd_name":"Census Tract 15.02"},"geometry":{"type":"MultiPolygon","coordinates":[[[[-80.2416,25.8413,0.0],[-80.2334,25.8407,0.0],[-80.2319,25.8407,0.0],[-80.2293,25.8407,0.0],[-80.2253,25.8409,0.0],[-80.2253,25.8391,0.0],[-80.2249,25.8317,0.0],[-80.2253,25.8317,0.0],[-80.2289,25.8316,0.0],[-80.233,25.8314,0.0],[-80.2411,25.8311,0.0],[-80.2415,25.8386,0.0],[-80.2416,25.8413,0.0]]]]}},{"type":"Feature","properties":{"uesi_id":"USA_R1216769","nbhd_code":"USA_R1216769_18","nbhd_name":"Census Tract 37.07"},"geometry":{"type":"MultiPolygon","coordinates":[[[[-80.1922,25.78,0.0],[-80.1905,25.78,0.0],[-80.1889,25.7801,0.0],[-80.1886,25.7795,0.0],[-80.1875,25.7762,0.0],[-80.1887,25.7762,0.0],[-80.1903,25.7762,0.0],[-80.192,25.7761,0.0],[-80.1921,25.779,0.0],[-80.1922,25.78,0.0]]]]}},{"type":"Feature","properties":{"uesi_id":"USA_R1216769","nbhd_code":"USA_R1216769_19","nbhd_name":"Census Tract 65.01"},"geometry":{"type":"MultiPolygon","coordinates":[[[[-80.2386,25.7578,0.0],[-80.2325,25.758,0.0],[-80.2304,25.7581,0.0],[-80.2303,25.7544,0.0],[-80.2301,25.7506,0.0],[-80.2383,25.7503,0.0],[-80.2384,25.7541,0.0],[-80.2386,25.7578,0.0]]]]}},{"type":"Feature","properties":{"uesi_id":"USA_R1216769","nbhd_code":"USA_R1216769_20","nbhd_name":"Census Tract 71.04"},"geometry":{"type":"MultiPolygon","coordinates":[[[[-80.2459,25.737,0.0],[-80.2419,25.7385,0.0],[-80.2378,25.7399,0.0],[-80.2376,25.7329,0.0],[-80.2375,25.7319,0.0],[-80.2416,25.7318,0.0],[-80.2457,25.7316,0.0],[-80.2459,25.737,0.0]]]]}},{"type":"Feature","properties":{"uesi_id":"USA_R1216769","nbhd_code":"USA_R1216769_21","nbhd_name":"Census Tract 27.03"},"geometry":{"type":"MultiPolygon","coordinates":[[[[-80.189,25.7923,0.0],[-80.189,25.7936,0.0],[-80.189,25.7948,0.0],[-80.1891,25.7971,0.0],[-80.187,25.7971,0.0],[-80.1639,25.7972,0.0],[-80.1657,25.7906,0.0],[-80.1662,25.7889,0.0],[-80.1791,25.7889,0.0],[-80.1799,25.7899,0.0],[-80.1854,25.7897,0.0],[-80.1872,25.7896,0.0],[-80.1891,25.7895,0.0],[-80.189,25.7923,0.0]]]]}},{"type":"Feature","properties":{"uesi_id":"USA_R1216769","nbhd_code":"USA_R1216769_22","nbhd_name":"Census Tract 19.01"},"geometry":{"type":"MultiPolygon","coordinates":[[[[-80.2172,25.8394,0.0],[-80.2094,25.8397,0.0],[-80.2089,25.8397,0.0],[-80.2062,25.8397,0.0],[-80.2062,25.8361,0.0],[-80.206,25.8323,0.0],[-80.206,25.8307,0.0],[-80.2065,25.8286,0.0],[-80.207,25.8287,0.0],[-80.2124,25.8285,0.0],[-80.2164,25.8283,0.0],[-80.2168,25.832,0.0],[-80.217,25.8357,0.0],[-80.2172,25.8394,0.0]]]]}},{"type":"Feature","properties":{"uesi_id":"USA_R1216769","nbhd_code":"USA_R1216769_23","nbhd_name":"Census Tract 26"},"geometry":{"type":"MultiPolygon","coordinates":[[[[-80.2062,25.8125,0.0],[-80.204,25.8122,0.0],[-80.2015,25.8118,0.0],[-80.1974,25.8114,0.0],[-80.1954,25.8114,0.0],[-80.1908,25.8113,0.0],[-80.1926,25.8033,0.0],[-80.1972,25.803,0.0],[-80.1992,25.8029,0.0],[-80.2032,25.8028,0.0],[-80.2058,25.8027,0.0],[-80.206,25.8064,0.0],[-80.2062,25.8125,0.0]]]]}},{"type":"Feature","properties":{"uesi_id":"USA_R1216769","nbhd_code":"USA_R1216769_24","nbhd_name":"Census Tract 37.03"},"geometry":{"type":"MultiPolygon","coordinates":[[[[-80.1903,25.7752,0.0],[-80.1886,25.7753,0.0],[-80.1887,25.7762,0.0],[-80.1875,25.7762,0.0],[-80.187,25.773,0.0],[-80.1873,25.7708,0.0],[-80.1866,25.7697,0.0],[-80.1882,25.7698,0.0],[-80.19,25.7699,0.0],[-80.1903,25.7752,0.0]]]]}},{"type":"Feature","properties":{"uesi_id":"USA_R1216769","nbhd_code":"USA_R1216769_25","nbhd_name":"Census Tract 49.02"},"geometry":{"type":"MultiPolygon","coordinates":[[[[-80.2719,25.7787,0.0],[-80.2695,25.7787,0.0],[-80.268,25.7787,0.0],[-80.266,25.7787,0.0],[-80.264,25.7787,0.0],[-80.2624,25.7788,0.0],[-80.2557,25.7789,0.0],[-80.2556,25.7754,0.0],[-80.2555,25.7718,0.0],[-80.262,25.7717,0.0],[-80.2637,25.7717,0.0],[-80.2657,25.7716,0.0],[-80.2677,25.7716,0.0],[-80.2717,25.7715,0.0],[-80.2718,25.7755,0.0],[-80.2719,25.7787,0.0]]]]}},{"type":"Feature","properties":{"uesi_id":"USA_R1216769","nbhd_code":"USA_R1216769_26","nbhd_name":"Census Tract 54.03"},"geometry":{"type":"MultiPolygon","coordinates":[[[[-80.2393,25.7795,0.0],[-80.2358,25.7796,0.0],[-80.2356,25.7757,0.0],[-80.2362,25.7756,0.0],[-80.2361,25.7724,0.0],[-80.2391,25.7723,0.0],[-80.2392,25.7763,0.0],[-80.2393,25.7795,0.0]]]]}},{"type":"Feature","properties":{"uesi_id":"USA_R1216769","nbhd_code":"USA_R1216769_27","nbhd_name":"Census Tract 54.06"},"geometry":{"type":"MultiPolygon","coordinates":[[[[-80.2291,25.7762,0.0],[-80.228,25.7762,0.0],[-80.2281,25.7798,0.0],[-80.2225,25.78,0.0],[-80.2229,25.7781,0.0],[-80.2229,25.7763,0.0],[-80.2229,25.7731,0.0],[-80.2235,25.7729,0.0],[-80.2269,25.7727,0.0],[-80.229,25.7726,0.0],[-80.2291,25.7762,0.0]]]]}},{"type":"Feature","properties":{"uesi_id":"USA_R1216769","nbhd_code":"USA_R1216769_28","nbhd_name":"Census Tract 63.02"},"geometry":{"type":"MultiPolygon","coordinates":[[[[-80.2548,25.7572,0.0],[-80.2504,25.7574,0.0],[-80.2468,25.7575,0.0],[-80.2427,25.7577,0.0],[-80.2427,25.7586,0.0],[-80.2386,25.7587,0.0],[-80.2386,25.7578,0.0],[-80.2384,25.7541,0.0],[-80.2383,25.7503,0.0],[-80.2464,25.7501,0.0],[-80.2496,25.75,0.0],[-80.2521,25.75,0.0],[-80.2546,25.7499,0.0],[-80.2547,25.7533,0.0],[-80.2548,25.756,0.0],[-80.2548,25.7572,0.0]]]]}},{"type":"Feature","properties":{"uesi_id":"USA_R1216769","nbhd_code":"USA_R1216769_29","nbhd_name":"Census Tract 67.09"},"geometry":{"type":"MultiPolygon","coordinates":[[[[-80.19,25.7688,0.0],[-80.19,25.7699,0.0],[-80.1882,25.7698,0.0],[-80.1879,25.7689,0.0],[-80.1882,25.7656,0.0],[-80.1895,25.7659,0.0],[-80.1907,25.7662,0.0],[-80.19,25.7688,0.0]]]]}},{"type":"Feature","properties":{"uesi_id":"USA_R1216769","nbhd_code":"USA_R1216769_30","nbhd_name":"Census Tract 4901"},"geometry":{"type":"MultiPolygon","coordinates":[[[[-80.2641,25.7851,0.0],[-80.2621,25.7857,0.0],[-80.2559,25.786,0.0],[-80.2557,25.7789,0.0],[-80.2624,25.7788,0.0],[-80.264,25.7787,0.0],[-80.2641,25.7824,0.0],[-80.2641,25.7851,0.0]]]]}},{"type":"Feature","properties":{"uesi_id":"USA_R1216769","nbhd_code":"USA_R1216769_31","nbhd_name":"Census Tract 28"},"geometry":{"type":"MultiPolygon","coordinates":[[[[-80.2058,25.8027,0.0],[-80.2032,25.8028,0.0],[-80.1992,25.8029,0.0],[-80.1972,25.803,0.0],[-80.1926,25.8033,0.0],[-80.1945,25.7956,0.0],[-80.1989,25.7954,0.0],[-80.2004,25.7954,0.0],[-80.2005,25.7977,0.0],[-80.205,25.7972,0.0],[-80.2056,25.7971,0.0],[-80.2058,25.8027,0.0]]]]}},{"type":"Feature","properties":{"uesi_id":"USA_R1216769","nbhd_code":"USA_R1216769_32","nbhd_name":"Census Tract 49.01"},"geometry":{"type":"MultiPolygon","coordinates":[[[[-80.2744,25.7836,0.0],[-80.2691,25.7894,0.0],[-80.2655,25.7929,0.0],[-80.2644,25.7935,0.0],[-80.2625,25.7939,0.0],[-80.2562,25.7944,0.0],[-80.2561,25.7939,0.0],[-80.2561,25.7931,0.0],[-80.256,25.7901,0.0],[-80.2559,25.7864,0.0],[-80.2559,25.786,0.0],[-80.2621,25.7857,0.0],[-80.2641,25.7851,0.0],[-80.2641,25.7824,0.0],[-80.264,25.7787,0.0],[-80.266,25.7787,0.0],[-80.268,25.7787,0.0],[-80.2695,25.7787,0.0],[-80.2696,25.7809,0.0],[-80.2697,25.7828,0.0],[-80.2718,25.7826,0.0],[-80.2747,25.7833,0.0],[-80.2744,25.7836,0.0]]]]}},{"type":"Feature","properties":{"uesi_id":"USA_R1216769","nbhd_code":"USA_R1216769_33","nbhd_name":"Census Tract 64.03"},"geometry":{"type":"MultiPolygon","coordinates":[[[[-80.2225,25.7656,0.0],[-80.2205,25.7657,0.0],[-80.2195,25.7657,0.0],[-80.2161,25.7658,0.0],[-80.2145,25.7659,0.0],[-80.2143,25.7629,0.0],[-80.2143,25.762,0.0],[-80.2142,25.7578,0.0],[-80.2202,25.7579,0.0],[-80.2223,25.7579,0.0],[-80.2223,25.7582,0.0],[-80.2224,25.7617,0.0],[-80.2225,25.7656,0.0]]]]}},{"type":"Feature","properties":{"uesi_id":"USA_R1216769","nbhd_code":"USA_R1216769_34","nbhd_name":"Census Tract 20.01"},"geometry":{"type":"MultiPolygon","coordinates":[[[[-80.2062,25.8361,0.0],[-80.2005,25.8362,0.0],[-80.1964,25.8363,0.0],[-80.1966,25.84,0.0],[-80.1925,25.8402,0.0],[-80.1884,25.8402,0.0],[-80.1881,25.8365,0.0],[-80.188,25.8332,0.0],[-80.1922,25.8327,0.0],[-80.1928,25.8327,0.0],[-80.1962,25.8326,0.0],[-80.2004,25.8325,0.0],[-80.206,25.8323,0.0],[-80.2062,25.8361,0.0]]]]}},{"type":"Feature","properties":{"uesi_id":"USA_R1216769","nbhd_code":"USA_R1216769_35","nbhd_name":"Census Tract 9810"},"geometry":{"type":"MultiPolygon","coordinates":[[[[-80.1855,25.7831,0.0],[-80.1855,25.7872,0.0],[-80.1854,25.7897,0.0],[-80.1799,25.7899,0.0],[-80.1791,25.7889,0.0],[-80.1662,25.7889,0.0],[-80.167,25.7862,0.0],[-80.1685,25.7819,0.0],[-80.169,25.7797,0.0],[-80.1531,25.7728,0.0],[-80.1499,25.7719,0.0],[-80.1488,25.772,0.0],[-80.1436,25.7739,0.0],[-80.1427,25.771,0.0],[-80.1445,25.7686,0.0],[-80.1414,25.7671,0.0],[-80.1391,25.7662,0.0],[-80.1395,25.7657,0.0],[-80.1491,25.7651,0.0],[-80.1502,25.7651,0.0],[-80.155,25.7643,0.0],[-80.1623,25.7643,0.0],[-80.1735,25.7698,0.0],[-80.1866,25.7697,0.0],[-80.1873,25.7708,0.0],[-80.1851,25.7716,0.0],[-80.1851,25.7754,0.0],[-80.1833,25.7788,0.0],[-80.1848,25.7773,0.0],[-80.186,25.7778,0.0],[-80.1852,25.7803,0.0],[-80.1853,25.7822,0.0],[-80.1889,25.7824,0.0],[-80.1855,25.7831,0.0]]]]}},{"type":"Feature","properties":{"uesi_id":"USA_R1216769","nbhd_code":"USA_R1216769_36","nbhd_name":"Census Tract 10.06"},"geometry":{"type":"MultiPolygon","coordinates":[[[[-80.2083,25.8572,0.0],[-80.2054,25.8573,0.0],[-80.2055,25.8582,0.0],[-80.2034,25.8583,0.0],[-80.2014,25.8584,0.0],[-80.1973,25.8585,0.0],[-80.1973,25.8582,0.0],[-80.1971,25.8531,0.0],[-80.1971,25.853,0.0],[-80.1971,25.8525,0.0],[-80.197,25.8511,0.0],[-80.1969,25.8479,0.0],[-80.1969,25.8474,0.0],[-80.2035,25.8473,0.0],[-80.2078,25.8471,0.0],[-80.2078,25.8476,0.0],[-80.2081,25.8537,0.0],[-80.2082,25.8543,0.0],[-80.2082,25.8544,0.0],[-80.2083,25.8572,0.0]]]]}},{"type":"Feature","properties":{"uesi_id":"USA_R1216769","nbhd_code":"USA_R1216769_37","nbhd_name":"Census Tract 13.02"},"geometry":{"type":"MultiPolygon","coordinates":[[[[-80.1888,25.8477,0.0],[-80.1862,25.8464,0.0],[-80.1846,25.8465,0.0],[-80.1806,25.8471,0.0],[-80.1794,25.847,0.0],[-80.1699,25.8431,0.0],[-80.1609,25.8428,0.0],[-80.1608,25.8398,0.0],[-80.1607,25.8368,0.0],[-80.1605,25.8333,0.0],[-80.184,25.8326,0.0],[-80.1879,25.8326,0.0],[-80.188,25.8332,0.0],[-80.1881,25.8365,0.0],[-80.1884,25.8402,0.0],[-80.1888,25.8477,0.0]]]]}},{"type":"Feature","properties":{"uesi_id":"USA_R1216769","nbhd_code":"USA_R1216769_38","nbhd_name":"Census Tract 18.02"},"geometry":{"type":"MultiPolygon","coordinates":[[[[-80.2327,25.8242,0.0],[-80.2286,25.8243,0.0],[-80.2246,25.8244,0.0],[-80.2244,25.8208,0.0],[-80.2243,25.8171,0.0],[-80.2241,25.8148,0.0],[-80.224,25.8122,0.0],[-80.2281,25.8121,0.0],[-80.2322,25.812,0.0],[-80.2325,25.8195,0.0],[-80.2327,25.8242,0.0]]]]}},{"type":"Feature","properties":{"uesi_id":"USA_R1216769","nbhd_code":"USA_R1216769_39","nbhd_name":"Census Tract 20.04"},"geometry":{"type":"MultiPolygon","coordinates":[[[[-80.1962,25.8326,0.0],[-80.1928,25.8327,0.0],[-80.1922,25.8327,0.0],[-80.188,25.8332,0.0],[-80.1879,25.8326,0.0],[-80.1876,25.8255,0.0],[-80.1919,25.8254,0.0],[-80.1959,25.8253,0.0],[-80.1965,25.8314,0.0],[-80.1962,25.8326,0.0]]]]}},{"type":"Feature","properties":{"uesi_id":"USA_R1216769","nbhd_code":"USA_R1216769_40","nbhd_name":"Census Tract 25.01"},"geometry":{"type":"MultiPolygon","coordinates":[[[[-80.2239,25.8095,0.0],[-80.2157,25.8098,0.0],[-80.2157,25.8107,0.0],[-80.2132,25.8099,0.0],[-80.2131,25.8062,0.0],[-80.2115,25.8062,0.0],[-80.2114,25.8025,0.0],[-80.2133,25.8024,0.0],[-80.2154,25.8024,0.0],[-80.2174,25.8023,0.0],[-80.2236,25.8021,0.0],[-80.2237,25.8044,0.0],[-80.2237,25.8058,0.0],[-80.2238,25.8069,0.0],[-80.2239,25.8095,0.0]]]]}},{"type":"Feature","properties":{"uesi_id":"USA_R1216769","nbhd_code":"USA_R1216769_41","nbhd_name":"Census Tract 27.05"},"geometry":{"type":"MultiPolygon","coordinates":[[[[-80.1895,25.8094,0.0],[-80.1894,25.8114,0.0],[-80.1861,25.8115,0.0],[-80.1854,25.8115,0.0],[-80.1822,25.8107,0.0],[-80.1601,25.8105,0.0],[-80.1606,25.8088,0.0],[-80.1611,25.807,0.0],[-80.1617,25.8048,0.0],[-80.1854,25.8044,0.0],[-80.1854,25.8054,0.0],[-80.1886,25.8054,0.0],[-80.1894,25.8054,0.0],[-80.1894,25.8071,0.0],[-80.1895,25.8094,0.0]]]]}},{"type":"Feature","properties":{"uesi_id":"USA_R1216769","nbhd_code":"USA_R1216769_42","nbhd_name":"Census Tract 30.03"},"geometry":{"type":"MultiPolygon","coordinates":[[[[-80.2421,25.7942,0.0],[-80.2403,25.7943,0.0],[-80.2398,25.7943,0.0],[-80.2315,25.7945,0.0],[-80.2274,25.7946,0.0],[-80.2233,25.7947,0.0],[-80.2232,25.7921,0.0],[-80.2229,25.7862,0.0],[-80.223,25.7855,0.0],[-80.2296,25.7875,0.0],[-80.2313,25.7888,0.0],[-80.233,25.7895,0.0],[-80.2356,25.7903,0.0],[-80.2396,25.7926,0.0],[-80.2405,25.7931,0.0],[-80.2421,25.7942,0.0]]]]}},{"type":"Feature","properties":{"uesi_id":"USA_R1216769","nbhd_code":"USA_R1216769_43","nbhd_name":"Census Tract 36.02"},"geometry":{"type":"MultiPolygon","coordinates":[[[[-80.2078,25.7767,0.0],[-80.2069,25.7783,0.0],[-80.2048,25.7774,0.0],[-80.2012,25.7742,0.0],[-80.1998,25.771,0.0],[-80.1995,25.7707,0.0],[-80.1975,25.7688,0.0],[-80.1975,25.7679,0.0],[-80.2008,25.7681,0.0],[-80.2042,25.768,0.0],[-80.2058,25.768,0.0],[-80.2075,25.7679,0.0],[-80.2076,25.7698,0.0],[-80.2077,25.7737,0.0],[-80.2078,25.7767,0.0]]]]}},{"type":"Feature","properties":{"uesi_id":"USA_R1216769","nbhd_code":"USA_R1216769_44","nbhd_name":"Census Tract 50.01"},"geometry":{"type":"MultiPolygon","coordinates":[[[[-80.2562,25.7944,0.0],[-80.2513,25.7947,0.0],[-80.248,25.7946,0.0],[-80.2472,25.7949,0.0],[-80.2455,25.795,0.0],[-80.2442,25.7953,0.0],[-80.2421,25.7942,0.0],[-80.2405,25.7931,0.0],[-80.2396,25.7926,0.0],[-80.2396,25.792,0.0],[-80.2397,25.7907,0.0],[-80.2397,25.7904,0.0],[-80.2396,25.7869,0.0],[-80.2395,25.7849,0.0],[-80.2463,25.7843,0.0],[-80.2513,25.7856,0.0],[-80.2524,25.7857,0.0],[-80.2559,25.786,0.0],[-80.2559,25.7864,0.0],[-80.256,25.7901,0.0],[-80.2561,25.7931,0.0],[-80.2561,25.7939,0.0],[-80.2562,25.7944,0.0]]]]}},{"type":"Feature","properties":{"uesi_id":"USA_R1216769","nbhd_code":"USA_R1216769_45","nbhd_name":"Census Tract 50.02"},"geometry":{"type":"MultiPolygon","coordinates":[[[[-80.2559,25.786,0.0],[-80.2524,25.7857,0.0],[-80.2513,25.7856,0.0],[-80.2463,25.7843,0.0],[-80.2395,25.7849,0.0],[-80.2395,25.7831,0.0],[-80.2393,25.7795,0.0],[-80.2475,25.7792,0.0],[-80.2491,25.7791,0.0],[-80.2557,25.7789,0.0],[-80.2559,25.786,0.0]]]]}},{"type":"Feature","properties":{"uesi_id":"USA_R1216769","nbhd_code":"USA_R1216769_46","nbhd_name":"Census Tract 51.02"},"geometry":{"type":"MultiPolygon","coordinates":[[[[-80.2313,25.7871,0.0],[-80.2313,25.7888,0.0],[-80.2296,25.7875,0.0],[-80.223,25.7855,0.0],[-80.2191,25.7843,0.0],[-80.2186,25.7839,0.0],[-80.217,25.7834,0.0],[-80.2155,25.783,0.0],[-80.2147,25.7826,0.0],[-80.212,25.7816,0.0],[-80.2099,25.7802,0.0],[-80.2109,25.7803,0.0],[-80.2132,25.7802,0.0],[-80.2148,25.7802,0.0],[-80.2225,25.78,0.0],[-80.2281,25.7798,0.0],[-80.2312,25.7797,0.0],[-80.2312,25.7826,0.0],[-80.2313,25.7833,0.0],[-80.2314,25.7865,0.0],[-80.2313,25.7871,0.0]]]]}},{"type":"Feature","properties":{"uesi_id":"USA_R1216769","nbhd_code":"USA_R1216769_47","nbhd_name":"Census Tract 54.09"},"geometry":{"type":"MultiPolygon","coordinates":[[[[-80.231,25.7726,0.0],[-80.229,25.7726,0.0],[-80.2269,25.7727,0.0],[-80.2235,25.7729,0.0],[-80.2229,25.7731,0.0],[-80.2227,25.7694,0.0],[-80.2227,25.7692,0.0],[-80.2268,25.7691,0.0],[-80.2308,25.7689,0.0],[-80.231,25.7726,0.0]]]]}},{"type":"Feature","properties":{"uesi_id":"USA_R1216769","nbhd_code":"USA_R1216769_48","nbhd_name":"Census Tract 57.01"},"geometry":{"type":"MultiPolygon","coordinates":[[[[-80.3122,25.7707,0.0],[-80.3116,25.7706,0.0],[-80.31,25.7713,0.0],[-80.3097,25.7715,0.0],[-80.3096,25.7746,0.0],[-80.3087,25.7772,0.0],[-80.3083,25.7763,0.0],[-80.3079,25.7724,0.0],[-80.296,25.7778,0.0],[-80.2911,25.7804,0.0],[-80.2884,25.7808,0.0],[-80.2883,25.778,0.0],[-80.2881,25.7708,0.0],[-80.2899,25.7707,0.0],[-80.2917,25.7707,0.0],[-80.2944,25.7707,0.0],[-80.2952,25.7706,0.0],[-80.2991,25.7706,0.0],[-80.3002,25.7706,0.0],[-80.3042,25.7705,0.0],[-80.3076,25.7704,0.0],[-80.3082,25.7703,0.0],[-80.313,25.7701,0.0],[-80.3122,25.7707,0.0]]]]}},{"type":"Feature","properties":{"uesi_id":"USA_R1216769","nbhd_code":"USA_R1216769_49","nbhd_name":"Census Tract 58.01"},"geometry":{"type":"MultiPolygon","coordinates":[[[[-80.2917,25.7707,0.0],[-80.2899,25.7707,0.0],[-80.2881,25.7708,0.0],[-80.284,25.771,0.0],[-80.282,25.771,0.0],[-80.2799,25.7711,0.0],[-80.2758,25.7713,0.0],[-80.2717,25.7715,0.0],[-80.2715,25.7642,0.0],[-80.2733,25.7641,0.0],[-80.2756,25.764,0.0],[-80.2793,25.7639,0.0],[-80.2797,25.7639,0.0],[-80.2838,25.7637,0.0],[-80.2879,25.7636,0.0],[-80.288,25.7663,0.0],[-80.2915,25.7661,0.0],[-80.2917,25.7707,0.0]]]]}},{"type":"Feature","properties":{"uesi_id":"USA_R1216769","nbhd_code":"USA_R1216769_50","nbhd_name":"Census Tract 66.02"},"geometry":{"type":"MultiPolygon","coordinates":[[[[-80.2075,25.7679,0.0],[-80.2058,25.768,0.0],[-80.2042,25.768,0.0],[-80.2008,25.7681,0.0],[-80.1975,25.7679,0.0],[-80.1975,25.7688,0.0],[-80.1957,25.7688,0.0],[-80.1956,25.7673,0.0],[-80.1956,25.7663,0.0],[-80.1955,25.7625,0.0],[-80.1951,25.7615,0.0],[-80.1951,25.7606,0.0],[-80.1951,25.7593,0.0],[-80.1965,25.7601,0.0],[-80.1972,25.7605,0.0],[-80.1989,25.7615,0.0],[-80.1998,25.7611,0.0],[-80.1996,25.7623,0.0],[-80.1997,25.7633,0.0],[-80.1999,25.7633,0.0],[-80.2007,25.7652,0.0],[-80.2041,25.7651,0.0],[-80.2058,25.7651,0.0],[-80.2074,25.765,0.0],[-80.2074,25.766,0.0],[-80.2075,25.7669,0.0],[-80.2075,25.7679,0.0]]]]}},{"type":"Feature","properties":{"uesi_id":"USA_R1216769","nbhd_code":"USA_R1216769_51","nbhd_name":"Census Tract 67.05"},"geometry":{"type":"MultiPolygon","coordinates":[[[[-80.1998,25.7532,0.0],[-80.1973,25.7549,0.0],[-80.1959,25.7559,0.0],[-80.1929,25.758,0.0],[-80.1908,25.7568,0.0],[-80.1908,25.7555,0.0],[-80.195,25.7546,0.0],[-80.1946,25.7542,0.0],[-80.1963,25.7532,0.0],[-80.1984,25.7523,0.0],[-80.1986,25.7516,0.0],[-80.1989,25.7521,0.0],[-80.1998,25.7532,0.0]]]]}},{"type":"Feature","properties":{"uesi_id":"USA_R1216769","nbhd_code":"USA_R1216769_52","nbhd_name":"Census Tract 68.01"},"geometry":{"type":"MultiPolygon","coordinates":[[[[-80.2395,25.73,0.0],[-80.2375,25.7319,0.0],[-80.2376,25.7329,0.0],[-80.2378,25.7399,0.0],[-80.2299,25.7428,0.0],[-80.2297,25.7384,0.0],[-80.2296,25.7362,0.0],[-80.2292,25.7355,0.0],[-80.2277,25.7336,0.0],[-80.2296,25.734,0.0],[-80.2296,25.7326,0.0],[-80.2332,25.7314,0.0],[-80.2327,25.729,0.0],[-80.2358,25.726,0.0],[-80.2379,25.7272,0.0],[-80.2381,25.7269,0.0],[-80.2394,25.7282,0.0],[-80.2395,25.73,0.0]]]]}},{"type":"Feature","properties":{"uesi_id":"USA_R1216769","nbhd_code":"USA_R1216769_53","nbhd_name":"Census Tract 70.01"},"geometry":{"type":"MultiPolygon","coordinates":[[[[-80.2546,25.7499,0.0],[-80.2521,25.75,0.0],[-80.2496,25.75,0.0],[-80.2464,25.7501,0.0],[-80.2383,25.7503,0.0],[-80.2381,25.7471,0.0],[-80.2381,25.7466,0.0],[-80.238,25.7434,0.0],[-80.2452,25.7432,0.0],[-80.2462,25.7436,0.0],[-80.2462,25.7432,0.0],[-80.248,25.7432,0.0],[-80.2543,25.743,0.0],[-80.2545,25.7461,0.0],[-80.2546,25.7499,0.0]]]]}},{"type":"Feature","properties":{"uesi_id":"USA_R1216769","nbhd_code":"USA_R1216769_54","nbhd_name":"Census Tract 72"},"geometry":{"type":"MultiPolygon","coordinates":[[[[-80.2617,25.7265,0.0],[-80.2604,25.7274,0.0],[-80.2579,25.7294,0.0],[-80.2559,25.7313,0.0],[-80.2551,25.7316,0.0],[-80.2539,25.7327,0.0],[-80.2538,25.7314,0.0],[-80.2537,25.7297,0.0],[-80.2514,25.7298,0.0],[-80.2499,25.7278,0.0],[-80.2496,25.7278,0.0],[-80.2455,25.728,0.0],[-80.2437,25.7267,0.0],[-80.2442,25.7264,0.0],[-80.2463,25.7237,0.0],[-80.247,25.7248,0.0],[-80.2495,25.7249,0.0],[-80.2534,25.724,0.0],[-80.2534,25.7244,0.0],[-80.2576,25.7243,0.0],[-80.2616,25.7236,0.0],[-80.2616,25.7248,0.0],[-80.2617,25.7265,0.0]]]]}},{"type":"Feature","properties":{"uesi_id":"USA_R1216769","nbhd_code":"USA_R1216769_55","nbhd_name":"Census Tract 13.01"},"geometry":{"type":"MultiPolygon","coordinates":[[[[-80.1888,25.8508,0.0],[-80.1884,25.8524,0.0],[-80.1874,25.8515,0.0],[-80.1873,25.8515,0.0],[-80.1853,25.8515,0.0],[-80.1854,25.854,0.0],[-80.1855,25.8552,0.0],[-80.1849,25.8552,0.0],[-80.1844,25.8552,0.0],[-80.1767,25.8554,0.0],[-80.1635,25.8557,0.0],[-80.1618,25.8558,0.0],[-80.1614,25.8558,0.0],[-80.1611,25.8484,0.0],[-80.1609,25.8428,0.0],[-80.1699,25.8431,0.0],[-80.1794,25.847,0.0],[-80.1806,25.8471,0.0],[-80.1846,25.8465,0.0],[-80.1862,25.8464,0.0],[-80.1888,25.8477,0.0],[-80.1888,25.8508,0.0]]]]}},{"type":"Feature","properties":{"uesi_id":"USA_R1216769","nbhd_code":"USA_R1216769_56","nbhd_name":"Census Tract 14.01"},"geometry":{"type":"MultiPolygon","coordinates":[[[[-80.2078,25.8471,0.0],[-80.2035,25.8473,0.0],[-80.1969,25.8474,0.0],[-80.1967,25.8437,0.0],[-80.1966,25.84,0.0],[-80.1964,25.8363,0.0],[-80.2005,25.8362,0.0],[-80.2062,25.8361,0.0],[-80.2062,25.8397,0.0],[-80.2063,25.8422,0.0],[-80.2066,25.8434,0.0],[-80.2076,25.846,0.0],[-80.2078,25.8471,0.0]]]]}},{"type":"Feature","properties":{"uesi_id":"USA_R1216769","nbhd_code":"USA_R1216769_57","nbhd_name":"Census Tract 14.02"},"geometry":{"type":"MultiPolygon","coordinates":[[[[-80.1971,25.853,0.0],[-80.1951,25.8531,0.0],[-80.193,25.8535,0.0],[-80.1888,25.853,0.0],[-80.1884,25.8524,0.0],[-80.1888,25.8508,0.0],[-80.1888,25.8477,0.0],[-80.1884,25.8402,0.0],[-80.1925,25.8402,0.0],[-80.1966,25.84,0.0],[-80.1967,25.8437,0.0],[-80.1969,25.8474,0.0],[-80.1969,25.8479,0.0],[-80.197,25.8511,0.0],[-80.1971,25.8525,0.0],[-80.1971,25.853,0.0]]]]}},{"type":"Feature","properties":{"uesi_id":"USA_R1216769","nbhd_code":"USA_R1216769_58","nbhd_name":"Census Tract 17.03"},"geometry":{"type":"MultiPolygon","coordinates":[[[[-80.2585,25.8096,0.0],[-80.2566,25.8105,0.0],[-80.2559,25.8107,0.0],[-80.2498,25.812,0.0],[-80.2485,25.8122,0.0],[-80.2404,25.8123,0.0],[-80.2403,25.811,0.0],[-80.2402,25.8095,0.0],[-80.2402,25.8091,0.0],[-80.2402,25.8086,0.0],[-80.2401,25.8053,0.0],[-80.2401,25.8045,0.0],[-80.24,25.8017,0.0],[-80.2398,25.7943,0.0],[-80.2403,25.7943,0.0],[-80.2421,25.7942,0.0],[-80.2442,25.7953,0.0],[-80.2584,25.806,0.0],[-80.2585,25.8072,0.0],[-80.2585,25.8085,0.0],[-80.2585,25.809,0.0],[-80.2585,25.8096,0.0]]]]}},{"type":"Feature","properties":{"uesi_id":"USA_R1216769","nbhd_code":"USA_R1216769_59","nbhd_name":"Census Tract 20.03"},"geometry":{"type":"MultiPolygon","coordinates":[[[[-80.2067,25.8272,0.0],[-80.2065,25.8286,0.0],[-80.206,25.8307,0.0],[-80.206,25.8323,0.0],[-80.2004,25.8325,0.0],[-80.1962,25.8326,0.0],[-80.1965,25.8314,0.0],[-80.1959,25.8253,0.0],[-80.2,25.8252,0.0],[-80.202,25.8251,0.0],[-80.2067,25.825,0.0],[-80.2067,25.8272,0.0]]]]}},{"type":"Feature","properties":{"uesi_id":"USA_R1216769","nbhd_code":"USA_R1216769_60","nbhd_name":"Census Tract 21"},"geometry":{"type":"MultiPolygon","coordinates":[[[[-80.1905,25.8128,0.0],[-80.1893,25.8186,0.0],[-80.1877,25.8252,0.0],[-80.1876,25.8255,0.0],[-80.1879,25.8326,0.0],[-80.184,25.8326,0.0],[-80.1605,25.8333,0.0],[-80.1602,25.8283,0.0],[-80.1601,25.8269,0.0],[-80.1598,25.8221,0.0],[-80.1594,25.813,0.0],[-80.1601,25.8105,0.0],[-80.1822,25.8107,0.0],[-80.1854,25.8115,0.0],[-80.1861,25.8115,0.0],[-80.1894,25.8114,0.0],[-80.1908,25.8113,0.0],[-80.1905,25.8128,0.0]]]]}},{"type":"Feature","properties":{"uesi_id":"USA_R1216769","nbhd_code":"USA_R1216769_61","nbhd_name":"Census Tract 23"},"geometry":{"type":"MultiPolygon","coordinates":[[[[-80.2244,25.8208,0.0],[-80.2161,25.821,0.0],[-80.208,25.8212,0.0],[-80.2066,25.8222,0.0],[-80.2064,25.8176,0.0],[-80.2062,25.8125,0.0],[-80.2086,25.8128,0.0],[-80.2158,25.8124,0.0],[-80.224,25.8122,0.0],[-80.2241,25.8148,0.0],[-80.2243,25.8171,0.0],[-80.2244,25.8208,0.0]]]]}},{"type":"Feature","properties":{"uesi_id":"USA_R1216769","nbhd_code":"USA_R1216769_62","nbhd_name":"Census Tract 24.04"},"geometry":{"type":"MultiPolygon","coordinates":[[[[-80.2322,25.812,0.0],[-80.2281,25.8121,0.0],[-80.224,25.8122,0.0],[-80.2239,25.8095,0.0],[-80.2238,25.8069,0.0],[-80.2237,25.8058,0.0],[-80.2237,25.8044,0.0],[-80.2236,25.8021,0.0],[-80.2297,25.802,0.0],[-80.2318,25.8019,0.0],[-80.2319,25.8056,0.0],[-80.2321,25.8093,0.0],[-80.2321,25.8112,0.0],[-80.2322,25.812,0.0]]]]}},{"type":"Feature","properties":{"uesi_id":"USA_R1216769","nbhd_code":"USA_R1216769_63","nbhd_name":"Census Tract 25.02"},"geometry":{"type":"MultiPolygon","coordinates":[[[[-80.224,25.8122,0.0],[-80.2158,25.8124,0.0],[-80.2086,25.8128,0.0],[-80.2062,25.8125,0.0],[-80.206,25.8064,0.0],[-80.2058,25.8027,0.0],[-80.2114,25.8025,0.0],[-80.2115,25.8062,0.0],[-80.2131,25.8062,0.0],[-80.2132,25.8099,0.0],[-80.2157,25.8107,0.0],[-80.2157,25.8098,0.0],[-80.2239,25.8095,0.0],[-80.224,25.8122,0.0]]]]}},{"type":"Feature","properties":{"uesi_id":"USA_R1216769","nbhd_code":"USA_R1216769_64","nbhd_name":"Census Tract 27.06"},"geometry":{"type":"MultiPolygon","coordinates":[[[[-80.1894,25.8054,0.0],[-80.1886,25.8054,0.0],[-80.1854,25.8054,0.0],[-80.1854,25.8044,0.0],[-80.1617,25.8048,0.0],[-80.1626,25.8016,0.0],[-80.1639,25.7972,0.0],[-80.187,25.7971,0.0],[-80.1891,25.7971,0.0],[-80.1891,25.7992,0.0],[-80.1891,25.8009,0.0],[-80.1894,25.8043,0.0],[-80.1894,25.8054,0.0]]]]}},{"type":"Feature","properties":{"uesi_id":"USA_R1216769","nbhd_code":"USA_R1216769_65","nbhd_name":"Census Tract 29"},"geometry":{"type":"MultiPolygon","coordinates":[[[[-80.2236,25.8021,0.0],[-80.2174,25.8023,0.0],[-80.2154,25.8024,0.0],[-80.2133,25.8024,0.0],[-80.2114,25.8025,0.0],[-80.2058,25.8027,0.0],[-80.2056,25.7971,0.0],[-80.2071,25.7971,0.0],[-80.207,25.7952,0.0],[-80.2131,25.7951,0.0],[-80.2152,25.795,0.0],[-80.2171,25.7949,0.0],[-80.2223,25.7948,0.0],[-80.2233,25.7947,0.0],[-80.2234,25.7984,0.0],[-80.2236,25.8021,0.0]]]]}},{"type":"Feature","properties":{"uesi_id":"USA_R1216769","nbhd_code":"USA_R1216769_66","nbhd_name":"Census Tract 34"},"geometry":{"type":"MultiPolygon","coordinates":[[[[-80.2069,25.7879,0.0],[-80.1999,25.7881,0.0],[-80.1992,25.7881,0.0],[-80.1987,25.7881,0.0],[-80.198,25.7881,0.0],[-80.1962,25.7882,0.0],[-80.1963,25.7869,0.0],[-80.1962,25.7847,0.0],[-80.1962,25.7837,0.0],[-80.1961,25.7818,0.0],[-80.1962,25.7808,0.0],[-80.1961,25.7789,0.0],[-80.2029,25.7787,0.0],[-80.203,25.7815,0.0],[-80.2031,25.7845,0.0],[-80.2068,25.7843,0.0],[-80.2069,25.7879,0.0]]]]}},{"type":"Feature","properties":{"uesi_id":"USA_R1216769","nbhd_code":"USA_R1216769_67","nbhd_name":"Census Tract 37.02"},"geometry":{"type":"MultiPolygon","coordinates":[[[[-80.1962,25.7882,0.0],[-80.196,25.7893,0.0],[-80.1939,25.7894,0.0],[-80.1891,25.7895,0.0],[-80.1872,25.7896,0.0],[-80.1854,25.7897,0.0],[-80.1855,25.7872,0.0],[-80.1855,25.7831,0.0],[-80.1889,25.7824,0.0],[-80.1853,25.7822,0.0],[-80.1852,25.7803,0.0],[-80.186,25.7778,0.0],[-80.1848,25.7773,0.0],[-80.1833,25.7788,0.0],[-80.1851,25.7754,0.0],[-80.1851,25.7716,0.0],[-80.1873,25.7708,0.0],[-80.187,25.773,0.0],[-80.1875,25.7762,0.0],[-80.1886,25.7795,0.0],[-80.1889,25.7801,0.0],[-80.1892,25.781,0.0],[-80.1905,25.781,0.0],[-80.1938,25.7808,0.0],[-80.1962,25.7808,0.0],[-80.1961,25.7818,0.0],[-80.1962,25.7837,0.0],[-80.1962,25.7847,0.0],[-80.1963,25.7869,0.0],[-80.1962,25.7882,0.0]]]]}},{"type":"Feature","properties":{"uesi_id":"USA_R1216769","nbhd_code":"USA_R1216769_68","nbhd_name":"Census Tract 37.05"},"geometry":{"type":"MultiPolygon","coordinates":[[[[-80.196,25.7741,0.0],[-80.1936,25.7741,0.0],[-80.1935,25.7696,0.0],[-80.1957,25.7688,0.0],[-80.196,25.7741,0.0]]]]}},{"type":"Feature","properties":{"uesi_id":"USA_R1216769","nbhd_code":"USA_R1216769_69","nbhd_name":"Census Tract 22.02"},"geometry":{"type":"MultiPolygon","coordinates":[[[[-80.2067,25.825,0.0],[-80.202,25.8251,0.0],[-80.2,25.8252,0.0],[-80.1959,25.8253,0.0],[-80.1958,25.8216,0.0],[-80.1957,25.8186,0.0],[-80.1956,25.8169,0.0],[-80.1955,25.8141,0.0],[-80.1954,25.8114,0.0],[-80.1974,25.8114,0.0],[-80.2015,25.8118,0.0],[-80.204,25.8122,0.0],[-80.2062,25.8125,0.0],[-80.2064,25.8176,0.0],[-80.2066,25.8222,0.0],[-80.2067,25.8241,0.0],[-80.2067,25.825,0.0]]]]}},{"type":"Feature","properties":{"uesi_id":"USA_R1216769","nbhd_code":"USA_R1216769_70","nbhd_name":"Census Tract 37.06"},"geometry":{"type":"MultiPolygon","coordinates":[[[[-80.1962,25.7808,0.0],[-80.1938,25.7808,0.0],[-80.1905,25.781,0.0],[-80.1892,25.781,0.0],[-80.1889,25.7801,0.0],[-80.1905,25.78,0.0],[-80.1922,25.78,0.0],[-80.1921,25.779,0.0],[-80.192,25.7761,0.0],[-80.1937,25.7761,0.0],[-80.1936,25.7741,0.0],[-80.196,25.7741,0.0],[-80.1961,25.7789,0.0],[-80.1962,25.7808,0.0]]]]}},{"type":"Feature","properties":{"uesi_id":"USA_R1216769","nbhd_code":"USA_R1216769_71","nbhd_name":"Census Tract 55.02"},"geometry":{"type":"MultiPolygon","coordinates":[[[[-80.2555,25.7718,0.0],[-80.2542,25.7719,0.0],[-80.2514,25.7719,0.0],[-80.2489,25.772,0.0],[-80.2437,25.7722,0.0],[-80.2391,25.7723,0.0],[-80.239,25.7684,0.0],[-80.2389,25.7661,0.0],[-80.2388,25.7652,0.0],[-80.2416,25.7651,0.0],[-80.2429,25.7651,0.0],[-80.247,25.7649,0.0],[-80.2495,25.7649,0.0],[-80.251,25.7648,0.0],[-80.2551,25.7647,0.0],[-80.2554,25.77,0.0],[-80.2554,25.7706,0.0],[-80.2555,25.7718,0.0]]]]}},{"type":"Feature","properties":{"uesi_id":"USA_R1216769","nbhd_code":"USA_R1216769_72","nbhd_name":"Census Tract 67.13"},"geometry":{"type":"MultiPolygon","coordinates":[[[[-80.192,25.7611,0.0],[-80.1919,25.7617,0.0],[-80.1915,25.763,0.0],[-80.1897,25.7627,0.0],[-80.1886,25.7625,0.0],[-80.1887,25.7616,0.0],[-80.1888,25.7608,0.0],[-80.1892,25.7597,0.0],[-80.1922,25.7603,0.0],[-80.192,25.7611,0.0]]]]}},{"type":"Feature","properties":{"uesi_id":"USA_R1216769","nbhd_code":"USA_R1216769_73","nbhd_name":"Census Tract 74"},"geometry":{"type":"MultiPolygon","coordinates":[[[[-80.2747,25.7416,0.0],[-80.2664,25.7419,0.0],[-80.2624,25.7421,0.0],[-80.2613,25.7425,0.0],[-80.2543,25.7426,0.0],[-80.2543,25.7425,0.0],[-80.2543,25.7421,0.0],[-80.2562,25.742,0.0],[-80.2562,25.7391,0.0],[-80.2582,25.7386,0.0],[-80.258,25.7349,0.0],[-80.2579,25.7322,0.0],[-80.2559,25.7313,0.0],[-80.2579,25.7294,0.0],[-80.2604,25.7274,0.0],[-80.2617,25.7265,0.0],[-80.2616,25.7248,0.0],[-80.2616,25.7236,0.0],[-80.2615,25.7222,0.0],[-80.2614,25.7199,0.0],[-80.2612,25.7141,0.0],[-80.2611,25.7127,0.0],[-80.268,25.7124,0.0],[-80.2684,25.7167,0.0],[-80.2707,25.7191,0.0],[-80.2709,25.7194,0.0],[-80.2722,25.7209,0.0],[-80.2726,25.7223,0.0],[-80.2714,25.7264,0.0],[-80.2714,25.727,0.0],[-80.2722,25.7315,0.0],[-80.2736,25.7344,0.0],[-80.2743,25.7358,0.0],[-80.2747,25.7416,0.0]]]]}},{"type":"Feature","properties":{"uesi_id":"USA_R1216769","nbhd_code":"USA_R1216769_74","nbhd_name":"Census Tract 51.03"},"geometry":{"type":"MultiPolygon","coordinates":[[[[-80.2395,25.7831,0.0],[-80.2313,25.7833,0.0],[-80.2312,25.7826,0.0],[-80.2312,25.7797,0.0],[-80.2358,25.7796,0.0],[-80.2393,25.7795,0.0],[-80.2395,25.7831,0.0]]]]}},{"type":"Feature","properties":{"uesi_id":"USA_R1216769","nbhd_code":"USA_R1216769_75","nbhd_name":"Census Tract 51.04"},"geometry":{"type":"MultiPolygon","coordinates":[[[[-80.2397,25.7907,0.0],[-80.2396,25.792,0.0],[-80.2396,25.7926,0.0],[-80.2356,25.7903,0.0],[-80.233,25.7895,0.0],[-80.2313,25.7888,0.0],[-80.2313,25.7871,0.0],[-80.2314,25.7865,0.0],[-80.2313,25.7833,0.0],[-80.2395,25.7831,0.0],[-80.2395,25.7849,0.0],[-80.2396,25.7869,0.0],[-80.2397,25.7904,0.0],[-80.2397,25.7907,0.0]]]]}},{"type":"Feature","properties":{"uesi_id":"USA_R1216769","nbhd_code":"USA_R1216769_76","nbhd_name":"Census Tract 53.04"},"geometry":{"type":"MultiPolygon","coordinates":[[[[-80.2227,25.7694,0.0],[-80.2196,25.7695,0.0],[-80.2162,25.7695,0.0],[-80.2146,25.7696,0.0],[-80.2145,25.7667,0.0],[-80.2145,25.7659,0.0],[-80.2161,25.7658,0.0],[-80.2195,25.7657,0.0],[-80.2205,25.7657,0.0],[-80.2225,25.7656,0.0],[-80.2226,25.7665,0.0],[-80.2227,25.7692,0.0],[-80.2227,25.7694,0.0]]]]}},{"type":"Feature","properties":{"uesi_id":"USA_R1216769","nbhd_code":"USA_R1216769_77","nbhd_name":"Census Tract 54.07"},"geometry":{"type":"MultiPolygon","coordinates":[[[[-80.2391,25.7723,0.0],[-80.2361,25.7724,0.0],[-80.231,25.7726,0.0],[-80.2308,25.7689,0.0],[-80.2307,25.7663,0.0],[-80.2307,25.7654,0.0],[-80.2327,25.7654,0.0],[-80.2388,25.7652,0.0],[-80.2389,25.7661,0.0],[-80.239,25.7684,0.0],[-80.2391,25.7723,0.0]]]]}},{"type":"Feature","properties":{"uesi_id":"USA_R1216769","nbhd_code":"USA_R1216769_78","nbhd_name":"Census Tract 54.10"},"geometry":{"type":"MultiPolygon","coordinates":[[[[-80.2308,25.7689,0.0],[-80.2268,25.7691,0.0],[-80.2227,25.7692,0.0],[-80.2226,25.7665,0.0],[-80.2225,25.7656,0.0],[-80.2266,25.7655,0.0],[-80.2307,25.7654,0.0],[-80.2307,25.7663,0.0],[-80.2308,25.7689,0.0]]]]}},{"type":"Feature","properties":{"uesi_id":"USA_R1216769","nbhd_code":"USA_R1216769_79","nbhd_name":"Census Tract 56"},"geometry":{"type":"MultiPolygon","coordinates":[[[[-80.2717,25.7715,0.0],[-80.2677,25.7716,0.0],[-80.2657,25.7716,0.0],[-80.2637,25.7717,0.0],[-80.262,25.7717,0.0],[-80.2555,25.7718,0.0],[-80.2554,25.7706,0.0],[-80.2554,25.77,0.0],[-80.2551,25.7647,0.0],[-80.2592,25.7646,0.0],[-80.2609,25.7645,0.0],[-80.2613,25.7645,0.0],[-80.2633,25.7644,0.0],[-80.267,25.7643,0.0],[-80.2674,25.7643,0.0],[-80.2704,25.7642,0.0],[-80.2715,25.7642,0.0],[-80.2717,25.7715,0.0]]]]}},{"type":"Feature","properties":{"uesi_id":"USA_R1216769","nbhd_code":"USA_R1216769_80","nbhd_name":"Census Tract 57.04"},"geometry":{"type":"MultiPolygon","coordinates":[[[[-80.2883,25.778,0.0],[-80.2822,25.7782,0.0],[-80.2775,25.7785,0.0],[-80.2719,25.7787,0.0],[-80.2718,25.7755,0.0],[-80.2717,25.7715,0.0],[-80.2758,25.7713,0.0],[-80.2799,25.7711,0.0],[-80.282,25.771,0.0],[-80.284,25.771,0.0],[-80.2881,25.7708,0.0],[-80.2883,25.778,0.0]]]]}},{"type":"Feature","properties":{"uesi_id":"USA_R1216769","nbhd_code":"USA_R1216769_81","nbhd_name":"Census Tract 58.02"},"geometry":{"type":"MultiPolygon","coordinates":[[[[-80.3186,25.7629,0.0],[-80.3158,25.7681,0.0],[-80.313,25.7701,0.0],[-80.3082,25.7703,0.0],[-80.3076,25.7704,0.0],[-80.3042,25.7705,0.0],[-80.3002,25.7706,0.0],[-80.2991,25.7706,0.0],[-80.2952,25.7706,0.0],[-80.2944,25.7707,0.0],[-80.2917,25.7707,0.0],[-80.2915,25.7661,0.0],[-80.288,25.7663,0.0],[-80.2879,25.7636,0.0],[-80.2919,25.7634,0.0],[-80.295,25.7633,0.0],[-80.298,25.7633,0.0],[-80.2999,25.7632,0.0],[-80.3039,25.7631,0.0],[-80.3074,25.763,0.0],[-80.308,25.763,0.0],[-80.3098,25.7629,0.0],[-80.3119,25.7628,0.0],[-80.3157,25.7627,0.0],[-80.3198,25.7625,0.0],[-80.3186,25.7629,0.0]]]]}},{"type":"Feature","properties":{"uesi_id":"USA_R1216769","nbhd_code":"USA_R1216769_82","nbhd_name":"Census Tract 63.01"},"geometry":{"type":"MultiPolygon","coordinates":[[[[-80.2551,25.7647,0.0],[-80.251,25.7648,0.0],[-80.2495,25.7649,0.0],[-80.247,25.7649,0.0],[-80.2429,25.7651,0.0],[-80.2416,25.7651,0.0],[-80.2388,25.7652,0.0],[-80.2387,25.7615,0.0],[-80.2386,25.7587,0.0],[-80.2427,25.7586,0.0],[-80.2427,25.7577,0.0],[-80.2468,25.7575,0.0],[-80.2504,25.7574,0.0],[-80.2548,25.7572,0.0],[-80.2549,25.7583,0.0],[-80.2549,25.7591,0.0],[-80.255,25.7607,0.0],[-80.255,25.761,0.0],[-80.2551,25.763,0.0],[-80.2551,25.7647,0.0]]]]}},{"type":"Feature","properties":{"uesi_id":"USA_R1216769","nbhd_code":"USA_R1216769_83","nbhd_name":"Census Tract 64.02"},"geometry":{"type":"MultiPolygon","coordinates":[[[[-80.2307,25.7654,0.0],[-80.2266,25.7655,0.0],[-80.2225,25.7656,0.0],[-80.2224,25.7617,0.0],[-80.2223,25.7582,0.0],[-80.2263,25.7582,0.0],[-80.2304,25.7581,0.0],[-80.2305,25.7613,0.0],[-80.2307,25.7654,0.0]]]]}},{"type":"Feature","properties":{"uesi_id":"USA_R1216769","nbhd_code":"USA_R1216769_84","nbhd_name":"Census Tract 66.01"},"geometry":{"type":"MultiPolygon","coordinates":[[[[-80.2145,25.7659,0.0],[-80.2112,25.7659,0.0],[-80.2074,25.766,0.0],[-80.2074,25.765,0.0],[-80.2058,25.7651,0.0],[-80.2041,25.7651,0.0],[-80.2007,25.7652,0.0],[-80.1999,25.7633,0.0],[-80.1997,25.7633,0.0],[-80.1996,25.7623,0.0],[-80.1998,25.7611,0.0],[-80.204,25.7583,0.0],[-80.2073,25.756,0.0],[-80.209,25.7548,0.0],[-80.2142,25.7513,0.0],[-80.2142,25.7547,0.0],[-80.2142,25.7572,0.0],[-80.2142,25.7578,0.0],[-80.2143,25.762,0.0],[-80.2143,25.7629,0.0],[-80.2145,25.7659,0.0]]]]}},{"type":"Feature","properties":{"uesi_id":"USA_R1216769","nbhd_code":"USA_R1216769_85","nbhd_name":"Census Tract 67.02"},"geometry":{"type":"MultiPolygon","coordinates":[[[[-80.2218,25.7462,0.0],[-80.2198,25.7469,0.0],[-80.2192,25.7478,0.0],[-80.2145,25.7511,0.0],[-80.2142,25.7513,0.0],[-80.209,25.7548,0.0],[-80.2073,25.756,0.0],[-80.204,25.7583,0.0],[-80.1998,25.7611,0.0],[-80.1989,25.7615,0.0],[-80.1972,25.7605,0.0],[-80.1965,25.7601,0.0],[-80.1951,25.7593,0.0],[-80.1951,25.7606,0.0],[-80.1951,25.7615,0.0],[-80.1955,25.7625,0.0],[-80.1956,25.7663,0.0],[-80.1956,25.7673,0.0],[-80.1957,25.7688,0.0],[-80.1935,25.7696,0.0],[-80.1925,25.7703,0.0],[-80.19,25.7699,0.0],[-80.19,25.7688,0.0],[-80.1907,25.7662,0.0],[-80.1912,25.7642,0.0],[-80.1915,25.763,0.0],[-80.1919,25.7617,0.0],[-80.192,25.7611,0.0],[-80.1922,25.7603,0.0],[-80.1929,25.758,0.0],[-80.1959,25.7559,0.0],[-80.1973,25.7549,0.0],[-80.1998,25.7532,0.0],[-80.2016,25.7519,0.0],[-80.203,25.751,0.0],[-80.204,25.7504,0.0],[-80.2124,25.7491,0.0],[-80.2218,25.7458,0.0],[-80.2218,25.7462,0.0]]]]}},{"type":"Feature","properties":{"uesi_id":"USA_R1216769","nbhd_code":"USA_R1216769_86","nbhd_name":"Census Tract 67.06"},"geometry":{"type":"MultiPolygon","coordinates":[[[[-80.203,25.751,0.0],[-80.2016,25.7519,0.0],[-80.1998,25.7532,0.0],[-80.1989,25.7521,0.0],[-80.1986,25.7516,0.0],[-80.1984,25.7523,0.0],[-80.1963,25.7532,0.0],[-80.1946,25.7542,0.0],[-80.195,25.7546,0.0],[-80.1908,25.7555,0.0],[-80.1908,25.7568,0.0],[-80.1813,25.7513,0.0],[-80.1791,25.7513,0.0],[-80.1784,25.7468,0.0],[-80.1789,25.746,0.0],[-80.1894,25.746,0.0],[-80.1996,25.746,0.0],[-80.2023,25.7479,0.0],[-80.2027,25.7487,0.0],[-80.204,25.7504,0.0],[-80.203,25.751,0.0]]]]}},{"type":"Feature","properties":{"uesi_id":"USA_R1216769","nbhd_code":"USA_R1216769_87","nbhd_name":"Census Tract 67.14"},"geometry":{"type":"MultiPolygon","coordinates":[[[[-80.1922,25.7603,0.0],[-80.1892,25.7597,0.0],[-80.1891,25.7579,0.0],[-80.1908,25.7568,0.0],[-80.1929,25.758,0.0],[-80.1922,25.7603,0.0]]]]}},{"type":"Feature","properties":{"uesi_id":"USA_R1216769","nbhd_code":"USA_R1216769_88","nbhd_name":"Census Tract 68.02"},"geometry":{"type":"MultiPolygon","coordinates":[[[[-80.2332,25.7314,0.0],[-80.2296,25.7326,0.0],[-80.2296,25.734,0.0],[-80.2277,25.7336,0.0],[-80.2292,25.7355,0.0],[-80.2296,25.7362,0.0],[-80.2297,25.7384,0.0],[-80.2299,25.7428,0.0],[-80.2218,25.7458,0.0],[-80.2124,25.7491,0.0],[-80.204,25.7504,0.0],[-80.2027,25.7487,0.0],[-80.2023,25.7479,0.0],[-80.2026,25.7482,0.0],[-80.2085,25.7456,0.0],[-80.2098,25.7443,0.0],[-80.2107,25.7407,0.0],[-80.2144,25.7383,0.0],[-80.216,25.7388,0.0],[-80.2177,25.7394,0.0],[-80.222,25.7366,0.0],[-80.2291,25.7325,0.0],[-80.2327,25.729,0.0],[-80.2332,25.7314,0.0]]]]}},{"type":"Feature","properties":{"uesi_id":"USA_R1216769","nbhd_code":"USA_R1216769_89","nbhd_name":"Census Tract 70.02"},"geometry":{"type":"MultiPolygon","coordinates":[[[[-80.2582,25.7386,0.0],[-80.2562,25.7391,0.0],[-80.2562,25.742,0.0],[-80.2543,25.7421,0.0],[-80.2543,25.7425,0.0],[-80.2543,25.7426,0.0],[-80.2543,25.743,0.0],[-80.248,25.7432,0.0],[-80.2462,25.7432,0.0],[-80.2462,25.7436,0.0],[-80.2452,25.7432,0.0],[-80.238,25.7434,0.0],[-80.2378,25.7399,0.0],[-80.2419,25.7385,0.0],[-80.2459,25.737,0.0],[-80.2508,25.7352,0.0],[-80.2539,25.7327,0.0],[-80.2551,25.7316,0.0],[-80.2559,25.7313,0.0],[-80.2579,25.7322,0.0],[-80.258,25.7349,0.0],[-80.2582,25.7386,0.0]]]]}},{"type":"Feature","properties":{"uesi_id":"USA_R1216769","nbhd_code":"USA_R1216769_90","nbhd_name":"Census Tract 71.03"},"geometry":{"type":"MultiPolygon","coordinates":[[[[-80.2457,25.7316,0.0],[-80.2416,25.7318,0.0],[-80.2375,25.7319,0.0],[-80.2395,25.73,0.0],[-80.2394,25.7282,0.0],[-80.2381,25.7269,0.0],[-80.2392,25.7256,0.0],[-80.2423,25.7281,0.0],[-80.2437,25.7267,0.0],[-80.2455,25.728,0.0],[-80.2456,25.7298,0.0],[-80.2457,25.7316,0.0]]]]}},{"type":"Feature","properties":{"uesi_id":"USA_R1216769","nbhd_code":"USA_R1216769_91","nbhd_name":"Census Tract 73"},"geometry":{"type":"MultiPolygon","coordinates":[[[[-80.2619,25.709,0.0],[-80.261,25.709,0.0],[-80.2611,25.7127,0.0],[-80.2612,25.7141,0.0],[-80.2614,25.7199,0.0],[-80.2615,25.7222,0.0],[-80.2616,25.7236,0.0],[-80.2576,25.7243,0.0],[-80.2534,25.7244,0.0],[-80.2534,25.724,0.0],[-80.2495,25.7249,0.0],[-80.247,25.7248,0.0],[-80.2463,25.7237,0.0],[-80.2442,25.7264,0.0],[-80.2437,25.7267,0.0],[-80.2423,25.7281,0.0],[-80.2392,25.7256,0.0],[-80.2404,25.7242,0.0],[-80.2447,25.7179,0.0],[-80.2491,25.7134,0.0],[-80.2482,25.71,0.0],[-80.2478,25.7095,0.0],[-80.2475,25.7092,0.0],[-80.2484,25.7087,0.0],[-80.2528,25.7086,0.0],[-80.2528,25.7078,0.0],[-80.2609,25.7079,0.0],[-80.2611,25.708,0.0],[-80.2619,25.709,0.0]]]]}},{"type":"Feature","properties":{"uesi_id":"USA_R1216769","nbhd_code":"USA_R1216769_92","nbhd_name":"Census Tract 10.02"},"geometry":{"type":"MultiPolygon","coordinates":[[[[-80.2341,25.8609,0.0],[-80.226,25.8612,0.0],[-80.2259,25.8612,0.0],[-80.2245,25.8613,0.0],[-80.2237,25.8613,0.0],[-80.2211,25.8568,0.0],[-80.2196,25.8556,0.0],[-80.2082,25.8543,0.0],[-80.2081,25.8537,0.0],[-80.2078,25.8476,0.0],[-80.2078,25.8471,0.0],[-80.2097,25.847,0.0],[-80.2132,25.8469,0.0],[-80.2197,25.8467,0.0],[-80.2213,25.8467,0.0],[-80.2254,25.8465,0.0],[-80.2255,25.8502,0.0],[-80.2256,25.8533,0.0],[-80.2256,25.8539,0.0],[-80.2338,25.8537,0.0],[-80.234,25.8573,0.0],[-80.2341,25.8609,0.0]]]]}},{"type":"Feature","properties":{"uesi_id":"USA_R1216769","nbhd_code":"USA_R1216769_93","nbhd_name":"Census Tract 53.03"},"geometry":{"type":"MultiPolygon","coordinates":[[[[-80.2229,25.7731,0.0],[-80.2222,25.7733,0.0],[-80.2197,25.7733,0.0],[-80.218,25.7734,0.0],[-80.2163,25.7735,0.0],[-80.2147,25.7735,0.0],[-80.2146,25.7696,0.0],[-80.2162,25.7695,0.0],[-80.2196,25.7695,0.0],[-80.2227,25.7694,0.0],[-80.2229,25.7731,0.0]]]]}},{"type":"Feature","properties":{"uesi_id":"USA_R1216769","nbhd_code":"USA_R1216769_94","nbhd_name":"Census Tract 57.03"},"geometry":{"type":"MultiPolygon","coordinates":[[[[-80.2884,25.7808,0.0],[-80.2831,25.7796,0.0],[-80.2822,25.7796,0.0],[-80.2781,25.7799,0.0],[-80.2759,25.7819,0.0],[-80.2747,25.7833,0.0],[-80.2718,25.7826,0.0],[-80.2697,25.7828,0.0],[-80.2696,25.7809,0.0],[-80.2695,25.7787,0.0],[-80.2719,25.7787,0.0],[-80.2775,25.7785,0.0],[-80.2822,25.7782,0.0],[-80.2883,25.778,0.0],[-80.2884,25.7808,0.0]]]]}},{"type":"Feature","properties":{"uesi_id":"USA_R1216769","nbhd_code":"USA_R1216769_95","nbhd_name":"Census Tract 67.11"},"geometry":{"type":"MultiPolygon","coordinates":[[[[-80.1912,25.7642,0.0],[-80.1907,25.7662,0.0],[-80.1895,25.7659,0.0],[-80.1882,25.7656,0.0],[-80.1887,25.7638,0.0],[-80.1886,25.7625,0.0],[-80.1897,25.7627,0.0],[-80.1915,25.763,0.0],[-80.1912,25.7642,0.0]]]]}},{"type":"Feature","properties":{"uesi_id":"USA_R1216769","nbhd_code":"USA_R1216769_96","nbhd_name":"Census Tract 52.01"},"geometry":{"type":"MultiPolygon","coordinates":[[[[-80.2229,25.7763,0.0],[-80.2229,25.7781,0.0],[-80.2225,25.78,0.0],[-80.2148,25.7802,0.0],[-80.2147,25.7764,0.0],[-80.2147,25.7735,0.0],[-80.2163,25.7735,0.0],[-80.218,25.7734,0.0],[-80.2197,25.7733,0.0],[-80.2222,25.7733,0.0],[-80.2229,25.7731,0.0],[-80.2229,25.7763,0.0]]]]}},{"type":"Feature","properties":{"uesi_id":"USA_R1216769","nbhd_code":"USA_R1216769_97","nbhd_name":"Census Tract 36.01"},"geometry":{"type":"MultiPolygon","coordinates":[[[[-80.2064,25.7786,0.0],[-80.2068,25.7843,0.0],[-80.2031,25.7845,0.0],[-80.203,25.7815,0.0],[-80.2029,25.7787,0.0],[-80.1961,25.7789,0.0],[-80.196,25.7741,0.0],[-80.1957,25.7688,0.0],[-80.1975,25.7688,0.0],[-80.1995,25.7707,0.0],[-80.1998,25.771,0.0],[-80.2012,25.7742,0.0],[-80.2048,25.7774,0.0],[-80.2069,25.7783,0.0],[-80.2064,25.7786,0.0]]]]}},{"type":"Feature","properties":{"uesi_id":"USA_R1216769","nbhd_code":"USA_R1216769_98","nbhd_name":"Census Tract 10.04"},"geometry":{"type":"MultiPolygon","coordinates":[[[[-80.2417,25.8461,0.0],[-80.2336,25.8463,0.0],[-80.2254,25.8465,0.0],[-80.2213,25.8467,0.0],[-80.2197,25.8467,0.0],[-80.2132,25.8469,0.0],[-80.2097,25.847,0.0],[-80.2078,25.8471,0.0],[-80.2076,25.846,0.0],[-80.2066,25.8434,0.0],[-80.2063,25.8422,0.0],[-80.2062,25.8397,0.0],[-80.2089,25.8397,0.0],[-80.2094,25.8397,0.0],[-80.2172,25.8394,0.0],[-80.2253,25.8391,0.0],[-80.2253,25.8409,0.0],[-80.2293,25.8407,0.0],[-80.2319,25.8407,0.0],[-80.2334,25.8407,0.0],[-80.2416,25.8413,0.0],[-80.2417,25.8461,0.0]]]]}},{"type":"Feature","properties":{"uesi_id":"USA_R1216769","nbhd_code":"USA_R1216769_99","nbhd_name":"Census Tract 15.01"},"geometry":{"type":"MultiPolygon","coordinates":[[[[-80.2253,25.8391,0.0],[-80.2172,25.8394,0.0],[-80.217,25.8357,0.0],[-80.2168,25.832,0.0],[-80.2208,25.8318,0.0],[-80.2229,25.8318,0.0],[-80.2249,25.8317,0.0],[-80.2253,25.8391,0.0]]]]}},{"type":"Feature","properties":{"uesi_id":"USA_R1216769","nbhd_code":"USA_R1216769_100","nbhd_name":"Census Tract 31"},"geometry":{"type":"MultiPolygon","coordinates":[[[[-80.2071,25.7971,0.0],[-80.2056,25.7971,0.0],[-80.205,25.7972,0.0],[-80.2005,25.7977,0.0],[-80.2004,25.7954,0.0],[-80.1989,25.7954,0.0],[-80.1945,25.7956,0.0],[-80.196,25.7893,0.0],[-80.1962,25.7882,0.0],[-80.198,25.7881,0.0],[-80.1987,25.7881,0.0],[-80.1992,25.7881,0.0],[-80.1999,25.7881,0.0],[-80.2069,25.7879,0.0],[-80.207,25.7886,0.0],[-80.207,25.7916,0.0],[-80.207,25.7952,0.0],[-80.2071,25.7971,0.0]]]]}},{"type":"Feature","properties":{"uesi_id":"USA_R1216769","nbhd_code":"USA_R1216769_101","nbhd_name":"Census Tract 45"},"geometry":{"type":"MultiPolygon","coordinates":[[[[-80.1502,25.7651,0.0],[-80.1491,25.7651,0.0],[-80.1395,25.7657,0.0],[-80.1391,25.7662,0.0],[-80.1414,25.7671,0.0],[-80.1445,25.7686,0.0],[-80.1427,25.771,0.0],[-80.1436,25.7739,0.0],[-80.1419,25.7744,0.0],[-80.1406,25.7744,0.0],[-80.1395,25.7726,0.0],[-80.1392,25.7721,0.0],[-80.1383,25.7723,0.0],[-80.136,25.7724,0.0],[-80.1346,25.7724,0.0],[-80.1335,25.7722,0.0],[-80.1325,25.7721,0.0],[-80.1304,25.772,0.0],[-80.1306,25.7712,0.0],[-80.1306,25.7684,0.0],[-80.1307,25.7643,0.0],[-80.1308,25.7642,0.0],[-80.1337,25.7624,0.0],[-80.1339,25.7621,0.0],[-80.1343,25.7614,0.0],[-80.1371,25.7566,0.0],[-80.1396,25.7555,0.0],[-80.1397,25.7555,0.0],[-80.1406,25.7542,0.0],[-80.155,25.7643,0.0],[-80.1502,25.7651,0.0]]]]}},{"type":"Feature","properties":{"uesi_id":"USA_R1216769","nbhd_code":"USA_R1216769_102","nbhd_name":"Census Tract 65.03"},"geometry":{"type":"MultiPolygon","coordinates":[[[[-80.2304,25.7581,0.0],[-80.2263,25.7582,0.0],[-80.2223,25.7582,0.0],[-80.2223,25.7579,0.0],[-80.2221,25.7546,0.0],[-80.222,25.7509,0.0],[-80.2301,25.7506,0.0],[-80.2303,25.7544,0.0],[-80.2304,25.7581,0.0]]]]}},{"type":"Feature","properties":{"uesi_id":"USA_R1216769","nbhd_code":"USA_R1216769_103","nbhd_name":"Census Tract 11.04"},"geometry":{"type":"MultiPolygon","coordinates":[[[[-80.1978,25.8696,0.0],[-80.1937,25.8697,0.0],[-80.1938,25.8729,0.0],[-80.1857,25.8737,0.0],[-80.1855,25.8682,0.0],[-80.1853,25.8638,0.0],[-80.1852,25.8609,0.0],[-80.185,25.8571,0.0],[-80.1849,25.8552,0.0],[-80.1855,25.8552,0.0],[-80.1854,25.854,0.0],[-80.1853,25.8515,0.0],[-80.1873,25.8515,0.0],[-80.1874,25.8515,0.0],[-80.1884,25.8524,0.0],[-80.1888,25.853,0.0],[-80.193,25.8535,0.0],[-80.1951,25.8531,0.0],[-80.1971,25.853,0.0],[-80.1971,25.8531,0.0],[-80.1973,25.8582,0.0],[-80.1973,25.8585,0.0],[-80.1973,25.8604,0.0],[-80.1977,25.8678,0.0],[-80.1978,25.8696,0.0]]]]}},{"type":"Feature","properties":{"uesi_id":"USA_R1216769","nbhd_code":"USA_R1216769_104","nbhd_name":"Census Tract 19.03"},"geometry":{"type":"MultiPolygon","coordinates":[[[[-80.2249,25.8317,0.0],[-80.2229,25.8318,0.0],[-80.2208,25.8318,0.0],[-80.2168,25.832,0.0],[-80.2164,25.8283,0.0],[-80.2162,25.8247,0.0],[-80.2246,25.8244,0.0],[-80.2247,25.8281,0.0],[-80.2249,25.8317,0.0]]]]}},{"type":"Feature","properties":{"uesi_id":"USA_R1216769","nbhd_code":"USA_R1216769_105","nbhd_name":"Census Tract 24.03"},"geometry":{"type":"MultiPolygon","coordinates":[[[[-80.2404,25.8123,0.0],[-80.2361,25.8121,0.0],[-80.2322,25.812,0.0],[-80.2321,25.8112,0.0],[-80.2321,25.8093,0.0],[-80.2319,25.8056,0.0],[-80.2318,25.8019,0.0],[-80.24,25.8017,0.0],[-80.2401,25.8045,0.0],[-80.2401,25.8053,0.0],[-80.2402,25.8086,0.0],[-80.2402,25.8091,0.0],[-80.2402,25.8095,0.0],[-80.2403,25.811,0.0],[-80.2404,25.8123,0.0]]]]}},{"type":"Feature","properties":{"uesi_id":"USA_R1216769","nbhd_code":"USA_R1216769_106","nbhd_name":"Census Tract 30.01"},"geometry":{"type":"MultiPolygon","coordinates":[[[[-80.2152,25.795,0.0],[-80.2131,25.7951,0.0],[-80.207,25.7952,0.0],[-80.207,25.7916,0.0],[-80.207,25.7886,0.0],[-80.2069,25.7879,0.0],[-80.2068,25.7843,0.0],[-80.2064,25.7786,0.0],[-80.2069,25.7783,0.0],[-80.2093,25.7795,0.0],[-80.2099,25.7802,0.0],[-80.212,25.7816,0.0],[-80.2147,25.7826,0.0],[-80.2146,25.784,0.0],[-80.2148,25.7854,0.0],[-80.215,25.786,0.0],[-80.215,25.7876,0.0],[-80.2152,25.795,0.0]]]]}}]}