{"type":"FeatureCollection","name":"USA_R181552","crs":{"type":"name","properties":{"name":"urn:ogc:def:crs:OGC:1.3:CRS84"}},"features":[{"type":"Feature","properties":{"uesi_id":"USA_R181552","nbhd_code":"USA_R181552_1","nbhd_name":"Census Tract 1"},"geometry":{"type":"MultiPolygon","coordinates":[[[[-96.7831,46.8951,0.0],[-96.783,46.8994,0.0],[-96.7829,46.9048,0.0],[-96.7829,46.9137,0.0],[-96.7812,46.9156,0.0],[-96.7822,46.9165,0.0],[-96.7814,46.9168,0.0],[-96.7768,46.9168,0.0],[-96.7768,46.9193,0.0],[-96.7767,46.9264,0.0],[-96.7752,46.9284,0.0],[-96.7752,46.9309,0.0],[-96.7655,46.9339,0.0],[-96.7633,46.9351,0.0],[-96.7618,46.9347,0.0],[-96.7613,46.9322,0.0],[-96.7575,46.9308,0.0],[-96.7569,46.9285,0.0],[-96.7591,46.9278,0.0],[-96.762,46.9293,0.0],[-96.7651,46.9291,0.0],[-96.7653,46.9276,0.0],[-96.7636,46.9264,0.0],[-96.7533,46.9246,0.0],[-96.7538,46.9231,0.0],[-96.757,46.9229,0.0],[-96.7614,46.9244,0.0],[-96.7633,46.9234,0.0],[-96.7618,46.9201,0.0],[-96.7612,46.9197,0.0],[-96.7592,46.9182,0.0],[-96.7534,46.9147,0.0],[-96.7557,46.9138,0.0],[-96.7625,46.9181,0.0],[-96.7629,46.9169,0.0],[-96.7615,46.9144,0.0],[-96.764,46.9125,0.0],[-96.7636,46.9095,0.0],[-96.7645,46.9075,0.0],[-96.7657,46.9051,0.0],[-96.7675,46.9052,0.0],[-96.7705,46.9068,0.0],[-96.7736,46.9036,0.0],[-96.7708,46.9018,0.0],[-96.7707,46.9003,0.0],[-96.7751,46.8995,0.0],[-96.7766,46.8957,0.0],[-96.7749,46.8941,0.0],[-96.7702,46.8937,0.0],[-96.7696,46.892,0.0],[-96.7729,46.89,0.0],[-96.7748,46.8903,0.0],[-96.7801,46.8903,0.0],[-96.7832,46.8903,0.0],[-96.7831,46.8951,0.0]]]]}},{"type":"Feature","properties":{"uesi_id":"USA_R181552","nbhd_code":"USA_R181552_2","nbhd_name":"Census Tract 5.01"},"geometry":{"type":"MultiPolygon","coordinates":[[[[-96.794,46.8826,0.0],[-96.794,46.8832,0.0],[-96.7938,46.8904,0.0],[-96.7908,46.8903,0.0],[-96.7894,46.8904,0.0],[-96.7847,46.8903,0.0],[-96.7832,46.8903,0.0],[-96.7801,46.8903,0.0],[-96.7748,46.8903,0.0],[-96.7729,46.89,0.0],[-96.7736,46.8895,0.0],[-96.7747,46.8889,0.0],[-96.7736,46.8848,0.0],[-96.7719,46.8841,0.0],[-96.7698,46.8848,0.0],[-96.7681,46.8848,0.0],[-96.768,46.8846,0.0],[-96.7674,46.8837,0.0],[-96.7685,46.8796,0.0],[-96.7698,46.8776,0.0],[-96.7713,46.8775,0.0],[-96.772,46.8783,0.0],[-96.7714,46.8798,0.0],[-96.7724,46.8812,0.0],[-96.7756,46.8792,0.0],[-96.7803,46.8802,0.0],[-96.7801,46.8811,0.0],[-96.7847,46.8811,0.0],[-96.7877,46.8811,0.0],[-96.7901,46.8812,0.0],[-96.794,46.8818,0.0],[-96.794,46.8826,0.0]]]]}},{"type":"Feature","properties":{"uesi_id":"USA_R181552","nbhd_code":"USA_R181552_3","nbhd_name":"Census Tract 7"},"geometry":{"type":"MultiPolygon","coordinates":[[[[-96.794,46.8759,0.0],[-96.7929,46.8773,0.0],[-96.7918,46.8805,0.0],[-96.7901,46.8812,0.0],[-96.7877,46.8811,0.0],[-96.7847,46.8811,0.0],[-96.7801,46.8811,0.0],[-96.7803,46.8802,0.0],[-96.7804,46.8802,0.0],[-96.7814,46.8794,0.0],[-96.7804,46.8771,0.0],[-96.7803,46.877,0.0],[-96.7793,46.876,0.0],[-96.7764,46.875,0.0],[-96.7762,46.8739,0.0],[-96.7807,46.8739,0.0],[-96.7821,46.8723,0.0],[-96.7853,46.8721,0.0],[-96.7851,46.8732,0.0],[-96.7942,46.8737,0.0],[-96.794,46.8759,0.0]]]]}},{"type":"Feature","properties":{"uesi_id":"USA_R181552","nbhd_code":"USA_R181552_4","nbhd_name":"Census Tract 8.02"},"geometry":{"type":"MultiPolygon","coordinates":[[[[-96.8195,46.8698,0.0],[-96.809,46.8698,0.0],[-96.8069,46.8698,0.0],[-96.8069,46.874,0.0],[-96.804,46.874,0.0],[-96.7983,46.874,0.0],[-96.7983,46.8697,0.0],[-96.7983,46.8687,0.0],[-96.7984,46.8658,0.0],[-96.7984,46.8616,0.0],[-96.8039,46.8616,0.0],[-96.809,46.8616,0.0],[-96.8091,46.8616,0.0],[-96.8195,46.8615,0.0],[-96.8195,46.8658,0.0],[-96.8195,46.8698,0.0]]]]}},{"type":"Feature","properties":{"uesi_id":"USA_R181552","nbhd_code":"USA_R181552_6","nbhd_name":"Census Tract 2.02"},"geometry":{"type":"MultiPolygon","coordinates":[[[[-96.798,46.9099,0.0],[-96.7979,46.9192,0.0],[-96.7978,46.9337,0.0],[-96.7945,46.9336,0.0],[-96.794,46.9325,0.0],[-96.794,46.9273,0.0],[-96.7924,46.926,0.0],[-96.7885,46.9258,0.0],[-96.7862,46.9242,0.0],[-96.7873,46.9193,0.0],[-96.7874,46.9145,0.0],[-96.7874,46.9099,0.0],[-96.7874,46.9048,0.0],[-96.7911,46.9048,0.0],[-96.7935,46.9048,0.0],[-96.798,46.9048,0.0],[-96.798,46.9099,0.0]]]]}},{"type":"Feature","properties":{"uesi_id":"USA_R181552","nbhd_code":"USA_R181552_7","nbhd_name":"Census Tract 4"},"geometry":{"type":"MultiPolygon","coordinates":[[[[-96.7981,46.8928,0.0],[-96.7981,46.8952,0.0],[-96.7981,46.8976,0.0],[-96.7981,46.8994,0.0],[-96.798,46.9011,0.0],[-96.7936,46.9011,0.0],[-96.792,46.9011,0.0],[-96.7875,46.9012,0.0],[-96.7874,46.9048,0.0],[-96.7829,46.9048,0.0],[-96.783,46.8994,0.0],[-96.7831,46.8951,0.0],[-96.7832,46.8903,0.0],[-96.7847,46.8903,0.0],[-96.7894,46.8904,0.0],[-96.7908,46.8903,0.0],[-96.7938,46.8904,0.0],[-96.7981,46.8903,0.0],[-96.7981,46.8928,0.0]]]]}},{"type":"Feature","properties":{"uesi_id":"USA_R181552","nbhd_code":"USA_R181552_8","nbhd_name":"Census Tract 101.06"},"geometry":{"type":"MultiPolygon","coordinates":[[[[-96.862,46.8618,0.0],[-96.8619,46.8669,0.0],[-96.8567,46.866,0.0],[-96.8509,46.8668,0.0],[-96.8435,46.8664,0.0],[-96.8448,46.8639,0.0],[-96.8422,46.8636,0.0],[-96.8416,46.862,0.0],[-96.8415,46.8616,0.0],[-96.841,46.8554,0.0],[-96.841,46.855,0.0],[-96.8411,46.8473,0.0],[-96.8513,46.8474,0.0],[-96.862,46.8475,0.0],[-96.8621,46.8475,0.0],[-96.862,46.8618,0.0]]]]}},{"type":"Feature","properties":{"uesi_id":"USA_R181552","nbhd_code":"USA_R181552_9","nbhd_name":"Census Tract 6"},"geometry":{"type":"MultiPolygon","coordinates":[[[[-96.8419,46.8682,0.0],[-96.8409,46.8762,0.0],[-96.8396,46.8859,0.0],[-96.8396,46.8905,0.0],[-96.8395,46.8969,0.0],[-96.8217,46.8904,0.0],[-96.8156,46.8904,0.0],[-96.8144,46.8904,0.0],[-96.8137,46.8896,0.0],[-96.8122,46.8892,0.0],[-96.8089,46.8872,0.0],[-96.8028,46.8847,0.0],[-96.8012,46.8847,0.0],[-96.8012,46.8832,0.0],[-96.7982,46.8832,0.0],[-96.797,46.8832,0.0],[-96.797,46.8823,0.0],[-96.794,46.8818,0.0],[-96.7901,46.8812,0.0],[-96.7918,46.8805,0.0],[-96.7929,46.8773,0.0],[-96.794,46.8759,0.0],[-96.7942,46.8737,0.0],[-96.7983,46.874,0.0],[-96.804,46.874,0.0],[-96.8069,46.874,0.0],[-96.8069,46.8698,0.0],[-96.809,46.8698,0.0],[-96.8195,46.8698,0.0],[-96.8195,46.8658,0.0],[-96.8195,46.8615,0.0],[-96.8275,46.8615,0.0],[-96.8361,46.8615,0.0],[-96.8415,46.8616,0.0],[-96.8416,46.862,0.0],[-96.8419,46.8682,0.0]]]]}},{"type":"Feature","properties":{"uesi_id":"USA_R181552","nbhd_code":"USA_R181552_10","nbhd_name":"Census Tract 9.04"},"geometry":{"type":"MultiPolygon","coordinates":[[[[-96.841,46.855,0.0],[-96.841,46.8554,0.0],[-96.8381,46.8543,0.0],[-96.8302,46.8543,0.0],[-96.8218,46.8542,0.0],[-96.8196,46.8542,0.0],[-96.8195,46.8615,0.0],[-96.8091,46.8616,0.0],[-96.809,46.8616,0.0],[-96.8091,46.8556,0.0],[-96.8091,46.8543,0.0],[-96.8091,46.8474,0.0],[-96.8197,46.8472,0.0],[-96.8309,46.8473,0.0],[-96.8411,46.8473,0.0],[-96.841,46.855,0.0]]]]}},{"type":"Feature","properties":{"uesi_id":"USA_R181552","nbhd_code":"USA_R181552_11","nbhd_name":"Census Tract 2.01"},"geometry":{"type":"MultiPolygon","coordinates":[[[[-96.7945,46.9336,0.0],[-96.7916,46.9338,0.0],[-96.7916,46.9312,0.0],[-96.7918,46.9285,0.0],[-96.7905,46.9274,0.0],[-96.7892,46.928,0.0],[-96.7877,46.9302,0.0],[-96.786,46.9302,0.0],[-96.7851,46.9292,0.0],[-96.7858,46.925,0.0],[-96.7838,46.9247,0.0],[-96.7803,46.9283,0.0],[-96.7786,46.9281,0.0],[-96.778,46.9261,0.0],[-96.7767,46.9264,0.0],[-96.7768,46.9193,0.0],[-96.7768,46.9168,0.0],[-96.7814,46.9168,0.0],[-96.7822,46.9165,0.0],[-96.7812,46.9156,0.0],[-96.7829,46.9137,0.0],[-96.7829,46.9048,0.0],[-96.7874,46.9048,0.0],[-96.7874,46.9099,0.0],[-96.7874,46.9145,0.0],[-96.7873,46.9193,0.0],[-96.7862,46.9242,0.0],[-96.7885,46.9258,0.0],[-96.7924,46.926,0.0],[-96.794,46.9273,0.0],[-96.794,46.9325,0.0],[-96.7945,46.9336,0.0]]]]}},{"type":"Feature","properties":{"uesi_id":"USA_R181552","nbhd_code":"USA_R181552_12","nbhd_name":"Census Tract 5.02"},"geometry":{"type":"MultiPolygon","coordinates":[[[[-96.8144,46.8904,0.0],[-96.8011,46.8904,0.0],[-96.7981,46.8903,0.0],[-96.7938,46.8904,0.0],[-96.794,46.8832,0.0],[-96.794,46.8826,0.0],[-96.794,46.8818,0.0],[-96.797,46.8823,0.0],[-96.797,46.8832,0.0],[-96.7982,46.8832,0.0],[-96.8012,46.8832,0.0],[-96.8012,46.8847,0.0],[-96.8028,46.8847,0.0],[-96.8089,46.8872,0.0],[-96.8122,46.8892,0.0],[-96.8137,46.8896,0.0],[-96.8144,46.8904,0.0]]]]}},{"type":"Feature","properties":{"uesi_id":"USA_R181552","nbhd_code":"USA_R181552_13","nbhd_name":"Census Tract 103.05"},"geometry":{"type":"MultiPolygon","coordinates":[[[[-96.8621,46.8475,0.0],[-96.862,46.8475,0.0],[-96.8513,46.8474,0.0],[-96.8411,46.8473,0.0],[-96.8309,46.8473,0.0],[-96.8197,46.8472,0.0],[-96.8197,46.8459,0.0],[-96.82,46.8326,0.0],[-96.8305,46.8327,0.0],[-96.8373,46.8328,0.0],[-96.8403,46.8327,0.0],[-96.8414,46.8327,0.0],[-96.8458,46.8327,0.0],[-96.8621,46.8328,0.0],[-96.862,46.8449,0.0],[-96.8621,46.8475,0.0]]]]}},{"type":"Feature","properties":{"uesi_id":"USA_R181552","nbhd_code":"USA_R181552_15","nbhd_name":"Census Tract 3"},"geometry":{"type":"MultiPolygon","coordinates":[[[[-96.8614,46.9543,0.0],[-96.8614,46.9632,0.0],[-96.8615,46.9771,0.0],[-96.8403,46.977,0.0],[-96.8201,46.9768,0.0],[-96.8201,46.9767,0.0],[-96.8216,46.9725,0.0],[-96.8232,46.9708,0.0],[-96.8219,46.9694,0.0],[-96.8196,46.9675,0.0],[-96.8184,46.967,0.0],[-96.8156,46.967,0.0],[-96.8133,46.9662,0.0],[-96.8125,46.9649,0.0],[-96.8098,46.9639,0.0],[-96.8073,46.9646,0.0],[-96.8065,46.9676,0.0],[-96.8048,46.9673,0.0],[-96.8039,46.9656,0.0],[-96.802,46.9641,0.0],[-96.8013,46.9659,0.0],[-96.8022,46.9675,0.0],[-96.8007,46.9683,0.0],[-96.795,46.9654,0.0],[-96.7981,46.9622,0.0],[-96.7999,46.9592,0.0],[-96.8035,46.9584,0.0],[-96.8031,46.9565,0.0],[-96.7996,46.9543,0.0],[-96.7988,46.953,0.0],[-96.7987,46.9519,0.0],[-96.7986,46.9512,0.0],[-96.7992,46.9493,0.0],[-96.8003,46.9485,0.0],[-96.8008,46.9485,0.0],[-96.8028,46.9486,0.0],[-96.8031,46.9484,0.0],[-96.8047,46.9475,0.0],[-96.8029,46.9463,0.0],[-96.7988,46.9448,0.0],[-96.7981,46.9446,0.0],[-96.7954,46.947,0.0],[-96.7927,46.9468,0.0],[-96.7916,46.9445,0.0],[-96.792,46.9413,0.0],[-96.7922,46.9406,0.0],[-96.7901,46.9377,0.0],[-96.7916,46.9343,0.0],[-96.7916,46.9339,0.0],[-96.7916,46.9338,0.0],[-96.7945,46.9336,0.0],[-96.7978,46.9337,0.0],[-96.7979,46.9192,0.0],[-96.798,46.9099,0.0],[-96.798,46.9048,0.0],[-96.7935,46.9048,0.0],[-96.7911,46.9048,0.0],[-96.7874,46.9048,0.0],[-96.7875,46.9012,0.0],[-96.792,46.9011,0.0],[-96.7936,46.9011,0.0],[-96.798,46.9011,0.0],[-96.7981,46.8994,0.0],[-96.7981,46.8976,0.0],[-96.7981,46.8952,0.0],[-96.7981,46.8928,0.0],[-96.7981,46.8903,0.0],[-96.8011,46.8904,0.0],[-96.8144,46.8904,0.0],[-96.8156,46.8904,0.0],[-96.8217,46.8904,0.0],[-96.8395,46.8969,0.0],[-96.8614,46.9048,0.0],[-96.8614,46.9124,0.0],[-96.8613,46.9197,0.0],[-96.8613,46.9342,0.0],[-96.8616,46.9487,0.0],[-96.8611,46.9489,0.0],[-96.8612,46.9506,0.0],[-96.8612,46.9511,0.0],[-96.8616,46.9514,0.0],[-96.8614,46.9543,0.0]]]]}},{"type":"Feature","properties":{"uesi_id":"USA_R181552","nbhd_code":"USA_R181552_16","nbhd_name":"Census Tract 101.08"},"geometry":{"type":"MultiPolygon","coordinates":[[[[-96.8832,46.8492,0.0],[-96.883,46.8622,0.0],[-96.8724,46.862,0.0],[-96.8724,46.8619,0.0],[-96.862,46.8618,0.0],[-96.8621,46.8475,0.0],[-96.8726,46.8475,0.0],[-96.883,46.8475,0.0],[-96.8832,46.8475,0.0],[-96.8832,46.8492,0.0]]]]}},{"type":"Feature","properties":{"uesi_id":"USA_R181552","nbhd_code":"USA_R181552_17","nbhd_name":"Census Tract 101.07"},"geometry":{"type":"MultiPolygon","coordinates":[[[[-96.8828,46.8975,0.0],[-96.8641,46.9046,0.0],[-96.8627,46.9048,0.0],[-96.8614,46.9048,0.0],[-96.8395,46.8969,0.0],[-96.8396,46.8905,0.0],[-96.8396,46.8859,0.0],[-96.8409,46.8762,0.0],[-96.8419,46.8682,0.0],[-96.8416,46.862,0.0],[-96.8422,46.8636,0.0],[-96.8448,46.8639,0.0],[-96.8435,46.8664,0.0],[-96.8509,46.8668,0.0],[-96.8567,46.866,0.0],[-96.8619,46.8669,0.0],[-96.8618,46.8691,0.0],[-96.8617,46.8735,0.0],[-96.8616,46.8746,0.0],[-96.8616,46.8763,0.0],[-96.8828,46.8766,0.0],[-96.8828,46.8806,0.0],[-96.8829,46.8907,0.0],[-96.8828,46.8975,0.0]]]]}},{"type":"Feature","properties":{"uesi_id":"USA_R181552","nbhd_code":"USA_R181552_18","nbhd_name":"Census Tract 10.02"},"geometry":{"type":"MultiPolygon","coordinates":[[[[-96.8051,46.8434,0.0],[-96.7995,46.8435,0.0],[-96.7988,46.8436,0.0],[-96.7988,46.8485,0.0],[-96.7985,46.8485,0.0],[-96.7938,46.8489,0.0],[-96.788,46.8485,0.0],[-96.7807,46.8476,0.0],[-96.7813,46.8473,0.0],[-96.7817,46.8457,0.0],[-96.7793,46.8437,0.0],[-96.7768,46.8422,0.0],[-96.7751,46.8404,0.0],[-96.7754,46.8389,0.0],[-96.7786,46.8392,0.0],[-96.782,46.841,0.0],[-96.7872,46.8411,0.0],[-96.7876,46.8399,0.0],[-96.7868,46.8388,0.0],[-96.7828,46.8371,0.0],[-96.7831,46.8364,0.0],[-96.7852,46.8331,0.0],[-96.7872,46.8326,0.0],[-96.7932,46.8344,0.0],[-96.7939,46.8331,0.0],[-96.7965,46.8327,0.0],[-96.7994,46.8328,0.0],[-96.7991,46.8334,0.0],[-96.7989,46.8391,0.0],[-96.804,46.8391,0.0],[-96.805,46.8388,0.0],[-96.8052,46.8392,0.0],[-96.8051,46.8434,0.0]]]]}},{"type":"Feature","properties":{"uesi_id":"USA_R181552","nbhd_code":"USA_R181552_19","nbhd_name":"Census Tract 8.01"},"geometry":{"type":"MultiPolygon","coordinates":[[[[-96.7984,46.8658,0.0],[-96.7983,46.8687,0.0],[-96.7983,46.8697,0.0],[-96.7983,46.874,0.0],[-96.7942,46.8737,0.0],[-96.7851,46.8732,0.0],[-96.7853,46.8721,0.0],[-96.7821,46.8723,0.0],[-96.7807,46.8739,0.0],[-96.7762,46.8739,0.0],[-96.7793,46.8727,0.0],[-96.782,46.8708,0.0],[-96.7809,46.8694,0.0],[-96.7803,46.8687,0.0],[-96.7807,46.8672,0.0],[-96.7808,46.8672,0.0],[-96.7829,46.8646,0.0],[-96.7839,46.8633,0.0],[-96.784,46.8617,0.0],[-96.7847,46.8616,0.0],[-96.7889,46.8616,0.0],[-96.7904,46.8616,0.0],[-96.795,46.8616,0.0],[-96.7984,46.8616,0.0],[-96.7984,46.8658,0.0]]]]}},{"type":"Feature","properties":{"uesi_id":"USA_R181552","nbhd_code":"USA_R181552_20","nbhd_name":"Census Tract 9.01"},"geometry":{"type":"MultiPolygon","coordinates":[[[[-96.8091,46.8543,0.0],[-96.8091,46.8556,0.0],[-96.809,46.8616,0.0],[-96.8039,46.8616,0.0],[-96.7984,46.8616,0.0],[-96.795,46.8616,0.0],[-96.7904,46.8616,0.0],[-96.7889,46.8616,0.0],[-96.7847,46.8616,0.0],[-96.784,46.8617,0.0],[-96.78,46.8591,0.0],[-96.7793,46.8586,0.0],[-96.7773,46.8573,0.0],[-96.7761,46.8545,0.0],[-96.7781,46.854,0.0],[-96.7839,46.8558,0.0],[-96.7855,46.8549,0.0],[-96.7842,46.852,0.0],[-96.7814,46.8512,0.0],[-96.777,46.8525,0.0],[-96.7747,46.8524,0.0],[-96.7735,46.8517,0.0],[-96.7739,46.85,0.0],[-96.779,46.8487,0.0],[-96.7807,46.8476,0.0],[-96.788,46.8485,0.0],[-96.7938,46.8489,0.0],[-96.7985,46.8485,0.0],[-96.7988,46.8485,0.0],[-96.8029,46.848,0.0],[-96.8091,46.8474,0.0],[-96.8091,46.8543,0.0]]]]}},{"type":"Feature","properties":{"uesi_id":"USA_R181552","nbhd_code":"USA_R181552_21","nbhd_name":"Census Tract 9.03"},"geometry":{"type":"MultiPolygon","coordinates":[[[[-96.8415,46.8616,0.0],[-96.8361,46.8615,0.0],[-96.8275,46.8615,0.0],[-96.8195,46.8615,0.0],[-96.8196,46.8542,0.0],[-96.8218,46.8542,0.0],[-96.8302,46.8543,0.0],[-96.8381,46.8543,0.0],[-96.841,46.8554,0.0],[-96.8415,46.8616,0.0]]]]}},{"type":"Feature","properties":{"uesi_id":"USA_R181552","nbhd_code":"USA_R181552_22","nbhd_name":"Census Tract 10.01"},"geometry":{"type":"MultiPolygon","coordinates":[[[[-96.8197,46.8459,0.0],[-96.8197,46.8472,0.0],[-96.8091,46.8474,0.0],[-96.8029,46.848,0.0],[-96.7988,46.8485,0.0],[-96.7988,46.8436,0.0],[-96.7995,46.8435,0.0],[-96.8051,46.8434,0.0],[-96.8052,46.8392,0.0],[-96.805,46.8388,0.0],[-96.804,46.8391,0.0],[-96.7989,46.8391,0.0],[-96.7991,46.8334,0.0],[-96.7994,46.8328,0.0],[-96.8091,46.8327,0.0],[-96.8105,46.8327,0.0],[-96.8154,46.8326,0.0],[-96.82,46.8326,0.0],[-96.8197,46.8459,0.0]]]]}},{"type":"Feature","properties":{"uesi_id":"USA_R181552","nbhd_code":"USA_R181552_23","nbhd_name":"Census Tract 101.09"},"geometry":{"type":"MultiPolygon","coordinates":[[[[-96.8829,46.8663,0.0],[-96.8828,46.8726,0.0],[-96.8828,46.8766,0.0],[-96.8616,46.8763,0.0],[-96.8616,46.8746,0.0],[-96.8617,46.8735,0.0],[-96.8618,46.8691,0.0],[-96.8619,46.8669,0.0],[-96.862,46.8618,0.0],[-96.8724,46.8619,0.0],[-96.8724,46.862,0.0],[-96.883,46.8622,0.0],[-96.8829,46.8663,0.0]]]]}},{"type":"Feature","properties":{"uesi_id":"USA_R181552","nbhd_code":"USA_R181552_24","nbhd_name":"Census Tract 103.03"},"geometry":{"type":"MultiPolygon","coordinates":[[[[-96.8403,46.8327,0.0],[-96.8373,46.8328,0.0],[-96.8305,46.8327,0.0],[-96.82,46.8326,0.0],[-96.8197,46.8276,0.0],[-96.8196,46.8243,0.0],[-96.8195,46.8225,0.0],[-96.8193,46.818,0.0],[-96.8186,46.8035,0.0],[-96.824,46.8034,0.0],[-96.8252,46.8035,0.0],[-96.8289,46.8038,0.0],[-96.8338,46.8041,0.0],[-96.839,46.804,0.0],[-96.8397,46.8184,0.0],[-96.8398,46.8214,0.0],[-96.84,46.8261,0.0],[-96.8403,46.8327,0.0]]]]}},{"type":"Feature","properties":{"uesi_id":"USA_R181552","nbhd_code":"USA_R181552_25","nbhd_name":"Census Tract 103.06"},"geometry":{"type":"MultiPolygon","coordinates":[[[[-96.82,46.8326,0.0],[-96.8154,46.8326,0.0],[-96.8105,46.8327,0.0],[-96.8091,46.8327,0.0],[-96.7994,46.8328,0.0],[-96.7965,46.8327,0.0],[-96.7939,46.8331,0.0],[-96.7869,46.8303,0.0],[-96.7829,46.828,0.0],[-96.7803,46.8258,0.0],[-96.7814,46.8247,0.0],[-96.7839,46.8263,0.0],[-96.7894,46.8274,0.0],[-96.7916,46.8279,0.0],[-96.793,46.8258,0.0],[-96.7926,46.8233,0.0],[-96.798,46.8224,0.0],[-96.8037,46.8217,0.0],[-96.8035,46.824,0.0],[-96.8088,46.824,0.0],[-96.8122,46.8239,0.0],[-96.8142,46.8226,0.0],[-96.8195,46.8225,0.0],[-96.8196,46.8243,0.0],[-96.8197,46.8276,0.0],[-96.82,46.8326,0.0]]]]}},{"type":"Feature","properties":{"uesi_id":"USA_R181552","nbhd_code":"USA_R181552_26","nbhd_name":"Census Tract 103.07"},"geometry":{"type":"MultiPolygon","coordinates":[[[[-96.8195,46.8225,0.0],[-96.8142,46.8226,0.0],[-96.8122,46.8239,0.0],[-96.8088,46.824,0.0],[-96.8035,46.824,0.0],[-96.8037,46.8217,0.0],[-96.798,46.8224,0.0],[-96.8002,46.8197,0.0],[-96.7999,46.8182,0.0],[-96.7993,46.8154,0.0],[-96.8004,46.8135,0.0],[-96.802,46.8125,0.0],[-96.8025,46.8115,0.0],[-96.8014,46.8104,0.0],[-96.7965,46.8087,0.0],[-96.7958,46.8078,0.0],[-96.7968,46.8065,0.0],[-96.8021,46.8059,0.0],[-96.8031,46.8051,0.0],[-96.8017,46.8043,0.0],[-96.7978,46.8045,0.0],[-96.7964,46.8035,0.0],[-96.7999,46.803,0.0],[-96.8047,46.8034,0.0],[-96.8186,46.8035,0.0],[-96.8193,46.818,0.0],[-96.8195,46.8225,0.0]]]]}}]}