{"type":"FeatureCollection","name":"USA_R170726","crs":{"type":"name","properties":{"name":"urn:ogc:def:crs:OGC:1.3:CRS84"}},"features":[{"type":"Feature","properties":{"uesi_id":"USA_R170726","nbhd_code":"USA_R170726_1","nbhd_name":"Census Tract 1802.02"},"geometry":{"type":"MultiPolygon","coordinates":[[[[-74.1921,40.9199,0.0],[-74.1892,40.9217,0.0],[-74.1871,40.9232,0.0],[-74.1839,40.9204,0.0],[-74.1828,40.9194,0.0],[-74.1826,40.9186,0.0],[-74.1825,40.917,0.0],[-74.182,40.9167,0.0],[-74.1819,40.9151,0.0],[-74.1827,40.9135,0.0],[-74.1838,40.9122,0.0],[-74.1849,40.9135,0.0],[-74.1901,40.9181,0.0],[-74.1921,40.9199,0.0]]]]}},{"type":"Feature","properties":{"uesi_id":"USA_R170726","nbhd_code":"USA_R170726_2","nbhd_name":"Census Tract 1811"},"geometry":{"type":"MultiPolygon","coordinates":[[[[-74.155,40.9301,0.0],[-74.1547,40.9312,0.0],[-74.1541,40.933,0.0],[-74.1536,40.9347,0.0],[-74.1508,40.9343,0.0],[-74.1499,40.9341,0.0],[-74.148,40.9337,0.0],[-74.1486,40.932,0.0],[-74.1467,40.9317,0.0],[-74.1449,40.9313,0.0],[-74.1444,40.9331,0.0],[-74.1401,40.9322,0.0],[-74.1424,40.9296,0.0],[-74.1419,40.9263,0.0],[-74.1415,40.9257,0.0],[-74.1437,40.926,0.0],[-74.1446,40.9261,0.0],[-74.1474,40.9264,0.0],[-74.1484,40.9265,0.0],[-74.1512,40.9268,0.0],[-74.1531,40.9271,0.0],[-74.1528,40.9278,0.0],[-74.1555,40.9287,0.0],[-74.155,40.9301,0.0]]]]}},{"type":"Feature","properties":{"uesi_id":"USA_R170726","nbhd_code":"USA_R170726_3","nbhd_name":"Census Tract 1813"},"geometry":{"type":"MultiPolygon","coordinates":[[[[-74.1556,40.9184,0.0],[-74.1549,40.9205,0.0],[-74.1548,40.9208,0.0],[-74.1552,40.921,0.0],[-74.1553,40.9226,0.0],[-74.1545,40.9226,0.0],[-74.1526,40.9224,0.0],[-74.1497,40.922,0.0],[-74.1488,40.9219,0.0],[-74.146,40.9216,0.0],[-74.1466,40.9183,0.0],[-74.147,40.9165,0.0],[-74.1498,40.9168,0.0],[-74.1526,40.9172,0.0],[-74.1527,40.9165,0.0],[-74.1561,40.917,0.0],[-74.1556,40.9184,0.0]]]]}},{"type":"Feature","properties":{"uesi_id":"USA_R170726","nbhd_code":"USA_R170726_4","nbhd_name":"Census Tract 1817.02"},"geometry":{"type":"MultiPolygon","coordinates":[[[[-74.1664,40.9188,0.0],[-74.1619,40.9186,0.0],[-74.1621,40.9153,0.0],[-74.1622,40.914,0.0],[-74.1636,40.9144,0.0],[-74.1636,40.9127,0.0],[-74.1654,40.9127,0.0],[-74.1663,40.9127,0.0],[-74.1663,40.9155,0.0],[-74.1664,40.9188,0.0]]]]}},{"type":"Feature","properties":{"uesi_id":"USA_R170726","nbhd_code":"USA_R170726_5","nbhd_name":"Census Tract 1820"},"geometry":{"type":"MultiPolygon","coordinates":[[[[-74.1834,40.909,0.0],[-74.1824,40.9098,0.0],[-74.1801,40.9097,0.0],[-74.1774,40.9107,0.0],[-74.1726,40.9124,0.0],[-74.171,40.9087,0.0],[-74.1708,40.9077,0.0],[-74.1735,40.9082,0.0],[-74.1773,40.9087,0.0],[-74.1818,40.9087,0.0],[-74.1838,40.9082,0.0],[-74.1834,40.909,0.0]]]]}},{"type":"Feature","properties":{"uesi_id":"USA_R170726","nbhd_code":"USA_R170726_6","nbhd_name":"Census Tract 1824"},"geometry":{"type":"MultiPolygon","coordinates":[[[[-74.1537,40.9118,0.0],[-74.1534,40.9132,0.0],[-74.1531,40.9146,0.0],[-74.1527,40.9165,0.0],[-74.1526,40.9172,0.0],[-74.1498,40.9168,0.0],[-74.147,40.9165,0.0],[-74.1475,40.914,0.0],[-74.1447,40.9136,0.0],[-74.145,40.9122,0.0],[-74.1453,40.9108,0.0],[-74.1461,40.9072,0.0],[-74.1469,40.9054,0.0],[-74.149,40.907,0.0],[-74.1498,40.9076,0.0],[-74.1558,40.9121,0.0],[-74.1537,40.9118,0.0]]]]}},{"type":"Feature","properties":{"uesi_id":"USA_R170726","nbhd_code":"USA_R170726_7","nbhd_name":"Census Tract 1826"},"geometry":{"type":"MultiPolygon","coordinates":[[[[-74.1461,40.9072,0.0],[-74.1453,40.9108,0.0],[-74.145,40.9122,0.0],[-74.1447,40.9136,0.0],[-74.1404,40.9131,0.0],[-74.1382,40.9129,0.0],[-74.1385,40.9115,0.0],[-74.1336,40.9109,0.0],[-74.133,40.9109,0.0],[-74.1316,40.9057,0.0],[-74.1323,40.9041,0.0],[-74.1334,40.9024,0.0],[-74.1334,40.8981,0.0],[-74.1328,40.8971,0.0],[-74.1286,40.8946,0.0],[-74.1285,40.8941,0.0],[-74.1295,40.8941,0.0],[-74.1397,40.8923,0.0],[-74.1396,40.8925,0.0],[-74.1401,40.8954,0.0],[-74.141,40.9004,0.0],[-74.1411,40.9016,0.0],[-74.143,40.9028,0.0],[-74.1437,40.9031,0.0],[-74.1469,40.9054,0.0],[-74.1461,40.9072,0.0]]]]}},{"type":"Feature","properties":{"uesi_id":"USA_R170726","nbhd_code":"USA_R170726_8","nbhd_name":"Census Tract 1821"},"geometry":{"type":"MultiPolygon","coordinates":[[[[-74.1818,40.9087,0.0],[-74.1773,40.9087,0.0],[-74.1735,40.9082,0.0],[-74.1718,40.9063,0.0],[-74.1708,40.899,0.0],[-74.1688,40.9007,0.0],[-74.167,40.9027,0.0],[-74.1647,40.9003,0.0],[-74.1642,40.8997,0.0],[-74.1621,40.9008,0.0],[-74.1611,40.8996,0.0],[-74.16,40.8984,0.0],[-74.1619,40.8973,0.0],[-74.1627,40.8968,0.0],[-74.1654,40.8941,0.0],[-74.1657,40.8943,0.0],[-74.1699,40.8968,0.0],[-74.1745,40.8995,0.0],[-74.1742,40.9012,0.0],[-74.1812,40.9034,0.0],[-74.1801,40.9053,0.0],[-74.1801,40.9069,0.0],[-74.1804,40.9071,0.0],[-74.1838,40.9082,0.0],[-74.1818,40.9087,0.0]]]]}},{"type":"Feature","properties":{"uesi_id":"USA_R170726","nbhd_code":"USA_R170726_9","nbhd_name":"Census Tract 1828"},"geometry":{"type":"MultiPolygon","coordinates":[[[[-74.1664,40.9077,0.0],[-74.1637,40.9076,0.0],[-74.1636,40.909,0.0],[-74.1636,40.9103,0.0],[-74.1584,40.9102,0.0],[-74.1564,40.9099,0.0],[-74.1569,40.9085,0.0],[-74.158,40.9048,0.0],[-74.1584,40.9036,0.0],[-74.1595,40.9006,0.0],[-74.1602,40.9001,0.0],[-74.1611,40.8996,0.0],[-74.1621,40.9008,0.0],[-74.1664,40.9054,0.0],[-74.1664,40.9077,0.0]]]]}},{"type":"Feature","properties":{"uesi_id":"USA_R170726","nbhd_code":"USA_R170726_10","nbhd_name":"Census Tract 1831.01"},"geometry":{"type":"MultiPolygon","coordinates":[[[[-74.1503,40.8914,0.0],[-74.1451,40.8924,0.0],[-74.1457,40.8943,0.0],[-74.1463,40.8963,0.0],[-74.1472,40.8993,0.0],[-74.1477,40.9006,0.0],[-74.1486,40.9035,0.0],[-74.143,40.9028,0.0],[-74.1411,40.9016,0.0],[-74.141,40.9004,0.0],[-74.1401,40.8954,0.0],[-74.1396,40.8925,0.0],[-74.1397,40.8923,0.0],[-74.1496,40.8905,0.0],[-74.1503,40.8914,0.0]]]]}},{"type":"Feature","properties":{"uesi_id":"USA_R170726","nbhd_code":"USA_R170726_11","nbhd_name":"Census Tract 1808"},"geometry":{"type":"MultiPolygon","coordinates":[[[[-74.1669,40.934,0.0],[-74.1656,40.9358,0.0],[-74.1615,40.9375,0.0],[-74.1624,40.9343,0.0],[-74.1618,40.9291,0.0],[-74.1586,40.9289,0.0],[-74.1555,40.9287,0.0],[-74.1528,40.9278,0.0],[-74.1531,40.9271,0.0],[-74.1536,40.9253,0.0],[-74.1553,40.9254,0.0],[-74.1587,40.9255,0.0],[-74.1655,40.9257,0.0],[-74.166,40.9263,0.0],[-74.1653,40.9298,0.0],[-74.1668,40.9314,0.0],[-74.1676,40.9323,0.0],[-74.1669,40.934,0.0]]]]}},{"type":"Feature","properties":{"uesi_id":"USA_R170726","nbhd_code":"USA_R170726_12","nbhd_name":"Census Tract 1819"},"geometry":{"type":"MultiPolygon","coordinates":[[[[-74.195,40.9105,0.0],[-74.1943,40.9116,0.0],[-74.1879,40.9125,0.0],[-74.1854,40.912,0.0],[-74.1838,40.9122,0.0],[-74.1827,40.9135,0.0],[-74.1819,40.9151,0.0],[-74.1804,40.9147,0.0],[-74.1793,40.9137,0.0],[-74.1774,40.9107,0.0],[-74.1801,40.9097,0.0],[-74.1824,40.9098,0.0],[-74.1834,40.909,0.0],[-74.1838,40.9082,0.0],[-74.1804,40.9071,0.0],[-74.1801,40.9069,0.0],[-74.1801,40.9053,0.0],[-74.1812,40.9034,0.0],[-74.1889,40.9056,0.0],[-74.1919,40.9065,0.0],[-74.1941,40.9071,0.0],[-74.1947,40.9073,0.0],[-74.1955,40.9076,0.0],[-74.195,40.9105,0.0]]]]}},{"type":"Feature","properties":{"uesi_id":"USA_R170726","nbhd_code":"USA_R170726_13","nbhd_name":"Census Tract 1832"},"geometry":{"type":"MultiPolygon","coordinates":[[[[-74.1756,40.9191,0.0],[-74.1742,40.9202,0.0],[-74.1753,40.9213,0.0],[-74.1727,40.9222,0.0],[-74.1701,40.9233,0.0],[-74.1695,40.9238,0.0],[-74.166,40.9263,0.0],[-74.1655,40.9257,0.0],[-74.1655,40.9234,0.0],[-74.166,40.9223,0.0],[-74.1664,40.9188,0.0],[-74.1663,40.9155,0.0],[-74.1663,40.9127,0.0],[-74.1673,40.9128,0.0],[-74.1679,40.9131,0.0],[-74.1726,40.9124,0.0],[-74.1733,40.9139,0.0],[-74.1732,40.9163,0.0],[-74.1747,40.9175,0.0],[-74.1756,40.9191,0.0]]]]}},{"type":"Feature","properties":{"uesi_id":"USA_R170726","nbhd_code":"USA_R170726_14","nbhd_name":"Census Tract 1807"},"geometry":{"type":"MultiPolygon","coordinates":[[[[-74.1726,40.9299,0.0],[-74.1701,40.9319,0.0],[-74.1692,40.9325,0.0],[-74.1685,40.9313,0.0],[-74.1668,40.9314,0.0],[-74.1653,40.9298,0.0],[-74.166,40.9263,0.0],[-74.1695,40.9238,0.0],[-74.1701,40.9233,0.0],[-74.1714,40.9245,0.0],[-74.1694,40.9272,0.0],[-74.1708,40.9281,0.0],[-74.1719,40.9292,0.0],[-74.1725,40.9298,0.0],[-74.1726,40.9299,0.0]]]]}},{"type":"Feature","properties":{"uesi_id":"USA_R170726","nbhd_code":"USA_R170726_15","nbhd_name":"Census Tract 1827"},"geometry":{"type":"MultiPolygon","coordinates":[[[[-74.1569,40.9085,0.0],[-74.1564,40.9099,0.0],[-74.1558,40.9121,0.0],[-74.1498,40.9076,0.0],[-74.149,40.907,0.0],[-74.1469,40.9054,0.0],[-74.1437,40.9031,0.0],[-74.143,40.9028,0.0],[-74.1486,40.9035,0.0],[-74.1506,40.9037,0.0],[-74.1543,40.9042,0.0],[-74.158,40.9048,0.0],[-74.1569,40.9085,0.0]]]]}},{"type":"Feature","properties":{"uesi_id":"USA_R170726","nbhd_code":"USA_R170726_16","nbhd_name":"Census Tract 1822"},"geometry":{"type":"MultiPolygon","coordinates":[[[[-74.1726,40.9124,0.0],[-74.1679,40.9131,0.0],[-74.1673,40.9128,0.0],[-74.1663,40.9127,0.0],[-74.1654,40.9127,0.0],[-74.1636,40.9127,0.0],[-74.1636,40.9103,0.0],[-74.1636,40.909,0.0],[-74.1637,40.9076,0.0],[-74.1664,40.9077,0.0],[-74.1705,40.9072,0.0],[-74.1708,40.9077,0.0],[-74.171,40.9087,0.0],[-74.1726,40.9124,0.0]]]]}},{"type":"Feature","properties":{"uesi_id":"USA_R170726","nbhd_code":"USA_R170726_17","nbhd_name":"Census Tract 1812"},"geometry":{"type":"MultiPolygon","coordinates":[[[[-74.1553,40.9254,0.0],[-74.1536,40.9253,0.0],[-74.1531,40.9271,0.0],[-74.1512,40.9268,0.0],[-74.1484,40.9265,0.0],[-74.1474,40.9264,0.0],[-74.1446,40.9261,0.0],[-74.1454,40.9235,0.0],[-74.146,40.9216,0.0],[-74.1488,40.9219,0.0],[-74.1497,40.922,0.0],[-74.1526,40.9224,0.0],[-74.1545,40.9226,0.0],[-74.1553,40.9226,0.0],[-74.1553,40.9254,0.0]]]]}},{"type":"Feature","properties":{"uesi_id":"USA_R170726","nbhd_code":"USA_R170726_18","nbhd_name":"Census Tract 1825"},"geometry":{"type":"MultiPolygon","coordinates":[[[[-74.147,40.9165,0.0],[-74.1466,40.9183,0.0],[-74.146,40.9216,0.0],[-74.1454,40.9235,0.0],[-74.1446,40.9261,0.0],[-74.1437,40.926,0.0],[-74.1415,40.9257,0.0],[-74.1403,40.924,0.0],[-74.1389,40.9232,0.0],[-74.1341,40.923,0.0],[-74.1323,40.9224,0.0],[-74.1294,40.9202,0.0],[-74.1302,40.9182,0.0],[-74.1303,40.9181,0.0],[-74.1312,40.9163,0.0],[-74.132,40.9154,0.0],[-74.1335,40.9129,0.0],[-74.133,40.9109,0.0],[-74.1336,40.9109,0.0],[-74.1385,40.9115,0.0],[-74.1382,40.9129,0.0],[-74.1404,40.9131,0.0],[-74.1447,40.9136,0.0],[-74.1475,40.914,0.0],[-74.147,40.9165,0.0]]]]}},{"type":"Feature","properties":{"uesi_id":"USA_R170726","nbhd_code":"USA_R170726_19","nbhd_name":"Census Tract 1801"},"geometry":{"type":"MultiPolygon","coordinates":[[[[-74.2061,40.917,0.0],[-74.2016,40.9217,0.0],[-74.1986,40.9249,0.0],[-74.198,40.9248,0.0],[-74.1941,40.9218,0.0],[-74.1921,40.9199,0.0],[-74.1901,40.9181,0.0],[-74.1849,40.9135,0.0],[-74.1838,40.9122,0.0],[-74.1854,40.912,0.0],[-74.1879,40.9125,0.0],[-74.1943,40.9116,0.0],[-74.195,40.9105,0.0],[-74.1955,40.9076,0.0],[-74.1957,40.9076,0.0],[-74.1977,40.9094,0.0],[-74.2002,40.9117,0.0],[-74.2042,40.9152,0.0],[-74.2061,40.917,0.0]]]]}},{"type":"Feature","properties":{"uesi_id":"USA_R170726","nbhd_code":"USA_R170726_20","nbhd_name":"Census Tract 1810"},"geometry":{"type":"MultiPolygon","coordinates":[[[[-74.157,40.9374,0.0],[-74.1552,40.9375,0.0],[-74.1539,40.938,0.0],[-74.1496,40.9414,0.0],[-74.1481,40.9416,0.0],[-74.1448,40.9413,0.0],[-74.1438,40.9406,0.0],[-74.1405,40.936,0.0],[-74.1396,40.9339,0.0],[-74.1398,40.9326,0.0],[-74.1401,40.9322,0.0],[-74.1444,40.9331,0.0],[-74.1449,40.9313,0.0],[-74.1467,40.9317,0.0],[-74.1486,40.932,0.0],[-74.148,40.9337,0.0],[-74.1499,40.9341,0.0],[-74.1508,40.9343,0.0],[-74.1536,40.9347,0.0],[-74.1531,40.9365,0.0],[-74.1574,40.937,0.0],[-74.157,40.9374,0.0]]]]}},{"type":"Feature","properties":{"uesi_id":"USA_R170726","nbhd_code":"USA_R170726_21","nbhd_name":"Census Tract 1815"},"geometry":{"type":"MultiPolygon","coordinates":[[[[-74.166,40.9223,0.0],[-74.1655,40.9234,0.0],[-74.1655,40.9257,0.0],[-74.1587,40.9255,0.0],[-74.1589,40.9227,0.0],[-74.1616,40.9222,0.0],[-74.1617,40.9208,0.0],[-74.1619,40.9186,0.0],[-74.1664,40.9188,0.0],[-74.166,40.9223,0.0]]]]}},{"type":"Feature","properties":{"uesi_id":"USA_R170726","nbhd_code":"USA_R170726_22","nbhd_name":"Census Tract 1823.01"},"geometry":{"type":"MultiPolygon","coordinates":[[[[-74.1636,40.9127,0.0],[-74.1636,40.9144,0.0],[-74.1622,40.914,0.0],[-74.159,40.9131,0.0],[-74.1558,40.9121,0.0],[-74.1564,40.9099,0.0],[-74.1584,40.9102,0.0],[-74.1636,40.9103,0.0],[-74.1636,40.9127,0.0]]]]}},{"type":"Feature","properties":{"uesi_id":"USA_R170726","nbhd_code":"USA_R170726_23","nbhd_name":"Census Tract 1830"},"geometry":{"type":"MultiPolygon","coordinates":[[[[-74.1627,40.8968,0.0],[-74.1619,40.8973,0.0],[-74.16,40.8984,0.0],[-74.1611,40.8996,0.0],[-74.1602,40.9001,0.0],[-74.1562,40.8979,0.0],[-74.1548,40.8966,0.0],[-74.1535,40.895,0.0],[-74.1527,40.8941,0.0],[-74.1503,40.8914,0.0],[-74.1496,40.8905,0.0],[-74.1545,40.8896,0.0],[-74.1597,40.8887,0.0],[-74.1605,40.8908,0.0],[-74.1617,40.8919,0.0],[-74.1654,40.8941,0.0],[-74.1627,40.8968,0.0]]]]}},{"type":"Feature","properties":{"uesi_id":"USA_R170726","nbhd_code":"USA_R170726_24","nbhd_name":"Census Tract 1831.02"},"geometry":{"type":"MultiPolygon","coordinates":[[[[-74.1595,40.9006,0.0],[-74.1584,40.9036,0.0],[-74.158,40.9048,0.0],[-74.1543,40.9042,0.0],[-74.1506,40.9037,0.0],[-74.1486,40.9035,0.0],[-74.1477,40.9006,0.0],[-74.1472,40.8993,0.0],[-74.1463,40.8963,0.0],[-74.1457,40.8943,0.0],[-74.1451,40.8924,0.0],[-74.1503,40.8914,0.0],[-74.1527,40.8941,0.0],[-74.1535,40.895,0.0],[-74.1548,40.8966,0.0],[-74.1562,40.8979,0.0],[-74.1602,40.9001,0.0],[-74.1595,40.9006,0.0]]]]}},{"type":"Feature","properties":{"uesi_id":"USA_R170726","nbhd_code":"USA_R170726_25","nbhd_name":"Census Tract 1803"},"geometry":{"type":"MultiPolygon","coordinates":[[[[-74.1933,40.9305,0.0],[-74.1918,40.9314,0.0],[-74.1917,40.9314,0.0],[-74.187,40.9274,0.0],[-74.1844,40.9265,0.0],[-74.1829,40.928,0.0],[-74.1818,40.9292,0.0],[-74.18,40.9277,0.0],[-74.1795,40.9261,0.0],[-74.1782,40.925,0.0],[-74.1772,40.9242,0.0],[-74.1777,40.9235,0.0],[-74.178,40.9226,0.0],[-74.18,40.9212,0.0],[-74.1828,40.9194,0.0],[-74.1839,40.9204,0.0],[-74.1871,40.9232,0.0],[-74.1892,40.9251,0.0],[-74.1889,40.9258,0.0],[-74.1933,40.9296,0.0],[-74.1933,40.9305,0.0]]]]}},{"type":"Feature","properties":{"uesi_id":"USA_R170726","nbhd_code":"USA_R170726_26","nbhd_name":"Census Tract 1818"},"geometry":{"type":"MultiPolygon","coordinates":[[[[-74.182,40.9167,0.0],[-74.1812,40.9155,0.0],[-74.1753,40.9213,0.0],[-74.1742,40.9202,0.0],[-74.1756,40.9191,0.0],[-74.1747,40.9175,0.0],[-74.1732,40.9163,0.0],[-74.1733,40.9139,0.0],[-74.1726,40.9124,0.0],[-74.1774,40.9107,0.0],[-74.1793,40.9137,0.0],[-74.1804,40.9147,0.0],[-74.1819,40.9151,0.0],[-74.182,40.9167,0.0]]]]}},{"type":"Feature","properties":{"uesi_id":"USA_R170726","nbhd_code":"USA_R170726_27","nbhd_name":"Census Tract 2642"},"geometry":{"type":"MultiPolygon","coordinates":[[[[-74.1828,40.9194,0.0],[-74.18,40.9212,0.0],[-74.178,40.9226,0.0],[-74.1777,40.9235,0.0],[-74.1772,40.9242,0.0],[-74.1782,40.925,0.0],[-74.1766,40.9261,0.0],[-74.1719,40.9292,0.0],[-74.1708,40.9281,0.0],[-74.1694,40.9272,0.0],[-74.1714,40.9245,0.0],[-74.1701,40.9233,0.0],[-74.1727,40.9222,0.0],[-74.1753,40.9213,0.0],[-74.1812,40.9155,0.0],[-74.182,40.9167,0.0],[-74.1825,40.917,0.0],[-74.1826,40.9186,0.0],[-74.1828,40.9194,0.0]]]]}},{"type":"Feature","properties":{"uesi_id":"USA_R170726","nbhd_code":"USA_R170726_28","nbhd_name":"Census Tract 1802.01"},"geometry":{"type":"MultiPolygon","coordinates":[[[[-74.1989,40.9247,0.0],[-74.1933,40.9305,0.0],[-74.1933,40.9296,0.0],[-74.1889,40.9258,0.0],[-74.1892,40.9251,0.0],[-74.1871,40.9232,0.0],[-74.1892,40.9217,0.0],[-74.1921,40.9199,0.0],[-74.1941,40.9218,0.0],[-74.198,40.9248,0.0],[-74.1986,40.9249,0.0],[-74.1989,40.9247,0.0]]]]}},{"type":"Feature","properties":{"uesi_id":"USA_R170726","nbhd_code":"USA_R170726_29","nbhd_name":"Census Tract 1806"},"geometry":{"type":"MultiPolygon","coordinates":[[[[-74.1818,40.9292,0.0],[-74.179,40.9321,0.0],[-74.1768,40.9335,0.0],[-74.1759,40.9327,0.0],[-74.1752,40.9321,0.0],[-74.1726,40.9299,0.0],[-74.1725,40.9298,0.0],[-74.1719,40.9292,0.0],[-74.1766,40.9261,0.0],[-74.1782,40.925,0.0],[-74.1795,40.9261,0.0],[-74.18,40.9277,0.0],[-74.1818,40.9292,0.0]]]]}},{"type":"Feature","properties":{"uesi_id":"USA_R170726","nbhd_code":"USA_R170726_30","nbhd_name":"Census Tract 1814"},"geometry":{"type":"MultiPolygon","coordinates":[[[[-74.1617,40.9208,0.0],[-74.1616,40.9222,0.0],[-74.1589,40.9227,0.0],[-74.1587,40.9255,0.0],[-74.1553,40.9254,0.0],[-74.1553,40.9226,0.0],[-74.1552,40.921,0.0],[-74.1548,40.9208,0.0],[-74.1549,40.9205,0.0],[-74.1556,40.9184,0.0],[-74.1592,40.9185,0.0],[-74.1619,40.9186,0.0],[-74.1617,40.9208,0.0]]]]}},{"type":"Feature","properties":{"uesi_id":"USA_R170726","nbhd_code":"USA_R170726_31","nbhd_name":"Census Tract 1823.02"},"geometry":{"type":"MultiPolygon","coordinates":[[[[-74.1621,40.9153,0.0],[-74.1619,40.9186,0.0],[-74.1592,40.9185,0.0],[-74.1556,40.9184,0.0],[-74.1561,40.917,0.0],[-74.1527,40.9165,0.0],[-74.1531,40.9146,0.0],[-74.1534,40.9132,0.0],[-74.1537,40.9118,0.0],[-74.1558,40.9121,0.0],[-74.159,40.9131,0.0],[-74.1622,40.914,0.0],[-74.1621,40.9153,0.0]]]]}},{"type":"Feature","properties":{"uesi_id":"USA_R170726","nbhd_code":"USA_R170726_32","nbhd_name":"Census Tract 1829"},"geometry":{"type":"MultiPolygon","coordinates":[[[[-74.1735,40.9082,0.0],[-74.1708,40.9077,0.0],[-74.1705,40.9072,0.0],[-74.1664,40.9077,0.0],[-74.1664,40.9054,0.0],[-74.1621,40.9008,0.0],[-74.1642,40.8997,0.0],[-74.1647,40.9003,0.0],[-74.167,40.9027,0.0],[-74.1688,40.9007,0.0],[-74.1708,40.899,0.0],[-74.1718,40.9063,0.0],[-74.1735,40.9082,0.0]]]]}},{"type":"Feature","properties":{"uesi_id":"USA_R170726","nbhd_code":"USA_R170726_33","nbhd_name":"Census Tract 1809"},"geometry":{"type":"MultiPolygon","coordinates":[[[[-74.1624,40.9343,0.0],[-74.1615,40.9375,0.0],[-74.157,40.9374,0.0],[-74.1574,40.937,0.0],[-74.1531,40.9365,0.0],[-74.1536,40.9347,0.0],[-74.1541,40.933,0.0],[-74.1547,40.9312,0.0],[-74.155,40.9301,0.0],[-74.1555,40.9287,0.0],[-74.1586,40.9289,0.0],[-74.1618,40.9291,0.0],[-74.1624,40.9343,0.0]]]]}}]}