{"type":"FeatureCollection","name":"USA_R2605259","crs":{"type":"name","properties":{"name":"urn:ogc:def:crs:OGC:1.3:CRS84"}},"features":[{"type":"Feature","properties":{"uesi_id":"USA_R2605259","nbhd_code":"USA_R2605259_1","nbhd_name":"Census Tract 16.01"},"geometry":{"type":"MultiPolygon","coordinates":[[[[-149.8383,61.2077,0.0],[-149.8355,61.2078,0.0],[-149.831,61.2096,0.0],[-149.828,61.2097,0.0],[-149.8233,61.2097,0.0],[-149.8083,61.2097,0.0],[-149.8083,61.2061,0.0],[-149.8084,61.2047,0.0],[-149.8083,61.1989,0.0],[-149.8213,61.1987,0.0],[-149.8232,61.1981,0.0],[-149.8299,61.1953,0.0],[-149.8308,61.1952,0.0],[-149.8383,61.1954,0.0],[-149.8383,61.1996,0.0],[-149.8383,61.2061,0.0],[-149.8383,61.2077,0.0]]]]}},{"type":"Feature","properties":{"uesi_id":"USA_R2605259","nbhd_code":"USA_R2605259_2","nbhd_name":"Census Tract 2.04"},"geometry":{"type":"MultiPolygon","coordinates":[[[[-149.6084,61.2966,0.0],[-149.6076,61.2981,0.0],[-149.5893,61.2982,0.0],[-149.5869,61.3057,0.0],[-149.5863,61.3068,0.0],[-149.5845,61.3083,0.0],[-149.5847,61.3155,0.0],[-149.5822,61.3135,0.0],[-149.5824,61.3116,0.0],[-149.5764,61.3103,0.0],[-149.5629,61.3071,0.0],[-149.5624,61.306,0.0],[-149.5639,61.3035,0.0],[-149.562,61.3027,0.0],[-149.5581,61.3024,0.0],[-149.5556,61.304,0.0],[-149.5515,61.3025,0.0],[-149.5474,61.3026,0.0],[-149.5423,61.3005,0.0],[-149.5424,61.2989,0.0],[-149.5397,61.2984,0.0],[-149.5361,61.2971,0.0],[-149.5309,61.2976,0.0],[-149.5278,61.2964,0.0],[-149.5238,61.2981,0.0],[-149.5225,61.2965,0.0],[-149.5185,61.2969,0.0],[-149.5156,61.296,0.0],[-149.512,61.2957,0.0],[-149.5143,61.297,0.0],[-149.5143,61.2982,0.0],[-149.5083,61.2986,0.0],[-149.508,61.2972,0.0],[-149.5024,61.298,0.0],[-149.5026,61.2972,0.0],[-149.4994,61.295,0.0],[-149.4973,61.2947,0.0],[-149.496,61.2958,0.0],[-149.4998,61.2975,0.0],[-149.493,61.2983,0.0],[-149.49,61.2967,0.0],[-149.484,61.2989,0.0],[-149.4771,61.2986,0.0],[-149.4742,61.2975,0.0],[-149.4716,61.2951,0.0],[-149.4693,61.2963,0.0],[-149.4665,61.2964,0.0],[-149.4666,61.295,0.0],[-149.4626,61.2941,0.0],[-149.4577,61.2946,0.0],[-149.4545,61.2939,0.0],[-149.4547,61.2918,0.0],[-149.4505,61.29,0.0],[-149.4504,61.2885,0.0],[-149.4497,61.289,0.0],[-149.4495,61.2966,0.0],[-149.4489,61.301,0.0],[-149.4534,61.3023,0.0],[-149.4685,61.3076,0.0],[-149.4748,61.3101,0.0],[-149.4806,61.3107,0.0],[-149.4725,61.3107,0.0],[-149.4647,61.3107,0.0],[-149.4641,61.3248,0.0],[-149.4537,61.3227,0.0],[-149.4463,61.3221,0.0],[-149.4392,61.3206,0.0],[-149.4299,61.3213,0.0],[-149.4238,61.3224,0.0],[-149.4215,61.3233,0.0],[-149.4111,61.3243,0.0],[-149.4066,61.3243,0.0],[-149.3985,61.3227,0.0],[-149.3947,61.321,0.0],[-149.3844,61.3191,0.0],[-149.3782,61.3165,0.0],[-149.3734,61.3152,0.0],[-149.366,61.3122,0.0],[-149.3551,61.3062,0.0],[-149.3503,61.3065,0.0],[-149.3419,61.3073,0.0],[-149.3299,61.3026,0.0],[-149.3219,61.2983,0.0],[-149.3124,61.2966,0.0],[-149.2827,61.2898,0.0],[-149.2778,61.2879,0.0],[-149.2744,61.2862,0.0],[-149.2685,61.284,0.0],[-149.264,61.2808,0.0],[-149.2582,61.2786,0.0],[-149.2545,61.2783,0.0],[-149.2518,61.2793,0.0],[-149.2298,61.2793,0.0],[-149.1939,61.2667,0.0],[-149.1861,61.2562,0.0],[-149.1678,61.2488,0.0],[-149.1577,61.2395,0.0],[-149.1583,61.2314,0.0],[-149.147,61.2224,0.0],[-149.1171,61.2177,0.0],[-149.066,61.2076,0.0],[-149.0625,61.1987,0.0],[-149.0568,61.196,0.0],[-149.0497,61.1932,0.0],[-148.9957,61.1916,0.0],[-148.9847,61.1875,0.0],[-148.9709,61.1742,0.0],[-148.9722,61.1567,0.0],[-148.9643,61.1437,0.0],[-148.9532,61.1367,0.0],[-148.9219,61.1379,0.0],[-148.9118,61.1366,0.0],[-148.9045,61.1319,0.0],[-148.9029,61.1264,0.0],[-148.9105,61.1143,0.0],[-148.9174,61.101,0.0],[-148.9187,61.093,0.0],[-148.9329,61.0831,0.0],[-148.9363,61.0713,0.0],[-148.9447,61.0529,0.0],[-148.9473,61.0488,0.0],[-148.9597,61.0475,0.0],[-148.9856,61.0466,0.0],[-149.0077,61.0428,0.0],[-149.0318,61.0405,0.0],[-149.0341,61.041,0.0],[-149.0503,61.0443,0.0],[-149.0698,61.054,0.0],[-149.1015,61.0604,0.0],[-149.1221,61.0604,0.0],[-149.136,61.0568,0.0],[-149.1491,61.0583,0.0],[-149.1611,61.0613,0.0],[-149.1647,61.0627,0.0],[-149.1729,61.0694,0.0],[-149.1857,61.0789,0.0],[-149.2009,61.0908,0.0],[-149.2037,61.0979,0.0],[-149.2097,61.1078,0.0],[-149.216,61.1212,0.0],[-149.2255,61.1302,0.0],[-149.2421,61.1314,0.0],[-149.2681,61.1315,0.0],[-149.284,61.1304,0.0],[-149.2906,61.1309,0.0],[-149.3156,61.1422,0.0],[-149.3321,61.1408,0.0],[-149.3554,61.1436,0.0],[-149.3907,61.1576,0.0],[-149.4012,61.1709,0.0],[-149.4184,61.1795,0.0],[-149.4312,61.1913,0.0],[-149.4881,61.2379,0.0],[-149.5082,61.2495,0.0],[-149.5096,61.2516,0.0],[-149.5097,61.2536,0.0],[-149.5082,61.2582,0.0],[-149.5091,61.2594,0.0],[-149.5113,61.2602,0.0],[-149.5175,61.2606,0.0],[-149.5235,61.2595,0.0],[-149.5235,61.2603,0.0],[-149.5387,61.2601,0.0],[-149.5387,61.2817,0.0],[-149.5836,61.2818,0.0],[-149.5837,61.2945,0.0],[-149.5868,61.2954,0.0],[-149.5891,61.2941,0.0],[-149.5916,61.2914,0.0],[-149.5958,61.2881,0.0],[-149.6031,61.2857,0.0],[-149.61,61.2957,0.0],[-149.6084,61.2966,0.0]]]]}},{"type":"Feature","properties":{"uesi_id":"USA_R2605259","nbhd_code":"USA_R2605259_3","nbhd_name":"Census Tract 13"},"geometry":{"type":"MultiPolygon","coordinates":[[[[-149.9637,61.2005,0.0],[-149.954,61.2018,0.0],[-149.9442,61.2044,0.0],[-149.937,61.2058,0.0],[-149.9342,61.206,0.0],[-149.9324,61.2062,0.0],[-149.9305,61.2063,0.0],[-149.928,61.2069,0.0],[-149.9254,61.2084,0.0],[-149.925,61.2087,0.0],[-149.9246,61.2083,0.0],[-149.9239,61.2079,0.0],[-149.9237,61.2077,0.0],[-149.9173,61.2035,0.0],[-149.9143,61.203,0.0],[-149.9129,61.203,0.0],[-149.9132,61.2025,0.0],[-149.9132,61.1975,0.0],[-149.9133,61.1953,0.0],[-149.9241,61.1953,0.0],[-149.9262,61.1953,0.0],[-149.9279,61.1953,0.0],[-149.9297,61.1953,0.0],[-149.9353,61.1954,0.0],[-149.9428,61.1954,0.0],[-149.9578,61.1953,0.0],[-149.9677,61.1953,0.0],[-149.9637,61.2005,0.0]]]]}},{"type":"Feature","properties":{"uesi_id":"USA_R2605259","nbhd_code":"USA_R2605259_4","nbhd_name":"Census Tract 2.02"},"geometry":{"type":"MultiPolygon","coordinates":[[[[-149.5715,61.3201,0.0],[-149.5701,61.3216,0.0],[-149.5701,61.3224,0.0],[-149.5712,61.3252,0.0],[-149.5708,61.3265,0.0],[-149.568,61.3295,0.0],[-149.567,61.3306,0.0],[-149.5649,61.3329,0.0],[-149.5628,61.3383,0.0],[-149.5607,61.3404,0.0],[-149.5556,61.3394,0.0],[-149.5474,61.3398,0.0],[-149.5425,61.3412,0.0],[-149.539,61.3428,0.0],[-149.5345,61.3427,0.0],[-149.5327,61.3418,0.0],[-149.5266,61.341,0.0],[-149.5154,61.3405,0.0],[-149.5024,61.3441,0.0],[-149.4992,61.3445,0.0],[-149.495,61.3415,0.0],[-149.485,61.3396,0.0],[-149.5036,61.3396,0.0],[-149.5032,61.3331,0.0],[-149.4943,61.333,0.0],[-149.494,61.3308,0.0],[-149.4874,61.3308,0.0],[-149.4882,61.327,0.0],[-149.4956,61.3271,0.0],[-149.4957,61.3279,0.0],[-149.5028,61.3279,0.0],[-149.5028,61.3271,0.0],[-149.5117,61.3279,0.0],[-149.5183,61.3278,0.0],[-149.5312,61.3242,0.0],[-149.5389,61.32,0.0],[-149.5389,61.3155,0.0],[-149.5389,61.3106,0.0],[-149.5636,61.3106,0.0],[-149.567,61.3112,0.0],[-149.5701,61.313,0.0],[-149.5708,61.3151,0.0],[-149.5715,61.3201,0.0]]]]}},{"type":"Feature","properties":{"uesi_id":"USA_R2605259","nbhd_code":"USA_R2605259_5","nbhd_name":"Census Tract 7.01"},"geometry":{"type":"MultiPolygon","coordinates":[[[[-149.7784,61.2263,0.0],[-149.7731,61.2251,0.0],[-149.7686,61.2247,0.0],[-149.756,61.2247,0.0],[-149.756,61.2205,0.0],[-149.7559,61.2097,0.0],[-149.7625,61.2097,0.0],[-149.7635,61.2097,0.0],[-149.7701,61.2097,0.0],[-149.7709,61.2097,0.0],[-149.7784,61.2097,0.0],[-149.7784,61.2169,0.0],[-149.7784,61.2203,0.0],[-149.7782,61.2223,0.0],[-149.7784,61.2263,0.0]]]]}},{"type":"Feature","properties":{"uesi_id":"USA_R2605259","nbhd_code":"USA_R2605259_6","nbhd_name":"Census Tract 17.01"},"geometry":{"type":"MultiPolygon","coordinates":[[[[-149.7784,61.1953,0.0],[-149.7634,61.1953,0.0],[-149.7484,61.1953,0.0],[-149.7484,61.189,0.0],[-149.7484,61.1807,0.0],[-149.7634,61.1808,0.0],[-149.771,61.1808,0.0],[-149.7784,61.1808,0.0],[-149.7784,61.1861,0.0],[-149.7784,61.1862,0.0],[-149.7784,61.1892,0.0],[-149.7784,61.1897,0.0],[-149.7784,61.1953,0.0]]]]}},{"type":"Feature","properties":{"uesi_id":"USA_R2605259","nbhd_code":"USA_R2605259_7","nbhd_name":"Census Tract 22.02"},"geometry":{"type":"MultiPolygon","coordinates":[[[[-149.9429,61.1908,0.0],[-149.9428,61.1954,0.0],[-149.9353,61.1954,0.0],[-149.9297,61.1953,0.0],[-149.9274,61.1934,0.0],[-149.9299,61.1937,0.0],[-149.9313,61.1901,0.0],[-149.9347,61.1888,0.0],[-149.9329,61.1836,0.0],[-149.9349,61.1817,0.0],[-149.935,61.1817,0.0],[-149.9374,61.181,0.0],[-149.9389,61.1792,0.0],[-149.9425,61.1804,0.0],[-149.9428,61.183,0.0],[-149.9428,61.1844,0.0],[-149.9428,61.189,0.0],[-149.9429,61.1908,0.0]]]]}},{"type":"Feature","properties":{"uesi_id":"USA_R2605259","nbhd_code":"USA_R2605259_8","nbhd_name":"Census Tract 26.03"},"geometry":{"type":"MultiPolygon","coordinates":[[[[-149.8342,61.152,0.0],[-149.8192,61.152,0.0],[-149.8043,61.152,0.0],[-149.8043,61.1447,0.0],[-149.8043,61.1375,0.0],[-149.8341,61.1375,0.0],[-149.8341,61.1447,0.0],[-149.8342,61.152,0.0]]]]}},{"type":"Feature","properties":{"uesi_id":"USA_R2605259","nbhd_code":"USA_R2605259_9","nbhd_name":"Census Tract 14"},"geometry":{"type":"MultiPolygon","coordinates":[[[[-149.9132,61.1975,0.0],[-149.9132,61.2025,0.0],[-149.9129,61.203,0.0],[-149.9081,61.2035,0.0],[-149.9052,61.2041,0.0],[-149.8993,61.2049,0.0],[-149.8978,61.205,0.0],[-149.8926,61.2038,0.0],[-149.8873,61.2034,0.0],[-149.8824,61.2036,0.0],[-149.873,61.2027,0.0],[-149.8715,61.2016,0.0],[-149.8682,61.2016,0.0],[-149.8681,61.1978,0.0],[-149.8682,61.1953,0.0],[-149.898,61.1953,0.0],[-149.9054,61.1953,0.0],[-149.9133,61.1953,0.0],[-149.9132,61.1975,0.0]]]]}},{"type":"Feature","properties":{"uesi_id":"USA_R2605259","nbhd_code":"USA_R2605259_10","nbhd_name":"Census Tract 21"},"geometry":{"type":"MultiPolygon","coordinates":[[[[-149.9329,61.1836,0.0],[-149.9347,61.1888,0.0],[-149.9313,61.1901,0.0],[-149.9299,61.1937,0.0],[-149.9274,61.1934,0.0],[-149.9297,61.1953,0.0],[-149.9279,61.1953,0.0],[-149.9262,61.1953,0.0],[-149.9241,61.1953,0.0],[-149.9133,61.1953,0.0],[-149.9132,61.1868,0.0],[-149.9132,61.1835,0.0],[-149.9134,61.1808,0.0],[-149.9146,61.1808,0.0],[-149.9278,61.1808,0.0],[-149.9279,61.1826,0.0],[-149.9284,61.1831,0.0],[-149.9294,61.1826,0.0],[-149.9349,61.1817,0.0],[-149.9329,61.1836,0.0]]]]}},{"type":"Feature","properties":{"uesi_id":"USA_R2605259","nbhd_code":"USA_R2605259_11","nbhd_name":"Census Tract 28.22"},"geometry":{"type":"MultiPolygon","coordinates":[[[[-149.8358,61.0942,0.0],[-149.8292,61.0942,0.0],[-149.8164,61.0942,0.0],[-149.7967,61.0942,0.0],[-149.7967,61.0987,0.0],[-149.8042,61.0987,0.0],[-149.8042,61.1086,0.0],[-149.7763,61.1087,0.0],[-149.7746,61.1094,0.0],[-149.7742,61.1086,0.0],[-149.7445,61.1086,0.0],[-149.7445,61.1014,0.0],[-149.7419,61.0996,0.0],[-149.7367,61.0991,0.0],[-149.7341,61.0972,0.0],[-149.7342,61.0963,0.0],[-149.7371,61.0947,0.0],[-149.7509,61.0919,0.0],[-149.753,61.0908,0.0],[-149.7536,61.0895,0.0],[-149.7526,61.0869,0.0],[-149.7538,61.0856,0.0],[-149.7565,61.0847,0.0],[-149.7743,61.0824,0.0],[-149.7805,61.0816,0.0],[-149.7817,61.0816,0.0],[-149.7973,61.0812,0.0],[-149.8009,61.0827,0.0],[-149.8041,61.0833,0.0],[-149.8239,61.0833,0.0],[-149.8239,61.0824,0.0],[-149.83,61.0848,0.0],[-149.8342,61.0872,0.0],[-149.8349,61.0927,0.0],[-149.8358,61.0942,0.0]]]]}},{"type":"Feature","properties":{"uesi_id":"USA_R2605259","nbhd_code":"USA_R2605259_12","nbhd_name":"Census Tract 6"},"geometry":{"type":"MultiPolygon","coordinates":[[[[-149.885,61.2251,0.0],[-149.8713,61.2264,0.0],[-149.864,61.2264,0.0],[-149.8479,61.2273,0.0],[-149.8442,61.2277,0.0],[-149.8312,61.2314,0.0],[-149.8313,61.2277,0.0],[-149.8159,61.2278,0.0],[-149.8158,61.2313,0.0],[-149.8103,61.2313,0.0],[-149.8084,61.2313,0.0],[-149.8009,61.2313,0.0],[-149.7935,61.2313,0.0],[-149.7935,61.2279,0.0],[-149.7934,61.2262,0.0],[-149.7917,61.2246,0.0],[-149.7917,61.2244,0.0],[-149.7943,61.224,0.0],[-149.8084,61.221,0.0],[-149.8084,61.2242,0.0],[-149.8159,61.2242,0.0],[-149.8264,61.224,0.0],[-149.8282,61.2234,0.0],[-149.8344,61.22,0.0],[-149.8367,61.2195,0.0],[-149.8383,61.2195,0.0],[-149.8498,61.2194,0.0],[-149.8669,61.2195,0.0],[-149.8792,61.2195,0.0],[-149.8785,61.222,0.0],[-149.8851,61.2219,0.0],[-149.885,61.2251,0.0]]]]}},{"type":"Feature","properties":{"uesi_id":"USA_R2605259","nbhd_code":"USA_R2605259_13","nbhd_name":"Census Tract 9.02"},"geometry":{"type":"MultiPolygon","coordinates":[[[[-149.867,61.2077,0.0],[-149.8608,61.2077,0.0],[-149.8567,61.2077,0.0],[-149.8397,61.2077,0.0],[-149.8383,61.2077,0.0],[-149.8383,61.2061,0.0],[-149.8383,61.1996,0.0],[-149.8489,61.202,0.0],[-149.855,61.2014,0.0],[-149.8599,61.201,0.0],[-149.8682,61.2016,0.0],[-149.867,61.2077,0.0]]]]}},{"type":"Feature","properties":{"uesi_id":"USA_R2605259","nbhd_code":"USA_R2605259_14","nbhd_name":"Census Tract 17.02"},"geometry":{"type":"MultiPolygon","coordinates":[[[[-149.7784,61.2097,0.0],[-149.7709,61.2097,0.0],[-149.7701,61.2097,0.0],[-149.7635,61.2097,0.0],[-149.7625,61.2097,0.0],[-149.7559,61.2097,0.0],[-149.7484,61.2097,0.0],[-149.7484,61.2058,0.0],[-149.7484,61.2029,0.0],[-149.7475,61.2021,0.0],[-149.7474,61.1968,0.0],[-149.7484,61.1953,0.0],[-149.7634,61.1953,0.0],[-149.7784,61.1953,0.0],[-149.7784,61.1989,0.0],[-149.7784,61.2025,0.0],[-149.7784,61.2097,0.0]]]]}},{"type":"Feature","properties":{"uesi_id":"USA_R2605259","nbhd_code":"USA_R2605259_15","nbhd_name":"Census Tract 18.01"},"geometry":{"type":"MultiPolygon","coordinates":[[[[-149.8606,61.1808,0.0],[-149.8494,61.1808,0.0],[-149.8382,61.1808,0.0],[-149.8382,61.1778,0.0],[-149.8382,61.1749,0.0],[-149.8381,61.1664,0.0],[-149.8458,61.1664,0.0],[-149.8566,61.1664,0.0],[-149.8567,61.1685,0.0],[-149.8589,61.1754,0.0],[-149.8606,61.1808,0.0]]]]}},{"type":"Feature","properties":{"uesi_id":"USA_R2605259","nbhd_code":"USA_R2605259_16","nbhd_name":"Census Tract 24"},"geometry":{"type":"MultiPolygon","coordinates":[[[[-149.9436,61.1762,0.0],[-149.9414,61.1772,0.0],[-149.9406,61.1777,0.0],[-149.9389,61.1792,0.0],[-149.9374,61.181,0.0],[-149.935,61.1817,0.0],[-149.9349,61.1817,0.0],[-149.9294,61.1826,0.0],[-149.9284,61.1831,0.0],[-149.9279,61.1826,0.0],[-149.9278,61.1808,0.0],[-149.9146,61.1808,0.0],[-149.9134,61.1808,0.0],[-149.9092,61.1806,0.0],[-149.9055,61.1807,0.0],[-149.898,61.1808,0.0],[-149.8979,61.1736,0.0],[-149.9023,61.1736,0.0],[-149.9105,61.173,0.0],[-149.9172,61.1725,0.0],[-149.9217,61.1724,0.0],[-149.9278,61.1728,0.0],[-149.9406,61.1738,0.0],[-149.9435,61.1738,0.0],[-149.9439,61.1757,0.0],[-149.9436,61.1762,0.0]]]]}},{"type":"Feature","properties":{"uesi_id":"USA_R2605259","nbhd_code":"USA_R2605259_17","nbhd_name":"Census Tract 28.12"},"geometry":{"type":"MultiPolygon","coordinates":[[[[-149.8565,61.123,0.0],[-149.8552,61.123,0.0],[-149.8509,61.1231,0.0],[-149.8341,61.1231,0.0],[-149.8342,61.1338,0.0],[-149.8341,61.1375,0.0],[-149.8043,61.1375,0.0],[-149.8043,61.1447,0.0],[-149.7445,61.1448,0.0],[-149.7446,61.1375,0.0],[-149.7446,61.1338,0.0],[-149.7486,61.1373,0.0],[-149.7496,61.1375,0.0],[-149.7744,61.1375,0.0],[-149.7744,61.1231,0.0],[-149.7743,61.1097,0.0],[-149.7746,61.1094,0.0],[-149.7763,61.1087,0.0],[-149.8042,61.1086,0.0],[-149.819,61.1086,0.0],[-149.834,61.1086,0.0],[-149.8489,61.1086,0.0],[-149.851,61.1087,0.0],[-149.8539,61.1117,0.0],[-149.8561,61.1158,0.0],[-149.8565,61.1179,0.0],[-149.8565,61.123,0.0]]]]}},{"type":"Feature","properties":{"uesi_id":"USA_R2605259","nbhd_code":"USA_R2605259_18","nbhd_name":"Census Tract 29"},"geometry":{"type":"MultiPolygon","coordinates":[[[[-149.7308,61.019,0.0],[-149.7297,61.0196,0.0],[-149.7281,61.0203,0.0],[-149.7184,61.021,0.0],[-149.7146,61.0218,0.0],[-149.7048,61.0215,0.0],[-149.6941,61.0231,0.0],[-149.689,61.0245,0.0],[-149.6844,61.0244,0.0],[-149.6742,61.0265,0.0],[-149.6643,61.0297,0.0],[-149.6561,61.0315,0.0],[-149.6477,61.0324,0.0],[-149.642,61.032,0.0],[-149.6347,61.0346,0.0],[-149.6272,61.0363,0.0],[-149.6236,61.0374,0.0],[-149.618,61.0377,0.0],[-149.6134,61.0371,0.0],[-149.6087,61.0375,0.0],[-149.6019,61.036,0.0],[-149.5966,61.0358,0.0],[-149.5903,61.0336,0.0],[-149.5637,61.0446,0.0],[-149.5573,61.0561,0.0],[-149.5623,61.0594,0.0],[-149.5435,61.0923,0.0],[-149.5333,61.1156,0.0],[-149.529,61.1156,0.0],[-149.5291,61.112,0.0],[-149.5219,61.1119,0.0],[-149.5221,61.1083,0.0],[-149.5072,61.1083,0.0],[-149.5046,61.1095,0.0],[-149.5017,61.1134,0.0],[-149.4975,61.1156,0.0],[-149.4962,61.1193,0.0],[-149.4972,61.1222,0.0],[-149.5015,61.1272,0.0],[-149.5028,61.1277,0.0],[-149.5104,61.1274,0.0],[-149.5148,61.1281,0.0],[-149.5173,61.1292,0.0],[-149.5244,61.1304,0.0],[-149.5286,61.1329,0.0],[-149.5288,61.1341,0.0],[-149.5261,61.1356,0.0],[-149.5272,61.1406,0.0],[-149.5221,61.1435,0.0],[-149.5222,61.1459,0.0],[-149.5194,61.1482,0.0],[-149.5176,61.1507,0.0],[-149.5172,61.1532,0.0],[-149.5152,61.1548,0.0],[-149.5178,61.1596,0.0],[-149.5222,61.1654,0.0],[-149.5225,61.1668,0.0],[-149.5325,61.1662,0.0],[-149.5386,61.1666,0.0],[-149.539,61.1681,0.0],[-149.54,61.2211,0.0],[-149.5423,61.2436,0.0],[-149.538,61.2407,0.0],[-149.5383,61.2562,0.0],[-149.5318,61.2563,0.0],[-149.5277,61.2552,0.0],[-149.5251,61.2565,0.0],[-149.5233,61.2564,0.0],[-149.5235,61.2595,0.0],[-149.5175,61.2606,0.0],[-149.5113,61.2602,0.0],[-149.5091,61.2594,0.0],[-149.5082,61.2582,0.0],[-149.5097,61.2536,0.0],[-149.5096,61.2516,0.0],[-149.5082,61.2495,0.0],[-149.4881,61.2379,0.0],[-149.4312,61.1913,0.0],[-149.4184,61.1795,0.0],[-149.4012,61.1709,0.0],[-149.3907,61.1576,0.0],[-149.3554,61.1436,0.0],[-149.3321,61.1408,0.0],[-149.3156,61.1422,0.0],[-149.2906,61.1309,0.0],[-149.284,61.1304,0.0],[-149.2681,61.1315,0.0],[-149.2421,61.1314,0.0],[-149.2255,61.1302,0.0],[-149.216,61.1212,0.0],[-149.2097,61.1078,0.0],[-149.2037,61.0979,0.0],[-149.2009,61.0908,0.0],[-149.1857,61.0789,0.0],[-149.1729,61.0694,0.0],[-149.1647,61.0627,0.0],[-149.1611,61.0613,0.0],[-149.1491,61.0583,0.0],[-149.136,61.0568,0.0],[-149.1221,61.0604,0.0],[-149.1015,61.0604,0.0],[-149.0698,61.054,0.0],[-149.0503,61.0443,0.0],[-149.0341,61.041,0.0],[-149.0318,61.0405,0.0],[-149.0077,61.0428,0.0],[-148.9856,61.0466,0.0],[-148.9597,61.0475,0.0],[-148.9473,61.0488,0.0],[-148.9158,61.0541,0.0],[-148.8907,61.0579,0.0],[-148.8648,61.0602,0.0],[-148.8283,61.0707,0.0],[-148.8169,61.068,0.0],[-148.8106,61.0617,0.0],[-148.8106,61.0509,0.0],[-148.8088,61.0291,0.0],[-148.8056,61.0234,0.0],[-148.7991,61.0241,0.0],[-148.7717,61.0399,0.0],[-148.7599,61.0392,0.0],[-148.734,61.0292,0.0],[-148.6536,60.9918,0.0],[-148.6423,60.9872,0.0],[-148.6332,60.9776,0.0],[-148.6298,60.9691,0.0],[-148.6237,60.9661,0.0],[-148.6131,60.9706,0.0],[-148.5926,60.9769,0.0],[-148.5683,60.9801,0.0],[-148.5577,60.9778,0.0],[-148.5494,60.9725,0.0],[-148.5392,60.978,0.0],[-148.5287,60.9822,0.0],[-148.5101,60.9807,0.0],[-148.5002,60.9805,0.0],[-148.4922,60.987,0.0],[-148.4876,60.991,0.0],[-148.4721,60.992,0.0],[-148.4721,60.8485,0.0],[-148.7384,60.8485,0.0],[-148.7383,60.8197,0.0],[-148.7459,60.8197,0.0],[-148.7458,60.8052,0.0],[-148.7457,60.7619,0.0],[-148.7456,60.733,0.0],[-148.8352,60.733,0.0],[-148.8362,60.733,0.0],[-149.0377,60.733,0.0],[-149.0378,60.8196,0.0],[-149.034,60.8196,0.0],[-149.0341,60.846,0.0],[-149.0337,60.8459,0.0],[-149.0307,60.8443,0.0],[-149.0227,60.8396,0.0],[-149.0129,60.8354,0.0],[-149.0049,60.8317,0.0],[-148.9974,60.8397,0.0],[-149.0036,60.8474,0.0],[-149.0085,60.8548,0.0],[-149.0193,60.8596,0.0],[-149.0316,60.8667,0.0],[-149.041,60.8765,0.0],[-149.0463,60.8837,0.0],[-149.0529,60.8879,0.0],[-149.0619,60.8915,0.0],[-149.0659,60.8938,0.0],[-149.0779,60.9039,0.0],[-149.0873,60.9093,0.0],[-149.0952,60.913,0.0],[-149.0989,60.9137,0.0],[-149.1146,60.9166,0.0],[-149.1304,60.9186,0.0],[-149.1376,60.9215,0.0],[-149.146,60.9254,0.0],[-149.1558,60.9301,0.0],[-149.1658,60.9327,0.0],[-149.1759,60.9367,0.0],[-149.1821,60.9392,0.0],[-149.1833,60.9407,0.0],[-149.1845,60.9423,0.0],[-149.1874,60.9436,0.0],[-149.1909,60.9445,0.0],[-149.1942,60.9448,0.0],[-149.1973,60.9445,0.0],[-149.2253,60.9399,0.0],[-149.2294,60.9394,0.0],[-149.2458,60.9384,0.0],[-149.254,60.9376,0.0],[-149.2648,60.9367,0.0],[-149.2749,60.9369,0.0],[-149.2844,60.9365,0.0],[-149.2917,60.9357,0.0],[-149.3027,60.9345,0.0],[-149.3103,60.9344,0.0],[-149.3139,60.934,0.0],[-149.3287,60.9316,0.0],[-149.3366,60.9299,0.0],[-149.342,60.9292,0.0],[-149.3469,60.9265,0.0],[-149.3555,60.9253,0.0],[-149.3594,60.9264,0.0],[-149.3632,60.9261,0.0],[-149.3649,60.9278,0.0],[-149.3639,60.9299,0.0],[-149.3631,60.9324,0.0],[-149.3645,60.9355,0.0],[-149.3708,60.9408,0.0],[-149.3734,60.9437,0.0],[-149.3769,60.9453,0.0],[-149.3809,60.9464,0.0],[-149.4056,60.9511,0.0],[-149.4114,60.9519,0.0],[-149.4206,60.9546,0.0],[-149.4273,60.9582,0.0],[-149.4317,60.9609,0.0],[-149.4336,60.9616,0.0],[-149.4378,60.9617,0.0],[-149.4409,60.9622,0.0],[-149.4423,60.9628,0.0],[-149.4428,60.9646,0.0],[-149.4444,60.9656,0.0],[-149.4508,60.9674,0.0],[-149.4566,60.9691,0.0],[-149.4607,60.9716,0.0],[-149.463,60.9725,0.0],[-149.4674,60.9727,0.0],[-149.4685,60.9728,0.0],[-149.4761,60.9737,0.0],[-149.4803,60.9748,0.0],[-149.4833,60.9776,0.0],[-149.4904,60.9809,0.0],[-149.4952,60.9831,0.0],[-149.5028,60.9853,0.0],[-149.5094,60.9858,0.0],[-149.5145,60.9865,0.0],[-149.5192,60.9867,0.0],[-149.524,60.9863,0.0],[-149.528,60.9855,0.0],[-149.5329,60.9838,0.0],[-149.5356,60.9828,0.0],[-149.5478,60.9832,0.0],[-149.5537,60.983,0.0],[-149.5624,60.9838,0.0],[-149.5667,60.9843,0.0],[-149.5733,60.9843,0.0],[-149.5763,60.9839,0.0],[-149.5845,60.9823,0.0],[-149.592,60.9824,0.0],[-149.5986,60.9839,0.0],[-149.6028,60.9847,0.0],[-149.6083,60.9845,0.0],[-149.6114,60.9854,0.0],[-149.615,60.9886,0.0],[-149.6271,60.9934,0.0],[-149.6391,60.9989,0.0],[-149.642,60.9996,0.0],[-149.6445,60.9997,0.0],[-149.6476,60.9992,0.0],[-149.6502,60.9993,0.0],[-149.6539,61.0012,0.0],[-149.6563,61.0021,0.0],[-149.6693,61.003,0.0],[-149.6769,61.0046,0.0],[-149.6883,61.0055,0.0],[-149.6936,61.0062,0.0],[-149.6957,61.0073,0.0],[-149.6975,61.0095,0.0],[-149.7002,61.0102,0.0],[-149.7109,61.0125,0.0],[-149.7143,61.0134,0.0],[-149.7171,61.0137,0.0],[-149.724,61.015,0.0],[-149.731,61.0159,0.0],[-149.7308,61.019,0.0]]]]}},{"type":"Feature","properties":{"uesi_id":"USA_R2605259","nbhd_code":"USA_R2605259_19","nbhd_name":"Census Tract 2.01"},"geometry":{"type":"MultiPolygon","coordinates":[[[[-149.5843,61.3199,0.0],[-149.5844,61.3269,0.0],[-149.5837,61.3306,0.0],[-149.5836,61.3375,0.0],[-149.5797,61.3405,0.0],[-149.5789,61.3462,0.0],[-149.5705,61.3491,0.0],[-149.5639,61.345,0.0],[-149.5613,61.3441,0.0],[-149.561,61.343,0.0],[-149.5644,61.342,0.0],[-149.5607,61.3404,0.0],[-149.5628,61.3383,0.0],[-149.5649,61.3329,0.0],[-149.567,61.3306,0.0],[-149.568,61.3295,0.0],[-149.5708,61.3265,0.0],[-149.5712,61.3252,0.0],[-149.5701,61.3224,0.0],[-149.5701,61.3216,0.0],[-149.5715,61.3201,0.0],[-149.5708,61.3151,0.0],[-149.5745,61.3131,0.0],[-149.5766,61.3105,0.0],[-149.5764,61.3103,0.0],[-149.5824,61.3116,0.0],[-149.5822,61.3135,0.0],[-149.5847,61.3155,0.0],[-149.5843,61.3199,0.0]]]]}},{"type":"Feature","properties":{"uesi_id":"USA_R2605259","nbhd_code":"USA_R2605259_20","nbhd_name":"Census Tract 23.03"},"geometry":{"type":"MultiPolygon","coordinates":[[[[-149.9519,61.1519,0.0],[-149.9444,61.1519,0.0],[-149.9399,61.1519,0.0],[-149.935,61.1519,0.0],[-149.9316,61.1519,0.0],[-149.9221,61.1519,0.0],[-149.922,61.1591,0.0],[-149.9127,61.1591,0.0],[-149.9087,61.1528,0.0],[-149.9085,61.1514,0.0],[-149.9085,61.1506,0.0],[-149.908,61.1426,0.0],[-149.9084,61.1402,0.0],[-149.9185,61.1375,0.0],[-149.922,61.1375,0.0],[-149.9246,61.1375,0.0],[-149.9295,61.1375,0.0],[-149.9432,61.1375,0.0],[-149.9444,61.1375,0.0],[-149.9519,61.1375,0.0],[-149.9519,61.1447,0.0],[-149.9519,61.1483,0.0],[-149.9519,61.1519,0.0]]]]}},{"type":"Feature","properties":{"uesi_id":"USA_R2605259","nbhd_code":"USA_R2605259_21","nbhd_name":"Census Tract 26.02"},"geometry":{"type":"MultiPolygon","coordinates":[[[[-149.8381,61.1664,0.0],[-149.8271,61.1663,0.0],[-149.809,61.1672,0.0],[-149.8086,61.1664,0.0],[-149.8043,61.1632,0.0],[-149.8043,61.1628,0.0],[-149.8043,61.1592,0.0],[-149.8043,61.152,0.0],[-149.8192,61.152,0.0],[-149.8342,61.152,0.0],[-149.8342,61.1592,0.0],[-149.8343,61.1621,0.0],[-149.8375,61.1647,0.0],[-149.8381,61.1664,0.0]]]]}},{"type":"Feature","properties":{"uesi_id":"USA_R2605259","nbhd_code":"USA_R2605259_22","nbhd_name":"Census Tract 7.02"},"geometry":{"type":"MultiPolygon","coordinates":[[[[-149.756,61.2247,0.0],[-149.7485,61.2247,0.0],[-149.7447,61.2249,0.0],[-149.7334,61.227,0.0],[-149.7335,61.2242,0.0],[-149.7335,61.2206,0.0],[-149.7335,61.217,0.0],[-149.7335,61.2137,0.0],[-149.7334,61.2097,0.0],[-149.7484,61.2097,0.0],[-149.7559,61.2097,0.0],[-149.756,61.2205,0.0],[-149.756,61.2247,0.0]]]]}},{"type":"Feature","properties":{"uesi_id":"USA_R2605259","nbhd_code":"USA_R2605259_23","nbhd_name":"Census Tract 26.01"},"geometry":{"type":"MultiPolygon","coordinates":[[[[-149.8565,61.1448,0.0],[-149.8558,61.1519,0.0],[-149.8561,61.1592,0.0],[-149.8566,61.1664,0.0],[-149.8458,61.1664,0.0],[-149.8381,61.1664,0.0],[-149.8375,61.1647,0.0],[-149.8343,61.1621,0.0],[-149.8342,61.1592,0.0],[-149.8342,61.152,0.0],[-149.8341,61.1447,0.0],[-149.8341,61.1375,0.0],[-149.842,61.1375,0.0],[-149.8464,61.139,0.0],[-149.8476,61.1375,0.0],[-149.8567,61.1375,0.0],[-149.8565,61.1448,0.0]]]]}},{"type":"Feature","properties":{"uesi_id":"USA_R2605259","nbhd_code":"USA_R2605259_24","nbhd_name":"Census Tract 1.01"},"geometry":{"type":"MultiPolygon","coordinates":[[[[-149.4968,61.4274,0.0],[-149.4932,61.4283,0.0],[-149.4756,61.4324,0.0],[-149.4666,61.4369,0.0],[-149.4566,61.4415,0.0],[-149.453,61.4421,0.0],[-149.4505,61.4425,0.0],[-149.442,61.4458,0.0],[-149.4404,61.448,0.0],[-149.4366,61.4506,0.0],[-149.4309,61.4518,0.0],[-149.4217,61.4545,0.0],[-149.4248,61.4624,0.0],[-149.4313,61.468,0.0],[-149.4285,61.4686,0.0],[-149.3594,61.484,0.0],[-149.2501,61.484,0.0],[-149.2404,61.484,0.0],[-149.2404,61.4795,0.0],[-149.2404,61.4688,0.0],[-149.2404,61.4551,0.0],[-149.18,61.4551,0.0],[-149.1801,61.4262,0.0],[-148.483,61.4263,0.0],[-148.4625,61.4263,0.0],[-148.4624,61.1663,0.0],[-148.4721,61.1663,0.0],[-148.4721,61.0796,0.0],[-148.4721,61.0708,0.0],[-148.4721,60.992,0.0],[-148.4876,60.991,0.0],[-148.4922,60.987,0.0],[-148.5002,60.9805,0.0],[-148.5101,60.9807,0.0],[-148.5287,60.9822,0.0],[-148.5392,60.978,0.0],[-148.5494,60.9725,0.0],[-148.5577,60.9778,0.0],[-148.5683,60.9801,0.0],[-148.5926,60.9769,0.0],[-148.6131,60.9706,0.0],[-148.6237,60.9661,0.0],[-148.6298,60.9691,0.0],[-148.6332,60.9776,0.0],[-148.6423,60.9872,0.0],[-148.6536,60.9918,0.0],[-148.734,61.0292,0.0],[-148.7599,61.0392,0.0],[-148.7717,61.0399,0.0],[-148.7991,61.0241,0.0],[-148.8056,61.0234,0.0],[-148.8088,61.0291,0.0],[-148.8106,61.0509,0.0],[-148.8106,61.0617,0.0],[-148.8169,61.068,0.0],[-148.8283,61.0707,0.0],[-148.8648,61.0602,0.0],[-148.8907,61.0579,0.0],[-148.9158,61.0541,0.0],[-148.9473,61.0488,0.0],[-148.9447,61.0529,0.0],[-148.9363,61.0713,0.0],[-148.9329,61.0831,0.0],[-148.9187,61.093,0.0],[-148.9174,61.101,0.0],[-148.9105,61.1143,0.0],[-148.9029,61.1264,0.0],[-148.9045,61.1319,0.0],[-148.9118,61.1366,0.0],[-148.9219,61.1379,0.0],[-148.9532,61.1367,0.0],[-148.9643,61.1437,0.0],[-148.9722,61.1567,0.0],[-148.9709,61.1742,0.0],[-148.9847,61.1875,0.0],[-148.9957,61.1916,0.0],[-149.0497,61.1932,0.0],[-149.0568,61.196,0.0],[-149.0625,61.1987,0.0],[-149.066,61.2076,0.0],[-149.0711,61.2314,0.0],[-149.0766,61.2327,0.0],[-149.085,61.2336,0.0],[-149.0899,61.2344,0.0],[-149.0949,61.2369,0.0],[-149.0996,61.2372,0.0],[-149.1062,61.2389,0.0],[-149.1105,61.2409,0.0],[-149.1118,61.2424,0.0],[-149.1176,61.244,0.0],[-149.1198,61.2451,0.0],[-149.1241,61.2495,0.0],[-149.125,61.2529,0.0],[-149.1263,61.2552,0.0],[-149.1282,61.2568,0.0],[-149.129,61.2628,0.0],[-149.131,61.269,0.0],[-149.1371,61.2709,0.0],[-149.1367,61.2737,0.0],[-149.138,61.2747,0.0],[-149.1412,61.2765,0.0],[-149.1453,61.2773,0.0],[-149.1507,61.2806,0.0],[-149.1557,61.2847,0.0],[-149.1568,61.2841,0.0],[-149.1648,61.2882,0.0],[-149.1653,61.2898,0.0],[-149.1718,61.2922,0.0],[-149.175,61.2949,0.0],[-149.1786,61.2972,0.0],[-149.1803,61.2997,0.0],[-149.1831,61.3012,0.0],[-149.1865,61.3022,0.0],[-149.19,61.3023,0.0],[-149.194,61.3049,0.0],[-149.2057,61.3082,0.0],[-149.2101,61.312,0.0],[-149.2145,61.3129,0.0],[-149.2196,61.3146,0.0],[-149.2235,61.3146,0.0],[-149.2302,61.3161,0.0],[-149.232,61.3171,0.0],[-149.2372,61.3177,0.0],[-149.2419,61.3177,0.0],[-149.2424,61.3188,0.0],[-149.2481,61.319,0.0],[-149.2532,61.3199,0.0],[-149.2575,61.3217,0.0],[-149.2593,61.3215,0.0],[-149.2596,61.3226,0.0],[-149.2654,61.3252,0.0],[-149.2709,61.3254,0.0],[-149.2716,61.3271,0.0],[-149.2752,61.3288,0.0],[-149.2791,61.3294,0.0],[-149.2794,61.3307,0.0],[-149.2834,61.3319,0.0],[-149.2898,61.3329,0.0],[-149.2911,61.3345,0.0],[-149.2946,61.335,0.0],[-149.2959,61.3366,0.0],[-149.2984,61.3369,0.0],[-149.2974,61.3405,0.0],[-149.2997,61.3423,0.0],[-149.3022,61.3418,0.0],[-149.3047,61.3427,0.0],[-149.3076,61.3429,0.0],[-149.3062,61.3447,0.0],[-149.3115,61.3452,0.0],[-149.3123,61.3467,0.0],[-149.3173,61.3477,0.0],[-149.3207,61.35,0.0],[-149.3263,61.3508,0.0],[-149.326,61.3517,0.0],[-149.3295,61.3536,0.0],[-149.3323,61.3538,0.0],[-149.3309,61.3549,0.0],[-149.3325,61.3559,0.0],[-149.3318,61.3579,0.0],[-149.3362,61.3583,0.0],[-149.3367,61.3596,0.0],[-149.3424,61.362,0.0],[-149.343,61.3645,0.0],[-149.3443,61.3647,0.0],[-149.3452,61.3684,0.0],[-149.3478,61.3706,0.0],[-149.3476,61.3717,0.0],[-149.3498,61.3731,0.0],[-149.3539,61.3743,0.0],[-149.3555,61.3761,0.0],[-149.3662,61.3796,0.0],[-149.3678,61.3811,0.0],[-149.3828,61.3862,0.0],[-149.3829,61.3871,0.0],[-149.387,61.3883,0.0],[-149.3899,61.3885,0.0],[-149.397,61.3909,0.0],[-149.4058,61.3919,0.0],[-149.4141,61.3938,0.0],[-149.4202,61.3931,0.0],[-149.4219,61.3922,0.0],[-149.43,61.392,0.0],[-149.4327,61.3927,0.0],[-149.4354,61.3925,0.0],[-149.4405,61.3971,0.0],[-149.4402,61.3975,0.0],[-149.4456,61.3985,0.0],[-149.449,61.4004,0.0],[-149.456,61.4015,0.0],[-149.4594,61.4047,0.0],[-149.4654,61.4059,0.0],[-149.4666,61.4072,0.0],[-149.4698,61.408,0.0],[-149.4703,61.4106,0.0],[-149.4726,61.4126,0.0],[-149.4783,61.4133,0.0],[-149.4877,61.4158,0.0],[-149.4932,61.4201,0.0],[-149.4925,61.4215,0.0],[-149.4945,61.4224,0.0],[-149.4968,61.4274,0.0]]]]}},{"type":"Feature","properties":{"uesi_id":"USA_R2605259","nbhd_code":"USA_R2605259_25","nbhd_name":"Census Tract 4"},"geometry":{"type":"MultiPolygon","coordinates":[[[[-149.8825,61.2515,0.0],[-149.8809,61.2544,0.0],[-149.8806,61.2562,0.0],[-149.8796,61.2578,0.0],[-149.8783,61.2592,0.0],[-149.8722,61.2627,0.0],[-149.8638,61.267,0.0],[-149.8577,61.2701,0.0],[-149.8534,61.2739,0.0],[-149.8464,61.2826,0.0],[-149.835,61.293,0.0],[-149.833,61.2964,0.0],[-149.8293,61.301,0.0],[-149.8251,61.3029,0.0],[-149.8118,61.3152,0.0],[-149.809,61.3162,0.0],[-149.7958,61.3205,0.0],[-149.7863,61.3238,0.0],[-149.7797,61.3269,0.0],[-149.7791,61.327,0.0],[-149.7783,61.2963,0.0],[-149.7484,61.2964,0.0],[-149.7485,61.2939,0.0],[-149.7486,61.2374,0.0],[-149.7487,61.2314,0.0],[-149.742,61.2312,0.0],[-149.7376,61.232,0.0],[-149.7338,61.2316,0.0],[-149.7337,61.2321,0.0],[-149.7323,61.2314,0.0],[-149.7334,61.227,0.0],[-149.7447,61.2249,0.0],[-149.7485,61.2247,0.0],[-149.756,61.2247,0.0],[-149.7686,61.2247,0.0],[-149.7731,61.2251,0.0],[-149.7784,61.2263,0.0],[-149.7805,61.2263,0.0],[-149.7832,61.2248,0.0],[-149.7861,61.2248,0.0],[-149.7917,61.2246,0.0],[-149.7934,61.2262,0.0],[-149.7935,61.2279,0.0],[-149.7935,61.2313,0.0],[-149.8009,61.2313,0.0],[-149.8084,61.2313,0.0],[-149.8103,61.2313,0.0],[-149.8158,61.2313,0.0],[-149.8159,61.2278,0.0],[-149.8313,61.2277,0.0],[-149.8312,61.2314,0.0],[-149.8315,61.2323,0.0],[-149.8348,61.2323,0.0],[-149.838,61.2303,0.0],[-149.8501,61.2283,0.0],[-149.8533,61.2287,0.0],[-149.8533,61.2314,0.0],[-149.8608,61.2314,0.0],[-149.8622,61.2299,0.0],[-149.8648,61.2302,0.0],[-149.8722,61.2312,0.0],[-149.8716,61.2328,0.0],[-149.8749,61.2339,0.0],[-149.8749,61.2349,0.0],[-149.8805,61.235,0.0],[-149.8788,61.2366,0.0],[-149.8789,61.2424,0.0],[-149.8799,61.246,0.0],[-149.8862,61.2466,0.0],[-149.8825,61.2515,0.0]]]]}},{"type":"Feature","properties":{"uesi_id":"USA_R2605259","nbhd_code":"USA_R2605259_26","nbhd_name":"Census Tract 7.03"},"geometry":{"type":"MultiPolygon","coordinates":[[[[-149.7338,61.2348,0.0],[-149.7189,61.2344,0.0],[-149.706,61.235,0.0],[-149.7116,61.233,0.0],[-149.7116,61.2322,0.0],[-149.7115,61.2242,0.0],[-149.7141,61.2242,0.0],[-149.7192,61.2241,0.0],[-149.7187,61.2224,0.0],[-149.7185,61.2206,0.0],[-149.7185,61.2169,0.0],[-149.7185,61.2133,0.0],[-149.7183,61.2098,0.0],[-149.7183,61.2073,0.0],[-149.7188,61.2083,0.0],[-149.7284,61.2084,0.0],[-149.7324,61.2097,0.0],[-149.7334,61.2097,0.0],[-149.7335,61.2137,0.0],[-149.7335,61.217,0.0],[-149.7335,61.2206,0.0],[-149.7335,61.2242,0.0],[-149.7334,61.227,0.0],[-149.7323,61.2314,0.0],[-149.7337,61.2321,0.0],[-149.7338,61.2348,0.0]]]]}},{"type":"Feature","properties":{"uesi_id":"USA_R2605259","nbhd_code":"USA_R2605259_27","nbhd_name":"Census Tract 10"},"geometry":{"type":"MultiPolygon","coordinates":[[[[-149.8874,61.2136,0.0],[-149.8792,61.2136,0.0],[-149.8792,61.2195,0.0],[-149.8669,61.2195,0.0],[-149.8669,61.2117,0.0],[-149.8669,61.2107,0.0],[-149.867,61.2077,0.0],[-149.8682,61.2016,0.0],[-149.8715,61.2016,0.0],[-149.873,61.2027,0.0],[-149.8824,61.2036,0.0],[-149.8873,61.2034,0.0],[-149.8874,61.2077,0.0],[-149.8874,61.2136,0.0]]]]}},{"type":"Feature","properties":{"uesi_id":"USA_R2605259","nbhd_code":"USA_R2605259_28","nbhd_name":"Census Tract 15"},"geometry":{"type":"MultiPolygon","coordinates":[[[[-149.8681,61.1978,0.0],[-149.8682,61.2016,0.0],[-149.8599,61.201,0.0],[-149.855,61.2014,0.0],[-149.8489,61.202,0.0],[-149.8383,61.1996,0.0],[-149.8383,61.1954,0.0],[-149.8382,61.1881,0.0],[-149.8382,61.1845,0.0],[-149.8382,61.1808,0.0],[-149.8494,61.1808,0.0],[-149.8606,61.1808,0.0],[-149.8624,61.1852,0.0],[-149.8654,61.1881,0.0],[-149.8677,61.1902,0.0],[-149.8682,61.1953,0.0],[-149.8681,61.1978,0.0]]]]}},{"type":"Feature","properties":{"uesi_id":"USA_R2605259","nbhd_code":"USA_R2605259_29","nbhd_name":"Census Tract 17.31"},"geometry":{"type":"MultiPolygon","coordinates":[[[[-149.7484,61.2058,0.0],[-149.7484,61.2097,0.0],[-149.7334,61.2097,0.0],[-149.7324,61.2097,0.0],[-149.7284,61.2084,0.0],[-149.7188,61.2083,0.0],[-149.7183,61.2073,0.0],[-149.7184,61.2029,0.0],[-149.7185,61.1954,0.0],[-149.7335,61.1953,0.0],[-149.7484,61.1953,0.0],[-149.7474,61.1968,0.0],[-149.7475,61.2021,0.0],[-149.7484,61.2029,0.0],[-149.7484,61.2058,0.0]]]]}},{"type":"Feature","properties":{"uesi_id":"USA_R2605259","nbhd_code":"USA_R2605259_30","nbhd_name":"Census Tract 20"},"geometry":{"type":"MultiPolygon","coordinates":[[[[-149.9132,61.1835,0.0],[-149.9132,61.1868,0.0],[-149.9133,61.1953,0.0],[-149.9054,61.1953,0.0],[-149.898,61.1953,0.0],[-149.898,61.1916,0.0],[-149.898,61.1899,0.0],[-149.898,61.1881,0.0],[-149.898,61.1861,0.0],[-149.898,61.1808,0.0],[-149.9055,61.1807,0.0],[-149.9092,61.1806,0.0],[-149.9134,61.1808,0.0],[-149.9132,61.1835,0.0]]]]}},{"type":"Feature","properties":{"uesi_id":"USA_R2605259","nbhd_code":"USA_R2605259_31","nbhd_name":"Census Tract 27.02"},"geometry":{"type":"MultiPolygon","coordinates":[[[[-149.9393,61.1148,0.0],[-149.9323,61.1148,0.0],[-149.9319,61.1153,0.0],[-149.9309,61.1151,0.0],[-149.9004,61.114,0.0],[-149.892,61.1139,0.0],[-149.8922,61.1156,0.0],[-149.889,61.1158,0.0],[-149.8684,61.1158,0.0],[-149.8561,61.1158,0.0],[-149.8539,61.1117,0.0],[-149.851,61.1087,0.0],[-149.8479,61.1058,0.0],[-149.8358,61.0942,0.0],[-149.8349,61.0927,0.0],[-149.8342,61.0872,0.0],[-149.8318,61.0833,0.0],[-149.8314,61.0822,0.0],[-149.8301,61.075,0.0],[-149.8308,61.0755,0.0],[-149.8319,61.0762,0.0],[-149.8381,61.078,0.0],[-149.8393,61.0791,0.0],[-149.8406,61.0813,0.0],[-149.8445,61.0817,0.0],[-149.8496,61.0861,0.0],[-149.8516,61.0872,0.0],[-149.8577,61.0873,0.0],[-149.8696,61.0904,0.0],[-149.8805,61.096,0.0],[-149.8914,61.0964,0.0],[-149.8998,61.0988,0.0],[-149.9009,61.0991,0.0],[-149.9215,61.1075,0.0],[-149.933,61.1112,0.0],[-149.9393,61.1148,0.0]]]]}},{"type":"Feature","properties":{"uesi_id":"USA_R2605259","nbhd_code":"USA_R2605259_32","nbhd_name":"Census Tract 28.11"},"geometry":{"type":"MultiPolygon","coordinates":[[[[-149.8567,61.1375,0.0],[-149.8476,61.1375,0.0],[-149.8464,61.139,0.0],[-149.842,61.1375,0.0],[-149.8341,61.1375,0.0],[-149.8342,61.1338,0.0],[-149.8341,61.1231,0.0],[-149.8509,61.1231,0.0],[-149.8552,61.123,0.0],[-149.8565,61.123,0.0],[-149.8567,61.131,0.0],[-149.8567,61.1327,0.0],[-149.8567,61.1361,0.0],[-149.8567,61.1375,0.0]]]]}},{"type":"Feature","properties":{"uesi_id":"USA_R2605259","nbhd_code":"USA_R2605259_33","nbhd_name":"Census Tract 28.13"},"geometry":{"type":"MultiPolygon","coordinates":[[[[-149.7743,61.1097,0.0],[-149.7744,61.1231,0.0],[-149.7744,61.1375,0.0],[-149.7496,61.1375,0.0],[-149.7486,61.1373,0.0],[-149.7446,61.1338,0.0],[-149.7446,61.1375,0.0],[-149.7377,61.1374,0.0],[-149.7144,61.1378,0.0],[-149.7146,61.152,0.0],[-149.7152,61.1517,0.0],[-149.7144,61.1554,0.0],[-149.7144,61.1665,0.0],[-149.6858,61.1665,0.0],[-149.6818,61.1661,0.0],[-149.672,61.1665,0.0],[-149.6461,61.1665,0.0],[-149.6278,61.1662,0.0],[-149.6118,61.1664,0.0],[-149.612,61.1628,0.0],[-149.6039,61.1629,0.0],[-149.6039,61.1593,0.0],[-149.5967,61.1593,0.0],[-149.5965,61.152,0.0],[-149.5892,61.152,0.0],[-149.5892,61.1483,0.0],[-149.5818,61.1486,0.0],[-149.5818,61.141,0.0],[-149.5737,61.1411,0.0],[-149.5739,61.1379,0.0],[-149.5664,61.1377,0.0],[-149.5667,61.1339,0.0],[-149.559,61.1339,0.0],[-149.5593,61.1303,0.0],[-149.5518,61.1303,0.0],[-149.5517,61.1267,0.0],[-149.5442,61.1267,0.0],[-149.5444,61.1229,0.0],[-149.5365,61.1229,0.0],[-149.5367,61.1156,0.0],[-149.5333,61.1156,0.0],[-149.5435,61.0923,0.0],[-149.5623,61.0594,0.0],[-149.6282,61.0825,0.0],[-149.6582,61.0973,0.0],[-149.6832,61.1031,0.0],[-149.6853,61.1025,0.0],[-149.6914,61.1037,0.0],[-149.6921,61.106,0.0],[-149.6957,61.1054,0.0],[-149.6982,61.1058,0.0],[-149.7017,61.1072,0.0],[-149.7037,61.1075,0.0],[-149.7155,61.1072,0.0],[-149.7187,61.1079,0.0],[-149.7216,61.1078,0.0],[-149.7242,61.1059,0.0],[-149.7248,61.1086,0.0],[-149.7445,61.1086,0.0],[-149.7742,61.1086,0.0],[-149.7746,61.1094,0.0],[-149.7743,61.1097,0.0]]]]}},{"type":"Feature","properties":{"uesi_id":"USA_R2605259","nbhd_code":"USA_R2605259_34","nbhd_name":"Census Tract 1.02"},"geometry":{"type":"MultiPolygon","coordinates":[[[[-149.6133,61.3537,0.0],[-149.599,61.3539,0.0],[-149.5987,61.3611,0.0],[-149.5839,61.361,0.0],[-149.584,61.3684,0.0],[-149.5685,61.3683,0.0],[-149.5686,61.3872,0.0],[-149.5697,61.3898,0.0],[-149.5687,61.3976,0.0],[-149.5688,61.4093,0.0],[-149.5619,61.4101,0.0],[-149.5554,61.4096,0.0],[-149.5516,61.4083,0.0],[-149.5423,61.4069,0.0],[-149.5374,61.4078,0.0],[-149.5277,61.4111,0.0],[-149.522,61.4135,0.0],[-149.5198,61.4158,0.0],[-149.5177,61.4191,0.0],[-149.5147,61.4213,0.0],[-149.506,61.425,0.0],[-149.4968,61.4274,0.0],[-149.4945,61.4224,0.0],[-149.4925,61.4215,0.0],[-149.4932,61.4201,0.0],[-149.4877,61.4158,0.0],[-149.4783,61.4133,0.0],[-149.4726,61.4126,0.0],[-149.4703,61.4106,0.0],[-149.4698,61.408,0.0],[-149.4666,61.4072,0.0],[-149.4654,61.4059,0.0],[-149.4594,61.4047,0.0],[-149.456,61.4015,0.0],[-149.449,61.4004,0.0],[-149.4456,61.3985,0.0],[-149.4402,61.3975,0.0],[-149.4405,61.3971,0.0],[-149.4354,61.3925,0.0],[-149.4327,61.3927,0.0],[-149.43,61.392,0.0],[-149.4219,61.3922,0.0],[-149.4202,61.3931,0.0],[-149.4141,61.3938,0.0],[-149.4058,61.3919,0.0],[-149.397,61.3909,0.0],[-149.3899,61.3885,0.0],[-149.387,61.3883,0.0],[-149.3829,61.3871,0.0],[-149.3828,61.3862,0.0],[-149.3678,61.3811,0.0],[-149.3662,61.3796,0.0],[-149.3555,61.3761,0.0],[-149.3539,61.3743,0.0],[-149.3498,61.3731,0.0],[-149.3476,61.3717,0.0],[-149.3478,61.3706,0.0],[-149.3452,61.3684,0.0],[-149.3443,61.3647,0.0],[-149.343,61.3645,0.0],[-149.3424,61.362,0.0],[-149.3367,61.3596,0.0],[-149.3362,61.3583,0.0],[-149.3318,61.3579,0.0],[-149.3325,61.3559,0.0],[-149.3309,61.3549,0.0],[-149.3323,61.3538,0.0],[-149.3295,61.3536,0.0],[-149.326,61.3517,0.0],[-149.3263,61.3508,0.0],[-149.3207,61.35,0.0],[-149.3173,61.3477,0.0],[-149.3123,61.3467,0.0],[-149.3115,61.3452,0.0],[-149.3062,61.3447,0.0],[-149.3076,61.3429,0.0],[-149.3047,61.3427,0.0],[-149.3022,61.3418,0.0],[-149.2997,61.3423,0.0],[-149.2974,61.3405,0.0],[-149.2984,61.3369,0.0],[-149.2959,61.3366,0.0],[-149.2946,61.335,0.0],[-149.2911,61.3345,0.0],[-149.2898,61.3329,0.0],[-149.2834,61.3319,0.0],[-149.2794,61.3307,0.0],[-149.2791,61.3294,0.0],[-149.2752,61.3288,0.0],[-149.2716,61.3271,0.0],[-149.2709,61.3254,0.0],[-149.2654,61.3252,0.0],[-149.2596,61.3226,0.0],[-149.2593,61.3215,0.0],[-149.2575,61.3217,0.0],[-149.2532,61.3199,0.0],[-149.2481,61.319,0.0],[-149.2424,61.3188,0.0],[-149.2419,61.3177,0.0],[-149.2372,61.3177,0.0],[-149.232,61.3171,0.0],[-149.2302,61.3161,0.0],[-149.2235,61.3146,0.0],[-149.2196,61.3146,0.0],[-149.2145,61.3129,0.0],[-149.2101,61.312,0.0],[-149.2057,61.3082,0.0],[-149.194,61.3049,0.0],[-149.19,61.3023,0.0],[-149.1865,61.3022,0.0],[-149.1831,61.3012,0.0],[-149.1803,61.2997,0.0],[-149.1786,61.2972,0.0],[-149.175,61.2949,0.0],[-149.1718,61.2922,0.0],[-149.1653,61.2898,0.0],[-149.1648,61.2882,0.0],[-149.1568,61.2841,0.0],[-149.1557,61.2847,0.0],[-149.1507,61.2806,0.0],[-149.1453,61.2773,0.0],[-149.1412,61.2765,0.0],[-149.138,61.2747,0.0],[-149.1367,61.2737,0.0],[-149.1371,61.2709,0.0],[-149.131,61.269,0.0],[-149.129,61.2628,0.0],[-149.1282,61.2568,0.0],[-149.1263,61.2552,0.0],[-149.125,61.2529,0.0],[-149.1241,61.2495,0.0],[-149.1198,61.2451,0.0],[-149.1176,61.244,0.0],[-149.1118,61.2424,0.0],[-149.1105,61.2409,0.0],[-149.1062,61.2389,0.0],[-149.0996,61.2372,0.0],[-149.0949,61.2369,0.0],[-149.0899,61.2344,0.0],[-149.085,61.2336,0.0],[-149.0766,61.2327,0.0],[-149.0711,61.2314,0.0],[-149.066,61.2076,0.0],[-149.1171,61.2177,0.0],[-149.147,61.2224,0.0],[-149.1583,61.2314,0.0],[-149.1577,61.2395,0.0],[-149.1678,61.2488,0.0],[-149.1861,61.2562,0.0],[-149.1939,61.2667,0.0],[-149.2298,61.2793,0.0],[-149.2518,61.2793,0.0],[-149.2545,61.2783,0.0],[-149.2582,61.2786,0.0],[-149.264,61.2808,0.0],[-149.2685,61.284,0.0],[-149.2744,61.2862,0.0],[-149.2778,61.2879,0.0],[-149.2827,61.2898,0.0],[-149.3124,61.2966,0.0],[-149.3219,61.2983,0.0],[-149.3299,61.3026,0.0],[-149.3419,61.3073,0.0],[-149.3503,61.3065,0.0],[-149.3551,61.3062,0.0],[-149.366,61.3122,0.0],[-149.3734,61.3152,0.0],[-149.3782,61.3165,0.0],[-149.3844,61.3191,0.0],[-149.3947,61.321,0.0],[-149.3985,61.3227,0.0],[-149.4066,61.3243,0.0],[-149.4111,61.3243,0.0],[-149.4215,61.3233,0.0],[-149.4238,61.3224,0.0],[-149.4299,61.3213,0.0],[-149.4392,61.3206,0.0],[-149.4463,61.3221,0.0],[-149.4537,61.3227,0.0],[-149.4641,61.3248,0.0],[-149.465,61.3248,0.0],[-149.4846,61.3261,0.0],[-149.4907,61.3261,0.0],[-149.5028,61.3271,0.0],[-149.5028,61.3279,0.0],[-149.4957,61.3279,0.0],[-149.4956,61.3271,0.0],[-149.4882,61.327,0.0],[-149.4874,61.3308,0.0],[-149.494,61.3308,0.0],[-149.4943,61.333,0.0],[-149.5032,61.3331,0.0],[-149.5036,61.3396,0.0],[-149.485,61.3396,0.0],[-149.495,61.3415,0.0],[-149.4992,61.3445,0.0],[-149.5024,61.3441,0.0],[-149.5154,61.3405,0.0],[-149.5266,61.341,0.0],[-149.5327,61.3418,0.0],[-149.5345,61.3427,0.0],[-149.539,61.3428,0.0],[-149.5425,61.3412,0.0],[-149.5474,61.3398,0.0],[-149.5556,61.3394,0.0],[-149.5607,61.3404,0.0],[-149.5644,61.342,0.0],[-149.561,61.343,0.0],[-149.5613,61.3441,0.0],[-149.5639,61.345,0.0],[-149.5705,61.3491,0.0],[-149.5789,61.3462,0.0],[-149.5797,61.3405,0.0],[-149.5836,61.3375,0.0],[-149.5835,61.3396,0.0],[-149.6135,61.3396,0.0],[-149.6133,61.3537,0.0]]]]}},{"type":"Feature","properties":{"uesi_id":"USA_R2605259","nbhd_code":"USA_R2605259_35","nbhd_name":"Census Tract 2.03"},"geometry":{"type":"MultiPolygon","coordinates":[[[[-149.5766,61.3105,0.0],[-149.5745,61.3131,0.0],[-149.5708,61.3151,0.0],[-149.5701,61.313,0.0],[-149.567,61.3112,0.0],[-149.5636,61.3106,0.0],[-149.5389,61.3106,0.0],[-149.5389,61.3155,0.0],[-149.5389,61.32,0.0],[-149.5312,61.3242,0.0],[-149.5183,61.3278,0.0],[-149.5117,61.3279,0.0],[-149.5028,61.3271,0.0],[-149.4907,61.3261,0.0],[-149.4846,61.3261,0.0],[-149.465,61.3248,0.0],[-149.4641,61.3248,0.0],[-149.4647,61.3107,0.0],[-149.4725,61.3107,0.0],[-149.4806,61.3107,0.0],[-149.4748,61.3101,0.0],[-149.4685,61.3076,0.0],[-149.4534,61.3023,0.0],[-149.4489,61.301,0.0],[-149.4495,61.2966,0.0],[-149.4497,61.289,0.0],[-149.4504,61.2885,0.0],[-149.4505,61.29,0.0],[-149.4547,61.2918,0.0],[-149.4545,61.2939,0.0],[-149.4577,61.2946,0.0],[-149.4626,61.2941,0.0],[-149.4666,61.295,0.0],[-149.4665,61.2964,0.0],[-149.4693,61.2963,0.0],[-149.4716,61.2951,0.0],[-149.4742,61.2975,0.0],[-149.4771,61.2986,0.0],[-149.484,61.2989,0.0],[-149.49,61.2967,0.0],[-149.493,61.2983,0.0],[-149.4998,61.2975,0.0],[-149.496,61.2958,0.0],[-149.4973,61.2947,0.0],[-149.4994,61.295,0.0],[-149.5026,61.2972,0.0],[-149.5024,61.298,0.0],[-149.508,61.2972,0.0],[-149.5083,61.2986,0.0],[-149.5143,61.2982,0.0],[-149.5143,61.297,0.0],[-149.512,61.2957,0.0],[-149.5156,61.296,0.0],[-149.5185,61.2969,0.0],[-149.5225,61.2965,0.0],[-149.5238,61.2981,0.0],[-149.5278,61.2964,0.0],[-149.5309,61.2976,0.0],[-149.5361,61.2971,0.0],[-149.5397,61.2984,0.0],[-149.5424,61.2989,0.0],[-149.5423,61.3005,0.0],[-149.5474,61.3026,0.0],[-149.5515,61.3025,0.0],[-149.5556,61.304,0.0],[-149.5581,61.3024,0.0],[-149.562,61.3027,0.0],[-149.5639,61.3035,0.0],[-149.5624,61.306,0.0],[-149.5629,61.3071,0.0],[-149.5764,61.3103,0.0],[-149.5766,61.3105,0.0]]]]}},{"type":"Feature","properties":{"uesi_id":"USA_R2605259","nbhd_code":"USA_R2605259_36","nbhd_name":"Census Tract 5"},"geometry":{"type":"MultiPolygon","coordinates":[[[[-149.9074,61.2256,0.0],[-149.9009,61.2289,0.0],[-149.8919,61.2353,0.0],[-149.886,61.244,0.0],[-149.8866,61.2462,0.0],[-149.8862,61.2466,0.0],[-149.8799,61.246,0.0],[-149.8789,61.2424,0.0],[-149.8788,61.2366,0.0],[-149.8805,61.235,0.0],[-149.8749,61.2349,0.0],[-149.8749,61.2339,0.0],[-149.8716,61.2328,0.0],[-149.8722,61.2312,0.0],[-149.8648,61.2302,0.0],[-149.8622,61.2299,0.0],[-149.8608,61.2314,0.0],[-149.8533,61.2314,0.0],[-149.8533,61.2287,0.0],[-149.8501,61.2283,0.0],[-149.838,61.2303,0.0],[-149.8348,61.2323,0.0],[-149.8315,61.2323,0.0],[-149.8312,61.2314,0.0],[-149.8442,61.2277,0.0],[-149.8479,61.2273,0.0],[-149.864,61.2264,0.0],[-149.8713,61.2264,0.0],[-149.885,61.2251,0.0],[-149.8851,61.2219,0.0],[-149.8872,61.2219,0.0],[-149.9,61.2217,0.0],[-149.9041,61.2205,0.0],[-149.9024,61.2214,0.0],[-149.904,61.2231,0.0],[-149.9074,61.2256,0.0]]]]}},{"type":"Feature","properties":{"uesi_id":"USA_R2605259","nbhd_code":"USA_R2605259_37","nbhd_name":"Census Tract 3"},"geometry":{"type":"MultiPolygon","coordinates":[[[[-149.8089,61.1695,0.0],[-149.8083,61.1772,0.0],[-149.8083,61.1808,0.0],[-149.7857,61.1808,0.0],[-149.7784,61.1808,0.0],[-149.771,61.1808,0.0],[-149.7634,61.1808,0.0],[-149.7484,61.1807,0.0],[-149.7449,61.1808,0.0],[-149.7375,61.1805,0.0],[-149.7185,61.1805,0.0],[-149.7185,61.1885,0.0],[-149.7185,61.1954,0.0],[-149.7184,61.2029,0.0],[-149.7183,61.2073,0.0],[-149.7183,61.2098,0.0],[-149.7185,61.2133,0.0],[-149.7185,61.2169,0.0],[-149.7185,61.2206,0.0],[-149.7187,61.2224,0.0],[-149.7192,61.2241,0.0],[-149.7141,61.2242,0.0],[-149.7115,61.2242,0.0],[-149.7116,61.2322,0.0],[-149.7116,61.233,0.0],[-149.706,61.235,0.0],[-149.7189,61.2344,0.0],[-149.7338,61.2348,0.0],[-149.7337,61.2321,0.0],[-149.7338,61.2316,0.0],[-149.7376,61.232,0.0],[-149.742,61.2312,0.0],[-149.7487,61.2314,0.0],[-149.7486,61.2374,0.0],[-149.7485,61.2939,0.0],[-149.7484,61.2964,0.0],[-149.7783,61.2963,0.0],[-149.7791,61.327,0.0],[-149.775,61.3275,0.0],[-149.7693,61.3276,0.0],[-149.7635,61.3276,0.0],[-149.7562,61.3274,0.0],[-149.7476,61.3277,0.0],[-149.7411,61.328,0.0],[-149.7378,61.3284,0.0],[-149.7307,61.33,0.0],[-149.7249,61.3319,0.0],[-149.7202,61.3342,0.0],[-149.717,61.3369,0.0],[-149.717,61.338,0.0],[-149.7163,61.3431,0.0],[-149.7139,61.3496,0.0],[-149.7131,61.3553,0.0],[-149.7129,61.3605,0.0],[-149.7138,61.3645,0.0],[-149.7157,61.3674,0.0],[-149.7191,61.3699,0.0],[-149.7214,61.3725,0.0],[-149.7175,61.3738,0.0],[-149.7141,61.3762,0.0],[-149.7101,61.3791,0.0],[-149.7025,61.3824,0.0],[-149.6975,61.3833,0.0],[-149.6895,61.3839,0.0],[-149.6809,61.3851,0.0],[-149.6741,61.3869,0.0],[-149.6693,61.3887,0.0],[-149.6628,61.3885,0.0],[-149.6456,61.3874,0.0],[-149.6413,61.3872,0.0],[-149.638,61.3876,0.0],[-149.6314,61.3894,0.0],[-149.6207,61.3919,0.0],[-149.6124,61.3946,0.0],[-149.61,61.396,0.0],[-149.6033,61.3981,0.0],[-149.6009,61.3995,0.0],[-149.5945,61.4008,0.0],[-149.5857,61.4039,0.0],[-149.5758,61.4077,0.0],[-149.5705,61.4091,0.0],[-149.5688,61.4093,0.0],[-149.5687,61.3976,0.0],[-149.5697,61.3898,0.0],[-149.5686,61.3872,0.0],[-149.5685,61.3683,0.0],[-149.584,61.3684,0.0],[-149.5839,61.361,0.0],[-149.5987,61.3611,0.0],[-149.599,61.3539,0.0],[-149.6133,61.3537,0.0],[-149.6135,61.3396,0.0],[-149.5835,61.3396,0.0],[-149.5836,61.3375,0.0],[-149.5837,61.3306,0.0],[-149.5844,61.3269,0.0],[-149.5843,61.3199,0.0],[-149.5847,61.3155,0.0],[-149.5845,61.3083,0.0],[-149.5863,61.3068,0.0],[-149.5869,61.3057,0.0],[-149.5893,61.2982,0.0],[-149.6076,61.2981,0.0],[-149.6084,61.2966,0.0],[-149.61,61.2957,0.0],[-149.6031,61.2857,0.0],[-149.5958,61.2881,0.0],[-149.5916,61.2914,0.0],[-149.5891,61.2941,0.0],[-149.5868,61.2954,0.0],[-149.5837,61.2945,0.0],[-149.5836,61.2818,0.0],[-149.5387,61.2817,0.0],[-149.5387,61.2601,0.0],[-149.5235,61.2603,0.0],[-149.5235,61.2595,0.0],[-149.5233,61.2564,0.0],[-149.5251,61.2565,0.0],[-149.5277,61.2552,0.0],[-149.5318,61.2563,0.0],[-149.5383,61.2562,0.0],[-149.538,61.2407,0.0],[-149.5423,61.2436,0.0],[-149.54,61.2211,0.0],[-149.539,61.1681,0.0],[-149.5386,61.1666,0.0],[-149.5325,61.1662,0.0],[-149.5225,61.1668,0.0],[-149.5222,61.1654,0.0],[-149.5178,61.1596,0.0],[-149.5152,61.1548,0.0],[-149.5172,61.1532,0.0],[-149.5176,61.1507,0.0],[-149.5194,61.1482,0.0],[-149.5222,61.1459,0.0],[-149.5221,61.1435,0.0],[-149.5272,61.1406,0.0],[-149.5261,61.1356,0.0],[-149.5288,61.1341,0.0],[-149.5286,61.1329,0.0],[-149.5244,61.1304,0.0],[-149.5173,61.1292,0.0],[-149.5148,61.1281,0.0],[-149.5104,61.1274,0.0],[-149.5028,61.1277,0.0],[-149.5015,61.1272,0.0],[-149.4972,61.1222,0.0],[-149.4962,61.1193,0.0],[-149.4975,61.1156,0.0],[-149.5017,61.1134,0.0],[-149.5046,61.1095,0.0],[-149.5072,61.1083,0.0],[-149.5221,61.1083,0.0],[-149.5219,61.1119,0.0],[-149.5291,61.112,0.0],[-149.529,61.1156,0.0],[-149.5333,61.1156,0.0],[-149.5367,61.1156,0.0],[-149.5365,61.1229,0.0],[-149.5444,61.1229,0.0],[-149.5442,61.1267,0.0],[-149.5517,61.1267,0.0],[-149.5518,61.1303,0.0],[-149.5593,61.1303,0.0],[-149.559,61.1339,0.0],[-149.5667,61.1339,0.0],[-149.5664,61.1377,0.0],[-149.5739,61.1379,0.0],[-149.5737,61.1411,0.0],[-149.5818,61.141,0.0],[-149.5818,61.1486,0.0],[-149.5892,61.1483,0.0],[-149.5892,61.152,0.0],[-149.5965,61.152,0.0],[-149.5967,61.1593,0.0],[-149.6039,61.1593,0.0],[-149.6039,61.1629,0.0],[-149.612,61.1628,0.0],[-149.6118,61.1664,0.0],[-149.6278,61.1662,0.0],[-149.6461,61.1665,0.0],[-149.672,61.1665,0.0],[-149.6818,61.1661,0.0],[-149.6858,61.1665,0.0],[-149.7144,61.1665,0.0],[-149.7144,61.1554,0.0],[-149.7152,61.1517,0.0],[-149.7146,61.152,0.0],[-149.7144,61.1378,0.0],[-149.7377,61.1374,0.0],[-149.7446,61.1375,0.0],[-149.7445,61.1448,0.0],[-149.8043,61.1447,0.0],[-149.8043,61.152,0.0],[-149.8043,61.1592,0.0],[-149.8043,61.1628,0.0],[-149.8043,61.1632,0.0],[-149.8086,61.1664,0.0],[-149.8089,61.1695,0.0]]]]}},{"type":"Feature","properties":{"uesi_id":"USA_R2605259","nbhd_code":"USA_R2605259_38","nbhd_name":"Census Tract 8.01"},"geometry":{"type":"MultiPolygon","coordinates":[[[[-149.8084,61.221,0.0],[-149.7943,61.224,0.0],[-149.7917,61.2244,0.0],[-149.7917,61.2246,0.0],[-149.7861,61.2248,0.0],[-149.7832,61.2248,0.0],[-149.7805,61.2263,0.0],[-149.7784,61.2263,0.0],[-149.7782,61.2223,0.0],[-149.7784,61.2203,0.0],[-149.7784,61.2169,0.0],[-149.7784,61.2097,0.0],[-149.7934,61.2097,0.0],[-149.8083,61.2097,0.0],[-149.8084,61.214,0.0],[-149.8084,61.2188,0.0],[-149.8084,61.221,0.0]]]]}},{"type":"Feature","properties":{"uesi_id":"USA_R2605259","nbhd_code":"USA_R2605259_39","nbhd_name":"Census Tract 8.02"},"geometry":{"type":"MultiPolygon","coordinates":[[[[-149.8083,61.2061,0.0],[-149.8083,61.2097,0.0],[-149.7934,61.2097,0.0],[-149.7784,61.2097,0.0],[-149.7784,61.2025,0.0],[-149.7784,61.1989,0.0],[-149.7784,61.1953,0.0],[-149.7859,61.1952,0.0],[-149.7888,61.1952,0.0],[-149.7919,61.1952,0.0],[-149.7944,61.1957,0.0],[-149.798,61.1981,0.0],[-149.8009,61.1989,0.0],[-149.8083,61.1989,0.0],[-149.8084,61.2047,0.0],[-149.8083,61.2061,0.0]]]]}},{"type":"Feature","properties":{"uesi_id":"USA_R2605259","nbhd_code":"USA_R2605259_40","nbhd_name":"Census Tract 11"},"geometry":{"type":"MultiPolygon","coordinates":[[[[-149.9041,61.2205,0.0],[-149.9,61.2217,0.0],[-149.8872,61.2219,0.0],[-149.8851,61.2219,0.0],[-149.8785,61.222,0.0],[-149.8792,61.2195,0.0],[-149.8792,61.2136,0.0],[-149.8874,61.2136,0.0],[-149.8914,61.2136,0.0],[-149.8996,61.2136,0.0],[-149.9037,61.2136,0.0],[-149.9041,61.2205,0.0]]]]}},{"type":"Feature","properties":{"uesi_id":"USA_R2605259","nbhd_code":"USA_R2605259_41","nbhd_name":"Census Tract 12"},"geometry":{"type":"MultiPolygon","coordinates":[[[[-149.925,61.2087,0.0],[-149.924,61.2093,0.0],[-149.9228,61.2106,0.0],[-149.9155,61.2144,0.0],[-149.9129,61.2158,0.0],[-149.9127,61.2159,0.0],[-149.9089,61.2179,0.0],[-149.9041,61.2205,0.0],[-149.9037,61.2136,0.0],[-149.8996,61.2136,0.0],[-149.8914,61.2136,0.0],[-149.8874,61.2136,0.0],[-149.8874,61.2077,0.0],[-149.8873,61.2034,0.0],[-149.8926,61.2038,0.0],[-149.8978,61.205,0.0],[-149.8993,61.2049,0.0],[-149.9052,61.2041,0.0],[-149.9081,61.2035,0.0],[-149.9129,61.203,0.0],[-149.9143,61.203,0.0],[-149.9173,61.2035,0.0],[-149.9237,61.2077,0.0],[-149.9239,61.2079,0.0],[-149.9246,61.2083,0.0],[-149.925,61.2087,0.0]]]]}},{"type":"Feature","properties":{"uesi_id":"USA_R2605259","nbhd_code":"USA_R2605259_42","nbhd_name":"Census Tract 16.02"},"geometry":{"type":"MultiPolygon","coordinates":[[[[-149.8383,61.1954,0.0],[-149.8308,61.1952,0.0],[-149.8299,61.1953,0.0],[-149.8232,61.1981,0.0],[-149.8213,61.1987,0.0],[-149.8083,61.1989,0.0],[-149.8009,61.1989,0.0],[-149.798,61.1981,0.0],[-149.7944,61.1957,0.0],[-149.7919,61.1952,0.0],[-149.7888,61.1952,0.0],[-149.7859,61.1952,0.0],[-149.7784,61.1953,0.0],[-149.7784,61.1897,0.0],[-149.7784,61.1892,0.0],[-149.7784,61.1862,0.0],[-149.7784,61.1861,0.0],[-149.7784,61.1808,0.0],[-149.7857,61.1808,0.0],[-149.8083,61.1808,0.0],[-149.8082,61.184,0.0],[-149.8084,61.1843,0.0],[-149.8158,61.1842,0.0],[-149.8233,61.1844,0.0],[-149.8324,61.1846,0.0],[-149.8382,61.1845,0.0],[-149.8382,61.1881,0.0],[-149.8383,61.1954,0.0]]]]}},{"type":"Feature","properties":{"uesi_id":"USA_R2605259","nbhd_code":"USA_R2605259_43","nbhd_name":"Census Tract 17.32"},"geometry":{"type":"MultiPolygon","coordinates":[[[[-149.7484,61.1953,0.0],[-149.7335,61.1953,0.0],[-149.7185,61.1954,0.0],[-149.7185,61.1885,0.0],[-149.7185,61.1805,0.0],[-149.7375,61.1805,0.0],[-149.7449,61.1808,0.0],[-149.7484,61.1807,0.0],[-149.7484,61.189,0.0],[-149.7484,61.1953,0.0]]]]}},{"type":"Feature","properties":{"uesi_id":"USA_R2605259","nbhd_code":"USA_R2605259_44","nbhd_name":"Census Tract 19"},"geometry":{"type":"MultiPolygon","coordinates":[[[[-149.898,61.1881,0.0],[-149.898,61.1899,0.0],[-149.898,61.1916,0.0],[-149.898,61.1953,0.0],[-149.8682,61.1953,0.0],[-149.8677,61.1902,0.0],[-149.8654,61.1881,0.0],[-149.8624,61.1852,0.0],[-149.8606,61.1808,0.0],[-149.8589,61.1754,0.0],[-149.8657,61.1737,0.0],[-149.8681,61.1736,0.0],[-149.8865,61.1736,0.0],[-149.8979,61.1736,0.0],[-149.898,61.1808,0.0],[-149.898,61.1861,0.0],[-149.898,61.1881,0.0]]]]}},{"type":"Feature","properties":{"uesi_id":"USA_R2605259","nbhd_code":"USA_R2605259_45","nbhd_name":"Census Tract 22.01"},"geometry":{"type":"MultiPolygon","coordinates":[[[[-149.9677,61.1953,0.0],[-149.9578,61.1953,0.0],[-149.9428,61.1954,0.0],[-149.9429,61.1908,0.0],[-149.9428,61.189,0.0],[-149.9428,61.1844,0.0],[-149.9428,61.183,0.0],[-149.9425,61.1804,0.0],[-149.9389,61.1792,0.0],[-149.9406,61.1777,0.0],[-149.9414,61.1772,0.0],[-149.9436,61.1762,0.0],[-149.9449,61.1767,0.0],[-149.9525,61.1774,0.0],[-149.9581,61.1799,0.0],[-149.9577,61.1835,0.0],[-149.9578,61.184,0.0],[-149.9578,61.1881,0.0],[-149.9657,61.1878,0.0],[-149.9656,61.1898,0.0],[-149.9712,61.1914,0.0],[-149.9677,61.1953,0.0]]]]}},{"type":"Feature","properties":{"uesi_id":"USA_R2605259","nbhd_code":"USA_R2605259_46","nbhd_name":"Census Tract 23.01"},"geometry":{"type":"MultiPolygon","coordinates":[[[[-150.2808,61.128,0.0],[-150.2752,61.1274,0.0],[-150.2663,61.1279,0.0],[-150.2568,61.1296,0.0],[-150.2491,61.133,0.0],[-150.2431,61.1374,0.0],[-150.2396,61.1425,0.0],[-150.2348,61.1505,0.0],[-150.2321,61.1588,0.0],[-150.2282,61.1651,0.0],[-150.2261,61.1681,0.0],[-150.2139,61.1713,0.0],[-150.1771,61.1751,0.0],[-150.1699,61.1758,0.0],[-150.1661,61.1745,0.0],[-150.1606,61.1735,0.0],[-150.1589,61.1716,0.0],[-150.1591,61.1671,0.0],[-150.1599,61.1628,0.0],[-150.1639,61.1587,0.0],[-150.1688,61.1541,0.0],[-150.1815,61.1461,0.0],[-150.1968,61.1384,0.0],[-150.2112,61.1322,0.0],[-150.2253,61.1268,0.0],[-150.2352,61.1238,0.0],[-150.239,61.123,0.0],[-150.2537,61.124,0.0],[-150.2661,61.124,0.0],[-150.2764,61.1237,0.0],[-150.2818,61.1247,0.0],[-150.2859,61.127,0.0],[-150.2808,61.128,0.0]]],[[[-150.0691,61.1637,0.0],[-150.0665,61.1657,0.0],[-150.0499,61.1735,0.0],[-150.0401,61.1775,0.0],[-150.0335,61.1798,0.0],[-150.0299,61.1826,0.0],[-150.0292,61.1863,0.0],[-150.028,61.1909,0.0],[-150.0268,61.1956,0.0],[-150.0258,61.1989,0.0],[-150.0244,61.2007,0.0],[-150.0228,61.202,0.0],[-150.0196,61.2037,0.0],[-150.0161,61.2041,0.0],[-150.0099,61.2036,0.0],[-149.992,61.1996,0.0],[-149.9844,61.1988,0.0],[-149.9755,61.1994,0.0],[-149.9706,61.1992,0.0],[-149.9683,61.1999,0.0],[-149.9637,61.2005,0.0],[-149.9677,61.1953,0.0],[-149.9712,61.1914,0.0],[-149.9656,61.1898,0.0],[-149.9657,61.1878,0.0],[-149.9578,61.1881,0.0],[-149.9578,61.184,0.0],[-149.9577,61.1835,0.0],[-149.9581,61.1799,0.0],[-149.9525,61.1774,0.0],[-149.9449,61.1767,0.0],[-149.9436,61.1762,0.0],[-149.9439,61.1757,0.0],[-149.9435,61.1738,0.0],[-149.9388,61.1704,0.0],[-149.9414,61.1673,0.0],[-149.9443,61.1665,0.0],[-149.9498,61.1664,0.0],[-149.9522,61.165,0.0],[-149.9519,61.1591,0.0],[-149.9519,61.1547,0.0],[-149.9519,61.1519,0.0],[-149.9519,61.1483,0.0],[-149.9519,61.1447,0.0],[-149.9519,61.1375,0.0],[-149.9586,61.1375,0.0],[-149.9595,61.1371,0.0],[-149.9644,61.1375,0.0],[-149.9809,61.1375,0.0],[-149.9821,61.1376,0.0],[-149.9883,61.1392,0.0],[-149.9943,61.1401,0.0],[-150.0062,61.1426,0.0],[-150.0106,61.1429,0.0],[-150.0117,61.1434,0.0],[-150.012,61.1407,0.0],[-150.025,61.1426,0.0],[-150.0516,61.1483,0.0],[-150.0656,61.1511,0.0],[-150.072,61.1536,0.0],[-150.0746,61.1563,0.0],[-150.0735,61.1583,0.0],[-150.0691,61.1637,0.0]]]]}},{"type":"Feature","properties":{"uesi_id":"USA_R2605259","nbhd_code":"USA_R2605259_47","nbhd_name":"Census Tract 23.02"},"geometry":{"type":"MultiPolygon","coordinates":[[[[-149.9522,61.165,0.0],[-149.9498,61.1664,0.0],[-149.9443,61.1665,0.0],[-149.9414,61.1673,0.0],[-149.9388,61.1704,0.0],[-149.9435,61.1738,0.0],[-149.9406,61.1738,0.0],[-149.9278,61.1728,0.0],[-149.9217,61.1724,0.0],[-149.9172,61.1725,0.0],[-149.917,61.1708,0.0],[-149.9135,61.1605,0.0],[-149.9127,61.1591,0.0],[-149.922,61.1591,0.0],[-149.9221,61.1519,0.0],[-149.9316,61.1519,0.0],[-149.935,61.1519,0.0],[-149.9399,61.1519,0.0],[-149.9444,61.1519,0.0],[-149.9519,61.1519,0.0],[-149.9519,61.1547,0.0],[-149.9519,61.1591,0.0],[-149.9522,61.165,0.0]]]]}},{"type":"Feature","properties":{"uesi_id":"USA_R2605259","nbhd_code":"USA_R2605259_48","nbhd_name":"Census Tract 25.02"},"geometry":{"type":"MultiPolygon","coordinates":[[[[-149.8872,61.1519,0.0],[-149.8872,61.1592,0.0],[-149.8872,61.1605,0.0],[-149.8868,61.1663,0.0],[-149.8865,61.1736,0.0],[-149.8681,61.1736,0.0],[-149.8657,61.1737,0.0],[-149.8589,61.1754,0.0],[-149.8567,61.1685,0.0],[-149.8566,61.1664,0.0],[-149.8561,61.1592,0.0],[-149.8558,61.1519,0.0],[-149.8565,61.1448,0.0],[-149.8579,61.1447,0.0],[-149.864,61.1447,0.0],[-149.8732,61.1447,0.0],[-149.887,61.1447,0.0],[-149.8873,61.1472,0.0],[-149.8872,61.1519,0.0]]]]}},{"type":"Feature","properties":{"uesi_id":"USA_R2605259","nbhd_code":"USA_R2605259_49","nbhd_name":"Census Tract 27.11"},"geometry":{"type":"MultiPolygon","coordinates":[[[[-150.0117,61.1434,0.0],[-150.0106,61.1429,0.0],[-150.0062,61.1426,0.0],[-149.9943,61.1401,0.0],[-149.9883,61.1392,0.0],[-149.9821,61.1376,0.0],[-149.9809,61.1375,0.0],[-149.9644,61.1375,0.0],[-149.9595,61.1371,0.0],[-149.9586,61.1375,0.0],[-149.9519,61.1375,0.0],[-149.9444,61.1375,0.0],[-149.9432,61.1375,0.0],[-149.9295,61.1375,0.0],[-149.9246,61.1375,0.0],[-149.922,61.1375,0.0],[-149.922,61.1303,0.0],[-149.9221,61.129,0.0],[-149.9265,61.1267,0.0],[-149.9271,61.1226,0.0],[-149.9347,61.1196,0.0],[-149.9354,61.1184,0.0],[-149.9319,61.1153,0.0],[-149.9323,61.1148,0.0],[-149.9393,61.1148,0.0],[-149.9398,61.1151,0.0],[-149.9473,61.1197,0.0],[-149.9631,61.129,0.0],[-149.964,61.1295,0.0],[-149.9692,61.1325,0.0],[-149.9834,61.1354,0.0],[-150.0049,61.1396,0.0],[-150.012,61.1407,0.0],[-150.0117,61.1434,0.0]]]]}},{"type":"Feature","properties":{"uesi_id":"USA_R2605259","nbhd_code":"USA_R2605259_50","nbhd_name":"Census Tract 27.12"},"geometry":{"type":"MultiPolygon","coordinates":[[[[-149.9347,61.1196,0.0],[-149.9271,61.1226,0.0],[-149.9265,61.1267,0.0],[-149.9221,61.129,0.0],[-149.922,61.1303,0.0],[-149.922,61.1375,0.0],[-149.9185,61.1375,0.0],[-149.9084,61.1402,0.0],[-149.9072,61.1405,0.0],[-149.9048,61.1412,0.0],[-149.8921,61.1446,0.0],[-149.8893,61.1447,0.0],[-149.887,61.1447,0.0],[-149.8732,61.1447,0.0],[-149.864,61.1447,0.0],[-149.8579,61.1447,0.0],[-149.8565,61.1448,0.0],[-149.8567,61.1375,0.0],[-149.8567,61.1361,0.0],[-149.8567,61.1327,0.0],[-149.8567,61.131,0.0],[-149.8565,61.123,0.0],[-149.8565,61.1179,0.0],[-149.8561,61.1158,0.0],[-149.8684,61.1158,0.0],[-149.889,61.1158,0.0],[-149.8922,61.1156,0.0],[-149.892,61.1139,0.0],[-149.9004,61.114,0.0],[-149.9309,61.1151,0.0],[-149.9319,61.1153,0.0],[-149.9354,61.1184,0.0],[-149.9347,61.1196,0.0]]]]}},{"type":"Feature","properties":{"uesi_id":"USA_R2605259","nbhd_code":"USA_R2605259_51","nbhd_name":"Census Tract 28.21"},"geometry":{"type":"MultiPolygon","coordinates":[[[[-149.8489,61.1086,0.0],[-149.834,61.1086,0.0],[-149.819,61.1086,0.0],[-149.8042,61.1086,0.0],[-149.8042,61.0987,0.0],[-149.7967,61.0987,0.0],[-149.7967,61.0942,0.0],[-149.8164,61.0942,0.0],[-149.8292,61.0942,0.0],[-149.8358,61.0942,0.0],[-149.8479,61.1058,0.0],[-149.851,61.1087,0.0],[-149.8489,61.1086,0.0]]]]}},{"type":"Feature","properties":{"uesi_id":"USA_R2605259","nbhd_code":"USA_R2605259_52","nbhd_name":"Census Tract 9.01"},"geometry":{"type":"MultiPolygon","coordinates":[[[[-149.8669,61.2107,0.0],[-149.8669,61.2117,0.0],[-149.8669,61.2195,0.0],[-149.8498,61.2194,0.0],[-149.8383,61.2195,0.0],[-149.8367,61.2195,0.0],[-149.8344,61.22,0.0],[-149.8282,61.2234,0.0],[-149.8264,61.224,0.0],[-149.8159,61.2242,0.0],[-149.8084,61.2242,0.0],[-149.8084,61.221,0.0],[-149.8084,61.2188,0.0],[-149.8084,61.214,0.0],[-149.8083,61.2097,0.0],[-149.8233,61.2097,0.0],[-149.828,61.2097,0.0],[-149.831,61.2096,0.0],[-149.8355,61.2078,0.0],[-149.8383,61.2077,0.0],[-149.8397,61.2077,0.0],[-149.8567,61.2077,0.0],[-149.8608,61.2077,0.0],[-149.867,61.2077,0.0],[-149.8669,61.2107,0.0]]]]}},{"type":"Feature","properties":{"uesi_id":"USA_R2605259","nbhd_code":"USA_R2605259_53","nbhd_name":"Census Tract 18.02"},"geometry":{"type":"MultiPolygon","coordinates":[[[[-149.8382,61.1845,0.0],[-149.8324,61.1846,0.0],[-149.8233,61.1844,0.0],[-149.8158,61.1842,0.0],[-149.8084,61.1843,0.0],[-149.8082,61.184,0.0],[-149.8083,61.1808,0.0],[-149.8083,61.1772,0.0],[-149.8089,61.1695,0.0],[-149.8086,61.1664,0.0],[-149.809,61.1672,0.0],[-149.8271,61.1663,0.0],[-149.8381,61.1664,0.0],[-149.8382,61.1749,0.0],[-149.8382,61.1778,0.0],[-149.8382,61.1808,0.0],[-149.8382,61.1845,0.0]]]]}},{"type":"Feature","properties":{"uesi_id":"USA_R2605259","nbhd_code":"USA_R2605259_54","nbhd_name":"Census Tract 25.01"},"geometry":{"type":"MultiPolygon","coordinates":[[[[-149.9172,61.1725,0.0],[-149.9105,61.173,0.0],[-149.9023,61.1736,0.0],[-149.8979,61.1736,0.0],[-149.8865,61.1736,0.0],[-149.8868,61.1663,0.0],[-149.8872,61.1605,0.0],[-149.8872,61.1592,0.0],[-149.8872,61.1519,0.0],[-149.8873,61.1472,0.0],[-149.887,61.1447,0.0],[-149.8893,61.1447,0.0],[-149.8921,61.1446,0.0],[-149.9048,61.1412,0.0],[-149.9072,61.1405,0.0],[-149.9084,61.1402,0.0],[-149.908,61.1426,0.0],[-149.9085,61.1506,0.0],[-149.9085,61.1514,0.0],[-149.9087,61.1528,0.0],[-149.9127,61.1591,0.0],[-149.9135,61.1605,0.0],[-149.917,61.1708,0.0],[-149.9172,61.1725,0.0]]]]}},{"type":"Feature","properties":{"uesi_id":"USA_R2605259","nbhd_code":"USA_R2605259_55","nbhd_name":"Census Tract 28.23"},"geometry":{"type":"MultiPolygon","coordinates":[[[[-149.8342,61.0872,0.0],[-149.83,61.0848,0.0],[-149.8239,61.0824,0.0],[-149.8239,61.0833,0.0],[-149.8041,61.0833,0.0],[-149.8009,61.0827,0.0],[-149.7973,61.0812,0.0],[-149.7817,61.0816,0.0],[-149.7805,61.0816,0.0],[-149.7743,61.0824,0.0],[-149.7565,61.0847,0.0],[-149.7538,61.0856,0.0],[-149.7526,61.0869,0.0],[-149.7536,61.0895,0.0],[-149.753,61.0908,0.0],[-149.7509,61.0919,0.0],[-149.7371,61.0947,0.0],[-149.7342,61.0963,0.0],[-149.7341,61.0972,0.0],[-149.7367,61.0991,0.0],[-149.7419,61.0996,0.0],[-149.7445,61.1014,0.0],[-149.7445,61.1086,0.0],[-149.7248,61.1086,0.0],[-149.7242,61.1059,0.0],[-149.7216,61.1078,0.0],[-149.7187,61.1079,0.0],[-149.7155,61.1072,0.0],[-149.7037,61.1075,0.0],[-149.7017,61.1072,0.0],[-149.6982,61.1058,0.0],[-149.6957,61.1054,0.0],[-149.6921,61.106,0.0],[-149.6914,61.1037,0.0],[-149.6853,61.1025,0.0],[-149.6832,61.1031,0.0],[-149.6582,61.0973,0.0],[-149.6282,61.0825,0.0],[-149.5623,61.0594,0.0],[-149.5573,61.0561,0.0],[-149.5637,61.0446,0.0],[-149.5903,61.0336,0.0],[-149.5966,61.0358,0.0],[-149.6019,61.036,0.0],[-149.6087,61.0375,0.0],[-149.6134,61.0371,0.0],[-149.618,61.0377,0.0],[-149.6236,61.0374,0.0],[-149.6272,61.0363,0.0],[-149.6347,61.0346,0.0],[-149.642,61.032,0.0],[-149.6477,61.0324,0.0],[-149.6561,61.0315,0.0],[-149.6643,61.0297,0.0],[-149.6742,61.0265,0.0],[-149.6844,61.0244,0.0],[-149.689,61.0245,0.0],[-149.6941,61.0231,0.0],[-149.7048,61.0215,0.0],[-149.7146,61.0218,0.0],[-149.7184,61.021,0.0],[-149.7281,61.0203,0.0],[-149.7297,61.0196,0.0],[-149.7308,61.019,0.0],[-149.731,61.0159,0.0],[-149.7358,61.0164,0.0],[-149.7421,61.0188,0.0],[-149.7478,61.0226,0.0],[-149.7512,61.0244,0.0],[-149.7532,61.0271,0.0],[-149.7553,61.0282,0.0],[-149.7594,61.0294,0.0],[-149.7664,61.0315,0.0],[-149.77,61.0338,0.0],[-149.7791,61.0361,0.0],[-149.7835,61.0388,0.0],[-149.7848,61.0414,0.0],[-149.7922,61.0469,0.0],[-149.7955,61.0497,0.0],[-149.7978,61.0518,0.0],[-149.8049,61.0592,0.0],[-149.8155,61.0642,0.0],[-149.8252,61.0687,0.0],[-149.8282,61.0714,0.0],[-149.8298,61.0748,0.0],[-149.8301,61.075,0.0],[-149.8314,61.0822,0.0],[-149.8318,61.0833,0.0],[-149.8342,61.0872,0.0]]]]}}]}