{"type":"FeatureCollection","name":"USA_R170117","crs":{"type":"name","properties":{"name":"urn:ogc:def:crs:OGC:1.3:CRS84"}},"features":[{"type":"Feature","properties":{"uesi_id":"USA_R170117","nbhd_code":"USA_R170117_1","nbhd_name":"Census Tract 33.06"},"geometry":{"type":"MultiPolygon","coordinates":[[[[-115.2255,36.25,0.0],[-115.2255,36.251,0.0],[-115.2255,36.2537,0.0],[-115.2255,36.261,0.0],[-115.2232,36.261,0.0],[-115.2209,36.2611,0.0],[-115.2164,36.2611,0.0],[-115.2144,36.2612,0.0],[-115.2072,36.2616,0.0],[-115.2074,36.2542,0.0],[-115.2075,36.2505,0.0],[-115.2076,36.2467,0.0],[-115.2142,36.2465,0.0],[-115.2177,36.2464,0.0],[-115.2211,36.2464,0.0],[-115.2256,36.2464,0.0],[-115.2255,36.25,0.0]]]]}},{"type":"Feature","properties":{"uesi_id":"USA_R170117","nbhd_code":"USA_R170117_2","nbhd_name":"Census Tract 33.16"},"geometry":{"type":"MultiPolygon","coordinates":[[[[-115.3202,36.3362,0.0],[-115.3148,36.3362,0.0],[-115.2875,36.3359,0.0],[-115.2841,36.3359,0.0],[-115.2786,36.336,0.0],[-115.2786,36.3284,0.0],[-115.2785,36.3248,0.0],[-115.2785,36.3222,0.0],[-115.2786,36.3176,0.0],[-115.2786,36.3139,0.0],[-115.2837,36.3139,0.0],[-115.2843,36.3139,0.0],[-115.2876,36.3139,0.0],[-115.2959,36.3138,0.0],[-115.2985,36.3124,0.0],[-115.3066,36.3214,0.0],[-115.3149,36.3305,0.0],[-115.3185,36.3344,0.0],[-115.3202,36.3362,0.0]]]]}},{"type":"Feature","properties":{"uesi_id":"USA_R170117","nbhd_code":"USA_R170117_3","nbhd_name":"Census Tract 33.17"},"geometry":{"type":"MultiPolygon","coordinates":[[[[-115.2942,36.3083,0.0],[-115.2877,36.3084,0.0],[-115.2786,36.3084,0.0],[-115.279,36.3051,0.0],[-115.2827,36.3013,0.0],[-115.2858,36.2985,0.0],[-115.2931,36.3065,0.0],[-115.2949,36.3086,0.0],[-115.2942,36.3083,0.0]]]]}},{"type":"Feature","properties":{"uesi_id":"USA_R170117","nbhd_code":"USA_R170117_4","nbhd_name":"Census Tract 34.12"},"geometry":{"type":"MultiPolygon","coordinates":[[[[-115.2468,36.233,0.0],[-115.2423,36.233,0.0],[-115.2339,36.2323,0.0],[-115.234,36.2249,0.0],[-115.234,36.2213,0.0],[-115.234,36.2184,0.0],[-115.234,36.2175,0.0],[-115.2347,36.2176,0.0],[-115.2374,36.2178,0.0],[-115.2387,36.2179,0.0],[-115.2423,36.2182,0.0],[-115.2467,36.2182,0.0],[-115.2468,36.2256,0.0],[-115.2468,36.233,0.0]]]]}},{"type":"Feature","properties":{"uesi_id":"USA_R170117","nbhd_code":"USA_R170117_5","nbhd_name":"Census Tract 34.18"},"geometry":{"type":"MultiPolygon","coordinates":[[[[-115.2607,36.2035,0.0],[-115.2514,36.2034,0.0],[-115.2468,36.2034,0.0],[-115.2444,36.2034,0.0],[-115.2444,36.196,0.0],[-115.2513,36.1961,0.0],[-115.2603,36.1961,0.0],[-115.2607,36.2035,0.0]]]]}},{"type":"Feature","properties":{"uesi_id":"USA_R170117","nbhd_code":"USA_R170117_6","nbhd_name":"Census Tract 34.28"},"geometry":{"type":"MultiPolygon","coordinates":[[[[-115.2058,36.2011,0.0],[-115.2058,36.2028,0.0],[-115.2056,36.2092,0.0],[-115.2055,36.2097,0.0],[-115.1991,36.2028,0.0],[-115.1968,36.2002,0.0],[-115.2022,36.1973,0.0],[-115.2039,36.1959,0.0],[-115.206,36.1955,0.0],[-115.2058,36.2011,0.0]]]]}},{"type":"Feature","properties":{"uesi_id":"USA_R170117","nbhd_code":"USA_R170117_7","nbhd_name":"Census Tract 58.06"},"geometry":{"type":"MultiPolygon","coordinates":[[[[-115.3155,36.1444,0.0],[-115.3105,36.1444,0.0],[-115.3067,36.1444,0.0],[-115.3061,36.1422,0.0],[-115.3061,36.1407,0.0],[-115.3065,36.1388,0.0],[-115.3059,36.1371,0.0],[-115.3059,36.1366,0.0],[-115.3065,36.1335,0.0],[-115.3065,36.1322,0.0],[-115.3062,36.1298,0.0],[-115.3152,36.1298,0.0],[-115.3153,36.1371,0.0],[-115.3154,36.1416,0.0],[-115.3155,36.1444,0.0]]]]}},{"type":"Feature","properties":{"uesi_id":"USA_R170117","nbhd_code":"USA_R170117_8","nbhd_name":"Census Tract 58.04"},"geometry":{"type":"MultiPolygon","coordinates":[[[[-115.3077,36.1518,0.0],[-115.3057,36.1541,0.0],[-115.3023,36.1545,0.0],[-115.3023,36.156,0.0],[-115.303,36.1576,0.0],[-115.3031,36.159,0.0],[-115.2914,36.159,0.0],[-115.2917,36.1557,0.0],[-115.2929,36.1537,0.0],[-115.2952,36.1511,0.0],[-115.2975,36.148,0.0],[-115.2977,36.1444,0.0],[-115.3067,36.1444,0.0],[-115.3069,36.1486,0.0],[-115.3077,36.1509,0.0],[-115.3077,36.1518,0.0]]]]}},{"type":"Feature","properties":{"uesi_id":"USA_R170117","nbhd_code":"USA_R170117_9","nbhd_name":"Census Tract 1.03"},"geometry":{"type":"MultiPolygon","coordinates":[[[[-115.2421,36.1664,0.0],[-115.233,36.1664,0.0],[-115.2238,36.1664,0.0],[-115.2239,36.1631,0.0],[-115.2239,36.1593,0.0],[-115.2348,36.1592,0.0],[-115.2419,36.1592,0.0],[-115.242,36.1636,0.0],[-115.2421,36.1664,0.0]]]]}},{"type":"Feature","properties":{"uesi_id":"USA_R170117","nbhd_code":"USA_R170117_10","nbhd_name":"Census Tract 1.07"},"geometry":{"type":"MultiPolygon","coordinates":[[[[-115.2239,36.1631,0.0],[-115.2238,36.1664,0.0],[-115.2196,36.1663,0.0],[-115.2155,36.166,0.0],[-115.2104,36.166,0.0],[-115.208,36.1661,0.0],[-115.206,36.1665,0.0],[-115.206,36.1633,0.0],[-115.2059,36.163,0.0],[-115.2059,36.1591,0.0],[-115.2103,36.1592,0.0],[-115.2168,36.1592,0.0],[-115.2239,36.1593,0.0],[-115.2239,36.1631,0.0]]]]}},{"type":"Feature","properties":{"uesi_id":"USA_R170117","nbhd_code":"USA_R170117_11","nbhd_name":"Census Tract 4.01"},"geometry":{"type":"MultiPolygon","coordinates":[[[[-115.1444,36.1773,0.0],[-115.1419,36.1814,0.0],[-115.1411,36.1845,0.0],[-115.1412,36.1884,0.0],[-115.1354,36.1884,0.0],[-115.1339,36.1884,0.0],[-115.134,36.1821,0.0],[-115.1342,36.1812,0.0],[-115.1356,36.1774,0.0],[-115.1356,36.1772,0.0],[-115.1371,36.1749,0.0],[-115.1431,36.1773,0.0],[-115.1444,36.1773,0.0]]]]}},{"type":"Feature","properties":{"uesi_id":"USA_R170117","nbhd_code":"USA_R170117_12","nbhd_name":"Census Tract 5.13"},"geometry":{"type":"MultiPolygon","coordinates":[[[[-115.0803,36.1825,0.0],[-115.0801,36.1847,0.0],[-115.0799,36.1885,0.0],[-115.0753,36.1885,0.0],[-115.0708,36.1885,0.0],[-115.0665,36.1887,0.0],[-115.0623,36.1888,0.0],[-115.0622,36.1869,0.0],[-115.0622,36.1814,0.0],[-115.0671,36.1813,0.0],[-115.0711,36.1812,0.0],[-115.0739,36.1811,0.0],[-115.0804,36.1809,0.0],[-115.0803,36.1825,0.0]]]]}},{"type":"Feature","properties":{"uesi_id":"USA_R170117","nbhd_code":"USA_R170117_13","nbhd_name":"Census Tract 5.19"},"geometry":{"type":"MultiPolygon","coordinates":[[[[-115.0805,36.1663,0.0],[-115.0758,36.1664,0.0],[-115.0713,36.1664,0.0],[-115.0643,36.1665,0.0],[-115.0622,36.1665,0.0],[-115.0624,36.1591,0.0],[-115.0677,36.1591,0.0],[-115.07,36.159,0.0],[-115.0745,36.159,0.0],[-115.0802,36.159,0.0],[-115.0805,36.1663,0.0]]]]}},{"type":"Feature","properties":{"uesi_id":"USA_R170117","nbhd_code":"USA_R170117_14","nbhd_name":"Census Tract 5.26"},"geometry":{"type":"MultiPolygon","coordinates":[[[[-115.1072,36.1837,0.0],[-115.1072,36.1854,0.0],[-115.1072,36.1883,0.0],[-115.0983,36.1881,0.0],[-115.0983,36.1842,0.0],[-115.0983,36.1809,0.0],[-115.1072,36.1811,0.0],[-115.1072,36.1837,0.0]]]]}},{"type":"Feature","properties":{"uesi_id":"USA_R170117","nbhd_code":"USA_R170117_15","nbhd_name":"Census Tract 8"},"geometry":{"type":"MultiPolygon","coordinates":[[[[-115.1459,36.1589,0.0],[-115.1426,36.1641,0.0],[-115.1403,36.1676,0.0],[-115.1323,36.1641,0.0],[-115.1346,36.1607,0.0],[-115.1353,36.1589,0.0],[-115.1369,36.1589,0.0],[-115.1409,36.1588,0.0],[-115.1446,36.1588,0.0],[-115.1459,36.1589,0.0]]]]}},{"type":"Feature","properties":{"uesi_id":"USA_R170117","nbhd_code":"USA_R170117_16","nbhd_name":"Census Tract 13"},"geometry":{"type":"MultiPolygon","coordinates":[[[[-115.1416,36.1493,0.0],[-115.1415,36.1516,0.0],[-115.1415,36.1537,0.0],[-115.1405,36.1551,0.0],[-115.141,36.1551,0.0],[-115.1409,36.1588,0.0],[-115.1369,36.1589,0.0],[-115.1353,36.1589,0.0],[-115.1328,36.1589,0.0],[-115.1287,36.1589,0.0],[-115.1278,36.1573,0.0],[-115.1278,36.153,0.0],[-115.1278,36.1517,0.0],[-115.1277,36.1488,0.0],[-115.1276,36.1444,0.0],[-115.128,36.1444,0.0],[-115.1328,36.1444,0.0],[-115.137,36.1443,0.0],[-115.137,36.1479,0.0],[-115.1416,36.1478,0.0],[-115.1416,36.1493,0.0]]]]}},{"type":"Feature","properties":{"uesi_id":"USA_R170117","nbhd_code":"USA_R170117_17","nbhd_name":"Census Tract 29.05"},"geometry":{"type":"MultiPolygon","coordinates":[[[[-115.2438,36.1592,0.0],[-115.2419,36.1592,0.0],[-115.2348,36.1592,0.0],[-115.2239,36.1593,0.0],[-115.2241,36.158,0.0],[-115.2253,36.1564,0.0],[-115.2257,36.1557,0.0],[-115.2255,36.148,0.0],[-115.2254,36.1468,0.0],[-115.2253,36.1443,0.0],[-115.2339,36.1441,0.0],[-115.243,36.1442,0.0],[-115.2432,36.1479,0.0],[-115.2434,36.1516,0.0],[-115.2436,36.1553,0.0],[-115.2438,36.1592,0.0]]]]}},{"type":"Feature","properties":{"uesi_id":"USA_R170117","nbhd_code":"USA_R170117_18","nbhd_name":"Census Tract 30.01"},"geometry":{"type":"MultiPolygon","coordinates":[[[[-115.2422,36.175,0.0],[-115.2397,36.1737,0.0],[-115.2332,36.1735,0.0],[-115.2332,36.1738,0.0],[-115.2241,36.1743,0.0],[-115.2241,36.172,0.0],[-115.2238,36.1664,0.0],[-115.233,36.1664,0.0],[-115.2421,36.1664,0.0],[-115.2422,36.1701,0.0],[-115.2423,36.1738,0.0],[-115.2422,36.175,0.0]]]]}},{"type":"Feature","properties":{"uesi_id":"USA_R170117","nbhd_code":"USA_R170117_19","nbhd_name":"Census Tract 31.04"},"geometry":{"type":"MultiPolygon","coordinates":[[[[-115.2446,36.1886,0.0],[-115.2423,36.1886,0.0],[-115.2393,36.1886,0.0],[-115.2332,36.1885,0.0],[-115.2332,36.1879,0.0],[-115.2345,36.1849,0.0],[-115.2345,36.1838,0.0],[-115.2332,36.1815,0.0],[-115.2332,36.181,0.0],[-115.2446,36.1813,0.0],[-115.2446,36.1886,0.0]]]]}},{"type":"Feature","properties":{"uesi_id":"USA_R170117","nbhd_code":"USA_R170117_20","nbhd_name":"Census Tract 32.14"},"geometry":{"type":"MultiPolygon","coordinates":[[[[-115.2991,36.2095,0.0],[-115.2982,36.2107,0.0],[-115.2967,36.2114,0.0],[-115.2944,36.2117,0.0],[-115.2875,36.2115,0.0],[-115.2833,36.2107,0.0],[-115.2811,36.2102,0.0],[-115.2789,36.2102,0.0],[-115.2789,36.2063,0.0],[-115.2793,36.2035,0.0],[-115.2823,36.1998,0.0],[-115.2858,36.2021,0.0],[-115.2889,36.2037,0.0],[-115.2919,36.2049,0.0],[-115.2955,36.2056,0.0],[-115.2998,36.2061,0.0],[-115.2991,36.2095,0.0]]]]}},{"type":"Feature","properties":{"uesi_id":"USA_R170117","nbhd_code":"USA_R170117_21","nbhd_name":"Census Tract 32.26"},"geometry":{"type":"MultiPolygon","coordinates":[[[[-115.3152,36.168,0.0],[-115.3105,36.17,0.0],[-115.2987,36.1699,0.0],[-115.2973,36.1697,0.0],[-115.2942,36.1678,0.0],[-115.2923,36.1674,0.0],[-115.289,36.1674,0.0],[-115.288,36.1668,0.0],[-115.2906,36.1642,0.0],[-115.2913,36.1628,0.0],[-115.2914,36.162,0.0],[-115.2914,36.159,0.0],[-115.3031,36.159,0.0],[-115.3062,36.159,0.0],[-115.3141,36.1589,0.0],[-115.3152,36.168,0.0]]]]}},{"type":"Feature","properties":{"uesi_id":"USA_R170117","nbhd_code":"USA_R170117_22","nbhd_name":"Census Tract 32.34"},"geometry":{"type":"MultiPolygon","coordinates":[[[[-115.2969,36.2918,0.0],[-115.2969,36.2955,0.0],[-115.2902,36.2955,0.0],[-115.2895,36.2957,0.0],[-115.288,36.2951,0.0],[-115.288,36.294,0.0],[-115.2878,36.2918,0.0],[-115.2878,36.2882,0.0],[-115.2878,36.2845,0.0],[-115.2968,36.2845,0.0],[-115.2969,36.2882,0.0],[-115.2969,36.2918,0.0]]]]}},{"type":"Feature","properties":{"uesi_id":"USA_R170117","nbhd_code":"USA_R170117_23","nbhd_name":"Census Tract 32.44"},"geometry":{"type":"MultiPolygon","coordinates":[[[[-115.2974,36.2261,0.0],[-115.2928,36.2261,0.0],[-115.2882,36.2261,0.0],[-115.2789,36.2262,0.0],[-115.2788,36.2186,0.0],[-115.2873,36.2186,0.0],[-115.288,36.2186,0.0],[-115.2971,36.2186,0.0],[-115.2973,36.2223,0.0],[-115.2974,36.2261,0.0]]]]}},{"type":"Feature","properties":{"uesi_id":"USA_R170117","nbhd_code":"USA_R170117_24","nbhd_name":"Census Tract 32.53"},"geometry":{"type":"MultiPolygon","coordinates":[[[[-115.2871,36.1685,0.0],[-115.2871,36.174,0.0],[-115.2872,36.1777,0.0],[-115.2817,36.1772,0.0],[-115.2782,36.1777,0.0],[-115.278,36.1737,0.0],[-115.2734,36.1738,0.0],[-115.2734,36.1704,0.0],[-115.2734,36.1701,0.0],[-115.2689,36.1701,0.0],[-115.2599,36.1703,0.0],[-115.2599,36.1665,0.0],[-115.2661,36.1665,0.0],[-115.2689,36.1664,0.0],[-115.2779,36.1663,0.0],[-115.2862,36.1662,0.0],[-115.288,36.1668,0.0],[-115.2871,36.1685,0.0]]]]}},{"type":"Feature","properties":{"uesi_id":"USA_R170117","nbhd_code":"USA_R170117_25","nbhd_name":"Census Tract 1.06"},"geometry":{"type":"MultiPolygon","coordinates":[[[[-115.2241,36.1743,0.0],[-115.2149,36.1741,0.0],[-115.2109,36.1739,0.0],[-115.2059,36.1737,0.0],[-115.2059,36.1734,0.0],[-115.206,36.1722,0.0],[-115.206,36.1701,0.0],[-115.206,36.1665,0.0],[-115.208,36.1661,0.0],[-115.2104,36.166,0.0],[-115.2155,36.166,0.0],[-115.2196,36.1663,0.0],[-115.2238,36.1664,0.0],[-115.2241,36.172,0.0],[-115.2241,36.1743,0.0]]]]}},{"type":"Feature","properties":{"uesi_id":"USA_R170117","nbhd_code":"USA_R170117_26","nbhd_name":"Census Tract 5.25"},"geometry":{"type":"MultiPolygon","coordinates":[[[[-115.1161,36.1885,0.0],[-115.1112,36.1884,0.0],[-115.1077,36.1883,0.0],[-115.1072,36.1883,0.0],[-115.1072,36.1854,0.0],[-115.1072,36.1837,0.0],[-115.1072,36.1811,0.0],[-115.1161,36.1812,0.0],[-115.1161,36.1824,0.0],[-115.1161,36.1885,0.0]]]]}},{"type":"Feature","properties":{"uesi_id":"USA_R170117","nbhd_code":"USA_R170117_27","nbhd_name":"Census Tract 32.49"},"geometry":{"type":"MultiPolygon","coordinates":[[[[-115.3424,36.1916,0.0],[-115.3387,36.1915,0.0],[-115.3356,36.1921,0.0],[-115.3319,36.193,0.0],[-115.3276,36.1939,0.0],[-115.3236,36.1937,0.0],[-115.3237,36.1935,0.0],[-115.3239,36.1923,0.0],[-115.3254,36.1879,0.0],[-115.3264,36.185,0.0],[-115.3306,36.1854,0.0],[-115.3339,36.1846,0.0],[-115.3372,36.1829,0.0],[-115.3412,36.1815,0.0],[-115.3425,36.1858,0.0],[-115.3424,36.1916,0.0]]]]}},{"type":"Feature","properties":{"uesi_id":"USA_R170117","nbhd_code":"USA_R170117_28","nbhd_name":"Census Tract 35"},"geometry":{"type":"MultiPolygon","coordinates":[[[[-115.1653,36.1973,0.0],[-115.1653,36.203,0.0],[-115.1608,36.203,0.0],[-115.1585,36.203,0.0],[-115.1518,36.2031,0.0],[-115.1518,36.1975,0.0],[-115.1519,36.1957,0.0],[-115.1608,36.1957,0.0],[-115.1654,36.1957,0.0],[-115.1653,36.1973,0.0]]]]}},{"type":"Feature","properties":{"uesi_id":"USA_R170117","nbhd_code":"USA_R170117_29","nbhd_name":"Census Tract 5.17"},"geometry":{"type":"MultiPolygon","coordinates":[[[[-115.0805,36.1699,0.0],[-115.0804,36.1735,0.0],[-115.0713,36.1738,0.0],[-115.0622,36.1741,0.0],[-115.0622,36.1665,0.0],[-115.0643,36.1665,0.0],[-115.0713,36.1664,0.0],[-115.0758,36.1664,0.0],[-115.0805,36.1663,0.0],[-115.0805,36.1699,0.0]]]]}},{"type":"Feature","properties":{"uesi_id":"USA_R170117","nbhd_code":"USA_R170117_30","nbhd_name":"Census Tract 32.39"},"geometry":{"type":"MultiPolygon","coordinates":[[[[-115.3275,36.2193,0.0],[-115.3262,36.2215,0.0],[-115.3253,36.2255,0.0],[-115.3253,36.2273,0.0],[-115.3253,36.2291,0.0],[-115.3227,36.2292,0.0],[-115.3154,36.2293,0.0],[-115.3155,36.2291,0.0],[-115.3156,36.2257,0.0],[-115.3157,36.2183,0.0],[-115.3197,36.2183,0.0],[-115.3214,36.2183,0.0],[-115.3248,36.2184,0.0],[-115.3262,36.2186,0.0],[-115.3272,36.219,0.0],[-115.3275,36.2192,0.0],[-115.3275,36.2193,0.0]]]]}},{"type":"Feature","properties":{"uesi_id":"USA_R170117","nbhd_code":"USA_R170117_31","nbhd_name":"Census Tract 32.20"},"geometry":{"type":"MultiPolygon","coordinates":[[[[-115.2876,36.1886,0.0],[-115.2834,36.1886,0.0],[-115.2786,36.1887,0.0],[-115.2735,36.1887,0.0],[-115.2726,36.1887,0.0],[-115.267,36.1887,0.0],[-115.2601,36.1888,0.0],[-115.26,36.1851,0.0],[-115.26,36.1832,0.0],[-115.2598,36.1785,0.0],[-115.2657,36.1779,0.0],[-115.2782,36.1777,0.0],[-115.2817,36.1772,0.0],[-115.2872,36.1777,0.0],[-115.2872,36.178,0.0],[-115.2876,36.1886,0.0]]]]}},{"type":"Feature","properties":{"uesi_id":"USA_R170117","nbhd_code":"USA_R170117_32","nbhd_name":"Census Tract 2.03"},"geometry":{"type":"MultiPolygon","coordinates":[[[[-115.1745,36.1756,0.0],[-115.1667,36.1761,0.0],[-115.1608,36.1753,0.0],[-115.1608,36.1735,0.0],[-115.1608,36.1662,0.0],[-115.1608,36.1589,0.0],[-115.1728,36.1589,0.0],[-115.1727,36.1662,0.0],[-115.1727,36.1712,0.0],[-115.1732,36.1732,0.0],[-115.1745,36.1756,0.0]]]]}},{"type":"Feature","properties":{"uesi_id":"USA_R170117","nbhd_code":"USA_R170117_33","nbhd_name":"Census Tract 5.22"},"geometry":{"type":"MultiPolygon","coordinates":[[[[-115.1162,36.1739,0.0],[-115.1122,36.1738,0.0],[-115.1117,36.1738,0.0],[-115.1058,36.1737,0.0],[-115.1056,36.17,0.0],[-115.1055,36.1677,0.0],[-115.1055,36.1676,0.0],[-115.1141,36.1676,0.0],[-115.1158,36.1673,0.0],[-115.1159,36.168,0.0],[-115.116,36.1702,0.0],[-115.1162,36.1739,0.0]]]]}},{"type":"Feature","properties":{"uesi_id":"USA_R170117","nbhd_code":"USA_R170117_34","nbhd_name":"Census Tract 11"},"geometry":{"type":"MultiPolygon","coordinates":[[[[-115.1606,36.1525,0.0],[-115.1565,36.1589,0.0],[-115.1563,36.1589,0.0],[-115.1474,36.1589,0.0],[-115.1487,36.157,0.0],[-115.1512,36.1536,0.0],[-115.1519,36.1521,0.0],[-115.1557,36.1463,0.0],[-115.1573,36.1437,0.0],[-115.1661,36.1441,0.0],[-115.1606,36.1525,0.0]]]]}},{"type":"Feature","properties":{"uesi_id":"USA_R170117","nbhd_code":"USA_R170117_35","nbhd_name":"Census Tract 34.09"},"geometry":{"type":"MultiPolygon","coordinates":[[[[-115.2469,36.2405,0.0],[-115.2467,36.2405,0.0],[-115.2466,36.2479,0.0],[-115.2423,36.2479,0.0],[-115.2401,36.2477,0.0],[-115.2401,36.2476,0.0],[-115.2327,36.2396,0.0],[-115.2338,36.2397,0.0],[-115.2339,36.2323,0.0],[-115.2423,36.233,0.0],[-115.2468,36.233,0.0],[-115.2469,36.2405,0.0]]]]}},{"type":"Feature","properties":{"uesi_id":"USA_R170117","nbhd_code":"USA_R170117_36","nbhd_name":"Census Tract 58.22"},"geometry":{"type":"MultiPolygon","coordinates":[[[[-115.3555,36.1715,0.0],[-115.3519,36.1721,0.0],[-115.3481,36.1727,0.0],[-115.3426,36.1707,0.0],[-115.3411,36.1702,0.0],[-115.3375,36.1701,0.0],[-115.3371,36.159,0.0],[-115.3444,36.159,0.0],[-115.352,36.1589,0.0],[-115.3524,36.1632,0.0],[-115.3555,36.1715,0.0]]]]}},{"type":"Feature","properties":{"uesi_id":"USA_R170117","nbhd_code":"USA_R170117_37","nbhd_name":"Census Tract 2.01"},"geometry":{"type":"MultiPolygon","coordinates":[[[[-115.1789,36.1811,0.0],[-115.1789,36.1885,0.0],[-115.1698,36.1885,0.0],[-115.1608,36.1885,0.0],[-115.1608,36.1837,0.0],[-115.1608,36.1809,0.0],[-115.1608,36.1771,0.0],[-115.1608,36.1753,0.0],[-115.1667,36.1761,0.0],[-115.1745,36.1756,0.0],[-115.1759,36.1772,0.0],[-115.1788,36.1805,0.0],[-115.1792,36.1811,0.0],[-115.1789,36.1811,0.0]]]]}},{"type":"Feature","properties":{"uesi_id":"USA_R170117","nbhd_code":"USA_R170117_38","nbhd_name":"Census Tract 5.14"},"geometry":{"type":"MultiPolygon","coordinates":[[[[-115.1072,36.1811,0.0],[-115.0983,36.1809,0.0],[-115.0942,36.1809,0.0],[-115.0937,36.1809,0.0],[-115.0892,36.1809,0.0],[-115.0804,36.1809,0.0],[-115.0804,36.1772,0.0],[-115.0804,36.1735,0.0],[-115.0893,36.1735,0.0],[-115.0949,36.1735,0.0],[-115.0955,36.1735,0.0],[-115.0982,36.1735,0.0],[-115.1058,36.1737,0.0],[-115.1058,36.1768,0.0],[-115.1059,36.1773,0.0],[-115.1071,36.1793,0.0],[-115.1072,36.1811,0.0]]]]}},{"type":"Feature","properties":{"uesi_id":"USA_R170117","nbhd_code":"USA_R170117_39","nbhd_name":"Census Tract 5.24"},"geometry":{"type":"MultiPolygon","coordinates":[[[[-115.1161,36.1775,0.0],[-115.1161,36.1812,0.0],[-115.1072,36.1811,0.0],[-115.1071,36.1793,0.0],[-115.1059,36.1773,0.0],[-115.1058,36.1768,0.0],[-115.1058,36.1737,0.0],[-115.1117,36.1738,0.0],[-115.1122,36.1738,0.0],[-115.1162,36.1739,0.0],[-115.1161,36.1775,0.0]]]]}},{"type":"Feature","properties":{"uesi_id":"USA_R170117","nbhd_code":"USA_R170117_40","nbhd_name":"Census Tract 32.28"},"geometry":{"type":"MultiPolygon","coordinates":[[[[-115.3013,36.3067,0.0],[-115.2976,36.3065,0.0],[-115.2968,36.3066,0.0],[-115.2931,36.3065,0.0],[-115.2858,36.2985,0.0],[-115.2876,36.2964,0.0],[-115.288,36.2951,0.0],[-115.2895,36.2957,0.0],[-115.2902,36.2955,0.0],[-115.2969,36.2955,0.0],[-115.3014,36.2956,0.0],[-115.3013,36.3067,0.0]]]]}},{"type":"Feature","properties":{"uesi_id":"USA_R170117","nbhd_code":"USA_R170117_41","nbhd_name":"Census Tract 33.09"},"geometry":{"type":"MultiPolygon","coordinates":[[[[-115.2245,36.2795,0.0],[-115.2244,36.2832,0.0],[-115.2243,36.2869,0.0],[-115.2243,36.2887,0.0],[-115.2242,36.2905,0.0],[-115.2242,36.2941,0.0],[-115.2069,36.295,0.0],[-115.2067,36.2912,0.0],[-115.2066,36.2838,0.0],[-115.2065,36.2776,0.0],[-115.2067,36.2763,0.0],[-115.2068,36.2763,0.0],[-115.2154,36.2762,0.0],[-115.2248,36.2761,0.0],[-115.2245,36.2795,0.0]]]]}},{"type":"Feature","properties":{"uesi_id":"USA_R170117","nbhd_code":"USA_R170117_42","nbhd_name":"Census Tract 33.19"},"geometry":{"type":"MultiPolygon","coordinates":[[[[-115.2686,36.2938,0.0],[-115.2685,36.295,0.0],[-115.2694,36.2974,0.0],[-115.2694,36.2985,0.0],[-115.2693,36.3084,0.0],[-115.2693,36.3098,0.0],[-115.2625,36.3093,0.0],[-115.2601,36.3092,0.0],[-115.2601,36.3051,0.0],[-115.2602,36.2979,0.0],[-115.2601,36.2963,0.0],[-115.2599,36.2957,0.0],[-115.2592,36.2938,0.0],[-115.2602,36.2906,0.0],[-115.2695,36.2912,0.0],[-115.2686,36.2938,0.0]]]]}},{"type":"Feature","properties":{"uesi_id":"USA_R170117","nbhd_code":"USA_R170117_43","nbhd_name":"Census Tract 34.30"},"geometry":{"type":"MultiPolygon","coordinates":[[[[-115.1789,36.1921,0.0],[-115.1788,36.1957,0.0],[-115.176,36.1957,0.0],[-115.1751,36.1957,0.0],[-115.1719,36.1954,0.0],[-115.1717,36.1955,0.0],[-115.1702,36.1956,0.0],[-115.1698,36.1957,0.0],[-115.1698,36.1906,0.0],[-115.1698,36.1898,0.0],[-115.1698,36.1894,0.0],[-115.1698,36.1885,0.0],[-115.1789,36.1885,0.0],[-115.1789,36.1921,0.0]]]]}},{"type":"Feature","properties":{"uesi_id":"USA_R170117","nbhd_code":"USA_R170117_44","nbhd_name":"Census Tract 1.01"},"geometry":{"type":"MultiPolygon","coordinates":[[[[-115.2061,36.1882,0.0],[-115.2022,36.1883,0.0],[-115.2002,36.1883,0.0],[-115.197,36.1883,0.0],[-115.1897,36.1885,0.0],[-115.1894,36.1885,0.0],[-115.186,36.1885,0.0],[-115.1789,36.1885,0.0],[-115.1789,36.1811,0.0],[-115.1792,36.1811,0.0],[-115.1788,36.1805,0.0],[-115.1759,36.1772,0.0],[-115.1745,36.1756,0.0],[-115.1837,36.1755,0.0],[-115.1878,36.1763,0.0],[-115.1925,36.1761,0.0],[-115.2019,36.1734,0.0],[-115.2059,36.1734,0.0],[-115.2059,36.1737,0.0],[-115.2061,36.1809,0.0],[-115.2061,36.1882,0.0]]]]}},{"type":"Feature","properties":{"uesi_id":"USA_R170117","nbhd_code":"USA_R170117_45","nbhd_name":"Census Tract 5.15"},"geometry":{"type":"MultiPolygon","coordinates":[[[[-115.0804,36.1772,0.0],[-115.0804,36.1809,0.0],[-115.0739,36.1811,0.0],[-115.0711,36.1812,0.0],[-115.0671,36.1813,0.0],[-115.0622,36.1814,0.0],[-115.0622,36.1777,0.0],[-115.0622,36.1741,0.0],[-115.0713,36.1738,0.0],[-115.0804,36.1735,0.0],[-115.0804,36.1772,0.0]]]]}},{"type":"Feature","properties":{"uesi_id":"USA_R170117","nbhd_code":"USA_R170117_46","nbhd_name":"Census Tract 5.27"},"geometry":{"type":"MultiPolygon","coordinates":[[[[-115.0983,36.1881,0.0],[-115.0937,36.1883,0.0],[-115.0916,36.1883,0.0],[-115.0913,36.1865,0.0],[-115.0892,36.1838,0.0],[-115.0869,36.183,0.0],[-115.0857,36.1828,0.0],[-115.0803,36.1825,0.0],[-115.0804,36.1809,0.0],[-115.0892,36.1809,0.0],[-115.0937,36.1809,0.0],[-115.0942,36.1809,0.0],[-115.0983,36.1809,0.0],[-115.0983,36.1842,0.0],[-115.0983,36.1881,0.0]]]]}},{"type":"Feature","properties":{"uesi_id":"USA_R170117","nbhd_code":"USA_R170117_47","nbhd_name":"Census Tract 15.01"},"geometry":{"type":"MultiPolygon","coordinates":[[[[-115.1161,36.1589,0.0],[-115.1115,36.1589,0.0],[-115.1077,36.1589,0.0],[-115.1072,36.1589,0.0],[-115.1061,36.1589,0.0],[-115.1055,36.1589,0.0],[-115.1011,36.1589,0.0],[-115.1011,36.1556,0.0],[-115.101,36.1518,0.0],[-115.1018,36.1508,0.0],[-115.101,36.1499,0.0],[-115.1008,36.1461,0.0],[-115.1013,36.1459,0.0],[-115.1014,36.1459,0.0],[-115.1086,36.1523,0.0],[-115.1124,36.1555,0.0],[-115.1166,36.1589,0.0],[-115.1161,36.1589,0.0]]]]}},{"type":"Feature","properties":{"uesi_id":"USA_R170117","nbhd_code":"USA_R170117_48","nbhd_name":"Census Tract 31.03"},"geometry":{"type":"MultiPolygon","coordinates":[[[[-115.2345,36.1849,0.0],[-115.2332,36.1879,0.0],[-115.2332,36.1885,0.0],[-115.224,36.1885,0.0],[-115.2239,36.1846,0.0],[-115.2238,36.1808,0.0],[-115.2332,36.181,0.0],[-115.2332,36.1815,0.0],[-115.2345,36.1838,0.0],[-115.2345,36.1849,0.0]]]]}},{"type":"Feature","properties":{"uesi_id":"USA_R170117","nbhd_code":"USA_R170117_49","nbhd_name":"Census Tract 32.30"},"geometry":{"type":"MultiPolygon","coordinates":[[[[-115.3336,36.3063,0.0],[-115.3291,36.3064,0.0],[-115.3219,36.3066,0.0],[-115.3148,36.3067,0.0],[-115.3058,36.3067,0.0],[-115.3013,36.3067,0.0],[-115.3014,36.2956,0.0],[-115.3059,36.2956,0.0],[-115.3126,36.2957,0.0],[-115.3138,36.2958,0.0],[-115.315,36.2958,0.0],[-115.3149,36.2994,0.0],[-115.3196,36.2994,0.0],[-115.329,36.2992,0.0],[-115.3335,36.2991,0.0],[-115.3336,36.3063,0.0]]]]}},{"type":"Feature","properties":{"uesi_id":"USA_R170117","nbhd_code":"USA_R170117_50","nbhd_name":"Census Tract 32.45"},"geometry":{"type":"MultiPolygon","coordinates":[[[[-115.2791,36.2337,0.0],[-115.2757,36.2336,0.0],[-115.2699,36.2334,0.0],[-115.2607,36.2331,0.0],[-115.2606,36.2257,0.0],[-115.2622,36.2257,0.0],[-115.2623,36.2257,0.0],[-115.2628,36.2257,0.0],[-115.2698,36.2259,0.0],[-115.2721,36.226,0.0],[-115.2766,36.2261,0.0],[-115.2789,36.2262,0.0],[-115.279,36.2306,0.0],[-115.2791,36.2337,0.0]]]]}},{"type":"Feature","properties":{"uesi_id":"USA_R170117","nbhd_code":"USA_R170117_51","nbhd_name":"Census Tract 32.54"},"geometry":{"type":"MultiPolygon","coordinates":[[[[-115.2782,36.1777,0.0],[-115.2657,36.1779,0.0],[-115.2598,36.1785,0.0],[-115.2598,36.174,0.0],[-115.2599,36.174,0.0],[-115.2599,36.1705,0.0],[-115.2599,36.1703,0.0],[-115.2689,36.1701,0.0],[-115.2734,36.1701,0.0],[-115.2734,36.1704,0.0],[-115.2734,36.1738,0.0],[-115.278,36.1737,0.0],[-115.2782,36.1777,0.0]]]]}},{"type":"Feature","properties":{"uesi_id":"USA_R170117","nbhd_code":"USA_R170117_52","nbhd_name":"Census Tract 33.11"},"geometry":{"type":"MultiPolygon","coordinates":[[[[-115.2241,36.2977,0.0],[-115.224,36.3013,0.0],[-115.2156,36.3019,0.0],[-115.2071,36.3024,0.0],[-115.207,36.2987,0.0],[-115.2069,36.295,0.0],[-115.2242,36.2941,0.0],[-115.2241,36.2977,0.0]]]]}},{"type":"Feature","properties":{"uesi_id":"USA_R170117","nbhd_code":"USA_R170117_53","nbhd_name":"Census Tract 33.13"},"geometry":{"type":"MultiPolygon","coordinates":[[[[-115.2158,36.3168,0.0],[-115.2072,36.3171,0.0],[-115.2072,36.3134,0.0],[-115.2072,36.3098,0.0],[-115.2071,36.3024,0.0],[-115.2156,36.3019,0.0],[-115.2156,36.3093,0.0],[-115.2157,36.313,0.0],[-115.2158,36.3168,0.0]]]]}},{"type":"Feature","properties":{"uesi_id":"USA_R170117","nbhd_code":"USA_R170117_54","nbhd_name":"Census Tract 34.11"},"geometry":{"type":"MultiPolygon","coordinates":[[[[-115.2607,36.2331,0.0],[-115.2468,36.233,0.0],[-115.2468,36.2256,0.0],[-115.2467,36.2182,0.0],[-115.2604,36.2183,0.0],[-115.2606,36.2247,0.0],[-115.2606,36.2257,0.0],[-115.2607,36.2331,0.0]]]]}},{"type":"Feature","properties":{"uesi_id":"USA_R170117","nbhd_code":"USA_R170117_55","nbhd_name":"Census Tract 34.22"},"geometry":{"type":"MultiPolygon","coordinates":[[[[-115.2444,36.1912,0.0],[-115.2444,36.196,0.0],[-115.2377,36.1959,0.0],[-115.2331,36.1959,0.0],[-115.2265,36.1958,0.0],[-115.2239,36.1957,0.0],[-115.224,36.1936,0.0],[-115.224,36.1921,0.0],[-115.224,36.1885,0.0],[-115.2332,36.1885,0.0],[-115.2393,36.1886,0.0],[-115.2423,36.1886,0.0],[-115.2446,36.1886,0.0],[-115.2444,36.1912,0.0]]]]}},{"type":"Feature","properties":{"uesi_id":"USA_R170117","nbhd_code":"USA_R170117_56","nbhd_name":"Census Tract 58.03"},"geometry":{"type":"MultiPolygon","coordinates":[[[[-115.3158,36.159,0.0],[-115.3141,36.1589,0.0],[-115.3062,36.159,0.0],[-115.3031,36.159,0.0],[-115.303,36.1576,0.0],[-115.3023,36.156,0.0],[-115.3023,36.1545,0.0],[-115.3057,36.1541,0.0],[-115.3077,36.1518,0.0],[-115.3077,36.1509,0.0],[-115.3069,36.1486,0.0],[-115.3067,36.1444,0.0],[-115.3105,36.1444,0.0],[-115.3155,36.1444,0.0],[-115.3156,36.1451,0.0],[-115.3157,36.1487,0.0],[-115.3157,36.1525,0.0],[-115.3158,36.159,0.0]]]]}},{"type":"Feature","properties":{"uesi_id":"USA_R170117","nbhd_code":"USA_R170117_57","nbhd_name":"Census Tract 58.24"},"geometry":{"type":"MultiPolygon","coordinates":[[[[-115.3558,36.1746,0.0],[-115.3537,36.1815,0.0],[-115.3473,36.1807,0.0],[-115.3456,36.1806,0.0],[-115.3436,36.1809,0.0],[-115.3412,36.1815,0.0],[-115.3381,36.1747,0.0],[-115.3375,36.1701,0.0],[-115.3411,36.1702,0.0],[-115.3426,36.1707,0.0],[-115.3481,36.1727,0.0],[-115.3519,36.1721,0.0],[-115.3555,36.1715,0.0],[-115.3558,36.1746,0.0]]]]}},{"type":"Feature","properties":{"uesi_id":"USA_R170117","nbhd_code":"USA_R170117_59","nbhd_name":"Census Tract 58.05"},"geometry":{"type":"MultiPolygon","coordinates":[[[[-115.2975,36.148,0.0],[-115.2952,36.1511,0.0],[-115.2929,36.1537,0.0],[-115.2917,36.1557,0.0],[-115.2914,36.159,0.0],[-115.2869,36.159,0.0],[-115.2803,36.1591,0.0],[-115.2798,36.1537,0.0],[-115.2796,36.1515,0.0],[-115.2796,36.1512,0.0],[-115.279,36.1441,0.0],[-115.2879,36.1441,0.0],[-115.2977,36.1444,0.0],[-115.2975,36.148,0.0]]]]}},{"type":"Feature","properties":{"uesi_id":"USA_R170117","nbhd_code":"USA_R170117_60","nbhd_name":"Census Tract 1.05"},"geometry":{"type":"MultiPolygon","coordinates":[[[[-115.206,36.1701,0.0],[-115.206,36.1722,0.0],[-115.2059,36.1734,0.0],[-115.2019,36.1734,0.0],[-115.1925,36.1761,0.0],[-115.1926,36.1662,0.0],[-115.1925,36.1629,0.0],[-115.1925,36.1591,0.0],[-115.1998,36.1591,0.0],[-115.2059,36.1591,0.0],[-115.2059,36.163,0.0],[-115.206,36.1633,0.0],[-115.206,36.1665,0.0],[-115.206,36.1701,0.0]]]]}},{"type":"Feature","properties":{"uesi_id":"USA_R170117","nbhd_code":"USA_R170117_61","nbhd_name":"Census Tract 1.09"},"geometry":{"type":"MultiPolygon","coordinates":[[[[-115.2241,36.1747,0.0],[-115.224,36.1769,0.0],[-115.2238,36.1808,0.0],[-115.2199,36.1808,0.0],[-115.215,36.181,0.0],[-115.2101,36.181,0.0],[-115.21,36.1742,0.0],[-115.211,36.1743,0.0],[-115.2109,36.1739,0.0],[-115.2149,36.1741,0.0],[-115.2241,36.1743,0.0],[-115.2241,36.1747,0.0]]]]}},{"type":"Feature","properties":{"uesi_id":"USA_R170117","nbhd_code":"USA_R170117_62","nbhd_name":"Census Tract 2.04"},"geometry":{"type":"MultiPolygon","coordinates":[[[[-115.1729,36.1547,0.0],[-115.1729,36.1557,0.0],[-115.1728,36.1589,0.0],[-115.1608,36.1589,0.0],[-115.1602,36.1589,0.0],[-115.1591,36.159,0.0],[-115.1565,36.1589,0.0],[-115.1606,36.1525,0.0],[-115.1661,36.1441,0.0],[-115.1709,36.1443,0.0],[-115.1719,36.1444,0.0],[-115.1731,36.1444,0.0],[-115.1729,36.1547,0.0]]]]}},{"type":"Feature","properties":{"uesi_id":"USA_R170117","nbhd_code":"USA_R170117_63","nbhd_name":"Census Tract 3.02"},"geometry":{"type":"MultiPolygon","coordinates":[[[[-115.1698,36.1894,0.0],[-115.1698,36.1898,0.0],[-115.1698,36.1906,0.0],[-115.1698,36.1957,0.0],[-115.1654,36.1957,0.0],[-115.1608,36.1957,0.0],[-115.1519,36.1957,0.0],[-115.1518,36.192,0.0],[-115.1519,36.1884,0.0],[-115.1519,36.1849,0.0],[-115.1518,36.1817,0.0],[-115.1518,36.1808,0.0],[-115.1518,36.1772,0.0],[-115.1608,36.1771,0.0],[-115.1608,36.1809,0.0],[-115.1608,36.1837,0.0],[-115.1608,36.1885,0.0],[-115.1698,36.1885,0.0],[-115.1698,36.1894,0.0]]]]}},{"type":"Feature","properties":{"uesi_id":"USA_R170117","nbhd_code":"USA_R170117_64","nbhd_name":"Census Tract 4.03"},"geometry":{"type":"MultiPolygon","coordinates":[[[[-115.1348,36.174,0.0],[-115.1299,36.174,0.0],[-115.1291,36.174,0.0],[-115.1251,36.174,0.0],[-115.1251,36.171,0.0],[-115.1251,36.1681,0.0],[-115.1251,36.1665,0.0],[-115.1274,36.1665,0.0],[-115.13,36.1677,0.0],[-115.1311,36.1681,0.0],[-115.1369,36.1706,0.0],[-115.1348,36.174,0.0]]]]}},{"type":"Feature","properties":{"uesi_id":"USA_R170117","nbhd_code":"USA_R170117_65","nbhd_name":"Census Tract 5.16"},"geometry":{"type":"MultiPolygon","coordinates":[[[[-115.1058,36.1737,0.0],[-115.0982,36.1735,0.0],[-115.0955,36.1735,0.0],[-115.0949,36.1735,0.0],[-115.0893,36.1735,0.0],[-115.0804,36.1735,0.0],[-115.0805,36.1699,0.0],[-115.0805,36.1663,0.0],[-115.0865,36.1662,0.0],[-115.0892,36.1662,0.0],[-115.0911,36.1662,0.0],[-115.0954,36.1661,0.0],[-115.0964,36.1661,0.0],[-115.0982,36.1661,0.0],[-115.1055,36.1663,0.0],[-115.1055,36.1676,0.0],[-115.1055,36.1677,0.0],[-115.1056,36.17,0.0],[-115.1058,36.1737,0.0]]]]}},{"type":"Feature","properties":{"uesi_id":"USA_R170117","nbhd_code":"USA_R170117_66","nbhd_name":"Census Tract 5.18"},"geometry":{"type":"MultiPolygon","coordinates":[[[[-115.1055,36.1663,0.0],[-115.0982,36.1661,0.0],[-115.0964,36.1661,0.0],[-115.0954,36.1661,0.0],[-115.0911,36.1662,0.0],[-115.0892,36.1662,0.0],[-115.0865,36.1662,0.0],[-115.0805,36.1663,0.0],[-115.0802,36.159,0.0],[-115.0852,36.159,0.0],[-115.0915,36.1589,0.0],[-115.0917,36.1589,0.0],[-115.0936,36.1589,0.0],[-115.098,36.1589,0.0],[-115.1011,36.1589,0.0],[-115.1055,36.1589,0.0],[-115.1055,36.1663,0.0]]]]}},{"type":"Feature","properties":{"uesi_id":"USA_R170117","nbhd_code":"USA_R170117_67","nbhd_name":"Census Tract 5.21"},"geometry":{"type":"MultiPolygon","coordinates":[[[[-115.1251,36.1681,0.0],[-115.1231,36.1678,0.0],[-115.1207,36.1677,0.0],[-115.1179,36.1676,0.0],[-115.1158,36.1673,0.0],[-115.1158,36.1666,0.0],[-115.1159,36.1631,0.0],[-115.1159,36.1625,0.0],[-115.1161,36.1615,0.0],[-115.1161,36.1589,0.0],[-115.1166,36.1589,0.0],[-115.1189,36.1588,0.0],[-115.1234,36.1589,0.0],[-115.125,36.1589,0.0],[-115.125,36.1613,0.0],[-115.1251,36.1625,0.0],[-115.1251,36.1665,0.0],[-115.1251,36.1681,0.0]]]]}},{"type":"Feature","properties":{"uesi_id":"USA_R170117","nbhd_code":"USA_R170117_68","nbhd_name":"Census Tract 5.23"},"geometry":{"type":"MultiPolygon","coordinates":[[[[-115.1161,36.1615,0.0],[-115.1159,36.1625,0.0],[-115.1159,36.1631,0.0],[-115.1158,36.1666,0.0],[-115.1158,36.1673,0.0],[-115.1141,36.1676,0.0],[-115.1055,36.1676,0.0],[-115.1055,36.1663,0.0],[-115.1055,36.1589,0.0],[-115.1061,36.1589,0.0],[-115.1072,36.1589,0.0],[-115.1077,36.1589,0.0],[-115.1115,36.1589,0.0],[-115.1161,36.1589,0.0],[-115.1161,36.1615,0.0]]]]}},{"type":"Feature","properties":{"uesi_id":"USA_R170117","nbhd_code":"USA_R170117_69","nbhd_name":"Census Tract 5.28"},"geometry":{"type":"MultiPolygon","coordinates":[[[[-115.0916,36.1883,0.0],[-115.0891,36.1883,0.0],[-115.0868,36.1884,0.0],[-115.0799,36.1885,0.0],[-115.0801,36.1847,0.0],[-115.0803,36.1825,0.0],[-115.0857,36.1828,0.0],[-115.0869,36.183,0.0],[-115.0892,36.1838,0.0],[-115.0913,36.1865,0.0],[-115.0916,36.1883,0.0]]]]}},{"type":"Feature","properties":{"uesi_id":"USA_R170117","nbhd_code":"USA_R170117_70","nbhd_name":"Census Tract 7"},"geometry":{"type":"MultiPolygon","coordinates":[[[[-115.1514,36.1664,0.0],[-115.1469,36.1734,0.0],[-115.1456,36.1755,0.0],[-115.1455,36.1756,0.0],[-115.1444,36.1773,0.0],[-115.1431,36.1773,0.0],[-115.1371,36.1749,0.0],[-115.1353,36.1741,0.0],[-115.1348,36.174,0.0],[-115.1369,36.1706,0.0],[-115.1311,36.1681,0.0],[-115.13,36.1677,0.0],[-115.1315,36.1653,0.0],[-115.1323,36.1641,0.0],[-115.1403,36.1676,0.0],[-115.1426,36.1641,0.0],[-115.1437,36.1646,0.0],[-115.1483,36.1665,0.0],[-115.1502,36.1659,0.0],[-115.1514,36.1664,0.0]]]]}},{"type":"Feature","properties":{"uesi_id":"USA_R170117","nbhd_code":"USA_R170117_71","nbhd_name":"Census Tract 10.03"},"geometry":{"type":"MultiPolygon","coordinates":[[[[-115.2257,36.1557,0.0],[-115.2253,36.1564,0.0],[-115.2241,36.158,0.0],[-115.2239,36.1593,0.0],[-115.2168,36.1592,0.0],[-115.2103,36.1592,0.0],[-115.2059,36.1591,0.0],[-115.2062,36.1575,0.0],[-115.2079,36.1551,0.0],[-115.2082,36.1518,0.0],[-115.2081,36.1446,0.0],[-115.2124,36.1445,0.0],[-115.2167,36.1445,0.0],[-115.2253,36.1443,0.0],[-115.2254,36.1468,0.0],[-115.2255,36.148,0.0],[-115.2257,36.1557,0.0]]]]}},{"type":"Feature","properties":{"uesi_id":"USA_R170117","nbhd_code":"USA_R170117_72","nbhd_name":"Census Tract 10.06"},"geometry":{"type":"MultiPolygon","coordinates":[[[[-115.1908,36.1516,0.0],[-115.1863,36.1516,0.0],[-115.1863,36.1542,0.0],[-115.1862,36.159,0.0],[-115.1728,36.1589,0.0],[-115.1729,36.1557,0.0],[-115.1729,36.1547,0.0],[-115.1731,36.1444,0.0],[-115.1732,36.1444,0.0],[-115.182,36.1444,0.0],[-115.1857,36.1445,0.0],[-115.1908,36.1445,0.0],[-115.1908,36.1516,0.0]]]]}},{"type":"Feature","properties":{"uesi_id":"USA_R170117","nbhd_code":"USA_R170117_73","nbhd_name":"Census Tract 12"},"geometry":{"type":"MultiPolygon","coordinates":[[[[-115.1557,36.1463,0.0],[-115.1519,36.1521,0.0],[-115.1512,36.1536,0.0],[-115.1487,36.157,0.0],[-115.1474,36.1589,0.0],[-115.1459,36.1589,0.0],[-115.1446,36.1588,0.0],[-115.1409,36.1588,0.0],[-115.141,36.1551,0.0],[-115.1405,36.1551,0.0],[-115.1415,36.1537,0.0],[-115.1415,36.1516,0.0],[-115.1416,36.1493,0.0],[-115.1416,36.1478,0.0],[-115.137,36.1479,0.0],[-115.137,36.1443,0.0],[-115.1457,36.144,0.0],[-115.1473,36.1439,0.0],[-115.1518,36.1438,0.0],[-115.1548,36.1437,0.0],[-115.1573,36.1437,0.0],[-115.1557,36.1463,0.0]]]]}},{"type":"Feature","properties":{"uesi_id":"USA_R170117","nbhd_code":"USA_R170117_74","nbhd_name":"Census Tract 14.02"},"geometry":{"type":"MultiPolygon","coordinates":[[[[-115.1278,36.1517,0.0],[-115.1188,36.1518,0.0],[-115.1106,36.1518,0.0],[-115.1104,36.1518,0.0],[-115.1101,36.1518,0.0],[-115.1095,36.1518,0.0],[-115.1093,36.1518,0.0],[-115.109,36.152,0.0],[-115.1086,36.1523,0.0],[-115.1014,36.1459,0.0],[-115.0998,36.1444,0.0],[-115.1004,36.1444,0.0],[-115.102,36.1443,0.0],[-115.103,36.1447,0.0],[-115.1054,36.1444,0.0],[-115.1099,36.1444,0.0],[-115.1144,36.1444,0.0],[-115.1173,36.1444,0.0],[-115.1188,36.1444,0.0],[-115.1255,36.1444,0.0],[-115.1276,36.1444,0.0],[-115.1277,36.1488,0.0],[-115.1278,36.1517,0.0]]]]}},{"type":"Feature","properties":{"uesi_id":"USA_R170117","nbhd_code":"USA_R170117_75","nbhd_name":"Census Tract 15.02"},"geometry":{"type":"MultiPolygon","coordinates":[[[[-115.1018,36.1508,0.0],[-115.101,36.1518,0.0],[-115.1011,36.1556,0.0],[-115.1011,36.1589,0.0],[-115.098,36.1589,0.0],[-115.0936,36.1589,0.0],[-115.0917,36.1589,0.0],[-115.0917,36.1556,0.0],[-115.0916,36.1518,0.0],[-115.0914,36.1462,0.0],[-115.0921,36.1463,0.0],[-115.0922,36.1444,0.0],[-115.0997,36.1444,0.0],[-115.0998,36.1444,0.0],[-115.1014,36.1459,0.0],[-115.1013,36.1459,0.0],[-115.1008,36.1461,0.0],[-115.101,36.1499,0.0],[-115.1018,36.1508,0.0]]]]}},{"type":"Feature","properties":{"uesi_id":"USA_R170117","nbhd_code":"USA_R170117_76","nbhd_name":"Census Tract 29.15"},"geometry":{"type":"MultiPolygon","coordinates":[[[[-115.2803,36.1591,0.0],[-115.2712,36.1591,0.0],[-115.2659,36.1592,0.0],[-115.2624,36.1592,0.0],[-115.2623,36.1592,0.0],[-115.2616,36.1514,0.0],[-115.2609,36.1437,0.0],[-115.279,36.1441,0.0],[-115.2796,36.1512,0.0],[-115.2796,36.1515,0.0],[-115.2798,36.1537,0.0],[-115.2803,36.1591,0.0]]]]}},{"type":"Feature","properties":{"uesi_id":"USA_R170117","nbhd_code":"USA_R170117_77","nbhd_name":"Census Tract 30.04"},"geometry":{"type":"MultiPolygon","coordinates":[[[[-115.2598,36.1785,0.0],[-115.2543,36.1779,0.0],[-115.2531,36.1779,0.0],[-115.2467,36.1777,0.0],[-115.2437,36.1766,0.0],[-115.2422,36.175,0.0],[-115.2423,36.1738,0.0],[-115.2445,36.1738,0.0],[-115.2453,36.1739,0.0],[-115.2509,36.174,0.0],[-115.2553,36.174,0.0],[-115.2598,36.174,0.0],[-115.2598,36.1785,0.0]]]]}},{"type":"Feature","properties":{"uesi_id":"USA_R170117","nbhd_code":"USA_R170117_78","nbhd_name":"Census Tract 30.05"},"geometry":{"type":"MultiPolygon","coordinates":[[[[-115.2599,36.1703,0.0],[-115.2599,36.1705,0.0],[-115.2599,36.174,0.0],[-115.2598,36.174,0.0],[-115.2553,36.174,0.0],[-115.2509,36.174,0.0],[-115.2453,36.1739,0.0],[-115.2445,36.1738,0.0],[-115.2423,36.1738,0.0],[-115.2422,36.1701,0.0],[-115.2421,36.1664,0.0],[-115.2476,36.1665,0.0],[-115.2491,36.1665,0.0],[-115.2509,36.1665,0.0],[-115.2558,36.1665,0.0],[-115.2599,36.1665,0.0],[-115.2599,36.1703,0.0]]]]}},{"type":"Feature","properties":{"uesi_id":"USA_R170117","nbhd_code":"USA_R170117_79","nbhd_name":"Census Tract 31.02"},"geometry":{"type":"MultiPolygon","coordinates":[[[[-115.2446,36.1813,0.0],[-115.2332,36.181,0.0],[-115.2238,36.1808,0.0],[-115.224,36.1769,0.0],[-115.2241,36.1747,0.0],[-115.2241,36.1743,0.0],[-115.2332,36.1738,0.0],[-115.2332,36.1735,0.0],[-115.2397,36.1737,0.0],[-115.2422,36.175,0.0],[-115.2437,36.1766,0.0],[-115.244,36.1769,0.0],[-115.2446,36.1813,0.0]]]]}},{"type":"Feature","properties":{"uesi_id":"USA_R170117","nbhd_code":"USA_R170117_80","nbhd_name":"Census Tract 32.10"},"geometry":{"type":"MultiPolygon","coordinates":[[[[-115.3385,36.2091,0.0],[-115.3356,36.2116,0.0],[-115.3305,36.2157,0.0],[-115.3289,36.2175,0.0],[-115.3282,36.2184,0.0],[-115.3281,36.2185,0.0],[-115.3275,36.2192,0.0],[-115.3272,36.219,0.0],[-115.3262,36.2186,0.0],[-115.3248,36.2184,0.0],[-115.3214,36.2183,0.0],[-115.3197,36.2183,0.0],[-115.3192,36.2166,0.0],[-115.319,36.2142,0.0],[-115.3209,36.2137,0.0],[-115.3222,36.2123,0.0],[-115.3223,36.2108,0.0],[-115.3211,36.2086,0.0],[-115.3201,36.207,0.0],[-115.32,36.2051,0.0],[-115.3232,36.2052,0.0],[-115.3255,36.2049,0.0],[-115.3306,36.2036,0.0],[-115.3329,36.2037,0.0],[-115.3404,36.2055,0.0],[-115.3385,36.2091,0.0]]]]}},{"type":"Feature","properties":{"uesi_id":"USA_R170117","nbhd_code":"USA_R170117_81","nbhd_name":"Census Tract 32.13"},"geometry":{"type":"MultiPolygon","coordinates":[[[[-115.3222,36.2123,0.0],[-115.3209,36.2137,0.0],[-115.319,36.2142,0.0],[-115.3159,36.2138,0.0],[-115.3098,36.2135,0.0],[-115.3007,36.2119,0.0],[-115.2982,36.2107,0.0],[-115.2991,36.2095,0.0],[-115.2998,36.2061,0.0],[-115.3035,36.2062,0.0],[-115.3086,36.2044,0.0],[-115.3101,36.2042,0.0],[-115.3135,36.2045,0.0],[-115.32,36.2051,0.0],[-115.3201,36.207,0.0],[-115.3211,36.2086,0.0],[-115.3223,36.2108,0.0],[-115.3222,36.2123,0.0]]]]}},{"type":"Feature","properties":{"uesi_id":"USA_R170117","nbhd_code":"USA_R170117_82","nbhd_name":"Census Tract 32.18"},"geometry":{"type":"MultiPolygon","coordinates":[[[[-115.3036,36.1896,0.0],[-115.3047,36.1913,0.0],[-115.3033,36.1933,0.0],[-115.3025,36.1935,0.0],[-115.3007,36.1934,0.0],[-115.3004,36.1948,0.0],[-115.3006,36.1982,0.0],[-115.3006,36.2003,0.0],[-115.2998,36.2061,0.0],[-115.2955,36.2056,0.0],[-115.2919,36.2049,0.0],[-115.2889,36.2037,0.0],[-115.2858,36.2021,0.0],[-115.2823,36.1998,0.0],[-115.285,36.1969,0.0],[-115.2861,36.1953,0.0],[-115.2876,36.1916,0.0],[-115.2876,36.1886,0.0],[-115.2872,36.178,0.0],[-115.2929,36.1785,0.0],[-115.294,36.1787,0.0],[-115.2963,36.1796,0.0],[-115.3065,36.187,0.0],[-115.3036,36.1896,0.0]]]]}},{"type":"Feature","properties":{"uesi_id":"USA_R170117","nbhd_code":"USA_R170117_83","nbhd_name":"Census Tract 32.22"},"geometry":{"type":"MultiPolygon","coordinates":[[[[-115.3264,36.185,0.0],[-115.3254,36.1879,0.0],[-115.3239,36.1923,0.0],[-115.3237,36.1935,0.0],[-115.3212,36.1932,0.0],[-115.316,36.1919,0.0],[-115.3121,36.1903,0.0],[-115.3067,36.1868,0.0],[-115.3122,36.1819,0.0],[-115.3137,36.1808,0.0],[-115.3177,36.1785,0.0],[-115.3202,36.1771,0.0],[-115.3227,36.1747,0.0],[-115.3254,36.1761,0.0],[-115.3263,36.1768,0.0],[-115.3277,36.1799,0.0],[-115.3264,36.185,0.0]]]]}},{"type":"Feature","properties":{"uesi_id":"USA_R170117","nbhd_code":"USA_R170117_84","nbhd_name":"Census Tract 32.29"},"geometry":{"type":"MultiPolygon","coordinates":[[[[-115.3361,36.3362,0.0],[-115.3202,36.3362,0.0],[-115.3185,36.3344,0.0],[-115.3149,36.3305,0.0],[-115.3066,36.3214,0.0],[-115.2985,36.3124,0.0],[-115.2949,36.3086,0.0],[-115.2931,36.3065,0.0],[-115.2968,36.3066,0.0],[-115.2976,36.3065,0.0],[-115.3013,36.3067,0.0],[-115.3058,36.3067,0.0],[-115.3148,36.3067,0.0],[-115.3219,36.3066,0.0],[-115.3291,36.3064,0.0],[-115.3336,36.3063,0.0],[-115.3335,36.3209,0.0],[-115.3334,36.3256,0.0],[-115.3361,36.3254,0.0],[-115.3361,36.3362,0.0]]]]}},{"type":"Feature","properties":{"uesi_id":"USA_R170117","nbhd_code":"USA_R170117_85","nbhd_name":"Census Tract 32.31"},"geometry":{"type":"MultiPolygon","coordinates":[[[[-115.3335,36.2655,0.0],[-115.3333,36.2662,0.0],[-115.3334,36.2884,0.0],[-115.3335,36.2991,0.0],[-115.329,36.2992,0.0],[-115.3196,36.2994,0.0],[-115.3149,36.2994,0.0],[-115.315,36.2958,0.0],[-115.3149,36.2884,0.0],[-115.3149,36.2847,0.0],[-115.315,36.2818,0.0],[-115.3173,36.282,0.0],[-115.3196,36.2819,0.0],[-115.3207,36.2815,0.0],[-115.322,36.281,0.0],[-115.3242,36.2799,0.0],[-115.3242,36.2803,0.0],[-115.3272,36.2761,0.0],[-115.3277,36.2735,0.0],[-115.3277,36.2717,0.0],[-115.3277,36.2699,0.0],[-115.3277,36.268,0.0],[-115.3277,36.2662,0.0],[-115.3275,36.2644,0.0],[-115.3271,36.2632,0.0],[-115.3268,36.2625,0.0],[-115.3264,36.2625,0.0],[-115.3253,36.2625,0.0],[-115.3252,36.2607,0.0],[-115.3227,36.2592,0.0],[-115.3166,36.257,0.0],[-115.3155,36.2553,0.0],[-115.315,36.2534,0.0],[-115.315,36.2497,0.0],[-115.315,36.2479,0.0],[-115.3153,36.2479,0.0],[-115.3332,36.2478,0.0],[-115.3333,36.2515,0.0],[-115.3335,36.2643,0.0],[-115.3335,36.2655,0.0]]]]}},{"type":"Feature","properties":{"uesi_id":"USA_R170117","nbhd_code":"USA_R170117_86","nbhd_name":"Census Tract 32.36"},"geometry":{"type":"MultiPolygon","coordinates":[[[[-115.2881,36.2719,0.0],[-115.288,36.2737,0.0],[-115.2879,36.2755,0.0],[-115.2879,36.2773,0.0],[-115.2878,36.279,0.0],[-115.2878,36.2798,0.0],[-115.2789,36.2782,0.0],[-115.2675,36.2779,0.0],[-115.2628,36.2728,0.0],[-115.2539,36.263,0.0],[-115.2567,36.263,0.0],[-115.263,36.263,0.0],[-115.2697,36.263,0.0],[-115.2698,36.263,0.0],[-115.2787,36.263,0.0],[-115.2787,36.2648,0.0],[-115.2788,36.2666,0.0],[-115.2788,36.2702,0.0],[-115.2811,36.2701,0.0],[-115.2882,36.2701,0.0],[-115.2881,36.2719,0.0]]]]}},{"type":"Feature","properties":{"uesi_id":"USA_R170117","nbhd_code":"USA_R170117_87","nbhd_name":"Census Tract 32.38"},"geometry":{"type":"MultiPolygon","coordinates":[[[[-115.3319,36.2285,0.0],[-115.3309,36.2308,0.0],[-115.3308,36.2324,0.0],[-115.3261,36.2326,0.0],[-115.3257,36.2326,0.0],[-115.3256,36.2364,0.0],[-115.3239,36.2409,0.0],[-115.3227,36.2421,0.0],[-115.3167,36.2457,0.0],[-115.3153,36.2479,0.0],[-115.315,36.2479,0.0],[-115.3107,36.248,0.0],[-115.3107,36.2424,0.0],[-115.3152,36.2331,0.0],[-115.3139,36.2319,0.0],[-115.3152,36.2302,0.0],[-115.3154,36.2293,0.0],[-115.3227,36.2292,0.0],[-115.3253,36.2291,0.0],[-115.3253,36.2273,0.0],[-115.3253,36.2255,0.0],[-115.3262,36.2215,0.0],[-115.3275,36.2193,0.0],[-115.3275,36.2192,0.0],[-115.3278,36.2193,0.0],[-115.3308,36.2206,0.0],[-115.3318,36.222,0.0],[-115.3319,36.2254,0.0],[-115.3319,36.2285,0.0]]]]}},{"type":"Feature","properties":{"uesi_id":"USA_R170117","nbhd_code":"USA_R170117_88","nbhd_name":"Census Tract 32.46"},"geometry":{"type":"MultiPolygon","coordinates":[[[[-115.2789,36.2262,0.0],[-115.2766,36.2261,0.0],[-115.2721,36.226,0.0],[-115.2698,36.2259,0.0],[-115.2628,36.2257,0.0],[-115.2623,36.2257,0.0],[-115.2622,36.2257,0.0],[-115.2606,36.2257,0.0],[-115.2606,36.2247,0.0],[-115.2604,36.2183,0.0],[-115.268,36.2184,0.0],[-115.2742,36.2185,0.0],[-115.2788,36.2186,0.0],[-115.2789,36.2262,0.0]]]]}},{"type":"Feature","properties":{"uesi_id":"USA_R170117","nbhd_code":"USA_R170117_89","nbhd_name":"Census Tract 32.48"},"geometry":{"type":"MultiPolygon","coordinates":[[[[-115.2789,36.2102,0.0],[-115.2788,36.2141,0.0],[-115.2788,36.2186,0.0],[-115.2742,36.2185,0.0],[-115.2744,36.2156,0.0],[-115.274,36.215,0.0],[-115.2745,36.2147,0.0],[-115.2693,36.2106,0.0],[-115.2672,36.2052,0.0],[-115.2653,36.2046,0.0],[-115.2662,36.2032,0.0],[-115.2705,36.203,0.0],[-115.2749,36.2035,0.0],[-115.2746,36.2045,0.0],[-115.2746,36.2055,0.0],[-115.2774,36.2062,0.0],[-115.2789,36.2063,0.0],[-115.2789,36.2102,0.0]]]]}},{"type":"Feature","properties":{"uesi_id":"USA_R170117","nbhd_code":"USA_R170117_90","nbhd_name":"Census Tract 32.50"},"geometry":{"type":"MultiPolygon","coordinates":[[[[-115.3412,36.1815,0.0],[-115.3372,36.1829,0.0],[-115.3339,36.1846,0.0],[-115.3306,36.1854,0.0],[-115.3264,36.185,0.0],[-115.3277,36.1799,0.0],[-115.3263,36.1768,0.0],[-115.3254,36.1761,0.0],[-115.3227,36.1747,0.0],[-115.325,36.17,0.0],[-115.3247,36.1675,0.0],[-115.3271,36.1675,0.0],[-115.3315,36.1694,0.0],[-115.3348,36.1701,0.0],[-115.3375,36.1701,0.0],[-115.3381,36.1747,0.0],[-115.3412,36.1815,0.0]]]]}},{"type":"Feature","properties":{"uesi_id":"USA_R170117","nbhd_code":"USA_R170117_91","nbhd_name":"Census Tract 5.10"},"geometry":{"type":"MultiPolygon","coordinates":[[[[-115.1253,36.1771,0.0],[-115.125,36.1788,0.0],[-115.1251,36.1812,0.0],[-115.125,36.1848,0.0],[-115.1206,36.1848,0.0],[-115.1206,36.1885,0.0],[-115.1161,36.1885,0.0],[-115.1161,36.1824,0.0],[-115.1161,36.1812,0.0],[-115.1161,36.1775,0.0],[-115.1162,36.1739,0.0],[-115.1189,36.174,0.0],[-115.1207,36.174,0.0],[-115.1251,36.174,0.0],[-115.1253,36.1746,0.0],[-115.1253,36.1771,0.0]]]]}},{"type":"Feature","properties":{"uesi_id":"USA_R170117","nbhd_code":"USA_R170117_92","nbhd_name":"Census Tract 14.01"},"geometry":{"type":"MultiPolygon","coordinates":[[[[-115.1287,36.1589,0.0],[-115.125,36.1589,0.0],[-115.1234,36.1589,0.0],[-115.1189,36.1588,0.0],[-115.1166,36.1589,0.0],[-115.1124,36.1555,0.0],[-115.1086,36.1523,0.0],[-115.109,36.152,0.0],[-115.1093,36.1518,0.0],[-115.1095,36.1518,0.0],[-115.1101,36.1518,0.0],[-115.1104,36.1518,0.0],[-115.1106,36.1518,0.0],[-115.1188,36.1518,0.0],[-115.1278,36.1517,0.0],[-115.1278,36.153,0.0],[-115.1278,36.1573,0.0],[-115.1287,36.1589,0.0]]]]}},{"type":"Feature","properties":{"uesi_id":"USA_R170117","nbhd_code":"USA_R170117_93","nbhd_name":"Census Tract 32.08"},"geometry":{"type":"MultiPolygon","coordinates":[[[[-115.2792,36.2483,0.0],[-115.2762,36.2482,0.0],[-115.2756,36.2482,0.0],[-115.2744,36.2482,0.0],[-115.2739,36.2482,0.0],[-115.2728,36.2482,0.0],[-115.2727,36.2482,0.0],[-115.2698,36.2481,0.0],[-115.2697,36.2481,0.0],[-115.2674,36.248,0.0],[-115.2662,36.248,0.0],[-115.2604,36.2478,0.0],[-115.2603,36.2451,0.0],[-115.2604,36.2415,0.0],[-115.2604,36.2406,0.0],[-115.2605,36.2387,0.0],[-115.2605,36.2368,0.0],[-115.2606,36.2355,0.0],[-115.2607,36.2331,0.0],[-115.2699,36.2334,0.0],[-115.2757,36.2336,0.0],[-115.2791,36.2337,0.0],[-115.2791,36.241,0.0],[-115.2792,36.2483,0.0]]]]}},{"type":"Feature","properties":{"uesi_id":"USA_R170117","nbhd_code":"USA_R170117_94","nbhd_name":"Census Tract 32.23"},"geometry":{"type":"MultiPolygon","coordinates":[[[[-115.325,36.17,0.0],[-115.3227,36.1747,0.0],[-115.3202,36.1771,0.0],[-115.3177,36.1785,0.0],[-115.3137,36.1808,0.0],[-115.3122,36.1819,0.0],[-115.3067,36.1868,0.0],[-115.3065,36.187,0.0],[-115.2963,36.1796,0.0],[-115.294,36.1787,0.0],[-115.2929,36.1785,0.0],[-115.2872,36.178,0.0],[-115.2872,36.1777,0.0],[-115.2871,36.174,0.0],[-115.2871,36.1685,0.0],[-115.288,36.1668,0.0],[-115.289,36.1674,0.0],[-115.2923,36.1674,0.0],[-115.2942,36.1678,0.0],[-115.2973,36.1697,0.0],[-115.2987,36.1699,0.0],[-115.3105,36.17,0.0],[-115.3152,36.168,0.0],[-115.3193,36.1671,0.0],[-115.3247,36.1675,0.0],[-115.325,36.17,0.0]]]]}},{"type":"Feature","properties":{"uesi_id":"USA_R170117","nbhd_code":"USA_R170117_95","nbhd_name":"Census Tract 32.37"},"geometry":{"type":"MultiPolygon","coordinates":[[[[-115.3343,36.2336,0.0],[-115.3332,36.2478,0.0],[-115.3153,36.2479,0.0],[-115.3167,36.2457,0.0],[-115.3227,36.2421,0.0],[-115.3239,36.2409,0.0],[-115.3256,36.2364,0.0],[-115.3257,36.2326,0.0],[-115.3261,36.2326,0.0],[-115.3308,36.2324,0.0],[-115.3309,36.2308,0.0],[-115.3319,36.2285,0.0],[-115.3319,36.2254,0.0],[-115.3318,36.222,0.0],[-115.3308,36.2206,0.0],[-115.3278,36.2193,0.0],[-115.3275,36.2192,0.0],[-115.3281,36.2185,0.0],[-115.3295,36.2185,0.0],[-115.3342,36.2184,0.0],[-115.3342,36.2201,0.0],[-115.3343,36.2336,0.0]]]]}},{"type":"Feature","properties":{"uesi_id":"USA_R170117","nbhd_code":"USA_R170117_96","nbhd_name":"Census Tract 33.08"},"geometry":{"type":"MultiPolygon","coordinates":[[[[-115.2426,36.2761,0.0],[-115.238,36.276,0.0],[-115.2335,36.276,0.0],[-115.2248,36.2761,0.0],[-115.2254,36.2684,0.0],[-115.2255,36.261,0.0],[-115.2297,36.2616,0.0],[-115.2307,36.2617,0.0],[-115.2329,36.262,0.0],[-115.2339,36.2621,0.0],[-115.2392,36.2628,0.0],[-115.2413,36.2631,0.0],[-115.2424,36.2632,0.0],[-115.2424,36.2647,0.0],[-115.2424,36.2659,0.0],[-115.2424,36.2696,0.0],[-115.2425,36.2713,0.0],[-115.2425,36.2728,0.0],[-115.2424,36.2728,0.0],[-115.2425,36.2747,0.0],[-115.2426,36.2761,0.0]]]]}},{"type":"Feature","properties":{"uesi_id":"USA_R170117","nbhd_code":"USA_R170117_97","nbhd_name":"Census Tract 33.20"},"geometry":{"type":"MultiPolygon","coordinates":[[[[-115.2796,36.2918,0.0],[-115.2695,36.2912,0.0],[-115.2602,36.2906,0.0],[-115.2558,36.2906,0.0],[-115.2513,36.2906,0.0],[-115.2468,36.2906,0.0],[-115.2423,36.2906,0.0],[-115.2423,36.2781,0.0],[-115.2426,36.2761,0.0],[-115.247,36.2764,0.0],[-115.2508,36.2767,0.0],[-115.2516,36.2768,0.0],[-115.2539,36.2769,0.0],[-115.2575,36.2773,0.0],[-115.2608,36.2782,0.0],[-115.2627,36.2773,0.0],[-115.2666,36.2778,0.0],[-115.2675,36.2779,0.0],[-115.2735,36.2845,0.0],[-115.2798,36.2915,0.0],[-115.2796,36.2918,0.0]]]]}},{"type":"Feature","properties":{"uesi_id":"USA_R170117","nbhd_code":"USA_R170117_98","nbhd_name":"Census Tract 34.16"},"geometry":{"type":"MultiPolygon","coordinates":[[[[-115.2423,36.213,0.0],[-115.2423,36.2182,0.0],[-115.2387,36.2179,0.0],[-115.2374,36.2178,0.0],[-115.2347,36.2176,0.0],[-115.234,36.2175,0.0],[-115.2299,36.2172,0.0],[-115.2284,36.2171,0.0],[-115.2258,36.2168,0.0],[-115.225,36.2117,0.0],[-115.2247,36.2099,0.0],[-115.2258,36.21,0.0],[-115.2263,36.21,0.0],[-115.2269,36.21,0.0],[-115.2291,36.2102,0.0],[-115.2335,36.2104,0.0],[-115.2387,36.2106,0.0],[-115.2423,36.2108,0.0],[-115.2423,36.213,0.0]]]]}},{"type":"Feature","properties":{"uesi_id":"USA_R170117","nbhd_code":"USA_R170117_99","nbhd_name":"Census Tract 1.08"},"geometry":{"type":"MultiPolygon","coordinates":[[[[-115.2151,36.1882,0.0],[-115.2061,36.1882,0.0],[-115.2061,36.1809,0.0],[-115.2059,36.1737,0.0],[-115.2109,36.1739,0.0],[-115.211,36.1743,0.0],[-115.21,36.1742,0.0],[-115.2101,36.181,0.0],[-115.215,36.181,0.0],[-115.2151,36.1882,0.0]]]]}},{"type":"Feature","properties":{"uesi_id":"USA_R170117","nbhd_code":"USA_R170117_100","nbhd_name":"Census Tract 3.01"},"geometry":{"type":"MultiPolygon","coordinates":[[[[-115.1608,36.1662,0.0],[-115.1608,36.1735,0.0],[-115.1608,36.1753,0.0],[-115.1608,36.1771,0.0],[-115.1518,36.1772,0.0],[-115.1518,36.1808,0.0],[-115.1518,36.1817,0.0],[-115.1519,36.1849,0.0],[-115.1519,36.1884,0.0],[-115.1518,36.192,0.0],[-115.1519,36.1957,0.0],[-115.1474,36.1957,0.0],[-115.1428,36.1957,0.0],[-115.143,36.1905,0.0],[-115.1434,36.1884,0.0],[-115.1429,36.1884,0.0],[-115.1412,36.1884,0.0],[-115.1411,36.1845,0.0],[-115.1419,36.1814,0.0],[-115.1444,36.1773,0.0],[-115.1455,36.1756,0.0],[-115.1456,36.1755,0.0],[-115.1469,36.1734,0.0],[-115.1514,36.1664,0.0],[-115.1565,36.1589,0.0],[-115.1591,36.159,0.0],[-115.1602,36.1589,0.0],[-115.1608,36.1589,0.0],[-115.1608,36.1662,0.0]]]]}},{"type":"Feature","properties":{"uesi_id":"USA_R170117","nbhd_code":"USA_R170117_101","nbhd_name":"Census Tract 4.02"},"geometry":{"type":"MultiPolygon","coordinates":[[[[-115.1356,36.1772,0.0],[-115.1356,36.1774,0.0],[-115.1342,36.1812,0.0],[-115.134,36.1821,0.0],[-115.1339,36.1884,0.0],[-115.1306,36.1885,0.0],[-115.1251,36.1884,0.0],[-115.125,36.1848,0.0],[-115.1251,36.1812,0.0],[-115.125,36.1788,0.0],[-115.1253,36.1771,0.0],[-115.1253,36.1746,0.0],[-115.1251,36.174,0.0],[-115.1291,36.174,0.0],[-115.1299,36.174,0.0],[-115.1348,36.174,0.0],[-115.1353,36.1741,0.0],[-115.1371,36.1749,0.0],[-115.1356,36.1772,0.0]]]]}},{"type":"Feature","properties":{"uesi_id":"USA_R170117","nbhd_code":"USA_R170117_102","nbhd_name":"Census Tract 5.20"},"geometry":{"type":"MultiPolygon","coordinates":[[[[-115.1251,36.174,0.0],[-115.1207,36.174,0.0],[-115.1189,36.174,0.0],[-115.1162,36.1739,0.0],[-115.116,36.1702,0.0],[-115.1159,36.168,0.0],[-115.1158,36.1673,0.0],[-115.1179,36.1676,0.0],[-115.1207,36.1677,0.0],[-115.1231,36.1678,0.0],[-115.1251,36.1681,0.0],[-115.1251,36.171,0.0],[-115.1251,36.174,0.0]]]]}},{"type":"Feature","properties":{"uesi_id":"USA_R170117","nbhd_code":"USA_R170117_103","nbhd_name":"Census Tract 6"},"geometry":{"type":"MultiPolygon","coordinates":[[[[-115.1346,36.1607,0.0],[-115.1323,36.1641,0.0],[-115.1315,36.1653,0.0],[-115.13,36.1677,0.0],[-115.1274,36.1665,0.0],[-115.1251,36.1665,0.0],[-115.1251,36.1625,0.0],[-115.125,36.1613,0.0],[-115.125,36.1589,0.0],[-115.1287,36.1589,0.0],[-115.1328,36.1589,0.0],[-115.1353,36.1589,0.0],[-115.1346,36.1607,0.0]]]]}},{"type":"Feature","properties":{"uesi_id":"USA_R170117","nbhd_code":"USA_R170117_104","nbhd_name":"Census Tract 9"},"geometry":{"type":"MultiPolygon","coordinates":[[[[-115.1565,36.1589,0.0],[-115.1514,36.1664,0.0],[-115.1502,36.1659,0.0],[-115.1483,36.1665,0.0],[-115.1437,36.1646,0.0],[-115.1426,36.1641,0.0],[-115.1459,36.1589,0.0],[-115.1474,36.1589,0.0],[-115.1563,36.1589,0.0],[-115.1565,36.1589,0.0]]]]}},{"type":"Feature","properties":{"uesi_id":"USA_R170117","nbhd_code":"USA_R170117_105","nbhd_name":"Census Tract 10.04"},"geometry":{"type":"MultiPolygon","coordinates":[[[[-115.2082,36.1518,0.0],[-115.2079,36.1551,0.0],[-115.2062,36.1575,0.0],[-115.2059,36.1591,0.0],[-115.1998,36.1591,0.0],[-115.1925,36.1591,0.0],[-115.1906,36.159,0.0],[-115.1862,36.159,0.0],[-115.1863,36.1542,0.0],[-115.1863,36.1516,0.0],[-115.1908,36.1516,0.0],[-115.1908,36.1445,0.0],[-115.194,36.1445,0.0],[-115.1998,36.1446,0.0],[-115.2043,36.1446,0.0],[-115.2081,36.1446,0.0],[-115.2082,36.1518,0.0]]]]}},{"type":"Feature","properties":{"uesi_id":"USA_R170117","nbhd_code":"USA_R170117_106","nbhd_name":"Census Tract 22.01"},"geometry":{"type":"MultiPolygon","coordinates":[[[[-115.1908,36.1445,0.0],[-115.1857,36.1445,0.0],[-115.182,36.1444,0.0],[-115.1732,36.1444,0.0],[-115.1731,36.1444,0.0],[-115.1719,36.1444,0.0],[-115.1709,36.1443,0.0],[-115.1661,36.1441,0.0],[-115.1662,36.144,0.0],[-115.1732,36.133,0.0],[-115.1741,36.1318,0.0],[-115.1779,36.1261,0.0],[-115.1804,36.1262,0.0],[-115.1808,36.1262,0.0],[-115.1902,36.1265,0.0],[-115.1903,36.1302,0.0],[-115.1904,36.1338,0.0],[-115.1905,36.1373,0.0],[-115.1906,36.1391,0.0],[-115.1907,36.1412,0.0],[-115.1908,36.1445,0.0]]]]}},{"type":"Feature","properties":{"uesi_id":"USA_R170117","nbhd_code":"USA_R170117_107","nbhd_name":"Census Tract 38"},"geometry":{"type":"MultiPolygon","coordinates":[[[[-115.1429,36.1893,0.0],[-115.1401,36.1934,0.0],[-115.1386,36.1959,0.0],[-115.1379,36.1972,0.0],[-115.1366,36.2001,0.0],[-115.1343,36.2034,0.0],[-115.1318,36.2031,0.0],[-115.1296,36.2031,0.0],[-115.1252,36.2031,0.0],[-115.1209,36.2031,0.0],[-115.1203,36.202,0.0],[-115.1181,36.1982,0.0],[-115.1171,36.1975,0.0],[-115.1163,36.1958,0.0],[-115.1207,36.1958,0.0],[-115.1207,36.194,0.0],[-115.1251,36.1943,0.0],[-115.1251,36.1958,0.0],[-115.1276,36.1958,0.0],[-115.1312,36.1921,0.0],[-115.1306,36.1885,0.0],[-115.1339,36.1884,0.0],[-115.1354,36.1884,0.0],[-115.1412,36.1884,0.0],[-115.1429,36.1884,0.0],[-115.1434,36.1884,0.0],[-115.1429,36.1893,0.0]]]]}},{"type":"Feature","properties":{"uesi_id":"USA_R170117","nbhd_code":"USA_R170117_108","nbhd_name":"Census Tract 58.08"},"geometry":{"type":"MultiPolygon","coordinates":[[[[-115.2977,36.1444,0.0],[-115.2879,36.1441,0.0],[-115.2879,36.1411,0.0],[-115.2897,36.1395,0.0],[-115.289,36.1376,0.0],[-115.2905,36.1329,0.0],[-115.2903,36.1319,0.0],[-115.2874,36.1296,0.0],[-115.2925,36.1297,0.0],[-115.297,36.1298,0.0],[-115.2972,36.1335,0.0],[-115.2974,36.1376,0.0],[-115.2975,36.1408,0.0],[-115.2977,36.1444,0.0]]]]}},{"type":"Feature","properties":{"uesi_id":"USA_R170117","nbhd_code":"USA_R170117_109","nbhd_name":"Census Tract 32.15"},"geometry":{"type":"MultiPolygon","coordinates":[[[[-115.2823,36.1998,0.0],[-115.2793,36.2035,0.0],[-115.2789,36.2063,0.0],[-115.2774,36.2062,0.0],[-115.2746,36.2055,0.0],[-115.2746,36.2045,0.0],[-115.2749,36.2035,0.0],[-115.2705,36.203,0.0],[-115.2662,36.2032,0.0],[-115.2653,36.2046,0.0],[-115.2639,36.2036,0.0],[-115.2607,36.2035,0.0],[-115.2603,36.1961,0.0],[-115.2612,36.1962,0.0],[-115.2647,36.1969,0.0],[-115.2668,36.1972,0.0],[-115.27,36.1971,0.0],[-115.2726,36.1968,0.0],[-115.2744,36.1968,0.0],[-115.2766,36.1971,0.0],[-115.2787,36.1978,0.0],[-115.28,36.1984,0.0],[-115.2823,36.1998,0.0]]]]}},{"type":"Feature","properties":{"uesi_id":"USA_R170117","nbhd_code":"USA_R170117_110","nbhd_name":"Census Tract 22.03"},"geometry":{"type":"MultiPolygon","coordinates":[[[[-115.2081,36.1446,0.0],[-115.2043,36.1446,0.0],[-115.1998,36.1446,0.0],[-115.194,36.1445,0.0],[-115.1908,36.1445,0.0],[-115.1907,36.1412,0.0],[-115.1997,36.1413,0.0],[-115.1995,36.1391,0.0],[-115.1995,36.1373,0.0],[-115.2054,36.1373,0.0],[-115.2051,36.1355,0.0],[-115.2052,36.1351,0.0],[-115.2081,36.135,0.0],[-115.2081,36.1409,0.0],[-115.2081,36.1446,0.0]]]]}},{"type":"Feature","properties":{"uesi_id":"USA_R170117","nbhd_code":"USA_R170117_111","nbhd_name":"Census Tract 29.16"},"geometry":{"type":"MultiPolygon","coordinates":[[[[-115.2623,36.1592,0.0],[-115.2551,36.1592,0.0],[-115.2509,36.1592,0.0],[-115.2438,36.1592,0.0],[-115.2436,36.1553,0.0],[-115.2434,36.1516,0.0],[-115.2432,36.1479,0.0],[-115.243,36.1442,0.0],[-115.2519,36.1439,0.0],[-115.2609,36.1437,0.0],[-115.2616,36.1514,0.0],[-115.2623,36.1592,0.0]]]]}},{"type":"Feature","properties":{"uesi_id":"USA_R170117","nbhd_code":"USA_R170117_112","nbhd_name":"Census Tract 30.03"},"geometry":{"type":"MultiPolygon","coordinates":[[[[-115.2601,36.1888,0.0],[-115.2551,36.1887,0.0],[-115.2511,36.1887,0.0],[-115.25,36.1887,0.0],[-115.2446,36.1886,0.0],[-115.2446,36.1813,0.0],[-115.244,36.1769,0.0],[-115.2437,36.1766,0.0],[-115.2467,36.1777,0.0],[-115.2531,36.1779,0.0],[-115.2543,36.1779,0.0],[-115.2598,36.1785,0.0],[-115.26,36.1832,0.0],[-115.26,36.1851,0.0],[-115.2601,36.1888,0.0]]]]}},{"type":"Feature","properties":{"uesi_id":"USA_R170117","nbhd_code":"USA_R170117_113","nbhd_name":"Census Tract 30.06"},"geometry":{"type":"MultiPolygon","coordinates":[[[[-115.2624,36.1592,0.0],[-115.2619,36.1609,0.0],[-115.2607,36.1618,0.0],[-115.26,36.1633,0.0],[-115.2599,36.1665,0.0],[-115.2558,36.1665,0.0],[-115.2509,36.1665,0.0],[-115.2491,36.1665,0.0],[-115.2476,36.1665,0.0],[-115.2421,36.1664,0.0],[-115.242,36.1636,0.0],[-115.2419,36.1592,0.0],[-115.2438,36.1592,0.0],[-115.2509,36.1592,0.0],[-115.2551,36.1592,0.0],[-115.2623,36.1592,0.0],[-115.2624,36.1592,0.0]]]]}},{"type":"Feature","properties":{"uesi_id":"USA_R170117","nbhd_code":"USA_R170117_114","nbhd_name":"Census Tract 32.11"},"geometry":{"type":"MultiPolygon","coordinates":[[[[-115.3197,36.2183,0.0],[-115.3157,36.2183,0.0],[-115.3064,36.2184,0.0],[-115.2971,36.2186,0.0],[-115.288,36.2186,0.0],[-115.2873,36.2186,0.0],[-115.2788,36.2186,0.0],[-115.2788,36.2141,0.0],[-115.2789,36.2102,0.0],[-115.2811,36.2102,0.0],[-115.2833,36.2107,0.0],[-115.2875,36.2115,0.0],[-115.2944,36.2117,0.0],[-115.2967,36.2114,0.0],[-115.2982,36.2107,0.0],[-115.3007,36.2119,0.0],[-115.3098,36.2135,0.0],[-115.3159,36.2138,0.0],[-115.319,36.2142,0.0],[-115.3192,36.2166,0.0],[-115.3197,36.2183,0.0]]]]}},{"type":"Feature","properties":{"uesi_id":"USA_R170117","nbhd_code":"USA_R170117_115","nbhd_name":"Census Tract 32.19"},"geometry":{"type":"MultiPolygon","coordinates":[[[[-115.2876,36.1916,0.0],[-115.2861,36.1953,0.0],[-115.285,36.1969,0.0],[-115.2823,36.1998,0.0],[-115.28,36.1984,0.0],[-115.2787,36.1978,0.0],[-115.2766,36.1971,0.0],[-115.2744,36.1968,0.0],[-115.2726,36.1968,0.0],[-115.27,36.1971,0.0],[-115.2668,36.1972,0.0],[-115.2647,36.1969,0.0],[-115.2612,36.1962,0.0],[-115.2603,36.1961,0.0],[-115.2601,36.1911,0.0],[-115.2601,36.1888,0.0],[-115.267,36.1887,0.0],[-115.2726,36.1887,0.0],[-115.2735,36.1887,0.0],[-115.2786,36.1887,0.0],[-115.2834,36.1886,0.0],[-115.2876,36.1886,0.0],[-115.2876,36.1916,0.0]]]]}},{"type":"Feature","properties":{"uesi_id":"USA_R170117","nbhd_code":"USA_R170117_116","nbhd_name":"Census Tract 32.32"},"geometry":{"type":"MultiPolygon","coordinates":[[[[-115.3277,36.268,0.0],[-115.3277,36.2699,0.0],[-115.3277,36.2717,0.0],[-115.3277,36.2735,0.0],[-115.3272,36.2761,0.0],[-115.3242,36.2803,0.0],[-115.3242,36.2799,0.0],[-115.322,36.281,0.0],[-115.3207,36.2815,0.0],[-115.3196,36.2819,0.0],[-115.3173,36.282,0.0],[-115.315,36.2818,0.0],[-115.3126,36.2814,0.0],[-115.312,36.2813,0.0],[-115.3118,36.2813,0.0],[-115.3115,36.2812,0.0],[-115.3059,36.2806,0.0],[-115.3002,36.2804,0.0],[-115.2993,36.2804,0.0],[-115.2969,36.2804,0.0],[-115.2937,36.2804,0.0],[-115.2923,36.2803,0.0],[-115.2904,36.2802,0.0],[-115.2901,36.2802,0.0],[-115.2878,36.2798,0.0],[-115.2878,36.279,0.0],[-115.2879,36.2773,0.0],[-115.2879,36.2755,0.0],[-115.288,36.2737,0.0],[-115.2881,36.2719,0.0],[-115.2882,36.2701,0.0],[-115.2811,36.2701,0.0],[-115.2788,36.2702,0.0],[-115.2788,36.2666,0.0],[-115.2787,36.2648,0.0],[-115.2787,36.263,0.0],[-115.2788,36.2593,0.0],[-115.2789,36.2575,0.0],[-115.2789,36.257,0.0],[-115.2789,36.2557,0.0],[-115.279,36.252,0.0],[-115.2792,36.2483,0.0],[-115.2837,36.2483,0.0],[-115.2974,36.2482,0.0],[-115.3107,36.248,0.0],[-115.315,36.2479,0.0],[-115.315,36.2497,0.0],[-115.315,36.2534,0.0],[-115.3155,36.2553,0.0],[-115.3166,36.257,0.0],[-115.3227,36.2592,0.0],[-115.3252,36.2607,0.0],[-115.3253,36.2625,0.0],[-115.3264,36.2625,0.0],[-115.3268,36.2625,0.0],[-115.3271,36.2632,0.0],[-115.3275,36.2644,0.0],[-115.3277,36.2662,0.0],[-115.3277,36.268,0.0]]]]}},{"type":"Feature","properties":{"uesi_id":"USA_R170117","nbhd_code":"USA_R170117_117","nbhd_name":"Census Tract 32.35"},"geometry":{"type":"MultiPolygon","coordinates":[[[[-115.288,36.2951,0.0],[-115.2876,36.2964,0.0],[-115.2858,36.2985,0.0],[-115.2813,36.2936,0.0],[-115.2812,36.2936,0.0],[-115.2796,36.2918,0.0],[-115.2798,36.2915,0.0],[-115.2735,36.2845,0.0],[-115.2675,36.2779,0.0],[-115.2789,36.2782,0.0],[-115.2878,36.2798,0.0],[-115.2878,36.2809,0.0],[-115.2878,36.2845,0.0],[-115.2878,36.2882,0.0],[-115.2878,36.2918,0.0],[-115.288,36.294,0.0],[-115.288,36.2951,0.0]]]]}},{"type":"Feature","properties":{"uesi_id":"USA_R170117","nbhd_code":"USA_R170117_118","nbhd_name":"Census Tract 32.40"},"geometry":{"type":"MultiPolygon","coordinates":[[[[-115.3155,36.2291,0.0],[-115.3154,36.2293,0.0],[-115.3152,36.2302,0.0],[-115.3139,36.2319,0.0],[-115.3152,36.2331,0.0],[-115.3107,36.2424,0.0],[-115.3107,36.248,0.0],[-115.2974,36.2482,0.0],[-115.2975,36.2409,0.0],[-115.2975,36.2373,0.0],[-115.2976,36.2337,0.0],[-115.2975,36.2299,0.0],[-115.2974,36.2261,0.0],[-115.302,36.226,0.0],[-115.3045,36.2268,0.0],[-115.3054,36.2265,0.0],[-115.3067,36.226,0.0],[-115.3156,36.2257,0.0],[-115.3155,36.2291,0.0]]]]}},{"type":"Feature","properties":{"uesi_id":"USA_R170117","nbhd_code":"USA_R170117_119","nbhd_name":"Census Tract 32.47"},"geometry":{"type":"MultiPolygon","coordinates":[[[[-115.274,36.215,0.0],[-115.2744,36.2156,0.0],[-115.2742,36.2185,0.0],[-115.268,36.2184,0.0],[-115.2604,36.2183,0.0],[-115.2604,36.2181,0.0],[-115.2605,36.2138,0.0],[-115.2607,36.2035,0.0],[-115.2639,36.2036,0.0],[-115.2653,36.2046,0.0],[-115.2672,36.2052,0.0],[-115.2693,36.2106,0.0],[-115.2745,36.2147,0.0],[-115.274,36.215,0.0]]]]}},{"type":"Feature","properties":{"uesi_id":"USA_R170117","nbhd_code":"USA_R170117_120","nbhd_name":"Census Tract 32.33"},"geometry":{"type":"MultiPolygon","coordinates":[[[[-115.3149,36.2847,0.0],[-115.3149,36.2884,0.0],[-115.315,36.2958,0.0],[-115.3138,36.2958,0.0],[-115.3126,36.2957,0.0],[-115.3059,36.2956,0.0],[-115.3014,36.2956,0.0],[-115.2969,36.2955,0.0],[-115.2969,36.2918,0.0],[-115.2969,36.2882,0.0],[-115.2968,36.2845,0.0],[-115.2878,36.2845,0.0],[-115.2878,36.2809,0.0],[-115.2878,36.2798,0.0],[-115.2901,36.2802,0.0],[-115.2904,36.2802,0.0],[-115.2923,36.2803,0.0],[-115.2937,36.2804,0.0],[-115.2969,36.2804,0.0],[-115.2993,36.2804,0.0],[-115.3002,36.2804,0.0],[-115.3059,36.2806,0.0],[-115.3115,36.2812,0.0],[-115.3118,36.2813,0.0],[-115.312,36.2813,0.0],[-115.3126,36.2814,0.0],[-115.315,36.2818,0.0],[-115.3149,36.2847,0.0]]]]}},{"type":"Feature","properties":{"uesi_id":"USA_R170117","nbhd_code":"USA_R170117_121","nbhd_name":"Census Tract 32.41"},"geometry":{"type":"MultiPolygon","coordinates":[[[[-115.3156,36.2257,0.0],[-115.3067,36.226,0.0],[-115.3054,36.2265,0.0],[-115.3045,36.2268,0.0],[-115.302,36.226,0.0],[-115.2974,36.2261,0.0],[-115.2973,36.2223,0.0],[-115.2971,36.2186,0.0],[-115.3064,36.2184,0.0],[-115.3157,36.2183,0.0],[-115.3156,36.2257,0.0]]]]}},{"type":"Feature","properties":{"uesi_id":"USA_R170117","nbhd_code":"USA_R170117_122","nbhd_name":"Census Tract 32.51"},"geometry":{"type":"MultiPolygon","coordinates":[[[[-115.3236,36.1937,0.0],[-115.3232,36.1961,0.0],[-115.3205,36.2016,0.0],[-115.3203,36.2025,0.0],[-115.32,36.2051,0.0],[-115.3135,36.2045,0.0],[-115.3101,36.2042,0.0],[-115.3086,36.2044,0.0],[-115.3078,36.2018,0.0],[-115.3106,36.2008,0.0],[-115.3118,36.1985,0.0],[-115.3122,36.1966,0.0],[-115.3141,36.1948,0.0],[-115.3151,36.1937,0.0],[-115.3159,36.1921,0.0],[-115.316,36.1919,0.0],[-115.3212,36.1932,0.0],[-115.3237,36.1935,0.0],[-115.3236,36.1937,0.0]]]]}},{"type":"Feature","properties":{"uesi_id":"USA_R170117","nbhd_code":"USA_R170117_123","nbhd_name":"Census Tract 58.09"},"geometry":{"type":"MultiPolygon","coordinates":[[[[-115.2905,36.1329,0.0],[-115.289,36.1376,0.0],[-115.2897,36.1395,0.0],[-115.2879,36.1411,0.0],[-115.2879,36.1441,0.0],[-115.279,36.1441,0.0],[-115.279,36.1405,0.0],[-115.2789,36.1377,0.0],[-115.279,36.1368,0.0],[-115.2789,36.1315,0.0],[-115.2789,36.1296,0.0],[-115.2874,36.1296,0.0],[-115.2903,36.1319,0.0],[-115.2905,36.1329,0.0]]]]}},{"type":"Feature","properties":{"uesi_id":"USA_R170117","nbhd_code":"USA_R170117_124","nbhd_name":"Census Tract 34.26"},"geometry":{"type":"MultiPolygon","coordinates":[[[[-115.2258,36.2168,0.0],[-115.2229,36.2169,0.0],[-115.2213,36.2169,0.0],[-115.2168,36.217,0.0],[-115.2158,36.21,0.0],[-115.2157,36.2094,0.0],[-115.2153,36.2064,0.0],[-115.2147,36.2029,0.0],[-115.2157,36.2029,0.0],[-115.2237,36.2031,0.0],[-115.2242,36.2065,0.0],[-115.2247,36.2094,0.0],[-115.2247,36.2099,0.0],[-115.225,36.2117,0.0],[-115.2258,36.2168,0.0]]]]}},{"type":"Feature","properties":{"uesi_id":"USA_R170117","nbhd_code":"USA_R170117_125","nbhd_name":"Census Tract 22.04"},"geometry":{"type":"MultiPolygon","coordinates":[[[[-115.1997,36.1413,0.0],[-115.1907,36.1412,0.0],[-115.1906,36.1391,0.0],[-115.1905,36.1373,0.0],[-115.1904,36.1338,0.0],[-115.1993,36.1336,0.0],[-115.1994,36.1355,0.0],[-115.1995,36.1373,0.0],[-115.1995,36.1391,0.0],[-115.1997,36.1413,0.0]]]]}},{"type":"Feature","properties":{"uesi_id":"USA_R170117","nbhd_code":"USA_R170117_126","nbhd_name":"Census Tract 32.27"},"geometry":{"type":"MultiPolygon","coordinates":[[[[-115.3375,36.1701,0.0],[-115.3348,36.1701,0.0],[-115.3315,36.1694,0.0],[-115.3271,36.1675,0.0],[-115.3247,36.1675,0.0],[-115.3193,36.1671,0.0],[-115.3152,36.168,0.0],[-115.3141,36.1589,0.0],[-115.3158,36.159,0.0],[-115.3231,36.1589,0.0],[-115.3371,36.159,0.0],[-115.3375,36.1701,0.0]]]]}},{"type":"Feature","properties":{"uesi_id":"USA_R170117","nbhd_code":"USA_R170117_127","nbhd_name":"Census Tract 32.42"},"geometry":{"type":"MultiPolygon","coordinates":[[[[-115.2975,36.2373,0.0],[-115.2975,36.2409,0.0],[-115.2974,36.2482,0.0],[-115.2837,36.2483,0.0],[-115.2792,36.2483,0.0],[-115.2791,36.241,0.0],[-115.2791,36.2337,0.0],[-115.2814,36.2337,0.0],[-115.2826,36.2337,0.0],[-115.2884,36.2337,0.0],[-115.2976,36.2337,0.0],[-115.2975,36.2373,0.0]]]]}},{"type":"Feature","properties":{"uesi_id":"USA_R170117","nbhd_code":"USA_R170117_128","nbhd_name":"Census Tract 32.62"},"geometry":{"type":"MultiPolygon","coordinates":[[[[-115.3405,36.2052,0.0],[-115.3404,36.2055,0.0],[-115.3329,36.2037,0.0],[-115.3306,36.2036,0.0],[-115.3255,36.2049,0.0],[-115.3232,36.2052,0.0],[-115.32,36.2051,0.0],[-115.3203,36.2025,0.0],[-115.3205,36.2016,0.0],[-115.3232,36.1961,0.0],[-115.3236,36.1937,0.0],[-115.3276,36.1939,0.0],[-115.3319,36.193,0.0],[-115.3356,36.1921,0.0],[-115.3387,36.1915,0.0],[-115.3424,36.1916,0.0],[-115.3405,36.2052,0.0]]]]}},{"type":"Feature","properties":{"uesi_id":"USA_R170117","nbhd_code":"USA_R170117_129","nbhd_name":"Census Tract 34.27"},"geometry":{"type":"MultiPolygon","coordinates":[[[[-115.2168,36.217,0.0],[-115.2122,36.2171,0.0],[-115.2061,36.2104,0.0],[-115.2055,36.2097,0.0],[-115.2056,36.2092,0.0],[-115.2058,36.2028,0.0],[-115.2065,36.2028,0.0],[-115.2127,36.2029,0.0],[-115.2147,36.2029,0.0],[-115.2153,36.2064,0.0],[-115.2157,36.2094,0.0],[-115.2158,36.21,0.0],[-115.2168,36.217,0.0]]]]}},{"type":"Feature","properties":{"uesi_id":"USA_R170117","nbhd_code":"USA_R170117_130","nbhd_name":"Census Tract 37"},"geometry":{"type":"MultiPolygon","coordinates":[[[[-115.152,36.2178,0.0],[-115.1431,36.218,0.0],[-115.134,36.2178,0.0],[-115.1241,36.2177,0.0],[-115.1292,36.2108,0.0],[-115.1293,36.2103,0.0],[-115.1343,36.2034,0.0],[-115.1366,36.2001,0.0],[-115.1379,36.1972,0.0],[-115.1386,36.1959,0.0],[-115.1401,36.1934,0.0],[-115.1429,36.1893,0.0],[-115.1434,36.1884,0.0],[-115.143,36.1905,0.0],[-115.1428,36.1957,0.0],[-115.1474,36.1957,0.0],[-115.1519,36.1957,0.0],[-115.1518,36.1975,0.0],[-115.1518,36.2031,0.0],[-115.152,36.2178,0.0]]]]}},{"type":"Feature","properties":{"uesi_id":"USA_R170117","nbhd_code":"USA_R170117_131","nbhd_name":"Census Tract 32.52"},"geometry":{"type":"MultiPolygon","coordinates":[[[[-115.3159,36.1921,0.0],[-115.3151,36.1937,0.0],[-115.3141,36.1948,0.0],[-115.3122,36.1966,0.0],[-115.3118,36.1985,0.0],[-115.3106,36.2008,0.0],[-115.3078,36.2018,0.0],[-115.3086,36.2044,0.0],[-115.3035,36.2062,0.0],[-115.2998,36.2061,0.0],[-115.3006,36.2003,0.0],[-115.3006,36.1982,0.0],[-115.3004,36.1948,0.0],[-115.3007,36.1934,0.0],[-115.3025,36.1935,0.0],[-115.3033,36.1933,0.0],[-115.3047,36.1913,0.0],[-115.3036,36.1896,0.0],[-115.3065,36.187,0.0],[-115.3067,36.1868,0.0],[-115.3121,36.1903,0.0],[-115.316,36.1919,0.0],[-115.3159,36.1921,0.0]]]]}},{"type":"Feature","properties":{"uesi_id":"USA_R170117","nbhd_code":"USA_R170117_132","nbhd_name":"Census Tract 33.05"},"geometry":{"type":"MultiPolygon","coordinates":[[[[-115.2505,36.2631,0.0],[-115.247,36.2631,0.0],[-115.2424,36.2632,0.0],[-115.2413,36.2631,0.0],[-115.2392,36.2628,0.0],[-115.2339,36.2621,0.0],[-115.2329,36.262,0.0],[-115.2307,36.2617,0.0],[-115.2297,36.2616,0.0],[-115.2255,36.261,0.0],[-115.2255,36.2537,0.0],[-115.2255,36.251,0.0],[-115.2255,36.25,0.0],[-115.2256,36.2464,0.0],[-115.2339,36.2471,0.0],[-115.2401,36.2476,0.0],[-115.2401,36.2477,0.0],[-115.2429,36.2509,0.0],[-115.2457,36.2539,0.0],[-115.2471,36.2545,0.0],[-115.2484,36.2569,0.0],[-115.2539,36.263,0.0],[-115.2505,36.2631,0.0]]]]}},{"type":"Feature","properties":{"uesi_id":"USA_R170117","nbhd_code":"USA_R170117_133","nbhd_name":"Census Tract 33.10"},"geometry":{"type":"MultiPolygon","coordinates":[[[[-115.2601,36.3092,0.0],[-115.2601,36.3114,0.0],[-115.2596,36.3125,0.0],[-115.2584,36.3141,0.0],[-115.2527,36.3128,0.0],[-115.2492,36.3112,0.0],[-115.2449,36.3123,0.0],[-115.2422,36.3125,0.0],[-115.2421,36.3131,0.0],[-115.2378,36.3129,0.0],[-115.2377,36.309,0.0],[-115.2332,36.3089,0.0],[-115.2331,36.3051,0.0],[-115.2286,36.305,0.0],[-115.224,36.3049,0.0],[-115.224,36.3013,0.0],[-115.2241,36.2977,0.0],[-115.2242,36.2941,0.0],[-115.2242,36.2905,0.0],[-115.2243,36.2887,0.0],[-115.2243,36.2869,0.0],[-115.2244,36.2832,0.0],[-115.2245,36.2795,0.0],[-115.2248,36.2761,0.0],[-115.2335,36.276,0.0],[-115.238,36.276,0.0],[-115.2426,36.2761,0.0],[-115.2423,36.2781,0.0],[-115.2423,36.2906,0.0],[-115.2422,36.2987,0.0],[-115.2422,36.3015,0.0],[-115.2422,36.3052,0.0],[-115.2461,36.3052,0.0],[-115.2489,36.3052,0.0],[-115.2511,36.3051,0.0],[-115.2534,36.3051,0.0],[-115.2579,36.3051,0.0],[-115.2601,36.3051,0.0],[-115.2601,36.3092,0.0]]]]}},{"type":"Feature","properties":{"uesi_id":"USA_R170117","nbhd_code":"USA_R170117_134","nbhd_name":"Census Tract 33.15"},"geometry":{"type":"MultiPolygon","coordinates":[[[[-115.2959,36.3138,0.0],[-115.2876,36.3139,0.0],[-115.2843,36.3139,0.0],[-115.2837,36.3139,0.0],[-115.2786,36.3139,0.0],[-115.2786,36.3102,0.0],[-115.2786,36.3084,0.0],[-115.2877,36.3084,0.0],[-115.2942,36.3083,0.0],[-115.2949,36.3086,0.0],[-115.2985,36.3124,0.0],[-115.2959,36.3138,0.0]]]]}},{"type":"Feature","properties":{"uesi_id":"USA_R170117","nbhd_code":"USA_R170117_135","nbhd_name":"Census Tract 33.18"},"geometry":{"type":"MultiPolygon","coordinates":[[[[-115.2827,36.3013,0.0],[-115.279,36.3051,0.0],[-115.2786,36.3084,0.0],[-115.2786,36.3102,0.0],[-115.2717,36.3099,0.0],[-115.2693,36.3098,0.0],[-115.2693,36.3084,0.0],[-115.2694,36.2985,0.0],[-115.2694,36.2974,0.0],[-115.2685,36.295,0.0],[-115.2686,36.2938,0.0],[-115.2695,36.2912,0.0],[-115.2796,36.2918,0.0],[-115.2812,36.2936,0.0],[-115.2813,36.2936,0.0],[-115.2858,36.2985,0.0],[-115.2827,36.3013,0.0]]]]}},{"type":"Feature","properties":{"uesi_id":"USA_R170117","nbhd_code":"USA_R170117_136","nbhd_name":"Census Tract 34.14"},"geometry":{"type":"MultiPolygon","coordinates":[[[[-115.2327,36.2396,0.0],[-115.2255,36.239,0.0],[-115.2196,36.2389,0.0],[-115.2076,36.2388,0.0],[-115.2074,36.232,0.0],[-115.2075,36.2283,0.0],[-115.2075,36.2247,0.0],[-115.2075,36.2173,0.0],[-115.2122,36.2171,0.0],[-115.2189,36.2244,0.0],[-115.2215,36.2274,0.0],[-115.2266,36.233,0.0],[-115.2327,36.2396,0.0]]]]}},{"type":"Feature","properties":{"uesi_id":"USA_R170117","nbhd_code":"USA_R170117_137","nbhd_name":"Census Tract 34.20"},"geometry":{"type":"MultiPolygon","coordinates":[[[[-115.2238,36.1987,0.0],[-115.2237,36.2031,0.0],[-115.2157,36.2029,0.0],[-115.2147,36.2029,0.0],[-115.2127,36.2029,0.0],[-115.2065,36.2028,0.0],[-115.2058,36.2028,0.0],[-115.2058,36.2011,0.0],[-115.206,36.1955,0.0],[-115.2075,36.1955,0.0],[-115.2078,36.1955,0.0],[-115.2127,36.1956,0.0],[-115.2149,36.1956,0.0],[-115.2179,36.1957,0.0],[-115.2194,36.1957,0.0],[-115.2239,36.1957,0.0],[-115.2238,36.1987,0.0]]]]}},{"type":"Feature","properties":{"uesi_id":"USA_R170117","nbhd_code":"USA_R170117_138","nbhd_name":"Census Tract 34.29"},"geometry":{"type":"MultiPolygon","coordinates":[[[[-115.206,36.1941,0.0],[-115.206,36.1955,0.0],[-115.2039,36.1959,0.0],[-115.2022,36.1973,0.0],[-115.1968,36.2002,0.0],[-115.1926,36.1956,0.0],[-115.1893,36.192,0.0],[-115.1879,36.1905,0.0],[-115.186,36.1885,0.0],[-115.1894,36.1885,0.0],[-115.1897,36.1885,0.0],[-115.197,36.1883,0.0],[-115.2002,36.1883,0.0],[-115.2022,36.1883,0.0],[-115.2061,36.1882,0.0],[-115.206,36.1941,0.0]]]]}},{"type":"Feature","properties":{"uesi_id":"USA_R170117","nbhd_code":"USA_R170117_139","nbhd_name":"Census Tract 36.16"},"geometry":{"type":"MultiPolygon","coordinates":[[[[-115.2075,36.2173,0.0],[-115.1974,36.2174,0.0],[-115.1884,36.2175,0.0],[-115.1794,36.2176,0.0],[-115.1703,36.2176,0.0],[-115.1612,36.2177,0.0],[-115.1609,36.2067,0.0],[-115.1608,36.203,0.0],[-115.1653,36.203,0.0],[-115.1653,36.1973,0.0],[-115.1654,36.1957,0.0],[-115.1698,36.1957,0.0],[-115.1702,36.1956,0.0],[-115.1717,36.1955,0.0],[-115.1719,36.1954,0.0],[-115.1751,36.1957,0.0],[-115.176,36.1957,0.0],[-115.1788,36.1957,0.0],[-115.1832,36.1956,0.0],[-115.1868,36.1956,0.0],[-115.1926,36.1956,0.0],[-115.1968,36.2002,0.0],[-115.1991,36.2028,0.0],[-115.2055,36.2097,0.0],[-115.2061,36.2104,0.0],[-115.2122,36.2171,0.0],[-115.2075,36.2173,0.0]]]]}},{"type":"Feature","properties":{"uesi_id":"USA_R170117","nbhd_code":"USA_R170117_140","nbhd_name":"Census Tract 32.61"},"geometry":{"type":"MultiPolygon","coordinates":[[[[-115.2914,36.162,0.0],[-115.2913,36.1628,0.0],[-115.2906,36.1642,0.0],[-115.288,36.1668,0.0],[-115.2862,36.1662,0.0],[-115.2779,36.1663,0.0],[-115.2689,36.1664,0.0],[-115.2689,36.1628,0.0],[-115.2781,36.1629,0.0],[-115.28,36.1607,0.0],[-115.2803,36.1591,0.0],[-115.2869,36.159,0.0],[-115.2914,36.159,0.0],[-115.2914,36.162,0.0]]]]}},{"type":"Feature","properties":{"uesi_id":"USA_R170117","nbhd_code":"USA_R170117_141","nbhd_name":"Census Tract 33.03"},"geometry":{"type":"MultiPolygon","coordinates":[[[[-115.2666,36.2778,0.0],[-115.2627,36.2773,0.0],[-115.2608,36.2782,0.0],[-115.2575,36.2773,0.0],[-115.2539,36.2769,0.0],[-115.2516,36.2768,0.0],[-115.2508,36.2767,0.0],[-115.247,36.2764,0.0],[-115.2426,36.2761,0.0],[-115.2425,36.2747,0.0],[-115.2424,36.2728,0.0],[-115.2425,36.2728,0.0],[-115.2425,36.2713,0.0],[-115.2424,36.2696,0.0],[-115.2424,36.2659,0.0],[-115.2424,36.2647,0.0],[-115.2424,36.2632,0.0],[-115.247,36.2631,0.0],[-115.2505,36.2631,0.0],[-115.2539,36.263,0.0],[-115.2628,36.2728,0.0],[-115.2675,36.2779,0.0],[-115.2666,36.2778,0.0]]]]}},{"type":"Feature","properties":{"uesi_id":"USA_R170117","nbhd_code":"USA_R170117_142","nbhd_name":"Census Tract 33.07"},"geometry":{"type":"MultiPolygon","coordinates":[[[[-115.2254,36.2684,0.0],[-115.2248,36.2761,0.0],[-115.2154,36.2762,0.0],[-115.2068,36.2763,0.0],[-115.2067,36.2763,0.0],[-115.2064,36.2763,0.0],[-115.2072,36.2616,0.0],[-115.2144,36.2612,0.0],[-115.2164,36.2611,0.0],[-115.2209,36.2611,0.0],[-115.2232,36.261,0.0],[-115.2255,36.261,0.0],[-115.2254,36.2684,0.0]]]]}},{"type":"Feature","properties":{"uesi_id":"USA_R170117","nbhd_code":"USA_R170117_143","nbhd_name":"Census Tract 33.12"},"geometry":{"type":"MultiPolygon","coordinates":[[[[-115.2333,36.3109,0.0],[-115.231,36.3108,0.0],[-115.2311,36.3127,0.0],[-115.2312,36.3167,0.0],[-115.2279,36.3165,0.0],[-115.2245,36.3164,0.0],[-115.2247,36.3203,0.0],[-115.2159,36.3204,0.0],[-115.2158,36.3168,0.0],[-115.2157,36.313,0.0],[-115.2156,36.3093,0.0],[-115.2156,36.3019,0.0],[-115.224,36.3013,0.0],[-115.224,36.3049,0.0],[-115.2286,36.305,0.0],[-115.2331,36.3051,0.0],[-115.2332,36.3089,0.0],[-115.2333,36.3109,0.0]]]]}},{"type":"Feature","properties":{"uesi_id":"USA_R170117","nbhd_code":"USA_R170117_144","nbhd_name":"Census Tract 33.14"},"geometry":{"type":"MultiPolygon","coordinates":[[[[-115.2786,36.336,0.0],[-115.2608,36.3357,0.0],[-115.2608,36.3358,0.0],[-115.2301,36.3355,0.0],[-115.2071,36.3353,0.0],[-115.2071,36.3283,0.0],[-115.2072,36.3171,0.0],[-115.2158,36.3168,0.0],[-115.2159,36.3204,0.0],[-115.2247,36.3203,0.0],[-115.2245,36.3164,0.0],[-115.2279,36.3165,0.0],[-115.2312,36.3167,0.0],[-115.2311,36.3127,0.0],[-115.231,36.3108,0.0],[-115.2333,36.3109,0.0],[-115.2332,36.3089,0.0],[-115.2377,36.309,0.0],[-115.2378,36.3129,0.0],[-115.2421,36.3131,0.0],[-115.2422,36.3125,0.0],[-115.2449,36.3123,0.0],[-115.2492,36.3112,0.0],[-115.2527,36.3128,0.0],[-115.2584,36.3141,0.0],[-115.2596,36.3125,0.0],[-115.2601,36.3114,0.0],[-115.2601,36.3092,0.0],[-115.2625,36.3093,0.0],[-115.2693,36.3098,0.0],[-115.2717,36.3099,0.0],[-115.2786,36.3102,0.0],[-115.2786,36.3139,0.0],[-115.2786,36.3176,0.0],[-115.2785,36.3222,0.0],[-115.2785,36.3248,0.0],[-115.2786,36.3284,0.0],[-115.2786,36.336,0.0]]]]}},{"type":"Feature","properties":{"uesi_id":"USA_R170117","nbhd_code":"USA_R170117_145","nbhd_name":"Census Tract 33.21"},"geometry":{"type":"MultiPolygon","coordinates":[[[[-115.2592,36.2938,0.0],[-115.2599,36.2957,0.0],[-115.2601,36.2963,0.0],[-115.2602,36.2979,0.0],[-115.2601,36.3051,0.0],[-115.2579,36.3051,0.0],[-115.2534,36.3051,0.0],[-115.2511,36.3051,0.0],[-115.2489,36.3052,0.0],[-115.2461,36.3052,0.0],[-115.2422,36.3052,0.0],[-115.2422,36.3015,0.0],[-115.2422,36.2987,0.0],[-115.2423,36.2906,0.0],[-115.2468,36.2906,0.0],[-115.2513,36.2906,0.0],[-115.2558,36.2906,0.0],[-115.2602,36.2906,0.0],[-115.2592,36.2938,0.0]]]]}},{"type":"Feature","properties":{"uesi_id":"USA_R170117","nbhd_code":"USA_R170117_146","nbhd_name":"Census Tract 34.08"},"geometry":{"type":"MultiPolygon","coordinates":[[[[-115.2606,36.2355,0.0],[-115.2605,36.2368,0.0],[-115.2605,36.2387,0.0],[-115.2604,36.2406,0.0],[-115.2604,36.2415,0.0],[-115.2603,36.2451,0.0],[-115.2604,36.2478,0.0],[-115.2569,36.2478,0.0],[-115.2558,36.2478,0.0],[-115.2512,36.2478,0.0],[-115.2466,36.2479,0.0],[-115.2467,36.2405,0.0],[-115.2469,36.2405,0.0],[-115.2468,36.233,0.0],[-115.2607,36.2331,0.0],[-115.2606,36.2355,0.0]]]]}},{"type":"Feature","properties":{"uesi_id":"USA_R170117","nbhd_code":"USA_R170117_147","nbhd_name":"Census Tract 34.10"},"geometry":{"type":"MultiPolygon","coordinates":[[[[-115.2339,36.2471,0.0],[-115.2256,36.2464,0.0],[-115.2211,36.2464,0.0],[-115.2177,36.2464,0.0],[-115.2142,36.2465,0.0],[-115.2076,36.2467,0.0],[-115.2076,36.2388,0.0],[-115.2196,36.2389,0.0],[-115.2255,36.239,0.0],[-115.2327,36.2396,0.0],[-115.2401,36.2476,0.0],[-115.2339,36.2471,0.0]]]]}},{"type":"Feature","properties":{"uesi_id":"USA_R170117","nbhd_code":"USA_R170117_148","nbhd_name":"Census Tract 34.13"},"geometry":{"type":"MultiPolygon","coordinates":[[[[-115.234,36.2184,0.0],[-115.234,36.2213,0.0],[-115.234,36.2249,0.0],[-115.2339,36.2323,0.0],[-115.2338,36.2397,0.0],[-115.2327,36.2396,0.0],[-115.2266,36.233,0.0],[-115.2215,36.2274,0.0],[-115.2189,36.2244,0.0],[-115.2122,36.2171,0.0],[-115.2168,36.217,0.0],[-115.2213,36.2169,0.0],[-115.2229,36.2169,0.0],[-115.2258,36.2168,0.0],[-115.2284,36.2171,0.0],[-115.2299,36.2172,0.0],[-115.234,36.2175,0.0],[-115.234,36.2184,0.0]]]]}},{"type":"Feature","properties":{"uesi_id":"USA_R170117","nbhd_code":"USA_R170117_149","nbhd_name":"Census Tract 34.19"},"geometry":{"type":"MultiPolygon","coordinates":[[[[-115.2444,36.2034,0.0],[-115.2423,36.2034,0.0],[-115.239,36.2033,0.0],[-115.2376,36.2033,0.0],[-115.233,36.2032,0.0],[-115.2283,36.2031,0.0],[-115.2237,36.2031,0.0],[-115.2238,36.1987,0.0],[-115.2239,36.1957,0.0],[-115.2265,36.1958,0.0],[-115.2331,36.1959,0.0],[-115.2377,36.1959,0.0],[-115.2444,36.196,0.0],[-115.2444,36.2034,0.0]]]]}},{"type":"Feature","properties":{"uesi_id":"USA_R170117","nbhd_code":"USA_R170117_150","nbhd_name":"Census Tract 34.21"},"geometry":{"type":"MultiPolygon","coordinates":[[[[-115.2603,36.1961,0.0],[-115.2513,36.1961,0.0],[-115.2444,36.196,0.0],[-115.2444,36.1912,0.0],[-115.2446,36.1886,0.0],[-115.25,36.1887,0.0],[-115.2511,36.1887,0.0],[-115.2551,36.1887,0.0],[-115.2601,36.1888,0.0],[-115.2601,36.1911,0.0],[-115.2603,36.1961,0.0]]]]}},{"type":"Feature","properties":{"uesi_id":"USA_R170117","nbhd_code":"USA_R170117_151","nbhd_name":"Census Tract 34.23"},"geometry":{"type":"MultiPolygon","coordinates":[[[[-115.224,36.1921,0.0],[-115.224,36.1936,0.0],[-115.2239,36.1957,0.0],[-115.2194,36.1957,0.0],[-115.2179,36.1957,0.0],[-115.2149,36.1956,0.0],[-115.2127,36.1956,0.0],[-115.2078,36.1955,0.0],[-115.2075,36.1955,0.0],[-115.206,36.1955,0.0],[-115.206,36.1941,0.0],[-115.2061,36.1882,0.0],[-115.2151,36.1882,0.0],[-115.215,36.181,0.0],[-115.2199,36.1808,0.0],[-115.2238,36.1808,0.0],[-115.2239,36.1846,0.0],[-115.224,36.1885,0.0],[-115.224,36.1921,0.0]]]]}},{"type":"Feature","properties":{"uesi_id":"USA_R170117","nbhd_code":"USA_R170117_152","nbhd_name":"Census Tract 34.31"},"geometry":{"type":"MultiPolygon","coordinates":[[[[-115.1926,36.1956,0.0],[-115.1868,36.1956,0.0],[-115.1832,36.1956,0.0],[-115.1788,36.1957,0.0],[-115.1789,36.1921,0.0],[-115.1789,36.1885,0.0],[-115.186,36.1885,0.0],[-115.1879,36.1905,0.0],[-115.1893,36.192,0.0],[-115.1926,36.1956,0.0]]]]}},{"type":"Feature","properties":{"uesi_id":"USA_R170117","nbhd_code":"USA_R170117_153","nbhd_name":"Census Tract 36.18"},"geometry":{"type":"MultiPolygon","coordinates":[[[[-115.2072,36.3134,0.0],[-115.2025,36.3134,0.0],[-115.1892,36.3129,0.0],[-115.189,36.3057,0.0],[-115.1891,36.2986,0.0],[-115.1938,36.2986,0.0],[-115.1938,36.291,0.0],[-115.1982,36.2912,0.0],[-115.1982,36.2882,0.0],[-115.197,36.286,0.0],[-115.1946,36.2842,0.0],[-115.1906,36.2814,0.0],[-115.1891,36.2799,0.0],[-115.1886,36.2761,0.0],[-115.1923,36.276,0.0],[-115.1953,36.2733,0.0],[-115.1976,36.2726,0.0],[-115.2032,36.276,0.0],[-115.2064,36.2763,0.0],[-115.2067,36.2763,0.0],[-115.2065,36.2776,0.0],[-115.2066,36.2838,0.0],[-115.2067,36.2912,0.0],[-115.2069,36.295,0.0],[-115.207,36.2987,0.0],[-115.2071,36.3024,0.0],[-115.2072,36.3098,0.0],[-115.2072,36.3134,0.0]]]]}},{"type":"Feature","properties":{"uesi_id":"USA_R170117","nbhd_code":"USA_R170117_154","nbhd_name":"Census Tract 10.05"},"geometry":{"type":"MultiPolygon","coordinates":[[[[-115.1925,36.1761,0.0],[-115.1878,36.1763,0.0],[-115.1837,36.1755,0.0],[-115.1745,36.1756,0.0],[-115.1732,36.1732,0.0],[-115.1727,36.1712,0.0],[-115.1727,36.1662,0.0],[-115.1728,36.1589,0.0],[-115.1862,36.159,0.0],[-115.1906,36.159,0.0],[-115.1925,36.1591,0.0],[-115.1925,36.1629,0.0],[-115.1926,36.1662,0.0],[-115.1925,36.1761,0.0]]]]}},{"type":"Feature","properties":{"uesi_id":"USA_R170117","nbhd_code":"USA_R170117_155","nbhd_name":"Census Tract 32.04"},"geometry":{"type":"MultiPolygon","coordinates":[[[[-115.279,36.252,0.0],[-115.2789,36.2557,0.0],[-115.2789,36.257,0.0],[-115.2789,36.2575,0.0],[-115.2788,36.2593,0.0],[-115.2787,36.263,0.0],[-115.2698,36.263,0.0],[-115.2697,36.263,0.0],[-115.263,36.263,0.0],[-115.2567,36.263,0.0],[-115.2539,36.263,0.0],[-115.2484,36.2569,0.0],[-115.2471,36.2545,0.0],[-115.2457,36.2539,0.0],[-115.2429,36.2509,0.0],[-115.2401,36.2477,0.0],[-115.2423,36.2479,0.0],[-115.2466,36.2479,0.0],[-115.2512,36.2478,0.0],[-115.2558,36.2478,0.0],[-115.2569,36.2478,0.0],[-115.2604,36.2478,0.0],[-115.2662,36.248,0.0],[-115.2674,36.248,0.0],[-115.2697,36.2481,0.0],[-115.2698,36.2481,0.0],[-115.2727,36.2482,0.0],[-115.2728,36.2482,0.0],[-115.2739,36.2482,0.0],[-115.2744,36.2482,0.0],[-115.2756,36.2482,0.0],[-115.2762,36.2482,0.0],[-115.2792,36.2483,0.0],[-115.279,36.252,0.0]]]]}},{"type":"Feature","properties":{"uesi_id":"USA_R170117","nbhd_code":"USA_R170117_156","nbhd_name":"Census Tract 32.43"},"geometry":{"type":"MultiPolygon","coordinates":[[[[-115.2976,36.2337,0.0],[-115.2884,36.2337,0.0],[-115.2826,36.2337,0.0],[-115.2814,36.2337,0.0],[-115.2791,36.2337,0.0],[-115.279,36.2306,0.0],[-115.2789,36.2262,0.0],[-115.2882,36.2261,0.0],[-115.2928,36.2261,0.0],[-115.2974,36.2261,0.0],[-115.2975,36.2299,0.0],[-115.2976,36.2337,0.0]]]]}},{"type":"Feature","properties":{"uesi_id":"USA_R170117","nbhd_code":"USA_R170117_157","nbhd_name":"Census Tract 32.60"},"geometry":{"type":"MultiPolygon","coordinates":[[[[-115.28,36.1607,0.0],[-115.2781,36.1629,0.0],[-115.2689,36.1628,0.0],[-115.2689,36.1664,0.0],[-115.2661,36.1665,0.0],[-115.2599,36.1665,0.0],[-115.26,36.1633,0.0],[-115.2607,36.1618,0.0],[-115.2619,36.1609,0.0],[-115.2624,36.1592,0.0],[-115.2659,36.1592,0.0],[-115.2712,36.1591,0.0],[-115.2803,36.1591,0.0],[-115.28,36.1607,0.0]]]]}},{"type":"Feature","properties":{"uesi_id":"USA_R170117","nbhd_code":"USA_R170117_158","nbhd_name":"Census Tract 34.15"},"geometry":{"type":"MultiPolygon","coordinates":[[[[-115.2605,36.2138,0.0],[-115.2604,36.2181,0.0],[-115.2604,36.2183,0.0],[-115.2467,36.2182,0.0],[-115.2423,36.2182,0.0],[-115.2423,36.213,0.0],[-115.2423,36.2108,0.0],[-115.2387,36.2106,0.0],[-115.2335,36.2104,0.0],[-115.2291,36.2102,0.0],[-115.2269,36.21,0.0],[-115.2263,36.21,0.0],[-115.2258,36.21,0.0],[-115.2247,36.2099,0.0],[-115.2247,36.2094,0.0],[-115.2242,36.2065,0.0],[-115.2237,36.2031,0.0],[-115.2283,36.2031,0.0],[-115.233,36.2032,0.0],[-115.2376,36.2033,0.0],[-115.239,36.2033,0.0],[-115.2423,36.2034,0.0],[-115.2444,36.2034,0.0],[-115.2468,36.2034,0.0],[-115.2514,36.2034,0.0],[-115.2607,36.2035,0.0],[-115.2605,36.2138,0.0]]]]}},{"type":"Feature","properties":{"uesi_id":"USA_R170117","nbhd_code":"USA_R170117_160","nbhd_name":"Census Tract 58.07"},"geometry":{"type":"MultiPolygon","coordinates":[[[[-115.3067,36.1444,0.0],[-115.2977,36.1444,0.0],[-115.2975,36.1408,0.0],[-115.2974,36.1376,0.0],[-115.2972,36.1335,0.0],[-115.297,36.1298,0.0],[-115.3062,36.1298,0.0],[-115.3065,36.1322,0.0],[-115.3065,36.1335,0.0],[-115.3059,36.1366,0.0],[-115.3059,36.1371,0.0],[-115.3065,36.1388,0.0],[-115.3061,36.1407,0.0],[-115.3061,36.1422,0.0],[-115.3067,36.1444,0.0]]]]}}]}