{"type":"FeatureCollection","name":"USA_R11049559","crs":{"type":"name","properties":{"name":"urn:ogc:def:crs:OGC:1.3:CRS84"}},"features":[{"type":"Feature","properties":{"uesi_id":"USA_R11049559","nbhd_code":"USA_R11049559_1","nbhd_name":"Census Tract 705"},"geometry":{"type":"MultiPolygon","coordinates":[[[[-73.1994,41.1671,0.0],[-73.197,41.1692,0.0],[-73.1944,41.1694,0.0],[-73.191,41.1697,0.0],[-73.1895,41.1699,0.0],[-73.1875,41.1661,0.0],[-73.1879,41.1646,0.0],[-73.1905,41.1642,0.0],[-73.1924,41.1668,0.0],[-73.1951,41.1652,0.0],[-73.1958,41.1661,0.0],[-73.1976,41.1652,0.0],[-73.1994,41.1671,0.0]]]]}},{"type":"Feature","properties":{"uesi_id":"USA_R11049559","nbhd_code":"USA_R11049559_2","nbhd_name":"Census Tract 736"},"geometry":{"type":"MultiPolygon","coordinates":[[[[-73.1804,41.1945,0.0],[-73.1803,41.198,0.0],[-73.174,41.1941,0.0],[-73.1743,41.1913,0.0],[-73.1772,41.1914,0.0],[-73.1805,41.1916,0.0],[-73.1804,41.1945,0.0]]]]}},{"type":"Feature","properties":{"uesi_id":"USA_R11049559","nbhd_code":"USA_R11049559_3","nbhd_name":"Census Tract 720"},"geometry":{"type":"MultiPolygon","coordinates":[[[[-73.2135,41.1912,0.0],[-73.2064,41.1947,0.0],[-73.2047,41.1926,0.0],[-73.204,41.1917,0.0],[-73.2028,41.1903,0.0],[-73.2,41.1891,0.0],[-73.2017,41.1877,0.0],[-73.2067,41.1831,0.0],[-73.211,41.1883,0.0],[-73.2135,41.1912,0.0]]]]}},{"type":"Feature","properties":{"uesi_id":"USA_R11049559","nbhd_code":"USA_R11049559_4","nbhd_name":"Census Tract 712"},"geometry":{"type":"MultiPolygon","coordinates":[[[[-73.2087,41.182,0.0],[-73.2067,41.1831,0.0],[-73.2062,41.1826,0.0],[-73.2047,41.181,0.0],[-73.2026,41.1791,0.0],[-73.2018,41.1783,0.0],[-73.1994,41.1759,0.0],[-73.199,41.1754,0.0],[-73.1983,41.1746,0.0],[-73.1979,41.1739,0.0],[-73.2012,41.1729,0.0],[-73.2053,41.1716,0.0],[-73.2056,41.1753,0.0],[-73.2057,41.1772,0.0],[-73.2065,41.1772,0.0],[-73.2083,41.1787,0.0],[-73.2109,41.181,0.0],[-73.2087,41.182,0.0]]]]}},{"type":"Feature","properties":{"uesi_id":"USA_R11049559","nbhd_code":"USA_R11049559_5","nbhd_name":"Census Tract 730"},"geometry":{"type":"MultiPolygon","coordinates":[[[[-73.1867,41.2064,0.0],[-73.1875,41.2086,0.0],[-73.1836,41.2128,0.0],[-73.1794,41.2182,0.0],[-73.1789,41.2218,0.0],[-73.1788,41.222,0.0],[-73.1773,41.2223,0.0],[-73.1712,41.2226,0.0],[-73.1695,41.2228,0.0],[-73.1647,41.2256,0.0],[-73.1673,41.224,0.0],[-73.1739,41.2149,0.0],[-73.1789,41.2101,0.0],[-73.1789,41.2061,0.0],[-73.1838,41.2062,0.0],[-73.1854,41.207,0.0],[-73.1894,41.2027,0.0],[-73.1867,41.2064,0.0]]]]}},{"type":"Feature","properties":{"uesi_id":"USA_R11049559","nbhd_code":"USA_R11049559_6","nbhd_name":"Census Tract 702"},"geometry":{"type":"MultiPolygon","coordinates":[[[[-73.2274,41.1641,0.0],[-73.2244,41.1663,0.0],[-73.2238,41.1664,0.0],[-73.223,41.1666,0.0],[-73.2165,41.1675,0.0],[-73.2174,41.1666,0.0],[-73.2186,41.1655,0.0],[-73.2171,41.1636,0.0],[-73.2167,41.1606,0.0],[-73.2167,41.1591,0.0],[-73.2162,41.1552,0.0],[-73.2189,41.1539,0.0],[-73.2209,41.1547,0.0],[-73.2228,41.1595,0.0],[-73.2248,41.1592,0.0],[-73.2281,41.1621,0.0],[-73.2274,41.1641,0.0]]]]}},{"type":"Feature","properties":{"uesi_id":"USA_R11049559","nbhd_code":"USA_R11049559_7","nbhd_name":"Census Tract 709"},"geometry":{"type":"MultiPolygon","coordinates":[[[[-73.2088,41.1705,0.0],[-73.2053,41.1716,0.0],[-73.2012,41.1729,0.0],[-73.1979,41.1739,0.0],[-73.1949,41.1701,0.0],[-73.1944,41.1694,0.0],[-73.197,41.1692,0.0],[-73.2011,41.1688,0.0],[-73.2085,41.1682,0.0],[-73.2088,41.1705,0.0]]]]}},{"type":"Feature","properties":{"uesi_id":"USA_R11049559","nbhd_code":"USA_R11049559_8","nbhd_name":"Census Tract 719"},"geometry":{"type":"MultiPolygon","coordinates":[[[[-73.2075,41.1966,0.0],[-73.2016,41.1986,0.0],[-73.2008,41.1974,0.0],[-73.2004,41.1968,0.0],[-73.1991,41.1949,0.0],[-73.197,41.1917,0.0],[-73.1993,41.1896,0.0],[-73.2,41.1891,0.0],[-73.2028,41.1903,0.0],[-73.204,41.1917,0.0],[-73.2047,41.1926,0.0],[-73.2064,41.1947,0.0],[-73.2068,41.1953,0.0],[-73.2075,41.1966,0.0]]]]}},{"type":"Feature","properties":{"uesi_id":"USA_R11049559","nbhd_code":"USA_R11049559_9","nbhd_name":"Census Tract 724"},"geometry":{"type":"MultiPolygon","coordinates":[[[[-73.2112,41.2131,0.0],[-73.2088,41.2121,0.0],[-73.2047,41.2127,0.0],[-73.2039,41.2129,0.0],[-73.201,41.2137,0.0],[-73.1999,41.2126,0.0],[-73.199,41.2109,0.0],[-73.1988,41.2106,0.0],[-73.1967,41.2088,0.0],[-73.1962,41.2078,0.0],[-73.2022,41.2055,0.0],[-73.2051,41.2044,0.0],[-73.2057,41.2054,0.0],[-73.2077,41.2084,0.0],[-73.2094,41.2108,0.0],[-73.2112,41.2131,0.0]]]]}},{"type":"Feature","properties":{"uesi_id":"USA_R11049559","nbhd_code":"USA_R11049559_10","nbhd_name":"Census Tract 732"},"geometry":{"type":"MultiPolygon","coordinates":[[[[-73.1625,41.1989,0.0],[-73.1613,41.1994,0.0],[-73.16,41.2049,0.0],[-73.1579,41.2035,0.0],[-73.1568,41.2013,0.0],[-73.1565,41.2005,0.0],[-73.1549,41.1957,0.0],[-73.1578,41.1958,0.0],[-73.1632,41.1971,0.0],[-73.1625,41.1989,0.0]]]]}},{"type":"Feature","properties":{"uesi_id":"USA_R11049559","nbhd_code":"USA_R11049559_11","nbhd_name":"Census Tract 739"},"geometry":{"type":"MultiPolygon","coordinates":[[[[-73.1895,41.1897,0.0],[-73.1881,41.1897,0.0],[-73.1878,41.192,0.0],[-73.184,41.1917,0.0],[-73.1805,41.1916,0.0],[-73.1806,41.1892,0.0],[-73.1808,41.1859,0.0],[-73.1808,41.1857,0.0],[-73.1827,41.1854,0.0],[-73.1846,41.1847,0.0],[-73.1852,41.1841,0.0],[-73.1863,41.1829,0.0],[-73.1889,41.1848,0.0],[-73.1884,41.1861,0.0],[-73.1888,41.1861,0.0],[-73.1895,41.1897,0.0]]]]}},{"type":"Feature","properties":{"uesi_id":"USA_R11049559","nbhd_code":"USA_R11049559_12","nbhd_name":"Census Tract 713"},"geometry":{"type":"MultiPolygon","coordinates":[[[[-73.2062,41.1826,0.0],[-73.2027,41.182,0.0],[-73.2016,41.1818,0.0],[-73.1985,41.1811,0.0],[-73.195,41.1803,0.0],[-73.1958,41.1788,0.0],[-73.199,41.1754,0.0],[-73.1994,41.1759,0.0],[-73.2018,41.1783,0.0],[-73.2026,41.1791,0.0],[-73.2047,41.181,0.0],[-73.2062,41.1826,0.0]]]]}},{"type":"Feature","properties":{"uesi_id":"USA_R11049559","nbhd_code":"USA_R11049559_13","nbhd_name":"Census Tract 726"},"geometry":{"type":"MultiPolygon","coordinates":[[[[-73.2442,41.2266,0.0],[-73.2322,41.2273,0.0],[-73.2191,41.2278,0.0],[-73.2178,41.2214,0.0],[-73.216,41.2194,0.0],[-73.214,41.2172,0.0],[-73.2133,41.2161,0.0],[-73.2132,41.2161,0.0],[-73.219,41.2155,0.0],[-73.2212,41.2136,0.0],[-73.2227,41.2127,0.0],[-73.2241,41.2124,0.0],[-73.2263,41.2085,0.0],[-73.2275,41.2075,0.0],[-73.2316,41.2121,0.0],[-73.2329,41.2135,0.0],[-73.2332,41.2139,0.0],[-73.2364,41.2179,0.0],[-73.2442,41.2266,0.0]]]]}},{"type":"Feature","properties":{"uesi_id":"USA_R11049559","nbhd_code":"USA_R11049559_14","nbhd_name":"Census Tract 2572"},"geometry":{"type":"MultiPolygon","coordinates":[[[[-73.2051,41.2044,0.0],[-73.2022,41.2055,0.0],[-73.1993,41.2013,0.0],[-73.1979,41.1994,0.0],[-73.1974,41.1991,0.0],[-73.1964,41.2003,0.0],[-73.195,41.2003,0.0],[-73.1938,41.2008,0.0],[-73.1926,41.2008,0.0],[-73.192,41.201,0.0],[-73.1894,41.2027,0.0],[-73.1892,41.2028,0.0],[-73.186,41.2001,0.0],[-73.1865,41.1981,0.0],[-73.1861,41.1961,0.0],[-73.1869,41.1943,0.0],[-73.1893,41.192,0.0],[-73.1895,41.1897,0.0],[-73.1888,41.1861,0.0],[-73.1892,41.1861,0.0],[-73.1903,41.1861,0.0],[-73.1921,41.1856,0.0],[-73.1934,41.186,0.0],[-73.1939,41.187,0.0],[-73.197,41.1917,0.0],[-73.1991,41.1949,0.0],[-73.2004,41.1968,0.0],[-73.2008,41.1974,0.0],[-73.2016,41.1986,0.0],[-73.2026,41.2001,0.0],[-73.2032,41.201,0.0],[-73.2051,41.2044,0.0]]]]}},{"type":"Feature","properties":{"uesi_id":"USA_R11049559","nbhd_code":"USA_R11049559_15","nbhd_name":"Census Tract 723"},"geometry":{"type":"MultiPolygon","coordinates":[[[[-73.2149,41.2056,0.0],[-73.2105,41.2073,0.0],[-73.2077,41.2084,0.0],[-73.2057,41.2054,0.0],[-73.2051,41.2044,0.0],[-73.2032,41.201,0.0],[-73.2026,41.2001,0.0],[-73.2016,41.1986,0.0],[-73.2075,41.1966,0.0],[-73.2078,41.1973,0.0],[-73.2112,41.1991,0.0],[-73.2127,41.2,0.0],[-73.214,41.2013,0.0],[-73.2189,41.2041,0.0],[-73.2149,41.2056,0.0]]]]}},{"type":"Feature","properties":{"uesi_id":"USA_R11049559","nbhd_code":"USA_R11049559_16","nbhd_name":"Census Tract 701"},"geometry":{"type":"MultiPolygon","coordinates":[[[[-73.2372,41.1551,0.0],[-73.2339,41.1572,0.0],[-73.2281,41.1621,0.0],[-73.2248,41.1592,0.0],[-73.2228,41.1595,0.0],[-73.2209,41.1547,0.0],[-73.2189,41.1539,0.0],[-73.2162,41.1552,0.0],[-73.2142,41.156,0.0],[-73.2167,41.1539,0.0],[-73.2192,41.1509,0.0],[-73.2215,41.1438,0.0],[-73.2216,41.1419,0.0],[-73.2283,41.1426,0.0],[-73.2348,41.144,0.0],[-73.2329,41.1476,0.0],[-73.2337,41.1521,0.0],[-73.2361,41.1524,0.0],[-73.2372,41.1537,0.0],[-73.2372,41.1551,0.0]]]]}},{"type":"Feature","properties":{"uesi_id":"USA_R11049559","nbhd_code":"USA_R11049559_17","nbhd_name":"Census Tract 737"},"geometry":{"type":"MultiPolygon","coordinates":[[[[-73.1716,41.1934,0.0],[-73.1697,41.1934,0.0],[-73.1669,41.1935,0.0],[-73.1651,41.1935,0.0],[-73.1617,41.1936,0.0],[-73.1594,41.1932,0.0],[-73.1558,41.1926,0.0],[-73.1538,41.1925,0.0],[-73.1548,41.1916,0.0],[-73.1551,41.19,0.0],[-73.1589,41.1887,0.0],[-73.1621,41.1875,0.0],[-73.1656,41.1864,0.0],[-73.1673,41.1865,0.0],[-73.1709,41.1866,0.0],[-73.171,41.1874,0.0],[-73.1716,41.189,0.0],[-73.1718,41.1893,0.0],[-73.1716,41.1934,0.0]]]]}},{"type":"Feature","properties":{"uesi_id":"USA_R11049559","nbhd_code":"USA_R11049559_18","nbhd_name":"Census Tract 738"},"geometry":{"type":"MultiPolygon","coordinates":[[[[-73.1808,41.1859,0.0],[-73.1806,41.1892,0.0],[-73.1805,41.1916,0.0],[-73.1772,41.1914,0.0],[-73.1743,41.1913,0.0],[-73.174,41.1941,0.0],[-73.173,41.1937,0.0],[-73.1716,41.1934,0.0],[-73.1718,41.1893,0.0],[-73.1716,41.189,0.0],[-73.171,41.1874,0.0],[-73.1709,41.1866,0.0],[-73.1711,41.1857,0.0],[-73.1751,41.1859,0.0],[-73.1759,41.186,0.0],[-73.1782,41.1859,0.0],[-73.1808,41.1857,0.0],[-73.1808,41.1859,0.0]]]]}},{"type":"Feature","properties":{"uesi_id":"USA_R11049559","nbhd_code":"USA_R11049559_19","nbhd_name":"Census Tract 703"},"geometry":{"type":"MultiPolygon","coordinates":[[[[-73.2174,41.1666,0.0],[-73.2165,41.1675,0.0],[-73.2131,41.1678,0.0],[-73.2085,41.1682,0.0],[-73.2011,41.1688,0.0],[-73.197,41.1692,0.0],[-73.1994,41.1671,0.0],[-73.2063,41.1618,0.0],[-73.2075,41.1608,0.0],[-73.2113,41.1578,0.0],[-73.2142,41.156,0.0],[-73.2162,41.1552,0.0],[-73.2167,41.1591,0.0],[-73.2167,41.1606,0.0],[-73.2171,41.1636,0.0],[-73.2186,41.1655,0.0],[-73.2174,41.1666,0.0]]]]}},{"type":"Feature","properties":{"uesi_id":"USA_R11049559","nbhd_code":"USA_R11049559_20","nbhd_name":"Census Tract 710"},"geometry":{"type":"MultiPolygon","coordinates":[[[[-73.2257,41.1731,0.0],[-73.2255,41.1739,0.0],[-73.2239,41.174,0.0],[-73.2231,41.1764,0.0],[-73.2211,41.1766,0.0],[-73.2182,41.1775,0.0],[-73.216,41.1759,0.0],[-73.2145,41.1748,0.0],[-73.2125,41.1735,0.0],[-73.2109,41.1724,0.0],[-73.2088,41.1705,0.0],[-73.2085,41.1682,0.0],[-73.2131,41.1678,0.0],[-73.2165,41.1675,0.0],[-73.223,41.1666,0.0],[-73.2238,41.1664,0.0],[-73.2244,41.1663,0.0],[-73.2223,41.1689,0.0],[-73.2237,41.1702,0.0],[-73.2276,41.1694,0.0],[-73.2257,41.1731,0.0]]]]}},{"type":"Feature","properties":{"uesi_id":"USA_R11049559","nbhd_code":"USA_R11049559_21","nbhd_name":"Census Tract 716"},"geometry":{"type":"MultiPolygon","coordinates":[[[[-73.1975,41.1835,0.0],[-73.1963,41.1863,0.0],[-73.1934,41.186,0.0],[-73.1936,41.1852,0.0],[-73.1943,41.1831,0.0],[-73.195,41.1803,0.0],[-73.1985,41.1811,0.0],[-73.1975,41.1835,0.0]]]]}},{"type":"Feature","properties":{"uesi_id":"USA_R11049559","nbhd_code":"USA_R11049559_22","nbhd_name":"Census Tract 725"},"geometry":{"type":"MultiPolygon","coordinates":[[[[-73.2263,41.2085,0.0],[-73.2241,41.2124,0.0],[-73.2227,41.2127,0.0],[-73.2212,41.2136,0.0],[-73.219,41.2155,0.0],[-73.2132,41.2161,0.0],[-73.2112,41.2131,0.0],[-73.2094,41.2108,0.0],[-73.2077,41.2084,0.0],[-73.2105,41.2073,0.0],[-73.2149,41.2056,0.0],[-73.2189,41.2041,0.0],[-73.2231,41.2024,0.0],[-73.2256,41.2053,0.0],[-73.2275,41.2075,0.0],[-73.2263,41.2085,0.0]]]]}},{"type":"Feature","properties":{"uesi_id":"USA_R11049559","nbhd_code":"USA_R11049559_23","nbhd_name":"Census Tract 728"},"geometry":{"type":"MultiPolygon","coordinates":[[[[-73.2028,41.2201,0.0],[-73.2011,41.2215,0.0],[-73.2011,41.2283,0.0],[-73.1964,41.2277,0.0],[-73.1952,41.2273,0.0],[-73.1951,41.2262,0.0],[-73.1935,41.2219,0.0],[-73.1927,41.2198,0.0],[-73.1924,41.218,0.0],[-73.192,41.2147,0.0],[-73.1919,41.2146,0.0],[-73.1919,41.2144,0.0],[-73.1918,41.2132,0.0],[-73.1916,41.2118,0.0],[-73.1918,41.2093,0.0],[-73.1929,41.2074,0.0],[-73.1958,41.2078,0.0],[-73.1962,41.2078,0.0],[-73.1967,41.2088,0.0],[-73.1988,41.2106,0.0],[-73.199,41.2109,0.0],[-73.1999,41.2126,0.0],[-73.201,41.2137,0.0],[-73.2019,41.2149,0.0],[-73.2025,41.2161,0.0],[-73.2026,41.2184,0.0],[-73.2028,41.2201,0.0]]]]}},{"type":"Feature","properties":{"uesi_id":"USA_R11049559","nbhd_code":"USA_R11049559_24","nbhd_name":"Census Tract 733"},"geometry":{"type":"MultiPolygon","coordinates":[[[[-73.1676,41.1992,0.0],[-73.1651,41.1988,0.0],[-73.1652,41.1976,0.0],[-73.1632,41.1971,0.0],[-73.1578,41.1958,0.0],[-73.1549,41.1957,0.0],[-73.1547,41.1934,0.0],[-73.1538,41.1925,0.0],[-73.1558,41.1926,0.0],[-73.1594,41.1932,0.0],[-73.1617,41.1936,0.0],[-73.1651,41.1935,0.0],[-73.1669,41.1935,0.0],[-73.1697,41.1934,0.0],[-73.1676,41.1992,0.0]]]]}},{"type":"Feature","properties":{"uesi_id":"USA_R11049559","nbhd_code":"USA_R11049559_25","nbhd_name":"Census Tract 740"},"geometry":{"type":"MultiPolygon","coordinates":[[[[-73.1863,41.1829,0.0],[-73.1852,41.1841,0.0],[-73.1846,41.1847,0.0],[-73.1827,41.1854,0.0],[-73.1808,41.1857,0.0],[-73.1782,41.1859,0.0],[-73.1759,41.186,0.0],[-73.1751,41.1859,0.0],[-73.1711,41.1857,0.0],[-73.1713,41.1853,0.0],[-73.1766,41.1767,0.0],[-73.1805,41.1713,0.0],[-73.1843,41.1744,0.0],[-73.1857,41.1774,0.0],[-73.1858,41.1824,0.0],[-73.1863,41.1829,0.0]]]]}},{"type":"Feature","properties":{"uesi_id":"USA_R11049559","nbhd_code":"USA_R11049559_26","nbhd_name":"Census Tract 704"},"geometry":{"type":"MultiPolygon","coordinates":[[[[-73.2215,41.1438,0.0],[-73.2192,41.1509,0.0],[-73.2167,41.1539,0.0],[-73.2142,41.156,0.0],[-73.2113,41.1578,0.0],[-73.2075,41.1608,0.0],[-73.2063,41.1618,0.0],[-73.1994,41.1671,0.0],[-73.1976,41.1652,0.0],[-73.1958,41.1661,0.0],[-73.1951,41.1652,0.0],[-73.1924,41.1668,0.0],[-73.1905,41.1642,0.0],[-73.1879,41.1646,0.0],[-73.1875,41.1661,0.0],[-73.1856,41.1664,0.0],[-73.1829,41.1679,0.0],[-73.1824,41.1676,0.0],[-73.1818,41.1653,0.0],[-73.1844,41.1644,0.0],[-73.1846,41.1637,0.0],[-73.1862,41.1593,0.0],[-73.2027,41.1581,0.0],[-73.214,41.1496,0.0],[-73.2168,41.1415,0.0],[-73.2216,41.1419,0.0],[-73.2215,41.1438,0.0]]]]}},{"type":"Feature","properties":{"uesi_id":"USA_R11049559","nbhd_code":"USA_R11049559_27","nbhd_name":"Census Tract 706"},"geometry":{"type":"MultiPolygon","coordinates":[[[[-73.199,41.1754,0.0],[-73.1958,41.1788,0.0],[-73.195,41.1803,0.0],[-73.1943,41.1831,0.0],[-73.1936,41.1852,0.0],[-73.1934,41.186,0.0],[-73.1921,41.1856,0.0],[-73.1903,41.1861,0.0],[-73.1892,41.1861,0.0],[-73.1884,41.1861,0.0],[-73.1889,41.1848,0.0],[-73.1863,41.1829,0.0],[-73.1858,41.1824,0.0],[-73.1857,41.1774,0.0],[-73.1843,41.1744,0.0],[-73.1805,41.1713,0.0],[-73.1774,41.1691,0.0],[-73.1759,41.1662,0.0],[-73.1778,41.1667,0.0],[-73.1816,41.1654,0.0],[-73.1818,41.1653,0.0],[-73.1824,41.1676,0.0],[-73.1829,41.1679,0.0],[-73.1856,41.1664,0.0],[-73.1875,41.1661,0.0],[-73.1895,41.1699,0.0],[-73.191,41.1697,0.0],[-73.1944,41.1694,0.0],[-73.1949,41.1701,0.0],[-73.1979,41.1739,0.0],[-73.1983,41.1746,0.0],[-73.199,41.1754,0.0]]]]}},{"type":"Feature","properties":{"uesi_id":"USA_R11049559","nbhd_code":"USA_R11049559_28","nbhd_name":"Census Tract 711"},"geometry":{"type":"MultiPolygon","coordinates":[[[[-73.2171,41.178,0.0],[-73.2148,41.179,0.0],[-73.2109,41.181,0.0],[-73.2083,41.1787,0.0],[-73.2065,41.1772,0.0],[-73.2057,41.1772,0.0],[-73.2056,41.1753,0.0],[-73.2053,41.1716,0.0],[-73.2088,41.1705,0.0],[-73.2109,41.1724,0.0],[-73.2125,41.1735,0.0],[-73.2145,41.1748,0.0],[-73.216,41.1759,0.0],[-73.2182,41.1775,0.0],[-73.2171,41.178,0.0]]]]}},{"type":"Feature","properties":{"uesi_id":"USA_R11049559","nbhd_code":"USA_R11049559_29","nbhd_name":"Census Tract 714"},"geometry":{"type":"MultiPolygon","coordinates":[[[[-73.2067,41.1831,0.0],[-73.2017,41.1877,0.0],[-73.2,41.1891,0.0],[-73.1993,41.1896,0.0],[-73.197,41.1917,0.0],[-73.1939,41.187,0.0],[-73.1934,41.186,0.0],[-73.1963,41.1863,0.0],[-73.1975,41.1835,0.0],[-73.1985,41.1811,0.0],[-73.2016,41.1818,0.0],[-73.2027,41.182,0.0],[-73.2062,41.1826,0.0],[-73.2067,41.1831,0.0]]]]}},{"type":"Feature","properties":{"uesi_id":"USA_R11049559","nbhd_code":"USA_R11049559_30","nbhd_name":"Census Tract 721"},"geometry":{"type":"MultiPolygon","coordinates":[[[[-73.2231,41.1764,0.0],[-73.2193,41.1794,0.0],[-73.2196,41.1815,0.0],[-73.218,41.1833,0.0],[-73.2187,41.1846,0.0],[-73.2204,41.1879,0.0],[-73.2198,41.1916,0.0],[-73.2194,41.1953,0.0],[-73.2191,41.1978,0.0],[-73.2184,41.1968,0.0],[-73.2179,41.1962,0.0],[-73.2151,41.193,0.0],[-73.214,41.1917,0.0],[-73.2135,41.1912,0.0],[-73.211,41.1883,0.0],[-73.2067,41.1831,0.0],[-73.2087,41.182,0.0],[-73.2109,41.181,0.0],[-73.2148,41.179,0.0],[-73.2171,41.178,0.0],[-73.2182,41.1775,0.0],[-73.2211,41.1766,0.0],[-73.2231,41.1764,0.0]]]]}},{"type":"Feature","properties":{"uesi_id":"USA_R11049559","nbhd_code":"USA_R11049559_31","nbhd_name":"Census Tract 722"},"geometry":{"type":"MultiPolygon","coordinates":[[[[-73.2231,41.2024,0.0],[-73.2189,41.2041,0.0],[-73.214,41.2013,0.0],[-73.2127,41.2,0.0],[-73.2112,41.1991,0.0],[-73.2078,41.1973,0.0],[-73.2075,41.1966,0.0],[-73.2068,41.1953,0.0],[-73.2064,41.1947,0.0],[-73.2135,41.1912,0.0],[-73.214,41.1917,0.0],[-73.2151,41.193,0.0],[-73.2179,41.1962,0.0],[-73.2184,41.1968,0.0],[-73.2191,41.1978,0.0],[-73.2194,41.1982,0.0],[-73.2229,41.2021,0.0],[-73.2231,41.2024,0.0]]]]}},{"type":"Feature","properties":{"uesi_id":"USA_R11049559","nbhd_code":"USA_R11049559_32","nbhd_name":"Census Tract 727"},"geometry":{"type":"MultiPolygon","coordinates":[[[[-73.2191,41.2278,0.0],[-73.2124,41.2285,0.0],[-73.2069,41.2278,0.0],[-73.2046,41.229,0.0],[-73.2015,41.2296,0.0],[-73.2011,41.2283,0.0],[-73.2011,41.2215,0.0],[-73.2028,41.2201,0.0],[-73.2026,41.2184,0.0],[-73.2025,41.2161,0.0],[-73.2019,41.2149,0.0],[-73.201,41.2137,0.0],[-73.2039,41.2129,0.0],[-73.2047,41.2127,0.0],[-73.2088,41.2121,0.0],[-73.2112,41.2131,0.0],[-73.2132,41.2161,0.0],[-73.2133,41.2161,0.0],[-73.214,41.2172,0.0],[-73.216,41.2194,0.0],[-73.2178,41.2214,0.0],[-73.2191,41.2278,0.0]]]]}},{"type":"Feature","properties":{"uesi_id":"USA_R11049559","nbhd_code":"USA_R11049559_33","nbhd_name":"Census Tract 729"},"geometry":{"type":"MultiPolygon","coordinates":[[[[-73.2022,41.2055,0.0],[-73.1962,41.2078,0.0],[-73.1958,41.2078,0.0],[-73.1929,41.2074,0.0],[-73.1918,41.2093,0.0],[-73.1916,41.2118,0.0],[-73.1918,41.2132,0.0],[-73.1919,41.2144,0.0],[-73.1919,41.2146,0.0],[-73.192,41.2147,0.0],[-73.1924,41.218,0.0],[-73.1927,41.2198,0.0],[-73.1935,41.2219,0.0],[-73.1951,41.2262,0.0],[-73.1952,41.2273,0.0],[-73.1909,41.225,0.0],[-73.1904,41.2261,0.0],[-73.1883,41.2275,0.0],[-73.1813,41.2269,0.0],[-73.1845,41.2259,0.0],[-73.1832,41.2237,0.0],[-73.1907,41.2242,0.0],[-73.1893,41.222,0.0],[-73.1873,41.2205,0.0],[-73.1833,41.2207,0.0],[-73.1788,41.222,0.0],[-73.1789,41.2218,0.0],[-73.1794,41.2182,0.0],[-73.1836,41.2128,0.0],[-73.1875,41.2086,0.0],[-73.1867,41.2064,0.0],[-73.1894,41.2027,0.0],[-73.192,41.201,0.0],[-73.1926,41.2008,0.0],[-73.1938,41.2008,0.0],[-73.195,41.2003,0.0],[-73.1964,41.2003,0.0],[-73.1974,41.1991,0.0],[-73.1979,41.1994,0.0],[-73.1993,41.2013,0.0],[-73.2022,41.2055,0.0]]]]}},{"type":"Feature","properties":{"uesi_id":"USA_R11049559","nbhd_code":"USA_R11049559_34","nbhd_name":"Census Tract 731"},"geometry":{"type":"MultiPolygon","coordinates":[[[[-73.1789,41.2101,0.0],[-73.1739,41.2149,0.0],[-73.1673,41.224,0.0],[-73.1647,41.2256,0.0],[-73.1576,41.2284,0.0],[-73.1591,41.2259,0.0],[-73.1611,41.2246,0.0],[-73.1628,41.2202,0.0],[-73.1619,41.2176,0.0],[-73.158,41.2054,0.0],[-73.1568,41.2013,0.0],[-73.1579,41.2035,0.0],[-73.16,41.2049,0.0],[-73.1613,41.1994,0.0],[-73.1625,41.1989,0.0],[-73.1632,41.1971,0.0],[-73.1652,41.1976,0.0],[-73.1651,41.1988,0.0],[-73.1676,41.1992,0.0],[-73.1718,41.2001,0.0],[-73.1733,41.2008,0.0],[-73.1755,41.2021,0.0],[-73.1769,41.2061,0.0],[-73.1789,41.2061,0.0],[-73.1789,41.2101,0.0]]]]}},{"type":"Feature","properties":{"uesi_id":"USA_R11049559","nbhd_code":"USA_R11049559_35","nbhd_name":"Census Tract 734"},"geometry":{"type":"MultiPolygon","coordinates":[[[[-73.1894,41.2027,0.0],[-73.1854,41.207,0.0],[-73.1838,41.2062,0.0],[-73.1789,41.2061,0.0],[-73.1769,41.2061,0.0],[-73.1755,41.2021,0.0],[-73.1733,41.2008,0.0],[-73.1718,41.2001,0.0],[-73.1676,41.1992,0.0],[-73.1697,41.1934,0.0],[-73.1716,41.1934,0.0],[-73.173,41.1937,0.0],[-73.174,41.1941,0.0],[-73.1803,41.198,0.0],[-73.1813,41.1986,0.0],[-73.184,41.2007,0.0],[-73.1837,41.1982,0.0],[-73.1865,41.1981,0.0],[-73.186,41.2001,0.0],[-73.1892,41.2028,0.0],[-73.1894,41.2027,0.0]]]]}},{"type":"Feature","properties":{"uesi_id":"USA_R11049559","nbhd_code":"USA_R11049559_36","nbhd_name":"Census Tract 743"},"geometry":{"type":"MultiPolygon","coordinates":[[[[-73.1766,41.1767,0.0],[-73.1713,41.1853,0.0],[-73.1711,41.1857,0.0],[-73.1709,41.1866,0.0],[-73.1673,41.1865,0.0],[-73.1656,41.1864,0.0],[-73.1621,41.1875,0.0],[-73.1589,41.1887,0.0],[-73.1551,41.19,0.0],[-73.1549,41.1894,0.0],[-73.1547,41.1848,0.0],[-73.1545,41.1837,0.0],[-73.1546,41.1836,0.0],[-73.1592,41.1806,0.0],[-73.1598,41.1804,0.0],[-73.1615,41.1798,0.0],[-73.1646,41.1787,0.0],[-73.1717,41.1765,0.0],[-73.1735,41.1761,0.0],[-73.1753,41.1766,0.0],[-73.1766,41.1767,0.0]]]]}},{"type":"Feature","properties":{"uesi_id":"USA_R11049559","nbhd_code":"USA_R11049559_37","nbhd_name":"Census Tract 744"},"geometry":{"type":"MultiPolygon","coordinates":[[[[-73.1805,41.1713,0.0],[-73.1766,41.1767,0.0],[-73.1753,41.1766,0.0],[-73.1735,41.1761,0.0],[-73.1717,41.1765,0.0],[-73.1646,41.1787,0.0],[-73.1615,41.1798,0.0],[-73.1598,41.1804,0.0],[-73.1592,41.1806,0.0],[-73.1546,41.1836,0.0],[-73.1542,41.183,0.0],[-73.1553,41.1794,0.0],[-73.1556,41.1777,0.0],[-73.1588,41.1743,0.0],[-73.1588,41.1737,0.0],[-73.1617,41.1658,0.0],[-73.1644,41.1586,0.0],[-73.1648,41.1569,0.0],[-73.1722,41.1591,0.0],[-73.1707,41.1649,0.0],[-73.1759,41.1662,0.0],[-73.1774,41.1691,0.0],[-73.1805,41.1713,0.0]]]]}},{"type":"Feature","properties":{"uesi_id":"USA_R11049559","nbhd_code":"USA_R11049559_38","nbhd_name":"Census Tract 735"},"geometry":{"type":"MultiPolygon","coordinates":[[[[-73.1893,41.192,0.0],[-73.1869,41.1943,0.0],[-73.1861,41.1961,0.0],[-73.1865,41.1981,0.0],[-73.1837,41.1982,0.0],[-73.184,41.2007,0.0],[-73.1813,41.1986,0.0],[-73.1803,41.198,0.0],[-73.1804,41.1945,0.0],[-73.1805,41.1916,0.0],[-73.184,41.1917,0.0],[-73.1878,41.192,0.0],[-73.1881,41.1897,0.0],[-73.1895,41.1897,0.0],[-73.1893,41.192,0.0]]]]}}]}