{"type":"FeatureCollection","name":"USA_R142497","crs":{"type":"name","properties":{"name":"urn:ogc:def:crs:OGC:1.3:CRS84"}},"features":[{"type":"Feature","properties":{"uesi_id":"USA_R142497","nbhd_code":"USA_R142497_1","nbhd_name":"Census Tract 4.02"},"geometry":{"type":"MultiPolygon","coordinates":[[[[-108.5279,45.7701,0.0],[-108.5155,45.776,0.0],[-108.5154,45.7762,0.0],[-108.5153,45.7779,0.0],[-108.5152,45.7781,0.0],[-108.5153,45.7838,0.0],[-108.5157,45.7841,0.0],[-108.5279,45.784,0.0],[-108.5278,45.7845,0.0],[-108.5278,45.787,0.0],[-108.5279,45.7899,0.0],[-108.5279,45.7909,0.0],[-108.5279,45.7914,0.0],[-108.5279,45.7949,0.0],[-108.5177,45.795,0.0],[-108.5169,45.7953,0.0],[-108.5158,45.7942,0.0],[-108.5143,45.7927,0.0],[-108.5087,45.787,0.0],[-108.5051,45.7888,0.0],[-108.503,45.7885,0.0],[-108.4988,45.7842,0.0],[-108.4984,45.7838,0.0],[-108.5058,45.7802,0.0],[-108.512,45.7773,0.0],[-108.528,45.7696,0.0],[-108.5279,45.7701,0.0]]]]}},{"type":"Feature","properties":{"uesi_id":"USA_R142497","nbhd_code":"USA_R142497_2","nbhd_name":"Census Tract 2"},"geometry":{"type":"MultiPolygon","coordinates":[[[[-108.532,45.8016,0.0],[-108.5289,45.8013,0.0],[-108.525,45.8009,0.0],[-108.5207,45.8003,0.0],[-108.5146,45.7992,0.0],[-108.5006,45.798,0.0],[-108.4982,45.7975,0.0],[-108.4957,45.7975,0.0],[-108.4916,45.7973,0.0],[-108.488,45.7974,0.0],[-108.4864,45.7977,0.0],[-108.4856,45.7979,0.0],[-108.485,45.7981,0.0],[-108.4842,45.7984,0.0],[-108.4834,45.7984,0.0],[-108.4811,45.7994,0.0],[-108.481,45.7997,0.0],[-108.4793,45.8017,0.0],[-108.4722,45.8024,0.0],[-108.4675,45.8014,0.0],[-108.4693,45.7978,0.0],[-108.4698,45.7965,0.0],[-108.47,45.7959,0.0],[-108.4703,45.7959,0.0],[-108.4731,45.7959,0.0],[-108.4793,45.7931,0.0],[-108.4795,45.793,0.0],[-108.4796,45.7929,0.0],[-108.4861,45.7898,0.0],[-108.4864,45.7896,0.0],[-108.4984,45.7838,0.0],[-108.4988,45.7842,0.0],[-108.503,45.7885,0.0],[-108.5051,45.7888,0.0],[-108.5087,45.787,0.0],[-108.5143,45.7927,0.0],[-108.5158,45.7942,0.0],[-108.5169,45.7953,0.0],[-108.5189,45.7974,0.0],[-108.5207,45.7988,0.0],[-108.523,45.7996,0.0],[-108.534,45.8017,0.0],[-108.532,45.8016,0.0]]]]}},{"type":"Feature","properties":{"uesi_id":"USA_R142497","nbhd_code":"USA_R142497_3","nbhd_name":"Census Tract 5"},"geometry":{"type":"MultiPolygon","coordinates":[[[[-108.5538,45.79,0.0],[-108.5538,45.7919,0.0],[-108.5538,45.7922,0.0],[-108.5504,45.7931,0.0],[-108.5486,45.7933,0.0],[-108.5487,45.7949,0.0],[-108.546,45.7949,0.0],[-108.5435,45.7949,0.0],[-108.5345,45.7949,0.0],[-108.5344,45.7949,0.0],[-108.533,45.7949,0.0],[-108.5279,45.7949,0.0],[-108.5279,45.7914,0.0],[-108.5279,45.7909,0.0],[-108.5279,45.7899,0.0],[-108.5278,45.787,0.0],[-108.5278,45.7845,0.0],[-108.5279,45.784,0.0],[-108.5385,45.784,0.0],[-108.541,45.7841,0.0],[-108.5538,45.784,0.0],[-108.5538,45.79,0.0]]]]}},{"type":"Feature","properties":{"uesi_id":"USA_R142497","nbhd_code":"USA_R142497_4","nbhd_name":"Census Tract 7.06"},"geometry":{"type":"MultiPolygon","coordinates":[[[[-108.4898,45.822,0.0],[-108.4908,45.8231,0.0],[-108.4887,45.8253,0.0],[-108.4899,45.8257,0.0],[-108.4899,45.8274,0.0],[-108.4869,45.8273,0.0],[-108.4838,45.8273,0.0],[-108.4764,45.8273,0.0],[-108.4708,45.8274,0.0],[-108.4659,45.8274,0.0],[-108.4658,45.8168,0.0],[-108.4658,45.8128,0.0],[-108.4658,45.8111,0.0],[-108.4658,45.8069,0.0],[-108.4633,45.8071,0.0],[-108.4616,45.8092,0.0],[-108.4598,45.8078,0.0],[-108.4645,45.8049,0.0],[-108.4672,45.8018,0.0],[-108.4674,45.8014,0.0],[-108.4675,45.8014,0.0],[-108.4722,45.8024,0.0],[-108.4793,45.8017,0.0],[-108.4787,45.8023,0.0],[-108.4762,45.805,0.0],[-108.4757,45.8055,0.0],[-108.476,45.806,0.0],[-108.4762,45.8128,0.0],[-108.4778,45.8128,0.0],[-108.4872,45.8129,0.0],[-108.4872,45.8168,0.0],[-108.488,45.8179,0.0],[-108.491,45.8197,0.0],[-108.4898,45.822,0.0]]]]}},{"type":"Feature","properties":{"uesi_id":"USA_R142497","nbhd_code":"USA_R142497_5","nbhd_name":"Census Tract 9.01"},"geometry":{"type":"MultiPolygon","coordinates":[[[[-108.5876,45.7407,0.0],[-108.5726,45.748,0.0],[-108.5624,45.753,0.0],[-108.5576,45.7553,0.0],[-108.5575,45.7553,0.0],[-108.5461,45.7607,0.0],[-108.5423,45.7626,0.0],[-108.528,45.7696,0.0],[-108.5254,45.7698,0.0],[-108.5254,45.7635,0.0],[-108.5254,45.7613,0.0],[-108.5254,45.7594,0.0],[-108.5253,45.7585,0.0],[-108.5253,45.7554,0.0],[-108.5252,45.7523,0.0],[-108.5092,45.7525,0.0],[-108.5032,45.7535,0.0],[-108.498,45.7554,0.0],[-108.4943,45.7576,0.0],[-108.4943,45.7553,0.0],[-108.4941,45.7553,0.0],[-108.4918,45.7553,0.0],[-108.4894,45.7565,0.0],[-108.4891,45.7568,0.0],[-108.4891,45.7588,0.0],[-108.4887,45.759,0.0],[-108.4861,45.759,0.0],[-108.4855,45.7591,0.0],[-108.484,45.7605,0.0],[-108.4839,45.7675,0.0],[-108.484,45.7679,0.0],[-108.4843,45.7697,0.0],[-108.4843,45.7698,0.0],[-108.4797,45.7698,0.0],[-108.4769,45.7698,0.0],[-108.4761,45.7698,0.0],[-108.4757,45.7705,0.0],[-108.4753,45.7719,0.0],[-108.476,45.7741,0.0],[-108.4714,45.7703,0.0],[-108.4743,45.7667,0.0],[-108.4748,45.7647,0.0],[-108.4779,45.7624,0.0],[-108.4827,45.7557,0.0],[-108.484,45.7543,0.0],[-108.4893,45.7513,0.0],[-108.4925,45.7504,0.0],[-108.4932,45.7492,0.0],[-108.4969,45.7486,0.0],[-108.5077,45.7459,0.0],[-108.5091,45.7453,0.0],[-108.5154,45.7427,0.0],[-108.5202,45.74,0.0],[-108.5215,45.7388,0.0],[-108.5224,45.7384,0.0],[-108.5239,45.7379,0.0],[-108.5241,45.7384,0.0],[-108.5246,45.7385,0.0],[-108.5253,45.7385,0.0],[-108.5289,45.7374,0.0],[-108.5294,45.7373,0.0],[-108.5312,45.7372,0.0],[-108.5338,45.7371,0.0],[-108.5348,45.7371,0.0],[-108.54,45.735,0.0],[-108.5444,45.7335,0.0],[-108.5461,45.7333,0.0],[-108.5468,45.7332,0.0],[-108.5562,45.7347,0.0],[-108.5563,45.7378,0.0],[-108.5563,45.7407,0.0],[-108.5564,45.7408,0.0],[-108.5688,45.7408,0.0],[-108.5761,45.7407,0.0],[-108.5792,45.7407,0.0],[-108.5876,45.7407,0.0]]]]}},{"type":"Feature","properties":{"uesi_id":"USA_R142497","nbhd_code":"USA_R142497_6","nbhd_name":"Census Tract 10"},"geometry":{"type":"MultiPolygon","coordinates":[[[[-108.5536,45.7698,0.0],[-108.5538,45.772,0.0],[-108.5538,45.7738,0.0],[-108.5538,45.776,0.0],[-108.5538,45.777,0.0],[-108.5409,45.777,0.0],[-108.5384,45.777,0.0],[-108.5279,45.7771,0.0],[-108.5279,45.7762,0.0],[-108.5279,45.7721,0.0],[-108.5279,45.7701,0.0],[-108.528,45.7696,0.0],[-108.5423,45.7626,0.0],[-108.5448,45.762,0.0],[-108.547,45.7623,0.0],[-108.5474,45.7661,0.0],[-108.5544,45.7661,0.0],[-108.5536,45.7698,0.0]]]]}},{"type":"Feature","properties":{"uesi_id":"USA_R142497","nbhd_code":"USA_R142497_7","nbhd_name":"Census Tract 13"},"geometry":{"type":"MultiPolygon","coordinates":[[[[-108.6019,45.7999,0.0],[-108.6015,45.8024,0.0],[-108.5986,45.8021,0.0],[-108.5957,45.8026,0.0],[-108.5955,45.8031,0.0],[-108.5963,45.8047,0.0],[-108.5967,45.805,0.0],[-108.5974,45.805,0.0],[-108.5987,45.8047,0.0],[-108.5992,45.8048,0.0],[-108.5997,45.8051,0.0],[-108.5993,45.8056,0.0],[-108.5964,45.8052,0.0],[-108.5942,45.8041,0.0],[-108.5906,45.8043,0.0],[-108.5889,45.8037,0.0],[-108.5875,45.803,0.0],[-108.5863,45.803,0.0],[-108.5824,45.8035,0.0],[-108.5759,45.8018,0.0],[-108.5704,45.8022,0.0],[-108.5681,45.8038,0.0],[-108.5668,45.803,0.0],[-108.5637,45.8039,0.0],[-108.5589,45.8034,0.0],[-108.558,45.802,0.0],[-108.5592,45.7986,0.0],[-108.5591,45.795,0.0],[-108.5696,45.795,0.0],[-108.5694,45.7891,0.0],[-108.5736,45.7867,0.0],[-108.5764,45.7869,0.0],[-108.5764,45.784,0.0],[-108.5798,45.784,0.0],[-108.585,45.784,0.0],[-108.5877,45.784,0.0],[-108.5902,45.784,0.0],[-108.5904,45.7914,0.0],[-108.5904,45.795,0.0],[-108.5905,45.7987,0.0],[-108.5929,45.7987,0.0],[-108.5932,45.7987,0.0],[-108.6019,45.7986,0.0],[-108.6019,45.7999,0.0]]]]}},{"type":"Feature","properties":{"uesi_id":"USA_R142497","nbhd_code":"USA_R142497_8","nbhd_name":"Census Tract 17.02"},"geometry":{"type":"MultiPolygon","coordinates":[[[[-108.5762,45.7769,0.0],[-108.5642,45.7769,0.0],[-108.5538,45.777,0.0],[-108.5538,45.776,0.0],[-108.5538,45.7738,0.0],[-108.5538,45.772,0.0],[-108.5536,45.7698,0.0],[-108.5544,45.7661,0.0],[-108.5474,45.7661,0.0],[-108.547,45.7623,0.0],[-108.5448,45.762,0.0],[-108.5423,45.7626,0.0],[-108.5461,45.7607,0.0],[-108.5575,45.7553,0.0],[-108.5576,45.7553,0.0],[-108.5624,45.753,0.0],[-108.5653,45.7546,0.0],[-108.5698,45.755,0.0],[-108.5761,45.7551,0.0],[-108.5761,45.7552,0.0],[-108.5761,45.7625,0.0],[-108.5762,45.7697,0.0],[-108.5762,45.7753,0.0],[-108.5762,45.7769,0.0]]]]}},{"type":"Feature","properties":{"uesi_id":"USA_R142497","nbhd_code":"USA_R142497_9","nbhd_name":"Census Tract 17.04"},"geometry":{"type":"MultiPolygon","coordinates":[[[[-108.6196,45.7298,0.0],[-108.6181,45.7315,0.0],[-108.6174,45.7331,0.0],[-108.6174,45.7333,0.0],[-108.6174,45.7398,0.0],[-108.6174,45.7406,0.0],[-108.6175,45.7478,0.0],[-108.6174,45.7551,0.0],[-108.6171,45.7551,0.0],[-108.6153,45.755,0.0],[-108.6123,45.7551,0.0],[-108.6072,45.7551,0.0],[-108.5968,45.7551,0.0],[-108.5968,45.7552,0.0],[-108.5969,45.7623,0.0],[-108.5969,45.7697,0.0],[-108.5866,45.7697,0.0],[-108.5762,45.7697,0.0],[-108.5761,45.7625,0.0],[-108.5761,45.7552,0.0],[-108.5761,45.7551,0.0],[-108.5698,45.755,0.0],[-108.5653,45.7546,0.0],[-108.5624,45.753,0.0],[-108.5726,45.748,0.0],[-108.5876,45.7407,0.0],[-108.5936,45.7378,0.0],[-108.5971,45.7361,0.0],[-108.6139,45.728,0.0],[-108.6173,45.7264,0.0],[-108.6174,45.7263,0.0],[-108.6179,45.7261,0.0],[-108.6203,45.7289,0.0],[-108.6196,45.7298,0.0]]]]}},{"type":"Feature","properties":{"uesi_id":"USA_R142497","nbhd_code":"USA_R142497_10","nbhd_name":"Census Tract 18.01"},"geometry":{"type":"MultiPolygon","coordinates":[[[[-108.6879,45.8184,0.0],[-108.6868,45.8203,0.0],[-108.6835,45.8221,0.0],[-108.6802,45.8224,0.0],[-108.6758,45.8214,0.0],[-108.6707,45.8218,0.0],[-108.6681,45.8239,0.0],[-108.6672,45.8266,0.0],[-108.6544,45.8256,0.0],[-108.6509,45.8248,0.0],[-108.6507,45.8228,0.0],[-108.6471,45.8206,0.0],[-108.6516,45.8177,0.0],[-108.6491,45.8162,0.0],[-108.6495,45.8154,0.0],[-108.6527,45.8146,0.0],[-108.6535,45.8146,0.0],[-108.6545,45.8146,0.0],[-108.6534,45.8139,0.0],[-108.6527,45.8133,0.0],[-108.651,45.81,0.0],[-108.646,45.8077,0.0],[-108.6454,45.8065,0.0],[-108.6383,45.8032,0.0],[-108.6363,45.8035,0.0],[-108.6307,45.8035,0.0],[-108.6286,45.8039,0.0],[-108.6233,45.8041,0.0],[-108.6221,45.8034,0.0],[-108.6177,45.8033,0.0],[-108.6147,45.8036,0.0],[-108.6134,45.8031,0.0],[-108.6073,45.8049,0.0],[-108.6039,45.8027,0.0],[-108.601,45.8032,0.0],[-108.5969,45.8029,0.0],[-108.5966,45.8036,0.0],[-108.597,45.8041,0.0],[-108.5977,45.8045,0.0],[-108.5988,45.8044,0.0],[-108.5993,45.8046,0.0],[-108.5995,45.8049,0.0],[-108.5997,45.8051,0.0],[-108.5992,45.8048,0.0],[-108.5987,45.8047,0.0],[-108.5974,45.805,0.0],[-108.5967,45.805,0.0],[-108.5963,45.8047,0.0],[-108.5955,45.8031,0.0],[-108.5957,45.8026,0.0],[-108.5986,45.8021,0.0],[-108.6015,45.8024,0.0],[-108.6019,45.7999,0.0],[-108.6028,45.801,0.0],[-108.6047,45.8016,0.0],[-108.6046,45.7986,0.0],[-108.6087,45.7986,0.0],[-108.6085,45.802,0.0],[-108.6094,45.8033,0.0],[-108.6103,45.802,0.0],[-108.6103,45.7986,0.0],[-108.6114,45.7986,0.0],[-108.6115,45.8017,0.0],[-108.6133,45.8015,0.0],[-108.6147,45.8025,0.0],[-108.6186,45.8025,0.0],[-108.6176,45.8009,0.0],[-108.618,45.7986,0.0],[-108.6176,45.7971,0.0],[-108.6175,45.7955,0.0],[-108.6176,45.7918,0.0],[-108.6176,45.7841,0.0],[-108.6227,45.7841,0.0],[-108.6293,45.7841,0.0],[-108.6318,45.7841,0.0],[-108.6386,45.7841,0.0],[-108.6403,45.7841,0.0],[-108.6482,45.7841,0.0],[-108.6485,45.7841,0.0],[-108.6541,45.7841,0.0],[-108.6553,45.7841,0.0],[-108.6684,45.784,0.0],[-108.6735,45.784,0.0],[-108.6735,45.7968,0.0],[-108.6736,45.7985,0.0],[-108.6736,45.7986,0.0],[-108.6736,45.8026,0.0],[-108.6736,45.8081,0.0],[-108.6738,45.8091,0.0],[-108.6747,45.8105,0.0],[-108.6788,45.8132,0.0],[-108.6829,45.8158,0.0],[-108.6837,45.8162,0.0],[-108.6854,45.8166,0.0],[-108.6878,45.8165,0.0],[-108.6879,45.8184,0.0]]]]}},{"type":"Feature","properties":{"uesi_id":"USA_R142497","nbhd_code":"USA_R142497_11","nbhd_name":"Census Tract 3"},"geometry":{"type":"MultiPolygon","coordinates":[[[[-108.528,45.7696,0.0],[-108.512,45.7773,0.0],[-108.5058,45.7802,0.0],[-108.4984,45.7838,0.0],[-108.4864,45.7896,0.0],[-108.4861,45.7898,0.0],[-108.4796,45.7929,0.0],[-108.4795,45.793,0.0],[-108.4793,45.7931,0.0],[-108.4731,45.7959,0.0],[-108.4703,45.7959,0.0],[-108.47,45.7959,0.0],[-108.4708,45.7941,0.0],[-108.4713,45.7929,0.0],[-108.4715,45.7925,0.0],[-108.4775,45.7815,0.0],[-108.4771,45.777,0.0],[-108.476,45.7741,0.0],[-108.4753,45.7719,0.0],[-108.4757,45.7705,0.0],[-108.4761,45.7698,0.0],[-108.4769,45.7698,0.0],[-108.4797,45.7698,0.0],[-108.4843,45.7698,0.0],[-108.4877,45.7698,0.0],[-108.4917,45.7698,0.0],[-108.5011,45.7698,0.0],[-108.5047,45.7698,0.0],[-108.5099,45.7698,0.0],[-108.5138,45.7698,0.0],[-108.5254,45.7698,0.0],[-108.528,45.7696,0.0]]]]}},{"type":"Feature","properties":{"uesi_id":"USA_R142497","nbhd_code":"USA_R142497_12","nbhd_name":"Census Tract 9.02"},"geometry":{"type":"MultiPolygon","coordinates":[[[[-108.5254,45.7698,0.0],[-108.5138,45.7698,0.0],[-108.5099,45.7698,0.0],[-108.5047,45.7698,0.0],[-108.5011,45.7698,0.0],[-108.4917,45.7698,0.0],[-108.4877,45.7698,0.0],[-108.4843,45.7698,0.0],[-108.4843,45.7697,0.0],[-108.484,45.7679,0.0],[-108.4839,45.7675,0.0],[-108.484,45.7605,0.0],[-108.4855,45.7591,0.0],[-108.4861,45.759,0.0],[-108.4887,45.759,0.0],[-108.4891,45.7588,0.0],[-108.4891,45.7568,0.0],[-108.4894,45.7565,0.0],[-108.4918,45.7553,0.0],[-108.4941,45.7553,0.0],[-108.4943,45.7553,0.0],[-108.4943,45.7576,0.0],[-108.498,45.7554,0.0],[-108.5032,45.7535,0.0],[-108.5092,45.7525,0.0],[-108.5252,45.7523,0.0],[-108.5253,45.7554,0.0],[-108.5253,45.7585,0.0],[-108.5254,45.7594,0.0],[-108.5254,45.7613,0.0],[-108.5254,45.7635,0.0],[-108.5254,45.7698,0.0]]]]}},{"type":"Feature","properties":{"uesi_id":"USA_R142497","nbhd_code":"USA_R142497_13","nbhd_name":"Census Tract 18.04"},"geometry":{"type":"MultiPolygon","coordinates":[[[[-108.6176,45.7768,0.0],[-108.615,45.7768,0.0],[-108.5969,45.7768,0.0],[-108.5869,45.7769,0.0],[-108.5869,45.7753,0.0],[-108.5762,45.7753,0.0],[-108.5762,45.7697,0.0],[-108.5866,45.7697,0.0],[-108.5969,45.7697,0.0],[-108.6176,45.7696,0.0],[-108.6176,45.7705,0.0],[-108.6176,45.7732,0.0],[-108.6176,45.7768,0.0]]]]}},{"type":"Feature","properties":{"uesi_id":"USA_R142497","nbhd_code":"USA_R142497_14","nbhd_name":"Census Tract 18.02"},"geometry":{"type":"MultiPolygon","coordinates":[[[[-108.6186,45.8025,0.0],[-108.6147,45.8025,0.0],[-108.6133,45.8015,0.0],[-108.6115,45.8017,0.0],[-108.6114,45.7986,0.0],[-108.6103,45.7986,0.0],[-108.6103,45.802,0.0],[-108.6094,45.8033,0.0],[-108.6085,45.802,0.0],[-108.6087,45.7986,0.0],[-108.6046,45.7986,0.0],[-108.6047,45.8016,0.0],[-108.6028,45.801,0.0],[-108.6019,45.7999,0.0],[-108.6019,45.7986,0.0],[-108.5932,45.7987,0.0],[-108.5929,45.7987,0.0],[-108.5905,45.7987,0.0],[-108.5904,45.795,0.0],[-108.5904,45.7914,0.0],[-108.5902,45.784,0.0],[-108.5982,45.7841,0.0],[-108.6031,45.7841,0.0],[-108.6084,45.7841,0.0],[-108.6112,45.7841,0.0],[-108.6176,45.7841,0.0],[-108.6176,45.7918,0.0],[-108.6175,45.7955,0.0],[-108.6176,45.7971,0.0],[-108.618,45.7986,0.0],[-108.6176,45.8009,0.0],[-108.6186,45.8025,0.0]]]]}},{"type":"Feature","properties":{"uesi_id":"USA_R142497","nbhd_code":"USA_R142497_15","nbhd_name":"Census Tract 15.01"},"geometry":{"type":"MultiPolygon","coordinates":[[[[-108.4578,45.8484,0.0],[-108.4355,45.8641,0.0],[-108.434,45.8656,0.0],[-108.4333,45.8699,0.0],[-108.4349,45.8711,0.0],[-108.4394,45.8741,0.0],[-108.4392,45.8745,0.0],[-108.4358,45.8737,0.0],[-108.4344,45.8739,0.0],[-108.4325,45.8755,0.0],[-108.4308,45.8747,0.0],[-108.428,45.8784,0.0],[-108.4267,45.8827,0.0],[-108.4301,45.8832,0.0],[-108.4325,45.8861,0.0],[-108.431,45.8868,0.0],[-108.4276,45.8864,0.0],[-108.4254,45.8868,0.0],[-108.4249,45.8871,0.0],[-108.4245,45.8884,0.0],[-108.424,45.889,0.0],[-108.4238,45.8898,0.0],[-108.4244,45.8914,0.0],[-108.4254,45.8923,0.0],[-108.426,45.8928,0.0],[-108.4264,45.8932,0.0],[-108.4264,45.8934,0.0],[-108.4264,45.8953,0.0],[-108.4261,45.8959,0.0],[-108.4255,45.896,0.0],[-108.42,45.8974,0.0],[-108.4188,45.899,0.0],[-108.4188,45.8994,0.0],[-108.4197,45.9001,0.0],[-108.4226,45.9018,0.0],[-108.4249,45.9044,0.0],[-108.4267,45.9074,0.0],[-108.4262,45.9082,0.0],[-108.4273,45.9098,0.0],[-108.4244,45.9105,0.0],[-108.4249,45.9116,0.0],[-108.4286,45.9134,0.0],[-108.4288,45.9155,0.0],[-108.4314,45.9164,0.0],[-108.433,45.9164,0.0],[-108.4343,45.9177,0.0],[-108.4358,45.918,0.0],[-108.4372,45.9195,0.0],[-108.4371,45.9211,0.0],[-108.4344,45.9224,0.0],[-108.4335,45.9223,0.0],[-108.4271,45.9232,0.0],[-108.426,45.9252,0.0],[-108.427,45.9263,0.0],[-108.4251,45.9273,0.0],[-108.4208,45.9267,0.0],[-108.4182,45.9252,0.0],[-108.4145,45.9276,0.0],[-108.4152,45.93,0.0],[-108.4124,45.9283,0.0],[-108.4101,45.9288,0.0],[-108.4092,45.9282,0.0],[-108.4064,45.9277,0.0],[-108.4063,45.929,0.0],[-108.4033,45.929,0.0],[-108.402,45.9309,0.0],[-108.4033,45.9317,0.0],[-108.4091,45.9336,0.0],[-108.4101,45.9352,0.0],[-108.4133,45.9355,0.0],[-108.4155,45.9374,0.0],[-108.4179,45.9379,0.0],[-108.42,45.9396,0.0],[-108.422,45.9396,0.0],[-108.4216,45.9416,0.0],[-108.425,45.9436,0.0],[-108.4278,45.9467,0.0],[-108.4255,45.9497,0.0],[-108.4203,45.949,0.0],[-108.418,45.9497,0.0],[-108.4194,45.9517,0.0],[-108.4159,45.952,0.0],[-108.4178,45.9534,0.0],[-108.417,45.9543,0.0],[-108.4183,45.9565,0.0],[-108.4161,45.9559,0.0],[-108.4091,45.9556,0.0],[-108.4092,45.957,0.0],[-108.4126,45.9588,0.0],[-108.4106,45.96,0.0],[-108.4081,45.9594,0.0],[-108.4075,45.9601,0.0],[-108.4053,45.9585,0.0],[-108.4051,45.96,0.0],[-108.4027,45.9604,0.0],[-108.4014,45.9598,0.0],[-108.399,45.9603,0.0],[-108.3982,45.9616,0.0],[-108.4021,45.9633,0.0],[-108.4019,45.9644,0.0],[-108.4065,45.9672,0.0],[-108.4078,45.9676,0.0],[-108.4101,45.9696,0.0],[-108.4132,45.9704,0.0],[-108.4161,45.9728,0.0],[-108.417,45.9744,0.0],[-108.4222,45.9758,0.0],[-108.4237,45.9768,0.0],[-108.4255,45.9765,0.0],[-108.4297,45.9775,0.0],[-108.4283,45.9791,0.0],[-108.4259,45.9799,0.0],[-108.4201,45.9808,0.0],[-108.4252,45.983,0.0],[-108.4264,45.9849,0.0],[-108.4262,45.9861,0.0],[-108.425,45.9869,0.0],[-108.4217,45.991,0.0],[-108.4178,45.9915,0.0],[-108.4173,45.9905,0.0],[-108.4128,45.9907,0.0],[-108.4108,45.9916,0.0],[-108.4054,45.991,0.0],[-108.4031,45.9911,0.0],[-108.3993,45.9886,0.0],[-108.3951,45.9876,0.0],[-108.3927,45.9888,0.0],[-108.3906,45.9881,0.0],[-108.3898,45.9866,0.0],[-108.3882,45.9864,0.0],[-108.3831,45.9837,0.0],[-108.3781,45.9834,0.0],[-108.3766,45.9822,0.0],[-108.377,45.9809,0.0],[-108.3735,45.9799,0.0],[-108.3682,45.9776,0.0],[-108.3649,45.9772,0.0],[-108.3612,45.9773,0.0],[-108.3577,45.9789,0.0],[-108.3559,45.9802,0.0],[-108.3537,45.9833,0.0],[-108.3547,45.9856,0.0],[-108.3564,45.9859,0.0],[-108.3604,45.9884,0.0],[-108.3641,45.9895,0.0],[-108.3613,45.9913,0.0],[-108.3638,45.9927,0.0],[-108.3661,45.9953,0.0],[-108.3658,45.9971,0.0],[-108.364,45.9985,0.0],[-108.3681,46.0,0.0],[-108.367,46.0007,0.0],[-108.3672,46.0047,0.0],[-108.3691,46.0072,0.0],[-108.3707,46.0079,0.0],[-108.3682,46.0089,0.0],[-108.3701,46.011,0.0],[-108.3666,46.0125,0.0],[-108.3642,46.0099,0.0],[-108.3601,46.0081,0.0],[-108.3583,46.005,0.0],[-108.3537,46.0036,0.0],[-108.3489,46.0028,0.0],[-108.3465,45.999,0.0],[-108.3426,45.9956,0.0],[-108.34,45.9943,0.0],[-108.3399,45.9936,0.0],[-108.3364,45.9927,0.0],[-108.3355,45.9934,0.0],[-108.3328,45.9926,0.0],[-108.3335,45.9912,0.0],[-108.3315,45.99,0.0],[-108.3226,45.9882,0.0],[-108.3202,45.9867,0.0],[-108.316,45.9854,0.0],[-108.317,45.9839,0.0],[-108.3155,45.9831,0.0],[-108.312,45.9831,0.0],[-108.3101,45.9844,0.0],[-108.309,45.9831,0.0],[-108.3086,45.9803,0.0],[-108.3073,45.9791,0.0],[-108.3038,45.9783,0.0],[-108.3031,45.9775,0.0],[-108.3014,45.9774,0.0],[-108.2954,45.9802,0.0],[-108.2935,45.9795,0.0],[-108.2882,45.9798,0.0],[-108.2792,45.9802,0.0],[-108.2745,45.982,0.0],[-108.2698,45.982,0.0],[-108.2653,45.9824,0.0],[-108.2602,45.9846,0.0],[-108.257,45.9864,0.0],[-108.2534,45.9873,0.0],[-108.2492,45.9857,0.0],[-108.2481,45.9844,0.0],[-108.2485,45.9832,0.0],[-108.2469,45.9821,0.0],[-108.2465,45.9804,0.0],[-108.2432,45.9787,0.0],[-108.2429,45.9774,0.0],[-108.2412,45.9763,0.0],[-108.2391,45.9772,0.0],[-108.2374,45.9792,0.0],[-108.2354,45.9795,0.0],[-108.2351,45.9788,0.0],[-108.2364,45.9772,0.0],[-108.2371,45.9766,0.0],[-108.2384,45.9754,0.0],[-108.2432,45.9739,0.0],[-108.2498,45.9696,0.0],[-108.2562,45.968,0.0],[-108.2602,45.9667,0.0],[-108.2611,45.9663,0.0],[-108.2649,45.9647,0.0],[-108.2661,45.9639,0.0],[-108.2675,45.9625,0.0],[-108.268,45.9622,0.0],[-108.2686,45.9615,0.0],[-108.269,45.961,0.0],[-108.2693,45.9603,0.0],[-108.2695,45.9599,0.0],[-108.2695,45.9587,0.0],[-108.2699,45.957,0.0],[-108.2714,45.9554,0.0],[-108.2744,45.9542,0.0],[-108.2816,45.9536,0.0],[-108.2866,45.953,0.0],[-108.289,45.9522,0.0],[-108.2902,45.9515,0.0],[-108.291,45.9508,0.0],[-108.2918,45.9491,0.0],[-108.2927,45.9479,0.0],[-108.2938,45.9475,0.0],[-108.2952,45.9466,0.0],[-108.2958,45.946,0.0],[-108.2962,45.9454,0.0],[-108.2966,45.9447,0.0],[-108.2967,45.944,0.0],[-108.2963,45.943,0.0],[-108.2961,45.9427,0.0],[-108.2947,45.9408,0.0],[-108.2943,45.9391,0.0],[-108.2953,45.9372,0.0],[-108.2972,45.9357,0.0],[-108.2997,45.9345,0.0],[-108.3018,45.9331,0.0],[-108.3053,45.9305,0.0],[-108.3167,45.9225,0.0],[-108.3167,45.9206,0.0],[-108.3151,45.9186,0.0],[-108.3145,45.9154,0.0],[-108.3166,45.9127,0.0],[-108.3192,45.9099,0.0],[-108.3197,45.909,0.0],[-108.3197,45.9064,0.0],[-108.3192,45.9049,0.0],[-108.3199,45.9039,0.0],[-108.3198,45.9027,0.0],[-108.3152,45.8972,0.0],[-108.3147,45.8955,0.0],[-108.3146,45.8951,0.0],[-108.3147,45.893,0.0],[-108.3168,45.8898,0.0],[-108.3171,45.8882,0.0],[-108.3175,45.8876,0.0],[-108.3196,45.8856,0.0],[-108.3247,45.8822,0.0],[-108.3297,45.881,0.0],[-108.3309,45.8809,0.0],[-108.3343,45.8799,0.0],[-108.3358,45.8791,0.0],[-108.3373,45.8779,0.0],[-108.3393,45.877,0.0],[-108.3417,45.8763,0.0],[-108.346,45.8752,0.0],[-108.3474,45.8746,0.0],[-108.3505,45.874,0.0],[-108.3519,45.8736,0.0],[-108.3561,45.8719,0.0],[-108.3628,45.8687,0.0],[-108.3631,45.8686,0.0],[-108.3692,45.8666,0.0],[-108.3709,45.8653,0.0],[-108.3757,45.8635,0.0],[-108.378,45.8619,0.0],[-108.3836,45.8603,0.0],[-108.385,45.8593,0.0],[-108.386,45.857,0.0],[-108.3894,45.8554,0.0],[-108.3919,45.8529,0.0],[-108.3953,45.8499,0.0],[-108.3998,45.8495,0.0],[-108.4044,45.8498,0.0],[-108.4069,45.8496,0.0],[-108.4124,45.8463,0.0],[-108.4213,45.8423,0.0],[-108.4243,45.8443,0.0],[-108.4266,45.842,0.0],[-108.4281,45.842,0.0],[-108.4283,45.8431,0.0],[-108.4308,45.8439,0.0],[-108.4299,45.8458,0.0],[-108.4316,45.8475,0.0],[-108.4352,45.8451,0.0],[-108.4352,45.8467,0.0],[-108.437,45.8454,0.0],[-108.4374,45.8476,0.0],[-108.4395,45.8488,0.0],[-108.4422,45.8477,0.0],[-108.4433,45.8492,0.0],[-108.4443,45.8496,0.0],[-108.4448,45.8503,0.0],[-108.4451,45.85,0.0],[-108.4459,45.8498,0.0],[-108.4475,45.8502,0.0],[-108.4478,45.8494,0.0],[-108.4486,45.8494,0.0],[-108.4487,45.8498,0.0],[-108.4496,45.8492,0.0],[-108.4497,45.8491,0.0],[-108.4507,45.8486,0.0],[-108.4512,45.8484,0.0],[-108.4517,45.8485,0.0],[-108.4514,45.8488,0.0],[-108.4525,45.8496,0.0],[-108.4578,45.8484,0.0]]]]}},{"type":"Feature","properties":{"uesi_id":"USA_R142497","nbhd_code":"USA_R142497_16","nbhd_name":"Census Tract 7.04"},"geometry":{"type":"MultiPolygon","coordinates":[[[[-108.5707,45.8233,0.0],[-108.5704,45.8268,0.0],[-108.5692,45.8269,0.0],[-108.564,45.8275,0.0],[-108.5641,45.8239,0.0],[-108.559,45.8239,0.0],[-108.5591,45.8132,0.0],[-108.5486,45.8131,0.0],[-108.5487,45.8197,0.0],[-108.5462,45.8197,0.0],[-108.5459,45.8131,0.0],[-108.5453,45.8129,0.0],[-108.5448,45.8109,0.0],[-108.5437,45.8104,0.0],[-108.5438,45.8112,0.0],[-108.5437,45.8118,0.0],[-108.5432,45.8125,0.0],[-108.5427,45.813,0.0],[-108.5425,45.8138,0.0],[-108.5389,45.8152,0.0],[-108.5364,45.8167,0.0],[-108.5352,45.8188,0.0],[-108.5317,45.8208,0.0],[-108.5301,45.8198,0.0],[-108.5286,45.8205,0.0],[-108.5293,45.8191,0.0],[-108.5283,45.8187,0.0],[-108.5271,45.8195,0.0],[-108.5226,45.8193,0.0],[-108.5168,45.8169,0.0],[-108.512,45.8161,0.0],[-108.5101,45.8147,0.0],[-108.5092,45.8151,0.0],[-108.5091,45.8158,0.0],[-108.5087,45.8164,0.0],[-108.5071,45.8177,0.0],[-108.5072,45.8202,0.0],[-108.5059,45.8204,0.0],[-108.5033,45.8186,0.0],[-108.5014,45.8173,0.0],[-108.4952,45.8143,0.0],[-108.4975,45.8126,0.0],[-108.4959,45.8124,0.0],[-108.4924,45.813,0.0],[-108.4872,45.8129,0.0],[-108.4778,45.8128,0.0],[-108.4762,45.8128,0.0],[-108.476,45.806,0.0],[-108.4757,45.8055,0.0],[-108.4762,45.805,0.0],[-108.4787,45.8023,0.0],[-108.4793,45.8017,0.0],[-108.481,45.7997,0.0],[-108.4811,45.7994,0.0],[-108.4834,45.7984,0.0],[-108.4842,45.7984,0.0],[-108.485,45.7981,0.0],[-108.4856,45.7979,0.0],[-108.4864,45.7977,0.0],[-108.488,45.7974,0.0],[-108.4916,45.7973,0.0],[-108.4957,45.7975,0.0],[-108.4982,45.7975,0.0],[-108.5006,45.798,0.0],[-108.5146,45.7992,0.0],[-108.5207,45.8003,0.0],[-108.525,45.8009,0.0],[-108.5289,45.8013,0.0],[-108.532,45.8016,0.0],[-108.534,45.8017,0.0],[-108.5362,45.801,0.0],[-108.5397,45.8015,0.0],[-108.5433,45.802,0.0],[-108.5502,45.802,0.0],[-108.5559,45.8026,0.0],[-108.5589,45.8034,0.0],[-108.5637,45.8039,0.0],[-108.5668,45.803,0.0],[-108.5681,45.8038,0.0],[-108.5683,45.8042,0.0],[-108.5696,45.8042,0.0],[-108.57,45.8113,0.0],[-108.5699,45.8132,0.0],[-108.5706,45.8203,0.0],[-108.5707,45.8233,0.0]]]]}},{"type":"Feature","properties":{"uesi_id":"USA_R142497","nbhd_code":"USA_R142497_17","nbhd_name":"Census Tract 7.05"},"geometry":{"type":"MultiPolygon","coordinates":[[[[-108.5073,45.8274,0.0],[-108.5067,45.8274,0.0],[-108.4958,45.8274,0.0],[-108.4899,45.8274,0.0],[-108.4899,45.8257,0.0],[-108.4887,45.8253,0.0],[-108.4908,45.8231,0.0],[-108.4898,45.822,0.0],[-108.491,45.8197,0.0],[-108.488,45.8179,0.0],[-108.4872,45.8168,0.0],[-108.4872,45.8129,0.0],[-108.4924,45.813,0.0],[-108.4959,45.8124,0.0],[-108.4975,45.8126,0.0],[-108.4952,45.8143,0.0],[-108.5014,45.8173,0.0],[-108.5033,45.8186,0.0],[-108.5059,45.8204,0.0],[-108.5072,45.8202,0.0],[-108.5073,45.8274,0.0]]]]}},{"type":"Feature","properties":{"uesi_id":"USA_R142497","nbhd_code":"USA_R142497_18","nbhd_name":"Census Tract 7.01"},"geometry":{"type":"MultiPolygon","coordinates":[[[[-108.5073,45.8419,0.0],[-108.4999,45.8419,0.0],[-108.4996,45.8419,0.0],[-108.4971,45.842,0.0],[-108.4971,45.8456,0.0],[-108.4971,45.847,0.0],[-108.4943,45.8465,0.0],[-108.4936,45.8439,0.0],[-108.4921,45.8419,0.0],[-108.4918,45.8419,0.0],[-108.4907,45.8439,0.0],[-108.4873,45.8468,0.0],[-108.4873,45.8509,0.0],[-108.4862,45.8485,0.0],[-108.4842,45.8489,0.0],[-108.4841,45.8502,0.0],[-108.4822,45.8487,0.0],[-108.4825,45.8499,0.0],[-108.4811,45.851,0.0],[-108.4791,45.8496,0.0],[-108.4792,45.8486,0.0],[-108.476,45.8484,0.0],[-108.4734,45.8493,0.0],[-108.4731,45.8479,0.0],[-108.475,45.847,0.0],[-108.4718,45.8471,0.0],[-108.4713,45.8462,0.0],[-108.4662,45.8478,0.0],[-108.4662,45.8448,0.0],[-108.4662,45.8424,0.0],[-108.4661,45.8419,0.0],[-108.4659,45.8274,0.0],[-108.4708,45.8274,0.0],[-108.4764,45.8273,0.0],[-108.4838,45.8273,0.0],[-108.4869,45.8273,0.0],[-108.4899,45.8274,0.0],[-108.4958,45.8274,0.0],[-108.5067,45.8274,0.0],[-108.5073,45.8274,0.0],[-108.5073,45.8419,0.0]]]]}},{"type":"Feature","properties":{"uesi_id":"USA_R142497","nbhd_code":"USA_R142497_19","nbhd_name":"Census Tract 8"},"geometry":{"type":"MultiPolygon","coordinates":[[[[-108.4708,45.7941,0.0],[-108.47,45.7959,0.0],[-108.4698,45.7965,0.0],[-108.4693,45.7978,0.0],[-108.4675,45.8014,0.0],[-108.4674,45.8014,0.0],[-108.4672,45.8018,0.0],[-108.4645,45.8049,0.0],[-108.4598,45.8078,0.0],[-108.4574,45.8101,0.0],[-108.4491,45.8156,0.0],[-108.4456,45.8165,0.0],[-108.4406,45.8181,0.0],[-108.4386,45.8194,0.0],[-108.4321,45.8217,0.0],[-108.4279,45.8247,0.0],[-108.424,45.8296,0.0],[-108.4214,45.8328,0.0],[-108.4228,45.8367,0.0],[-108.4234,45.8373,0.0],[-108.4248,45.8385,0.0],[-108.424,45.8407,0.0],[-108.4221,45.842,0.0],[-108.4216,45.8419,0.0],[-108.4213,45.8423,0.0],[-108.4124,45.8463,0.0],[-108.4069,45.8496,0.0],[-108.4044,45.8498,0.0],[-108.3998,45.8495,0.0],[-108.3953,45.8499,0.0],[-108.3919,45.8529,0.0],[-108.3894,45.8554,0.0],[-108.386,45.857,0.0],[-108.3871,45.8545,0.0],[-108.3875,45.8527,0.0],[-108.3934,45.845,0.0],[-108.3954,45.8412,0.0],[-108.3836,45.8411,0.0],[-108.3831,45.8392,0.0],[-108.3841,45.8378,0.0],[-108.3835,45.8356,0.0],[-108.3845,45.834,0.0],[-108.3834,45.8259,0.0],[-108.389,45.8236,0.0],[-108.389,45.8226,0.0],[-108.3909,45.8172,0.0],[-108.3974,45.8152,0.0],[-108.4008,45.8121,0.0],[-108.404,45.8103,0.0],[-108.4127,45.8066,0.0],[-108.4138,45.8059,0.0],[-108.4138,45.8016,0.0],[-108.4137,45.7955,0.0],[-108.4139,45.7951,0.0],[-108.4175,45.7929,0.0],[-108.4288,45.7967,0.0],[-108.4338,45.7938,0.0],[-108.4378,45.7945,0.0],[-108.4374,45.7915,0.0],[-108.4402,45.7913,0.0],[-108.4433,45.794,0.0],[-108.4454,45.7941,0.0],[-108.4469,45.7927,0.0],[-108.4491,45.7942,0.0],[-108.4529,45.7939,0.0],[-108.4555,45.7945,0.0],[-108.4626,45.7934,0.0],[-108.466,45.7935,0.0],[-108.4665,45.794,0.0],[-108.4705,45.7931,0.0],[-108.4713,45.7929,0.0],[-108.4708,45.7941,0.0]]]]}},{"type":"Feature","properties":{"uesi_id":"USA_R142497","nbhd_code":"USA_R142497_20","nbhd_name":"Census Tract 12"},"geometry":{"type":"MultiPolygon","coordinates":[[[[-108.5764,45.7869,0.0],[-108.5736,45.7867,0.0],[-108.5694,45.7891,0.0],[-108.5696,45.795,0.0],[-108.5591,45.795,0.0],[-108.5487,45.7949,0.0],[-108.5486,45.7933,0.0],[-108.5504,45.7931,0.0],[-108.5538,45.7922,0.0],[-108.5538,45.7919,0.0],[-108.5538,45.79,0.0],[-108.5538,45.784,0.0],[-108.5642,45.7841,0.0],[-108.5764,45.784,0.0],[-108.5764,45.7869,0.0]]]]}},{"type":"Feature","properties":{"uesi_id":"USA_R142497","nbhd_code":"USA_R142497_21","nbhd_name":"Census Tract 14.01"},"geometry":{"type":"MultiPolygon","coordinates":[[[[-108.9019,45.7843,0.0],[-108.902,45.7988,0.0],[-108.9019,45.8132,0.0],[-108.9019,45.8565,0.0],[-108.7768,45.8564,0.0],[-108.7657,45.8564,0.0],[-108.7625,45.856,0.0],[-108.7572,45.8535,0.0],[-108.755,45.8527,0.0],[-108.7509,45.8519,0.0],[-108.7462,45.8499,0.0],[-108.7395,45.8483,0.0],[-108.7368,45.8472,0.0],[-108.7348,45.8458,0.0],[-108.7309,45.8453,0.0],[-108.7283,45.8446,0.0],[-108.7227,45.8418,0.0],[-108.7209,45.8389,0.0],[-108.7213,45.837,0.0],[-108.7234,45.8331,0.0],[-108.7229,45.8314,0.0],[-108.7218,45.8304,0.0],[-108.7169,45.8278,0.0],[-108.7165,45.8276,0.0],[-108.7088,45.8237,0.0],[-108.7008,45.8208,0.0],[-108.6953,45.8184,0.0],[-108.6905,45.8164,0.0],[-108.6878,45.8165,0.0],[-108.6854,45.8166,0.0],[-108.6837,45.8162,0.0],[-108.6829,45.8158,0.0],[-108.6788,45.8132,0.0],[-108.6747,45.8105,0.0],[-108.6738,45.8091,0.0],[-108.6736,45.8081,0.0],[-108.6736,45.8026,0.0],[-108.6736,45.7986,0.0],[-108.6736,45.7985,0.0],[-108.6735,45.7968,0.0],[-108.6735,45.784,0.0],[-108.6684,45.784,0.0],[-108.6553,45.7841,0.0],[-108.6541,45.7841,0.0],[-108.6485,45.7841,0.0],[-108.6482,45.7841,0.0],[-108.6403,45.7841,0.0],[-108.6386,45.7841,0.0],[-108.6318,45.7841,0.0],[-108.6293,45.7841,0.0],[-108.6227,45.7841,0.0],[-108.6176,45.7841,0.0],[-108.6176,45.7769,0.0],[-108.6176,45.7768,0.0],[-108.6176,45.7732,0.0],[-108.6176,45.7705,0.0],[-108.6176,45.7696,0.0],[-108.6175,45.7644,0.0],[-108.6175,45.7624,0.0],[-108.6174,45.7551,0.0],[-108.6175,45.7478,0.0],[-108.6174,45.7406,0.0],[-108.6174,45.7398,0.0],[-108.6174,45.7333,0.0],[-108.6174,45.7331,0.0],[-108.6181,45.7315,0.0],[-108.6196,45.7298,0.0],[-108.6203,45.7289,0.0],[-108.6179,45.7261,0.0],[-108.6174,45.7263,0.0],[-108.6173,45.7264,0.0],[-108.6139,45.728,0.0],[-108.5971,45.7361,0.0],[-108.5936,45.7378,0.0],[-108.5876,45.7407,0.0],[-108.5792,45.7407,0.0],[-108.5761,45.7407,0.0],[-108.5688,45.7408,0.0],[-108.5564,45.7408,0.0],[-108.5563,45.7407,0.0],[-108.5563,45.7378,0.0],[-108.5562,45.7347,0.0],[-108.5588,45.7354,0.0],[-108.5631,45.7326,0.0],[-108.5652,45.7315,0.0],[-108.5669,45.7306,0.0],[-108.5679,45.7297,0.0],[-108.5685,45.729,0.0],[-108.5743,45.7223,0.0],[-108.575,45.7227,0.0],[-108.5827,45.7223,0.0],[-108.5853,45.7217,0.0],[-108.5898,45.7213,0.0],[-108.5922,45.7184,0.0],[-108.5946,45.7168,0.0],[-108.5957,45.7158,0.0],[-108.5966,45.7143,0.0],[-108.5973,45.7135,0.0],[-108.5997,45.7098,0.0],[-108.6016,45.7088,0.0],[-108.603,45.7082,0.0],[-108.6036,45.7083,0.0],[-108.6044,45.7079,0.0],[-108.6069,45.7062,0.0],[-108.6095,45.7039,0.0],[-108.6096,45.7032,0.0],[-108.6142,45.7017,0.0],[-108.6194,45.7003,0.0],[-108.6209,45.6991,0.0],[-108.6196,45.6982,0.0],[-108.6191,45.6963,0.0],[-108.6207,45.6948,0.0],[-108.6226,45.6944,0.0],[-108.625,45.6946,0.0],[-108.6324,45.6965,0.0],[-108.6346,45.6966,0.0],[-108.6379,45.6961,0.0],[-108.6409,45.6937,0.0],[-108.6414,45.6895,0.0],[-108.6424,45.6883,0.0],[-108.6456,45.6863,0.0],[-108.649,45.6862,0.0],[-108.653,45.6856,0.0],[-108.661,45.6874,0.0],[-108.664,45.6875,0.0],[-108.6651,45.6857,0.0],[-108.6647,45.6829,0.0],[-108.6684,45.6778,0.0],[-108.6685,45.6777,0.0],[-108.6698,45.6761,0.0],[-108.6752,45.6754,0.0],[-108.684,45.6726,0.0],[-108.6867,45.671,0.0],[-108.6893,45.67,0.0],[-108.695,45.6689,0.0],[-108.6984,45.6678,0.0],[-108.7039,45.6645,0.0],[-108.7057,45.6621,0.0],[-108.7064,45.66,0.0],[-108.7068,45.6539,0.0],[-108.7077,45.652,0.0],[-108.7098,45.6508,0.0],[-108.7123,45.6506,0.0],[-108.7181,45.6513,0.0],[-108.7244,45.6515,0.0],[-108.7286,45.6535,0.0],[-108.7298,45.6554,0.0],[-108.7302,45.6574,0.0],[-108.7333,45.6586,0.0],[-108.7361,45.6564,0.0],[-108.7402,45.6549,0.0],[-108.7435,45.6542,0.0],[-108.7507,45.6558,0.0],[-108.7561,45.6556,0.0],[-108.7598,45.6541,0.0],[-108.7606,45.6536,0.0],[-108.7606,45.6512,0.0],[-108.7623,45.6493,0.0],[-108.7637,45.6463,0.0],[-108.7653,45.6452,0.0],[-108.7673,45.6449,0.0],[-108.7718,45.6452,0.0],[-108.773,45.6431,0.0],[-108.782,45.6386,0.0],[-108.7868,45.6367,0.0],[-108.789,45.6361,0.0],[-108.7926,45.6363,0.0],[-108.7978,45.6352,0.0],[-108.8005,45.6332,0.0],[-108.8066,45.626,0.0],[-108.8085,45.625,0.0],[-108.8171,45.6239,0.0],[-108.8193,45.6233,0.0],[-108.8224,45.6215,0.0],[-108.8281,45.6189,0.0],[-108.8307,45.6165,0.0],[-108.8356,45.6134,0.0],[-108.8412,45.611,0.0],[-108.843,45.611,0.0],[-108.8431,45.6395,0.0],[-108.8637,45.6394,0.0],[-108.8638,45.6537,0.0],[-108.8844,45.6538,0.0],[-108.8844,45.6617,0.0],[-108.8843,45.6829,0.0],[-108.9047,45.6828,0.0],[-108.9045,45.6974,0.0],[-108.9048,45.7696,0.0],[-108.9049,45.7843,0.0],[-108.9019,45.7843,0.0]],[[-108.8054,45.6846,0.0],[-108.8026,45.6846,0.0],[-108.8026,45.6795,0.0],[-108.8026,45.6793,0.0],[-108.8026,45.6771,0.0],[-108.8024,45.6685,0.0],[-108.8025,45.662,0.0],[-108.7945,45.6644,0.0],[-108.7922,45.6646,0.0],[-108.7896,45.6641,0.0],[-108.7824,45.6611,0.0],[-108.7808,45.6606,0.0],[-108.7787,45.6605,0.0],[-108.7761,45.661,0.0],[-108.7697,45.6627,0.0],[-108.7665,45.6635,0.0],[-108.7611,45.6648,0.0],[-108.7509,45.6669,0.0],[-108.7488,45.6676,0.0],[-108.7212,45.678,0.0],[-108.706,45.6832,0.0],[-108.7065,45.6839,0.0],[-108.711,45.6822,0.0],[-108.716,45.683,0.0],[-108.7185,45.6821,0.0],[-108.7199,45.6842,0.0],[-108.72,45.6973,0.0],[-108.7407,45.6973,0.0],[-108.7453,45.6973,0.0],[-108.7595,45.6974,0.0],[-108.7647,45.6966,0.0],[-108.7658,45.6946,0.0],[-108.7645,45.6929,0.0],[-108.7656,45.692,0.0],[-108.7659,45.6893,0.0],[-108.7678,45.6885,0.0],[-108.7715,45.6899,0.0],[-108.7716,45.6918,0.0],[-108.7734,45.6936,0.0],[-108.7741,45.692,0.0],[-108.7784,45.6951,0.0],[-108.7792,45.6931,0.0],[-108.7777,45.6908,0.0],[-108.7804,45.6924,0.0],[-108.7811,45.6893,0.0],[-108.7798,45.6889,0.0],[-108.78,45.6882,0.0],[-108.7819,45.6888,0.0],[-108.7831,45.6903,0.0],[-108.7849,45.6903,0.0],[-108.7893,45.6925,0.0],[-108.7911,45.692,0.0],[-108.7909,45.6904,0.0],[-108.7917,45.6896,0.0],[-108.7937,45.6901,0.0],[-108.7947,45.6894,0.0],[-108.7975,45.6901,0.0],[-108.7992,45.6886,0.0],[-108.7993,45.6873,0.0],[-108.8006,45.6867,0.0],[-108.8029,45.6871,0.0],[-108.8068,45.6855,0.0],[-108.8064,45.6854,0.0],[-108.8054,45.6846,0.0]]]]}},{"type":"Feature","properties":{"uesi_id":"USA_R142497","nbhd_code":"USA_R142497_22","nbhd_name":"Census Tract 17.03"},"geometry":{"type":"MultiPolygon","coordinates":[[[[-108.6176,45.7696,0.0],[-108.5969,45.7697,0.0],[-108.5969,45.7623,0.0],[-108.5968,45.7552,0.0],[-108.5968,45.7551,0.0],[-108.6072,45.7551,0.0],[-108.6123,45.7551,0.0],[-108.6153,45.755,0.0],[-108.6171,45.7551,0.0],[-108.6174,45.7551,0.0],[-108.6175,45.7624,0.0],[-108.6175,45.7644,0.0],[-108.6176,45.7696,0.0]]]]}},{"type":"Feature","properties":{"uesi_id":"USA_R142497","nbhd_code":"USA_R142497_23","nbhd_name":"Census Tract 9400"},"geometry":{"type":"MultiPolygon","coordinates":[[[[-108.8024,45.5875,0.0],[-108.7984,45.5878,0.0],[-108.7969,45.5886,0.0],[-108.7955,45.591,0.0],[-108.7961,45.5923,0.0],[-108.7983,45.5942,0.0],[-108.7986,45.5954,0.0],[-108.7972,45.5964,0.0],[-108.7911,45.5971,0.0],[-108.79,45.5986,0.0],[-108.7899,45.6012,0.0],[-108.7929,45.6033,0.0],[-108.7937,45.6049,0.0],[-108.792,45.6066,0.0],[-108.7887,45.6067,0.0],[-108.7869,45.6079,0.0],[-108.7899,45.6105,0.0],[-108.7891,45.6116,0.0],[-108.7872,45.6124,0.0],[-108.7843,45.6124,0.0],[-108.7829,45.6131,0.0],[-108.7831,45.6141,0.0],[-108.7819,45.6157,0.0],[-108.782,45.6386,0.0],[-108.773,45.6431,0.0],[-108.7718,45.6452,0.0],[-108.7673,45.6449,0.0],[-108.7653,45.6452,0.0],[-108.7637,45.6463,0.0],[-108.7623,45.6493,0.0],[-108.7606,45.6512,0.0],[-108.7606,45.6536,0.0],[-108.7598,45.6541,0.0],[-108.7561,45.6556,0.0],[-108.7507,45.6558,0.0],[-108.7435,45.6542,0.0],[-108.7402,45.6549,0.0],[-108.7361,45.6564,0.0],[-108.7333,45.6586,0.0],[-108.7302,45.6574,0.0],[-108.7298,45.6554,0.0],[-108.7286,45.6535,0.0],[-108.7244,45.6515,0.0],[-108.7181,45.6513,0.0],[-108.7123,45.6506,0.0],[-108.7098,45.6508,0.0],[-108.7077,45.652,0.0],[-108.7068,45.6539,0.0],[-108.7064,45.66,0.0],[-108.7057,45.6621,0.0],[-108.7039,45.6645,0.0],[-108.6984,45.6678,0.0],[-108.695,45.6689,0.0],[-108.6893,45.67,0.0],[-108.6867,45.671,0.0],[-108.684,45.6726,0.0],[-108.6752,45.6754,0.0],[-108.6698,45.6761,0.0],[-108.6685,45.6777,0.0],[-108.6684,45.6778,0.0],[-108.6647,45.6829,0.0],[-108.6651,45.6857,0.0],[-108.664,45.6875,0.0],[-108.661,45.6874,0.0],[-108.653,45.6856,0.0],[-108.649,45.6862,0.0],[-108.6456,45.6863,0.0],[-108.6424,45.6883,0.0],[-108.6414,45.6895,0.0],[-108.6409,45.6937,0.0],[-108.6379,45.6961,0.0],[-108.6346,45.6966,0.0],[-108.6324,45.6965,0.0],[-108.625,45.6946,0.0],[-108.6226,45.6944,0.0],[-108.6207,45.6948,0.0],[-108.6191,45.6963,0.0],[-108.6196,45.6982,0.0],[-108.6209,45.6991,0.0],[-108.6194,45.7003,0.0],[-108.6142,45.7017,0.0],[-108.6096,45.7032,0.0],[-108.6095,45.7039,0.0],[-108.6069,45.7062,0.0],[-108.6044,45.7079,0.0],[-108.6036,45.7083,0.0],[-108.603,45.7082,0.0],[-108.6016,45.7088,0.0],[-108.5997,45.7098,0.0],[-108.5973,45.7135,0.0],[-108.5966,45.7143,0.0],[-108.5957,45.7158,0.0],[-108.5946,45.7168,0.0],[-108.5922,45.7184,0.0],[-108.5898,45.7213,0.0],[-108.5853,45.7217,0.0],[-108.5827,45.7223,0.0],[-108.575,45.7227,0.0],[-108.5743,45.7223,0.0],[-108.5685,45.729,0.0],[-108.5679,45.7297,0.0],[-108.5669,45.7306,0.0],[-108.5652,45.7315,0.0],[-108.5631,45.7326,0.0],[-108.5588,45.7354,0.0],[-108.5562,45.7347,0.0],[-108.5468,45.7332,0.0],[-108.5461,45.7333,0.0],[-108.5444,45.7335,0.0],[-108.54,45.735,0.0],[-108.5348,45.7371,0.0],[-108.5338,45.7371,0.0],[-108.5312,45.7372,0.0],[-108.5294,45.7373,0.0],[-108.5289,45.7374,0.0],[-108.5253,45.7385,0.0],[-108.5246,45.7385,0.0],[-108.5241,45.7384,0.0],[-108.5239,45.7379,0.0],[-108.5224,45.7384,0.0],[-108.5215,45.7388,0.0],[-108.5202,45.74,0.0],[-108.5154,45.7427,0.0],[-108.5091,45.7453,0.0],[-108.5077,45.7459,0.0],[-108.4969,45.7486,0.0],[-108.4932,45.7492,0.0],[-108.4925,45.7504,0.0],[-108.4893,45.7513,0.0],[-108.484,45.7543,0.0],[-108.4827,45.7557,0.0],[-108.4779,45.7624,0.0],[-108.4748,45.7647,0.0],[-108.4743,45.7667,0.0],[-108.4714,45.7703,0.0],[-108.476,45.7741,0.0],[-108.4771,45.777,0.0],[-108.4775,45.7815,0.0],[-108.4715,45.7925,0.0],[-108.4713,45.7929,0.0],[-108.4705,45.7931,0.0],[-108.4665,45.794,0.0],[-108.466,45.7935,0.0],[-108.4626,45.7934,0.0],[-108.4555,45.7945,0.0],[-108.4529,45.7939,0.0],[-108.4491,45.7942,0.0],[-108.4469,45.7927,0.0],[-108.4454,45.7941,0.0],[-108.4433,45.794,0.0],[-108.4402,45.7913,0.0],[-108.4374,45.7915,0.0],[-108.4378,45.7945,0.0],[-108.4338,45.7938,0.0],[-108.4288,45.7967,0.0],[-108.4175,45.7929,0.0],[-108.4139,45.7951,0.0],[-108.4137,45.7955,0.0],[-108.4138,45.8016,0.0],[-108.4138,45.8059,0.0],[-108.4127,45.8066,0.0],[-108.404,45.8103,0.0],[-108.4008,45.8121,0.0],[-108.3974,45.8152,0.0],[-108.3909,45.8172,0.0],[-108.389,45.8226,0.0],[-108.389,45.8236,0.0],[-108.3834,45.8259,0.0],[-108.3845,45.834,0.0],[-108.3835,45.8356,0.0],[-108.3841,45.8378,0.0],[-108.3831,45.8392,0.0],[-108.3836,45.8411,0.0],[-108.3954,45.8412,0.0],[-108.3934,45.845,0.0],[-108.3875,45.8527,0.0],[-108.3871,45.8545,0.0],[-108.386,45.857,0.0],[-108.385,45.8593,0.0],[-108.3836,45.8603,0.0],[-108.378,45.8619,0.0],[-108.3757,45.8635,0.0],[-108.3709,45.8653,0.0],[-108.3692,45.8666,0.0],[-108.3631,45.8686,0.0],[-108.3628,45.8687,0.0],[-108.3561,45.8719,0.0],[-108.3519,45.8736,0.0],[-108.3505,45.874,0.0],[-108.3474,45.8746,0.0],[-108.346,45.8752,0.0],[-108.3417,45.8763,0.0],[-108.3393,45.877,0.0],[-108.3373,45.8779,0.0],[-108.3358,45.8791,0.0],[-108.3343,45.8799,0.0],[-108.3309,45.8809,0.0],[-108.3297,45.881,0.0],[-108.3247,45.8822,0.0],[-108.3196,45.8856,0.0],[-108.3175,45.8876,0.0],[-108.3171,45.8882,0.0],[-108.3146,45.8868,0.0],[-108.3115,45.8872,0.0],[-108.3109,45.886,0.0],[-108.3087,45.8845,0.0],[-108.3067,45.883,0.0],[-108.3061,45.8764,0.0],[-108.3016,45.8702,0.0],[-108.3009,45.8685,0.0],[-108.3008,45.8625,0.0],[-108.3001,45.8611,0.0],[-108.2966,45.8576,0.0],[-108.296,45.8536,0.0],[-108.2965,45.8515,0.0],[-108.2958,45.848,0.0],[-108.2971,45.846,0.0],[-108.2974,45.8437,0.0],[-108.296,45.8378,0.0],[-108.2948,45.8343,0.0],[-108.2947,45.829,0.0],[-108.2942,45.8281,0.0],[-108.2916,45.8267,0.0],[-108.2899,45.825,0.0],[-108.2897,45.8232,0.0],[-108.2893,45.8207,0.0],[-108.289,45.7987,0.0],[-108.2816,45.7968,0.0],[-108.2759,45.795,0.0],[-108.2714,45.7932,0.0],[-108.2693,45.7928,0.0],[-108.2503,45.7901,0.0],[-108.2477,45.7895,0.0],[-108.2374,45.7867,0.0],[-108.2337,45.7861,0.0],[-108.226,45.7856,0.0],[-108.2235,45.7851,0.0],[-108.2056,45.7803,0.0],[-108.1887,45.7771,0.0],[-108.1865,45.7769,0.0],[-108.1807,45.7771,0.0],[-108.1688,45.7794,0.0],[-108.165,45.7799,0.0],[-108.1595,45.7799,0.0],[-108.1456,45.7787,0.0],[-108.1431,45.7787,0.0],[-108.1123,45.78,0.0],[-108.1106,45.7802,0.0],[-108.1066,45.781,0.0],[-108.0993,45.7831,0.0],[-108.0946,45.7836,0.0],[-108.0851,45.7833,0.0],[-108.0781,45.7822,0.0],[-108.0746,45.7821,0.0],[-108.0696,45.7825,0.0],[-108.0697,45.6815,0.0],[-108.0697,45.6813,0.0],[-108.0698,45.5185,0.0],[-108.1932,45.5185,0.0],[-108.1932,45.4895,0.0],[-108.3162,45.4895,0.0],[-108.3164,45.4605,0.0],[-108.4349,45.4605,0.0],[-108.4452,45.4604,0.0],[-108.4453,45.4644,0.0],[-108.564,45.464,0.0],[-108.6446,45.4641,0.0],[-108.645,45.4641,0.0],[-108.6453,45.4641,0.0],[-108.6981,45.4641,0.0],[-108.698,45.465,0.0],[-108.6989,45.5084,0.0],[-108.6993,45.5226,0.0],[-108.7603,45.5228,0.0],[-108.7608,45.5518,0.0],[-108.8018,45.552,0.0],[-108.8024,45.5875,0.0]]]]}},{"type":"Feature","properties":{"uesi_id":"USA_R142497","nbhd_code":"USA_R142497_24","nbhd_name":"Census Tract 4.01"},"geometry":{"type":"MultiPolygon","coordinates":[[[[-108.5279,45.784,0.0],[-108.5157,45.7841,0.0],[-108.5153,45.7838,0.0],[-108.5152,45.7781,0.0],[-108.5153,45.7779,0.0],[-108.5154,45.7762,0.0],[-108.5155,45.776,0.0],[-108.5279,45.7701,0.0],[-108.5279,45.7721,0.0],[-108.5279,45.7762,0.0],[-108.5279,45.7771,0.0],[-108.5279,45.7781,0.0],[-108.5279,45.7838,0.0],[-108.5279,45.784,0.0]]]]}},{"type":"Feature","properties":{"uesi_id":"USA_R142497","nbhd_code":"USA_R142497_25","nbhd_name":"Census Tract 6"},"geometry":{"type":"MultiPolygon","coordinates":[[[[-108.5592,45.7986,0.0],[-108.558,45.802,0.0],[-108.5589,45.8034,0.0],[-108.5559,45.8026,0.0],[-108.5502,45.802,0.0],[-108.5433,45.802,0.0],[-108.5397,45.8015,0.0],[-108.5362,45.801,0.0],[-108.534,45.8017,0.0],[-108.523,45.7996,0.0],[-108.5207,45.7988,0.0],[-108.5189,45.7974,0.0],[-108.5169,45.7953,0.0],[-108.5177,45.795,0.0],[-108.5279,45.7949,0.0],[-108.533,45.7949,0.0],[-108.5344,45.7949,0.0],[-108.5345,45.7949,0.0],[-108.5435,45.7949,0.0],[-108.546,45.7949,0.0],[-108.5487,45.7949,0.0],[-108.5591,45.795,0.0],[-108.5592,45.7986,0.0]]]]}},{"type":"Feature","properties":{"uesi_id":"USA_R142497","nbhd_code":"USA_R142497_26","nbhd_name":"Census Tract 11"},"geometry":{"type":"MultiPolygon","coordinates":[[[[-108.5764,45.784,0.0],[-108.5642,45.7841,0.0],[-108.5538,45.784,0.0],[-108.541,45.7841,0.0],[-108.5385,45.784,0.0],[-108.5279,45.784,0.0],[-108.5279,45.7838,0.0],[-108.5279,45.7781,0.0],[-108.5279,45.7771,0.0],[-108.5384,45.777,0.0],[-108.5409,45.777,0.0],[-108.5538,45.777,0.0],[-108.5642,45.7769,0.0],[-108.5762,45.7769,0.0],[-108.5764,45.784,0.0]]]]}},{"type":"Feature","properties":{"uesi_id":"USA_R142497","nbhd_code":"USA_R142497_27","nbhd_name":"Census Tract 14.02"},"geometry":{"type":"MultiPolygon","coordinates":[[[[-108.9246,46.1324,0.0],[-108.7797,46.1325,0.0],[-108.5505,46.1326,0.0],[-108.5298,46.1326,0.0],[-108.4583,46.1329,0.0],[-108.4582,46.1207,0.0],[-108.4584,46.1184,0.0],[-108.4588,46.1167,0.0],[-108.4634,46.103,0.0],[-108.4642,46.1012,0.0],[-108.4672,46.0963,0.0],[-108.4679,46.0935,0.0],[-108.468,46.0924,0.0],[-108.4681,46.0699,0.0],[-108.4682,46.0689,0.0],[-108.4698,46.0587,0.0],[-108.4693,46.0561,0.0],[-108.4675,46.051,0.0],[-108.4664,46.0435,0.0],[-108.4675,46.0364,0.0],[-108.4677,46.0329,0.0],[-108.4677,45.987,0.0],[-108.4305,45.987,0.0],[-108.4285,45.9869,0.0],[-108.4262,45.9861,0.0],[-108.4264,45.9849,0.0],[-108.4252,45.983,0.0],[-108.4201,45.9808,0.0],[-108.4259,45.9799,0.0],[-108.4283,45.9791,0.0],[-108.4297,45.9775,0.0],[-108.4255,45.9765,0.0],[-108.4237,45.9768,0.0],[-108.4222,45.9758,0.0],[-108.417,45.9744,0.0],[-108.4161,45.9728,0.0],[-108.4132,45.9704,0.0],[-108.4101,45.9696,0.0],[-108.4078,45.9676,0.0],[-108.4065,45.9672,0.0],[-108.4019,45.9644,0.0],[-108.4021,45.9633,0.0],[-108.3982,45.9616,0.0],[-108.399,45.9603,0.0],[-108.4014,45.9598,0.0],[-108.4027,45.9604,0.0],[-108.4051,45.96,0.0],[-108.4053,45.9585,0.0],[-108.4075,45.9601,0.0],[-108.4081,45.9594,0.0],[-108.4106,45.96,0.0],[-108.4126,45.9588,0.0],[-108.4092,45.957,0.0],[-108.4091,45.9556,0.0],[-108.4161,45.9559,0.0],[-108.4183,45.9565,0.0],[-108.417,45.9543,0.0],[-108.4178,45.9534,0.0],[-108.4159,45.952,0.0],[-108.4194,45.9517,0.0],[-108.418,45.9497,0.0],[-108.4203,45.949,0.0],[-108.4255,45.9497,0.0],[-108.4278,45.9467,0.0],[-108.425,45.9436,0.0],[-108.4216,45.9416,0.0],[-108.422,45.9396,0.0],[-108.42,45.9396,0.0],[-108.4179,45.9379,0.0],[-108.4155,45.9374,0.0],[-108.4133,45.9355,0.0],[-108.4101,45.9352,0.0],[-108.4091,45.9336,0.0],[-108.4033,45.9317,0.0],[-108.402,45.9309,0.0],[-108.4033,45.929,0.0],[-108.4063,45.929,0.0],[-108.4064,45.9277,0.0],[-108.4092,45.9282,0.0],[-108.4101,45.9288,0.0],[-108.4124,45.9283,0.0],[-108.4152,45.93,0.0],[-108.4145,45.9276,0.0],[-108.4182,45.9252,0.0],[-108.4208,45.9267,0.0],[-108.4251,45.9273,0.0],[-108.427,45.9263,0.0],[-108.426,45.9252,0.0],[-108.4271,45.9232,0.0],[-108.4335,45.9223,0.0],[-108.4344,45.9224,0.0],[-108.4371,45.9211,0.0],[-108.4372,45.9195,0.0],[-108.4358,45.918,0.0],[-108.4343,45.9177,0.0],[-108.433,45.9164,0.0],[-108.4314,45.9164,0.0],[-108.4288,45.9155,0.0],[-108.4286,45.9134,0.0],[-108.4249,45.9116,0.0],[-108.4244,45.9105,0.0],[-108.4273,45.9098,0.0],[-108.4262,45.9082,0.0],[-108.4267,45.9074,0.0],[-108.4249,45.9044,0.0],[-108.4226,45.9018,0.0],[-108.4197,45.9001,0.0],[-108.4188,45.8994,0.0],[-108.4188,45.899,0.0],[-108.42,45.8974,0.0],[-108.4255,45.896,0.0],[-108.4261,45.8959,0.0],[-108.4264,45.8953,0.0],[-108.4264,45.8934,0.0],[-108.4264,45.8932,0.0],[-108.426,45.8928,0.0],[-108.4254,45.8923,0.0],[-108.4244,45.8914,0.0],[-108.4238,45.8898,0.0],[-108.424,45.889,0.0],[-108.4245,45.8884,0.0],[-108.4249,45.8871,0.0],[-108.4254,45.8868,0.0],[-108.4276,45.8864,0.0],[-108.431,45.8868,0.0],[-108.4325,45.8861,0.0],[-108.4301,45.8832,0.0],[-108.4267,45.8827,0.0],[-108.428,45.8784,0.0],[-108.4308,45.8747,0.0],[-108.4325,45.8755,0.0],[-108.4344,45.8739,0.0],[-108.4358,45.8737,0.0],[-108.4392,45.8745,0.0],[-108.4394,45.8741,0.0],[-108.4349,45.8711,0.0],[-108.4333,45.8699,0.0],[-108.434,45.8656,0.0],[-108.4355,45.8641,0.0],[-108.4578,45.8484,0.0],[-108.4597,45.8491,0.0],[-108.4614,45.8478,0.0],[-108.463,45.849,0.0],[-108.4626,45.8479,0.0],[-108.4662,45.8478,0.0],[-108.4713,45.8462,0.0],[-108.4718,45.8471,0.0],[-108.475,45.847,0.0],[-108.4731,45.8479,0.0],[-108.4734,45.8493,0.0],[-108.476,45.8484,0.0],[-108.4792,45.8486,0.0],[-108.4791,45.8496,0.0],[-108.4811,45.851,0.0],[-108.4825,45.8499,0.0],[-108.4822,45.8487,0.0],[-108.4841,45.8502,0.0],[-108.4842,45.8489,0.0],[-108.4862,45.8485,0.0],[-108.4873,45.8509,0.0],[-108.4873,45.8468,0.0],[-108.4907,45.8439,0.0],[-108.4918,45.8419,0.0],[-108.4921,45.8419,0.0],[-108.4936,45.8439,0.0],[-108.4943,45.8465,0.0],[-108.4971,45.847,0.0],[-108.4971,45.8456,0.0],[-108.4971,45.842,0.0],[-108.4996,45.8419,0.0],[-108.4999,45.8419,0.0],[-108.5073,45.8419,0.0],[-108.5073,45.8274,0.0],[-108.5072,45.8202,0.0],[-108.5071,45.8177,0.0],[-108.5087,45.8164,0.0],[-108.5091,45.8158,0.0],[-108.5092,45.8151,0.0],[-108.5101,45.8147,0.0],[-108.512,45.8161,0.0],[-108.5168,45.8169,0.0],[-108.5226,45.8193,0.0],[-108.5271,45.8195,0.0],[-108.5283,45.8187,0.0],[-108.5293,45.8191,0.0],[-108.5286,45.8205,0.0],[-108.5301,45.8198,0.0],[-108.5317,45.8208,0.0],[-108.5352,45.8188,0.0],[-108.5364,45.8167,0.0],[-108.5389,45.8152,0.0],[-108.5425,45.8138,0.0],[-108.5427,45.813,0.0],[-108.5432,45.8125,0.0],[-108.5437,45.8118,0.0],[-108.5438,45.8112,0.0],[-108.5437,45.8104,0.0],[-108.5448,45.8109,0.0],[-108.5453,45.8129,0.0],[-108.5459,45.8131,0.0],[-108.5462,45.8197,0.0],[-108.5487,45.8197,0.0],[-108.5486,45.8131,0.0],[-108.5591,45.8132,0.0],[-108.559,45.8239,0.0],[-108.5641,45.8239,0.0],[-108.564,45.8275,0.0],[-108.5692,45.8269,0.0],[-108.5704,45.8268,0.0],[-108.5707,45.8233,0.0],[-108.5706,45.8203,0.0],[-108.5699,45.8132,0.0],[-108.57,45.8113,0.0],[-108.5696,45.8042,0.0],[-108.5683,45.8042,0.0],[-108.5681,45.8038,0.0],[-108.5704,45.8022,0.0],[-108.5759,45.8018,0.0],[-108.5824,45.8035,0.0],[-108.5863,45.803,0.0],[-108.5875,45.803,0.0],[-108.5889,45.8037,0.0],[-108.5906,45.8043,0.0],[-108.5942,45.8041,0.0],[-108.5964,45.8052,0.0],[-108.5993,45.8056,0.0],[-108.5997,45.8051,0.0],[-108.5995,45.8049,0.0],[-108.5993,45.8046,0.0],[-108.5988,45.8044,0.0],[-108.5977,45.8045,0.0],[-108.597,45.8041,0.0],[-108.5966,45.8036,0.0],[-108.5969,45.8029,0.0],[-108.601,45.8032,0.0],[-108.6039,45.8027,0.0],[-108.6073,45.8049,0.0],[-108.6134,45.8031,0.0],[-108.6147,45.8036,0.0],[-108.6177,45.8033,0.0],[-108.6221,45.8034,0.0],[-108.6233,45.8041,0.0],[-108.6286,45.8039,0.0],[-108.6307,45.8035,0.0],[-108.6363,45.8035,0.0],[-108.6383,45.8032,0.0],[-108.6454,45.8065,0.0],[-108.646,45.8077,0.0],[-108.651,45.81,0.0],[-108.6527,45.8133,0.0],[-108.6534,45.8139,0.0],[-108.6545,45.8146,0.0],[-108.6535,45.8146,0.0],[-108.6527,45.8146,0.0],[-108.6495,45.8154,0.0],[-108.6491,45.8162,0.0],[-108.6516,45.8177,0.0],[-108.6471,45.8206,0.0],[-108.6507,45.8228,0.0],[-108.6509,45.8248,0.0],[-108.6544,45.8256,0.0],[-108.6672,45.8266,0.0],[-108.6681,45.8239,0.0],[-108.6707,45.8218,0.0],[-108.6758,45.8214,0.0],[-108.6802,45.8224,0.0],[-108.6835,45.8221,0.0],[-108.6868,45.8203,0.0],[-108.6879,45.8184,0.0],[-108.6878,45.8165,0.0],[-108.6905,45.8164,0.0],[-108.6953,45.8184,0.0],[-108.7008,45.8208,0.0],[-108.7088,45.8237,0.0],[-108.7165,45.8276,0.0],[-108.7169,45.8278,0.0],[-108.7218,45.8304,0.0],[-108.7229,45.8314,0.0],[-108.7234,45.8331,0.0],[-108.7213,45.837,0.0],[-108.7209,45.8389,0.0],[-108.7227,45.8418,0.0],[-108.7283,45.8446,0.0],[-108.7309,45.8453,0.0],[-108.7348,45.8458,0.0],[-108.7368,45.8472,0.0],[-108.7395,45.8483,0.0],[-108.7462,45.8499,0.0],[-108.7509,45.8519,0.0],[-108.755,45.8527,0.0],[-108.7572,45.8535,0.0],[-108.7625,45.856,0.0],[-108.7657,45.8564,0.0],[-108.7768,45.8564,0.0],[-108.9019,45.8565,0.0],[-108.9019,45.9007,0.0],[-108.9017,45.9594,0.0],[-108.9223,45.9594,0.0],[-108.9224,45.9739,0.0],[-108.9229,45.9885,0.0],[-108.9254,46.0319,0.0],[-108.9246,46.1324,0.0]]]]}},{"type":"Feature","properties":{"uesi_id":"USA_R142497","nbhd_code":"USA_R142497_28","nbhd_name":"Census Tract 18.03"},"geometry":{"type":"MultiPolygon","coordinates":[[[[-108.6176,45.7841,0.0],[-108.6112,45.7841,0.0],[-108.6084,45.7841,0.0],[-108.6031,45.7841,0.0],[-108.5982,45.7841,0.0],[-108.5902,45.784,0.0],[-108.5877,45.784,0.0],[-108.585,45.784,0.0],[-108.5798,45.784,0.0],[-108.5764,45.784,0.0],[-108.5762,45.7769,0.0],[-108.5762,45.7753,0.0],[-108.5869,45.7753,0.0],[-108.5869,45.7769,0.0],[-108.5969,45.7768,0.0],[-108.615,45.7768,0.0],[-108.6176,45.7768,0.0],[-108.6176,45.7769,0.0],[-108.6176,45.7841,0.0]]]]}},{"type":"Feature","properties":{"uesi_id":"USA_R142497","nbhd_code":"USA_R142497_29","nbhd_name":"Census Tract 7.02"},"geometry":{"type":"MultiPolygon","coordinates":[[[[-108.4662,45.8478,0.0],[-108.4626,45.8479,0.0],[-108.463,45.849,0.0],[-108.4614,45.8478,0.0],[-108.4597,45.8491,0.0],[-108.4578,45.8484,0.0],[-108.4525,45.8496,0.0],[-108.4514,45.8488,0.0],[-108.4517,45.8485,0.0],[-108.4512,45.8484,0.0],[-108.4507,45.8486,0.0],[-108.4497,45.8491,0.0],[-108.4496,45.8492,0.0],[-108.4487,45.8498,0.0],[-108.4486,45.8494,0.0],[-108.4478,45.8494,0.0],[-108.4475,45.8502,0.0],[-108.4459,45.8498,0.0],[-108.4451,45.85,0.0],[-108.4448,45.8503,0.0],[-108.4443,45.8496,0.0],[-108.4433,45.8492,0.0],[-108.4422,45.8477,0.0],[-108.4395,45.8488,0.0],[-108.4374,45.8476,0.0],[-108.437,45.8454,0.0],[-108.4352,45.8467,0.0],[-108.4352,45.8451,0.0],[-108.4316,45.8475,0.0],[-108.4299,45.8458,0.0],[-108.4308,45.8439,0.0],[-108.4283,45.8431,0.0],[-108.4281,45.842,0.0],[-108.4266,45.842,0.0],[-108.4243,45.8443,0.0],[-108.4213,45.8423,0.0],[-108.4216,45.8419,0.0],[-108.4221,45.842,0.0],[-108.424,45.8407,0.0],[-108.4248,45.8385,0.0],[-108.4234,45.8373,0.0],[-108.4228,45.8367,0.0],[-108.4214,45.8328,0.0],[-108.424,45.8296,0.0],[-108.4279,45.8247,0.0],[-108.4321,45.8217,0.0],[-108.4386,45.8194,0.0],[-108.4406,45.8181,0.0],[-108.4456,45.8165,0.0],[-108.4491,45.8156,0.0],[-108.4574,45.8101,0.0],[-108.4598,45.8078,0.0],[-108.4616,45.8092,0.0],[-108.4633,45.8071,0.0],[-108.4658,45.8069,0.0],[-108.4658,45.8111,0.0],[-108.4658,45.8128,0.0],[-108.4658,45.8168,0.0],[-108.4659,45.8274,0.0],[-108.4661,45.8419,0.0],[-108.4662,45.8424,0.0],[-108.4662,45.8448,0.0],[-108.4662,45.8478,0.0]]]]}}]}