{"type":"FeatureCollection","name":"USA_R1411339","crs":{"type":"name","properties":{"name":"urn:ogc:def:crs:OGC:1.3:CRS84"}},"features":[{"type":"Feature","properties":{"uesi_id":"USA_R1411339","nbhd_code":"USA_R1411339_1","nbhd_name":"Census Tract 1.02"},"geometry":{"type":"MultiPolygon","coordinates":[[[[-105.0532,39.7835,0.0],[-105.0502,39.7848,0.0],[-105.0477,39.7849,0.0],[-105.0439,39.7835,0.0],[-105.0436,39.7835,0.0],[-105.0346,39.7833,0.0],[-105.0334,39.7833,0.0],[-105.0251,39.7842,0.0],[-105.0252,39.7803,0.0],[-105.0253,39.7766,0.0],[-105.0299,39.7767,0.0],[-105.0346,39.7768,0.0],[-105.0404,39.7767,0.0],[-105.0427,39.7767,0.0],[-105.044,39.7766,0.0],[-105.0463,39.7766,0.0],[-105.0532,39.7766,0.0],[-105.0532,39.7835,0.0]]]]}},{"type":"Feature","properties":{"uesi_id":"USA_R1411339","nbhd_code":"USA_R1411339_2","nbhd_name":"Census Tract 27.02"},"geometry":{"type":"MultiPolygon","coordinates":[[[[-104.9874,39.7291,0.0],[-104.9874,39.732,0.0],[-104.9836,39.732,0.0],[-104.9823,39.732,0.0],[-104.9798,39.732,0.0],[-104.9787,39.732,0.0],[-104.973,39.732,0.0],[-104.9729,39.7291,0.0],[-104.9729,39.7273,0.0],[-104.9776,39.7273,0.0],[-104.9799,39.7273,0.0],[-104.9811,39.7273,0.0],[-104.9836,39.7273,0.0],[-104.9874,39.7273,0.0],[-104.9874,39.7291,0.0]]]]}},{"type":"Feature","properties":{"uesi_id":"USA_R1411339","nbhd_code":"USA_R1411339_3","nbhd_name":"Census Tract 40.06"},"geometry":{"type":"MultiPolygon","coordinates":[[[[-104.9594,39.6784,0.0],[-104.9566,39.6785,0.0],[-104.9508,39.6784,0.0],[-104.9409,39.6784,0.0],[-104.9407,39.6784,0.0],[-104.9407,39.6683,0.0],[-104.9407,39.6676,0.0],[-104.9454,39.6676,0.0],[-104.9458,39.6676,0.0],[-104.9485,39.6669,0.0],[-104.9502,39.6673,0.0],[-104.9507,39.6675,0.0],[-104.9594,39.6676,0.0],[-104.9594,39.673,0.0],[-104.9594,39.6784,0.0]]]]}},{"type":"Feature","properties":{"uesi_id":"USA_R1411339","nbhd_code":"USA_R1411339_4","nbhd_name":"Census Tract 51.04"},"geometry":{"type":"MultiPolygon","coordinates":[[[[-104.9405,39.6893,0.0],[-104.9317,39.6893,0.0],[-104.9317,39.6857,0.0],[-104.9317,39.6843,0.0],[-104.9316,39.6785,0.0],[-104.9337,39.6785,0.0],[-104.934,39.6784,0.0],[-104.9364,39.681,0.0],[-104.9404,39.6829,0.0],[-104.9404,39.6831,0.0],[-104.9406,39.6857,0.0],[-104.9405,39.6893,0.0]]]]}},{"type":"Feature","properties":{"uesi_id":"USA_R1411339","nbhd_code":"USA_R1411339_5","nbhd_name":"Census Tract 120.01"},"geometry":{"type":"MultiPolygon","coordinates":[[[[-105.0758,39.642,0.0],[-105.0743,39.6443,0.0],[-105.072,39.6458,0.0],[-105.0632,39.646,0.0],[-105.0632,39.6496,0.0],[-105.0571,39.6497,0.0],[-105.057,39.6512,0.0],[-105.0537,39.6512,0.0],[-105.0538,39.6517,0.0],[-105.0572,39.6529,0.0],[-105.0571,39.6533,0.0],[-105.0531,39.6533,0.0],[-105.0531,39.6532,0.0],[-105.0533,39.6456,0.0],[-105.0533,39.6398,0.0],[-105.0533,39.6389,0.0],[-105.0594,39.6388,0.0],[-105.0601,39.6388,0.0],[-105.0733,39.6387,0.0],[-105.0768,39.6387,0.0],[-105.0758,39.642,0.0]]]]}},{"type":"Feature","properties":{"uesi_id":"USA_R1411339","nbhd_code":"USA_R1411339_6","nbhd_name":"Census Tract 29.02"},"geometry":{"type":"MultiPolygon","coordinates":[[[[-104.9804,39.7075,0.0],[-104.9804,39.7111,0.0],[-104.9769,39.7111,0.0],[-104.9734,39.7111,0.0],[-104.9734,39.7075,0.0],[-104.9734,39.7039,0.0],[-104.9734,39.693,0.0],[-104.9734,39.6898,0.0],[-104.9758,39.6911,0.0],[-104.9793,39.6941,0.0],[-104.9804,39.6951,0.0],[-104.9804,39.704,0.0],[-104.9804,39.7075,0.0]]]]}},{"type":"Feature","properties":{"uesi_id":"USA_R1411339","nbhd_code":"USA_R1411339_7","nbhd_name":"Census Tract 43.03"},"geometry":{"type":"MultiPolygon","coordinates":[[[[-104.9406,39.7116,0.0],[-104.9406,39.7178,0.0],[-104.9406,39.7184,0.0],[-104.9406,39.7209,0.0],[-104.9406,39.7256,0.0],[-104.9305,39.7256,0.0],[-104.9228,39.7256,0.0],[-104.9228,39.7219,0.0],[-104.9223,39.7179,0.0],[-104.9223,39.7178,0.0],[-104.9223,39.7113,0.0],[-104.9305,39.7113,0.0],[-104.9316,39.7111,0.0],[-104.9407,39.7112,0.0],[-104.9406,39.7116,0.0]]]]}},{"type":"Feature","properties":{"uesi_id":"USA_R1411339","nbhd_code":"USA_R1411339_8","nbhd_name":"Census Tract 83.04"},"geometry":{"type":"MultiPolygon","coordinates":[[[[-104.8472,39.7982,0.0],[-104.8357,39.7981,0.0],[-104.8357,39.7948,0.0],[-104.8357,39.7932,0.0],[-104.8356,39.7911,0.0],[-104.8363,39.791,0.0],[-104.8402,39.7893,0.0],[-104.8438,39.7893,0.0],[-104.8471,39.7893,0.0],[-104.8472,39.7963,0.0],[-104.8472,39.7982,0.0]]]]}},{"type":"Feature","properties":{"uesi_id":"USA_R1411339","nbhd_code":"USA_R1411339_9","nbhd_name":"Census Tract 83.91"},"geometry":{"type":"MultiPolygon","coordinates":[[[[-104.7553,39.7828,0.0],[-104.7503,39.7812,0.0],[-104.7433,39.781,0.0],[-104.7404,39.7816,0.0],[-104.7345,39.7817,0.0],[-104.7346,39.7748,0.0],[-104.7346,39.7693,0.0],[-104.7346,39.7692,0.0],[-104.7358,39.7694,0.0],[-104.7534,39.7695,0.0],[-104.7533,39.7748,0.0],[-104.7534,39.7764,0.0],[-104.7563,39.7803,0.0],[-104.7553,39.7828,0.0]]]]}},{"type":"Feature","properties":{"uesi_id":"USA_R1411339","nbhd_code":"USA_R1411339_10","nbhd_name":"Census Tract 34.01"},"geometry":{"type":"MultiPolygon","coordinates":[[[[-104.9734,39.7165,0.0],[-104.9732,39.7184,0.0],[-104.9706,39.7177,0.0],[-104.9663,39.7144,0.0],[-104.9602,39.7156,0.0],[-104.9593,39.7153,0.0],[-104.9593,39.7111,0.0],[-104.9593,39.7075,0.0],[-104.9652,39.7075,0.0],[-104.9663,39.7075,0.0],[-104.9734,39.7075,0.0],[-104.9734,39.7111,0.0],[-104.9734,39.7165,0.0]]]]}},{"type":"Feature","properties":{"uesi_id":"USA_R1411339","nbhd_code":"USA_R1411339_11","nbhd_name":"Census Tract 31.01"},"geometry":{"type":"MultiPolygon","coordinates":[[[[-104.9734,39.7507,0.0],[-104.9598,39.7507,0.0],[-104.9598,39.7469,0.0],[-104.9648,39.7469,0.0],[-104.9648,39.7461,0.0],[-104.9684,39.7461,0.0],[-104.9684,39.7471,0.0],[-104.9733,39.747,0.0],[-104.9734,39.7507,0.0]]]]}},{"type":"Feature","properties":{"uesi_id":"USA_R1411339","nbhd_code":"USA_R1411339_12","nbhd_name":"Census Tract 43.06"},"geometry":{"type":"MultiPolygon","coordinates":[[[[-104.9228,39.7256,0.0],[-104.9128,39.7256,0.0],[-104.9034,39.7256,0.0],[-104.9035,39.7253,0.0],[-104.9035,39.7224,0.0],[-104.9037,39.7171,0.0],[-104.9035,39.7133,0.0],[-104.9035,39.7113,0.0],[-104.9065,39.7114,0.0],[-104.9101,39.7114,0.0],[-104.9128,39.7114,0.0],[-104.9176,39.7114,0.0],[-104.9223,39.7113,0.0],[-104.9223,39.7178,0.0],[-104.9223,39.7179,0.0],[-104.9228,39.7219,0.0],[-104.9228,39.7256,0.0]]]]}},{"type":"Feature","properties":{"uesi_id":"USA_R1411339","nbhd_code":"USA_R1411339_13","nbhd_name":"Census Tract 3.01"},"geometry":{"type":"MultiPolygon","coordinates":[[[[-105.0532,39.7766,0.0],[-105.0463,39.7766,0.0],[-105.044,39.7766,0.0],[-105.0427,39.7767,0.0],[-105.0404,39.7767,0.0],[-105.0346,39.7768,0.0],[-105.0299,39.7767,0.0],[-105.0253,39.7766,0.0],[-105.0253,39.7729,0.0],[-105.0252,39.7693,0.0],[-105.03,39.7694,0.0],[-105.0346,39.7695,0.0],[-105.0393,39.7694,0.0],[-105.0405,39.7695,0.0],[-105.044,39.7694,0.0],[-105.0463,39.7694,0.0],[-105.0532,39.7693,0.0],[-105.0532,39.7729,0.0],[-105.0532,39.7766,0.0]]]]}},{"type":"Feature","properties":{"uesi_id":"USA_R1411339","nbhd_code":"USA_R1411339_14","nbhd_name":"Census Tract 4.01"},"geometry":{"type":"MultiPolygon","coordinates":[[[[-105.0253,39.7766,0.0],[-105.0174,39.7766,0.0],[-105.0159,39.7766,0.0],[-105.0147,39.7766,0.0],[-105.0112,39.7766,0.0],[-105.0112,39.7729,0.0],[-105.0112,39.7693,0.0],[-105.0144,39.7693,0.0],[-105.0147,39.7693,0.0],[-105.0174,39.7693,0.0],[-105.019,39.7693,0.0],[-105.0252,39.7693,0.0],[-105.0253,39.7729,0.0],[-105.0253,39.7766,0.0]]]]}},{"type":"Feature","properties":{"uesi_id":"USA_R1411339","nbhd_code":"USA_R1411339_15","nbhd_name":"Census Tract 9.03"},"geometry":{"type":"MultiPolygon","coordinates":[[[[-105.0397,39.7213,0.0],[-105.0394,39.7229,0.0],[-105.0395,39.7257,0.0],[-105.0325,39.7256,0.0],[-105.0251,39.7255,0.0],[-105.0251,39.7203,0.0],[-105.0251,39.7166,0.0],[-105.0251,39.7148,0.0],[-105.0251,39.7112,0.0],[-105.0325,39.7112,0.0],[-105.0397,39.7112,0.0],[-105.0397,39.715,0.0],[-105.0397,39.7197,0.0],[-105.0397,39.7213,0.0]]]]}},{"type":"Feature","properties":{"uesi_id":"USA_R1411339","nbhd_code":"USA_R1411339_16","nbhd_name":"Census Tract 11.02"},"geometry":{"type":"MultiPolygon","coordinates":[[[[-105.0127,39.7554,0.0],[-105.009,39.7581,0.0],[-105.011,39.7596,0.0],[-105.0112,39.762,0.0],[-105.0112,39.7656,0.0],[-105.0112,39.7693,0.0],[-105.0041,39.7693,0.0],[-104.9982,39.7693,0.0],[-104.9984,39.7621,0.0],[-105.0,39.7614,0.0],[-105.0029,39.7606,0.0],[-105.0041,39.7597,0.0],[-105.0077,39.7553,0.0],[-105.0082,39.7548,0.0],[-105.0095,39.7539,0.0],[-105.0117,39.755,0.0],[-105.0127,39.7554,0.0]]]]}},{"type":"Feature","properties":{"uesi_id":"USA_R1411339","nbhd_code":"USA_R1411339_17","nbhd_name":"Census Tract 17.01"},"geometry":{"type":"MultiPolygon","coordinates":[[[[-105.0082,39.7548,0.0],[-105.0077,39.7553,0.0],[-105.0041,39.7597,0.0],[-105.0029,39.7606,0.0],[-104.9998,39.7587,0.0],[-104.996,39.7556,0.0],[-104.9943,39.7543,0.0],[-104.9917,39.7523,0.0],[-104.9966,39.7485,0.0],[-105.0004,39.7455,0.0],[-105.0014,39.7485,0.0],[-105.0034,39.75,0.0],[-105.0078,39.7535,0.0],[-105.0082,39.7548,0.0]]]]}},{"type":"Feature","properties":{"uesi_id":"USA_R1411339","nbhd_code":"USA_R1411339_18","nbhd_name":"Census Tract 23"},"geometry":{"type":"MultiPolygon","coordinates":[[[[-104.9734,39.7545,0.0],[-104.9733,39.7582,0.0],[-104.9733,39.762,0.0],[-104.9634,39.762,0.0],[-104.9598,39.762,0.0],[-104.9598,39.7582,0.0],[-104.9598,39.7545,0.0],[-104.9598,39.7507,0.0],[-104.9734,39.7507,0.0],[-104.9734,39.7545,0.0]]]]}},{"type":"Feature","properties":{"uesi_id":"USA_R1411339","nbhd_code":"USA_R1411339_19","nbhd_name":"Census Tract 27.01"},"geometry":{"type":"MultiPolygon","coordinates":[[[[-104.9874,39.7339,0.0],[-104.9874,39.7353,0.0],[-104.9874,39.7368,0.0],[-104.9874,39.7401,0.0],[-104.9863,39.7401,0.0],[-104.9836,39.74,0.0],[-104.9799,39.74,0.0],[-104.9799,39.7369,0.0],[-104.9799,39.7352,0.0],[-104.9799,39.7337,0.0],[-104.9798,39.732,0.0],[-104.9823,39.732,0.0],[-104.9836,39.732,0.0],[-104.9874,39.732,0.0],[-104.9874,39.7339,0.0]]]]}},{"type":"Feature","properties":{"uesi_id":"USA_R1411339","nbhd_code":"USA_R1411339_20","nbhd_name":"Census Tract 29.01"},"geometry":{"type":"MultiPolygon","coordinates":[[[[-104.9876,39.7112,0.0],[-104.9804,39.7111,0.0],[-104.9804,39.7075,0.0],[-104.9804,39.704,0.0],[-104.9804,39.6951,0.0],[-104.9828,39.6972,0.0],[-104.9828,39.6967,0.0],[-104.9839,39.6966,0.0],[-104.9874,39.6966,0.0],[-104.9875,39.7039,0.0],[-104.9876,39.7075,0.0],[-104.9876,39.7112,0.0]]]]}},{"type":"Feature","properties":{"uesi_id":"USA_R1411339","nbhd_code":"USA_R1411339_21","nbhd_name":"Census Tract 31.02"},"geometry":{"type":"MultiPolygon","coordinates":[[[[-104.9734,39.7432,0.0],[-104.9734,39.7438,0.0],[-104.9733,39.747,0.0],[-104.9684,39.7471,0.0],[-104.9684,39.7461,0.0],[-104.9648,39.7461,0.0],[-104.9648,39.7469,0.0],[-104.9598,39.7469,0.0],[-104.9598,39.7448,0.0],[-104.9598,39.7433,0.0],[-104.9598,39.74,0.0],[-104.9648,39.74,0.0],[-104.9697,39.74,0.0],[-104.973,39.74,0.0],[-104.9734,39.74,0.0],[-104.9734,39.7432,0.0]]]]}},{"type":"Feature","properties":{"uesi_id":"USA_R1411339","nbhd_code":"USA_R1411339_22","nbhd_name":"Census Tract 36.01"},"geometry":{"type":"MultiPolygon","coordinates":[[[[-104.9733,39.7692,0.0],[-104.9719,39.7703,0.0],[-104.9685,39.7729,0.0],[-104.9594,39.7729,0.0],[-104.9597,39.7719,0.0],[-104.9597,39.7682,0.0],[-104.9598,39.762,0.0],[-104.9634,39.762,0.0],[-104.9733,39.762,0.0],[-104.9733,39.7658,0.0],[-104.9733,39.7679,0.0],[-104.9733,39.7682,0.0],[-104.9733,39.7692,0.0]]]]}},{"type":"Feature","properties":{"uesi_id":"USA_R1411339","nbhd_code":"USA_R1411339_23","nbhd_name":"Census Tract 37.03"},"geometry":{"type":"MultiPolygon","coordinates":[[[[-104.9495,39.7368,0.0],[-104.9495,39.7402,0.0],[-104.9406,39.7401,0.0],[-104.9406,39.7367,0.0],[-104.9406,39.7347,0.0],[-104.9406,39.7321,0.0],[-104.9495,39.7321,0.0],[-104.9495,39.7368,0.0]]]]}},{"type":"Feature","properties":{"uesi_id":"USA_R1411339","nbhd_code":"USA_R1411339_24","nbhd_name":"Census Tract 40.05"},"geometry":{"type":"MultiPolygon","coordinates":[[[[-104.9594,39.6847,0.0],[-104.9505,39.6847,0.0],[-104.9479,39.6845,0.0],[-104.9404,39.6829,0.0],[-104.9407,39.6784,0.0],[-104.9409,39.6784,0.0],[-104.9508,39.6784,0.0],[-104.9566,39.6785,0.0],[-104.9594,39.6784,0.0],[-104.9594,39.6847,0.0]]]]}},{"type":"Feature","properties":{"uesi_id":"USA_R1411339","nbhd_code":"USA_R1411339_25","nbhd_name":"Census Tract 42.01"},"geometry":{"type":"MultiPolygon","coordinates":[[[[-104.9406,39.7474,0.0],[-104.9406,39.751,0.0],[-104.9317,39.7511,0.0],[-104.9223,39.7511,0.0],[-104.9223,39.7474,0.0],[-104.9223,39.7437,0.0],[-104.9223,39.7401,0.0],[-104.9304,39.7401,0.0],[-104.9315,39.7401,0.0],[-104.9321,39.7401,0.0],[-104.9406,39.7401,0.0],[-104.9407,39.7438,0.0],[-104.9406,39.7474,0.0]]]]}},{"type":"Feature","properties":{"uesi_id":"USA_R1411339","nbhd_code":"USA_R1411339_26","nbhd_name":"Census Tract 43.04"},"geometry":{"type":"MultiPolygon","coordinates":[[[[-104.9228,39.7293,0.0],[-104.9223,39.7337,0.0],[-104.9223,39.7367,0.0],[-104.9223,39.7401,0.0],[-104.9128,39.7402,0.0],[-104.9035,39.7401,0.0],[-104.9035,39.7373,0.0],[-104.9035,39.7356,0.0],[-104.9035,39.7329,0.0],[-104.9034,39.7256,0.0],[-104.9128,39.7256,0.0],[-104.9228,39.7256,0.0],[-104.9228,39.7293,0.0]]]]}},{"type":"Feature","properties":{"uesi_id":"USA_R1411339","nbhd_code":"USA_R1411339_27","nbhd_name":"Census Tract 45.06"},"geometry":{"type":"MultiPolygon","coordinates":[[[[-105.0391,39.704,0.0],[-105.0324,39.704,0.0],[-105.0251,39.7039,0.0],[-105.0251,39.7004,0.0],[-105.0251,39.6967,0.0],[-105.0321,39.6967,0.0],[-105.0351,39.6972,0.0],[-105.039,39.6968,0.0],[-105.0391,39.7004,0.0],[-105.0391,39.704,0.0]]]]}},{"type":"Feature","properties":{"uesi_id":"USA_R1411339","nbhd_code":"USA_R1411339_28","nbhd_name":"Census Tract 48.01"},"geometry":{"type":"MultiPolygon","coordinates":[[[[-105.0533,39.6678,0.0],[-105.0418,39.6677,0.0],[-105.0419,39.6664,0.0],[-105.0441,39.6625,0.0],[-105.044,39.6601,0.0],[-105.0434,39.6592,0.0],[-105.0418,39.6564,0.0],[-105.0414,39.6543,0.0],[-105.0486,39.6534,0.0],[-105.0531,39.6533,0.0],[-105.0532,39.6543,0.0],[-105.0532,39.6562,0.0],[-105.0532,39.6626,0.0],[-105.0533,39.6678,0.0]]]]}},{"type":"Feature","properties":{"uesi_id":"USA_R1411339","nbhd_code":"USA_R1411339_29","nbhd_name":"Census Tract 67.01"},"geometry":{"type":"MultiPolygon","coordinates":[[[[-104.9114,39.6387,0.0],[-104.9101,39.6387,0.0],[-104.9071,39.6343,0.0],[-104.9045,39.6287,0.0],[-104.9017,39.6237,0.0],[-104.904,39.6238,0.0],[-104.9056,39.624,0.0],[-104.9134,39.6241,0.0],[-104.9133,39.6387,0.0],[-104.9114,39.6387,0.0]],[[-104.9029,39.6242,0.0],[-104.9028,39.6243,0.0],[-104.9038,39.6268,0.0],[-104.904,39.6254,0.0],[-104.904,39.6241,0.0],[-104.9029,39.6242,0.0]]]]}},{"type":"Feature","properties":{"uesi_id":"USA_R1411339","nbhd_code":"USA_R1411339_30","nbhd_name":"Census Tract 68.13"},"geometry":{"type":"MultiPolygon","coordinates":[[[[-104.8793,39.6639,0.0],[-104.8762,39.664,0.0],[-104.8758,39.6698,0.0],[-104.8782,39.6728,0.0],[-104.8753,39.6728,0.0],[-104.8753,39.6748,0.0],[-104.8719,39.6747,0.0],[-104.8709,39.6748,0.0],[-104.8682,39.6726,0.0],[-104.8661,39.6708,0.0],[-104.8662,39.6675,0.0],[-104.8663,39.6603,0.0],[-104.8664,39.6594,0.0],[-104.8674,39.66,0.0],[-104.8689,39.6622,0.0],[-104.8701,39.6628,0.0],[-104.8744,39.6638,0.0],[-104.8788,39.6633,0.0],[-104.8793,39.6639,0.0]]]]}},{"type":"Feature","properties":{"uesi_id":"USA_R1411339","nbhd_code":"USA_R1411339_31","nbhd_name":"Census Tract 70.89"},"geometry":{"type":"MultiPolygon","coordinates":[[[[-104.8928,39.7114,0.0],[-104.8921,39.7111,0.0],[-104.8853,39.7072,0.0],[-104.884,39.707,0.0],[-104.879,39.7082,0.0],[-104.8754,39.709,0.0],[-104.8753,39.7034,0.0],[-104.8754,39.7019,0.0],[-104.8753,39.7001,0.0],[-104.8756,39.7001,0.0],[-104.8787,39.7,0.0],[-104.8817,39.7018,0.0],[-104.8906,39.7036,0.0],[-104.8901,39.7045,0.0],[-104.8904,39.7057,0.0],[-104.8923,39.7074,0.0],[-104.8928,39.7114,0.0]]]]}},{"type":"Feature","properties":{"uesi_id":"USA_R1411339","nbhd_code":"USA_R1411339_32","nbhd_name":"Census Tract 83.88"},"geometry":{"type":"MultiPolygon","coordinates":[[[[-104.8099,39.7768,0.0],[-104.8098,39.7838,0.0],[-104.8097,39.7948,0.0],[-104.8097,39.7983,0.0],[-104.7909,39.7983,0.0],[-104.7886,39.7984,0.0],[-104.7721,39.7984,0.0],[-104.7721,39.7836,0.0],[-104.7721,39.778,0.0],[-104.7722,39.7764,0.0],[-104.7818,39.7765,0.0],[-104.7817,39.7734,0.0],[-104.8099,39.7732,0.0],[-104.8099,39.775,0.0],[-104.8099,39.7768,0.0]]]]}},{"type":"Feature","properties":{"uesi_id":"USA_R1411339","nbhd_code":"USA_R1411339_33","nbhd_name":"Census Tract 154"},"geometry":{"type":"MultiPolygon","coordinates":[[[[-105.0645,39.7911,0.0],[-105.0633,39.7901,0.0],[-105.0615,39.7911,0.0],[-105.0532,39.7911,0.0],[-105.0346,39.7911,0.0],[-105.0346,39.7919,0.0],[-105.03,39.7919,0.0],[-105.03,39.7911,0.0],[-105.0251,39.7909,0.0],[-105.0251,39.7842,0.0],[-105.0334,39.7833,0.0],[-105.0346,39.7833,0.0],[-105.0436,39.7835,0.0],[-105.0439,39.7835,0.0],[-105.0477,39.7849,0.0],[-105.0502,39.7848,0.0],[-105.0532,39.7835,0.0],[-105.0532,39.7838,0.0],[-105.0627,39.7838,0.0],[-105.0629,39.7881,0.0],[-105.0651,39.7881,0.0],[-105.0645,39.7911,0.0]]]]}},{"type":"Feature","properties":{"uesi_id":"USA_R1411339","nbhd_code":"USA_R1411339_34","nbhd_name":"Census Tract 9801"},"geometry":{"type":"MultiPolygon","coordinates":[[[[-104.8664,39.7977,0.0],[-104.866,39.7984,0.0],[-104.8472,39.7982,0.0],[-104.8472,39.7963,0.0],[-104.8471,39.7893,0.0],[-104.847,39.7864,0.0],[-104.847,39.7824,0.0],[-104.847,39.774,0.0],[-104.866,39.7756,0.0],[-104.8665,39.7894,0.0],[-104.8664,39.7977,0.0]]]]}},{"type":"Feature","properties":{"uesi_id":"USA_R1411339","nbhd_code":"USA_R1411339_35","nbhd_name":"Census Tract 7.01"},"geometry":{"type":"MultiPolygon","coordinates":[[[[-105.0532,39.7404,0.0],[-105.0532,39.7433,0.0],[-105.0532,39.744,0.0],[-105.0393,39.744,0.0],[-105.0393,39.7415,0.0],[-105.0393,39.7403,0.0],[-105.0393,39.7385,0.0],[-105.0393,39.7343,0.0],[-105.0405,39.734,0.0],[-105.0418,39.7348,0.0],[-105.0455,39.7348,0.0],[-105.0499,39.7353,0.0],[-105.0532,39.735,0.0],[-105.0532,39.7404,0.0]]]]}},{"type":"Feature","properties":{"uesi_id":"USA_R1411339","nbhd_code":"USA_R1411339_36","nbhd_name":"Census Tract 13.01"},"geometry":{"type":"MultiPolygon","coordinates":[[[[-105.0251,39.7049,0.0],[-105.0251,39.7075,0.0],[-105.0251,39.7077,0.0],[-105.0251,39.7112,0.0],[-105.0157,39.7112,0.0],[-105.011,39.7112,0.0],[-105.011,39.704,0.0],[-105.011,39.7014,0.0],[-105.0121,39.6991,0.0],[-105.0126,39.6983,0.0],[-105.0127,39.6967,0.0],[-105.0157,39.6968,0.0],[-105.0251,39.6967,0.0],[-105.0251,39.7004,0.0],[-105.0251,39.7039,0.0],[-105.0251,39.7049,0.0]]]]}},{"type":"Feature","properties":{"uesi_id":"USA_R1411339","nbhd_code":"USA_R1411339_37","nbhd_name":"Census Tract 19.01"},"geometry":{"type":"MultiPolygon","coordinates":[[[[-105.0174,39.7405,0.0],[-105.0028,39.7402,0.0],[-105.0001,39.7402,0.0],[-105.0002,39.7337,0.0],[-105.0002,39.7265,0.0],[-105.0016,39.7258,0.0],[-105.0037,39.7258,0.0],[-105.0063,39.7258,0.0],[-105.006,39.7256,0.0],[-105.0066,39.7255,0.0],[-105.0075,39.7256,0.0],[-105.0092,39.7257,0.0],[-105.0092,39.7258,0.0],[-105.0097,39.7258,0.0],[-105.0158,39.7255,0.0],[-105.0156,39.7273,0.0],[-105.017,39.7298,0.0],[-105.017,39.7348,0.0],[-105.018,39.7385,0.0],[-105.0174,39.7405,0.0]]]]}},{"type":"Feature","properties":{"uesi_id":"USA_R1411339","nbhd_code":"USA_R1411339_38","nbhd_name":"Census Tract 30.04"},"geometry":{"type":"MultiPolygon","coordinates":[[[[-104.9746,39.6677,0.0],[-104.9735,39.6695,0.0],[-104.9735,39.6749,0.0],[-104.9734,39.6785,0.0],[-104.9652,39.6785,0.0],[-104.9595,39.6785,0.0],[-104.9594,39.6784,0.0],[-104.9594,39.673,0.0],[-104.9594,39.6676,0.0],[-104.9594,39.6639,0.0],[-104.9594,39.6615,0.0],[-104.9631,39.6616,0.0],[-104.9632,39.6604,0.0],[-104.9676,39.6604,0.0],[-104.9688,39.6604,0.0],[-104.9688,39.6658,0.0],[-104.9735,39.6659,0.0],[-104.9735,39.6677,0.0],[-104.9746,39.6677,0.0]]]]}},{"type":"Feature","properties":{"uesi_id":"USA_R1411339","nbhd_code":"USA_R1411339_39","nbhd_name":"Census Tract 36.03"},"geometry":{"type":"MultiPolygon","coordinates":[[[[-104.9598,39.7545,0.0],[-104.9598,39.7582,0.0],[-104.9598,39.762,0.0],[-104.9561,39.762,0.0],[-104.9512,39.762,0.0],[-104.9499,39.762,0.0],[-104.9463,39.7619,0.0],[-104.9427,39.7617,0.0],[-104.9405,39.762,0.0],[-104.9405,39.7583,0.0],[-104.9405,39.7547,0.0],[-104.9406,39.751,0.0],[-104.9549,39.7512,0.0],[-104.9598,39.7507,0.0],[-104.9598,39.7545,0.0]]]]}},{"type":"Feature","properties":{"uesi_id":"USA_R1411339","nbhd_code":"USA_R1411339_40","nbhd_name":"Census Tract 44.04"},"geometry":{"type":"MultiPolygon","coordinates":[[[[-104.9035,39.7356,0.0],[-104.9035,39.7373,0.0],[-104.9035,39.7401,0.0],[-104.894,39.7402,0.0],[-104.8846,39.7402,0.0],[-104.8847,39.7373,0.0],[-104.8847,39.7356,0.0],[-104.8847,39.7328,0.0],[-104.8913,39.7329,0.0],[-104.9035,39.7329,0.0],[-104.9035,39.7356,0.0]]]]}},{"type":"Feature","properties":{"uesi_id":"USA_R1411339","nbhd_code":"USA_R1411339_41","nbhd_name":"Census Tract 7.02"},"geometry":{"type":"MultiPolygon","coordinates":[[[[-105.0393,39.7415,0.0],[-105.0393,39.744,0.0],[-105.0358,39.7439,0.0],[-105.0358,39.7464,0.0],[-105.0349,39.7464,0.0],[-105.0315,39.7464,0.0],[-105.0252,39.7464,0.0],[-105.0252,39.7427,0.0],[-105.0251,39.738,0.0],[-105.0252,39.7366,0.0],[-105.026,39.7362,0.0],[-105.0322,39.735,0.0],[-105.0346,39.736,0.0],[-105.0368,39.7343,0.0],[-105.0393,39.7343,0.0],[-105.0393,39.7385,0.0],[-105.0393,39.7403,0.0],[-105.0393,39.7415,0.0]]]]}},{"type":"Feature","properties":{"uesi_id":"USA_R1411339","nbhd_code":"USA_R1411339_42","nbhd_name":"Census Tract 14.02"},"geometry":{"type":"MultiPolygon","coordinates":[[[[-105.0251,39.6895,0.0],[-105.0157,39.6895,0.0],[-105.0118,39.6895,0.0],[-105.0069,39.6895,0.0],[-105.0027,39.6894,0.0],[-104.9998,39.6891,0.0],[-105.0014,39.6832,0.0],[-105.0014,39.6825,0.0],[-105.0018,39.6822,0.0],[-105.0087,39.6823,0.0],[-105.0157,39.6823,0.0],[-105.025,39.6823,0.0],[-105.025,39.685,0.0],[-105.0248,39.6859,0.0],[-105.0251,39.6867,0.0],[-105.0251,39.6895,0.0]]]]}},{"type":"Feature","properties":{"uesi_id":"USA_R1411339","nbhd_code":"USA_R1411339_43","nbhd_name":"Census Tract 24.03"},"geometry":{"type":"MultiPolygon","coordinates":[[[[-104.9874,39.7489,0.0],[-104.9874,39.7516,0.0],[-104.9855,39.7531,0.0],[-104.9819,39.7559,0.0],[-104.977,39.7596,0.0],[-104.9739,39.762,0.0],[-104.9733,39.762,0.0],[-104.9733,39.7582,0.0],[-104.9734,39.7545,0.0],[-104.9781,39.7546,0.0],[-104.9782,39.7532,0.0],[-104.9781,39.7507,0.0],[-104.9782,39.7475,0.0],[-104.9811,39.7475,0.0],[-104.9836,39.7476,0.0],[-104.9855,39.7476,0.0],[-104.9874,39.7474,0.0],[-104.9874,39.7489,0.0]]]]}},{"type":"Feature","properties":{"uesi_id":"USA_R1411339","nbhd_code":"USA_R1411339_44","nbhd_name":"Census Tract 36.02"},"geometry":{"type":"MultiPolygon","coordinates":[[[[-104.9597,39.7682,0.0],[-104.9597,39.7719,0.0],[-104.9594,39.7729,0.0],[-104.9498,39.7729,0.0],[-104.9405,39.7729,0.0],[-104.9405,39.7681,0.0],[-104.9405,39.7657,0.0],[-104.9405,39.762,0.0],[-104.9427,39.7617,0.0],[-104.9463,39.7619,0.0],[-104.9499,39.762,0.0],[-104.9512,39.762,0.0],[-104.9561,39.762,0.0],[-104.9598,39.762,0.0],[-104.9597,39.7682,0.0]]]]}},{"type":"Feature","properties":{"uesi_id":"USA_R1411339","nbhd_code":"USA_R1411339_45","nbhd_name":"Census Tract 41.01"},"geometry":{"type":"MultiPolygon","coordinates":[[[[-104.9405,39.7657,0.0],[-104.9405,39.7681,0.0],[-104.9405,39.7729,0.0],[-104.9405,39.78,0.0],[-104.9403,39.7891,0.0],[-104.9399,39.791,0.0],[-104.927,39.7911,0.0],[-104.927,39.7838,0.0],[-104.9223,39.7838,0.0],[-104.9223,39.7692,0.0],[-104.9223,39.7656,0.0],[-104.9223,39.762,0.0],[-104.9319,39.762,0.0],[-104.9405,39.762,0.0],[-104.9405,39.7657,0.0]]]]}},{"type":"Feature","properties":{"uesi_id":"USA_R1411339","nbhd_code":"USA_R1411339_46","nbhd_name":"Census Tract 46.03"},"geometry":{"type":"MultiPolygon","coordinates":[[[[-105.0387,39.6723,0.0],[-105.0386,39.6778,0.0],[-105.0383,39.6792,0.0],[-105.0383,39.6822,0.0],[-105.0298,39.6822,0.0],[-105.025,39.6823,0.0],[-105.0251,39.6786,0.0],[-105.0251,39.6733,0.0],[-105.0251,39.6718,0.0],[-105.0251,39.6677,0.0],[-105.0299,39.6677,0.0],[-105.0378,39.6677,0.0],[-105.0387,39.6677,0.0],[-105.0387,39.6723,0.0]]]]}},{"type":"Feature","properties":{"uesi_id":"USA_R1411339","nbhd_code":"USA_R1411339_47","nbhd_name":"Census Tract 68.09"},"geometry":{"type":"MultiPolygon","coordinates":[[[[-104.9129,39.6531,0.0],[-104.9091,39.6531,0.0],[-104.9008,39.6531,0.0],[-104.8998,39.6511,0.0],[-104.8981,39.649,0.0],[-104.8942,39.6433,0.0],[-104.8944,39.6418,0.0],[-104.894,39.6387,0.0],[-104.8938,39.6382,0.0],[-104.8929,39.6357,0.0],[-104.9015,39.6347,0.0],[-104.9019,39.6354,0.0],[-104.9059,39.634,0.0],[-104.9071,39.6343,0.0],[-104.9101,39.6387,0.0],[-104.9127,39.6429,0.0],[-104.9184,39.6531,0.0],[-104.9129,39.6531,0.0]]]]}},{"type":"Feature","properties":{"uesi_id":"USA_R1411339","nbhd_code":"USA_R1411339_48","nbhd_name":"Census Tract 120.10"},"geometry":{"type":"MultiPolygon","coordinates":[[[[-105.0938,39.6183,0.0],[-105.0931,39.6183,0.0],[-105.0914,39.6183,0.0],[-105.0843,39.6186,0.0],[-105.0748,39.6185,0.0],[-105.0651,39.6186,0.0],[-105.0659,39.6208,0.0],[-105.076,39.6242,0.0],[-105.0763,39.625,0.0],[-105.0802,39.6294,0.0],[-105.0816,39.6301,0.0],[-105.0817,39.6313,0.0],[-105.0818,39.6313,0.0],[-105.0837,39.6313,0.0],[-105.0837,39.6302,0.0],[-105.0818,39.6302,0.0],[-105.0817,39.6273,0.0],[-105.0838,39.6273,0.0],[-105.0838,39.6285,0.0],[-105.0856,39.6285,0.0],[-105.0856,39.6261,0.0],[-105.0874,39.626,0.0],[-105.0874,39.6271,0.0],[-105.0886,39.6271,0.0],[-105.0912,39.6271,0.0],[-105.0911,39.6292,0.0],[-105.0872,39.63,0.0],[-105.0836,39.6336,0.0],[-105.0823,39.6356,0.0],[-105.0819,39.6369,0.0],[-105.0817,39.6388,0.0],[-105.0816,39.6362,0.0],[-105.0803,39.6362,0.0],[-105.0797,39.6367,0.0],[-105.0733,39.6365,0.0],[-105.0733,39.6387,0.0],[-105.0601,39.6388,0.0],[-105.0594,39.6388,0.0],[-105.0595,39.6347,0.0],[-105.057,39.6317,0.0],[-105.0535,39.6295,0.0],[-105.0533,39.628,0.0],[-105.0558,39.626,0.0],[-105.0558,39.6242,0.0],[-105.0534,39.6244,0.0],[-105.0534,39.6214,0.0],[-105.0572,39.6216,0.0],[-105.0564,39.6199,0.0],[-105.0582,39.6172,0.0],[-105.0581,39.6144,0.0],[-105.0642,39.6146,0.0],[-105.0914,39.6145,0.0],[-105.0969,39.6145,0.0],[-105.097,39.618,0.0],[-105.0938,39.6183,0.0]],[[-105.0809,39.6349,0.0],[-105.0809,39.6357,0.0],[-105.0816,39.6357,0.0],[-105.0816,39.6349,0.0],[-105.0809,39.6349,0.0]]]]}},{"type":"Feature","properties":{"uesi_id":"USA_R1411339","nbhd_code":"USA_R1411339_49","nbhd_name":"Census Tract 46.02"},"geometry":{"type":"MultiPolygon","coordinates":[[[[-105.0391,39.6895,0.0],[-105.039,39.6968,0.0],[-105.0351,39.6972,0.0],[-105.0321,39.6967,0.0],[-105.0251,39.6967,0.0],[-105.0251,39.6931,0.0],[-105.0251,39.6895,0.0],[-105.0251,39.6867,0.0],[-105.0248,39.6859,0.0],[-105.025,39.685,0.0],[-105.025,39.6823,0.0],[-105.0298,39.6822,0.0],[-105.0383,39.6822,0.0],[-105.0383,39.6827,0.0],[-105.0391,39.6844,0.0],[-105.0391,39.6895,0.0]]]]}},{"type":"Feature","properties":{"uesi_id":"USA_R1411339","nbhd_code":"USA_R1411339_50","nbhd_name":"Census Tract 47"},"geometry":{"type":"MultiPolygon","coordinates":[[[[-105.0626,39.6793,0.0],[-105.0614,39.6783,0.0],[-105.0578,39.6787,0.0],[-105.0578,39.6823,0.0],[-105.0573,39.6823,0.0],[-105.0532,39.6823,0.0],[-105.0443,39.6822,0.0],[-105.0383,39.6822,0.0],[-105.0383,39.6792,0.0],[-105.0386,39.6778,0.0],[-105.0387,39.6723,0.0],[-105.0387,39.6677,0.0],[-105.0418,39.6677,0.0],[-105.0533,39.6678,0.0],[-105.0533,39.6733,0.0],[-105.0532,39.6743,0.0],[-105.0533,39.675,0.0],[-105.0626,39.675,0.0],[-105.0626,39.6793,0.0]]]]}},{"type":"Feature","properties":{"uesi_id":"USA_R1411339","nbhd_code":"USA_R1411339_51","nbhd_name":"Census Tract 50.02"},"geometry":{"type":"MultiPolygon","coordinates":[[[[-104.9129,39.6953,0.0],[-104.9128,39.7028,0.0],[-104.9128,39.7038,0.0],[-104.9128,39.7114,0.0],[-104.9101,39.7114,0.0],[-104.9065,39.7114,0.0],[-104.9035,39.7113,0.0],[-104.9035,39.6985,0.0],[-104.9035,39.6966,0.0],[-104.9001,39.693,0.0],[-104.9035,39.6926,0.0],[-104.9035,39.6894,0.0],[-104.9035,39.6874,0.0],[-104.9034,39.6855,0.0],[-104.9047,39.686,0.0],[-104.9084,39.6882,0.0],[-104.9115,39.6903,0.0],[-104.9129,39.6909,0.0],[-104.9129,39.6914,0.0],[-104.9129,39.6917,0.0],[-104.9129,39.6953,0.0]]]]}},{"type":"Feature","properties":{"uesi_id":"USA_R1411339","nbhd_code":"USA_R1411339_52","nbhd_name":"Census Tract 52"},"geometry":{"type":"MultiPolygon","coordinates":[[[[-104.9223,39.6959,0.0],[-104.9221,39.6963,0.0],[-104.914,39.6917,0.0],[-104.9129,39.6909,0.0],[-104.9115,39.6903,0.0],[-104.9084,39.6882,0.0],[-104.9047,39.686,0.0],[-104.9034,39.6855,0.0],[-104.9034,39.6849,0.0],[-104.905,39.6859,0.0],[-104.9051,39.6839,0.0],[-104.9039,39.6803,0.0],[-104.9081,39.6803,0.0],[-104.9081,39.6797,0.0],[-104.9063,39.6784,0.0],[-104.9128,39.6785,0.0],[-104.9223,39.6785,0.0],[-104.9222,39.6821,0.0],[-104.9223,39.6862,0.0],[-104.9223,39.6894,0.0],[-104.9223,39.693,0.0],[-104.9223,39.6959,0.0]],[[-104.9082,39.6799,0.0],[-104.9082,39.6803,0.0],[-104.9082,39.6821,0.0],[-104.911,39.6821,0.0],[-104.911,39.6799,0.0],[-104.9082,39.6799,0.0]]]]}},{"type":"Feature","properties":{"uesi_id":"USA_R1411339","nbhd_code":"USA_R1411339_53","nbhd_name":"Census Tract 55.02"},"geometry":{"type":"MultiPolygon","coordinates":[[[[-105.0533,39.6456,0.0],[-105.0531,39.6532,0.0],[-105.0531,39.6533,0.0],[-105.0486,39.6534,0.0],[-105.0414,39.6543,0.0],[-105.0379,39.6546,0.0],[-105.0361,39.6543,0.0],[-105.034,39.6535,0.0],[-105.0342,39.6533,0.0],[-105.0346,39.6469,0.0],[-105.0347,39.644,0.0],[-105.0312,39.644,0.0],[-105.03,39.6422,0.0],[-105.03,39.6386,0.0],[-105.0347,39.6386,0.0],[-105.0449,39.6386,0.0],[-105.0453,39.6386,0.0],[-105.0492,39.6387,0.0],[-105.0533,39.6398,0.0],[-105.0533,39.6456,0.0]]]]}},{"type":"Feature","properties":{"uesi_id":"USA_R1411339","nbhd_code":"USA_R1411339_54","nbhd_name":"Census Tract 68.04"},"geometry":{"type":"MultiPolygon","coordinates":[[[[-104.9059,39.634,0.0],[-104.9019,39.6354,0.0],[-104.9015,39.6347,0.0],[-104.8929,39.6357,0.0],[-104.8868,39.6385,0.0],[-104.8851,39.6399,0.0],[-104.8851,39.6393,0.0],[-104.8852,39.6313,0.0],[-104.8853,39.6241,0.0],[-104.8878,39.624,0.0],[-104.8897,39.6241,0.0],[-104.8945,39.624,0.0],[-104.9017,39.6237,0.0],[-104.9045,39.6287,0.0],[-104.9071,39.6343,0.0],[-104.9059,39.634,0.0]]]]}},{"type":"Feature","properties":{"uesi_id":"USA_R1411339","nbhd_code":"USA_R1411339_55","nbhd_name":"Census Tract 68.10"},"geometry":{"type":"MultiPolygon","coordinates":[[[[-104.9008,39.6531,0.0],[-104.8988,39.6531,0.0],[-104.8848,39.6531,0.0],[-104.8801,39.6531,0.0],[-104.8803,39.6459,0.0],[-104.8804,39.6422,0.0],[-104.8803,39.6415,0.0],[-104.8851,39.6393,0.0],[-104.8851,39.6399,0.0],[-104.8868,39.6385,0.0],[-104.8929,39.6357,0.0],[-104.8938,39.6382,0.0],[-104.894,39.6387,0.0],[-104.8944,39.6418,0.0],[-104.8942,39.6433,0.0],[-104.8981,39.649,0.0],[-104.8998,39.6511,0.0],[-104.9008,39.6531,0.0]]]]}},{"type":"Feature","properties":{"uesi_id":"USA_R1411339","nbhd_code":"USA_R1411339_56","nbhd_name":"Census Tract 69.01"},"geometry":{"type":"MultiPolygon","coordinates":[[[[-104.9337,39.6785,0.0],[-104.9316,39.6785,0.0],[-104.9223,39.6785,0.0],[-104.9128,39.6785,0.0],[-104.9063,39.6784,0.0],[-104.9056,39.6783,0.0],[-104.9036,39.6767,0.0],[-104.9035,39.6745,0.0],[-104.9035,39.6712,0.0],[-104.9035,39.6676,0.0],[-104.9048,39.6676,0.0],[-104.9062,39.6676,0.0],[-104.9129,39.6676,0.0],[-104.9164,39.6676,0.0],[-104.9175,39.6676,0.0],[-104.9176,39.673,0.0],[-104.9192,39.6739,0.0],[-104.9205,39.6741,0.0],[-104.921,39.6748,0.0],[-104.9223,39.6756,0.0],[-104.9248,39.6762,0.0],[-104.9257,39.6766,0.0],[-104.9257,39.6753,0.0],[-104.9302,39.6748,0.0],[-104.9264,39.6694,0.0],[-104.9227,39.6676,0.0],[-104.9257,39.6675,0.0],[-104.9263,39.6675,0.0],[-104.9264,39.6676,0.0],[-104.9268,39.6686,0.0],[-104.9278,39.6706,0.0],[-104.9308,39.6748,0.0],[-104.934,39.6784,0.0],[-104.9337,39.6785,0.0]]]]}},{"type":"Feature","properties":{"uesi_id":"USA_R1411339","nbhd_code":"USA_R1411339_57","nbhd_name":"Census Tract 70.13"},"geometry":{"type":"MultiPolygon","coordinates":[[[[-104.8988,39.6893,0.0],[-104.8988,39.693,0.0],[-104.8942,39.693,0.0],[-104.8941,39.6929,0.0],[-104.8941,39.6864,0.0],[-104.8941,39.6857,0.0],[-104.8893,39.6857,0.0],[-104.8893,39.6827,0.0],[-104.8893,39.6821,0.0],[-104.894,39.6821,0.0],[-104.8945,39.6785,0.0],[-104.8974,39.6785,0.0],[-104.8983,39.6785,0.0],[-104.9034,39.6786,0.0],[-104.9034,39.6849,0.0],[-104.9034,39.6855,0.0],[-104.9035,39.6874,0.0],[-104.9035,39.6894,0.0],[-104.8988,39.6893,0.0]],[[-104.8988,39.6834,0.0],[-104.8988,39.6857,0.0],[-104.9027,39.6857,0.0],[-104.8988,39.6834,0.0]]]]}},{"type":"Feature","properties":{"uesi_id":"USA_R1411339","nbhd_code":"USA_R1411339_58","nbhd_name":"Census Tract 70.37"},"geometry":{"type":"MultiPolygon","coordinates":[[[[-104.8754,39.709,0.0],[-104.8707,39.7102,0.0],[-104.866,39.7111,0.0],[-104.866,39.7043,0.0],[-104.8689,39.703,0.0],[-104.8706,39.7005,0.0],[-104.8707,39.6985,0.0],[-104.866,39.6991,0.0],[-104.866,39.6966,0.0],[-104.8742,39.6965,0.0],[-104.8753,39.6965,0.0],[-104.8753,39.698,0.0],[-104.8753,39.7001,0.0],[-104.8754,39.7019,0.0],[-104.8753,39.7034,0.0],[-104.8754,39.709,0.0]]]]}},{"type":"Feature","properties":{"uesi_id":"USA_R1411339","nbhd_code":"USA_R1411339_59","nbhd_name":"Census Tract 83.06"},"geometry":{"type":"MultiPolygon","coordinates":[[[[-104.8471,39.7893,0.0],[-104.8438,39.7893,0.0],[-104.8402,39.7893,0.0],[-104.8363,39.791,0.0],[-104.8356,39.7911,0.0],[-104.8345,39.7911,0.0],[-104.8282,39.7887,0.0],[-104.8312,39.7843,0.0],[-104.8324,39.7827,0.0],[-104.8385,39.7805,0.0],[-104.8398,39.7793,0.0],[-104.8416,39.7805,0.0],[-104.8429,39.7813,0.0],[-104.847,39.7824,0.0],[-104.847,39.7864,0.0],[-104.8471,39.7893,0.0]]]]}},{"type":"Feature","properties":{"uesi_id":"USA_R1411339","nbhd_code":"USA_R1411339_60","nbhd_name":"Census Tract 83.86"},"geometry":{"type":"MultiPolygon","coordinates":[[[[-104.8203,39.7958,0.0],[-104.82,39.7983,0.0],[-104.8097,39.7983,0.0],[-104.8097,39.7948,0.0],[-104.8098,39.7838,0.0],[-104.8108,39.7839,0.0],[-104.8184,39.7861,0.0],[-104.8172,39.7887,0.0],[-104.82,39.7893,0.0],[-104.8189,39.7919,0.0],[-104.8237,39.793,0.0],[-104.8203,39.7958,0.0]]]]}},{"type":"Feature","properties":{"uesi_id":"USA_R1411339","nbhd_code":"USA_R1411339_61","nbhd_name":"Census Tract 83.89"},"geometry":{"type":"MultiPolygon","coordinates":[[[[-104.7721,39.7984,0.0],[-104.7626,39.7984,0.0],[-104.7344,39.7984,0.0],[-104.7345,39.7829,0.0],[-104.7345,39.7817,0.0],[-104.7404,39.7816,0.0],[-104.7433,39.781,0.0],[-104.7503,39.7812,0.0],[-104.7553,39.7828,0.0],[-104.7583,39.7836,0.0],[-104.7611,39.7837,0.0],[-104.7721,39.7836,0.0],[-104.7721,39.7984,0.0]]]]}},{"type":"Feature","properties":{"uesi_id":"USA_R1411339","nbhd_code":"USA_R1411339_62","nbhd_name":"Census Tract 119.03"},"geometry":{"type":"MultiPolygon","coordinates":[[[[-105.0815,39.6656,0.0],[-105.0815,39.6677,0.0],[-105.0814,39.6701,0.0],[-105.0767,39.6691,0.0],[-105.0745,39.6703,0.0],[-105.072,39.6693,0.0],[-105.072,39.6678,0.0],[-105.0673,39.6678,0.0],[-105.0673,39.6642,0.0],[-105.0673,39.6633,0.0],[-105.0701,39.6636,0.0],[-105.0718,39.6607,0.0],[-105.072,39.66,0.0],[-105.0767,39.6593,0.0],[-105.0792,39.662,0.0],[-105.0815,39.6621,0.0],[-105.0815,39.6656,0.0]]]]}},{"type":"Feature","properties":{"uesi_id":"USA_R1411339","nbhd_code":"USA_R1411339_63","nbhd_name":"Census Tract 3.02"},"geometry":{"type":"MultiPolygon","coordinates":[[[[-105.0532,39.7639,0.0],[-105.0532,39.7648,0.0],[-105.0532,39.7693,0.0],[-105.0463,39.7694,0.0],[-105.044,39.7694,0.0],[-105.0405,39.7695,0.0],[-105.0393,39.7694,0.0],[-105.0393,39.764,0.0],[-105.0393,39.7585,0.0],[-105.044,39.7585,0.0],[-105.0532,39.7585,0.0],[-105.0532,39.7621,0.0],[-105.0532,39.7639,0.0]]]]}},{"type":"Feature","properties":{"uesi_id":"USA_R1411339","nbhd_code":"USA_R1411339_64","nbhd_name":"Census Tract 4.02"},"geometry":{"type":"MultiPolygon","coordinates":[[[[-105.0252,39.7693,0.0],[-105.019,39.7693,0.0],[-105.0174,39.7693,0.0],[-105.0147,39.7693,0.0],[-105.0144,39.7693,0.0],[-105.0112,39.7693,0.0],[-105.0112,39.7656,0.0],[-105.0112,39.762,0.0],[-105.011,39.7596,0.0],[-105.009,39.7581,0.0],[-105.0127,39.7554,0.0],[-105.0146,39.7561,0.0],[-105.0158,39.7563,0.0],[-105.0205,39.758,0.0],[-105.0214,39.7585,0.0],[-105.0252,39.7585,0.0],[-105.0252,39.762,0.0],[-105.0253,39.7647,0.0],[-105.0252,39.7656,0.0],[-105.0253,39.7661,0.0],[-105.0252,39.7693,0.0]]]]}},{"type":"Feature","properties":{"uesi_id":"USA_R1411339","nbhd_code":"USA_R1411339_65","nbhd_name":"Census Tract 5.02"},"geometry":{"type":"MultiPolygon","coordinates":[[[[-105.0393,39.7549,0.0],[-105.0393,39.7585,0.0],[-105.0346,39.7585,0.0],[-105.0299,39.7585,0.0],[-105.0252,39.7585,0.0],[-105.0252,39.7548,0.0],[-105.0253,39.75,0.0],[-105.0252,39.7464,0.0],[-105.0315,39.7464,0.0],[-105.0349,39.7464,0.0],[-105.0358,39.7464,0.0],[-105.037,39.7476,0.0],[-105.0393,39.7476,0.0],[-105.0393,39.7549,0.0]]]]}},{"type":"Feature","properties":{"uesi_id":"USA_R1411339","nbhd_code":"USA_R1411339_66","nbhd_name":"Census Tract 11.01"},"geometry":{"type":"MultiPolygon","coordinates":[[[[-105.0112,39.7729,0.0],[-105.0112,39.7766,0.0],[-105.0064,39.7765,0.0],[-105.0042,39.7766,0.0],[-104.9982,39.7765,0.0],[-104.9982,39.773,0.0],[-104.9982,39.7693,0.0],[-105.0041,39.7693,0.0],[-105.0112,39.7693,0.0],[-105.0112,39.7729,0.0]]]]}},{"type":"Feature","properties":{"uesi_id":"USA_R1411339","nbhd_code":"USA_R1411339_67","nbhd_name":"Census Tract 16"},"geometry":{"type":"MultiPolygon","coordinates":[[[[-105.0,39.7614,0.0],[-104.9984,39.7621,0.0],[-104.9955,39.763,0.0],[-104.992,39.7655,0.0],[-104.9848,39.7674,0.0],[-104.9785,39.7751,0.0],[-104.9784,39.7753,0.0],[-104.9719,39.7703,0.0],[-104.9733,39.7692,0.0],[-104.9733,39.7682,0.0],[-104.9733,39.7679,0.0],[-104.9733,39.7658,0.0],[-104.9733,39.762,0.0],[-104.9739,39.762,0.0],[-104.977,39.7596,0.0],[-104.9819,39.7559,0.0],[-104.9855,39.7531,0.0],[-104.9874,39.7516,0.0],[-104.9874,39.7489,0.0],[-104.9917,39.7523,0.0],[-104.9943,39.7543,0.0],[-104.996,39.7556,0.0],[-104.9998,39.7587,0.0],[-105.0029,39.7606,0.0],[-105.0,39.7614,0.0]]]]}},{"type":"Feature","properties":{"uesi_id":"USA_R1411339","nbhd_code":"USA_R1411339_68","nbhd_name":"Census Tract 19.02"},"geometry":{"type":"MultiPolygon","coordinates":[[[[-105.0163,39.7434,0.0],[-105.0157,39.7447,0.0],[-105.0151,39.7499,0.0],[-105.0125,39.7514,0.0],[-105.0095,39.7539,0.0],[-105.0082,39.7548,0.0],[-105.0078,39.7535,0.0],[-105.0034,39.75,0.0],[-105.0014,39.7485,0.0],[-105.0004,39.7455,0.0],[-105.0002,39.7435,0.0],[-104.9986,39.7402,0.0],[-105.0001,39.7402,0.0],[-105.0028,39.7402,0.0],[-105.0174,39.7405,0.0],[-105.0163,39.7434,0.0]]]]}},{"type":"Feature","properties":{"uesi_id":"USA_R1411339","nbhd_code":"USA_R1411339_69","nbhd_name":"Census Tract 26.02"},"geometry":{"type":"MultiPolygon","coordinates":[[[[-104.9811,39.7475,0.0],[-104.9782,39.7475,0.0],[-104.9734,39.7438,0.0],[-104.9734,39.7432,0.0],[-104.9734,39.74,0.0],[-104.9799,39.74,0.0],[-104.9799,39.7433,0.0],[-104.9799,39.7462,0.0],[-104.9811,39.7475,0.0]]]]}},{"type":"Feature","properties":{"uesi_id":"USA_R1411339","nbhd_code":"USA_R1411339_70","nbhd_name":"Census Tract 27.03"},"geometry":{"type":"MultiPolygon","coordinates":[[[[-104.9799,39.74,0.0],[-104.9734,39.74,0.0],[-104.973,39.74,0.0],[-104.973,39.7369,0.0],[-104.973,39.7352,0.0],[-104.973,39.7337,0.0],[-104.973,39.732,0.0],[-104.9787,39.732,0.0],[-104.9798,39.732,0.0],[-104.9799,39.7337,0.0],[-104.9799,39.7352,0.0],[-104.9799,39.7369,0.0],[-104.9799,39.74,0.0]]]]}},{"type":"Feature","properties":{"uesi_id":"USA_R1411339","nbhd_code":"USA_R1411339_71","nbhd_name":"Census Tract 30.02"},"geometry":{"type":"MultiPolygon","coordinates":[[[[-104.9876,39.6785,0.0],[-104.9829,39.6786,0.0],[-104.9781,39.6785,0.0],[-104.9734,39.6785,0.0],[-104.9735,39.6749,0.0],[-104.9735,39.6695,0.0],[-104.9746,39.6677,0.0],[-104.9783,39.6677,0.0],[-104.9828,39.6677,0.0],[-104.9876,39.6677,0.0],[-104.9876,39.6785,0.0]]]]}},{"type":"Feature","properties":{"uesi_id":"USA_R1411339","nbhd_code":"USA_R1411339_72","nbhd_name":"Census Tract 32.02"},"geometry":{"type":"MultiPolygon","coordinates":[[[[-104.9646,39.7305,0.0],[-104.9645,39.7335,0.0],[-104.965,39.7354,0.0],[-104.9648,39.7368,0.0],[-104.9648,39.74,0.0],[-104.9598,39.74,0.0],[-104.9598,39.7368,0.0],[-104.9598,39.7335,0.0],[-104.9598,39.7311,0.0],[-104.9602,39.7291,0.0],[-104.9659,39.7291,0.0],[-104.9646,39.7305,0.0]]]]}},{"type":"Feature","properties":{"uesi_id":"USA_R1411339","nbhd_code":"USA_R1411339_73","nbhd_name":"Census Tract 35"},"geometry":{"type":"MultiPolygon","coordinates":[[[[-104.9778,39.7764,0.0],[-104.9778,39.7795,0.0],[-104.9756,39.7832,0.0],[-104.9754,39.7855,0.0],[-104.9749,39.7867,0.0],[-104.9689,39.791,0.0],[-104.9603,39.791,0.0],[-104.9554,39.7947,0.0],[-104.9497,39.7947,0.0],[-104.9405,39.7946,0.0],[-104.9405,39.7919,0.0],[-104.9399,39.791,0.0],[-104.9403,39.7891,0.0],[-104.9405,39.78,0.0],[-104.9405,39.7729,0.0],[-104.9498,39.7729,0.0],[-104.9594,39.7729,0.0],[-104.9685,39.7729,0.0],[-104.9719,39.7703,0.0],[-104.9784,39.7753,0.0],[-104.9778,39.7764,0.0]]]]}},{"type":"Feature","properties":{"uesi_id":"USA_R1411339","nbhd_code":"USA_R1411339_74","nbhd_name":"Census Tract 39.02"},"geometry":{"type":"MultiPolygon","coordinates":[[[[-104.9593,39.6911,0.0],[-104.9593,39.693,0.0],[-104.9593,39.6966,0.0],[-104.95,39.6966,0.0],[-104.9406,39.6966,0.0],[-104.9406,39.6948,0.0],[-104.9406,39.6929,0.0],[-104.9405,39.6893,0.0],[-104.9406,39.6857,0.0],[-104.9404,39.6831,0.0],[-104.9404,39.6829,0.0],[-104.9479,39.6845,0.0],[-104.9505,39.6847,0.0],[-104.9594,39.6847,0.0],[-104.9593,39.6911,0.0]]]]}},{"type":"Feature","properties":{"uesi_id":"USA_R1411339","nbhd_code":"USA_R1411339_75","nbhd_name":"Census Tract 41.03"},"geometry":{"type":"MultiPolygon","coordinates":[[[[-104.9405,39.7547,0.0],[-104.9405,39.7583,0.0],[-104.9405,39.762,0.0],[-104.9319,39.762,0.0],[-104.9223,39.762,0.0],[-104.9223,39.7584,0.0],[-104.9223,39.7547,0.0],[-104.9223,39.7511,0.0],[-104.9317,39.7511,0.0],[-104.9406,39.751,0.0],[-104.9405,39.7547,0.0]]]]}},{"type":"Feature","properties":{"uesi_id":"USA_R1411339","nbhd_code":"USA_R1411339_76","nbhd_name":"Census Tract 41.07"},"geometry":{"type":"MultiPolygon","coordinates":[[[[-104.9036,39.7787,0.0],[-104.9025,39.7812,0.0],[-104.9002,39.7839,0.0],[-104.9034,39.784,0.0],[-104.9036,39.7984,0.0],[-104.9014,39.7984,0.0],[-104.9005,39.7984,0.0],[-104.9004,39.8011,0.0],[-104.8969,39.8012,0.0],[-104.8969,39.7984,0.0],[-104.8962,39.7983,0.0],[-104.8846,39.7983,0.0],[-104.8817,39.7907,0.0],[-104.8821,39.7771,0.0],[-104.8845,39.7703,0.0],[-104.8867,39.7699,0.0],[-104.8875,39.7675,0.0],[-104.8903,39.7673,0.0],[-104.8904,39.759,0.0],[-104.8907,39.7561,0.0],[-104.8902,39.7523,0.0],[-104.8867,39.7496,0.0],[-104.8849,39.7481,0.0],[-104.8847,39.7475,0.0],[-104.8882,39.7475,0.0],[-104.894,39.7475,0.0],[-104.8988,39.7474,0.0],[-104.8987,39.751,0.0],[-104.9034,39.751,0.0],[-104.9034,39.7547,0.0],[-104.9035,39.7584,0.0],[-104.9034,39.762,0.0],[-104.9034,39.7656,0.0],[-104.9036,39.7787,0.0]]]]}},{"type":"Feature","properties":{"uesi_id":"USA_R1411339","nbhd_code":"USA_R1411339_77","nbhd_name":"Census Tract 44.05"},"geometry":{"type":"MultiPolygon","coordinates":[[[[-104.9035,39.7224,0.0],[-104.9035,39.7253,0.0],[-104.9034,39.7256,0.0],[-104.9035,39.7329,0.0],[-104.8913,39.7329,0.0],[-104.8847,39.7328,0.0],[-104.8851,39.7302,0.0],[-104.8866,39.7292,0.0],[-104.8819,39.725,0.0],[-104.8797,39.7256,0.0],[-104.8753,39.7256,0.0],[-104.8753,39.7201,0.0],[-104.8753,39.7197,0.0],[-104.8749,39.7184,0.0],[-104.8743,39.7182,0.0],[-104.8708,39.7182,0.0],[-104.8707,39.7102,0.0],[-104.8754,39.709,0.0],[-104.879,39.7082,0.0],[-104.884,39.707,0.0],[-104.8853,39.7072,0.0],[-104.8921,39.7111,0.0],[-104.8928,39.7114,0.0],[-104.8932,39.7113,0.0],[-104.9035,39.7113,0.0],[-104.9035,39.7133,0.0],[-104.9037,39.7171,0.0],[-104.9035,39.7224,0.0]]]]}},{"type":"Feature","properties":{"uesi_id":"USA_R1411339","nbhd_code":"USA_R1411339_78","nbhd_name":"Census Tract 45.04"},"geometry":{"type":"MultiPolygon","coordinates":[[[[-105.0533,39.7113,0.0],[-105.0461,39.7113,0.0],[-105.0433,39.7113,0.0],[-105.0397,39.7112,0.0],[-105.0397,39.7063,0.0],[-105.0431,39.704,0.0],[-105.0432,39.7043,0.0],[-105.0499,39.7043,0.0],[-105.0532,39.7033,0.0],[-105.0532,39.704,0.0],[-105.0532,39.7058,0.0],[-105.0533,39.7113,0.0]]]]}},{"type":"Feature","properties":{"uesi_id":"USA_R1411339","nbhd_code":"USA_R1411339_79","nbhd_name":"Census Tract 50.01"},"geometry":{"type":"MultiPolygon","coordinates":[[[[-104.9223,39.7113,0.0],[-104.9176,39.7114,0.0],[-104.9128,39.7114,0.0],[-104.9128,39.7038,0.0],[-104.9128,39.7028,0.0],[-104.9129,39.6953,0.0],[-104.9129,39.6917,0.0],[-104.9129,39.6914,0.0],[-104.9129,39.6909,0.0],[-104.914,39.6917,0.0],[-104.9221,39.6963,0.0],[-104.9219,39.6966,0.0],[-104.9216,39.6976,0.0],[-104.9216,39.7039,0.0],[-104.9222,39.7059,0.0],[-104.9223,39.7113,0.0]]]]}},{"type":"Feature","properties":{"uesi_id":"USA_R1411339","nbhd_code":"USA_R1411339_80","nbhd_name":"Census Tract 51.02"},"geometry":{"type":"MultiPolygon","coordinates":[[[[-104.9317,39.6966,0.0],[-104.9299,39.6966,0.0],[-104.9279,39.6967,0.0],[-104.9242,39.6967,0.0],[-104.9238,39.6968,0.0],[-104.9223,39.6959,0.0],[-104.9223,39.693,0.0],[-104.9223,39.6894,0.0],[-104.9223,39.6862,0.0],[-104.9222,39.6821,0.0],[-104.9223,39.6785,0.0],[-104.9316,39.6785,0.0],[-104.9317,39.6843,0.0],[-104.9317,39.6857,0.0],[-104.9317,39.6893,0.0],[-104.9317,39.693,0.0],[-104.9317,39.6966,0.0]]]]}},{"type":"Feature","properties":{"uesi_id":"USA_R1411339","nbhd_code":"USA_R1411339_81","nbhd_name":"Census Tract 37.02"},"geometry":{"type":"MultiPolygon","coordinates":[[[[-104.9598,39.7368,0.0],[-104.9598,39.74,0.0],[-104.9581,39.7402,0.0],[-104.9542,39.7402,0.0],[-104.9501,39.7402,0.0],[-104.9495,39.7402,0.0],[-104.9495,39.7368,0.0],[-104.9495,39.7321,0.0],[-104.9541,39.7321,0.0],[-104.9541,39.7337,0.0],[-104.9598,39.7335,0.0],[-104.9598,39.7368,0.0]]]]}},{"type":"Feature","properties":{"uesi_id":"USA_R1411339","nbhd_code":"USA_R1411339_82","nbhd_name":"Census Tract 38"},"geometry":{"type":"MultiPolygon","coordinates":[[[[-104.9602,39.7256,0.0],[-104.9555,39.7256,0.0],[-104.9498,39.7256,0.0],[-104.9495,39.7256,0.0],[-104.9406,39.7256,0.0],[-104.9406,39.7209,0.0],[-104.9406,39.7184,0.0],[-104.9406,39.7178,0.0],[-104.9406,39.7116,0.0],[-104.9413,39.7116,0.0],[-104.9462,39.7115,0.0],[-104.9485,39.7118,0.0],[-104.9501,39.7134,0.0],[-104.954,39.7154,0.0],[-104.9593,39.7153,0.0],[-104.9593,39.7183,0.0],[-104.9594,39.7194,0.0],[-104.9594,39.7226,0.0],[-104.9595,39.725,0.0],[-104.9602,39.7256,0.0]]]]}},{"type":"Feature","properties":{"uesi_id":"USA_R1411339","nbhd_code":"USA_R1411339_83","nbhd_name":"Census Tract 55.03"},"geometry":{"type":"MultiPolygon","coordinates":[[[[-105.0533,39.6389,0.0],[-105.0533,39.6398,0.0],[-105.0492,39.6387,0.0],[-105.0453,39.6386,0.0],[-105.0449,39.6386,0.0],[-105.0347,39.6386,0.0],[-105.0347,39.6351,0.0],[-105.0348,39.6336,0.0],[-105.0301,39.6335,0.0],[-105.0296,39.6324,0.0],[-105.0254,39.6314,0.0],[-105.0254,39.6286,0.0],[-105.0276,39.6282,0.0],[-105.0291,39.6278,0.0],[-105.0348,39.6281,0.0],[-105.0348,39.6278,0.0],[-105.0368,39.6281,0.0],[-105.038,39.6268,0.0],[-105.0418,39.6279,0.0],[-105.0423,39.6282,0.0],[-105.044,39.628,0.0],[-105.0443,39.6316,0.0],[-105.0457,39.6316,0.0],[-105.0534,39.6316,0.0],[-105.0533,39.6389,0.0]]]]}},{"type":"Feature","properties":{"uesi_id":"USA_R1411339","nbhd_code":"USA_R1411339_84","nbhd_name":"Census Tract 68.14"},"geometry":{"type":"MultiPolygon","coordinates":[[[[-104.8901,39.6676,0.0],[-104.8841,39.6675,0.0],[-104.8793,39.6639,0.0],[-104.8788,39.6633,0.0],[-104.8744,39.6638,0.0],[-104.8701,39.6628,0.0],[-104.8689,39.6622,0.0],[-104.8674,39.66,0.0],[-104.8664,39.6594,0.0],[-104.8667,39.6551,0.0],[-104.8675,39.6541,0.0],[-104.8692,39.6532,0.0],[-104.8757,39.653,0.0],[-104.8775,39.6531,0.0],[-104.8801,39.6531,0.0],[-104.8848,39.6531,0.0],[-104.8847,39.6572,0.0],[-104.8847,39.6579,0.0],[-104.8847,39.6599,0.0],[-104.8851,39.6603,0.0],[-104.8871,39.6619,0.0],[-104.8902,39.6644,0.0],[-104.888,39.6658,0.0],[-104.8923,39.6682,0.0],[-104.8901,39.6676,0.0]]]]}},{"type":"Feature","properties":{"uesi_id":"USA_R1411339","nbhd_code":"USA_R1411339_85","nbhd_name":"Census Tract 70.88"},"geometry":{"type":"MultiPolygon","coordinates":[[[[-104.9035,39.7113,0.0],[-104.8932,39.7113,0.0],[-104.8928,39.7114,0.0],[-104.8923,39.7074,0.0],[-104.8904,39.7057,0.0],[-104.8901,39.7045,0.0],[-104.8906,39.7036,0.0],[-104.8817,39.7018,0.0],[-104.8787,39.7,0.0],[-104.8756,39.7001,0.0],[-104.8753,39.7001,0.0],[-104.8753,39.698,0.0],[-104.8777,39.698,0.0],[-104.8776,39.6965,0.0],[-104.8823,39.6966,0.0],[-104.8841,39.6965,0.0],[-104.8858,39.6965,0.0],[-104.8917,39.6966,0.0],[-104.8933,39.6966,0.0],[-104.8934,39.6957,0.0],[-104.8942,39.6966,0.0],[-104.8974,39.6963,0.0],[-104.8988,39.6951,0.0],[-104.8993,39.697,0.0],[-104.9035,39.6985,0.0],[-104.9035,39.7113,0.0]]]]}},{"type":"Feature","properties":{"uesi_id":"USA_R1411339","nbhd_code":"USA_R1411339_86","nbhd_name":"Census Tract 83.87"},"geometry":{"type":"MultiPolygon","coordinates":[[[[-104.8312,39.7843,0.0],[-104.8282,39.7887,0.0],[-104.8248,39.7906,0.0],[-104.8237,39.793,0.0],[-104.8189,39.7919,0.0],[-104.82,39.7893,0.0],[-104.8172,39.7887,0.0],[-104.8184,39.7861,0.0],[-104.8108,39.7839,0.0],[-104.8098,39.7838,0.0],[-104.8099,39.7768,0.0],[-104.8115,39.7768,0.0],[-104.8196,39.7791,0.0],[-104.8216,39.7791,0.0],[-104.824,39.7791,0.0],[-104.8247,39.7788,0.0],[-104.8257,39.7806,0.0],[-104.829,39.7834,0.0],[-104.8312,39.7843,0.0]]]]}},{"type":"Feature","properties":{"uesi_id":"USA_R1411339","nbhd_code":"USA_R1411339_87","nbhd_name":"Census Tract 119.02"},"geometry":{"type":"MultiPolygon","coordinates":[[[[-105.0701,39.6636,0.0],[-105.0673,39.6633,0.0],[-105.0673,39.6642,0.0],[-105.0673,39.6678,0.0],[-105.0601,39.6678,0.0],[-105.0533,39.6678,0.0],[-105.0532,39.6626,0.0],[-105.0532,39.6562,0.0],[-105.0532,39.6543,0.0],[-105.0531,39.6533,0.0],[-105.0571,39.6533,0.0],[-105.0572,39.6529,0.0],[-105.0582,39.6513,0.0],[-105.0621,39.6513,0.0],[-105.0639,39.6496,0.0],[-105.071,39.6496,0.0],[-105.0709,39.6505,0.0],[-105.067,39.6533,0.0],[-105.0673,39.6535,0.0],[-105.0673,39.6569,0.0],[-105.0701,39.6569,0.0],[-105.07,39.6591,0.0],[-105.072,39.66,0.0],[-105.0718,39.6607,0.0],[-105.0701,39.6636,0.0]],[[-105.0626,39.6524,0.0],[-105.0626,39.653,0.0],[-105.0635,39.653,0.0],[-105.0635,39.6524,0.0],[-105.0626,39.6524,0.0]]]]}},{"type":"Feature","properties":{"uesi_id":"USA_R1411339","nbhd_code":"USA_R1411339_88","nbhd_name":"Census Tract 3.03"},"geometry":{"type":"MultiPolygon","coordinates":[[[[-105.0393,39.7694,0.0],[-105.0346,39.7695,0.0],[-105.03,39.7694,0.0],[-105.0252,39.7693,0.0],[-105.0253,39.7661,0.0],[-105.0252,39.7656,0.0],[-105.0253,39.7647,0.0],[-105.0252,39.762,0.0],[-105.0252,39.7585,0.0],[-105.0299,39.7585,0.0],[-105.0346,39.7585,0.0],[-105.0393,39.7585,0.0],[-105.0393,39.764,0.0],[-105.0393,39.7694,0.0]]]]}},{"type":"Feature","properties":{"uesi_id":"USA_R1411339","nbhd_code":"USA_R1411339_89","nbhd_name":"Census Tract 5.01"},"geometry":{"type":"MultiPolygon","coordinates":[[[[-105.0532,39.7585,0.0],[-105.044,39.7585,0.0],[-105.0393,39.7585,0.0],[-105.0393,39.7549,0.0],[-105.0393,39.7476,0.0],[-105.037,39.7476,0.0],[-105.0358,39.7464,0.0],[-105.0358,39.7439,0.0],[-105.0393,39.744,0.0],[-105.0532,39.744,0.0],[-105.0532,39.7476,0.0],[-105.0532,39.7512,0.0],[-105.0532,39.7548,0.0],[-105.0532,39.7585,0.0]]]]}},{"type":"Feature","properties":{"uesi_id":"USA_R1411339","nbhd_code":"USA_R1411339_90","nbhd_name":"Census Tract 6"},"geometry":{"type":"MultiPolygon","coordinates":[[[[-105.0252,39.7548,0.0],[-105.0252,39.7585,0.0],[-105.0214,39.7585,0.0],[-105.0205,39.758,0.0],[-105.0158,39.7563,0.0],[-105.0146,39.7561,0.0],[-105.0127,39.7554,0.0],[-105.0117,39.755,0.0],[-105.0095,39.7539,0.0],[-105.0125,39.7514,0.0],[-105.0151,39.7499,0.0],[-105.0157,39.7447,0.0],[-105.0163,39.7434,0.0],[-105.019,39.7464,0.0],[-105.0205,39.7465,0.0],[-105.0205,39.7476,0.0],[-105.0236,39.7476,0.0],[-105.0252,39.7464,0.0],[-105.0253,39.75,0.0],[-105.0252,39.7548,0.0]]]]}},{"type":"Feature","properties":{"uesi_id":"USA_R1411339","nbhd_code":"USA_R1411339_91","nbhd_name":"Census Tract 8"},"geometry":{"type":"MultiPolygon","coordinates":[[[[-105.0252,39.7366,0.0],[-105.0251,39.738,0.0],[-105.0252,39.7427,0.0],[-105.0252,39.7464,0.0],[-105.0236,39.7476,0.0],[-105.0205,39.7476,0.0],[-105.0205,39.7465,0.0],[-105.019,39.7464,0.0],[-105.0163,39.7434,0.0],[-105.0174,39.7405,0.0],[-105.018,39.7385,0.0],[-105.017,39.7348,0.0],[-105.017,39.7298,0.0],[-105.0156,39.7273,0.0],[-105.0158,39.7255,0.0],[-105.0187,39.7253,0.0],[-105.0251,39.7255,0.0],[-105.0252,39.7293,0.0],[-105.0252,39.7312,0.0],[-105.0252,39.733,0.0],[-105.0252,39.7366,0.0]]]]}},{"type":"Feature","properties":{"uesi_id":"USA_R1411339","nbhd_code":"USA_R1411339_92","nbhd_name":"Census Tract 9.04"},"geometry":{"type":"MultiPolygon","coordinates":[[[[-105.0556,39.735,0.0],[-105.0532,39.735,0.0],[-105.0499,39.7353,0.0],[-105.0455,39.7348,0.0],[-105.0418,39.7348,0.0],[-105.0405,39.734,0.0],[-105.0393,39.7343,0.0],[-105.0394,39.733,0.0],[-105.0395,39.7306,0.0],[-105.0395,39.7283,0.0],[-105.0395,39.7257,0.0],[-105.044,39.7257,0.0],[-105.0463,39.7257,0.0],[-105.0485,39.7258,0.0],[-105.0533,39.7258,0.0],[-105.0532,39.7331,0.0],[-105.0555,39.7331,0.0],[-105.0556,39.7345,0.0],[-105.0556,39.735,0.0]]]]}},{"type":"Feature","properties":{"uesi_id":"USA_R1411339","nbhd_code":"USA_R1411339_93","nbhd_name":"Census Tract 10"},"geometry":{"type":"MultiPolygon","coordinates":[[[[-105.0251,39.7255,0.0],[-105.0187,39.7253,0.0],[-105.0158,39.7255,0.0],[-105.0158,39.7247,0.0],[-105.0121,39.7222,0.0],[-105.0092,39.7212,0.0],[-105.0067,39.7186,0.0],[-105.0034,39.7165,0.0],[-105.0018,39.7147,0.0],[-105.0001,39.7112,0.0],[-105.0016,39.7112,0.0],[-105.011,39.7112,0.0],[-105.0157,39.7112,0.0],[-105.0251,39.7112,0.0],[-105.0251,39.7148,0.0],[-105.0251,39.7166,0.0],[-105.0251,39.7203,0.0],[-105.0251,39.7255,0.0]]]]}},{"type":"Feature","properties":{"uesi_id":"USA_R1411339","nbhd_code":"USA_R1411339_94","nbhd_name":"Census Tract 14.01"},"geometry":{"type":"MultiPolygon","coordinates":[[[[-105.0251,39.6967,0.0],[-105.0157,39.6968,0.0],[-105.0127,39.6967,0.0],[-105.0066,39.6967,0.0],[-104.9924,39.6967,0.0],[-104.9939,39.6929,0.0],[-104.9948,39.692,0.0],[-104.9995,39.6897,0.0],[-104.9998,39.6891,0.0],[-105.0027,39.6894,0.0],[-105.0069,39.6895,0.0],[-105.0118,39.6895,0.0],[-105.0157,39.6895,0.0],[-105.0251,39.6895,0.0],[-105.0251,39.6931,0.0],[-105.0251,39.6967,0.0]]]]}},{"type":"Feature","properties":{"uesi_id":"USA_R1411339","nbhd_code":"USA_R1411339_95","nbhd_name":"Census Tract 14.03"},"geometry":{"type":"MultiPolygon","coordinates":[[[[-105.0018,39.6677,0.0],[-104.9991,39.6689,0.0],[-104.9979,39.6723,0.0],[-104.998,39.6785,0.0],[-104.9987,39.6803,0.0],[-105.0014,39.6825,0.0],[-105.0014,39.6832,0.0],[-104.9998,39.6891,0.0],[-104.9995,39.6897,0.0],[-104.9948,39.692,0.0],[-104.9939,39.6929,0.0],[-104.9924,39.6967,0.0],[-104.9874,39.6966,0.0],[-104.9875,39.6876,0.0],[-104.9876,39.6785,0.0],[-104.9876,39.6677,0.0],[-104.9911,39.6677,0.0],[-104.9999,39.6679,0.0],[-105.0018,39.6677,0.0]]]]}},{"type":"Feature","properties":{"uesi_id":"USA_R1411339","nbhd_code":"USA_R1411339_96","nbhd_name":"Census Tract 15"},"geometry":{"type":"MultiPolygon","coordinates":[[[[-104.9982,39.7693,0.0],[-104.9982,39.773,0.0],[-104.9982,39.7765,0.0],[-104.9983,39.7824,0.0],[-104.9978,39.7825,0.0],[-104.9978,39.7911,0.0],[-104.9967,39.7911,0.0],[-104.9934,39.7912,0.0],[-104.9908,39.7921,0.0],[-104.9888,39.7911,0.0],[-104.9759,39.791,0.0],[-104.9761,39.7923,0.0],[-104.9732,39.7925,0.0],[-104.9732,39.7941,0.0],[-104.9748,39.7942,0.0],[-104.9748,39.7956,0.0],[-104.9722,39.7956,0.0],[-104.9732,39.7963,0.0],[-104.9731,39.7983,0.0],[-104.9687,39.7984,0.0],[-104.9688,39.7938,0.0],[-104.9666,39.7938,0.0],[-104.9669,39.7933,0.0],[-104.9675,39.7933,0.0],[-104.9689,39.791,0.0],[-104.9749,39.7867,0.0],[-104.9754,39.7855,0.0],[-104.9756,39.7832,0.0],[-104.9778,39.7795,0.0],[-104.9778,39.7764,0.0],[-104.9784,39.7753,0.0],[-104.9785,39.7751,0.0],[-104.9848,39.7674,0.0],[-104.992,39.7655,0.0],[-104.9955,39.763,0.0],[-104.9984,39.7621,0.0],[-104.9982,39.7693,0.0]]]]}},{"type":"Feature","properties":{"uesi_id":"USA_R1411339","nbhd_code":"USA_R1411339_97","nbhd_name":"Census Tract 18"},"geometry":{"type":"MultiPolygon","coordinates":[[[[-105.0002,39.7337,0.0],[-105.0001,39.7402,0.0],[-104.9986,39.7402,0.0],[-104.9938,39.7337,0.0],[-104.9902,39.7289,0.0],[-104.9874,39.7269,0.0],[-104.9874,39.7256,0.0],[-104.9909,39.7257,0.0],[-104.9922,39.7257,0.0],[-105.0001,39.7257,0.0],[-105.0002,39.7265,0.0],[-105.0002,39.7337,0.0]]]]}},{"type":"Feature","properties":{"uesi_id":"USA_R1411339","nbhd_code":"USA_R1411339_98","nbhd_name":"Census Tract 20"},"geometry":{"type":"MultiPolygon","coordinates":[[[[-104.9986,39.7402,0.0],[-104.9901,39.7401,0.0],[-104.9885,39.7406,0.0],[-104.9874,39.7401,0.0],[-104.9874,39.7368,0.0],[-104.9874,39.7353,0.0],[-104.9874,39.7339,0.0],[-104.9874,39.732,0.0],[-104.9874,39.7291,0.0],[-104.9874,39.7273,0.0],[-104.9874,39.7269,0.0],[-104.9902,39.7289,0.0],[-104.9938,39.7337,0.0],[-104.9986,39.7402,0.0]]]]}},{"type":"Feature","properties":{"uesi_id":"USA_R1411339","nbhd_code":"USA_R1411339_99","nbhd_name":"Census Tract 24.02"},"geometry":{"type":"MultiPolygon","coordinates":[[[[-104.9781,39.7507,0.0],[-104.9782,39.7532,0.0],[-104.9781,39.7546,0.0],[-104.9734,39.7545,0.0],[-104.9734,39.7507,0.0],[-104.9733,39.747,0.0],[-104.9734,39.7438,0.0],[-104.9782,39.7475,0.0],[-104.9781,39.7507,0.0]]]]}},{"type":"Feature","properties":{"uesi_id":"USA_R1411339","nbhd_code":"USA_R1411339_100","nbhd_name":"Census Tract 41.06"},"geometry":{"type":"MultiPolygon","coordinates":[[[[-104.8904,39.759,0.0],[-104.8903,39.7673,0.0],[-104.8875,39.7675,0.0],[-104.8867,39.7699,0.0],[-104.8845,39.7703,0.0],[-104.8821,39.7771,0.0],[-104.8817,39.7907,0.0],[-104.8846,39.7983,0.0],[-104.8846,39.813,0.0],[-104.8661,39.813,0.0],[-104.866,39.7984,0.0],[-104.8664,39.7977,0.0],[-104.8665,39.7894,0.0],[-104.866,39.7756,0.0],[-104.847,39.774,0.0],[-104.8281,39.7724,0.0],[-104.828,39.7715,0.0],[-104.8283,39.7692,0.0],[-104.833,39.7692,0.0],[-104.833,39.7662,0.0],[-104.8376,39.7669,0.0],[-104.8565,39.7684,0.0],[-104.8566,39.7603,0.0],[-104.8564,39.7584,0.0],[-104.8512,39.757,0.0],[-104.8482,39.7565,0.0],[-104.8469,39.7547,0.0],[-104.854,39.7547,0.0],[-104.8659,39.7547,0.0],[-104.8752,39.7547,0.0],[-104.8779,39.7547,0.0],[-104.8799,39.7546,0.0],[-104.8801,39.7474,0.0],[-104.8847,39.7475,0.0],[-104.8849,39.7481,0.0],[-104.8867,39.7496,0.0],[-104.8902,39.7523,0.0],[-104.8907,39.7561,0.0],[-104.8904,39.759,0.0]]]]}},{"type":"Feature","properties":{"uesi_id":"USA_R1411339","nbhd_code":"USA_R1411339_101","nbhd_name":"Census Tract 44.03"},"geometry":{"type":"MultiPolygon","coordinates":[[[[-104.9035,39.7438,0.0],[-104.9034,39.7474,0.0],[-104.9034,39.751,0.0],[-104.8987,39.751,0.0],[-104.8988,39.7474,0.0],[-104.894,39.7475,0.0],[-104.8882,39.7475,0.0],[-104.8847,39.7475,0.0],[-104.8847,39.7438,0.0],[-104.8846,39.7402,0.0],[-104.894,39.7402,0.0],[-104.9035,39.7401,0.0],[-104.9035,39.7438,0.0]]]]}},{"type":"Feature","properties":{"uesi_id":"USA_R1411339","nbhd_code":"USA_R1411339_102","nbhd_name":"Census Tract 153"},"geometry":{"type":"MultiPolygon","coordinates":[[[[-104.9338,39.7042,0.0],[-104.9329,39.7022,0.0],[-104.9314,39.7038,0.0],[-104.9303,39.7038,0.0],[-104.929,39.7038,0.0],[-104.9269,39.7036,0.0],[-104.927,39.7067,0.0],[-104.9296,39.7064,0.0],[-104.9295,39.7085,0.0],[-104.927,39.7081,0.0],[-104.9316,39.7091,0.0],[-104.9316,39.7111,0.0],[-104.9305,39.7113,0.0],[-104.9223,39.7113,0.0],[-104.9222,39.7059,0.0],[-104.9216,39.7039,0.0],[-104.9216,39.6976,0.0],[-104.9219,39.6966,0.0],[-104.9221,39.6963,0.0],[-104.9223,39.6959,0.0],[-104.9238,39.6968,0.0],[-104.9242,39.6967,0.0],[-104.9279,39.6967,0.0],[-104.9286,39.6984,0.0],[-104.9286,39.7002,0.0],[-104.9317,39.7002,0.0],[-104.934,39.7014,0.0],[-104.9338,39.7042,0.0]]]]}},{"type":"Feature","properties":{"uesi_id":"USA_R1411339","nbhd_code":"USA_R1411339_103","nbhd_name":"Census Tract 9800"},"geometry":{"type":"MultiPolygon","coordinates":[[[[-104.7909,39.8418,0.0],[-104.7865,39.8418,0.0],[-104.7722,39.8418,0.0],[-104.7623,39.8418,0.0],[-104.7623,39.8454,0.0],[-104.7531,39.8453,0.0],[-104.7505,39.8454,0.0],[-104.7321,39.8451,0.0],[-104.7316,39.8986,0.0],[-104.7241,39.8986,0.0],[-104.7056,39.8985,0.0],[-104.7054,39.9064,0.0],[-104.6926,39.9066,0.0],[-104.6929,39.9142,0.0],[-104.6803,39.9142,0.0],[-104.6802,39.9066,0.0],[-104.6404,39.9062,0.0],[-104.6339,39.9061,0.0],[-104.634,39.8993,0.0],[-104.607,39.8994,0.0],[-104.6004,39.8995,0.0],[-104.6003,39.8823,0.0],[-104.6059,39.8822,0.0],[-104.6058,39.8738,0.0],[-104.6198,39.8738,0.0],[-104.6199,39.8266,0.0],[-104.6199,39.8224,0.0],[-104.6256,39.8225,0.0],[-104.6403,39.8226,0.0],[-104.6555,39.8225,0.0],[-104.6555,39.814,0.0],[-104.6591,39.814,0.0],[-104.6662,39.814,0.0],[-104.6663,39.8228,0.0],[-104.7161,39.8232,0.0],[-104.7531,39.823,0.0],[-104.7625,39.823,0.0],[-104.7629,39.813,0.0],[-104.7627,39.8056,0.0],[-104.7628,39.7999,0.0],[-104.7626,39.7984,0.0],[-104.7721,39.7984,0.0],[-104.7886,39.7984,0.0],[-104.7909,39.7983,0.0],[-104.7909,39.8418,0.0]]]]}},{"type":"Feature","properties":{"uesi_id":"USA_R1411339","nbhd_code":"USA_R1411339_104","nbhd_name":"Census Tract 26.01"},"geometry":{"type":"MultiPolygon","coordinates":[[[[-104.9874,39.7474,0.0],[-104.9855,39.7476,0.0],[-104.9836,39.7476,0.0],[-104.9811,39.7475,0.0],[-104.9799,39.7462,0.0],[-104.9799,39.7433,0.0],[-104.9799,39.74,0.0],[-104.9836,39.74,0.0],[-104.9863,39.7401,0.0],[-104.9874,39.7401,0.0],[-104.9874,39.7415,0.0],[-104.9874,39.7434,0.0],[-104.9874,39.7474,0.0]]]]}},{"type":"Feature","properties":{"uesi_id":"USA_R1411339","nbhd_code":"USA_R1411339_105","nbhd_name":"Census Tract 28.01"},"geometry":{"type":"MultiPolygon","coordinates":[[[[-104.9874,39.7273,0.0],[-104.9836,39.7273,0.0],[-104.9811,39.7273,0.0],[-104.9799,39.7273,0.0],[-104.9776,39.7273,0.0],[-104.9729,39.7273,0.0],[-104.9729,39.7256,0.0],[-104.9729,39.7237,0.0],[-104.9729,39.722,0.0],[-104.9729,39.7201,0.0],[-104.9732,39.7184,0.0],[-104.9761,39.7191,0.0],[-104.9775,39.7197,0.0],[-104.9803,39.7215,0.0],[-104.983,39.7232,0.0],[-104.9874,39.7269,0.0],[-104.9874,39.7273,0.0]]]]}},{"type":"Feature","properties":{"uesi_id":"USA_R1411339","nbhd_code":"USA_R1411339_106","nbhd_name":"Census Tract 28.03"},"geometry":{"type":"MultiPolygon","coordinates":[[[[-104.9804,39.7147,0.0],[-104.9803,39.7165,0.0],[-104.9803,39.7183,0.0],[-104.9803,39.7215,0.0],[-104.9775,39.7197,0.0],[-104.9761,39.7191,0.0],[-104.9732,39.7184,0.0],[-104.9734,39.7165,0.0],[-104.9734,39.7111,0.0],[-104.9769,39.7111,0.0],[-104.9804,39.7111,0.0],[-104.9804,39.7147,0.0]]]]}},{"type":"Feature","properties":{"uesi_id":"USA_R1411339","nbhd_code":"USA_R1411339_107","nbhd_name":"Census Tract 30.01"},"geometry":{"type":"MultiPolygon","coordinates":[[[[-104.9875,39.6876,0.0],[-104.9874,39.6966,0.0],[-104.9839,39.6966,0.0],[-104.9828,39.6967,0.0],[-104.9828,39.6972,0.0],[-104.9804,39.6951,0.0],[-104.9793,39.6941,0.0],[-104.9758,39.6911,0.0],[-104.9734,39.6898,0.0],[-104.9734,39.6876,0.0],[-104.9734,39.6785,0.0],[-104.9781,39.6785,0.0],[-104.9829,39.6786,0.0],[-104.9876,39.6785,0.0],[-104.9875,39.6876,0.0]]]]}},{"type":"Feature","properties":{"uesi_id":"USA_R1411339","nbhd_code":"USA_R1411339_108","nbhd_name":"Census Tract 30.03"},"geometry":{"type":"MultiPolygon","coordinates":[[[[-104.9734,39.6876,0.0],[-104.9734,39.6898,0.0],[-104.9687,39.6875,0.0],[-104.9642,39.6853,0.0],[-104.9594,39.6847,0.0],[-104.9594,39.6784,0.0],[-104.9595,39.6785,0.0],[-104.9652,39.6785,0.0],[-104.9734,39.6785,0.0],[-104.9734,39.6876,0.0]]]]}},{"type":"Feature","properties":{"uesi_id":"USA_R1411339","nbhd_code":"USA_R1411339_109","nbhd_name":"Census Tract 32.01"},"geometry":{"type":"MultiPolygon","coordinates":[[[[-104.973,39.7369,0.0],[-104.973,39.74,0.0],[-104.9697,39.74,0.0],[-104.9648,39.74,0.0],[-104.9648,39.7368,0.0],[-104.965,39.7354,0.0],[-104.9645,39.7335,0.0],[-104.9646,39.7305,0.0],[-104.9659,39.7291,0.0],[-104.9695,39.7291,0.0],[-104.9729,39.7291,0.0],[-104.973,39.732,0.0],[-104.973,39.7337,0.0],[-104.973,39.7352,0.0],[-104.973,39.7369,0.0]]]]}},{"type":"Feature","properties":{"uesi_id":"USA_R1411339","nbhd_code":"USA_R1411339_110","nbhd_name":"Census Tract 32.03"},"geometry":{"type":"MultiPolygon","coordinates":[[[[-104.9729,39.7201,0.0],[-104.9729,39.722,0.0],[-104.9729,39.7237,0.0],[-104.9729,39.7256,0.0],[-104.9729,39.7273,0.0],[-104.9729,39.7291,0.0],[-104.9695,39.7291,0.0],[-104.9659,39.7291,0.0],[-104.9602,39.7291,0.0],[-104.9602,39.7256,0.0],[-104.9595,39.725,0.0],[-104.9594,39.7226,0.0],[-104.9594,39.7194,0.0],[-104.9593,39.7183,0.0],[-104.9593,39.7153,0.0],[-104.9602,39.7156,0.0],[-104.9663,39.7144,0.0],[-104.9706,39.7177,0.0],[-104.9732,39.7184,0.0],[-104.9729,39.7201,0.0]]]]}},{"type":"Feature","properties":{"uesi_id":"USA_R1411339","nbhd_code":"USA_R1411339_111","nbhd_name":"Census Tract 34.02"},"geometry":{"type":"MultiPolygon","coordinates":[[[[-104.9734,39.693,0.0],[-104.9734,39.7039,0.0],[-104.9734,39.7075,0.0],[-104.9663,39.7075,0.0],[-104.9652,39.7075,0.0],[-104.9593,39.7075,0.0],[-104.9594,39.7039,0.0],[-104.9593,39.6966,0.0],[-104.9593,39.693,0.0],[-104.9593,39.6911,0.0],[-104.9594,39.6847,0.0],[-104.9642,39.6853,0.0],[-104.9687,39.6875,0.0],[-104.9734,39.6898,0.0],[-104.9734,39.693,0.0]]]]}},{"type":"Feature","properties":{"uesi_id":"USA_R1411339","nbhd_code":"USA_R1411339_112","nbhd_name":"Census Tract 37.01"},"geometry":{"type":"MultiPolygon","coordinates":[[[[-104.9598,39.7469,0.0],[-104.9598,39.7507,0.0],[-104.9549,39.7512,0.0],[-104.9406,39.751,0.0],[-104.9406,39.7474,0.0],[-104.9407,39.7438,0.0],[-104.9406,39.7401,0.0],[-104.9495,39.7402,0.0],[-104.9501,39.7402,0.0],[-104.9542,39.7402,0.0],[-104.9581,39.7402,0.0],[-104.9598,39.74,0.0],[-104.9598,39.7433,0.0],[-104.9598,39.7448,0.0],[-104.9598,39.7469,0.0]]]]}},{"type":"Feature","properties":{"uesi_id":"USA_R1411339","nbhd_code":"USA_R1411339_113","nbhd_name":"Census Tract 39.01"},"geometry":{"type":"MultiPolygon","coordinates":[[[[-104.9593,39.7075,0.0],[-104.9593,39.7111,0.0],[-104.9593,39.7153,0.0],[-104.954,39.7154,0.0],[-104.9501,39.7134,0.0],[-104.9485,39.7118,0.0],[-104.9462,39.7115,0.0],[-104.9413,39.7116,0.0],[-104.9406,39.7116,0.0],[-104.9407,39.7112,0.0],[-104.9407,39.7063,0.0],[-104.9407,39.7038,0.0],[-104.9407,39.698,0.0],[-104.9403,39.6979,0.0],[-104.9403,39.6982,0.0],[-104.9387,39.6982,0.0],[-104.9386,39.6966,0.0],[-104.9406,39.6966,0.0],[-104.95,39.6966,0.0],[-104.9593,39.6966,0.0],[-104.9594,39.7039,0.0],[-104.9593,39.7075,0.0]]]]}},{"type":"Feature","properties":{"uesi_id":"USA_R1411339","nbhd_code":"USA_R1411339_114","nbhd_name":"Census Tract 40.03"},"geometry":{"type":"MultiPolygon","coordinates":[[[[-104.9407,39.6635,0.0],[-104.9407,39.6676,0.0],[-104.9407,39.6683,0.0],[-104.9381,39.6681,0.0],[-104.9368,39.6675,0.0],[-104.9316,39.6675,0.0],[-104.9304,39.6675,0.0],[-104.9263,39.6675,0.0],[-104.9257,39.6675,0.0],[-104.9238,39.6646,0.0],[-104.9184,39.6531,0.0],[-104.9205,39.6531,0.0],[-104.9317,39.653,0.0],[-104.9407,39.653,0.0],[-104.9407,39.6635,0.0]]]]}},{"type":"Feature","properties":{"uesi_id":"USA_R1411339","nbhd_code":"USA_R1411339_115","nbhd_name":"Census Tract 41.02"},"geometry":{"type":"MultiPolygon","coordinates":[[[[-104.9223,39.7656,0.0],[-104.9223,39.7692,0.0],[-104.9223,39.7838,0.0],[-104.9129,39.7838,0.0],[-104.9116,39.7838,0.0],[-104.9034,39.784,0.0],[-104.9002,39.7839,0.0],[-104.9025,39.7812,0.0],[-104.9036,39.7787,0.0],[-104.9034,39.7656,0.0],[-104.9034,39.762,0.0],[-104.9124,39.762,0.0],[-104.9129,39.762,0.0],[-104.9223,39.762,0.0],[-104.9223,39.7656,0.0]]]]}},{"type":"Feature","properties":{"uesi_id":"USA_R1411339","nbhd_code":"USA_R1411339_116","nbhd_name":"Census Tract 41.04"},"geometry":{"type":"MultiPolygon","coordinates":[[[[-104.9223,39.7584,0.0],[-104.9223,39.762,0.0],[-104.9129,39.762,0.0],[-104.9124,39.762,0.0],[-104.9034,39.762,0.0],[-104.9035,39.7584,0.0],[-104.9034,39.7547,0.0],[-104.9034,39.751,0.0],[-104.9124,39.751,0.0],[-104.9128,39.7511,0.0],[-104.9223,39.7511,0.0],[-104.9223,39.7547,0.0],[-104.9223,39.7584,0.0]]]]}},{"type":"Feature","properties":{"uesi_id":"USA_R1411339","nbhd_code":"USA_R1411339_117","nbhd_name":"Census Tract 43.01"},"geometry":{"type":"MultiPolygon","coordinates":[[[[-104.9406,39.7292,0.0],[-104.9406,39.7321,0.0],[-104.9406,39.7347,0.0],[-104.9406,39.7367,0.0],[-104.9406,39.7401,0.0],[-104.9321,39.7401,0.0],[-104.9315,39.7401,0.0],[-104.9304,39.7401,0.0],[-104.9304,39.7365,0.0],[-104.9304,39.7329,0.0],[-104.9305,39.7326,0.0],[-104.9305,39.7292,0.0],[-104.9305,39.7256,0.0],[-104.9406,39.7256,0.0],[-104.9406,39.7292,0.0]]]]}},{"type":"Feature","properties":{"uesi_id":"USA_R1411339","nbhd_code":"USA_R1411339_118","nbhd_name":"Census Tract 43.02"},"geometry":{"type":"MultiPolygon","coordinates":[[[[-104.9305,39.7292,0.0],[-104.9305,39.7326,0.0],[-104.9304,39.7329,0.0],[-104.9304,39.7365,0.0],[-104.9304,39.7401,0.0],[-104.9223,39.7401,0.0],[-104.9223,39.7367,0.0],[-104.9223,39.7337,0.0],[-104.9228,39.7293,0.0],[-104.9228,39.7256,0.0],[-104.9305,39.7256,0.0],[-104.9305,39.7292,0.0]]]]}},{"type":"Feature","properties":{"uesi_id":"USA_R1411339","nbhd_code":"USA_R1411339_119","nbhd_name":"Census Tract 45.03"},"geometry":{"type":"MultiPolygon","coordinates":[[[[-105.0532,39.7033,0.0],[-105.0499,39.7043,0.0],[-105.0432,39.7043,0.0],[-105.0431,39.704,0.0],[-105.0397,39.7063,0.0],[-105.0397,39.7041,0.0],[-105.0391,39.704,0.0],[-105.0391,39.7004,0.0],[-105.039,39.6968,0.0],[-105.046,39.6967,0.0],[-105.0532,39.6968,0.0],[-105.0532,39.6969,0.0],[-105.0532,39.7033,0.0]]]]}},{"type":"Feature","properties":{"uesi_id":"USA_R1411339","nbhd_code":"USA_R1411339_120","nbhd_name":"Census Tract 13.02"},"geometry":{"type":"MultiPolygon","coordinates":[[[[-105.0126,39.6983,0.0],[-105.0121,39.6991,0.0],[-105.011,39.7014,0.0],[-105.011,39.704,0.0],[-105.011,39.7112,0.0],[-105.0016,39.7112,0.0],[-105.0001,39.7112,0.0],[-104.9978,39.7058,0.0],[-104.9925,39.6994,0.0],[-104.9924,39.6967,0.0],[-105.0066,39.6967,0.0],[-105.0127,39.6967,0.0],[-105.0126,39.6983,0.0]]]]}},{"type":"Feature","properties":{"uesi_id":"USA_R1411339","nbhd_code":"USA_R1411339_121","nbhd_name":"Census Tract 70.06"},"geometry":{"type":"MultiPolygon","coordinates":[[[[-104.8775,39.6531,0.0],[-104.8757,39.653,0.0],[-104.8692,39.6532,0.0],[-104.8675,39.6541,0.0],[-104.8667,39.6551,0.0],[-104.8664,39.6594,0.0],[-104.8663,39.6603,0.0],[-104.861,39.6603,0.0],[-104.859,39.6603,0.0],[-104.8564,39.6603,0.0],[-104.8554,39.6608,0.0],[-104.8537,39.6601,0.0],[-104.8483,39.6592,0.0],[-104.8483,39.6579,0.0],[-104.8477,39.6571,0.0],[-104.8471,39.6568,0.0],[-104.8529,39.6557,0.0],[-104.856,39.6542,0.0],[-104.8572,39.6532,0.0],[-104.8762,39.6443,0.0],[-104.8762,39.6459,0.0],[-104.8763,39.6523,0.0],[-104.8775,39.6531,0.0]]]]}},{"type":"Feature","properties":{"uesi_id":"USA_R1411339","nbhd_code":"USA_R1411339_122","nbhd_name":"Census Tract 45.05"},"geometry":{"type":"MultiPolygon","coordinates":[[[[-105.0397,39.7112,0.0],[-105.0325,39.7112,0.0],[-105.0251,39.7112,0.0],[-105.0251,39.7077,0.0],[-105.0251,39.7075,0.0],[-105.0251,39.7049,0.0],[-105.0251,39.7039,0.0],[-105.0324,39.704,0.0],[-105.0391,39.704,0.0],[-105.0397,39.7041,0.0],[-105.0397,39.7063,0.0],[-105.0397,39.7112,0.0]]]]}},{"type":"Feature","properties":{"uesi_id":"USA_R1411339","nbhd_code":"USA_R1411339_123","nbhd_name":"Census Tract 120.14"},"geometry":{"type":"MultiPolygon","coordinates":[[[[-105.1099,39.6299,0.0],[-105.1099,39.6342,0.0],[-105.1099,39.6352,0.0],[-105.1098,39.6352,0.0],[-105.1008,39.6352,0.0],[-105.0996,39.635,0.0],[-105.0916,39.6355,0.0],[-105.0916,39.6387,0.0],[-105.091,39.6387,0.0],[-105.0858,39.6387,0.0],[-105.0817,39.6388,0.0],[-105.0819,39.6369,0.0],[-105.0823,39.6356,0.0],[-105.0836,39.6336,0.0],[-105.0872,39.63,0.0],[-105.0911,39.6292,0.0],[-105.0912,39.6271,0.0],[-105.0913,39.6242,0.0],[-105.0985,39.6242,0.0],[-105.1086,39.6242,0.0],[-105.1086,39.627,0.0],[-105.1099,39.627,0.0],[-105.1099,39.6299,0.0]]]]}},{"type":"Feature","properties":{"uesi_id":"USA_R1411339","nbhd_code":"USA_R1411339_124","nbhd_name":"Census Tract 2.01"},"geometry":{"type":"MultiPolygon","coordinates":[[[[-105.0251,39.794,0.0],[-105.0213,39.794,0.0],[-105.0208,39.7911,0.0],[-105.0158,39.7911,0.0],[-105.0064,39.791,0.0],[-104.9984,39.7912,0.0],[-104.9978,39.7911,0.0],[-104.9978,39.7825,0.0],[-104.9983,39.7824,0.0],[-105.0026,39.7835,0.0],[-105.0064,39.7831,0.0],[-105.0158,39.7836,0.0],[-105.02,39.7836,0.0],[-105.0251,39.7842,0.0],[-105.0251,39.7909,0.0],[-105.0251,39.794,0.0]]]]}},{"type":"Feature","properties":{"uesi_id":"USA_R1411339","nbhd_code":"USA_R1411339_125","nbhd_name":"Census Tract 155"},"geometry":{"type":"MultiPolygon","coordinates":[[[[-104.9405,39.6957,0.0],[-104.9395,39.6947,0.0],[-104.9362,39.6948,0.0],[-104.9362,39.6966,0.0],[-104.934,39.6966,0.0],[-104.9317,39.6966,0.0],[-104.9317,39.693,0.0],[-104.9317,39.6893,0.0],[-104.9405,39.6893,0.0],[-104.9406,39.6929,0.0],[-104.9406,39.6948,0.0],[-104.9405,39.6957,0.0]]],[[[-104.9329,39.7002,0.0],[-104.9317,39.7002,0.0],[-104.9317,39.6984,0.0],[-104.9341,39.6984,0.0],[-104.9341,39.7002,0.0],[-104.9329,39.7002,0.0]]]]}},{"type":"Feature","properties":{"uesi_id":"USA_R1411339","nbhd_code":"USA_R1411339_126","nbhd_name":"Census Tract 157"},"geometry":{"type":"MultiPolygon","coordinates":[[[[-105.0441,39.6625,0.0],[-105.0419,39.6664,0.0],[-105.0418,39.6677,0.0],[-105.0387,39.6677,0.0],[-105.0378,39.6677,0.0],[-105.0299,39.6677,0.0],[-105.0251,39.6677,0.0],[-105.0251,39.6669,0.0],[-105.0251,39.665,0.0],[-105.0253,39.6568,0.0],[-105.032,39.6571,0.0],[-105.0321,39.6559,0.0],[-105.0322,39.6538,0.0],[-105.0322,39.6533,0.0],[-105.034,39.6535,0.0],[-105.0361,39.6543,0.0],[-105.0379,39.6546,0.0],[-105.0414,39.6543,0.0],[-105.0418,39.6564,0.0],[-105.0434,39.6592,0.0],[-105.044,39.6601,0.0],[-105.0441,39.6625,0.0]]]]}},{"type":"Feature","properties":{"uesi_id":"USA_R1411339","nbhd_code":"USA_R1411339_127","nbhd_name":"Census Tract 9.05"},"geometry":{"type":"MultiPolygon","coordinates":[[[[-105.0395,39.7306,0.0],[-105.0394,39.733,0.0],[-105.0393,39.7343,0.0],[-105.0368,39.7343,0.0],[-105.0346,39.736,0.0],[-105.0322,39.735,0.0],[-105.026,39.7362,0.0],[-105.0252,39.7366,0.0],[-105.0252,39.733,0.0],[-105.0252,39.7312,0.0],[-105.0252,39.7293,0.0],[-105.0251,39.7255,0.0],[-105.0325,39.7256,0.0],[-105.0395,39.7257,0.0],[-105.0395,39.7283,0.0],[-105.0395,39.7306,0.0]]]]}},{"type":"Feature","properties":{"uesi_id":"USA_R1411339","nbhd_code":"USA_R1411339_128","nbhd_name":"Census Tract 21"},"geometry":{"type":"MultiPolygon","coordinates":[[[[-105.0158,39.7255,0.0],[-105.0097,39.7258,0.0],[-105.0092,39.7258,0.0],[-105.0092,39.7257,0.0],[-105.0075,39.7256,0.0],[-105.0066,39.7255,0.0],[-105.006,39.7256,0.0],[-105.0063,39.7258,0.0],[-105.0037,39.7258,0.0],[-105.0016,39.7258,0.0],[-105.0002,39.7265,0.0],[-105.0001,39.7257,0.0],[-104.9922,39.7257,0.0],[-104.9909,39.7257,0.0],[-104.9874,39.7256,0.0],[-104.9875,39.7184,0.0],[-104.9875,39.7148,0.0],[-104.9876,39.7112,0.0],[-104.9876,39.7075,0.0],[-104.9875,39.7039,0.0],[-104.9874,39.6966,0.0],[-104.9924,39.6967,0.0],[-104.9925,39.6994,0.0],[-104.9978,39.7058,0.0],[-105.0001,39.7112,0.0],[-105.0018,39.7147,0.0],[-105.0034,39.7165,0.0],[-105.0067,39.7186,0.0],[-105.0092,39.7212,0.0],[-105.0121,39.7222,0.0],[-105.0158,39.7247,0.0],[-105.0158,39.7255,0.0]]]]}},{"type":"Feature","properties":{"uesi_id":"USA_R1411339","nbhd_code":"USA_R1411339_129","nbhd_name":"Census Tract 40.02"},"geometry":{"type":"MultiPolygon","coordinates":[[[[-104.9594,39.6603,0.0],[-104.9594,39.6615,0.0],[-104.9594,39.6639,0.0],[-104.9594,39.6676,0.0],[-104.9507,39.6675,0.0],[-104.9502,39.6673,0.0],[-104.9485,39.6669,0.0],[-104.9458,39.6676,0.0],[-104.9454,39.6676,0.0],[-104.9407,39.6676,0.0],[-104.9407,39.6635,0.0],[-104.9407,39.653,0.0],[-104.9559,39.653,0.0],[-104.955,39.6558,0.0],[-104.9535,39.656,0.0],[-104.9538,39.6567,0.0],[-104.9595,39.6567,0.0],[-104.9594,39.6603,0.0]]]]}},{"type":"Feature","properties":{"uesi_id":"USA_R1411339","nbhd_code":"USA_R1411339_130","nbhd_name":"Census Tract 53"},"geometry":{"type":"MultiPolygon","coordinates":[[[[-104.9407,39.6784,0.0],[-104.9404,39.6829,0.0],[-104.9364,39.681,0.0],[-104.934,39.6784,0.0],[-104.9308,39.6748,0.0],[-104.9278,39.6706,0.0],[-104.9268,39.6686,0.0],[-104.9264,39.6676,0.0],[-104.9263,39.6675,0.0],[-104.9304,39.6675,0.0],[-104.9295,39.6694,0.0],[-104.927,39.669,0.0],[-104.9279,39.6703,0.0],[-104.9303,39.673,0.0],[-104.9316,39.6734,0.0],[-104.9342,39.6734,0.0],[-104.9342,39.6711,0.0],[-104.9329,39.6708,0.0],[-104.9317,39.6706,0.0],[-104.9316,39.6675,0.0],[-104.9368,39.6675,0.0],[-104.9381,39.6681,0.0],[-104.9407,39.6683,0.0],[-104.9407,39.6784,0.0]]]]}},{"type":"Feature","properties":{"uesi_id":"USA_R1411339","nbhd_code":"USA_R1411339_131","nbhd_name":"Census Tract 83.12"},"geometry":{"type":"MultiPolygon","coordinates":[[[[-104.847,39.7824,0.0],[-104.8429,39.7813,0.0],[-104.8416,39.7805,0.0],[-104.8398,39.7793,0.0],[-104.8385,39.7805,0.0],[-104.8324,39.7827,0.0],[-104.8312,39.7843,0.0],[-104.829,39.7834,0.0],[-104.8257,39.7806,0.0],[-104.8247,39.7788,0.0],[-104.824,39.7791,0.0],[-104.8216,39.7791,0.0],[-104.8196,39.7791,0.0],[-104.8115,39.7768,0.0],[-104.8099,39.7768,0.0],[-104.8099,39.775,0.0],[-104.8099,39.7732,0.0],[-104.8282,39.7732,0.0],[-104.8281,39.7724,0.0],[-104.847,39.774,0.0],[-104.847,39.7824,0.0]]]]}},{"type":"Feature","properties":{"uesi_id":"USA_R1411339","nbhd_code":"USA_R1411339_132","nbhd_name":"Census Tract 156"},"geometry":{"type":"MultiPolygon","coordinates":[[[[-105.0251,39.665,0.0],[-105.0251,39.6669,0.0],[-105.0251,39.6677,0.0],[-105.0251,39.6718,0.0],[-105.0251,39.6733,0.0],[-105.0251,39.6786,0.0],[-105.025,39.6823,0.0],[-105.0157,39.6823,0.0],[-105.0087,39.6823,0.0],[-105.0018,39.6822,0.0],[-105.0014,39.6825,0.0],[-104.9987,39.6803,0.0],[-104.998,39.6785,0.0],[-104.9979,39.6723,0.0],[-104.9991,39.6689,0.0],[-105.0018,39.6677,0.0],[-104.9999,39.6679,0.0],[-105.0044,39.6663,0.0],[-105.0049,39.6645,0.0],[-105.0049,39.6605,0.0],[-105.0107,39.6605,0.0],[-105.0077,39.6642,0.0],[-105.0065,39.6669,0.0],[-105.0066,39.6768,0.0],[-105.0086,39.6768,0.0],[-105.0087,39.6786,0.0],[-105.0157,39.6787,0.0],[-105.0157,39.6718,0.0],[-105.0157,39.6669,0.0],[-105.0158,39.6637,0.0],[-105.0158,39.6605,0.0],[-105.0229,39.6605,0.0],[-105.023,39.6568,0.0],[-105.0253,39.6568,0.0],[-105.0251,39.665,0.0]]]]}},{"type":"Feature","properties":{"uesi_id":"USA_R1411339","nbhd_code":"USA_R1411339_133","nbhd_name":"Census Tract 68.12"},"geometry":{"type":"MultiPolygon","coordinates":[[[[-104.9257,39.6675,0.0],[-104.9227,39.6676,0.0],[-104.9207,39.6682,0.0],[-104.9208,39.6676,0.0],[-104.9222,39.6669,0.0],[-104.9216,39.6625,0.0],[-104.921,39.6603,0.0],[-104.9189,39.6603,0.0],[-104.9168,39.659,0.0],[-104.9155,39.6575,0.0],[-104.9166,39.6561,0.0],[-104.913,39.6565,0.0],[-104.913,39.6631,0.0],[-104.9159,39.6635,0.0],[-104.9164,39.6676,0.0],[-104.9129,39.6676,0.0],[-104.9062,39.6676,0.0],[-104.9048,39.6676,0.0],[-104.9028,39.665,0.0],[-104.9041,39.66,0.0],[-104.9036,39.6577,0.0],[-104.9025,39.6568,0.0],[-104.9008,39.6531,0.0],[-104.9091,39.6531,0.0],[-104.9129,39.6531,0.0],[-104.9184,39.6531,0.0],[-104.9238,39.6646,0.0],[-104.9257,39.6675,0.0]]]]}},{"type":"Feature","properties":{"uesi_id":"USA_R1411339","nbhd_code":"USA_R1411339_134","nbhd_name":"Census Tract 83.05"},"geometry":{"type":"MultiPolygon","coordinates":[[[[-104.8357,39.7948,0.0],[-104.8357,39.7981,0.0],[-104.8291,39.7981,0.0],[-104.8272,39.7982,0.0],[-104.82,39.7983,0.0],[-104.8203,39.7958,0.0],[-104.8237,39.793,0.0],[-104.8248,39.7906,0.0],[-104.8282,39.7887,0.0],[-104.8345,39.7911,0.0],[-104.8356,39.7911,0.0],[-104.8357,39.7932,0.0],[-104.8357,39.7948,0.0]]]]}},{"type":"Feature","properties":{"uesi_id":"USA_R1411339","nbhd_code":"USA_R1411339_135","nbhd_name":"Census Tract 2.02"},"geometry":{"type":"MultiPolygon","coordinates":[[[[-105.0252,39.7803,0.0],[-105.0251,39.7842,0.0],[-105.02,39.7836,0.0],[-105.0158,39.7836,0.0],[-105.0064,39.7831,0.0],[-105.0026,39.7835,0.0],[-104.9983,39.7824,0.0],[-104.9982,39.7765,0.0],[-105.0042,39.7766,0.0],[-105.0064,39.7765,0.0],[-105.0112,39.7766,0.0],[-105.0147,39.7766,0.0],[-105.0159,39.7766,0.0],[-105.0174,39.7766,0.0],[-105.0253,39.7766,0.0],[-105.0252,39.7803,0.0]]]]}},{"type":"Feature","properties":{"uesi_id":"USA_R1411339","nbhd_code":"USA_R1411339_136","nbhd_name":"Census Tract 9.02"},"geometry":{"type":"MultiPolygon","coordinates":[[[[-105.0533,39.7204,0.0],[-105.0533,39.7258,0.0],[-105.0485,39.7258,0.0],[-105.0463,39.7257,0.0],[-105.044,39.7257,0.0],[-105.0395,39.7257,0.0],[-105.0394,39.7229,0.0],[-105.0397,39.7213,0.0],[-105.0397,39.7197,0.0],[-105.0397,39.715,0.0],[-105.0397,39.7112,0.0],[-105.0433,39.7113,0.0],[-105.0461,39.7113,0.0],[-105.0533,39.7113,0.0],[-105.0533,39.715,0.0],[-105.0533,39.7184,0.0],[-105.0533,39.7204,0.0]]]]}},{"type":"Feature","properties":{"uesi_id":"USA_R1411339","nbhd_code":"USA_R1411339_137","nbhd_name":"Census Tract 17.02"},"geometry":{"type":"MultiPolygon","coordinates":[[[[-105.0004,39.7455,0.0],[-104.9966,39.7485,0.0],[-104.9917,39.7523,0.0],[-104.9874,39.7489,0.0],[-104.9874,39.7474,0.0],[-104.9874,39.7434,0.0],[-104.9874,39.7415,0.0],[-104.9874,39.7401,0.0],[-104.9885,39.7406,0.0],[-104.9901,39.7401,0.0],[-104.9986,39.7402,0.0],[-105.0002,39.7435,0.0],[-105.0004,39.7455,0.0]]]]}},{"type":"Feature","properties":{"uesi_id":"USA_R1411339","nbhd_code":"USA_R1411339_138","nbhd_name":"Census Tract 28.02"},"geometry":{"type":"MultiPolygon","coordinates":[[[[-104.9875,39.7148,0.0],[-104.9875,39.7184,0.0],[-104.9874,39.7256,0.0],[-104.9874,39.7269,0.0],[-104.983,39.7232,0.0],[-104.9803,39.7215,0.0],[-104.9803,39.7183,0.0],[-104.9803,39.7165,0.0],[-104.9804,39.7147,0.0],[-104.9804,39.7111,0.0],[-104.9876,39.7112,0.0],[-104.9875,39.7148,0.0]]]]}},{"type":"Feature","properties":{"uesi_id":"USA_R1411339","nbhd_code":"USA_R1411339_139","nbhd_name":"Census Tract 33"},"geometry":{"type":"MultiPolygon","coordinates":[[[[-104.9602,39.7291,0.0],[-104.9598,39.7311,0.0],[-104.9598,39.7335,0.0],[-104.9541,39.7337,0.0],[-104.9541,39.7321,0.0],[-104.9495,39.7321,0.0],[-104.9406,39.7321,0.0],[-104.9406,39.7292,0.0],[-104.9406,39.7256,0.0],[-104.9495,39.7256,0.0],[-104.9498,39.7256,0.0],[-104.9555,39.7256,0.0],[-104.9602,39.7256,0.0],[-104.9602,39.7291,0.0]]]]}},{"type":"Feature","properties":{"uesi_id":"USA_R1411339","nbhd_code":"USA_R1411339_140","nbhd_name":"Census Tract 40.04"},"geometry":{"type":"MultiPolygon","coordinates":[[[[-104.9317,39.653,0.0],[-104.9205,39.6531,0.0],[-104.9184,39.6531,0.0],[-104.9127,39.6429,0.0],[-104.9101,39.6387,0.0],[-104.9114,39.6387,0.0],[-104.9133,39.6387,0.0],[-104.9143,39.6394,0.0],[-104.9225,39.6458,0.0],[-104.9319,39.6458,0.0],[-104.9317,39.653,0.0]]]]}},{"type":"Feature","properties":{"uesi_id":"USA_R1411339","nbhd_code":"USA_R1411339_141","nbhd_name":"Census Tract 42.02"},"geometry":{"type":"MultiPolygon","coordinates":[[[[-104.9223,39.7437,0.0],[-104.9223,39.7474,0.0],[-104.9223,39.7511,0.0],[-104.9128,39.7511,0.0],[-104.9124,39.751,0.0],[-104.9034,39.751,0.0],[-104.9034,39.7474,0.0],[-104.9035,39.7438,0.0],[-104.9035,39.7401,0.0],[-104.9128,39.7402,0.0],[-104.9223,39.7401,0.0],[-104.9223,39.7437,0.0]]]]}},{"type":"Feature","properties":{"uesi_id":"USA_R1411339","nbhd_code":"USA_R1411339_142","nbhd_name":"Census Tract 46.01"},"geometry":{"type":"MultiPolygon","coordinates":[[[[-105.0532,39.6914,0.0],[-105.0532,39.6968,0.0],[-105.046,39.6967,0.0],[-105.039,39.6968,0.0],[-105.0391,39.6895,0.0],[-105.0391,39.6844,0.0],[-105.0383,39.6827,0.0],[-105.0383,39.6822,0.0],[-105.0443,39.6822,0.0],[-105.0532,39.6823,0.0],[-105.0532,39.6835,0.0],[-105.0533,39.6896,0.0],[-105.0532,39.6914,0.0]]]]}},{"type":"Feature","properties":{"uesi_id":"USA_R1411339","nbhd_code":"USA_R1411339_143","nbhd_name":"Census Tract 68.11"},"geometry":{"type":"MultiPolygon","coordinates":[[[[-104.9035,39.6676,0.0],[-104.9003,39.6676,0.0],[-104.8988,39.6676,0.0],[-104.8939,39.6676,0.0],[-104.8908,39.6649,0.0],[-104.8908,39.665,0.0],[-104.8902,39.6644,0.0],[-104.8871,39.6619,0.0],[-104.8851,39.6603,0.0],[-104.8847,39.6599,0.0],[-104.8847,39.6579,0.0],[-104.8847,39.6572,0.0],[-104.8848,39.6531,0.0],[-104.8988,39.6531,0.0],[-104.9008,39.6531,0.0],[-104.9025,39.6568,0.0],[-104.9036,39.6577,0.0],[-104.9041,39.66,0.0],[-104.9028,39.665,0.0],[-104.9048,39.6676,0.0],[-104.9035,39.6676,0.0]]]]}},{"type":"Feature","properties":{"uesi_id":"USA_R1411339","nbhd_code":"USA_R1411339_144","nbhd_name":"Census Tract 83.90"},"geometry":{"type":"MultiPolygon","coordinates":[[[[-104.7722,39.7764,0.0],[-104.7721,39.778,0.0],[-104.7721,39.7836,0.0],[-104.7611,39.7837,0.0],[-104.7583,39.7836,0.0],[-104.7553,39.7828,0.0],[-104.7563,39.7803,0.0],[-104.7534,39.7764,0.0],[-104.7533,39.7748,0.0],[-104.7534,39.7695,0.0],[-104.7608,39.7695,0.0],[-104.7646,39.7694,0.0],[-104.7646,39.7716,0.0],[-104.7722,39.7715,0.0],[-104.7722,39.7764,0.0]]]]}}]}