{"type":"FeatureCollection","name":"USA_R169759","crs":{"type":"name","properties":{"name":"urn:ogc:def:crs:OGC:1.3:CRS84"}},"features":[{"type":"Feature","properties":{"uesi_id":"USA_R169759","nbhd_code":"USA_R169759_1","nbhd_name":"Census Tract 66.04"},"geometry":{"type":"MultiPolygon","coordinates":[[[[-96.0458,41.2779,0.0],[-96.0422,41.2778,0.0],[-96.0375,41.2778,0.0],[-96.0354,41.2778,0.0],[-96.0351,41.2778,0.0],[-96.0239,41.2778,0.0],[-96.0239,41.2742,0.0],[-96.0238,41.2723,0.0],[-96.0239,41.2705,0.0],[-96.0239,41.2698,0.0],[-96.0239,41.2669,0.0],[-96.0239,41.2633,0.0],[-96.0363,41.2633,0.0],[-96.0403,41.2687,0.0],[-96.0411,41.2706,0.0],[-96.0441,41.2724,0.0],[-96.0435,41.2756,0.0],[-96.0458,41.2779,0.0]]]]}},{"type":"Feature","properties":{"uesi_id":"USA_R169759","nbhd_code":"USA_R169759_2","nbhd_name":"Census Tract 51"},"geometry":{"type":"MultiPolygon","coordinates":[[[[-95.9675,41.27,0.0],[-95.9661,41.27,0.0],[-95.9661,41.2728,0.0],[-95.9566,41.2729,0.0],[-95.9566,41.2688,0.0],[-95.9565,41.2679,0.0],[-95.9566,41.2634,0.0],[-95.9566,41.2598,0.0],[-95.9616,41.2597,0.0],[-95.9616,41.2634,0.0],[-95.9615,41.2638,0.0],[-95.9615,41.268,0.0],[-95.9665,41.2679,0.0],[-95.9669,41.2692,0.0],[-95.9675,41.27,0.0]]]]}},{"type":"Feature","properties":{"uesi_id":"USA_R169759","nbhd_code":"USA_R169759_3","nbhd_name":"Census Tract 60"},"geometry":{"type":"MultiPolygon","coordinates":[[[[-95.9854,41.3067,0.0],[-95.9848,41.3067,0.0],[-95.9806,41.3067,0.0],[-95.9758,41.3067,0.0],[-95.97,41.3067,0.0],[-95.9688,41.3072,0.0],[-95.966,41.3062,0.0],[-95.9613,41.3039,0.0],[-95.9604,41.3035,0.0],[-95.9565,41.3029,0.0],[-95.9566,41.2996,0.0],[-95.9638,41.2995,0.0],[-95.9698,41.2995,0.0],[-95.9722,41.2996,0.0],[-95.9758,41.2996,0.0],[-95.9802,41.2995,0.0],[-95.9855,41.2996,0.0],[-95.9854,41.3067,0.0]]]]}},{"type":"Feature","properties":{"uesi_id":"USA_R169759","nbhd_code":"USA_R169759_4","nbhd_name":"Census Tract 74.71"},"geometry":{"type":"MultiPolygon","coordinates":[[[[-96.1774,41.2921,0.0],[-96.1737,41.2921,0.0],[-96.163,41.2921,0.0],[-96.1581,41.2921,0.0],[-96.1581,41.2844,0.0],[-96.1581,41.2775,0.0],[-96.1657,41.2775,0.0],[-96.1678,41.2775,0.0],[-96.1772,41.2775,0.0],[-96.1773,41.2848,0.0],[-96.1774,41.2921,0.0]]]]}},{"type":"Feature","properties":{"uesi_id":"USA_R169759","nbhd_code":"USA_R169759_5","nbhd_name":"Census Tract 75.14"},"geometry":{"type":"MultiPolygon","coordinates":[[[[-96.2344,41.2482,0.0],[-96.2344,41.2483,0.0],[-96.2341,41.2483,0.0],[-96.2252,41.2483,0.0],[-96.2251,41.2483,0.0],[-96.2155,41.2484,0.0],[-96.1963,41.2485,0.0],[-96.1961,41.2343,0.0],[-96.1962,41.2341,0.0],[-96.2155,41.2338,0.0],[-96.2157,41.2339,0.0],[-96.2344,41.2339,0.0],[-96.2344,41.2482,0.0]]]]}},{"type":"Feature","properties":{"uesi_id":"USA_R169759","nbhd_code":"USA_R169759_6","nbhd_name":"Census Tract 22"},"geometry":{"type":"MultiPolygon","coordinates":[[[[-95.9306,41.2491,0.0],[-95.9267,41.2491,0.0],[-95.9242,41.2491,0.0],[-95.924,41.248,0.0],[-95.9164,41.2483,0.0],[-95.9139,41.2432,0.0],[-95.9229,41.2431,0.0],[-95.9241,41.2428,0.0],[-95.9267,41.2428,0.0],[-95.9307,41.2429,0.0],[-95.9306,41.2491,0.0]]]]}},{"type":"Feature","properties":{"uesi_id":"USA_R169759","nbhd_code":"USA_R169759_7","nbhd_name":"Census Tract 74.29"},"geometry":{"type":"MultiPolygon","coordinates":[[[[-96.1657,41.2485,0.0],[-96.1629,41.2485,0.0],[-96.1579,41.2485,0.0],[-96.1482,41.2486,0.0],[-96.1434,41.2486,0.0],[-96.1386,41.2486,0.0],[-96.1386,41.2408,0.0],[-96.1387,41.2381,0.0],[-96.1386,41.2338,0.0],[-96.1511,41.2341,0.0],[-96.153,41.234,0.0],[-96.1542,41.2336,0.0],[-96.1575,41.2339,0.0],[-96.1587,41.234,0.0],[-96.1608,41.2371,0.0],[-96.1611,41.24,0.0],[-96.1612,41.2409,0.0],[-96.1616,41.2423,0.0],[-96.1643,41.2461,0.0],[-96.1666,41.2485,0.0],[-96.1657,41.2485,0.0]]]]}},{"type":"Feature","properties":{"uesi_id":"USA_R169759","nbhd_code":"USA_R169759_8","nbhd_name":"Census Tract 74.49"},"geometry":{"type":"MultiPolygon","coordinates":[[[[-96.1963,41.2485,0.0],[-96.1838,41.2485,0.0],[-96.1769,41.2485,0.0],[-96.1769,41.2427,0.0],[-96.1769,41.2342,0.0],[-96.1823,41.2341,0.0],[-96.1944,41.2343,0.0],[-96.1961,41.2343,0.0],[-96.1963,41.2485,0.0]]]]}},{"type":"Feature","properties":{"uesi_id":"USA_R169759","nbhd_code":"USA_R169759_9","nbhd_name":"Census Tract 74.67"},"geometry":{"type":"MultiPolygon","coordinates":[[[[-96.0622,41.1907,0.0],[-96.0619,41.191,0.0],[-96.062,41.1985,0.0],[-96.062,41.203,0.0],[-96.062,41.2053,0.0],[-96.0524,41.2053,0.0],[-96.0483,41.2053,0.0],[-96.043,41.2053,0.0],[-96.043,41.202,0.0],[-96.043,41.2009,0.0],[-96.043,41.2007,0.0],[-96.043,41.2006,0.0],[-96.043,41.1986,0.0],[-96.043,41.1984,0.0],[-96.0429,41.1907,0.0],[-96.0491,41.1907,0.0],[-96.0519,41.1907,0.0],[-96.0619,41.1907,0.0],[-96.0622,41.1907,0.0]]]]}},{"type":"Feature","properties":{"uesi_id":"USA_R169759","nbhd_code":"USA_R169759_10","nbhd_name":"Census Tract 75.15"},"geometry":{"type":"MultiPolygon","coordinates":[[[[-96.2344,41.2339,0.0],[-96.2157,41.2339,0.0],[-96.2155,41.2338,0.0],[-96.1962,41.2341,0.0],[-96.1961,41.2343,0.0],[-96.1962,41.2268,0.0],[-96.1962,41.2257,0.0],[-96.1963,41.2194,0.0],[-96.2155,41.2194,0.0],[-96.2343,41.2193,0.0],[-96.2344,41.2339,0.0]]]]}},{"type":"Feature","properties":{"uesi_id":"USA_R169759","nbhd_code":"USA_R169759_11","nbhd_name":"Census Tract 7"},"geometry":{"type":"MultiPolygon","coordinates":[[[[-95.9566,41.2941,0.0],[-95.9566,41.2996,0.0],[-95.9517,41.2996,0.0],[-95.947,41.2996,0.0],[-95.947,41.2946,0.0],[-95.947,41.2892,0.0],[-95.9566,41.2891,0.0],[-95.9566,41.2941,0.0]]]]}},{"type":"Feature","properties":{"uesi_id":"USA_R169759","nbhd_code":"USA_R169759_12","nbhd_name":"Census Tract 42"},"geometry":{"type":"MultiPolygon","coordinates":[[[[-95.9664,41.2597,0.0],[-95.9658,41.2597,0.0],[-95.9616,41.2597,0.0],[-95.9614,41.2567,0.0],[-95.9614,41.2542,0.0],[-95.9614,41.2524,0.0],[-95.9614,41.2488,0.0],[-95.9625,41.2479,0.0],[-95.9631,41.2488,0.0],[-95.9662,41.2488,0.0],[-95.9662,41.2524,0.0],[-95.9662,41.2542,0.0],[-95.9661,41.256,0.0],[-95.9664,41.2597,0.0]]]]}},{"type":"Feature","properties":{"uesi_id":"USA_R169759","nbhd_code":"USA_R169759_13","nbhd_name":"Census Tract 63.02"},"geometry":{"type":"MultiPolygon","coordinates":[[[[-96.0143,41.3031,0.0],[-96.0118,41.3031,0.0],[-96.0113,41.3042,0.0],[-96.0059,41.3052,0.0],[-96.0046,41.3062,0.0],[-96.0046,41.3067,0.0],[-96.0046,41.3104,0.0],[-95.9878,41.3104,0.0],[-95.9854,41.3103,0.0],[-95.9848,41.3086,0.0],[-95.9848,41.3067,0.0],[-95.9854,41.3067,0.0],[-95.9855,41.2996,0.0],[-95.995,41.2996,0.0],[-96.0047,41.2995,0.0],[-96.0143,41.2995,0.0],[-96.0143,41.3031,0.0]]]]}},{"type":"Feature","properties":{"uesi_id":"USA_R169759","nbhd_code":"USA_R169759_14","nbhd_name":"Census Tract 65.05"},"geometry":{"type":"MultiPolygon","coordinates":[[[[-96.0238,41.3357,0.0],[-96.0047,41.3358,0.0],[-96.0047,41.3321,0.0],[-96.0046,41.3248,0.0],[-96.0046,41.3176,0.0],[-96.0123,41.3176,0.0],[-96.0142,41.3176,0.0],[-96.0191,41.3168,0.0],[-96.0211,41.3178,0.0],[-96.0238,41.3173,0.0],[-96.0238,41.3357,0.0]]]]}},{"type":"Feature","properties":{"uesi_id":"USA_R169759","nbhd_code":"USA_R169759_15","nbhd_name":"Census Tract 74.32"},"geometry":{"type":"MultiPolygon","coordinates":[[[[-96.1197,41.2963,0.0],[-96.1196,41.303,0.0],[-96.1196,41.3066,0.0],[-96.1108,41.3066,0.0],[-96.1044,41.3066,0.0],[-96.1042,41.3026,0.0],[-96.1034,41.3012,0.0],[-96.1014,41.2973,0.0],[-96.1007,41.2969,0.0],[-96.0994,41.2959,0.0],[-96.0982,41.2925,0.0],[-96.0971,41.2913,0.0],[-96.1007,41.2921,0.0],[-96.1055,41.2923,0.0],[-96.1196,41.2922,0.0],[-96.1197,41.2963,0.0]]]]}},{"type":"Feature","properties":{"uesi_id":"USA_R169759","nbhd_code":"USA_R169759_16","nbhd_name":"Census Tract 74.55"},"geometry":{"type":"MultiPolygon","coordinates":[[[[-96.1388,41.2127,0.0],[-96.1357,41.2126,0.0],[-96.1204,41.2122,0.0],[-96.1199,41.2118,0.0],[-96.119,41.2054,0.0],[-96.1195,41.2051,0.0],[-96.1284,41.2052,0.0],[-96.1292,41.2051,0.0],[-96.1298,41.2049,0.0],[-96.1316,41.2052,0.0],[-96.1327,41.2053,0.0],[-96.1388,41.2054,0.0],[-96.1388,41.2127,0.0]]]]}},{"type":"Feature","properties":{"uesi_id":"USA_R169759","nbhd_code":"USA_R169759_17","nbhd_name":"Census Tract 73.13"},"geometry":{"type":"MultiPolygon","coordinates":[[[[-96.0627,41.3272,0.0],[-96.0572,41.3305,0.0],[-96.0503,41.333,0.0],[-96.0429,41.3354,0.0],[-96.0238,41.3415,0.0],[-96.0238,41.3357,0.0],[-96.0238,41.3173,0.0],[-96.0238,41.3127,0.0],[-96.0334,41.3127,0.0],[-96.0423,41.3126,0.0],[-96.0427,41.3125,0.0],[-96.0461,41.311,0.0],[-96.0464,41.3105,0.0],[-96.0499,41.3118,0.0],[-96.0526,41.3131,0.0],[-96.0525,41.3148,0.0],[-96.0525,41.3152,0.0],[-96.0522,41.3166,0.0],[-96.053,41.3169,0.0],[-96.0534,41.318,0.0],[-96.0548,41.3208,0.0],[-96.0553,41.3215,0.0],[-96.0573,41.3236,0.0],[-96.059,41.3248,0.0],[-96.0621,41.3268,0.0],[-96.0627,41.3272,0.0]]]]}},{"type":"Feature","properties":{"uesi_id":"USA_R169759","nbhd_code":"USA_R169759_18","nbhd_name":"Census Tract 74.06"},"geometry":{"type":"MultiPolygon","coordinates":[[[[-96.1386,41.2408,0.0],[-96.1386,41.2486,0.0],[-96.1304,41.2486,0.0],[-96.1277,41.2486,0.0],[-96.1196,41.2486,0.0],[-96.1195,41.2418,0.0],[-96.1195,41.2408,0.0],[-96.1195,41.2389,0.0],[-96.1195,41.2341,0.0],[-96.1273,41.234,0.0],[-96.1292,41.234,0.0],[-96.1386,41.2338,0.0],[-96.1387,41.2381,0.0],[-96.1386,41.2408,0.0]]]]}},{"type":"Feature","properties":{"uesi_id":"USA_R169759","nbhd_code":"USA_R169759_19","nbhd_name":"Census Tract 74.33"},"geometry":{"type":"MultiPolygon","coordinates":[[[[-96.1044,41.3066,0.0],[-96.1007,41.3066,0.0],[-96.0892,41.3067,0.0],[-96.0814,41.3066,0.0],[-96.0814,41.3008,0.0],[-96.0814,41.2977,0.0],[-96.0814,41.2963,0.0],[-96.0814,41.2945,0.0],[-96.0814,41.2887,0.0],[-96.0814,41.2875,0.0],[-96.0875,41.289,0.0],[-96.0924,41.2902,0.0],[-96.0971,41.2913,0.0],[-96.0982,41.2925,0.0],[-96.0994,41.2959,0.0],[-96.1007,41.2969,0.0],[-96.1014,41.2973,0.0],[-96.1034,41.3012,0.0],[-96.1042,41.3026,0.0],[-96.1044,41.3066,0.0]]]]}},{"type":"Feature","properties":{"uesi_id":"USA_R169759","nbhd_code":"USA_R169759_20","nbhd_name":"Census Tract 74.39"},"geometry":{"type":"MultiPolygon","coordinates":[[[[-96.1196,41.2922,0.0],[-96.1055,41.2923,0.0],[-96.1007,41.2921,0.0],[-96.0971,41.2913,0.0],[-96.0958,41.2896,0.0],[-96.0957,41.2805,0.0],[-96.0949,41.2777,0.0],[-96.1005,41.2777,0.0],[-96.1062,41.2777,0.0],[-96.1069,41.2777,0.0],[-96.1196,41.2776,0.0],[-96.1196,41.2801,0.0],[-96.1196,41.2922,0.0]]]]}},{"type":"Feature","properties":{"uesi_id":"USA_R169759","nbhd_code":"USA_R169759_21","nbhd_name":"Census Tract 74.44"},"geometry":{"type":"MultiPolygon","coordinates":[[[[-96.1005,41.2717,0.0],[-96.1005,41.2777,0.0],[-96.0949,41.2777,0.0],[-96.0914,41.2777,0.0],[-96.0856,41.2778,0.0],[-96.0813,41.2778,0.0],[-96.0814,41.2675,0.0],[-96.0838,41.2644,0.0],[-96.0825,41.2634,0.0],[-96.0858,41.2634,0.0],[-96.0864,41.2633,0.0],[-96.091,41.2632,0.0],[-96.1006,41.2631,0.0],[-96.1005,41.2717,0.0]]]]}},{"type":"Feature","properties":{"uesi_id":"USA_R169759","nbhd_code":"USA_R169759_22","nbhd_name":"Census Tract 74.54"},"geometry":{"type":"MultiPolygon","coordinates":[[[[-96.158,41.2121,0.0],[-96.1577,41.2137,0.0],[-96.1552,41.2155,0.0],[-96.1543,41.2173,0.0],[-96.1555,41.2193,0.0],[-96.1549,41.2195,0.0],[-96.1471,41.2195,0.0],[-96.1387,41.2195,0.0],[-96.1388,41.2127,0.0],[-96.1388,41.2054,0.0],[-96.1477,41.2053,0.0],[-96.1502,41.2053,0.0],[-96.1582,41.2054,0.0],[-96.158,41.2121,0.0]]]]}},{"type":"Feature","properties":{"uesi_id":"USA_R169759","nbhd_code":"USA_R169759_23","nbhd_name":"Census Tract 74.57"},"geometry":{"type":"MultiPolygon","coordinates":[[[[-96.0939,41.2069,0.0],[-96.0911,41.2121,0.0],[-96.088,41.2125,0.0],[-96.0815,41.2125,0.0],[-96.0622,41.2125,0.0],[-96.0621,41.209,0.0],[-96.062,41.2053,0.0],[-96.0702,41.2053,0.0],[-96.0716,41.2053,0.0],[-96.0736,41.2054,0.0],[-96.0814,41.2053,0.0],[-96.0903,41.2054,0.0],[-96.0942,41.2053,0.0],[-96.0939,41.2069,0.0]]]]}},{"type":"Feature","properties":{"uesi_id":"USA_R169759","nbhd_code":"USA_R169759_24","nbhd_name":"Census Tract 11"},"geometry":{"type":"MultiPolygon","coordinates":[[[[-95.9566,41.2729,0.0],[-95.9566,41.2765,0.0],[-95.9566,41.2815,0.0],[-95.9566,41.2887,0.0],[-95.9566,41.2891,0.0],[-95.947,41.2892,0.0],[-95.947,41.2888,0.0],[-95.947,41.2851,0.0],[-95.947,41.2815,0.0],[-95.947,41.2765,0.0],[-95.947,41.2717,0.0],[-95.947,41.268,0.0],[-95.9557,41.2676,0.0],[-95.9565,41.2679,0.0],[-95.9566,41.2688,0.0],[-95.9566,41.2729,0.0]]]]}},{"type":"Feature","properties":{"uesi_id":"USA_R169759","nbhd_code":"USA_R169759_25","nbhd_name":"Census Tract 12"},"geometry":{"type":"MultiPolygon","coordinates":[[[[-95.947,41.2765,0.0],[-95.947,41.2815,0.0],[-95.947,41.2851,0.0],[-95.947,41.2888,0.0],[-95.9438,41.2888,0.0],[-95.9438,41.2879,0.0],[-95.9422,41.2888,0.0],[-95.9374,41.2887,0.0],[-95.9374,41.2815,0.0],[-95.9374,41.2743,0.0],[-95.9371,41.2679,0.0],[-95.947,41.268,0.0],[-95.947,41.2717,0.0],[-95.947,41.2765,0.0]]]]}},{"type":"Feature","properties":{"uesi_id":"USA_R169759","nbhd_code":"USA_R169759_26","nbhd_name":"Census Tract 30"},"geometry":{"type":"MultiPolygon","coordinates":[[[[-95.9818,41.1944,0.0],[-95.977,41.1945,0.0],[-95.977,41.1981,0.0],[-95.977,41.2018,0.0],[-95.9769,41.2049,0.0],[-95.9767,41.2055,0.0],[-95.9771,41.2056,0.0],[-95.9702,41.2103,0.0],[-95.9689,41.2125,0.0],[-95.9671,41.2123,0.0],[-95.9673,41.2054,0.0],[-95.9674,41.2018,0.0],[-95.9674,41.1981,0.0],[-95.9633,41.1982,0.0],[-95.9577,41.1976,0.0],[-95.9577,41.1945,0.0],[-95.9577,41.1909,0.0],[-95.9674,41.1908,0.0],[-95.977,41.1908,0.0],[-95.9819,41.1908,0.0],[-95.9818,41.1944,0.0]]]]}},{"type":"Feature","properties":{"uesi_id":"USA_R169759","nbhd_code":"USA_R169759_27","nbhd_name":"Census Tract 48"},"geometry":{"type":"MultiPolygon","coordinates":[[[[-95.9951,41.2669,0.0],[-95.9951,41.2705,0.0],[-95.9951,41.2731,0.0],[-95.9902,41.2732,0.0],[-95.9878,41.2732,0.0],[-95.9854,41.2731,0.0],[-95.9856,41.2679,0.0],[-95.9857,41.2669,0.0],[-95.9857,41.2648,0.0],[-95.9857,41.2632,0.0],[-95.9854,41.2597,0.0],[-95.9927,41.2597,0.0],[-95.9951,41.2597,0.0],[-95.9951,41.2632,0.0],[-95.9951,41.2669,0.0]]]]}},{"type":"Feature","properties":{"uesi_id":"USA_R169759","nbhd_code":"USA_R169759_28","nbhd_name":"Census Tract 63.01"},"geometry":{"type":"MultiPolygon","coordinates":[[[[-96.0047,41.3321,0.0],[-95.9978,41.3319,0.0],[-95.997,41.3306,0.0],[-95.9947,41.3302,0.0],[-95.9951,41.3282,0.0],[-95.9924,41.3282,0.0],[-95.9926,41.3248,0.0],[-95.9889,41.3248,0.0],[-95.9888,41.3213,0.0],[-95.9862,41.3217,0.0],[-95.9852,41.3222,0.0],[-95.9854,41.3158,0.0],[-95.9854,41.3149,0.0],[-95.9854,41.3122,0.0],[-95.9878,41.3111,0.0],[-95.9878,41.3104,0.0],[-96.0046,41.3104,0.0],[-96.0046,41.3176,0.0],[-96.0046,41.3248,0.0],[-96.0047,41.3321,0.0]]]]}},{"type":"Feature","properties":{"uesi_id":"USA_R169759","nbhd_code":"USA_R169759_29","nbhd_name":"Census Tract 68.04"},"geometry":{"type":"MultiPolygon","coordinates":[[[[-96.0858,41.2363,0.0],[-96.0857,41.2424,0.0],[-96.085,41.248,0.0],[-96.0847,41.2487,0.0],[-96.0792,41.2488,0.0],[-96.0791,41.2488,0.0],[-96.0757,41.2472,0.0],[-96.0721,41.2438,0.0],[-96.0673,41.2423,0.0],[-96.0639,41.2418,0.0],[-96.0628,41.2411,0.0],[-96.0615,41.2396,0.0],[-96.0554,41.234,0.0],[-96.0581,41.2335,0.0],[-96.0603,41.2335,0.0],[-96.0649,41.2342,0.0],[-96.0724,41.2342,0.0],[-96.0793,41.2342,0.0],[-96.0862,41.2342,0.0],[-96.0858,41.2363,0.0]]]]}},{"type":"Feature","properties":{"uesi_id":"USA_R169759","nbhd_code":"USA_R169759_30","nbhd_name":"Census Tract 73.15"},"geometry":{"type":"MultiPolygon","coordinates":[[[[-96.139,41.3356,0.0],[-96.129,41.3356,0.0],[-96.1144,41.3356,0.0],[-96.11,41.3356,0.0],[-96.105,41.3357,0.0],[-96.1003,41.3357,0.0],[-96.1005,41.322,0.0],[-96.1005,41.3188,0.0],[-96.1006,41.3138,0.0],[-96.1007,41.3066,0.0],[-96.1044,41.3066,0.0],[-96.1108,41.3066,0.0],[-96.1196,41.3066,0.0],[-96.1236,41.3066,0.0],[-96.1389,41.3066,0.0],[-96.1389,41.3178,0.0],[-96.1389,41.3211,0.0],[-96.1389,41.3255,0.0],[-96.1389,41.3289,0.0],[-96.139,41.3356,0.0]]]]}},{"type":"Feature","properties":{"uesi_id":"USA_R169759","nbhd_code":"USA_R169759_31","nbhd_name":"Census Tract 74.35"},"geometry":{"type":"MultiPolygon","coordinates":[[[[-96.0715,41.2977,0.0],[-96.0709,41.3067,0.0],[-96.067,41.3067,0.0],[-96.0627,41.3067,0.0],[-96.0526,41.3067,0.0],[-96.0526,41.3001,0.0],[-96.0526,41.2984,0.0],[-96.0526,41.2955,0.0],[-96.054,41.2955,0.0],[-96.0608,41.2976,0.0],[-96.0625,41.2976,0.0],[-96.0631,41.2974,0.0],[-96.064,41.2992,0.0],[-96.065,41.2992,0.0],[-96.0649,41.2977,0.0],[-96.0644,41.2967,0.0],[-96.0681,41.2966,0.0],[-96.0684,41.2956,0.0],[-96.0704,41.2959,0.0],[-96.0719,41.2963,0.0],[-96.0715,41.2977,0.0]]]]}},{"type":"Feature","properties":{"uesi_id":"USA_R169759","nbhd_code":"USA_R169759_32","nbhd_name":"Census Tract 74.46"},"geometry":{"type":"MultiPolygon","coordinates":[[[[-96.1771,41.2629,0.0],[-96.1755,41.2629,0.0],[-96.158,41.263,0.0],[-96.158,41.2601,0.0],[-96.158,41.2582,0.0],[-96.158,41.255,0.0],[-96.1579,41.2485,0.0],[-96.1629,41.2485,0.0],[-96.1657,41.2485,0.0],[-96.1666,41.2485,0.0],[-96.1769,41.2485,0.0],[-96.177,41.2588,0.0],[-96.1774,41.2597,0.0],[-96.1771,41.2629,0.0]]]]}},{"type":"Feature","properties":{"uesi_id":"USA_R169759","nbhd_code":"USA_R169759_33","nbhd_name":"Census Tract 74.62"},"geometry":{"type":"MultiPolygon","coordinates":[[[[-96.1583,41.1952,0.0],[-96.1582,41.1985,0.0],[-96.1582,41.2025,0.0],[-96.1582,41.2054,0.0],[-96.1502,41.2053,0.0],[-96.1477,41.2053,0.0],[-96.1388,41.2054,0.0],[-96.1388,41.1981,0.0],[-96.1388,41.1908,0.0],[-96.1461,41.1908,0.0],[-96.148,41.1908,0.0],[-96.1492,41.1908,0.0],[-96.1519,41.1908,0.0],[-96.1583,41.1908,0.0],[-96.1583,41.1952,0.0]]]]}},{"type":"Feature","properties":{"uesi_id":"USA_R169759","nbhd_code":"USA_R169759_34","nbhd_name":"Census Tract 75.12"},"geometry":{"type":"MultiPolygon","coordinates":[[[[-96.2345,41.2813,0.0],[-96.2344,41.2919,0.0],[-96.2248,41.292,0.0],[-96.2159,41.292,0.0],[-96.1967,41.292,0.0],[-96.1965,41.2915,0.0],[-96.1965,41.2776,0.0],[-96.1774,41.2775,0.0],[-96.1772,41.2775,0.0],[-96.1771,41.2678,0.0],[-96.1764,41.2637,0.0],[-96.1771,41.2629,0.0],[-96.1964,41.263,0.0],[-96.2156,41.2629,0.0],[-96.2345,41.2628,0.0],[-96.2345,41.2738,0.0],[-96.2345,41.2773,0.0],[-96.2345,41.2813,0.0]]]]}},{"type":"Feature","properties":{"uesi_id":"USA_R169759","nbhd_code":"USA_R169759_35","nbhd_name":"Census Tract 3"},"geometry":{"type":"MultiPolygon","coordinates":[[[[-95.9566,41.3094,0.0],[-95.9566,41.3121,0.0],[-95.9566,41.314,0.0],[-95.9566,41.3158,0.0],[-95.9565,41.3176,0.0],[-95.9454,41.3176,0.0],[-95.9453,41.3155,0.0],[-95.9453,41.314,0.0],[-95.9454,41.3121,0.0],[-95.9449,41.3093,0.0],[-95.9448,41.309,0.0],[-95.9437,41.3071,0.0],[-95.9442,41.3066,0.0],[-95.9469,41.305,0.0],[-95.9469,41.3067,0.0],[-95.9566,41.3067,0.0],[-95.9566,41.3094,0.0]]]]}},{"type":"Feature","properties":{"uesi_id":"USA_R169759","nbhd_code":"USA_R169759_36","nbhd_name":"Census Tract 8"},"geometry":{"type":"MultiPolygon","coordinates":[[[[-95.947,41.2892,0.0],[-95.947,41.2946,0.0],[-95.947,41.2996,0.0],[-95.9421,41.2996,0.0],[-95.9323,41.2997,0.0],[-95.9325,41.2979,0.0],[-95.9326,41.2853,0.0],[-95.9352,41.2851,0.0],[-95.9352,41.2887,0.0],[-95.9374,41.2887,0.0],[-95.9422,41.2888,0.0],[-95.9438,41.2879,0.0],[-95.9438,41.2888,0.0],[-95.947,41.2888,0.0],[-95.947,41.2892,0.0]]]]}},{"type":"Feature","properties":{"uesi_id":"USA_R169759","nbhd_code":"USA_R169759_37","nbhd_name":"Census Tract 21"},"geometry":{"type":"MultiPolygon","coordinates":[[[[-95.9374,41.2382,0.0],[-95.9373,41.2429,0.0],[-95.9372,41.2481,0.0],[-95.9347,41.2481,0.0],[-95.9333,41.2492,0.0],[-95.9306,41.2491,0.0],[-95.9307,41.2429,0.0],[-95.9307,41.2369,0.0],[-95.932,41.2369,0.0],[-95.9374,41.237,0.0],[-95.9374,41.2382,0.0]]]]}},{"type":"Feature","properties":{"uesi_id":"USA_R169759","nbhd_code":"USA_R169759_38","nbhd_name":"Census Tract 29"},"geometry":{"type":"MultiPolygon","coordinates":[[[[-95.9674,41.2018,0.0],[-95.9673,41.2054,0.0],[-95.96,41.2055,0.0],[-95.9532,41.2056,0.0],[-95.9505,41.2056,0.0],[-95.9491,41.2056,0.0],[-95.9471,41.2056,0.0],[-95.947,41.2019,0.0],[-95.9459,41.2004,0.0],[-95.9423,41.197,0.0],[-95.942,41.1965,0.0],[-95.941,41.1951,0.0],[-95.9368,41.191,0.0],[-95.9383,41.1911,0.0],[-95.9395,41.1911,0.0],[-95.9398,41.1911,0.0],[-95.9479,41.191,0.0],[-95.9528,41.1909,0.0],[-95.9577,41.1909,0.0],[-95.9577,41.1945,0.0],[-95.9577,41.1976,0.0],[-95.9633,41.1982,0.0],[-95.9674,41.1981,0.0],[-95.9674,41.2018,0.0]]]]}},{"type":"Feature","properties":{"uesi_id":"USA_R169759","nbhd_code":"USA_R169759_39","nbhd_name":"Census Tract 37"},"geometry":{"type":"MultiPolygon","coordinates":[[[[-95.9922,41.2432,0.0],[-95.9888,41.2467,0.0],[-95.9879,41.2488,0.0],[-95.9854,41.2488,0.0],[-95.9833,41.2488,0.0],[-95.9806,41.2488,0.0],[-95.9758,41.2488,0.0],[-95.9758,41.2415,0.0],[-95.9806,41.2415,0.0],[-95.9842,41.2415,0.0],[-95.9854,41.2415,0.0],[-95.9902,41.2415,0.0],[-95.9924,41.2413,0.0],[-95.9922,41.2432,0.0]]]]}},{"type":"Feature","properties":{"uesi_id":"USA_R169759","nbhd_code":"USA_R169759_40","nbhd_name":"Census Tract 40"},"geometry":{"type":"MultiPolygon","coordinates":[[[[-95.9616,41.2597,0.0],[-95.9566,41.2598,0.0],[-95.9543,41.2598,0.0],[-95.9469,41.2598,0.0],[-95.9469,41.2566,0.0],[-95.9469,41.2543,0.0],[-95.947,41.2531,0.0],[-95.947,41.2524,0.0],[-95.9539,41.2524,0.0],[-95.954,41.2524,0.0],[-95.9614,41.2524,0.0],[-95.9614,41.2542,0.0],[-95.9614,41.2567,0.0],[-95.9616,41.2597,0.0]]]]}},{"type":"Feature","properties":{"uesi_id":"USA_R169759","nbhd_code":"USA_R169759_41","nbhd_name":"Census Tract 52"},"geometry":{"type":"MultiPolygon","coordinates":[[[[-95.9661,41.2764,0.0],[-95.9661,41.2777,0.0],[-95.9661,41.2814,0.0],[-95.9566,41.2815,0.0],[-95.9566,41.2765,0.0],[-95.9566,41.2729,0.0],[-95.9661,41.2728,0.0],[-95.9661,41.2731,0.0],[-95.9661,41.2764,0.0]]]]}},{"type":"Feature","properties":{"uesi_id":"USA_R169759","nbhd_code":"USA_R169759_42","nbhd_name":"Census Tract 57"},"geometry":{"type":"MultiPolygon","coordinates":[[[[-96.0144,41.2887,0.0],[-96.0143,41.2896,0.0],[-96.0131,41.2914,0.0],[-96.0143,41.2923,0.0],[-96.0143,41.2928,0.0],[-96.0143,41.2959,0.0],[-96.0095,41.2959,0.0],[-96.0095,41.2923,0.0],[-96.0047,41.2923,0.0],[-96.0004,41.2923,0.0],[-95.9999,41.2923,0.0],[-95.9999,41.2959,0.0],[-95.9951,41.2959,0.0],[-95.9951,41.2942,0.0],[-95.9951,41.2923,0.0],[-95.9951,41.2905,0.0],[-95.9951,41.2887,0.0],[-95.995,41.285,0.0],[-95.995,41.2832,0.0],[-96.0048,41.2832,0.0],[-96.0048,41.285,0.0],[-96.0144,41.285,0.0],[-96.0144,41.2887,0.0]]]]}},{"type":"Feature","properties":{"uesi_id":"USA_R169759","nbhd_code":"USA_R169759_43","nbhd_name":"Census Tract 63.03"},"geometry":{"type":"MultiPolygon","coordinates":[[[[-96.0143,41.2995,0.0],[-96.0047,41.2995,0.0],[-95.995,41.2996,0.0],[-95.9951,41.2959,0.0],[-95.9999,41.2959,0.0],[-95.9999,41.2923,0.0],[-96.0004,41.2923,0.0],[-96.0047,41.2923,0.0],[-96.0095,41.2923,0.0],[-96.0095,41.2959,0.0],[-96.0143,41.2959,0.0],[-96.0143,41.2995,0.0]]]]}},{"type":"Feature","properties":{"uesi_id":"USA_R169759","nbhd_code":"USA_R169759_44","nbhd_name":"Census Tract 67.03"},"geometry":{"type":"MultiPolygon","coordinates":[[[[-96.1006,41.2554,0.0],[-96.1006,41.257,0.0],[-96.1006,41.2631,0.0],[-96.091,41.2632,0.0],[-96.0864,41.2633,0.0],[-96.0858,41.2634,0.0],[-96.0825,41.2634,0.0],[-96.0757,41.2634,0.0],[-96.0757,41.2596,0.0],[-96.0766,41.2563,0.0],[-96.0776,41.2549,0.0],[-96.0839,41.2504,0.0],[-96.0851,41.2487,0.0],[-96.091,41.2487,0.0],[-96.1007,41.2486,0.0],[-96.1006,41.2554,0.0]]]]}},{"type":"Feature","properties":{"uesi_id":"USA_R169759","nbhd_code":"USA_R169759_45","nbhd_name":"Census Tract 69.04"},"geometry":{"type":"MultiPolygon","coordinates":[[[[-96.089,41.2252,0.0],[-96.0862,41.2342,0.0],[-96.0793,41.2342,0.0],[-96.0724,41.2342,0.0],[-96.0649,41.2342,0.0],[-96.0603,41.2335,0.0],[-96.0581,41.2335,0.0],[-96.0548,41.233,0.0],[-96.0563,41.2304,0.0],[-96.057,41.2294,0.0],[-96.0579,41.2249,0.0],[-96.0589,41.2234,0.0],[-96.0623,41.2234,0.0],[-96.0623,41.2216,0.0],[-96.0815,41.2215,0.0],[-96.0915,41.2215,0.0],[-96.089,41.2252,0.0]]]]}},{"type":"Feature","properties":{"uesi_id":"USA_R169759","nbhd_code":"USA_R169759_46","nbhd_name":"Census Tract 73.09"},"geometry":{"type":"MultiPolygon","coordinates":[[[[-96.1005,41.322,0.0],[-96.1003,41.3357,0.0],[-96.0908,41.3357,0.0],[-96.0795,41.3357,0.0],[-96.0788,41.3325,0.0],[-96.0782,41.331,0.0],[-96.0769,41.3292,0.0],[-96.0721,41.3248,0.0],[-96.0744,41.3217,0.0],[-96.075,41.3213,0.0],[-96.0755,41.3212,0.0],[-96.0782,41.3212,0.0],[-96.0813,41.3212,0.0],[-96.0813,41.3177,0.0],[-96.0813,41.3175,0.0],[-96.091,41.3176,0.0],[-96.0946,41.3185,0.0],[-96.1005,41.3188,0.0],[-96.1005,41.322,0.0]]]]}},{"type":"Feature","properties":{"uesi_id":"USA_R169759","nbhd_code":"USA_R169759_47","nbhd_name":"Census Tract 73.14"},"geometry":{"type":"MultiPolygon","coordinates":[[[[-96.1584,41.3356,0.0],[-96.139,41.3356,0.0],[-96.1389,41.3289,0.0],[-96.1389,41.3255,0.0],[-96.1389,41.3211,0.0],[-96.1425,41.3211,0.0],[-96.143,41.3211,0.0],[-96.1435,41.3211,0.0],[-96.1461,41.3211,0.0],[-96.1486,41.3211,0.0],[-96.1583,41.3211,0.0],[-96.1584,41.3291,0.0],[-96.1584,41.3356,0.0]]]]}},{"type":"Feature","properties":{"uesi_id":"USA_R169759","nbhd_code":"USA_R169759_48","nbhd_name":"Census Tract 74.07"},"geometry":{"type":"MultiPolygon","coordinates":[[[[-96.1196,41.2486,0.0],[-96.1121,41.2486,0.0],[-96.1007,41.2486,0.0],[-96.1007,41.2414,0.0],[-96.1007,41.2409,0.0],[-96.1007,41.234,0.0],[-96.1064,41.234,0.0],[-96.1075,41.234,0.0],[-96.1099,41.234,0.0],[-96.1195,41.2341,0.0],[-96.1195,41.2389,0.0],[-96.1195,41.2408,0.0],[-96.1195,41.2418,0.0],[-96.1196,41.2486,0.0]]]]}},{"type":"Feature","properties":{"uesi_id":"USA_R169759","nbhd_code":"USA_R169759_49","nbhd_name":"Census Tract 74.24"},"geometry":{"type":"MultiPolygon","coordinates":[[[[-96.0762,41.283,0.0],[-96.0758,41.2861,0.0],[-96.0754,41.286,0.0],[-96.0713,41.2852,0.0],[-96.0682,41.2851,0.0],[-96.0644,41.2851,0.0],[-96.0559,41.2851,0.0],[-96.0526,41.2851,0.0],[-96.0526,41.2778,0.0],[-96.0621,41.2778,0.0],[-96.0646,41.2778,0.0],[-96.0758,41.2778,0.0],[-96.0761,41.2778,0.0],[-96.0762,41.283,0.0]]]]}},{"type":"Feature","properties":{"uesi_id":"USA_R169759","nbhd_code":"USA_R169759_50","nbhd_name":"Census Tract 74.38"},"geometry":{"type":"MultiPolygon","coordinates":[[[[-96.1389,41.2922,0.0],[-96.1283,41.292,0.0],[-96.1196,41.2922,0.0],[-96.1196,41.2801,0.0],[-96.1196,41.2776,0.0],[-96.1244,41.2776,0.0],[-96.1293,41.2776,0.0],[-96.1388,41.2777,0.0],[-96.1388,41.2851,0.0],[-96.1389,41.2875,0.0],[-96.1389,41.2922,0.0]]]]}},{"type":"Feature","properties":{"uesi_id":"USA_R169759","nbhd_code":"USA_R169759_51","nbhd_name":"Census Tract 74.42"},"geometry":{"type":"MultiPolygon","coordinates":[[[[-96.1581,41.2775,0.0],[-96.1541,41.2776,0.0],[-96.1449,41.2776,0.0],[-96.1423,41.2776,0.0],[-96.1388,41.2777,0.0],[-96.1388,41.272,0.0],[-96.1388,41.2631,0.0],[-96.1422,41.2631,0.0],[-96.1485,41.2631,0.0],[-96.158,41.263,0.0],[-96.158,41.2655,0.0],[-96.158,41.2698,0.0],[-96.1581,41.2775,0.0]]]]}},{"type":"Feature","properties":{"uesi_id":"USA_R169759","nbhd_code":"USA_R169759_52","nbhd_name":"Census Tract 74.48"},"geometry":{"type":"MultiPolygon","coordinates":[[[[-96.1196,41.2631,0.0],[-96.1006,41.2631,0.0],[-96.1006,41.257,0.0],[-96.1006,41.2554,0.0],[-96.1007,41.2486,0.0],[-96.1121,41.2486,0.0],[-96.1196,41.2486,0.0],[-96.1196,41.2518,0.0],[-96.1196,41.2631,0.0]]]]}},{"type":"Feature","properties":{"uesi_id":"USA_R169759","nbhd_code":"USA_R169759_53","nbhd_name":"Census Tract 74.56"},"geometry":{"type":"MultiPolygon","coordinates":[[[[-96.1204,41.2122,0.0],[-96.1199,41.2125,0.0],[-96.1197,41.213,0.0],[-96.1098,41.2125,0.0],[-96.1026,41.2125,0.0],[-96.1008,41.2122,0.0],[-96.0952,41.2117,0.0],[-96.0911,41.2121,0.0],[-96.0939,41.2069,0.0],[-96.0942,41.2053,0.0],[-96.1024,41.2053,0.0],[-96.1075,41.2052,0.0],[-96.1123,41.2052,0.0],[-96.1187,41.2051,0.0],[-96.1195,41.2051,0.0],[-96.119,41.2054,0.0],[-96.1199,41.2118,0.0],[-96.1204,41.2122,0.0]]]]}},{"type":"Feature","properties":{"uesi_id":"USA_R169759","nbhd_code":"USA_R169759_54","nbhd_name":"Census Tract 74.61"},"geometry":{"type":"MultiPolygon","coordinates":[[[[-96.1774,41.1964,0.0],[-96.1774,41.1984,0.0],[-96.1773,41.2052,0.0],[-96.1671,41.2053,0.0],[-96.1631,41.2053,0.0],[-96.1582,41.2054,0.0],[-96.1582,41.2025,0.0],[-96.1582,41.1985,0.0],[-96.1583,41.1952,0.0],[-96.1583,41.1908,0.0],[-96.1775,41.1906,0.0],[-96.1774,41.1964,0.0]]]]}},{"type":"Feature","properties":{"uesi_id":"USA_R169759","nbhd_code":"USA_R169759_55","nbhd_name":"Census Tract 75.11"},"geometry":{"type":"MultiPolygon","coordinates":[[[[-96.2345,41.3063,0.0],[-96.1964,41.3064,0.0],[-96.1876,41.3065,0.0],[-96.1868,41.3065,0.0],[-96.1821,41.3065,0.0],[-96.1773,41.3065,0.0],[-96.1773,41.3028,0.0],[-96.1773,41.2996,0.0],[-96.1774,41.2984,0.0],[-96.1774,41.2975,0.0],[-96.1774,41.2921,0.0],[-96.1773,41.2848,0.0],[-96.1772,41.2775,0.0],[-96.1774,41.2775,0.0],[-96.1965,41.2776,0.0],[-96.1965,41.2915,0.0],[-96.1967,41.292,0.0],[-96.2159,41.292,0.0],[-96.2248,41.292,0.0],[-96.2344,41.2919,0.0],[-96.2344,41.2975,0.0],[-96.2345,41.3063,0.0]]]]}},{"type":"Feature","properties":{"uesi_id":"USA_R169759","nbhd_code":"USA_R169759_56","nbhd_name":"Census Tract 59.02"},"geometry":{"type":"MultiPolygon","coordinates":[[[[-95.9722,41.2996,0.0],[-95.9698,41.2995,0.0],[-95.9638,41.2995,0.0],[-95.9566,41.2996,0.0],[-95.9566,41.2941,0.0],[-95.9566,41.2891,0.0],[-95.9566,41.2887,0.0],[-95.9721,41.2887,0.0],[-95.9722,41.2923,0.0],[-95.9722,41.2941,0.0],[-95.9722,41.2996,0.0]]]]}},{"type":"Feature","properties":{"uesi_id":"USA_R169759","nbhd_code":"USA_R169759_57","nbhd_name":"Census Tract 69.03"},"geometry":{"type":"MultiPolygon","coordinates":[[[[-96.1007,41.2292,0.0],[-96.1007,41.2303,0.0],[-96.1007,41.2314,0.0],[-96.1007,41.234,0.0],[-96.0911,41.2341,0.0],[-96.0862,41.2342,0.0],[-96.089,41.2252,0.0],[-96.0915,41.2215,0.0],[-96.1007,41.2215,0.0],[-96.1007,41.2224,0.0],[-96.1007,41.2292,0.0]]]]}},{"type":"Feature","properties":{"uesi_id":"USA_R169759","nbhd_code":"USA_R169759_58","nbhd_name":"Census Tract 74.41"},"geometry":{"type":"MultiPolygon","coordinates":[[[[-96.1772,41.2775,0.0],[-96.1678,41.2775,0.0],[-96.1657,41.2775,0.0],[-96.1581,41.2775,0.0],[-96.158,41.2698,0.0],[-96.158,41.2655,0.0],[-96.158,41.263,0.0],[-96.1755,41.2629,0.0],[-96.1771,41.2629,0.0],[-96.1764,41.2637,0.0],[-96.1771,41.2678,0.0],[-96.1772,41.2775,0.0]]]]}},{"type":"Feature","properties":{"uesi_id":"USA_R169759","nbhd_code":"USA_R169759_59","nbhd_name":"Census Tract 5"},"geometry":{"type":"MultiPolygon","coordinates":[[[[-95.9374,41.2815,0.0],[-95.9374,41.2887,0.0],[-95.9352,41.2887,0.0],[-95.9352,41.2851,0.0],[-95.9326,41.2853,0.0],[-95.9325,41.2979,0.0],[-95.9323,41.2997,0.0],[-95.9322,41.3029,0.0],[-95.9319,41.3035,0.0],[-95.9304,41.3047,0.0],[-95.9277,41.305,0.0],[-95.9277,41.3066,0.0],[-95.9276,41.3204,0.0],[-95.9269,41.3228,0.0],[-95.9257,41.3222,0.0],[-95.9221,41.3211,0.0],[-95.9138,41.3202,0.0],[-95.9127,41.3203,0.0],[-95.8993,41.3212,0.0],[-95.8887,41.3191,0.0],[-95.8831,41.3167,0.0],[-95.8782,41.3125,0.0],[-95.8747,41.3071,0.0],[-95.8715,41.2958,0.0],[-95.8728,41.2901,0.0],[-95.8729,41.2895,0.0],[-95.8769,41.2851,0.0],[-95.8824,41.2814,0.0],[-95.891,41.278,0.0],[-95.9025,41.2734,0.0],[-95.9039,41.2742,0.0],[-95.9125,41.2795,0.0],[-95.9094,41.2848,0.0],[-95.9093,41.2849,0.0],[-95.9043,41.2935,0.0],[-95.9043,41.2976,0.0],[-95.9043,41.2996,0.0],[-95.9059,41.3009,0.0],[-95.9133,41.301,0.0],[-95.9134,41.301,0.0],[-95.9203,41.3011,0.0],[-95.9224,41.3003,0.0],[-95.9275,41.2984,0.0],[-95.9296,41.2923,0.0],[-95.9296,41.2904,0.0],[-95.9296,41.2851,0.0],[-95.9287,41.2814,0.0],[-95.9182,41.2743,0.0],[-95.9145,41.2718,0.0],[-95.914,41.2714,0.0],[-95.9188,41.2697,0.0],[-95.9204,41.2684,0.0],[-95.9219,41.2646,0.0],[-95.9214,41.2599,0.0],[-95.9214,41.2597,0.0],[-95.9274,41.2588,0.0],[-95.9279,41.2597,0.0],[-95.9332,41.2597,0.0],[-95.9331,41.2648,0.0],[-95.9358,41.2648,0.0],[-95.9359,41.2678,0.0],[-95.9371,41.2679,0.0],[-95.9374,41.2743,0.0],[-95.9374,41.2815,0.0]]]]}},{"type":"Feature","properties":{"uesi_id":"USA_R169759","nbhd_code":"USA_R169759_60","nbhd_name":"Census Tract 19"},"geometry":{"type":"MultiPolygon","coordinates":[[[[-95.947,41.2524,0.0],[-95.947,41.2531,0.0],[-95.9469,41.2543,0.0],[-95.9469,41.2566,0.0],[-95.9469,41.2598,0.0],[-95.942,41.2597,0.0],[-95.9423,41.2593,0.0],[-95.9423,41.2543,0.0],[-95.9422,41.2482,0.0],[-95.9446,41.2487,0.0],[-95.947,41.2488,0.0],[-95.9471,41.2517,0.0],[-95.947,41.2524,0.0]]]]}},{"type":"Feature","properties":{"uesi_id":"USA_R169759","nbhd_code":"USA_R169759_61","nbhd_name":"Census Tract 24"},"geometry":{"type":"MultiPolygon","coordinates":[[[[-95.947,41.2318,0.0],[-95.9442,41.2318,0.0],[-95.9441,41.233,0.0],[-95.9423,41.233,0.0],[-95.9402,41.2333,0.0],[-95.9374,41.2344,0.0],[-95.9374,41.237,0.0],[-95.932,41.2369,0.0],[-95.9307,41.2369,0.0],[-95.9268,41.2369,0.0],[-95.9257,41.2342,0.0],[-95.9243,41.2309,0.0],[-95.9331,41.2297,0.0],[-95.9333,41.2296,0.0],[-95.9338,41.2294,0.0],[-95.9374,41.2281,0.0],[-95.9374,41.2282,0.0],[-95.9422,41.2265,0.0],[-95.947,41.2262,0.0],[-95.947,41.2318,0.0]]]]}},{"type":"Feature","properties":{"uesi_id":"USA_R169759","nbhd_code":"USA_R169759_62","nbhd_name":"Census Tract 26"},"geometry":{"type":"MultiPolygon","coordinates":[[[[-95.947,41.2185,0.0],[-95.947,41.2197,0.0],[-95.9429,41.2197,0.0],[-95.9418,41.2195,0.0],[-95.9405,41.2196,0.0],[-95.9384,41.2202,0.0],[-95.9362,41.2192,0.0],[-95.9333,41.2147,0.0],[-95.9333,41.213,0.0],[-95.9418,41.2129,0.0],[-95.9418,41.2122,0.0],[-95.9471,41.2122,0.0],[-95.947,41.2185,0.0]]]]}},{"type":"Feature","properties":{"uesi_id":"USA_R169759","nbhd_code":"USA_R169759_63","nbhd_name":"Census Tract 28"},"geometry":{"type":"MultiPolygon","coordinates":[[[[-95.9471,41.2056,0.0],[-95.943,41.2056,0.0],[-95.9418,41.2038,0.0],[-95.9362,41.2038,0.0],[-95.936,41.2021,0.0],[-95.9337,41.2021,0.0],[-95.9301,41.2023,0.0],[-95.9275,41.2022,0.0],[-95.926,41.1957,0.0],[-95.9232,41.191,0.0],[-95.9261,41.191,0.0],[-95.9335,41.191,0.0],[-95.9368,41.191,0.0],[-95.941,41.1951,0.0],[-95.942,41.1965,0.0],[-95.9423,41.197,0.0],[-95.9459,41.2004,0.0],[-95.947,41.2019,0.0],[-95.9471,41.2056,0.0]]]]}},{"type":"Feature","properties":{"uesi_id":"USA_R169759","nbhd_code":"USA_R169759_64","nbhd_name":"Census Tract 31"},"geometry":{"type":"MultiPolygon","coordinates":[[[[-95.9779,41.2056,0.0],[-95.9768,41.2077,0.0],[-95.9764,41.2126,0.0],[-95.9763,41.2144,0.0],[-95.9759,41.2197,0.0],[-95.9758,41.2247,0.0],[-95.9626,41.2269,0.0],[-95.9601,41.2273,0.0],[-95.9597,41.2274,0.0],[-95.9545,41.2271,0.0],[-95.9541,41.227,0.0],[-95.957,41.2224,0.0],[-95.9569,41.2197,0.0],[-95.9531,41.2123,0.0],[-95.9514,41.2087,0.0],[-95.9505,41.2056,0.0],[-95.9532,41.2056,0.0],[-95.96,41.2055,0.0],[-95.9673,41.2054,0.0],[-95.9671,41.2123,0.0],[-95.9689,41.2125,0.0],[-95.9702,41.2103,0.0],[-95.9771,41.2056,0.0],[-95.9779,41.2056,0.0]]]]}},{"type":"Feature","properties":{"uesi_id":"USA_R169759","nbhd_code":"USA_R169759_65","nbhd_name":"Census Tract 34.01"},"geometry":{"type":"MultiPolygon","coordinates":[[[[-95.9758,41.2415,0.0],[-95.9698,41.2415,0.0],[-95.9678,41.2379,0.0],[-95.9665,41.2358,0.0],[-95.9663,41.2348,0.0],[-95.9656,41.2338,0.0],[-95.9642,41.2303,0.0],[-95.9639,41.2293,0.0],[-95.9626,41.2269,0.0],[-95.9758,41.2247,0.0],[-95.9758,41.227,0.0],[-95.9758,41.2318,0.0],[-95.9758,41.2342,0.0],[-95.9758,41.2357,0.0],[-95.9758,41.2384,0.0],[-95.9758,41.2415,0.0]]]]}},{"type":"Feature","properties":{"uesi_id":"USA_R169759","nbhd_code":"USA_R169759_66","nbhd_name":"Census Tract 35"},"geometry":{"type":"MultiPolygon","coordinates":[[[[-96.0047,41.2379,0.0],[-95.9993,41.2381,0.0],[-95.998,41.239,0.0],[-95.9952,41.2408,0.0],[-95.9924,41.2413,0.0],[-95.9902,41.2415,0.0],[-95.9854,41.2415,0.0],[-95.9842,41.2415,0.0],[-95.9806,41.2415,0.0],[-95.9758,41.2415,0.0],[-95.9758,41.2384,0.0],[-95.9758,41.2357,0.0],[-95.9758,41.2342,0.0],[-95.9758,41.2318,0.0],[-95.9758,41.227,0.0],[-95.9786,41.227,0.0],[-95.9786,41.2282,0.0],[-95.9784,41.2286,0.0],[-95.9786,41.2306,0.0],[-95.983,41.2306,0.0],[-95.9902,41.2306,0.0],[-95.9902,41.227,0.0],[-95.9951,41.227,0.0],[-95.9951,41.2305,0.0],[-96.0047,41.2306,0.0],[-96.0047,41.2379,0.0]]]]}},{"type":"Feature","properties":{"uesi_id":"USA_R169759","nbhd_code":"USA_R169759_67","nbhd_name":"Census Tract 38"},"geometry":{"type":"MultiPolygon","coordinates":[[[[-95.9758,41.2488,0.0],[-95.9662,41.2488,0.0],[-95.9631,41.2488,0.0],[-95.9625,41.2479,0.0],[-95.9614,41.2488,0.0],[-95.9599,41.2488,0.0],[-95.9545,41.2488,0.0],[-95.9545,41.247,0.0],[-95.9545,41.2453,0.0],[-95.9545,41.2392,0.0],[-95.9544,41.2365,0.0],[-95.9578,41.2365,0.0],[-95.9603,41.2366,0.0],[-95.9603,41.2378,0.0],[-95.9643,41.2379,0.0],[-95.9643,41.24,0.0],[-95.9643,41.2415,0.0],[-95.9662,41.2415,0.0],[-95.9698,41.2415,0.0],[-95.9758,41.2415,0.0],[-95.9758,41.2488,0.0]]]]}},{"type":"Feature","properties":{"uesi_id":"USA_R169759","nbhd_code":"USA_R169759_68","nbhd_name":"Census Tract 23"},"geometry":{"type":"MultiPolygon","coordinates":[[[[-95.9307,41.2429,0.0],[-95.9267,41.2428,0.0],[-95.9241,41.2428,0.0],[-95.9229,41.2431,0.0],[-95.9139,41.2432,0.0],[-95.9114,41.238,0.0],[-95.9109,41.234,0.0],[-95.9109,41.2319,0.0],[-95.9243,41.2309,0.0],[-95.9257,41.2342,0.0],[-95.9268,41.2369,0.0],[-95.9307,41.2369,0.0],[-95.9307,41.2429,0.0]]]]}},{"type":"Feature","properties":{"uesi_id":"USA_R169759","nbhd_code":"USA_R169759_69","nbhd_name":"Census Tract 33"},"geometry":{"type":"MultiPolygon","coordinates":[[[[-95.9601,41.2273,0.0],[-95.9585,41.2278,0.0],[-95.9554,41.2293,0.0],[-95.9554,41.2296,0.0],[-95.955,41.2297,0.0],[-95.955,41.2299,0.0],[-95.9548,41.2323,0.0],[-95.9547,41.233,0.0],[-95.954,41.2354,0.0],[-95.9544,41.2365,0.0],[-95.9545,41.2392,0.0],[-95.9545,41.2453,0.0],[-95.9545,41.247,0.0],[-95.9545,41.2488,0.0],[-95.9539,41.2488,0.0],[-95.947,41.2488,0.0],[-95.9446,41.2487,0.0],[-95.9422,41.2482,0.0],[-95.9408,41.2483,0.0],[-95.9401,41.2503,0.0],[-95.9372,41.2503,0.0],[-95.9372,41.2495,0.0],[-95.9422,41.2447,0.0],[-95.9484,41.2397,0.0],[-95.9491,41.2387,0.0],[-95.9506,41.2355,0.0],[-95.9518,41.2307,0.0],[-95.9534,41.2279,0.0],[-95.9543,41.2274,0.0],[-95.9545,41.2271,0.0],[-95.9597,41.2274,0.0],[-95.9601,41.2273,0.0]]]]}},{"type":"Feature","properties":{"uesi_id":"USA_R169759","nbhd_code":"USA_R169759_70","nbhd_name":"Census Tract 54"},"geometry":{"type":"MultiPolygon","coordinates":[[[[-95.9836,41.2763,0.0],[-95.9835,41.2773,0.0],[-95.9835,41.281,0.0],[-95.983,41.2817,0.0],[-95.983,41.2831,0.0],[-95.9806,41.2831,0.0],[-95.9806,41.2839,0.0],[-95.9806,41.2851,0.0],[-95.9806,41.2887,0.0],[-95.9794,41.2887,0.0],[-95.9721,41.2887,0.0],[-95.9723,41.2839,0.0],[-95.9723,41.2814,0.0],[-95.9758,41.2814,0.0],[-95.9757,41.2778,0.0],[-95.9759,41.2773,0.0],[-95.9767,41.2742,0.0],[-95.978,41.2741,0.0],[-95.9773,41.2731,0.0],[-95.9803,41.2732,0.0],[-95.9835,41.2732,0.0],[-95.9836,41.2763,0.0]]]]}},{"type":"Feature","properties":{"uesi_id":"USA_R169759","nbhd_code":"USA_R169759_71","nbhd_name":"Census Tract 68.06"},"geometry":{"type":"MultiPolygon","coordinates":[[[[-96.0426,41.2397,0.0],[-96.0408,41.2432,0.0],[-96.0394,41.2488,0.0],[-96.0335,41.2488,0.0],[-96.0239,41.2488,0.0],[-96.0239,41.2485,0.0],[-96.0239,41.2469,0.0],[-96.0239,41.2433,0.0],[-96.0239,41.2345,0.0],[-96.0244,41.2344,0.0],[-96.0258,41.2343,0.0],[-96.0288,41.2343,0.0],[-96.0335,41.2343,0.0],[-96.0388,41.2343,0.0],[-96.0388,41.2366,0.0],[-96.0414,41.2366,0.0],[-96.0426,41.2397,0.0]]]]}},{"type":"Feature","properties":{"uesi_id":"USA_R169759","nbhd_code":"USA_R169759_72","nbhd_name":"Census Tract 73.03"},"geometry":{"type":"MultiPolygon","coordinates":[[[[-96.0242,41.375,0.0],[-96.0238,41.3761,0.0],[-96.0238,41.3773,0.0],[-96.0238,41.3792,0.0],[-96.0238,41.3817,0.0],[-96.0238,41.3882,0.0],[-96.0239,41.3932,0.0],[-96.0221,41.3932,0.0],[-96.0068,41.3931,0.0],[-96.0048,41.3931,0.0],[-96.0003,41.3931,0.0],[-95.9968,41.3932,0.0],[-95.9965,41.3932,0.0],[-95.993,41.3932,0.0],[-95.9375,41.3931,0.0],[-95.9369,41.391,0.0],[-95.9352,41.3844,0.0],[-95.9293,41.3749,0.0],[-95.9288,41.3701,0.0],[-95.9309,41.3648,0.0],[-95.931,41.3647,0.0],[-95.9355,41.3606,0.0],[-95.941,41.3575,0.0],[-95.9522,41.3535,0.0],[-95.9549,41.3518,0.0],[-95.9568,41.3492,0.0],[-95.9567,41.3456,0.0],[-95.9642,41.3445,0.0],[-95.9678,41.3446,0.0],[-95.9784,41.3469,0.0],[-95.9821,41.347,0.0],[-95.9877,41.3472,0.0],[-95.9937,41.3471,0.0],[-96.007,41.3461,0.0],[-96.0091,41.3458,0.0],[-96.0139,41.3447,0.0],[-96.0238,41.3415,0.0],[-96.0238,41.3447,0.0],[-96.0238,41.3501,0.0],[-96.0238,41.3647,0.0],[-96.0238,41.375,0.0],[-96.0242,41.375,0.0]]]]}},{"type":"Feature","properties":{"uesi_id":"USA_R169759","nbhd_code":"USA_R169759_73","nbhd_name":"Census Tract 73.17"},"geometry":{"type":"MultiPolygon","coordinates":[[[[-96.1585,41.3422,0.0],[-96.1584,41.361,0.0],[-96.1584,41.3624,0.0],[-96.1584,41.3708,0.0],[-96.1584,41.3717,0.0],[-96.1584,41.3932,0.0],[-96.1248,41.3931,0.0],[-96.1174,41.3931,0.0],[-96.1011,41.3932,0.0],[-96.0969,41.3932,0.0],[-96.0815,41.3932,0.0],[-96.079,41.3932,0.0],[-96.0694,41.3932,0.0],[-96.0623,41.3932,0.0],[-96.0569,41.3932,0.0],[-96.0526,41.3932,0.0],[-96.0431,41.3931,0.0],[-96.0277,41.3932,0.0],[-96.0239,41.3932,0.0],[-96.0238,41.3882,0.0],[-96.0238,41.3817,0.0],[-96.0238,41.3792,0.0],[-96.0238,41.3773,0.0],[-96.0238,41.3761,0.0],[-96.0242,41.375,0.0],[-96.0238,41.375,0.0],[-96.0238,41.3647,0.0],[-96.0238,41.3501,0.0],[-96.0238,41.3447,0.0],[-96.0238,41.3415,0.0],[-96.0429,41.3354,0.0],[-96.0503,41.333,0.0],[-96.0572,41.3305,0.0],[-96.0627,41.3272,0.0],[-96.0678,41.3238,0.0],[-96.0692,41.3222,0.0],[-96.0708,41.3236,0.0],[-96.0718,41.3246,0.0],[-96.0721,41.3248,0.0],[-96.0769,41.3292,0.0],[-96.0782,41.331,0.0],[-96.0788,41.3325,0.0],[-96.0795,41.3357,0.0],[-96.0908,41.3357,0.0],[-96.1003,41.3357,0.0],[-96.105,41.3357,0.0],[-96.11,41.3356,0.0],[-96.1144,41.3356,0.0],[-96.129,41.3356,0.0],[-96.139,41.3356,0.0],[-96.1584,41.3356,0.0],[-96.1585,41.3422,0.0]]]]}},{"type":"Feature","properties":{"uesi_id":"USA_R169759","nbhd_code":"USA_R169759_74","nbhd_name":"Census Tract 74.43"},"geometry":{"type":"MultiPolygon","coordinates":[[[[-96.1196,41.2687,0.0],[-96.1196,41.2725,0.0],[-96.1196,41.2776,0.0],[-96.1069,41.2777,0.0],[-96.1062,41.2777,0.0],[-96.1005,41.2777,0.0],[-96.1005,41.2717,0.0],[-96.1006,41.2631,0.0],[-96.1196,41.2631,0.0],[-96.1196,41.2687,0.0]]]]}},{"type":"Feature","properties":{"uesi_id":"USA_R169759","nbhd_code":"USA_R169759_75","nbhd_name":"Census Tract 74.65"},"geometry":{"type":"MultiPolygon","coordinates":[[[[-96.0968,41.1945,0.0],[-96.0959,41.1968,0.0],[-96.0947,41.2031,0.0],[-96.0942,41.2053,0.0],[-96.0903,41.2054,0.0],[-96.0814,41.2053,0.0],[-96.0814,41.2016,0.0],[-96.0814,41.1993,0.0],[-96.0814,41.1966,0.0],[-96.0814,41.1908,0.0],[-96.0886,41.1907,0.0],[-96.1013,41.1906,0.0],[-96.0968,41.1945,0.0]]]]}},{"type":"Feature","properties":{"uesi_id":"USA_R169759","nbhd_code":"USA_R169759_76","nbhd_name":"Census Tract 75.09"},"geometry":{"type":"MultiPolygon","coordinates":[[[[-96.3094,41.1926,0.0],[-96.3089,41.1934,0.0],[-96.3057,41.1964,0.0],[-96.2986,41.2016,0.0],[-96.2964,41.2047,0.0],[-96.2953,41.207,0.0],[-96.2945,41.209,0.0],[-96.2935,41.2103,0.0],[-96.293,41.2107,0.0],[-96.292,41.211,0.0],[-96.2897,41.2117,0.0],[-96.2879,41.2129,0.0],[-96.2867,41.2139,0.0],[-96.2845,41.2161,0.0],[-96.2825,41.2191,0.0],[-96.2811,41.2214,0.0],[-96.2784,41.2277,0.0],[-96.2778,41.231,0.0],[-96.2765,41.2334,0.0],[-96.2727,41.2341,0.0],[-96.2712,41.2346,0.0],[-96.2675,41.2377,0.0],[-96.2669,41.2451,0.0],[-96.2656,41.2485,0.0],[-96.2652,41.2494,0.0],[-96.2632,41.2521,0.0],[-96.259,41.2562,0.0],[-96.2585,41.2583,0.0],[-96.2594,41.2593,0.0],[-96.261,41.2605,0.0],[-96.2624,41.2616,0.0],[-96.2635,41.2626,0.0],[-96.2641,41.2636,0.0],[-96.2626,41.2636,0.0],[-96.2566,41.2637,0.0],[-96.2519,41.2637,0.0],[-96.2426,41.2628,0.0],[-96.2345,41.2628,0.0],[-96.2345,41.2549,0.0],[-96.2344,41.2483,0.0],[-96.2344,41.2482,0.0],[-96.2344,41.2339,0.0],[-96.2343,41.2193,0.0],[-96.2343,41.2048,0.0],[-96.2343,41.1903,0.0],[-96.2431,41.1904,0.0],[-96.2535,41.1904,0.0],[-96.3095,41.1901,0.0],[-96.3094,41.1926,0.0]]]]}},{"type":"Feature","properties":{"uesi_id":"USA_R169759","nbhd_code":"USA_R169759_77","nbhd_name":"Census Tract 44"},"geometry":{"type":"MultiPolygon","coordinates":[[[[-95.9903,41.2561,0.0],[-95.9854,41.2561,0.0],[-95.9854,41.2597,0.0],[-95.9769,41.2597,0.0],[-95.9758,41.2597,0.0],[-95.9758,41.256,0.0],[-95.9758,41.2524,0.0],[-95.9758,41.2488,0.0],[-95.9806,41.2488,0.0],[-95.9833,41.2488,0.0],[-95.9854,41.2488,0.0],[-95.9879,41.2488,0.0],[-95.9902,41.2488,0.0],[-95.9902,41.2524,0.0],[-95.9903,41.2561,0.0]]]]}},{"type":"Feature","properties":{"uesi_id":"USA_R169759","nbhd_code":"USA_R169759_78","nbhd_name":"Census Tract 46"},"geometry":{"type":"MultiPolygon","coordinates":[[[[-96.0239,41.2488,0.0],[-96.0239,41.256,0.0],[-96.0157,41.256,0.0],[-96.0146,41.2558,0.0],[-96.0053,41.2562,0.0],[-96.005,41.2566,0.0],[-96.0049,41.2596,0.0],[-96.0005,41.2596,0.0],[-95.9951,41.2597,0.0],[-95.9951,41.2578,0.0],[-95.9952,41.2552,0.0],[-95.9957,41.2542,0.0],[-95.996,41.2533,0.0],[-95.9959,41.2524,0.0],[-95.998,41.2524,0.0],[-96.0048,41.2524,0.0],[-96.0048,41.2487,0.0],[-96.0143,41.2487,0.0],[-96.0156,41.2488,0.0],[-96.0203,41.2488,0.0],[-96.0219,41.2488,0.0],[-96.0217,41.2486,0.0],[-96.0239,41.2485,0.0],[-96.0239,41.2488,0.0]]]]}},{"type":"Feature","properties":{"uesi_id":"USA_R169759","nbhd_code":"USA_R169759_79","nbhd_name":"Census Tract 47"},"geometry":{"type":"MultiPolygon","coordinates":[[[[-96.0239,41.2596,0.0],[-96.0191,41.2596,0.0],[-96.0191,41.2602,0.0],[-96.0196,41.2633,0.0],[-96.0177,41.2644,0.0],[-96.0163,41.2669,0.0],[-96.0143,41.2669,0.0],[-96.0143,41.2678,0.0],[-96.0118,41.2677,0.0],[-96.0086,41.265,0.0],[-96.0084,41.265,0.0],[-96.0053,41.265,0.0],[-96.0041,41.2681,0.0],[-96.0022,41.2691,0.0],[-96.0019,41.2705,0.0],[-95.9951,41.2705,0.0],[-95.9951,41.2669,0.0],[-95.9951,41.2632,0.0],[-95.9951,41.2597,0.0],[-96.0005,41.2596,0.0],[-96.0049,41.2596,0.0],[-96.005,41.2566,0.0],[-96.0053,41.2562,0.0],[-96.0146,41.2558,0.0],[-96.0157,41.256,0.0],[-96.0239,41.256,0.0],[-96.0239,41.2596,0.0]]]]}},{"type":"Feature","properties":{"uesi_id":"USA_R169759","nbhd_code":"USA_R169759_80","nbhd_name":"Census Tract 49"},"geometry":{"type":"MultiPolygon","coordinates":[[[[-95.9857,41.2648,0.0],[-95.9857,41.2669,0.0],[-95.9856,41.2679,0.0],[-95.9854,41.2731,0.0],[-95.9835,41.2732,0.0],[-95.9803,41.2732,0.0],[-95.9773,41.2731,0.0],[-95.9761,41.2722,0.0],[-95.9749,41.2732,0.0],[-95.9727,41.2732,0.0],[-95.9661,41.2731,0.0],[-95.9661,41.2728,0.0],[-95.9661,41.27,0.0],[-95.9675,41.27,0.0],[-95.9669,41.2692,0.0],[-95.9665,41.2679,0.0],[-95.9729,41.268,0.0],[-95.9745,41.268,0.0],[-95.9751,41.2679,0.0],[-95.975,41.2664,0.0],[-95.9751,41.2639,0.0],[-95.9751,41.2613,0.0],[-95.9745,41.2612,0.0],[-95.9746,41.2597,0.0],[-95.9758,41.2597,0.0],[-95.9769,41.2597,0.0],[-95.9854,41.2597,0.0],[-95.9857,41.2632,0.0],[-95.9857,41.2648,0.0]]]]}},{"type":"Feature","properties":{"uesi_id":"USA_R169759","nbhd_code":"USA_R169759_81","nbhd_name":"Census Tract 56"},"geometry":{"type":"MultiPolygon","coordinates":[[[[-96.0239,41.2923,0.0],[-96.0238,41.2959,0.0],[-96.0239,41.2972,0.0],[-96.0239,41.2976,0.0],[-96.0238,41.3067,0.0],[-96.0136,41.3066,0.0],[-96.0124,41.3067,0.0],[-96.0118,41.3031,0.0],[-96.0143,41.3031,0.0],[-96.0143,41.2995,0.0],[-96.0143,41.2959,0.0],[-96.0143,41.2928,0.0],[-96.0143,41.2923,0.0],[-96.0131,41.2914,0.0],[-96.0143,41.2896,0.0],[-96.0144,41.2887,0.0],[-96.0144,41.285,0.0],[-96.0048,41.285,0.0],[-96.0048,41.2832,0.0],[-96.0048,41.2814,0.0],[-96.0048,41.2777,0.0],[-96.0144,41.2778,0.0],[-96.0143,41.2814,0.0],[-96.0239,41.2814,0.0],[-96.0239,41.2851,0.0],[-96.0239,41.2887,0.0],[-96.0239,41.2923,0.0]]]]}},{"type":"Feature","properties":{"uesi_id":"USA_R169759","nbhd_code":"USA_R169759_82","nbhd_name":"Census Tract 59.01"},"geometry":{"type":"MultiPolygon","coordinates":[[[[-95.9855,41.2951,0.0],[-95.9855,41.2996,0.0],[-95.9802,41.2995,0.0],[-95.9758,41.2996,0.0],[-95.9722,41.2996,0.0],[-95.9722,41.2941,0.0],[-95.9722,41.2923,0.0],[-95.9721,41.2887,0.0],[-95.9794,41.2887,0.0],[-95.9806,41.2887,0.0],[-95.9855,41.2887,0.0],[-95.9855,41.2905,0.0],[-95.9855,41.2924,0.0],[-95.9855,41.2951,0.0]]]]}},{"type":"Feature","properties":{"uesi_id":"USA_R169759","nbhd_code":"USA_R169759_83","nbhd_name":"Census Tract 61.01"},"geometry":{"type":"MultiPolygon","coordinates":[[[[-95.9878,41.3111,0.0],[-95.9854,41.3122,0.0],[-95.9854,41.3149,0.0],[-95.9854,41.3158,0.0],[-95.9852,41.3222,0.0],[-95.9803,41.3247,0.0],[-95.976,41.3261,0.0],[-95.9757,41.326,0.0],[-95.9758,41.3256,0.0],[-95.9758,41.3194,0.0],[-95.9758,41.3176,0.0],[-95.9758,41.3158,0.0],[-95.9758,41.3149,0.0],[-95.9758,41.314,0.0],[-95.9758,41.3113,0.0],[-95.9758,41.3101,0.0],[-95.9758,41.3067,0.0],[-95.9806,41.3067,0.0],[-95.9848,41.3067,0.0],[-95.9848,41.3086,0.0],[-95.9854,41.3103,0.0],[-95.9878,41.3104,0.0],[-95.9878,41.3111,0.0]]]]}},{"type":"Feature","properties":{"uesi_id":"USA_R169759","nbhd_code":"USA_R169759_84","nbhd_name":"Census Tract 62.02"},"geometry":{"type":"MultiPolygon","coordinates":[[[[-95.9733,41.3292,0.0],[-95.9733,41.3329,0.0],[-95.9712,41.3333,0.0],[-95.9715,41.3345,0.0],[-95.9697,41.3348,0.0],[-95.9719,41.3435,0.0],[-95.9638,41.3432,0.0],[-95.9617,41.3409,0.0],[-95.9596,41.3334,0.0],[-95.9583,41.3288,0.0],[-95.9578,41.3269,0.0],[-95.9571,41.3244,0.0],[-95.9566,41.3229,0.0],[-95.9565,41.3221,0.0],[-95.9565,41.3207,0.0],[-95.9565,41.3176,0.0],[-95.9566,41.3158,0.0],[-95.9566,41.314,0.0],[-95.9566,41.3121,0.0],[-95.9661,41.3121,0.0],[-95.9661,41.3158,0.0],[-95.9661,41.3176,0.0],[-95.9662,41.319,0.0],[-95.9661,41.3195,0.0],[-95.9662,41.3212,0.0],[-95.9667,41.3246,0.0],[-95.9676,41.3259,0.0],[-95.9674,41.3269,0.0],[-95.9669,41.3273,0.0],[-95.969,41.328,0.0],[-95.9733,41.3274,0.0],[-95.9733,41.3292,0.0]]]]}},{"type":"Feature","properties":{"uesi_id":"USA_R169759","nbhd_code":"USA_R169759_85","nbhd_name":"Census Tract 74.59"},"geometry":{"type":"MultiPolygon","coordinates":[[[[-96.043,41.2009,0.0],[-96.043,41.202,0.0],[-96.043,41.2053,0.0],[-96.043,41.209,0.0],[-96.043,41.2123,0.0],[-96.043,41.2125,0.0],[-96.0325,41.2125,0.0],[-96.0276,41.2125,0.0],[-96.0239,41.2125,0.0],[-96.0238,41.2089,0.0],[-96.0238,41.2053,0.0],[-96.0238,41.2021,0.0],[-96.0238,41.199,0.0],[-96.0319,41.1993,0.0],[-96.0389,41.1995,0.0],[-96.043,41.1986,0.0],[-96.043,41.2006,0.0],[-96.043,41.2007,0.0],[-96.043,41.2009,0.0]]]]}},{"type":"Feature","properties":{"uesi_id":"USA_R169759","nbhd_code":"USA_R169759_86","nbhd_name":"Census Tract 74.69"},"geometry":{"type":"MultiPolygon","coordinates":[[[[-96.1774,41.2975,0.0],[-96.1774,41.2984,0.0],[-96.1773,41.2996,0.0],[-96.1773,41.3028,0.0],[-96.1773,41.3065,0.0],[-96.1668,41.3065,0.0],[-96.158,41.3065,0.0],[-96.1581,41.2996,0.0],[-96.1581,41.2964,0.0],[-96.1581,41.2921,0.0],[-96.163,41.2921,0.0],[-96.1737,41.2921,0.0],[-96.1774,41.2921,0.0],[-96.1774,41.2975,0.0]]]]}},{"type":"Feature","properties":{"uesi_id":"USA_R169759","nbhd_code":"USA_R169759_87","nbhd_name":"Census Tract 74.72"},"geometry":{"type":"MultiPolygon","coordinates":[[[[-96.1581,41.2921,0.0],[-96.1485,41.2921,0.0],[-96.1437,41.2921,0.0],[-96.1389,41.2922,0.0],[-96.1389,41.2875,0.0],[-96.1388,41.2851,0.0],[-96.1388,41.2777,0.0],[-96.1423,41.2776,0.0],[-96.1449,41.2776,0.0],[-96.1541,41.2776,0.0],[-96.1581,41.2775,0.0],[-96.1581,41.2844,0.0],[-96.1581,41.2921,0.0]]]]}},{"type":"Feature","properties":{"uesi_id":"USA_R169759","nbhd_code":"USA_R169759_88","nbhd_name":"Census Tract 75.05"},"geometry":{"type":"MultiPolygon","coordinates":[[[[-96.3117,41.3904,0.0],[-96.3103,41.3932,0.0],[-96.278,41.393,0.0],[-96.2438,41.3931,0.0],[-96.2421,41.3931,0.0],[-96.2327,41.3931,0.0],[-96.197,41.3931,0.0],[-96.1969,41.3499,0.0],[-96.2066,41.3499,0.0],[-96.2064,41.3383,0.0],[-96.2064,41.3354,0.0],[-96.2063,41.3209,0.0],[-96.1967,41.3209,0.0],[-96.1973,41.3198,0.0],[-96.1969,41.3069,0.0],[-96.1964,41.3064,0.0],[-96.2345,41.3063,0.0],[-96.2344,41.2975,0.0],[-96.2344,41.2919,0.0],[-96.2484,41.2917,0.0],[-96.2522,41.2924,0.0],[-96.2541,41.293,0.0],[-96.2547,41.293,0.0],[-96.2581,41.2928,0.0],[-96.2596,41.2942,0.0],[-96.2682,41.2947,0.0],[-96.2757,41.2948,0.0],[-96.2797,41.2936,0.0],[-96.2819,41.292,0.0],[-96.2828,41.293,0.0],[-96.2849,41.2999,0.0],[-96.2877,41.3063,0.0],[-96.2897,41.3105,0.0],[-96.2905,41.3135,0.0],[-96.2916,41.3136,0.0],[-96.2918,41.316,0.0],[-96.2934,41.3187,0.0],[-96.2933,41.3209,0.0],[-96.2932,41.3236,0.0],[-96.2942,41.3251,0.0],[-96.2944,41.3287,0.0],[-96.2924,41.3312,0.0],[-96.2928,41.3339,0.0],[-96.2945,41.3352,0.0],[-96.3004,41.335,0.0],[-96.3027,41.3366,0.0],[-96.3029,41.3391,0.0],[-96.3012,41.3407,0.0],[-96.2986,41.3417,0.0],[-96.2948,41.3426,0.0],[-96.2917,41.345,0.0],[-96.2908,41.3465,0.0],[-96.2905,41.3477,0.0],[-96.2904,41.3487,0.0],[-96.2905,41.3491,0.0],[-96.2912,41.3496,0.0],[-96.2918,41.3499,0.0],[-96.2946,41.3503,0.0],[-96.2967,41.3509,0.0],[-96.2974,41.3513,0.0],[-96.2981,41.3527,0.0],[-96.2977,41.3534,0.0],[-96.297,41.3534,0.0],[-96.2949,41.3532,0.0],[-96.2927,41.3532,0.0],[-96.2917,41.3535,0.0],[-96.2904,41.3541,0.0],[-96.2902,41.3544,0.0],[-96.29,41.3549,0.0],[-96.29,41.3555,0.0],[-96.2903,41.3561,0.0],[-96.2908,41.3566,0.0],[-96.2916,41.357,0.0],[-96.2946,41.3572,0.0],[-96.3006,41.3567,0.0],[-96.302,41.3574,0.0],[-96.3022,41.3592,0.0],[-96.3008,41.3602,0.0],[-96.2977,41.3607,0.0],[-96.2948,41.3621,0.0],[-96.2947,41.3645,0.0],[-96.2977,41.3681,0.0],[-96.2995,41.3715,0.0],[-96.3024,41.3793,0.0],[-96.3019,41.3832,0.0],[-96.2998,41.385,0.0],[-96.2989,41.3866,0.0],[-96.2992,41.388,0.0],[-96.3001,41.3887,0.0],[-96.303,41.3884,0.0],[-96.3045,41.3873,0.0],[-96.3079,41.387,0.0],[-96.3108,41.3885,0.0],[-96.3117,41.3904,0.0]]]]}},{"type":"Feature","properties":{"uesi_id":"USA_R169759","nbhd_code":"USA_R169759_89","nbhd_name":"Census Tract 75.17"},"geometry":{"type":"MultiPolygon","coordinates":[[[[-96.2343,41.2048,0.0],[-96.2156,41.2051,0.0],[-96.2067,41.2051,0.0],[-96.2059,41.2051,0.0],[-96.1965,41.2052,0.0],[-96.1965,41.2051,0.0],[-96.1966,41.1987,0.0],[-96.1966,41.1957,0.0],[-96.1967,41.1907,0.0],[-96.2062,41.1906,0.0],[-96.2158,41.1905,0.0],[-96.2284,41.1904,0.0],[-96.2343,41.1903,0.0],[-96.2343,41.2048,0.0]]]]}},{"type":"Feature","properties":{"uesi_id":"USA_R169759","nbhd_code":"USA_R169759_90","nbhd_name":"Census Tract 16"},"geometry":{"type":"MultiPolygon","coordinates":[[[[-95.9566,41.2634,0.0],[-95.9565,41.2679,0.0],[-95.9557,41.2676,0.0],[-95.947,41.268,0.0],[-95.9371,41.2679,0.0],[-95.9359,41.2678,0.0],[-95.9358,41.2648,0.0],[-95.9331,41.2648,0.0],[-95.9332,41.2597,0.0],[-95.9372,41.2597,0.0],[-95.942,41.2597,0.0],[-95.9469,41.2598,0.0],[-95.9543,41.2598,0.0],[-95.9566,41.2598,0.0],[-95.9566,41.2634,0.0]]]]}},{"type":"Feature","properties":{"uesi_id":"USA_R169759","nbhd_code":"USA_R169759_91","nbhd_name":"Census Tract 32"},"geometry":{"type":"MultiPolygon","coordinates":[[[[-95.957,41.2224,0.0],[-95.9541,41.227,0.0],[-95.9535,41.2268,0.0],[-95.952,41.2263,0.0],[-95.947,41.2262,0.0],[-95.947,41.2197,0.0],[-95.947,41.2185,0.0],[-95.9471,41.2122,0.0],[-95.9471,41.2056,0.0],[-95.9491,41.2056,0.0],[-95.9505,41.2056,0.0],[-95.9514,41.2087,0.0],[-95.9531,41.2123,0.0],[-95.9569,41.2197,0.0],[-95.957,41.2224,0.0]]]]}},{"type":"Feature","properties":{"uesi_id":"USA_R169759","nbhd_code":"USA_R169759_92","nbhd_name":"Census Tract 45"},"geometry":{"type":"MultiPolygon","coordinates":[[[[-96.0048,41.2524,0.0],[-95.998,41.2524,0.0],[-95.9959,41.2524,0.0],[-95.996,41.2533,0.0],[-95.9957,41.2542,0.0],[-95.9952,41.2552,0.0],[-95.9951,41.2578,0.0],[-95.9951,41.2597,0.0],[-95.9927,41.2597,0.0],[-95.9854,41.2597,0.0],[-95.9854,41.2561,0.0],[-95.9903,41.2561,0.0],[-95.9902,41.2524,0.0],[-95.9902,41.2488,0.0],[-95.9979,41.2485,0.0],[-95.9979,41.2488,0.0],[-96.0048,41.2487,0.0],[-96.0048,41.2524,0.0]]]]}},{"type":"Feature","properties":{"uesi_id":"USA_R169759","nbhd_code":"USA_R169759_93","nbhd_name":"Census Tract 66.02"},"geometry":{"type":"MultiPolygon","coordinates":[[[[-96.0621,41.2778,0.0],[-96.0526,41.2778,0.0],[-96.0526,41.2851,0.0],[-96.0478,41.2851,0.0],[-96.0473,41.2801,0.0],[-96.0458,41.2779,0.0],[-96.0435,41.2756,0.0],[-96.0441,41.2724,0.0],[-96.0411,41.2706,0.0],[-96.0403,41.2687,0.0],[-96.0363,41.2633,0.0],[-96.0376,41.2633,0.0],[-96.046,41.2633,0.0],[-96.0477,41.2634,0.0],[-96.0525,41.2633,0.0],[-96.0573,41.2634,0.0],[-96.0612,41.2634,0.0],[-96.0621,41.2634,0.0],[-96.0621,41.2706,0.0],[-96.0621,41.2778,0.0]]]]}},{"type":"Feature","properties":{"uesi_id":"USA_R169759","nbhd_code":"USA_R169759_94","nbhd_name":"Census Tract 73.10"},"geometry":{"type":"MultiPolygon","coordinates":[[[[-96.1006,41.3138,0.0],[-96.1005,41.3188,0.0],[-96.0946,41.3185,0.0],[-96.091,41.3176,0.0],[-96.0813,41.3175,0.0],[-96.0814,41.3138,0.0],[-96.0814,41.3066,0.0],[-96.0892,41.3067,0.0],[-96.1007,41.3066,0.0],[-96.1006,41.3138,0.0]]]]}},{"type":"Feature","properties":{"uesi_id":"USA_R169759","nbhd_code":"USA_R169759_95","nbhd_name":"Census Tract 74.09"},"geometry":{"type":"MultiPolygon","coordinates":[[[[-96.1542,41.2336,0.0],[-96.153,41.234,0.0],[-96.1511,41.2341,0.0],[-96.1386,41.2338,0.0],[-96.1292,41.234,0.0],[-96.1273,41.234,0.0],[-96.1195,41.2341,0.0],[-96.1195,41.2316,0.0],[-96.1195,41.2276,0.0],[-96.1193,41.2222,0.0],[-96.1195,41.2215,0.0],[-96.11,41.2215,0.0],[-96.1092,41.2215,0.0],[-96.1007,41.2215,0.0],[-96.0915,41.2215,0.0],[-96.0815,41.2215,0.0],[-96.0623,41.2216,0.0],[-96.0431,41.2216,0.0],[-96.0252,41.2216,0.0],[-96.024,41.2217,0.0],[-96.0243,41.2197,0.0],[-96.0239,41.2197,0.0],[-96.0239,41.2125,0.0],[-96.0276,41.2125,0.0],[-96.0325,41.2125,0.0],[-96.043,41.2125,0.0],[-96.0526,41.2125,0.0],[-96.0622,41.2125,0.0],[-96.0815,41.2125,0.0],[-96.088,41.2125,0.0],[-96.0911,41.2121,0.0],[-96.0952,41.2117,0.0],[-96.1008,41.2122,0.0],[-96.1026,41.2125,0.0],[-96.1098,41.2125,0.0],[-96.1197,41.213,0.0],[-96.1199,41.2125,0.0],[-96.1204,41.2122,0.0],[-96.1357,41.2126,0.0],[-96.1388,41.2127,0.0],[-96.1387,41.2195,0.0],[-96.1388,41.22,0.0],[-96.1388,41.2217,0.0],[-96.1575,41.2339,0.0],[-96.1542,41.2336,0.0]]]]}},{"type":"Feature","properties":{"uesi_id":"USA_R169759","nbhd_code":"USA_R169759_96","nbhd_name":"Census Tract 74.52"},"geometry":{"type":"MultiPolygon","coordinates":[[[[-96.1964,41.2101,0.0],[-96.1963,41.2194,0.0],[-96.1962,41.2257,0.0],[-96.1962,41.2268,0.0],[-96.1943,41.2268,0.0],[-96.1936,41.2268,0.0],[-96.193,41.227,0.0],[-96.1935,41.2272,0.0],[-96.1931,41.2274,0.0],[-96.1925,41.2272,0.0],[-96.1923,41.2275,0.0],[-96.192,41.2275,0.0],[-96.192,41.227,0.0],[-96.1918,41.2268,0.0],[-96.1918,41.2274,0.0],[-96.1916,41.2275,0.0],[-96.1906,41.2273,0.0],[-96.1909,41.2268,0.0],[-96.1876,41.2262,0.0],[-96.1866,41.2246,0.0],[-96.1882,41.2241,0.0],[-96.1793,41.2209,0.0],[-96.1771,41.2208,0.0],[-96.1772,41.2112,0.0],[-96.1773,41.2089,0.0],[-96.1773,41.2052,0.0],[-96.1965,41.2052,0.0],[-96.1964,41.2101,0.0]]]]}},{"type":"Feature","properties":{"uesi_id":"USA_R169759","nbhd_code":"USA_R169759_97","nbhd_name":"Census Tract 74.64"},"geometry":{"type":"MultiPolygon","coordinates":[[[[-96.1195,41.1973,0.0],[-96.1195,41.2051,0.0],[-96.1187,41.2051,0.0],[-96.1123,41.2052,0.0],[-96.1075,41.2052,0.0],[-96.1024,41.2053,0.0],[-96.0942,41.2053,0.0],[-96.0947,41.2031,0.0],[-96.0959,41.1968,0.0],[-96.0968,41.1945,0.0],[-96.1013,41.1906,0.0],[-96.1023,41.1906,0.0],[-96.1086,41.1906,0.0],[-96.1105,41.1907,0.0],[-96.1196,41.1906,0.0],[-96.1195,41.1973,0.0]]]]}},{"type":"Feature","properties":{"uesi_id":"USA_R169759","nbhd_code":"USA_R169759_98","nbhd_name":"Census Tract 4"},"geometry":{"type":"MultiPolygon","coordinates":[[[[-95.9458,41.3248,0.0],[-95.9403,41.3278,0.0],[-95.9394,41.329,0.0],[-95.9393,41.3289,0.0],[-95.9269,41.3228,0.0],[-95.9276,41.3204,0.0],[-95.9277,41.3066,0.0],[-95.9277,41.305,0.0],[-95.9304,41.3047,0.0],[-95.9319,41.3035,0.0],[-95.9322,41.3029,0.0],[-95.9323,41.2997,0.0],[-95.9421,41.2996,0.0],[-95.9422,41.3043,0.0],[-95.9424,41.305,0.0],[-95.9428,41.3057,0.0],[-95.9437,41.307,0.0],[-95.9437,41.3071,0.0],[-95.9448,41.309,0.0],[-95.9449,41.3093,0.0],[-95.9454,41.3121,0.0],[-95.9453,41.314,0.0],[-95.9453,41.3155,0.0],[-95.9454,41.3176,0.0],[-95.9456,41.3203,0.0],[-95.9456,41.3213,0.0],[-95.9456,41.3232,0.0],[-95.9444,41.3233,0.0],[-95.9458,41.3248,0.0]]]]}},{"type":"Feature","properties":{"uesi_id":"USA_R169759","nbhd_code":"USA_R169759_99","nbhd_name":"Census Tract 6"},"geometry":{"type":"MultiPolygon","coordinates":[[[[-95.9566,41.3067,0.0],[-95.9469,41.3067,0.0],[-95.9469,41.305,0.0],[-95.9442,41.3066,0.0],[-95.9437,41.3071,0.0],[-95.9437,41.307,0.0],[-95.9428,41.3057,0.0],[-95.9424,41.305,0.0],[-95.9422,41.3043,0.0],[-95.9421,41.2996,0.0],[-95.947,41.2996,0.0],[-95.9517,41.2996,0.0],[-95.9566,41.2996,0.0],[-95.9565,41.3029,0.0],[-95.9566,41.3067,0.0]]]]}},{"type":"Feature","properties":{"uesi_id":"USA_R169759","nbhd_code":"USA_R169759_100","nbhd_name":"Census Tract 20"},"geometry":{"type":"MultiPolygon","coordinates":[[[[-95.9543,41.2274,0.0],[-95.9534,41.2279,0.0],[-95.9518,41.2307,0.0],[-95.9506,41.2355,0.0],[-95.9491,41.2387,0.0],[-95.9484,41.2397,0.0],[-95.9422,41.2447,0.0],[-95.9372,41.2495,0.0],[-95.9372,41.2481,0.0],[-95.9373,41.2429,0.0],[-95.9374,41.2382,0.0],[-95.9374,41.237,0.0],[-95.9374,41.2344,0.0],[-95.9402,41.2333,0.0],[-95.9423,41.233,0.0],[-95.9441,41.233,0.0],[-95.9442,41.2318,0.0],[-95.947,41.2318,0.0],[-95.947,41.2262,0.0],[-95.952,41.2263,0.0],[-95.9535,41.2268,0.0],[-95.9541,41.227,0.0],[-95.9545,41.2271,0.0],[-95.9543,41.2274,0.0]]]]}},{"type":"Feature","properties":{"uesi_id":"USA_R169759","nbhd_code":"USA_R169759_101","nbhd_name":"Census Tract 25"},"geometry":{"type":"MultiPolygon","coordinates":[[[[-95.947,41.2262,0.0],[-95.9422,41.2265,0.0],[-95.9374,41.2282,0.0],[-95.9374,41.2281,0.0],[-95.9338,41.2294,0.0],[-95.9333,41.2296,0.0],[-95.9331,41.2297,0.0],[-95.9243,41.2309,0.0],[-95.9109,41.2319,0.0],[-95.9109,41.2318,0.0],[-95.9126,41.227,0.0],[-95.9151,41.223,0.0],[-95.9247,41.2115,0.0],[-95.9256,41.2123,0.0],[-95.9292,41.213,0.0],[-95.9333,41.213,0.0],[-95.9333,41.2147,0.0],[-95.9362,41.2192,0.0],[-95.9384,41.2202,0.0],[-95.9405,41.2196,0.0],[-95.9418,41.2195,0.0],[-95.9429,41.2197,0.0],[-95.947,41.2197,0.0],[-95.947,41.2262,0.0]]]]}},{"type":"Feature","properties":{"uesi_id":"USA_R169759","nbhd_code":"USA_R169759_102","nbhd_name":"Census Tract 27"},"geometry":{"type":"MultiPolygon","coordinates":[[[[-95.9471,41.2122,0.0],[-95.9418,41.2122,0.0],[-95.9418,41.2129,0.0],[-95.9333,41.213,0.0],[-95.9292,41.213,0.0],[-95.9256,41.2123,0.0],[-95.9247,41.2115,0.0],[-95.9249,41.2112,0.0],[-95.925,41.211,0.0],[-95.9275,41.2022,0.0],[-95.9301,41.2023,0.0],[-95.9337,41.2021,0.0],[-95.936,41.2021,0.0],[-95.9362,41.2038,0.0],[-95.9418,41.2038,0.0],[-95.943,41.2056,0.0],[-95.9471,41.2056,0.0],[-95.9471,41.2122,0.0]]]]}},{"type":"Feature","properties":{"uesi_id":"USA_R169759","nbhd_code":"USA_R169759_103","nbhd_name":"Census Tract 34.02"},"geometry":{"type":"MultiPolygon","coordinates":[[[[-95.9698,41.2415,0.0],[-95.9662,41.2415,0.0],[-95.9643,41.2415,0.0],[-95.9643,41.24,0.0],[-95.9643,41.2379,0.0],[-95.9603,41.2378,0.0],[-95.9603,41.2366,0.0],[-95.9578,41.2365,0.0],[-95.9544,41.2365,0.0],[-95.954,41.2354,0.0],[-95.9547,41.233,0.0],[-95.9548,41.2323,0.0],[-95.955,41.2299,0.0],[-95.955,41.2297,0.0],[-95.9554,41.2296,0.0],[-95.9554,41.2293,0.0],[-95.9585,41.2278,0.0],[-95.9601,41.2273,0.0],[-95.9626,41.2269,0.0],[-95.9639,41.2293,0.0],[-95.9642,41.2303,0.0],[-95.9656,41.2338,0.0],[-95.9663,41.2348,0.0],[-95.9665,41.2358,0.0],[-95.9678,41.2379,0.0],[-95.9698,41.2415,0.0]]]]}},{"type":"Feature","properties":{"uesi_id":"USA_R169759","nbhd_code":"USA_R169759_104","nbhd_name":"Census Tract 36"},"geometry":{"type":"MultiPolygon","coordinates":[[[[-96.0143,41.2487,0.0],[-96.0048,41.2487,0.0],[-95.9979,41.2488,0.0],[-95.9979,41.2485,0.0],[-95.9902,41.2488,0.0],[-95.9879,41.2488,0.0],[-95.9888,41.2467,0.0],[-95.9922,41.2432,0.0],[-95.9924,41.2413,0.0],[-95.9952,41.2408,0.0],[-95.998,41.239,0.0],[-95.9993,41.2381,0.0],[-96.0047,41.2379,0.0],[-96.0096,41.2379,0.0],[-96.0096,41.2447,0.0],[-96.0091,41.2451,0.0],[-96.0142,41.2452,0.0],[-96.0143,41.2487,0.0]]]]}},{"type":"Feature","properties":{"uesi_id":"USA_R169759","nbhd_code":"USA_R169759_105","nbhd_name":"Census Tract 43"},"geometry":{"type":"MultiPolygon","coordinates":[[[[-95.9758,41.2524,0.0],[-95.9758,41.256,0.0],[-95.9758,41.2597,0.0],[-95.9746,41.2597,0.0],[-95.9705,41.2596,0.0],[-95.9664,41.2597,0.0],[-95.9661,41.256,0.0],[-95.9662,41.2542,0.0],[-95.9662,41.2524,0.0],[-95.9662,41.2488,0.0],[-95.9758,41.2488,0.0],[-95.9758,41.2524,0.0]]]]}},{"type":"Feature","properties":{"uesi_id":"USA_R169759","nbhd_code":"USA_R169759_106","nbhd_name":"Census Tract 50"},"geometry":{"type":"MultiPolygon","coordinates":[[[[-95.9751,41.2639,0.0],[-95.975,41.2664,0.0],[-95.9751,41.2679,0.0],[-95.9745,41.268,0.0],[-95.9729,41.268,0.0],[-95.9665,41.2679,0.0],[-95.9615,41.268,0.0],[-95.9615,41.2638,0.0],[-95.9616,41.2634,0.0],[-95.9616,41.2597,0.0],[-95.9658,41.2597,0.0],[-95.9664,41.2597,0.0],[-95.9705,41.2596,0.0],[-95.9746,41.2597,0.0],[-95.9745,41.2612,0.0],[-95.9751,41.2613,0.0],[-95.9751,41.2639,0.0]]]]}},{"type":"Feature","properties":{"uesi_id":"USA_R169759","nbhd_code":"USA_R169759_107","nbhd_name":"Census Tract 53"},"geometry":{"type":"MultiPolygon","coordinates":[[[[-95.978,41.2741,0.0],[-95.9767,41.2742,0.0],[-95.9759,41.2773,0.0],[-95.9757,41.2778,0.0],[-95.9758,41.2814,0.0],[-95.9723,41.2814,0.0],[-95.9723,41.2839,0.0],[-95.9721,41.2887,0.0],[-95.9566,41.2887,0.0],[-95.9566,41.2815,0.0],[-95.9661,41.2814,0.0],[-95.9661,41.2777,0.0],[-95.9661,41.2764,0.0],[-95.9661,41.2731,0.0],[-95.9727,41.2732,0.0],[-95.9749,41.2732,0.0],[-95.9761,41.2722,0.0],[-95.9773,41.2731,0.0],[-95.978,41.2741,0.0]]]]}},{"type":"Feature","properties":{"uesi_id":"USA_R169759","nbhd_code":"USA_R169759_108","nbhd_name":"Census Tract 58"},"geometry":{"type":"MultiPolygon","coordinates":[[[[-95.9951,41.2923,0.0],[-95.9951,41.2942,0.0],[-95.9951,41.2959,0.0],[-95.995,41.2996,0.0],[-95.9855,41.2996,0.0],[-95.9855,41.2951,0.0],[-95.9855,41.2924,0.0],[-95.9855,41.2905,0.0],[-95.9855,41.2887,0.0],[-95.9806,41.2887,0.0],[-95.9806,41.2851,0.0],[-95.9806,41.2839,0.0],[-95.9806,41.2831,0.0],[-95.983,41.2831,0.0],[-95.983,41.2817,0.0],[-95.9835,41.281,0.0],[-95.9852,41.2815,0.0],[-95.9878,41.2815,0.0],[-95.989,41.2814,0.0],[-95.9903,41.2815,0.0],[-95.9926,41.2829,0.0],[-95.9932,41.2832,0.0],[-95.995,41.2832,0.0],[-95.995,41.285,0.0],[-95.9951,41.2887,0.0],[-95.9951,41.2905,0.0],[-95.9951,41.2923,0.0]]]]}},{"type":"Feature","properties":{"uesi_id":"USA_R169759","nbhd_code":"USA_R169759_109","nbhd_name":"Census Tract 61.02"},"geometry":{"type":"MultiPolygon","coordinates":[[[[-95.9758,41.3101,0.0],[-95.9758,41.3113,0.0],[-95.9758,41.314,0.0],[-95.9758,41.3149,0.0],[-95.9758,41.3158,0.0],[-95.9758,41.3176,0.0],[-95.9758,41.3194,0.0],[-95.9758,41.3256,0.0],[-95.9757,41.326,0.0],[-95.9733,41.326,0.0],[-95.9733,41.3274,0.0],[-95.969,41.328,0.0],[-95.9669,41.3273,0.0],[-95.9674,41.3269,0.0],[-95.9676,41.3259,0.0],[-95.9667,41.3246,0.0],[-95.9662,41.3212,0.0],[-95.9661,41.3195,0.0],[-95.9662,41.319,0.0],[-95.9661,41.3176,0.0],[-95.9661,41.3158,0.0],[-95.9661,41.3121,0.0],[-95.9566,41.3121,0.0],[-95.9566,41.3094,0.0],[-95.9566,41.3067,0.0],[-95.9565,41.3029,0.0],[-95.9604,41.3035,0.0],[-95.9613,41.3039,0.0],[-95.966,41.3062,0.0],[-95.9688,41.3072,0.0],[-95.97,41.3067,0.0],[-95.9758,41.3067,0.0],[-95.9758,41.3101,0.0]]]]}},{"type":"Feature","properties":{"uesi_id":"USA_R169759","nbhd_code":"USA_R169759_110","nbhd_name":"Census Tract 64"},"geometry":{"type":"MultiPolygon","coordinates":[[[[-96.0239,41.2633,0.0],[-96.0239,41.2669,0.0],[-96.0239,41.2698,0.0],[-96.0239,41.2705,0.0],[-96.0238,41.2723,0.0],[-96.0239,41.2742,0.0],[-96.0239,41.2778,0.0],[-96.0239,41.2814,0.0],[-96.0143,41.2814,0.0],[-96.0144,41.2778,0.0],[-96.0048,41.2777,0.0],[-96.0048,41.275,0.0],[-96.0048,41.2732,0.0],[-96.0048,41.2723,0.0],[-96.0048,41.2705,0.0],[-96.0019,41.2705,0.0],[-96.0022,41.2691,0.0],[-96.0041,41.2681,0.0],[-96.0053,41.265,0.0],[-96.0084,41.265,0.0],[-96.0086,41.265,0.0],[-96.0118,41.2677,0.0],[-96.0143,41.2678,0.0],[-96.0143,41.2669,0.0],[-96.0163,41.2669,0.0],[-96.0177,41.2644,0.0],[-96.0196,41.2633,0.0],[-96.0191,41.2602,0.0],[-96.0191,41.2596,0.0],[-96.0239,41.2596,0.0],[-96.0239,41.2633,0.0]]]]}},{"type":"Feature","properties":{"uesi_id":"USA_R169759","nbhd_code":"USA_R169759_111","nbhd_name":"Census Tract 67.04"},"geometry":{"type":"MultiPolygon","coordinates":[[[[-96.0851,41.2487,0.0],[-96.0839,41.2504,0.0],[-96.0776,41.2549,0.0],[-96.0766,41.2563,0.0],[-96.0757,41.2596,0.0],[-96.0757,41.2634,0.0],[-96.0648,41.2634,0.0],[-96.0621,41.2634,0.0],[-96.0612,41.2634,0.0],[-96.0621,41.2614,0.0],[-96.0622,41.2524,0.0],[-96.0622,41.2488,0.0],[-96.0718,41.2488,0.0],[-96.0732,41.2488,0.0],[-96.0791,41.2488,0.0],[-96.0792,41.2488,0.0],[-96.0847,41.2487,0.0],[-96.0851,41.2487,0.0]]]]}},{"type":"Feature","properties":{"uesi_id":"USA_R169759","nbhd_code":"USA_R169759_112","nbhd_name":"Census Tract 18"},"geometry":{"type":"MultiPolygon","coordinates":[[[[-95.9423,41.2593,0.0],[-95.942,41.2597,0.0],[-95.9372,41.2597,0.0],[-95.9332,41.2597,0.0],[-95.9279,41.2597,0.0],[-95.9274,41.2588,0.0],[-95.9214,41.2597,0.0],[-95.9213,41.2585,0.0],[-95.9171,41.2498,0.0],[-95.9164,41.2483,0.0],[-95.924,41.248,0.0],[-95.9242,41.2491,0.0],[-95.9267,41.2491,0.0],[-95.9306,41.2491,0.0],[-95.9333,41.2492,0.0],[-95.9347,41.2481,0.0],[-95.9372,41.2481,0.0],[-95.9372,41.2495,0.0],[-95.9372,41.2503,0.0],[-95.9401,41.2503,0.0],[-95.9408,41.2483,0.0],[-95.9422,41.2482,0.0],[-95.9423,41.2543,0.0],[-95.9423,41.2593,0.0]]]]}},{"type":"Feature","properties":{"uesi_id":"USA_R169759","nbhd_code":"USA_R169759_113","nbhd_name":"Census Tract 74.47"},"geometry":{"type":"MultiPolygon","coordinates":[[[[-96.158,41.263,0.0],[-96.1485,41.2631,0.0],[-96.1422,41.2631,0.0],[-96.1419,41.2628,0.0],[-96.145,41.2628,0.0],[-96.1463,41.2627,0.0],[-96.1484,41.2616,0.0],[-96.1483,41.2561,0.0],[-96.1482,41.2486,0.0],[-96.1579,41.2485,0.0],[-96.158,41.255,0.0],[-96.158,41.2582,0.0],[-96.158,41.2601,0.0],[-96.158,41.263,0.0]]]]}},{"type":"Feature","properties":{"uesi_id":"USA_R169759","nbhd_code":"USA_R169759_114","nbhd_name":"Census Tract 69.05"},"geometry":{"type":"MultiPolygon","coordinates":[[[[-96.0623,41.2234,0.0],[-96.0589,41.2234,0.0],[-96.0579,41.2249,0.0],[-96.057,41.2294,0.0],[-96.0563,41.2304,0.0],[-96.0548,41.233,0.0],[-96.0581,41.2335,0.0],[-96.0554,41.234,0.0],[-96.0539,41.2342,0.0],[-96.0527,41.2343,0.0],[-96.0431,41.2343,0.0],[-96.0431,41.2278,0.0],[-96.0431,41.2263,0.0],[-96.0432,41.2256,0.0],[-96.0431,41.2216,0.0],[-96.0623,41.2216,0.0],[-96.0623,41.2234,0.0]]]]}},{"type":"Feature","properties":{"uesi_id":"USA_R169759","nbhd_code":"USA_R169759_115","nbhd_name":"Census Tract 70.02"},"geometry":{"type":"MultiPolygon","coordinates":[[[[-96.0047,41.2306,0.0],[-95.9951,41.2305,0.0],[-95.9951,41.227,0.0],[-95.9902,41.227,0.0],[-95.9902,41.2306,0.0],[-95.983,41.2306,0.0],[-95.9786,41.2306,0.0],[-95.9784,41.2286,0.0],[-95.9786,41.2282,0.0],[-95.9786,41.227,0.0],[-95.9758,41.227,0.0],[-95.9758,41.2247,0.0],[-95.9833,41.2228,0.0],[-95.9903,41.2227,0.0],[-95.9942,41.2229,0.0],[-96.0039,41.2239,0.0],[-96.0046,41.2238,0.0],[-96.0047,41.227,0.0],[-96.0047,41.2306,0.0]]]]}},{"type":"Feature","properties":{"uesi_id":"USA_R169759","nbhd_code":"USA_R169759_116","nbhd_name":"Census Tract 71.01"},"geometry":{"type":"MultiPolygon","coordinates":[[[[-96.0239,41.2125,0.0],[-96.0047,41.2125,0.0],[-95.9956,41.2125,0.0],[-95.9908,41.2125,0.0],[-95.9764,41.2126,0.0],[-95.9768,41.2077,0.0],[-95.9779,41.2056,0.0],[-95.9791,41.2055,0.0],[-95.9866,41.2053,0.0],[-95.9938,41.2053,0.0],[-95.9962,41.2053,0.0],[-96.0047,41.2052,0.0],[-96.0238,41.2053,0.0],[-96.0238,41.2089,0.0],[-96.0239,41.2125,0.0]]]]}},{"type":"Feature","properties":{"uesi_id":"USA_R169759","nbhd_code":"USA_R169759_117","nbhd_name":"Census Tract 65.06"},"geometry":{"type":"MultiPolygon","coordinates":[[[[-96.0238,41.3127,0.0],[-96.0238,41.3173,0.0],[-96.0211,41.3178,0.0],[-96.0191,41.3168,0.0],[-96.0142,41.3176,0.0],[-96.0123,41.3176,0.0],[-96.0046,41.3176,0.0],[-96.0046,41.3104,0.0],[-96.0046,41.3067,0.0],[-96.0046,41.3062,0.0],[-96.0059,41.3052,0.0],[-96.0113,41.3042,0.0],[-96.0118,41.3031,0.0],[-96.0124,41.3067,0.0],[-96.0136,41.3066,0.0],[-96.0238,41.3067,0.0],[-96.0239,41.3103,0.0],[-96.0238,41.3127,0.0]]]]}},{"type":"Feature","properties":{"uesi_id":"USA_R169759","nbhd_code":"USA_R169759_118","nbhd_name":"Census Tract 66.03"},"geometry":{"type":"MultiPolygon","coordinates":[[[[-96.0478,41.2851,0.0],[-96.0422,41.2851,0.0],[-96.0359,41.2851,0.0],[-96.0282,41.2851,0.0],[-96.0239,41.2851,0.0],[-96.0239,41.2814,0.0],[-96.0239,41.2778,0.0],[-96.0351,41.2778,0.0],[-96.0354,41.2778,0.0],[-96.0375,41.2778,0.0],[-96.0422,41.2778,0.0],[-96.0458,41.2779,0.0],[-96.0473,41.2801,0.0],[-96.0478,41.2851,0.0]]]]}},{"type":"Feature","properties":{"uesi_id":"USA_R169759","nbhd_code":"USA_R169759_119","nbhd_name":"Census Tract 67.01"},"geometry":{"type":"MultiPolygon","coordinates":[[[[-96.0622,41.2524,0.0],[-96.0621,41.2614,0.0],[-96.0612,41.2634,0.0],[-96.0573,41.2634,0.0],[-96.0525,41.2633,0.0],[-96.0477,41.2634,0.0],[-96.046,41.2633,0.0],[-96.0376,41.2633,0.0],[-96.0363,41.2633,0.0],[-96.0239,41.2633,0.0],[-96.0239,41.2596,0.0],[-96.0239,41.256,0.0],[-96.0239,41.2488,0.0],[-96.0335,41.2488,0.0],[-96.0394,41.2488,0.0],[-96.043,41.2488,0.0],[-96.0526,41.2488,0.0],[-96.0622,41.2488,0.0],[-96.0622,41.2524,0.0]]]]}},{"type":"Feature","properties":{"uesi_id":"USA_R169759","nbhd_code":"USA_R169759_120","nbhd_name":"Census Tract 68.03"},"geometry":{"type":"MultiPolygon","coordinates":[[[[-96.1007,41.2409,0.0],[-96.1007,41.2414,0.0],[-96.1007,41.2486,0.0],[-96.091,41.2487,0.0],[-96.0851,41.2487,0.0],[-96.0847,41.2487,0.0],[-96.085,41.248,0.0],[-96.0857,41.2424,0.0],[-96.0858,41.2363,0.0],[-96.0862,41.2342,0.0],[-96.0911,41.2341,0.0],[-96.1007,41.234,0.0],[-96.1007,41.2409,0.0]]]]}},{"type":"Feature","properties":{"uesi_id":"USA_R169759","nbhd_code":"USA_R169759_121","nbhd_name":"Census Tract 68.05"},"geometry":{"type":"MultiPolygon","coordinates":[[[[-96.0791,41.2488,0.0],[-96.0732,41.2488,0.0],[-96.0718,41.2488,0.0],[-96.0622,41.2488,0.0],[-96.0526,41.2488,0.0],[-96.043,41.2488,0.0],[-96.0394,41.2488,0.0],[-96.0408,41.2432,0.0],[-96.0426,41.2397,0.0],[-96.0414,41.2366,0.0],[-96.0388,41.2366,0.0],[-96.0388,41.2343,0.0],[-96.0431,41.2343,0.0],[-96.0527,41.2343,0.0],[-96.0539,41.2342,0.0],[-96.0554,41.234,0.0],[-96.0615,41.2396,0.0],[-96.0628,41.2411,0.0],[-96.0639,41.2418,0.0],[-96.0673,41.2423,0.0],[-96.0721,41.2438,0.0],[-96.0757,41.2472,0.0],[-96.0791,41.2488,0.0]]]]}},{"type":"Feature","properties":{"uesi_id":"USA_R169759","nbhd_code":"USA_R169759_122","nbhd_name":"Census Tract 69.06"},"geometry":{"type":"MultiPolygon","coordinates":[[[[-96.0431,41.2263,0.0],[-96.0431,41.2278,0.0],[-96.0431,41.2343,0.0],[-96.0388,41.2343,0.0],[-96.0335,41.2343,0.0],[-96.0288,41.2343,0.0],[-96.0258,41.2343,0.0],[-96.0244,41.2344,0.0],[-96.0239,41.2345,0.0],[-96.0239,41.2271,0.0],[-96.0239,41.2239,0.0],[-96.0239,41.2217,0.0],[-96.024,41.2217,0.0],[-96.0252,41.2216,0.0],[-96.0431,41.2216,0.0],[-96.0432,41.2256,0.0],[-96.0431,41.2263,0.0]]]]}},{"type":"Feature","properties":{"uesi_id":"USA_R169759","nbhd_code":"USA_R169759_123","nbhd_name":"Census Tract 70.01"},"geometry":{"type":"MultiPolygon","coordinates":[[[[-96.0239,41.2485,0.0],[-96.0217,41.2486,0.0],[-96.0219,41.2488,0.0],[-96.0203,41.2488,0.0],[-96.0156,41.2488,0.0],[-96.0143,41.2487,0.0],[-96.0142,41.2452,0.0],[-96.0091,41.2451,0.0],[-96.0096,41.2447,0.0],[-96.0096,41.2379,0.0],[-96.0047,41.2379,0.0],[-96.0047,41.2306,0.0],[-96.0047,41.227,0.0],[-96.0046,41.2238,0.0],[-96.0239,41.2239,0.0],[-96.0239,41.2271,0.0],[-96.0239,41.2345,0.0],[-96.0239,41.2433,0.0],[-96.0239,41.2469,0.0],[-96.0239,41.2485,0.0]]]]}},{"type":"Feature","properties":{"uesi_id":"USA_R169759","nbhd_code":"USA_R169759_124","nbhd_name":"Census Tract 70.03"},"geometry":{"type":"MultiPolygon","coordinates":[[[[-96.024,41.2217,0.0],[-96.0239,41.2217,0.0],[-96.0239,41.2239,0.0],[-96.0046,41.2238,0.0],[-96.0039,41.2239,0.0],[-95.9942,41.2229,0.0],[-95.9903,41.2227,0.0],[-95.9833,41.2228,0.0],[-95.9758,41.2247,0.0],[-95.9759,41.2197,0.0],[-95.9763,41.2144,0.0],[-95.9764,41.2126,0.0],[-95.9908,41.2125,0.0],[-95.9956,41.2125,0.0],[-96.0047,41.2125,0.0],[-96.0239,41.2125,0.0],[-96.0239,41.2197,0.0],[-96.0243,41.2197,0.0],[-96.024,41.2217,0.0]]]]}},{"type":"Feature","properties":{"uesi_id":"USA_R169759","nbhd_code":"USA_R169759_125","nbhd_name":"Census Tract 71.02"},"geometry":{"type":"MultiPolygon","coordinates":[[[[-96.0238,41.2021,0.0],[-96.0238,41.2053,0.0],[-96.0047,41.2052,0.0],[-95.9962,41.2053,0.0],[-95.9938,41.2053,0.0],[-95.9866,41.2053,0.0],[-95.9791,41.2055,0.0],[-95.9779,41.2056,0.0],[-95.9771,41.2056,0.0],[-95.9767,41.2055,0.0],[-95.9769,41.2049,0.0],[-95.977,41.2018,0.0],[-95.977,41.1981,0.0],[-95.977,41.1945,0.0],[-95.9818,41.1944,0.0],[-95.9819,41.1908,0.0],[-95.9866,41.1908,0.0],[-95.992,41.1907,0.0],[-96.005,41.1907,0.0],[-96.0059,41.1907,0.0],[-96.007,41.1907,0.0],[-96.0091,41.1907,0.0],[-96.0093,41.1907,0.0],[-96.019,41.1907,0.0],[-96.0237,41.1907,0.0],[-96.0237,41.1911,0.0],[-96.0238,41.1934,0.0],[-96.0238,41.199,0.0],[-96.0238,41.2021,0.0]]]]}},{"type":"Feature","properties":{"uesi_id":"USA_R169759","nbhd_code":"USA_R169759_126","nbhd_name":"Census Tract 73.11"},"geometry":{"type":"MultiPolygon","coordinates":[[[[-96.0814,41.3138,0.0],[-96.0813,41.3175,0.0],[-96.0813,41.3177,0.0],[-96.0813,41.3212,0.0],[-96.0782,41.3212,0.0],[-96.0755,41.3212,0.0],[-96.075,41.3213,0.0],[-96.0744,41.3217,0.0],[-96.0721,41.3248,0.0],[-96.0718,41.3246,0.0],[-96.0708,41.3236,0.0],[-96.0692,41.3222,0.0],[-96.0698,41.3212,0.0],[-96.0704,41.3191,0.0],[-96.0706,41.3139,0.0],[-96.0709,41.3067,0.0],[-96.0814,41.3066,0.0],[-96.0814,41.3138,0.0]]]]}},{"type":"Feature","properties":{"uesi_id":"USA_R169759","nbhd_code":"USA_R169759_127","nbhd_name":"Census Tract 73.12"},"geometry":{"type":"MultiPolygon","coordinates":[[[[-96.0706,41.3139,0.0],[-96.0704,41.3191,0.0],[-96.0698,41.3212,0.0],[-96.0692,41.3222,0.0],[-96.0678,41.3238,0.0],[-96.0627,41.3272,0.0],[-96.0621,41.3268,0.0],[-96.059,41.3248,0.0],[-96.0573,41.3236,0.0],[-96.0553,41.3215,0.0],[-96.0548,41.3208,0.0],[-96.0534,41.318,0.0],[-96.053,41.3169,0.0],[-96.0522,41.3166,0.0],[-96.0525,41.3152,0.0],[-96.0525,41.3148,0.0],[-96.0526,41.3131,0.0],[-96.0526,41.3067,0.0],[-96.0627,41.3067,0.0],[-96.067,41.3067,0.0],[-96.0709,41.3067,0.0],[-96.0706,41.3139,0.0]]]]}},{"type":"Feature","properties":{"uesi_id":"USA_R169759","nbhd_code":"USA_R169759_128","nbhd_name":"Census Tract 73.16"},"geometry":{"type":"MultiPolygon","coordinates":[[[[-96.1583,41.3211,0.0],[-96.1486,41.3211,0.0],[-96.1461,41.3211,0.0],[-96.1435,41.3211,0.0],[-96.143,41.3211,0.0],[-96.1425,41.3211,0.0],[-96.1389,41.3211,0.0],[-96.1389,41.3178,0.0],[-96.1389,41.3066,0.0],[-96.139,41.3066,0.0],[-96.1412,41.3066,0.0],[-96.1437,41.3066,0.0],[-96.1443,41.3066,0.0],[-96.1537,41.3066,0.0],[-96.158,41.3065,0.0],[-96.1582,41.3165,0.0],[-96.1583,41.3211,0.0]]]]}},{"type":"Feature","properties":{"uesi_id":"USA_R169759","nbhd_code":"USA_R169759_129","nbhd_name":"Census Tract 74.05"},"geometry":{"type":"MultiPolygon","coordinates":[[[[-96.1484,41.2616,0.0],[-96.1463,41.2627,0.0],[-96.145,41.2628,0.0],[-96.1419,41.2628,0.0],[-96.1422,41.2631,0.0],[-96.1388,41.2631,0.0],[-96.1388,41.272,0.0],[-96.1388,41.2777,0.0],[-96.1293,41.2776,0.0],[-96.1244,41.2776,0.0],[-96.1196,41.2776,0.0],[-96.1196,41.2725,0.0],[-96.1196,41.2687,0.0],[-96.1196,41.2631,0.0],[-96.1196,41.2518,0.0],[-96.1196,41.2486,0.0],[-96.1277,41.2486,0.0],[-96.1304,41.2486,0.0],[-96.1386,41.2486,0.0],[-96.1434,41.2486,0.0],[-96.1482,41.2486,0.0],[-96.1483,41.2561,0.0],[-96.1484,41.2616,0.0]]]]}},{"type":"Feature","properties":{"uesi_id":"USA_R169759","nbhd_code":"USA_R169759_130","nbhd_name":"Census Tract 74.08"},"geometry":{"type":"MultiPolygon","coordinates":[[[[-96.1195,41.2316,0.0],[-96.1195,41.2341,0.0],[-96.1099,41.234,0.0],[-96.1075,41.234,0.0],[-96.1064,41.234,0.0],[-96.1007,41.234,0.0],[-96.1007,41.2314,0.0],[-96.1007,41.2303,0.0],[-96.1007,41.2292,0.0],[-96.1007,41.2224,0.0],[-96.1007,41.2215,0.0],[-96.1092,41.2215,0.0],[-96.11,41.2215,0.0],[-96.1195,41.2215,0.0],[-96.1193,41.2222,0.0],[-96.1195,41.2276,0.0],[-96.1195,41.2316,0.0]]]]}},{"type":"Feature","properties":{"uesi_id":"USA_R169759","nbhd_code":"USA_R169759_131","nbhd_name":"Census Tract 74.31"},"geometry":{"type":"MultiPolygon","coordinates":[[[[-96.1389,41.2953,0.0],[-96.1388,41.299,0.0],[-96.1388,41.3024,0.0],[-96.1389,41.3066,0.0],[-96.1236,41.3066,0.0],[-96.1196,41.3066,0.0],[-96.1196,41.303,0.0],[-96.1197,41.2963,0.0],[-96.1196,41.2922,0.0],[-96.1283,41.292,0.0],[-96.1389,41.2922,0.0],[-96.1389,41.2953,0.0]]]]}},{"type":"Feature","properties":{"uesi_id":"USA_R169759","nbhd_code":"USA_R169759_132","nbhd_name":"Census Tract 74.34"},"geometry":{"type":"MultiPolygon","coordinates":[[[[-96.0814,41.2963,0.0],[-96.0814,41.2977,0.0],[-96.0814,41.3008,0.0],[-96.0814,41.3066,0.0],[-96.0709,41.3067,0.0],[-96.0715,41.2977,0.0],[-96.0719,41.2963,0.0],[-96.0754,41.2872,0.0],[-96.0758,41.2861,0.0],[-96.0814,41.2875,0.0],[-96.0814,41.2887,0.0],[-96.0814,41.2945,0.0],[-96.0814,41.2963,0.0]]]]}},{"type":"Feature","properties":{"uesi_id":"USA_R169759","nbhd_code":"USA_R169759_133","nbhd_name":"Census Tract 74.36"},"geometry":{"type":"MultiPolygon","coordinates":[[[[-96.0758,41.2861,0.0],[-96.0754,41.2872,0.0],[-96.0719,41.2963,0.0],[-96.0704,41.2959,0.0],[-96.0684,41.2956,0.0],[-96.0681,41.2966,0.0],[-96.0644,41.2967,0.0],[-96.0649,41.2977,0.0],[-96.065,41.2992,0.0],[-96.064,41.2992,0.0],[-96.0631,41.2974,0.0],[-96.0625,41.2976,0.0],[-96.0608,41.2976,0.0],[-96.054,41.2955,0.0],[-96.0526,41.2955,0.0],[-96.0526,41.2948,0.0],[-96.0531,41.2912,0.0],[-96.0526,41.2883,0.0],[-96.0526,41.2851,0.0],[-96.0559,41.2851,0.0],[-96.0644,41.2851,0.0],[-96.0682,41.2851,0.0],[-96.0713,41.2852,0.0],[-96.0754,41.286,0.0],[-96.0758,41.2861,0.0]]]]}},{"type":"Feature","properties":{"uesi_id":"USA_R169759","nbhd_code":"USA_R169759_134","nbhd_name":"Census Tract 74.40"},"geometry":{"type":"MultiPolygon","coordinates":[[[[-96.0971,41.2913,0.0],[-96.0924,41.2902,0.0],[-96.0875,41.289,0.0],[-96.0814,41.2875,0.0],[-96.0758,41.2861,0.0],[-96.0762,41.283,0.0],[-96.0761,41.2778,0.0],[-96.0813,41.2778,0.0],[-96.0856,41.2778,0.0],[-96.0914,41.2777,0.0],[-96.0949,41.2777,0.0],[-96.0957,41.2805,0.0],[-96.0958,41.2896,0.0],[-96.0971,41.2913,0.0]]]]}},{"type":"Feature","properties":{"uesi_id":"USA_R169759","nbhd_code":"USA_R169759_135","nbhd_name":"Census Tract 74.45"},"geometry":{"type":"MultiPolygon","coordinates":[[[[-96.0838,41.2644,0.0],[-96.0814,41.2675,0.0],[-96.0813,41.2778,0.0],[-96.0761,41.2778,0.0],[-96.0758,41.2778,0.0],[-96.0646,41.2778,0.0],[-96.0621,41.2778,0.0],[-96.0621,41.2706,0.0],[-96.0621,41.2634,0.0],[-96.0648,41.2634,0.0],[-96.0757,41.2634,0.0],[-96.0825,41.2634,0.0],[-96.0838,41.2644,0.0]]]]}},{"type":"Feature","properties":{"uesi_id":"USA_R169759","nbhd_code":"USA_R169759_136","nbhd_name":"Census Tract 74.50"},"geometry":{"type":"MultiPolygon","coordinates":[[[[-96.1769,41.2427,0.0],[-96.1769,41.2485,0.0],[-96.1666,41.2485,0.0],[-96.1643,41.2461,0.0],[-96.1616,41.2423,0.0],[-96.1612,41.2409,0.0],[-96.1611,41.24,0.0],[-96.1608,41.2371,0.0],[-96.1587,41.234,0.0],[-96.1651,41.234,0.0],[-96.1719,41.234,0.0],[-96.1769,41.2342,0.0],[-96.1769,41.2427,0.0]]]]}},{"type":"Feature","properties":{"uesi_id":"USA_R169759","nbhd_code":"USA_R169759_137","nbhd_name":"Census Tract 74.51"},"geometry":{"type":"MultiPolygon","coordinates":[[[[-96.1961,41.2343,0.0],[-96.1944,41.2343,0.0],[-96.1823,41.2341,0.0],[-96.1769,41.2342,0.0],[-96.1719,41.234,0.0],[-96.1651,41.234,0.0],[-96.1587,41.234,0.0],[-96.1575,41.2339,0.0],[-96.1388,41.2217,0.0],[-96.1388,41.22,0.0],[-96.1387,41.2195,0.0],[-96.1471,41.2195,0.0],[-96.1549,41.2195,0.0],[-96.1555,41.2193,0.0],[-96.1566,41.2201,0.0],[-96.1576,41.2214,0.0],[-96.1616,41.2224,0.0],[-96.1634,41.2191,0.0],[-96.1665,41.2186,0.0],[-96.1682,41.2185,0.0],[-96.1714,41.2201,0.0],[-96.1771,41.2208,0.0],[-96.1793,41.2209,0.0],[-96.1882,41.2241,0.0],[-96.1866,41.2246,0.0],[-96.1876,41.2262,0.0],[-96.1909,41.2268,0.0],[-96.1906,41.2273,0.0],[-96.1916,41.2275,0.0],[-96.1918,41.2274,0.0],[-96.1918,41.2268,0.0],[-96.192,41.227,0.0],[-96.192,41.2275,0.0],[-96.1923,41.2275,0.0],[-96.1925,41.2272,0.0],[-96.1931,41.2274,0.0],[-96.1935,41.2272,0.0],[-96.193,41.227,0.0],[-96.1936,41.2268,0.0],[-96.1943,41.2268,0.0],[-96.1962,41.2268,0.0],[-96.1961,41.2343,0.0]]]]}},{"type":"Feature","properties":{"uesi_id":"USA_R169759","nbhd_code":"USA_R169759_138","nbhd_name":"Census Tract 74.53"},"geometry":{"type":"MultiPolygon","coordinates":[[[[-96.1773,41.2089,0.0],[-96.1772,41.2112,0.0],[-96.1771,41.2208,0.0],[-96.1714,41.2201,0.0],[-96.1682,41.2185,0.0],[-96.1665,41.2186,0.0],[-96.1634,41.2191,0.0],[-96.1616,41.2224,0.0],[-96.1576,41.2214,0.0],[-96.1566,41.2201,0.0],[-96.1555,41.2193,0.0],[-96.1543,41.2173,0.0],[-96.1552,41.2155,0.0],[-96.1577,41.2137,0.0],[-96.158,41.2121,0.0],[-96.1582,41.2054,0.0],[-96.1631,41.2053,0.0],[-96.1671,41.2053,0.0],[-96.1773,41.2052,0.0],[-96.1773,41.2089,0.0]]]]}},{"type":"Feature","properties":{"uesi_id":"USA_R169759","nbhd_code":"USA_R169759_139","nbhd_name":"Census Tract 74.58"},"geometry":{"type":"MultiPolygon","coordinates":[[[[-96.0622,41.2125,0.0],[-96.0526,41.2125,0.0],[-96.043,41.2125,0.0],[-96.043,41.2123,0.0],[-96.043,41.209,0.0],[-96.043,41.2053,0.0],[-96.0483,41.2053,0.0],[-96.0524,41.2053,0.0],[-96.062,41.2053,0.0],[-96.0621,41.209,0.0],[-96.0622,41.2125,0.0]]]]}},{"type":"Feature","properties":{"uesi_id":"USA_R169759","nbhd_code":"USA_R169759_140","nbhd_name":"Census Tract 65.03"},"geometry":{"type":"MultiPolygon","coordinates":[[[[-96.0526,41.3067,0.0],[-96.0526,41.3131,0.0],[-96.0499,41.3118,0.0],[-96.0464,41.3105,0.0],[-96.0461,41.311,0.0],[-96.0427,41.3125,0.0],[-96.0423,41.3126,0.0],[-96.0334,41.3127,0.0],[-96.0238,41.3127,0.0],[-96.0239,41.3103,0.0],[-96.0238,41.3067,0.0],[-96.0239,41.2976,0.0],[-96.0276,41.2996,0.0],[-96.0325,41.3019,0.0],[-96.0336,41.3027,0.0],[-96.0342,41.3021,0.0],[-96.033,41.2988,0.0],[-96.0351,41.2976,0.0],[-96.0365,41.2966,0.0],[-96.0372,41.2964,0.0],[-96.0382,41.2975,0.0],[-96.0404,41.2982,0.0],[-96.0526,41.2984,0.0],[-96.0526,41.3001,0.0],[-96.0526,41.3067,0.0]]]]}},{"type":"Feature","properties":{"uesi_id":"USA_R169759","nbhd_code":"USA_R169759_141","nbhd_name":"Census Tract 74.60"},"geometry":{"type":"MultiPolygon","coordinates":[[[[-96.1966,41.1957,0.0],[-96.1966,41.1987,0.0],[-96.1965,41.2051,0.0],[-96.1965,41.2052,0.0],[-96.1773,41.2052,0.0],[-96.1774,41.1984,0.0],[-96.1774,41.1964,0.0],[-96.1775,41.1906,0.0],[-96.1871,41.1906,0.0],[-96.1894,41.1906,0.0],[-96.1967,41.1907,0.0],[-96.1966,41.1957,0.0]]]]}},{"type":"Feature","properties":{"uesi_id":"USA_R169759","nbhd_code":"USA_R169759_142","nbhd_name":"Census Tract 74.63"},"geometry":{"type":"MultiPolygon","coordinates":[[[[-96.1388,41.1981,0.0],[-96.1388,41.2054,0.0],[-96.1327,41.2053,0.0],[-96.1316,41.2052,0.0],[-96.1298,41.2049,0.0],[-96.1292,41.2051,0.0],[-96.1284,41.2052,0.0],[-96.1195,41.2051,0.0],[-96.1195,41.1973,0.0],[-96.1196,41.1906,0.0],[-96.1292,41.1907,0.0],[-96.1318,41.1907,0.0],[-96.1388,41.1908,0.0],[-96.1388,41.1981,0.0]]]]}},{"type":"Feature","properties":{"uesi_id":"USA_R169759","nbhd_code":"USA_R169759_143","nbhd_name":"Census Tract 74.66"},"geometry":{"type":"MultiPolygon","coordinates":[[[[-96.0814,41.2053,0.0],[-96.0736,41.2054,0.0],[-96.0716,41.2053,0.0],[-96.0702,41.2053,0.0],[-96.062,41.2053,0.0],[-96.062,41.203,0.0],[-96.062,41.1985,0.0],[-96.0619,41.191,0.0],[-96.0622,41.1907,0.0],[-96.0668,41.1907,0.0],[-96.0715,41.1907,0.0],[-96.0717,41.1907,0.0],[-96.0749,41.1907,0.0],[-96.0765,41.1907,0.0],[-96.0814,41.1908,0.0],[-96.0814,41.1966,0.0],[-96.0814,41.1993,0.0],[-96.0814,41.2016,0.0],[-96.0814,41.2053,0.0]]]]}},{"type":"Feature","properties":{"uesi_id":"USA_R169759","nbhd_code":"USA_R169759_144","nbhd_name":"Census Tract 74.70"},"geometry":{"type":"MultiPolygon","coordinates":[[[[-96.1581,41.2964,0.0],[-96.1581,41.2996,0.0],[-96.158,41.3065,0.0],[-96.1537,41.3066,0.0],[-96.1443,41.3066,0.0],[-96.1437,41.3066,0.0],[-96.1412,41.3066,0.0],[-96.139,41.3066,0.0],[-96.1389,41.3066,0.0],[-96.1388,41.3024,0.0],[-96.1388,41.299,0.0],[-96.1389,41.2953,0.0],[-96.1389,41.2922,0.0],[-96.1437,41.2921,0.0],[-96.1485,41.2921,0.0],[-96.1581,41.2921,0.0],[-96.1581,41.2964,0.0]]]]}},{"type":"Feature","properties":{"uesi_id":"USA_R169759","nbhd_code":"USA_R169759_145","nbhd_name":"Census Tract 75.06"},"geometry":{"type":"MultiPolygon","coordinates":[[[[-96.2797,41.2936,0.0],[-96.2757,41.2948,0.0],[-96.2682,41.2947,0.0],[-96.2596,41.2942,0.0],[-96.2581,41.2928,0.0],[-96.2547,41.293,0.0],[-96.2541,41.293,0.0],[-96.2522,41.2924,0.0],[-96.2484,41.2917,0.0],[-96.2344,41.2919,0.0],[-96.2345,41.2813,0.0],[-96.2345,41.2773,0.0],[-96.2345,41.2738,0.0],[-96.2345,41.2628,0.0],[-96.2426,41.2628,0.0],[-96.2519,41.2637,0.0],[-96.2566,41.2637,0.0],[-96.2626,41.2636,0.0],[-96.2641,41.2636,0.0],[-96.2677,41.2677,0.0],[-96.2728,41.2712,0.0],[-96.2741,41.2728,0.0],[-96.2766,41.2795,0.0],[-96.2767,41.2807,0.0],[-96.2759,41.2836,0.0],[-96.2756,41.2843,0.0],[-96.2754,41.2865,0.0],[-96.2765,41.2882,0.0],[-96.2819,41.292,0.0],[-96.2797,41.2936,0.0]]]]}},{"type":"Feature","properties":{"uesi_id":"USA_R169759","nbhd_code":"USA_R169759_146","nbhd_name":"Census Tract 75.13"},"geometry":{"type":"MultiPolygon","coordinates":[[[[-96.2345,41.2628,0.0],[-96.2156,41.2629,0.0],[-96.1964,41.263,0.0],[-96.1771,41.2629,0.0],[-96.1774,41.2597,0.0],[-96.177,41.2588,0.0],[-96.1769,41.2485,0.0],[-96.1838,41.2485,0.0],[-96.1963,41.2485,0.0],[-96.2155,41.2484,0.0],[-96.2251,41.2483,0.0],[-96.2252,41.2483,0.0],[-96.2341,41.2483,0.0],[-96.2344,41.2483,0.0],[-96.2345,41.2549,0.0],[-96.2345,41.2628,0.0]]]]}},{"type":"Feature","properties":{"uesi_id":"USA_R169759","nbhd_code":"USA_R169759_147","nbhd_name":"Census Tract 75.16"},"geometry":{"type":"MultiPolygon","coordinates":[[[[-96.2343,41.2193,0.0],[-96.2155,41.2194,0.0],[-96.1963,41.2194,0.0],[-96.1964,41.2101,0.0],[-96.1965,41.2052,0.0],[-96.2059,41.2051,0.0],[-96.2067,41.2051,0.0],[-96.2156,41.2051,0.0],[-96.2343,41.2048,0.0],[-96.2343,41.2193,0.0]]]]}},{"type":"Feature","properties":{"uesi_id":"USA_R169759","nbhd_code":"USA_R169759_148","nbhd_name":"Census Tract 2"},"geometry":{"type":"MultiPolygon","coordinates":[[[[-95.9642,41.3445,0.0],[-95.9567,41.3456,0.0],[-95.9567,41.3455,0.0],[-95.9531,41.3399,0.0],[-95.9469,41.3341,0.0],[-95.9432,41.3316,0.0],[-95.9394,41.329,0.0],[-95.9403,41.3278,0.0],[-95.9458,41.3248,0.0],[-95.9444,41.3233,0.0],[-95.9456,41.3232,0.0],[-95.9456,41.3213,0.0],[-95.9456,41.3203,0.0],[-95.9454,41.3176,0.0],[-95.9565,41.3176,0.0],[-95.9565,41.3207,0.0],[-95.9565,41.3221,0.0],[-95.9566,41.3229,0.0],[-95.9571,41.3244,0.0],[-95.9578,41.3269,0.0],[-95.9583,41.3288,0.0],[-95.9596,41.3334,0.0],[-95.9617,41.3409,0.0],[-95.9638,41.3432,0.0],[-95.9642,41.3445,0.0]]]]}},{"type":"Feature","properties":{"uesi_id":"USA_R169759","nbhd_code":"USA_R169759_149","nbhd_name":"Census Tract 39"},"geometry":{"type":"MultiPolygon","coordinates":[[[[-95.9614,41.2524,0.0],[-95.954,41.2524,0.0],[-95.9539,41.2524,0.0],[-95.947,41.2524,0.0],[-95.9471,41.2517,0.0],[-95.947,41.2488,0.0],[-95.9539,41.2488,0.0],[-95.9545,41.2488,0.0],[-95.9599,41.2488,0.0],[-95.9614,41.2488,0.0],[-95.9614,41.2524,0.0]]]]}},{"type":"Feature","properties":{"uesi_id":"USA_R169759","nbhd_code":"USA_R169759_150","nbhd_name":"Census Tract 55"},"geometry":{"type":"MultiPolygon","coordinates":[[[[-96.0048,41.2723,0.0],[-96.0048,41.2732,0.0],[-96.0048,41.275,0.0],[-96.0048,41.2777,0.0],[-96.0048,41.2814,0.0],[-96.0048,41.2832,0.0],[-95.995,41.2832,0.0],[-95.9932,41.2832,0.0],[-95.9926,41.2829,0.0],[-95.9903,41.2815,0.0],[-95.989,41.2814,0.0],[-95.9878,41.2815,0.0],[-95.9852,41.2815,0.0],[-95.9835,41.281,0.0],[-95.9835,41.2773,0.0],[-95.9836,41.2763,0.0],[-95.9835,41.2732,0.0],[-95.9854,41.2731,0.0],[-95.9878,41.2732,0.0],[-95.9902,41.2732,0.0],[-95.9951,41.2731,0.0],[-95.9951,41.2705,0.0],[-96.0019,41.2705,0.0],[-96.0048,41.2705,0.0],[-96.0048,41.2723,0.0]]]]}},{"type":"Feature","properties":{"uesi_id":"USA_R169759","nbhd_code":"USA_R169759_151","nbhd_name":"Census Tract 65.04"},"geometry":{"type":"MultiPolygon","coordinates":[[[[-96.0531,41.2912,0.0],[-96.0526,41.2948,0.0],[-96.0526,41.2955,0.0],[-96.0526,41.2984,0.0],[-96.0404,41.2982,0.0],[-96.0382,41.2975,0.0],[-96.0372,41.2964,0.0],[-96.0365,41.2966,0.0],[-96.0351,41.2976,0.0],[-96.033,41.2988,0.0],[-96.0342,41.3021,0.0],[-96.0336,41.3027,0.0],[-96.0325,41.3019,0.0],[-96.0276,41.2996,0.0],[-96.0239,41.2976,0.0],[-96.0239,41.2972,0.0],[-96.0238,41.2959,0.0],[-96.0239,41.2923,0.0],[-96.0239,41.2887,0.0],[-96.0239,41.2851,0.0],[-96.0282,41.2851,0.0],[-96.0359,41.2851,0.0],[-96.0422,41.2851,0.0],[-96.0478,41.2851,0.0],[-96.0526,41.2851,0.0],[-96.0526,41.2883,0.0],[-96.0531,41.2912,0.0]]]]}},{"type":"Feature","properties":{"uesi_id":"USA_R169759","nbhd_code":"USA_R169759_152","nbhd_name":"Census Tract 73.04"},"geometry":{"type":"MultiPolygon","coordinates":[[[[-96.0238,41.3415,0.0],[-96.0139,41.3447,0.0],[-96.0091,41.3458,0.0],[-96.007,41.3461,0.0],[-95.9937,41.3471,0.0],[-95.9877,41.3472,0.0],[-95.9821,41.347,0.0],[-95.9784,41.3469,0.0],[-95.9678,41.3446,0.0],[-95.9642,41.3445,0.0],[-95.9638,41.3432,0.0],[-95.9719,41.3435,0.0],[-95.9697,41.3348,0.0],[-95.9715,41.3345,0.0],[-95.9712,41.3333,0.0],[-95.9733,41.3329,0.0],[-95.9733,41.3292,0.0],[-95.9733,41.3274,0.0],[-95.9733,41.326,0.0],[-95.9757,41.326,0.0],[-95.976,41.3261,0.0],[-95.9803,41.3247,0.0],[-95.9852,41.3222,0.0],[-95.9862,41.3217,0.0],[-95.9888,41.3213,0.0],[-95.9889,41.3248,0.0],[-95.9926,41.3248,0.0],[-95.9924,41.3282,0.0],[-95.9951,41.3282,0.0],[-95.9947,41.3302,0.0],[-95.997,41.3306,0.0],[-95.9978,41.3319,0.0],[-96.0047,41.3321,0.0],[-96.0047,41.3358,0.0],[-96.0238,41.3357,0.0],[-96.0238,41.3415,0.0]]]]}}]}