{"type":"FeatureCollection","name":"USA_R198770","crs":{"type":"name","properties":{"name":"urn:ogc:def:crs:OGC:1.3:CRS84"}},"features":[{"type":"Feature","properties":{"uesi_id":"USA_R198770","nbhd_code":"USA_R198770_1","nbhd_name":"Census Tract 1145"},"geometry":{"type":"MultiPolygon","coordinates":[[[[-112.025,40.7712,0.0],[-112.0151,40.7712,0.0],[-112.01,40.7708,0.0],[-112.0034,40.7694,0.0],[-111.9999,40.7682,0.0],[-111.9947,40.766,0.0],[-111.9895,40.7648,0.0],[-111.987,40.7646,0.0],[-111.969,40.7647,0.0],[-111.9506,40.7656,0.0],[-111.939,40.7662,0.0],[-111.939,40.7628,0.0],[-111.939,40.759,0.0],[-111.939,40.7584,0.0],[-111.939,40.7501,0.0],[-111.939,40.7407,0.0],[-111.939,40.7242,0.0],[-111.9438,40.7243,0.0],[-111.9514,40.7254,0.0],[-111.9545,40.7258,0.0],[-111.9609,40.7259,0.0],[-111.9657,40.7267,0.0],[-111.9658,40.7265,0.0],[-111.9682,40.7255,0.0],[-111.968,40.7266,0.0],[-111.968,40.7268,0.0],[-111.9701,40.7268,0.0],[-111.9772,40.7262,0.0],[-111.9772,40.726,0.0],[-111.9772,40.7184,0.0],[-111.9771,40.7112,0.0],[-111.9771,40.7039,0.0],[-111.9799,40.7039,0.0],[-111.9852,40.7039,0.0],[-111.9866,40.7039,0.0],[-111.9952,40.7039,0.0],[-111.9962,40.7039,0.0],[-112.0057,40.7039,0.0],[-112.0104,40.7039,0.0],[-112.0249,40.7038,0.0],[-112.0249,40.7111,0.0],[-112.0237,40.715,0.0],[-112.0249,40.7167,0.0],[-112.0249,40.7203,0.0],[-112.0236,40.7218,0.0],[-112.0249,40.7259,0.0],[-112.025,40.7712,0.0]]]]}},{"type":"Feature","properties":{"uesi_id":"USA_R198770","nbhd_code":"USA_R198770_2","nbhd_name":"Census Tract 1005"},"geometry":{"type":"MultiPolygon","coordinates":[[[[-111.9367,40.7892,0.0],[-111.9351,40.7901,0.0],[-111.9357,40.7911,0.0],[-111.9297,40.7911,0.0],[-111.9255,40.7911,0.0],[-111.9247,40.7911,0.0],[-111.9173,40.7911,0.0],[-111.917,40.7918,0.0],[-111.9175,40.7931,0.0],[-111.9172,40.7942,0.0],[-111.917,40.7944,0.0],[-111.9157,40.7911,0.0],[-111.9106,40.7824,0.0],[-111.914,40.7824,0.0],[-111.9183,40.7824,0.0],[-111.9254,40.7824,0.0],[-111.9255,40.7824,0.0],[-111.9297,40.7824,0.0],[-111.9311,40.7824,0.0],[-111.9335,40.7827,0.0],[-111.9364,40.7843,0.0],[-111.9368,40.7867,0.0],[-111.9367,40.7892,0.0]]]]}},{"type":"Feature","properties":{"uesi_id":"USA_R198770","nbhd_code":"USA_R198770_3","nbhd_name":"Census Tract 1028.01"},"geometry":{"type":"MultiPolygon","coordinates":[[[[-111.939,40.7501,0.0],[-111.9359,40.7496,0.0],[-111.9335,40.7495,0.0],[-111.9295,40.7495,0.0],[-111.9195,40.7495,0.0],[-111.9196,40.7497,0.0],[-111.9092,40.7498,0.0],[-111.9052,40.7463,0.0],[-111.9043,40.7449,0.0],[-111.904,40.7438,0.0],[-111.904,40.7416,0.0],[-111.9141,40.7416,0.0],[-111.9159,40.7405,0.0],[-111.9229,40.7405,0.0],[-111.9271,40.7404,0.0],[-111.9342,40.7404,0.0],[-111.9361,40.7404,0.0],[-111.9372,40.7404,0.0],[-111.939,40.7407,0.0],[-111.939,40.7501,0.0]]]]}},{"type":"Feature","properties":{"uesi_id":"USA_R198770","nbhd_code":"USA_R198770_4","nbhd_name":"Census Tract 1034"},"geometry":{"type":"MultiPolygon","coordinates":[[[[-111.8711,40.7416,0.0],[-111.8653,40.7416,0.0],[-111.8596,40.7416,0.0],[-111.8539,40.7416,0.0],[-111.8539,40.7335,0.0],[-111.8596,40.7335,0.0],[-111.8653,40.7335,0.0],[-111.8711,40.7335,0.0],[-111.8711,40.7416,0.0]]]]}},{"type":"Feature","properties":{"uesi_id":"USA_R198770","nbhd_code":"USA_R198770_5","nbhd_name":"Census Tract 1041"},"geometry":{"type":"MultiPolygon","coordinates":[[[[-111.8417,40.7507,0.0],[-111.8365,40.7507,0.0],[-111.8307,40.7507,0.0],[-111.8306,40.7466,0.0],[-111.8303,40.7455,0.0],[-111.83,40.7449,0.0],[-111.8273,40.7416,0.0],[-111.8307,40.7416,0.0],[-111.8365,40.7416,0.0],[-111.8423,40.7416,0.0],[-111.8423,40.7482,0.0],[-111.8409,40.7498,0.0],[-111.8426,40.7498,0.0],[-111.8417,40.7507,0.0]]]]}},{"type":"Feature","properties":{"uesi_id":"USA_R198770","nbhd_code":"USA_R198770_7","nbhd_name":"Census Tract 1011.01"},"geometry":{"type":"MultiPolygon","coordinates":[[[[-111.8791,40.7728,0.0],[-111.8791,40.7762,0.0],[-111.8716,40.7762,0.0],[-111.8716,40.7728,0.0],[-111.8716,40.7694,0.0],[-111.8791,40.7694,0.0],[-111.8791,40.7728,0.0]]]]}},{"type":"Feature","properties":{"uesi_id":"USA_R198770","nbhd_code":"USA_R198770_8","nbhd_name":"Census Tract 1016"},"geometry":{"type":"MultiPolygon","coordinates":[[[[-111.8626,40.7589,0.0],[-111.8625,40.7607,0.0],[-111.8567,40.7607,0.0],[-111.8539,40.7607,0.0],[-111.8524,40.7607,0.0],[-111.8524,40.7585,0.0],[-111.8525,40.7563,0.0],[-111.8525,40.7517,0.0],[-111.8539,40.752,0.0],[-111.8539,40.7498,0.0],[-111.8595,40.7498,0.0],[-111.8623,40.7498,0.0],[-111.8625,40.7563,0.0],[-111.8626,40.7589,0.0]]]]}},{"type":"Feature","properties":{"uesi_id":"USA_R198770","nbhd_code":"USA_R198770_9","nbhd_name":"Census Tract 1019"},"geometry":{"type":"MultiPolygon","coordinates":[[[[-111.8796,40.7694,0.0],[-111.8791,40.7694,0.0],[-111.8716,40.7694,0.0],[-111.8711,40.7694,0.0],[-111.8711,40.765,0.0],[-111.8711,40.7628,0.0],[-111.8711,40.7607,0.0],[-111.8796,40.7607,0.0],[-111.8796,40.7628,0.0],[-111.8796,40.765,0.0],[-111.8796,40.7694,0.0]]]]}},{"type":"Feature","properties":{"uesi_id":"USA_R198770","nbhd_code":"USA_R198770_10","nbhd_name":"Census Tract 1033"},"geometry":{"type":"MultiPolygon","coordinates":[[[[-111.8711,40.7322,0.0],[-111.8711,40.7335,0.0],[-111.8653,40.7335,0.0],[-111.8596,40.7335,0.0],[-111.8539,40.7335,0.0],[-111.8538,40.7254,0.0],[-111.8596,40.7254,0.0],[-111.8653,40.7254,0.0],[-111.8711,40.7254,0.0],[-111.8711,40.7322,0.0]]]]}},{"type":"Feature","properties":{"uesi_id":"USA_R198770","nbhd_code":"USA_R198770_11","nbhd_name":"Census Tract 1029"},"geometry":{"type":"MultiPolygon","coordinates":[[[[-111.9092,40.7498,0.0],[-111.8911,40.7498,0.0],[-111.8882,40.7498,0.0],[-111.8882,40.748,0.0],[-111.8882,40.7416,0.0],[-111.8882,40.7335,0.0],[-111.8882,40.7302,0.0],[-111.8882,40.7255,0.0],[-111.8968,40.7254,0.0],[-111.9042,40.7254,0.0],[-111.9045,40.7335,0.0],[-111.904,40.7416,0.0],[-111.904,40.7438,0.0],[-111.9043,40.7449,0.0],[-111.9052,40.7463,0.0],[-111.9092,40.7498,0.0]]]]}},{"type":"Feature","properties":{"uesi_id":"USA_R198770","nbhd_code":"USA_R198770_12","nbhd_name":"Census Tract 1035"},"geometry":{"type":"MultiPolygon","coordinates":[[[[-111.8711,40.7498,0.0],[-111.8682,40.7498,0.0],[-111.8653,40.7498,0.0],[-111.8623,40.7498,0.0],[-111.8595,40.7498,0.0],[-111.8539,40.7498,0.0],[-111.8539,40.7475,0.0],[-111.8539,40.7416,0.0],[-111.8596,40.7416,0.0],[-111.8653,40.7416,0.0],[-111.8711,40.7416,0.0],[-111.8711,40.7498,0.0]]]]}},{"type":"Feature","properties":{"uesi_id":"USA_R198770","nbhd_code":"USA_R198770_13","nbhd_name":"Census Tract 1003.07"},"geometry":{"type":"MultiPolygon","coordinates":[[[[-111.9494,40.8061,0.0],[-111.9442,40.806,0.0],[-111.942,40.8059,0.0],[-111.9413,40.806,0.0],[-111.941,40.8031,0.0],[-111.9419,40.8031,0.0],[-111.9419,40.7995,0.0],[-111.9427,40.7986,0.0],[-111.9411,40.7969,0.0],[-111.9435,40.7953,0.0],[-111.9416,40.7934,0.0],[-111.9416,40.789,0.0],[-111.941,40.789,0.0],[-111.9415,40.7872,0.0],[-111.9436,40.7872,0.0],[-111.9436,40.7847,0.0],[-111.9492,40.7848,0.0],[-111.9493,40.7908,0.0],[-111.9494,40.8057,0.0],[-111.9494,40.8061,0.0]]]]}},{"type":"Feature","properties":{"uesi_id":"USA_R198770","nbhd_code":"USA_R198770_14","nbhd_name":"Census Tract 1036"},"geometry":{"type":"MultiPolygon","coordinates":[[[[-111.8539,40.7475,0.0],[-111.8539,40.7498,0.0],[-111.8539,40.752,0.0],[-111.8525,40.7517,0.0],[-111.8513,40.751,0.0],[-111.8453,40.7507,0.0],[-111.8417,40.7507,0.0],[-111.8426,40.7498,0.0],[-111.8409,40.7498,0.0],[-111.8423,40.7482,0.0],[-111.8423,40.7416,0.0],[-111.8479,40.7416,0.0],[-111.8539,40.7416,0.0],[-111.8539,40.7475,0.0]]]]}},{"type":"Feature","properties":{"uesi_id":"USA_R198770","nbhd_code":"USA_R198770_15","nbhd_name":"Census Tract 1048"},"geometry":{"type":"MultiPolygon","coordinates":[[[[-111.8683,40.7109,0.0],[-111.8683,40.7118,0.0],[-111.8683,40.7127,0.0],[-111.8654,40.7127,0.0],[-111.8597,40.7127,0.0],[-111.8554,40.7127,0.0],[-111.8537,40.7127,0.0],[-111.8535,40.7127,0.0],[-111.8437,40.7127,0.0],[-111.8421,40.7127,0.0],[-111.8392,40.7127,0.0],[-111.8378,40.7127,0.0],[-111.8341,40.7127,0.0],[-111.8341,40.7117,0.0],[-111.8341,40.7115,0.0],[-111.8341,40.7102,0.0],[-111.8341,40.7074,0.0],[-111.8346,40.7074,0.0],[-111.836,40.7074,0.0],[-111.836,40.7067,0.0],[-111.8389,40.7067,0.0],[-111.8389,40.7083,0.0],[-111.8413,40.7084,0.0],[-111.8436,40.7084,0.0],[-111.8436,40.706,0.0],[-111.8524,40.7061,0.0],[-111.8526,40.7061,0.0],[-111.853,40.7061,0.0],[-111.8528,40.7056,0.0],[-111.8527,40.7055,0.0],[-111.8589,40.7055,0.0],[-111.8597,40.7059,0.0],[-111.8601,40.7059,0.0],[-111.8626,40.7059,0.0],[-111.8626,40.7052,0.0],[-111.8654,40.7052,0.0],[-111.8654,40.7055,0.0],[-111.8655,40.7058,0.0],[-111.8683,40.7058,0.0],[-111.8683,40.7109,0.0]]]]}},{"type":"Feature","properties":{"uesi_id":"USA_R198770","nbhd_code":"USA_R198770_16","nbhd_name":"Census Tract 1140"},"geometry":{"type":"MultiPolygon","coordinates":[[[[-111.914,40.7606,0.0],[-111.894,40.7606,0.0],[-111.894,40.7693,0.0],[-111.8911,40.7693,0.0],[-111.8882,40.7693,0.0],[-111.8854,40.7693,0.0],[-111.8854,40.7628,0.0],[-111.8854,40.7607,0.0],[-111.8854,40.7585,0.0],[-111.8882,40.7585,0.0],[-111.8882,40.7498,0.0],[-111.8911,40.7498,0.0],[-111.9092,40.7498,0.0],[-111.91,40.7507,0.0],[-111.9106,40.7519,0.0],[-111.9114,40.7552,0.0],[-111.9137,40.7597,0.0],[-111.914,40.7606,0.0]]]]}},{"type":"Feature","properties":{"uesi_id":"USA_R198770","nbhd_code":"USA_R198770_17","nbhd_name":"Census Tract 1003.06"},"geometry":{"type":"MultiPolygon","coordinates":[[[[-111.9494,40.7707,0.0],[-111.9493,40.7791,0.0],[-111.9492,40.7848,0.0],[-111.9436,40.7847,0.0],[-111.9394,40.7847,0.0],[-111.9394,40.7802,0.0],[-111.9393,40.7715,0.0],[-111.939,40.7715,0.0],[-111.939,40.7662,0.0],[-111.9506,40.7656,0.0],[-111.9494,40.7707,0.0]]]]}},{"type":"Feature","properties":{"uesi_id":"USA_R198770","nbhd_code":"USA_R198770_18","nbhd_name":"Census Tract 1012"},"geometry":{"type":"MultiPolygon","coordinates":[[[[-111.8716,40.7728,0.0],[-111.8716,40.7762,0.0],[-111.8656,40.7762,0.0],[-111.8656,40.7774,0.0],[-111.8656,40.7819,0.0],[-111.8627,40.7815,0.0],[-111.862,40.781,0.0],[-111.856,40.7796,0.0],[-111.8522,40.7783,0.0],[-111.8523,40.7694,0.0],[-111.8567,40.7694,0.0],[-111.8581,40.7694,0.0],[-111.8625,40.7694,0.0],[-111.8641,40.7694,0.0],[-111.8711,40.7694,0.0],[-111.8716,40.7694,0.0],[-111.8716,40.7728,0.0]]]]}},{"type":"Feature","properties":{"uesi_id":"USA_R198770","nbhd_code":"USA_R198770_19","nbhd_name":"Census Tract 1021"},"geometry":{"type":"MultiPolygon","coordinates":[[[[-111.8854,40.7693,0.0],[-111.8835,40.7693,0.0],[-111.8796,40.7694,0.0],[-111.8796,40.765,0.0],[-111.8796,40.7628,0.0],[-111.8796,40.7607,0.0],[-111.8854,40.7607,0.0],[-111.8854,40.7628,0.0],[-111.8854,40.7693,0.0]]]]}},{"type":"Feature","properties":{"uesi_id":"USA_R198770","nbhd_code":"USA_R198770_20","nbhd_name":"Census Tract 1025"},"geometry":{"type":"MultiPolygon","coordinates":[[[[-111.9141,40.7611,0.0],[-111.9137,40.7637,0.0],[-111.9106,40.771,0.0],[-111.9104,40.7715,0.0],[-111.8997,40.7715,0.0],[-111.8968,40.7715,0.0],[-111.8968,40.7693,0.0],[-111.894,40.7693,0.0],[-111.894,40.7606,0.0],[-111.914,40.7606,0.0],[-111.9141,40.7611,0.0]]]]}},{"type":"Feature","properties":{"uesi_id":"USA_R198770","nbhd_code":"USA_R198770_21","nbhd_name":"Census Tract 1038"},"geometry":{"type":"MultiPolygon","coordinates":[[[[-111.8539,40.7335,0.0],[-111.848,40.7335,0.0],[-111.8423,40.7335,0.0],[-111.8423,40.7255,0.0],[-111.8456,40.7258,0.0],[-111.848,40.7258,0.0],[-111.8517,40.7258,0.0],[-111.8538,40.7254,0.0],[-111.8539,40.7335,0.0]]]]}},{"type":"Feature","properties":{"uesi_id":"USA_R198770","nbhd_code":"USA_R198770_22","nbhd_name":"Census Tract 1043"},"geometry":{"type":"MultiPolygon","coordinates":[[[[-111.825,40.7336,0.0],[-111.8203,40.7336,0.0],[-111.819,40.732,0.0],[-111.8148,40.7258,0.0],[-111.8101,40.7192,0.0],[-111.8091,40.7169,0.0],[-111.8127,40.718,0.0],[-111.8245,40.7252,0.0],[-111.8246,40.7252,0.0],[-111.8251,40.7266,0.0],[-111.825,40.7336,0.0]]]]}},{"type":"Feature","properties":{"uesi_id":"USA_R198770","nbhd_code":"USA_R198770_23","nbhd_name":"Census Tract 1003.08"},"geometry":{"type":"MultiPolygon","coordinates":[[[[-111.9436,40.7872,0.0],[-111.9415,40.7872,0.0],[-111.941,40.789,0.0],[-111.9416,40.789,0.0],[-111.9416,40.7934,0.0],[-111.9435,40.7953,0.0],[-111.9411,40.7969,0.0],[-111.9427,40.7986,0.0],[-111.9419,40.7995,0.0],[-111.9419,40.8031,0.0],[-111.941,40.8031,0.0],[-111.9413,40.806,0.0],[-111.9391,40.806,0.0],[-111.939,40.8082,0.0],[-111.9354,40.8068,0.0],[-111.934,40.8047,0.0],[-111.9346,40.8013,0.0],[-111.9362,40.8006,0.0],[-111.9364,40.799,0.0],[-111.9371,40.7978,0.0],[-111.9357,40.7911,0.0],[-111.9351,40.7901,0.0],[-111.9367,40.7892,0.0],[-111.9368,40.7867,0.0],[-111.9364,40.7843,0.0],[-111.9367,40.7811,0.0],[-111.9381,40.7802,0.0],[-111.9394,40.7802,0.0],[-111.9394,40.7847,0.0],[-111.9436,40.7847,0.0],[-111.9436,40.7872,0.0]]]]}},{"type":"Feature","properties":{"uesi_id":"USA_R198770","nbhd_code":"USA_R198770_24","nbhd_name":"Census Tract 1010"},"geometry":{"type":"MultiPolygon","coordinates":[[[[-111.8842,40.7799,0.0],[-111.8828,40.7841,0.0],[-111.8833,40.7853,0.0],[-111.8801,40.7887,0.0],[-111.8805,40.7878,0.0],[-111.8817,40.7862,0.0],[-111.8811,40.784,0.0],[-111.882,40.782,0.0],[-111.8791,40.7819,0.0],[-111.8791,40.783,0.0],[-111.8761,40.783,0.0],[-111.8761,40.7842,0.0],[-111.8716,40.7842,0.0],[-111.8614,40.7841,0.0],[-111.8611,40.7827,0.0],[-111.8627,40.7815,0.0],[-111.8656,40.7819,0.0],[-111.8656,40.7774,0.0],[-111.8656,40.7762,0.0],[-111.8716,40.7762,0.0],[-111.8791,40.7762,0.0],[-111.8835,40.7763,0.0],[-111.8834,40.7797,0.0],[-111.8842,40.7799,0.0]]]]}},{"type":"Feature","properties":{"uesi_id":"USA_R198770","nbhd_code":"USA_R198770_25","nbhd_name":"Census Tract 1015"},"geometry":{"type":"MultiPolygon","coordinates":[[[[-111.8625,40.7628,0.0],[-111.8625,40.765,0.0],[-111.8625,40.7694,0.0],[-111.8581,40.7694,0.0],[-111.8567,40.7694,0.0],[-111.8523,40.7694,0.0],[-111.8523,40.7671,0.0],[-111.8523,40.765,0.0],[-111.8523,40.7628,0.0],[-111.8524,40.7607,0.0],[-111.8539,40.7607,0.0],[-111.8567,40.7607,0.0],[-111.8625,40.7607,0.0],[-111.8625,40.7628,0.0]]]]}},{"type":"Feature","properties":{"uesi_id":"USA_R198770","nbhd_code":"USA_R198770_26","nbhd_name":"Census Tract 1027.01"},"geometry":{"type":"MultiPolygon","coordinates":[[[[-111.939,40.759,0.0],[-111.9386,40.7584,0.0],[-111.9343,40.7584,0.0],[-111.9295,40.7584,0.0],[-111.9247,40.7585,0.0],[-111.9233,40.7585,0.0],[-111.923,40.7532,0.0],[-111.9213,40.7515,0.0],[-111.9212,40.7498,0.0],[-111.9196,40.7497,0.0],[-111.9195,40.7495,0.0],[-111.9295,40.7495,0.0],[-111.9335,40.7495,0.0],[-111.9359,40.7496,0.0],[-111.939,40.7501,0.0],[-111.939,40.7584,0.0],[-111.939,40.759,0.0]]]]}},{"type":"Feature","properties":{"uesi_id":"USA_R198770","nbhd_code":"USA_R198770_27","nbhd_name":"Census Tract 1028.02"},"geometry":{"type":"MultiPolygon","coordinates":[[[[-111.939,40.7407,0.0],[-111.9372,40.7404,0.0],[-111.9361,40.7404,0.0],[-111.9342,40.7404,0.0],[-111.9271,40.7404,0.0],[-111.9229,40.7405,0.0],[-111.9159,40.7405,0.0],[-111.9141,40.7416,0.0],[-111.904,40.7416,0.0],[-111.9045,40.7335,0.0],[-111.9042,40.7254,0.0],[-111.9106,40.7255,0.0],[-111.9111,40.7254,0.0],[-111.9158,40.7242,0.0],[-111.9242,40.7245,0.0],[-111.939,40.7242,0.0],[-111.939,40.7407,0.0]]]]}},{"type":"Feature","properties":{"uesi_id":"USA_R198770","nbhd_code":"USA_R198770_28","nbhd_name":"Census Tract 1030"},"geometry":{"type":"MultiPolygon","coordinates":[[[[-111.8882,40.7498,0.0],[-111.8854,40.7498,0.0],[-111.8825,40.7498,0.0],[-111.8796,40.7498,0.0],[-111.8753,40.7498,0.0],[-111.8711,40.7498,0.0],[-111.8711,40.7416,0.0],[-111.8768,40.7416,0.0],[-111.8825,40.7416,0.0],[-111.8882,40.7416,0.0],[-111.8882,40.748,0.0],[-111.8882,40.7498,0.0]]]]}},{"type":"Feature","properties":{"uesi_id":"USA_R198770","nbhd_code":"USA_R198770_29","nbhd_name":"Census Tract 1040"},"geometry":{"type":"MultiPolygon","coordinates":[[[[-111.8423,40.7416,0.0],[-111.8365,40.7416,0.0],[-111.8307,40.7416,0.0],[-111.8273,40.7416,0.0],[-111.8203,40.7336,0.0],[-111.825,40.7336,0.0],[-111.8308,40.7336,0.0],[-111.8365,40.7336,0.0],[-111.8423,40.7336,0.0],[-111.8423,40.7416,0.0]]]]}},{"type":"Feature","properties":{"uesi_id":"USA_R198770","nbhd_code":"USA_R198770_30","nbhd_name":"Census Tract 1008"},"geometry":{"type":"MultiPolygon","coordinates":[[[[-111.8997,40.7759,0.0],[-111.8953,40.7759,0.0],[-111.8952,40.7759,0.0],[-111.8947,40.776,0.0],[-111.8911,40.776,0.0],[-111.8868,40.7759,0.0],[-111.8856,40.7759,0.0],[-111.886,40.774,0.0],[-111.8869,40.7728,0.0],[-111.8871,40.7717,0.0],[-111.8882,40.7715,0.0],[-111.8882,40.7693,0.0],[-111.8911,40.7693,0.0],[-111.894,40.7693,0.0],[-111.8968,40.7693,0.0],[-111.8968,40.7715,0.0],[-111.8997,40.7715,0.0],[-111.8997,40.7759,0.0]]]]}},{"type":"Feature","properties":{"uesi_id":"USA_R198770","nbhd_code":"USA_R198770_31","nbhd_name":"Census Tract 1011.02"},"geometry":{"type":"MultiPolygon","coordinates":[[[[-111.8882,40.7715,0.0],[-111.8871,40.7717,0.0],[-111.8869,40.7728,0.0],[-111.886,40.774,0.0],[-111.8856,40.7759,0.0],[-111.8847,40.7797,0.0],[-111.8842,40.7799,0.0],[-111.8834,40.7797,0.0],[-111.8835,40.7763,0.0],[-111.8791,40.7762,0.0],[-111.8791,40.7728,0.0],[-111.8791,40.7694,0.0],[-111.8796,40.7694,0.0],[-111.8835,40.7693,0.0],[-111.8854,40.7693,0.0],[-111.8882,40.7693,0.0],[-111.8882,40.7715,0.0]]]]}},{"type":"Feature","properties":{"uesi_id":"USA_R198770","nbhd_code":"USA_R198770_32","nbhd_name":"Census Tract 1017"},"geometry":{"type":"MultiPolygon","coordinates":[[[[-111.8711,40.7694,0.0],[-111.8641,40.7694,0.0],[-111.8625,40.7694,0.0],[-111.8625,40.765,0.0],[-111.8625,40.7628,0.0],[-111.8625,40.7607,0.0],[-111.8653,40.7607,0.0],[-111.8711,40.7607,0.0],[-111.8711,40.7628,0.0],[-111.8711,40.765,0.0],[-111.8711,40.7694,0.0]]]]}},{"type":"Feature","properties":{"uesi_id":"USA_R198770","nbhd_code":"USA_R198770_33","nbhd_name":"Census Tract 1023"},"geometry":{"type":"MultiPolygon","coordinates":[[[[-111.8882,40.7585,0.0],[-111.8854,40.7585,0.0],[-111.8854,40.7607,0.0],[-111.8796,40.7607,0.0],[-111.8796,40.7563,0.0],[-111.8796,40.7541,0.0],[-111.8796,40.7498,0.0],[-111.8825,40.7498,0.0],[-111.8854,40.7498,0.0],[-111.8882,40.7498,0.0],[-111.8882,40.7585,0.0]]]]}},{"type":"Feature","properties":{"uesi_id":"USA_R198770","nbhd_code":"USA_R198770_34","nbhd_name":"Census Tract 1027.02"},"geometry":{"type":"MultiPolygon","coordinates":[[[[-111.939,40.7715,0.0],[-111.9262,40.7715,0.0],[-111.9258,40.7705,0.0],[-111.9262,40.7647,0.0],[-111.926,40.7632,0.0],[-111.9244,40.7628,0.0],[-111.9233,40.7595,0.0],[-111.9233,40.7585,0.0],[-111.9247,40.7585,0.0],[-111.9295,40.7584,0.0],[-111.9343,40.7584,0.0],[-111.9386,40.7584,0.0],[-111.939,40.759,0.0],[-111.939,40.7628,0.0],[-111.939,40.7662,0.0],[-111.939,40.7715,0.0]]]]}},{"type":"Feature","properties":{"uesi_id":"USA_R198770","nbhd_code":"USA_R198770_35","nbhd_name":"Census Tract 1031"},"geometry":{"type":"MultiPolygon","coordinates":[[[[-111.8882,40.7416,0.0],[-111.8825,40.7416,0.0],[-111.8768,40.7416,0.0],[-111.8711,40.7416,0.0],[-111.8711,40.7335,0.0],[-111.8768,40.7335,0.0],[-111.8825,40.7335,0.0],[-111.8882,40.7335,0.0],[-111.8882,40.7416,0.0]]]]}},{"type":"Feature","properties":{"uesi_id":"USA_R198770","nbhd_code":"USA_R198770_36","nbhd_name":"Census Tract 1032"},"geometry":{"type":"MultiPolygon","coordinates":[[[[-111.8882,40.7302,0.0],[-111.8882,40.7335,0.0],[-111.8825,40.7335,0.0],[-111.8768,40.7335,0.0],[-111.8711,40.7335,0.0],[-111.8711,40.7322,0.0],[-111.8711,40.7254,0.0],[-111.8768,40.7254,0.0],[-111.8826,40.7254,0.0],[-111.8882,40.7255,0.0],[-111.8882,40.7302,0.0]]]]}},{"type":"Feature","properties":{"uesi_id":"USA_R198770","nbhd_code":"USA_R198770_37","nbhd_name":"Census Tract 1037"},"geometry":{"type":"MultiPolygon","coordinates":[[[[-111.8539,40.7416,0.0],[-111.8479,40.7416,0.0],[-111.8423,40.7416,0.0],[-111.8423,40.7336,0.0],[-111.8423,40.7335,0.0],[-111.848,40.7335,0.0],[-111.8539,40.7335,0.0],[-111.8539,40.7416,0.0]]]]}},{"type":"Feature","properties":{"uesi_id":"USA_R198770","nbhd_code":"USA_R198770_38","nbhd_name":"Census Tract 1039"},"geometry":{"type":"MultiPolygon","coordinates":[[[[-111.8423,40.7335,0.0],[-111.8423,40.7336,0.0],[-111.8365,40.7336,0.0],[-111.8308,40.7336,0.0],[-111.825,40.7336,0.0],[-111.8251,40.7266,0.0],[-111.8246,40.7252,0.0],[-111.8257,40.7255,0.0],[-111.8308,40.7255,0.0],[-111.8365,40.7255,0.0],[-111.8423,40.7255,0.0],[-111.8423,40.7335,0.0]]]]}},{"type":"Feature","properties":{"uesi_id":"USA_R198770","nbhd_code":"USA_R198770_39","nbhd_name":"Census Tract 1042"},"geometry":{"type":"MultiPolygon","coordinates":[[[[-111.8307,40.7507,0.0],[-111.8132,40.751,0.0],[-111.8112,40.7505,0.0],[-111.8075,40.7504,0.0],[-111.8059,40.7519,0.0],[-111.8007,40.7518,0.0],[-111.8007,40.7499,0.0],[-111.8007,40.7476,0.0],[-111.8031,40.7476,0.0],[-111.8034,40.743,0.0],[-111.8027,40.7412,0.0],[-111.8027,40.741,0.0],[-111.8045,40.7409,0.0],[-111.8052,40.7399,0.0],[-111.805,40.7348,0.0],[-111.8055,40.7339,0.0],[-111.8055,40.7322,0.0],[-111.808,40.7322,0.0],[-111.8093,40.7322,0.0],[-111.8102,40.7297,0.0],[-111.8126,40.7296,0.0],[-111.8115,40.7269,0.0],[-111.8067,40.7269,0.0],[-111.8066,40.7291,0.0],[-111.8051,40.7304,0.0],[-111.8017,40.733,0.0],[-111.7959,40.733,0.0],[-111.7959,40.7255,0.0],[-111.8043,40.7255,0.0],[-111.8054,40.7234,0.0],[-111.8054,40.7148,0.0],[-111.8075,40.7149,0.0],[-111.8087,40.7162,0.0],[-111.8091,40.7169,0.0],[-111.8101,40.7192,0.0],[-111.8148,40.7258,0.0],[-111.819,40.732,0.0],[-111.8203,40.7336,0.0],[-111.8273,40.7416,0.0],[-111.83,40.7449,0.0],[-111.8303,40.7455,0.0],[-111.8306,40.7466,0.0],[-111.8307,40.7507,0.0]]]]}},{"type":"Feature","properties":{"uesi_id":"USA_R198770","nbhd_code":"USA_R198770_40","nbhd_name":"Census Tract 1002"},"geometry":{"type":"MultiPolygon","coordinates":[[[[-111.9189,40.8169,0.0],[-111.9167,40.8195,0.0],[-111.9162,40.8218,0.0],[-111.9057,40.8218,0.0],[-111.9057,40.8199,0.0],[-111.9009,40.8199,0.0],[-111.9009,40.8218,0.0],[-111.891,40.8218,0.0],[-111.8758,40.8218,0.0],[-111.8709,40.8217,0.0],[-111.87,40.822,0.0],[-111.8693,40.8238,0.0],[-111.8653,40.8246,0.0],[-111.8633,40.824,0.0],[-111.8608,40.825,0.0],[-111.8581,40.8243,0.0],[-111.8573,40.8262,0.0],[-111.8543,40.828,0.0],[-111.8537,40.8293,0.0],[-111.8496,40.8296,0.0],[-111.8488,40.8304,0.0],[-111.8468,40.8297,0.0],[-111.8447,40.8308,0.0],[-111.844,40.8322,0.0],[-111.8417,40.8324,0.0],[-111.8384,40.8308,0.0],[-111.8378,40.8307,0.0],[-111.8352,40.8308,0.0],[-111.8333,40.8318,0.0],[-111.8302,40.8319,0.0],[-111.8281,40.8338,0.0],[-111.8247,40.8336,0.0],[-111.8221,40.8342,0.0],[-111.8189,40.8365,0.0],[-111.8184,40.8376,0.0],[-111.8158,40.8389,0.0],[-111.8156,40.8353,0.0],[-111.8145,40.8312,0.0],[-111.8137,40.8309,0.0],[-111.8129,40.8282,0.0],[-111.81,40.8235,0.0],[-111.808,40.822,0.0],[-111.8085,40.8207,0.0],[-111.8114,40.8206,0.0],[-111.8142,40.8193,0.0],[-111.8166,40.8192,0.0],[-111.8173,40.8186,0.0],[-111.8207,40.818,0.0],[-111.8214,40.8173,0.0],[-111.8246,40.8164,0.0],[-111.8263,40.8163,0.0],[-111.8298,40.8149,0.0],[-111.8307,40.8151,0.0],[-111.834,40.8142,0.0],[-111.8346,40.8133,0.0],[-111.8405,40.8114,0.0],[-111.8417,40.8101,0.0],[-111.8426,40.8102,0.0],[-111.8464,40.8089,0.0],[-111.8474,40.8093,0.0],[-111.8489,40.808,0.0],[-111.8541,40.8063,0.0],[-111.8577,40.8058,0.0],[-111.8587,40.8052,0.0],[-111.8653,40.8044,0.0],[-111.8708,40.803,0.0],[-111.8731,40.799,0.0],[-111.8737,40.7969,0.0],[-111.8754,40.7956,0.0],[-111.8768,40.7926,0.0],[-111.8781,40.7914,0.0],[-111.8788,40.7896,0.0],[-111.8805,40.7878,0.0],[-111.8801,40.7887,0.0],[-111.8833,40.7853,0.0],[-111.8828,40.7841,0.0],[-111.8842,40.7799,0.0],[-111.8847,40.7797,0.0],[-111.8899,40.7799,0.0],[-111.8899,40.7805,0.0],[-111.8919,40.783,0.0],[-111.8959,40.7865,0.0],[-111.9012,40.7926,0.0],[-111.9034,40.794,0.0],[-111.9044,40.7951,0.0],[-111.9169,40.8051,0.0],[-111.9176,40.8058,0.0],[-111.9183,40.8075,0.0],[-111.9191,40.8146,0.0],[-111.9189,40.8169,0.0]]]]}},{"type":"Feature","properties":{"uesi_id":"USA_R198770","nbhd_code":"USA_R198770_41","nbhd_name":"Census Tract 1006"},"geometry":{"type":"MultiPolygon","coordinates":[[[[-111.9394,40.7802,0.0],[-111.9381,40.7802,0.0],[-111.9367,40.7811,0.0],[-111.9364,40.7843,0.0],[-111.9335,40.7827,0.0],[-111.9311,40.7824,0.0],[-111.9297,40.7824,0.0],[-111.9255,40.7824,0.0],[-111.9254,40.7824,0.0],[-111.9183,40.7824,0.0],[-111.914,40.7824,0.0],[-111.9106,40.7824,0.0],[-111.9101,40.7818,0.0],[-111.91,40.7802,0.0],[-111.9103,40.7774,0.0],[-111.9102,40.7759,0.0],[-111.9102,40.7733,0.0],[-111.9104,40.7715,0.0],[-111.9197,40.7715,0.0],[-111.9262,40.7715,0.0],[-111.939,40.7715,0.0],[-111.9393,40.7715,0.0],[-111.9394,40.7802,0.0]]]]}},{"type":"Feature","properties":{"uesi_id":"USA_R198770","nbhd_code":"USA_R198770_42","nbhd_name":"Census Tract 1044"},"geometry":{"type":"MultiPolygon","coordinates":[[[[-111.8336,40.7194,0.0],[-111.8308,40.719,0.0],[-111.8308,40.7255,0.0],[-111.8257,40.7255,0.0],[-111.8246,40.7252,0.0],[-111.8245,40.7252,0.0],[-111.8127,40.718,0.0],[-111.8091,40.7169,0.0],[-111.8087,40.7162,0.0],[-111.8075,40.7149,0.0],[-111.8068,40.7142,0.0],[-111.8049,40.7136,0.0],[-111.8044,40.7134,0.0],[-111.804,40.7132,0.0],[-111.8042,40.7132,0.0],[-111.8047,40.7129,0.0],[-111.8043,40.7118,0.0],[-111.8107,40.7135,0.0],[-111.8143,40.7133,0.0],[-111.815,40.7131,0.0],[-111.8189,40.7124,0.0],[-111.8224,40.7129,0.0],[-111.8224,40.7132,0.0],[-111.8317,40.7157,0.0],[-111.8339,40.7167,0.0],[-111.8336,40.7194,0.0]]]]}},{"type":"Feature","properties":{"uesi_id":"USA_R198770","nbhd_code":"USA_R198770_43","nbhd_name":"Census Tract 1049"},"geometry":{"type":"MultiPolygon","coordinates":[[[[-111.8769,40.7127,0.0],[-111.8769,40.7159,0.0],[-111.8768,40.7179,0.0],[-111.8768,40.7184,0.0],[-111.8768,40.721,0.0],[-111.8768,40.7254,0.0],[-111.8711,40.7254,0.0],[-111.8712,40.7188,0.0],[-111.8685,40.7193,0.0],[-111.8654,40.7195,0.0],[-111.8654,40.7127,0.0],[-111.8683,40.7127,0.0],[-111.8683,40.7118,0.0],[-111.8683,40.7109,0.0],[-111.8713,40.7109,0.0],[-111.8713,40.7093,0.0],[-111.8749,40.7093,0.0],[-111.874,40.7078,0.0],[-111.876,40.7078,0.0],[-111.8769,40.7094,0.0],[-111.8769,40.7127,0.0]]]]}},{"type":"Feature","properties":{"uesi_id":"USA_R198770","nbhd_code":"USA_R198770_44","nbhd_name":"Census Tract 1102"},"geometry":{"type":"MultiPolygon","coordinates":[[[[-111.8245,40.7113,0.0],[-111.8239,40.7118,0.0],[-111.8224,40.7129,0.0],[-111.8189,40.7124,0.0],[-111.815,40.7131,0.0],[-111.8143,40.7133,0.0],[-111.8107,40.7135,0.0],[-111.8043,40.7118,0.0],[-111.8024,40.7112,0.0],[-111.8017,40.7109,0.0],[-111.7971,40.7076,0.0],[-111.7956,40.7055,0.0],[-111.7951,40.7038,0.0],[-111.795,40.6998,0.0],[-111.8048,40.6998,0.0],[-111.8102,40.6998,0.0],[-111.815,40.6999,0.0],[-111.8245,40.6999,0.0],[-111.8244,40.7044,0.0],[-111.8244,40.7054,0.0],[-111.8245,40.7113,0.0]]]]}},{"type":"Feature","properties":{"uesi_id":"USA_R198770","nbhd_code":"USA_R198770_45","nbhd_name":"Census Tract 1103"},"geometry":{"type":"MultiPolygon","coordinates":[[[[-111.853,40.7061,0.0],[-111.8526,40.7061,0.0],[-111.8524,40.7061,0.0],[-111.8436,40.706,0.0],[-111.8436,40.7084,0.0],[-111.8413,40.7084,0.0],[-111.8389,40.7083,0.0],[-111.8389,40.7067,0.0],[-111.836,40.7067,0.0],[-111.836,40.7074,0.0],[-111.8346,40.7074,0.0],[-111.8341,40.7074,0.0],[-111.8341,40.7102,0.0],[-111.8341,40.7115,0.0],[-111.8341,40.7117,0.0],[-111.8341,40.7127,0.0],[-111.8295,40.7127,0.0],[-111.8246,40.7127,0.0],[-111.8246,40.7123,0.0],[-111.8245,40.7113,0.0],[-111.8244,40.7054,0.0],[-111.8244,40.7044,0.0],[-111.8245,40.6999,0.0],[-111.8254,40.6998,0.0],[-111.8341,40.6999,0.0],[-111.8387,40.6999,0.0],[-111.8388,40.6999,0.0],[-111.8435,40.7,0.0],[-111.8507,40.6999,0.0],[-111.8515,40.7019,0.0],[-111.8518,40.7029,0.0],[-111.8525,40.7056,0.0],[-111.8528,40.7056,0.0],[-111.853,40.7061,0.0]]]]}},{"type":"Feature","properties":{"uesi_id":"USA_R198770","nbhd_code":"USA_R198770_46","nbhd_name":"Census Tract 1114"},"geometry":{"type":"MultiPolygon","coordinates":[[[[-111.8883,40.7127,0.0],[-111.8882,40.7183,0.0],[-111.8882,40.7223,0.0],[-111.8882,40.7228,0.0],[-111.8882,40.7255,0.0],[-111.8826,40.7254,0.0],[-111.8768,40.7254,0.0],[-111.8768,40.721,0.0],[-111.8768,40.7184,0.0],[-111.8768,40.7179,0.0],[-111.8769,40.7159,0.0],[-111.8769,40.7127,0.0],[-111.8769,40.7094,0.0],[-111.8769,40.7055,0.0],[-111.8768,40.7045,0.0],[-111.8769,40.7029,0.0],[-111.8769,40.7049,0.0],[-111.8798,40.7047,0.0],[-111.8827,40.7049,0.0],[-111.8866,40.7062,0.0],[-111.8883,40.7063,0.0],[-111.8883,40.7127,0.0]]]]}},{"type":"Feature","properties":{"uesi_id":"USA_R198770","nbhd_code":"USA_R198770_48","nbhd_name":"Census Tract 9800"},"geometry":{"type":"MultiPolygon","coordinates":[[[[-112.0499,40.8096,0.0],[-112.0268,40.7988,0.0],[-112.0252,40.7985,0.0],[-112.0063,40.7984,0.0],[-112.0061,40.8272,0.0],[-111.9678,40.8275,0.0],[-111.9678,40.8228,0.0],[-111.9677,40.813,0.0],[-111.9607,40.813,0.0],[-111.9589,40.813,0.0],[-111.9588,40.8115,0.0],[-111.9536,40.8115,0.0],[-111.9536,40.8057,0.0],[-111.9494,40.8057,0.0],[-111.9493,40.7908,0.0],[-111.9492,40.7848,0.0],[-111.9493,40.7791,0.0],[-111.9494,40.7707,0.0],[-111.9506,40.7656,0.0],[-111.969,40.7647,0.0],[-111.987,40.7646,0.0],[-111.9895,40.7648,0.0],[-111.9947,40.766,0.0],[-111.9999,40.7682,0.0],[-112.0034,40.7694,0.0],[-112.01,40.7708,0.0],[-112.0151,40.7712,0.0],[-112.025,40.7712,0.0],[-112.0251,40.7842,0.0],[-112.0488,40.7836,0.0],[-112.0489,40.7911,0.0],[-112.05,40.7913,0.0],[-112.0499,40.8096,0.0]]]]}},{"type":"Feature","properties":{"uesi_id":"USA_R198770","nbhd_code":"USA_R198770_49","nbhd_name":"Census Tract 1001"},"geometry":{"type":"MultiPolygon","coordinates":[[[[-111.9239,40.8109,0.0],[-111.922,40.8144,0.0],[-111.9203,40.816,0.0],[-111.9189,40.8169,0.0],[-111.9191,40.8146,0.0],[-111.9183,40.8075,0.0],[-111.9176,40.8058,0.0],[-111.9169,40.8051,0.0],[-111.9044,40.7951,0.0],[-111.9034,40.794,0.0],[-111.8997,40.7878,0.0],[-111.8997,40.7867,0.0],[-111.8997,40.7824,0.0],[-111.8997,40.7802,0.0],[-111.8997,40.7759,0.0],[-111.8997,40.7715,0.0],[-111.9104,40.7715,0.0],[-111.9102,40.7733,0.0],[-111.9102,40.7759,0.0],[-111.9103,40.7774,0.0],[-111.91,40.7802,0.0],[-111.9101,40.7818,0.0],[-111.9106,40.7824,0.0],[-111.9157,40.7911,0.0],[-111.917,40.7944,0.0],[-111.9176,40.7961,0.0],[-111.9233,40.807,0.0],[-111.924,40.8092,0.0],[-111.9239,40.8109,0.0]]]]}},{"type":"Feature","properties":{"uesi_id":"USA_R198770","nbhd_code":"USA_R198770_50","nbhd_name":"Census Tract 1147"},"geometry":{"type":"MultiPolygon","coordinates":[[[[-111.9678,40.8419,0.0],[-111.9583,40.842,0.0],[-111.9582,40.8386,0.0],[-111.9551,40.8386,0.0],[-111.9551,40.8417,0.0],[-111.9512,40.842,0.0],[-111.9467,40.838,0.0],[-111.9443,40.8342,0.0],[-111.9448,40.8331,0.0],[-111.9449,40.8327,0.0],[-111.9444,40.8317,0.0],[-111.943,40.8313,0.0],[-111.9429,40.8305,0.0],[-111.9436,40.8274,0.0],[-111.9467,40.8238,0.0],[-111.9464,40.822,0.0],[-111.9459,40.8218,0.0],[-111.9414,40.8218,0.0],[-111.9378,40.8218,0.0],[-111.9198,40.8218,0.0],[-111.9162,40.8218,0.0],[-111.9167,40.8195,0.0],[-111.9189,40.8169,0.0],[-111.9203,40.816,0.0],[-111.922,40.8144,0.0],[-111.9239,40.8109,0.0],[-111.924,40.8092,0.0],[-111.9233,40.807,0.0],[-111.9176,40.7961,0.0],[-111.917,40.7944,0.0],[-111.9172,40.7942,0.0],[-111.9175,40.7931,0.0],[-111.917,40.7918,0.0],[-111.9173,40.7911,0.0],[-111.9247,40.7911,0.0],[-111.9255,40.7911,0.0],[-111.9297,40.7911,0.0],[-111.9357,40.7911,0.0],[-111.9371,40.7978,0.0],[-111.9364,40.799,0.0],[-111.9362,40.8006,0.0],[-111.9346,40.8013,0.0],[-111.934,40.8047,0.0],[-111.9354,40.8068,0.0],[-111.939,40.8082,0.0],[-111.9391,40.806,0.0],[-111.9413,40.806,0.0],[-111.942,40.8059,0.0],[-111.9442,40.806,0.0],[-111.9494,40.8061,0.0],[-111.9494,40.8057,0.0],[-111.9536,40.8057,0.0],[-111.9536,40.8115,0.0],[-111.9588,40.8115,0.0],[-111.9589,40.813,0.0],[-111.9607,40.813,0.0],[-111.9677,40.813,0.0],[-111.9678,40.8228,0.0],[-111.9678,40.8275,0.0],[-111.9678,40.8419,0.0]]]]}},{"type":"Feature","properties":{"uesi_id":"USA_R198770","nbhd_code":"USA_R198770_51","nbhd_name":"Census Tract 1148"},"geometry":{"type":"MultiPolygon","coordinates":[[[[-111.8811,40.784,0.0],[-111.8817,40.7862,0.0],[-111.8805,40.7878,0.0],[-111.8788,40.7896,0.0],[-111.8781,40.7914,0.0],[-111.8768,40.7926,0.0],[-111.8754,40.7956,0.0],[-111.8737,40.7969,0.0],[-111.8731,40.799,0.0],[-111.8708,40.803,0.0],[-111.8653,40.8044,0.0],[-111.8587,40.8052,0.0],[-111.8577,40.8058,0.0],[-111.8541,40.8063,0.0],[-111.8489,40.808,0.0],[-111.8474,40.8093,0.0],[-111.8464,40.8089,0.0],[-111.8426,40.8102,0.0],[-111.8417,40.8101,0.0],[-111.8405,40.8114,0.0],[-111.8346,40.8133,0.0],[-111.834,40.8142,0.0],[-111.8307,40.8151,0.0],[-111.8298,40.8149,0.0],[-111.8263,40.8163,0.0],[-111.8246,40.8164,0.0],[-111.8214,40.8173,0.0],[-111.8207,40.818,0.0],[-111.8173,40.8186,0.0],[-111.8166,40.8192,0.0],[-111.8142,40.8193,0.0],[-111.8114,40.8206,0.0],[-111.8085,40.8207,0.0],[-111.808,40.822,0.0],[-111.8059,40.8224,0.0],[-111.8024,40.8245,0.0],[-111.7988,40.8248,0.0],[-111.7976,40.8255,0.0],[-111.795,40.8254,0.0],[-111.7934,40.8246,0.0],[-111.7902,40.8259,0.0],[-111.7849,40.8262,0.0],[-111.7825,40.8275,0.0],[-111.7807,40.827,0.0],[-111.7768,40.8289,0.0],[-111.7729,40.8294,0.0],[-111.7692,40.8311,0.0],[-111.7674,40.8297,0.0],[-111.7662,40.8295,0.0],[-111.7605,40.8303,0.0],[-111.7582,40.8293,0.0],[-111.7546,40.8299,0.0],[-111.7515,40.831,0.0],[-111.7495,40.8295,0.0],[-111.7471,40.8284,0.0],[-111.7451,40.828,0.0],[-111.7405,40.8297,0.0],[-111.74,40.8299,0.0],[-111.7402,40.8261,0.0],[-111.7405,40.8233,0.0],[-111.7587,40.8226,0.0],[-111.7738,40.8209,0.0],[-111.7791,40.82,0.0],[-111.7861,40.82,0.0],[-111.7861,40.8197,0.0],[-111.7871,40.8197,0.0],[-111.787,40.8168,0.0],[-111.7963,40.8135,0.0],[-111.7965,40.8122,0.0],[-111.7997,40.8123,0.0],[-111.7998,40.7986,0.0],[-111.8151,40.798,0.0],[-111.8151,40.7918,0.0],[-111.8173,40.7902,0.0],[-111.8206,40.7884,0.0],[-111.8222,40.7882,0.0],[-111.8294,40.7853,0.0],[-111.8327,40.7828,0.0],[-111.8329,40.7815,0.0],[-111.8352,40.7797,0.0],[-111.8379,40.7771,0.0],[-111.8397,40.7777,0.0],[-111.8394,40.7761,0.0],[-111.8408,40.7754,0.0],[-111.843,40.7749,0.0],[-111.8427,40.7744,0.0],[-111.8444,40.7726,0.0],[-111.8431,40.7713,0.0],[-111.8467,40.771,0.0],[-111.8478,40.77,0.0],[-111.8474,40.767,0.0],[-111.8523,40.7671,0.0],[-111.8523,40.7694,0.0],[-111.8522,40.7783,0.0],[-111.856,40.7796,0.0],[-111.862,40.781,0.0],[-111.8627,40.7815,0.0],[-111.8611,40.7827,0.0],[-111.8614,40.7841,0.0],[-111.8716,40.7842,0.0],[-111.8761,40.7842,0.0],[-111.8761,40.783,0.0],[-111.8791,40.783,0.0],[-111.8791,40.7819,0.0],[-111.882,40.782,0.0],[-111.8811,40.784,0.0]]]]}},{"type":"Feature","properties":{"uesi_id":"USA_R198770","nbhd_code":"USA_R198770_52","nbhd_name":"Census Tract 1018"},"geometry":{"type":"MultiPolygon","coordinates":[[[[-111.8711,40.7607,0.0],[-111.8653,40.7607,0.0],[-111.8625,40.7607,0.0],[-111.8626,40.7589,0.0],[-111.8625,40.7563,0.0],[-111.8623,40.7498,0.0],[-111.8653,40.7498,0.0],[-111.8682,40.7498,0.0],[-111.8711,40.7498,0.0],[-111.8711,40.7541,0.0],[-111.8711,40.7563,0.0],[-111.8711,40.7607,0.0]]]]}},{"type":"Feature","properties":{"uesi_id":"USA_R198770","nbhd_code":"USA_R198770_53","nbhd_name":"Census Tract 1014"},"geometry":{"type":"MultiPolygon","coordinates":[[[[-111.8525,40.7563,0.0],[-111.8524,40.7585,0.0],[-111.8524,40.7607,0.0],[-111.8523,40.7628,0.0],[-111.8523,40.765,0.0],[-111.8523,40.7671,0.0],[-111.8474,40.767,0.0],[-111.8478,40.77,0.0],[-111.8467,40.771,0.0],[-111.8431,40.7713,0.0],[-111.8444,40.7726,0.0],[-111.8427,40.7744,0.0],[-111.843,40.7749,0.0],[-111.8408,40.7754,0.0],[-111.8394,40.7761,0.0],[-111.8397,40.7777,0.0],[-111.8379,40.7771,0.0],[-111.8352,40.7797,0.0],[-111.8329,40.7815,0.0],[-111.8327,40.7828,0.0],[-111.8294,40.7853,0.0],[-111.8222,40.7882,0.0],[-111.8206,40.7884,0.0],[-111.8173,40.7902,0.0],[-111.8151,40.7918,0.0],[-111.8151,40.7802,0.0],[-111.8146,40.7763,0.0],[-111.8144,40.755,0.0],[-111.8098,40.7549,0.0],[-111.8007,40.7549,0.0],[-111.8007,40.7518,0.0],[-111.8059,40.7519,0.0],[-111.8075,40.7504,0.0],[-111.8112,40.7505,0.0],[-111.8132,40.751,0.0],[-111.8307,40.7507,0.0],[-111.8365,40.7507,0.0],[-111.8417,40.7507,0.0],[-111.8453,40.7507,0.0],[-111.8513,40.751,0.0],[-111.8525,40.7517,0.0],[-111.8525,40.7563,0.0]]]]}},{"type":"Feature","properties":{"uesi_id":"USA_R198770","nbhd_code":"USA_R198770_54","nbhd_name":"Census Tract 1026"},"geometry":{"type":"MultiPolygon","coordinates":[[[[-111.9262,40.7647,0.0],[-111.9258,40.7705,0.0],[-111.9262,40.7715,0.0],[-111.9197,40.7715,0.0],[-111.9104,40.7715,0.0],[-111.9106,40.771,0.0],[-111.9137,40.7637,0.0],[-111.9141,40.7611,0.0],[-111.914,40.7606,0.0],[-111.9137,40.7597,0.0],[-111.9114,40.7552,0.0],[-111.9106,40.7519,0.0],[-111.91,40.7507,0.0],[-111.9092,40.7498,0.0],[-111.9196,40.7497,0.0],[-111.9212,40.7498,0.0],[-111.9213,40.7515,0.0],[-111.923,40.7532,0.0],[-111.9233,40.7585,0.0],[-111.9233,40.7595,0.0],[-111.9244,40.7628,0.0],[-111.926,40.7632,0.0],[-111.9262,40.7647,0.0]]]]}},{"type":"Feature","properties":{"uesi_id":"USA_R198770","nbhd_code":"USA_R198770_55","nbhd_name":"Census Tract 1007"},"geometry":{"type":"MultiPolygon","coordinates":[[[[-111.9012,40.7926,0.0],[-111.8959,40.7865,0.0],[-111.8919,40.783,0.0],[-111.8899,40.7805,0.0],[-111.8899,40.7799,0.0],[-111.8847,40.7797,0.0],[-111.8856,40.7759,0.0],[-111.8868,40.7759,0.0],[-111.8911,40.776,0.0],[-111.8947,40.776,0.0],[-111.8952,40.7759,0.0],[-111.8953,40.7759,0.0],[-111.8997,40.7759,0.0],[-111.8997,40.7802,0.0],[-111.8997,40.7824,0.0],[-111.8997,40.7867,0.0],[-111.8997,40.7878,0.0],[-111.9034,40.794,0.0],[-111.9012,40.7926,0.0]]]]}},{"type":"Feature","properties":{"uesi_id":"USA_R198770","nbhd_code":"USA_R198770_56","nbhd_name":"Census Tract 1020"},"geometry":{"type":"MultiPolygon","coordinates":[[[[-111.8796,40.7607,0.0],[-111.8711,40.7607,0.0],[-111.8711,40.7563,0.0],[-111.8711,40.7541,0.0],[-111.8711,40.7498,0.0],[-111.8753,40.7498,0.0],[-111.8796,40.7498,0.0],[-111.8796,40.7541,0.0],[-111.8796,40.7563,0.0],[-111.8796,40.7607,0.0]]]]}},{"type":"Feature","properties":{"uesi_id":"USA_R198770","nbhd_code":"USA_R198770_57","nbhd_name":"Census Tract 1047"},"geometry":{"type":"MultiPolygon","coordinates":[[[[-111.8654,40.7195,0.0],[-111.8536,40.7198,0.0],[-111.8472,40.7197,0.0],[-111.8421,40.7189,0.0],[-111.8352,40.7172,0.0],[-111.8339,40.7167,0.0],[-111.8317,40.7157,0.0],[-111.8224,40.7132,0.0],[-111.8224,40.7129,0.0],[-111.8239,40.7118,0.0],[-111.8245,40.7113,0.0],[-111.8246,40.7123,0.0],[-111.8246,40.7127,0.0],[-111.8295,40.7127,0.0],[-111.8341,40.7127,0.0],[-111.8378,40.7127,0.0],[-111.8392,40.7127,0.0],[-111.8421,40.7127,0.0],[-111.8437,40.7127,0.0],[-111.8535,40.7127,0.0],[-111.8537,40.7127,0.0],[-111.8554,40.7127,0.0],[-111.8597,40.7127,0.0],[-111.8654,40.7127,0.0],[-111.8654,40.7195,0.0]]]]}},{"type":"Feature","properties":{"uesi_id":"USA_R198770","nbhd_code":"USA_R198770_58","nbhd_name":"Census Tract 1141"},"geometry":{"type":"MultiPolygon","coordinates":[[[[-111.8711,40.7254,0.0],[-111.8653,40.7254,0.0],[-111.8596,40.7254,0.0],[-111.8538,40.7254,0.0],[-111.8517,40.7258,0.0],[-111.848,40.7258,0.0],[-111.8456,40.7258,0.0],[-111.8423,40.7255,0.0],[-111.8365,40.7255,0.0],[-111.8308,40.7255,0.0],[-111.8308,40.719,0.0],[-111.8336,40.7194,0.0],[-111.8339,40.7167,0.0],[-111.8352,40.7172,0.0],[-111.8421,40.7189,0.0],[-111.8472,40.7197,0.0],[-111.8536,40.7198,0.0],[-111.8654,40.7195,0.0],[-111.8685,40.7193,0.0],[-111.8712,40.7188,0.0],[-111.8711,40.7254,0.0]]]]}},{"type":"Feature","properties":{"uesi_id":"USA_R198770","nbhd_code":"USA_R198770_59","nbhd_name":"Census Tract 1118.02"},"geometry":{"type":"MultiPolygon","coordinates":[[[[-111.8713,40.7093,0.0],[-111.8713,40.7109,0.0],[-111.8683,40.7109,0.0],[-111.8683,40.7058,0.0],[-111.8655,40.7058,0.0],[-111.8654,40.7055,0.0],[-111.8654,40.7052,0.0],[-111.8626,40.7052,0.0],[-111.8626,40.7059,0.0],[-111.8601,40.7059,0.0],[-111.8597,40.7059,0.0],[-111.8589,40.7055,0.0],[-111.8527,40.7055,0.0],[-111.8528,40.7056,0.0],[-111.8525,40.7056,0.0],[-111.8518,40.7029,0.0],[-111.8515,40.7019,0.0],[-111.8507,40.6999,0.0],[-111.854,40.6999,0.0],[-111.8552,40.6999,0.0],[-111.8554,40.6999,0.0],[-111.8583,40.6999,0.0],[-111.8597,40.6999,0.0],[-111.8655,40.6999,0.0],[-111.8713,40.6999,0.0],[-111.8713,40.7093,0.0]]]]}}]}