{"type":"FeatureCollection","name":"USA_R194968","crs":{"type":"name","properties":{"name":"urn:ogc:def:crs:OGC:1.3:CRS84"}},"features":[{"type":"Feature","properties":{"uesi_id":"USA_R194968","nbhd_code":"USA_R194968_1","nbhd_name":"Census Tract 4.06"},"geometry":{"type":"MultiPolygon","coordinates":[[[[-96.6942,43.5467,0.0],[-96.6856,43.5467,0.0],[-96.6844,43.5467,0.0],[-96.6824,43.5467,0.0],[-96.68,43.5463,0.0],[-96.6732,43.544,0.0],[-96.6783,43.5439,0.0],[-96.6784,43.5412,0.0],[-96.6776,43.5408,0.0],[-96.6783,43.5367,0.0],[-96.6815,43.5367,0.0],[-96.6839,43.5373,0.0],[-96.6859,43.5367,0.0],[-96.694,43.5367,0.0],[-96.6942,43.5467,0.0]]]]}},{"type":"Feature","properties":{"uesi_id":"USA_R194968","nbhd_code":"USA_R194968_2","nbhd_name":"Census Tract 2.02"},"geometry":{"type":"MultiPolygon","coordinates":[[[[-96.7807,43.5516,0.0],[-96.7801,43.5564,0.0],[-96.7796,43.5588,0.0],[-96.7782,43.5687,0.0],[-96.7753,43.5726,0.0],[-96.7726,43.5721,0.0],[-96.7715,43.5729,0.0],[-96.764,43.5729,0.0],[-96.7657,43.5696,0.0],[-96.7656,43.5659,0.0],[-96.7629,43.5646,0.0],[-96.7566,43.5641,0.0],[-96.7562,43.5638,0.0],[-96.7563,43.5548,0.0],[-96.7556,43.5514,0.0],[-96.756,43.5512,0.0],[-96.7559,43.5511,0.0],[-96.7557,43.5511,0.0],[-96.7545,43.5512,0.0],[-96.7513,43.5511,0.0],[-96.7512,43.547,0.0],[-96.7536,43.5473,0.0],[-96.7611,43.5474,0.0],[-96.7691,43.5477,0.0],[-96.7806,43.5477,0.0],[-96.7807,43.5516,0.0]]]]}},{"type":"Feature","properties":{"uesi_id":"USA_R194968","nbhd_code":"USA_R194968_3","nbhd_name":"Census Tract 101.06"},"geometry":{"type":"MultiPolygon","coordinates":[[[[-96.6688,43.4908,0.0],[-96.6688,43.5003,0.0],[-96.6639,43.5003,0.0],[-96.654,43.5003,0.0],[-96.6514,43.5003,0.0],[-96.6501,43.5004,0.0],[-96.6498,43.5004,0.0],[-96.6451,43.5004,0.0],[-96.6439,43.5004,0.0],[-96.6414,43.5004,0.0],[-96.6289,43.5004,0.0],[-96.6192,43.5004,0.0],[-96.6055,43.5004,0.0],[-96.6035,43.5004,0.0],[-96.6031,43.5004,0.0],[-96.6015,43.5004,0.0],[-96.5997,43.5005,0.0],[-96.5989,43.5004,0.0],[-96.5992,43.496,0.0],[-96.5984,43.4951,0.0],[-96.5947,43.4933,0.0],[-96.5917,43.4944,0.0],[-96.5905,43.4943,0.0],[-96.59,43.4919,0.0],[-96.5863,43.4911,0.0],[-96.585,43.4899,0.0],[-96.5845,43.4888,0.0],[-96.5869,43.4877,0.0],[-96.5862,43.4858,0.0],[-96.5872,43.4849,0.0],[-96.5863,43.4835,0.0],[-96.5833,43.4832,0.0],[-96.5824,43.4834,0.0],[-96.581,43.4814,0.0],[-96.5865,43.4785,0.0],[-96.5867,43.4774,0.0],[-96.5841,43.4756,0.0],[-96.5837,43.4743,0.0],[-96.5851,43.4711,0.0],[-96.5846,43.4696,0.0],[-96.5825,43.4671,0.0],[-96.5854,43.4649,0.0],[-96.5879,43.4649,0.0],[-96.5942,43.4608,0.0],[-96.597,43.4625,0.0],[-96.5992,43.4605,0.0],[-96.6022,43.4613,0.0],[-96.6071,43.4604,0.0],[-96.609,43.4604,0.0],[-96.6127,43.4604,0.0],[-96.6188,43.4604,0.0],[-96.6488,43.4604,0.0],[-96.6587,43.4604,0.0],[-96.6687,43.4604,0.0],[-96.6688,43.4895,0.0],[-96.6688,43.4905,0.0],[-96.6688,43.4908,0.0]]]]}},{"type":"Feature","properties":{"uesi_id":"USA_R194968","nbhd_code":"USA_R194968_4","nbhd_name":"Census Tract 3"},"geometry":{"type":"MultiPolygon","coordinates":[[[[-96.7239,43.5553,0.0],[-96.7214,43.5574,0.0],[-96.721,43.5604,0.0],[-96.7238,43.5627,0.0],[-96.7234,43.5646,0.0],[-96.7195,43.5674,0.0],[-96.7136,43.5667,0.0],[-96.7114,43.567,0.0],[-96.71,43.5673,0.0],[-96.7046,43.572,0.0],[-96.6998,43.5724,0.0],[-96.6973,43.5718,0.0],[-96.6936,43.5696,0.0],[-96.6936,43.5636,0.0],[-96.6936,43.5627,0.0],[-96.6964,43.5617,0.0],[-96.6969,43.5611,0.0],[-96.7009,43.5597,0.0],[-96.7014,43.5558,0.0],[-96.7014,43.5512,0.0],[-96.7077,43.5512,0.0],[-96.7114,43.5512,0.0],[-96.7241,43.5512,0.0],[-96.7239,43.5553,0.0]]]]}},{"type":"Feature","properties":{"uesi_id":"USA_R194968","nbhd_code":"USA_R194968_5","nbhd_name":"Census Tract 7"},"geometry":{"type":"MultiPolygon","coordinates":[[[[-96.7427,43.5512,0.0],[-96.7383,43.5512,0.0],[-96.7371,43.5512,0.0],[-96.7328,43.5512,0.0],[-96.7314,43.5512,0.0],[-96.7241,43.5512,0.0],[-96.725,43.5492,0.0],[-96.7255,43.5486,0.0],[-96.7221,43.5456,0.0],[-96.7197,43.5448,0.0],[-96.7195,43.5434,0.0],[-96.7195,43.5424,0.0],[-96.72,43.5414,0.0],[-96.7253,43.5414,0.0],[-96.7327,43.5414,0.0],[-96.7327,43.5401,0.0],[-96.7341,43.5405,0.0],[-96.7371,43.5402,0.0],[-96.7399,43.5402,0.0],[-96.7413,43.5402,0.0],[-96.7412,43.5434,0.0],[-96.7426,43.544,0.0],[-96.7426,43.546,0.0],[-96.7427,43.5512,0.0]]]]}},{"type":"Feature","properties":{"uesi_id":"USA_R194968","nbhd_code":"USA_R194968_6","nbhd_name":"Census Tract 11.05"},"geometry":{"type":"MultiPolygon","coordinates":[[[[-96.8308,43.5148,0.0],[-96.8291,43.5148,0.0],[-96.8109,43.5148,0.0],[-96.8009,43.5148,0.0],[-96.8003,43.5139,0.0],[-96.8002,43.5094,0.0],[-96.8002,43.508,0.0],[-96.7994,43.5035,0.0],[-96.8003,43.5003,0.0],[-96.8063,43.5003,0.0],[-96.8073,43.5003,0.0],[-96.8093,43.5003,0.0],[-96.8241,43.5003,0.0],[-96.8265,43.5003,0.0],[-96.8307,43.5003,0.0],[-96.8307,43.5076,0.0],[-96.8307,43.5087,0.0],[-96.8307,43.5089,0.0],[-96.8308,43.5137,0.0],[-96.8308,43.5148,0.0]]]]}},{"type":"Feature","properties":{"uesi_id":"USA_R194968","nbhd_code":"USA_R194968_7","nbhd_name":"Census Tract 15"},"geometry":{"type":"MultiPolygon","coordinates":[[[[-96.7511,43.5149,0.0],[-96.7412,43.5149,0.0],[-96.7409,43.5171,0.0],[-96.7387,43.5171,0.0],[-96.7387,43.5185,0.0],[-96.7381,43.5185,0.0],[-96.7382,43.5221,0.0],[-96.7362,43.5221,0.0],[-96.7362,43.526,0.0],[-96.7363,43.5273,0.0],[-96.74,43.5273,0.0],[-96.74,43.526,0.0],[-96.7412,43.526,0.0],[-96.7413,43.5294,0.0],[-96.7413,43.533,0.0],[-96.7413,43.5351,0.0],[-96.7412,43.5358,0.0],[-96.7413,43.5402,0.0],[-96.7399,43.5402,0.0],[-96.7371,43.5402,0.0],[-96.7341,43.5405,0.0],[-96.7327,43.5401,0.0],[-96.7327,43.5377,0.0],[-96.7325,43.5358,0.0],[-96.7313,43.5349,0.0],[-96.73,43.5349,0.0],[-96.73,43.5331,0.0],[-96.7301,43.5294,0.0],[-96.73,43.5257,0.0],[-96.73,43.5221,0.0],[-96.7288,43.5207,0.0],[-96.7287,43.5185,0.0],[-96.7262,43.5185,0.0],[-96.7262,43.5176,0.0],[-96.7262,43.513,0.0],[-96.7312,43.5118,0.0],[-96.7312,43.5111,0.0],[-96.7343,43.5091,0.0],[-96.7492,43.5034,0.0],[-96.7511,43.5084,0.0],[-96.7511,43.5149,0.0]]]]}},{"type":"Feature","properties":{"uesi_id":"USA_R194968","nbhd_code":"USA_R194968_8","nbhd_name":"Census Tract 19.02"},"geometry":{"type":"MultiPolygon","coordinates":[[[[-96.7492,43.5034,0.0],[-96.7343,43.5091,0.0],[-96.7262,43.512,0.0],[-96.7116,43.5153,0.0],[-96.7089,43.5161,0.0],[-96.7065,43.5181,0.0],[-96.7047,43.5221,0.0],[-96.7022,43.5276,0.0],[-96.701,43.5293,0.0],[-96.6962,43.5331,0.0],[-96.6949,43.5293,0.0],[-96.6949,43.5278,0.0],[-96.6966,43.522,0.0],[-96.6911,43.517,0.0],[-96.6898,43.5146,0.0],[-96.6896,43.5102,0.0],[-96.6904,43.5075,0.0],[-96.6954,43.5021,0.0],[-96.6962,43.5004,0.0],[-96.7077,43.5004,0.0],[-96.7311,43.5003,0.0],[-96.748,43.5004,0.0],[-96.7492,43.5034,0.0]]]]}},{"type":"Feature","properties":{"uesi_id":"USA_R194968","nbhd_code":"USA_R194968_9","nbhd_name":"Census Tract 104.01"},"geometry":{"type":"MultiPolygon","coordinates":[[[[-96.6522,43.5439,0.0],[-96.6515,43.5439,0.0],[-96.6318,43.5429,0.0],[-96.6158,43.5428,0.0],[-96.6142,43.5419,0.0],[-96.6122,43.5393,0.0],[-96.6124,43.5366,0.0],[-96.6106,43.536,0.0],[-96.6101,43.5332,0.0],[-96.6097,43.5328,0.0],[-96.6079,43.5318,0.0],[-96.6061,43.531,0.0],[-96.6034,43.5311,0.0],[-96.6007,43.529,0.0],[-96.6003,43.5291,0.0],[-96.5995,43.5277,0.0],[-96.5996,43.5257,0.0],[-96.5971,43.5237,0.0],[-96.5964,43.5223,0.0],[-96.5969,43.5192,0.0],[-96.5965,43.515,0.0],[-96.5975,43.5137,0.0],[-96.6026,43.5109,0.0],[-96.6031,43.5102,0.0],[-96.6021,43.5075,0.0],[-96.6017,43.5069,0.0],[-96.6015,43.5066,0.0],[-96.6013,43.5063,0.0],[-96.5997,43.505,0.0],[-96.5998,43.5014,0.0],[-96.5989,43.5004,0.0],[-96.5997,43.5005,0.0],[-96.6015,43.5004,0.0],[-96.6031,43.5004,0.0],[-96.6035,43.5004,0.0],[-96.6055,43.5004,0.0],[-96.6192,43.5004,0.0],[-96.6289,43.5004,0.0],[-96.6414,43.5004,0.0],[-96.6439,43.5004,0.0],[-96.6451,43.5004,0.0],[-96.6498,43.5004,0.0],[-96.6508,43.5041,0.0],[-96.6516,43.5082,0.0],[-96.6517,43.5149,0.0],[-96.6517,43.5222,0.0],[-96.6518,43.5294,0.0],[-96.652,43.5427,0.0],[-96.6522,43.5439,0.0]]]]}},{"type":"Feature","properties":{"uesi_id":"USA_R194968","nbhd_code":"USA_R194968_10","nbhd_name":"Census Tract 104.04"},"geometry":{"type":"MultiPolygon","coordinates":[[[[-96.8909,43.6287,0.0],[-96.8905,43.6453,0.0],[-96.8905,43.6743,0.0],[-96.7816,43.6743,0.0],[-96.7715,43.6743,0.0],[-96.7266,43.6742,0.0],[-96.7113,43.6742,0.0],[-96.7066,43.6742,0.0],[-96.7066,43.6746,0.0],[-96.7014,43.6743,0.0],[-96.6913,43.6743,0.0],[-96.6514,43.6742,0.0],[-96.6413,43.6742,0.0],[-96.6018,43.6741,0.0],[-96.5913,43.674,0.0],[-96.5916,43.6596,0.0],[-96.592,43.6167,0.0],[-96.592,43.6094,0.0],[-96.6063,43.6094,0.0],[-96.6119,43.6097,0.0],[-96.6219,43.6104,0.0],[-96.6398,43.6105,0.0],[-96.6516,43.6088,0.0],[-96.6517,43.5981,0.0],[-96.6517,43.5977,0.0],[-96.652,43.5963,0.0],[-96.6524,43.5954,0.0],[-96.6664,43.5809,0.0],[-96.6704,43.5741,0.0],[-96.6712,43.5734,0.0],[-96.6789,43.5679,0.0],[-96.6834,43.566,0.0],[-96.6932,43.5628,0.0],[-96.6936,43.5627,0.0],[-96.6936,43.5636,0.0],[-96.6936,43.5696,0.0],[-96.6936,43.573,0.0],[-96.6936,43.5802,0.0],[-96.6933,43.583,0.0],[-96.6915,43.5905,0.0],[-96.6909,43.5946,0.0],[-96.6909,43.6019,0.0],[-96.6909,43.602,0.0],[-96.6909,43.6068,0.0],[-96.7014,43.6059,0.0],[-96.7032,43.6058,0.0],[-96.7172,43.606,0.0],[-96.7281,43.6073,0.0],[-96.7447,43.6104,0.0],[-96.759,43.6128,0.0],[-96.7707,43.6129,0.0],[-96.7794,43.6127,0.0],[-96.7861,43.6118,0.0],[-96.7911,43.6108,0.0],[-96.8011,43.6091,0.0],[-96.811,43.6088,0.0],[-96.8455,43.6087,0.0],[-96.8509,43.6087,0.0],[-96.8604,43.6087,0.0],[-96.8707,43.6086,0.0],[-96.8897,43.6093,0.0],[-96.8907,43.6095,0.0],[-96.8905,43.6113,0.0],[-96.8906,43.6239,0.0],[-96.8909,43.6287,0.0]]]]}},{"type":"Feature","properties":{"uesi_id":"USA_R194968","nbhd_code":"USA_R194968_11","nbhd_name":"Census Tract 101.03"},"geometry":{"type":"MultiPolygon","coordinates":[[[[-96.8265,43.5003,0.0],[-96.8241,43.5003,0.0],[-96.8093,43.5003,0.0],[-96.8073,43.5003,0.0],[-96.8063,43.5003,0.0],[-96.8003,43.5003,0.0],[-96.7908,43.5003,0.0],[-96.7882,43.5003,0.0],[-96.7878,43.5003,0.0],[-96.7922,43.4935,0.0],[-96.7936,43.49,0.0],[-96.7939,43.49,0.0],[-96.7962,43.4899,0.0],[-96.7972,43.4899,0.0],[-96.8009,43.4899,0.0],[-96.8063,43.4901,0.0],[-96.8083,43.4901,0.0],[-96.8263,43.4901,0.0],[-96.8263,43.4925,0.0],[-96.8264,43.4938,0.0],[-96.8264,43.4946,0.0],[-96.8264,43.4956,0.0],[-96.8264,43.4963,0.0],[-96.8265,43.4974,0.0],[-96.8265,43.4983,0.0],[-96.8265,43.4991,0.0],[-96.8265,43.5003,0.0]]]]}},{"type":"Feature","properties":{"uesi_id":"USA_R194968","nbhd_code":"USA_R194968_12","nbhd_name":"Census Tract 2.01"},"geometry":{"type":"MultiPolygon","coordinates":[[[[-96.7566,43.5641,0.0],[-96.7471,43.5635,0.0],[-96.7371,43.5636,0.0],[-96.737,43.5636,0.0],[-96.7366,43.5638,0.0],[-96.7344,43.5642,0.0],[-96.7319,43.5643,0.0],[-96.7313,43.5642,0.0],[-96.7314,43.5577,0.0],[-96.7314,43.5512,0.0],[-96.7328,43.5512,0.0],[-96.7371,43.5512,0.0],[-96.7383,43.5512,0.0],[-96.7427,43.5512,0.0],[-96.7468,43.5511,0.0],[-96.7473,43.5514,0.0],[-96.7513,43.5541,0.0],[-96.7513,43.5511,0.0],[-96.7545,43.5512,0.0],[-96.7557,43.5511,0.0],[-96.7559,43.5511,0.0],[-96.756,43.5512,0.0],[-96.7556,43.5514,0.0],[-96.7563,43.5548,0.0],[-96.7562,43.5638,0.0],[-96.7566,43.5641,0.0]]]]}},{"type":"Feature","properties":{"uesi_id":"USA_R194968","nbhd_code":"USA_R194968_13","nbhd_name":"Census Tract 11.07"},"geometry":{"type":"MultiPolygon","coordinates":[[[[-96.8009,43.5225,0.0],[-96.8009,43.5293,0.0],[-96.7909,43.5293,0.0],[-96.7909,43.5339,0.0],[-96.7891,43.5334,0.0],[-96.7857,43.5308,0.0],[-96.7807,43.5308,0.0],[-96.7806,43.5224,0.0],[-96.7806,43.5148,0.0],[-96.791,43.5148,0.0],[-96.8009,43.5148,0.0],[-96.8009,43.5225,0.0]]]]}},{"type":"Feature","properties":{"uesi_id":"USA_R194968","nbhd_code":"USA_R194968_14","nbhd_name":"Census Tract 101.02"},"geometry":{"type":"MultiPolygon","coordinates":[[[[-96.7968,43.4755,0.0],[-96.7966,43.4819,0.0],[-96.7962,43.4839,0.0],[-96.7939,43.49,0.0],[-96.7936,43.49,0.0],[-96.7922,43.4935,0.0],[-96.7878,43.5003,0.0],[-96.771,43.5003,0.0],[-96.748,43.5004,0.0],[-96.7477,43.4995,0.0],[-96.7473,43.4896,0.0],[-96.7473,43.4818,0.0],[-96.7473,43.4715,0.0],[-96.7473,43.4708,0.0],[-96.7474,43.4679,0.0],[-96.7474,43.4653,0.0],[-96.7474,43.4607,0.0],[-96.7673,43.4608,0.0],[-96.7977,43.461,0.0],[-96.7968,43.4755,0.0]]]]}},{"type":"Feature","properties":{"uesi_id":"USA_R194968","nbhd_code":"USA_R194968_15","nbhd_name":"Census Tract 4.01"},"geometry":{"type":"MultiPolygon","coordinates":[[[[-96.7027,43.5439,0.0],[-96.7014,43.5439,0.0],[-96.7014,43.5467,0.0],[-96.6989,43.5467,0.0],[-96.6989,43.5485,0.0],[-96.7014,43.5485,0.0],[-96.7014,43.5512,0.0],[-96.7014,43.5558,0.0],[-96.7009,43.5597,0.0],[-96.6969,43.5611,0.0],[-96.6964,43.5617,0.0],[-96.6936,43.5627,0.0],[-96.6939,43.5512,0.0],[-96.6945,43.5471,0.0],[-96.6948,43.5467,0.0],[-96.6942,43.5467,0.0],[-96.694,43.5367,0.0],[-96.6946,43.5347,0.0],[-96.6962,43.5331,0.0],[-96.6971,43.5345,0.0],[-96.6996,43.5366,0.0],[-96.7026,43.5391,0.0],[-96.7027,43.5439,0.0]]]]}},{"type":"Feature","properties":{"uesi_id":"USA_R194968","nbhd_code":"USA_R194968_16","nbhd_name":"Census Tract 4.05"},"geometry":{"type":"MultiPolygon","coordinates":[[[[-96.6945,43.5471,0.0],[-96.6939,43.5512,0.0],[-96.6937,43.5512,0.0],[-96.6715,43.5512,0.0],[-96.6716,43.5585,0.0],[-96.6621,43.5585,0.0],[-96.6572,43.5584,0.0],[-96.6515,43.5584,0.0],[-96.6515,43.5475,0.0],[-96.6515,43.5444,0.0],[-96.6515,43.5439,0.0],[-96.6522,43.5439,0.0],[-96.6616,43.5439,0.0],[-96.6694,43.5433,0.0],[-96.6715,43.5436,0.0],[-96.6732,43.544,0.0],[-96.68,43.5463,0.0],[-96.6824,43.5467,0.0],[-96.6844,43.5467,0.0],[-96.6856,43.5467,0.0],[-96.6942,43.5467,0.0],[-96.6948,43.5467,0.0],[-96.6945,43.5471,0.0]]]]}},{"type":"Feature","properties":{"uesi_id":"USA_R194968","nbhd_code":"USA_R194968_17","nbhd_name":"Census Tract 6"},"geometry":{"type":"MultiPolygon","coordinates":[[[[-96.7327,43.5401,0.0],[-96.7327,43.5414,0.0],[-96.7253,43.5414,0.0],[-96.72,43.5414,0.0],[-96.7209,43.5403,0.0],[-96.7179,43.5405,0.0],[-96.7163,43.5405,0.0],[-96.7163,43.5346,0.0],[-96.7253,43.5346,0.0],[-96.73,43.5349,0.0],[-96.7313,43.5349,0.0],[-96.7325,43.5358,0.0],[-96.7327,43.5377,0.0],[-96.7327,43.5401,0.0]]]]}},{"type":"Feature","properties":{"uesi_id":"USA_R194968","nbhd_code":"USA_R194968_18","nbhd_name":"Census Tract 11.08"},"geometry":{"type":"MultiPolygon","coordinates":[[[[-96.8009,43.5148,0.0],[-96.791,43.5148,0.0],[-96.7806,43.5148,0.0],[-96.781,43.5119,0.0],[-96.7835,43.5076,0.0],[-96.7882,43.5003,0.0],[-96.7908,43.5003,0.0],[-96.8003,43.5003,0.0],[-96.7994,43.5035,0.0],[-96.8002,43.508,0.0],[-96.8002,43.5094,0.0],[-96.8003,43.5139,0.0],[-96.8009,43.5148,0.0]]]]}},{"type":"Feature","properties":{"uesi_id":"USA_R194968","nbhd_code":"USA_R194968_19","nbhd_name":"Census Tract 19.01"},"geometry":{"type":"MultiPolygon","coordinates":[[[[-96.7312,43.5111,0.0],[-96.7312,43.5118,0.0],[-96.7262,43.513,0.0],[-96.7262,43.5176,0.0],[-96.7262,43.5185,0.0],[-96.7287,43.5185,0.0],[-96.7288,43.5207,0.0],[-96.73,43.5221,0.0],[-96.7112,43.5221,0.0],[-96.7112,43.5185,0.0],[-96.7112,43.5165,0.0],[-96.7116,43.5153,0.0],[-96.7262,43.512,0.0],[-96.7343,43.5091,0.0],[-96.7312,43.5111,0.0]]]]}},{"type":"Feature","properties":{"uesi_id":"USA_R194968","nbhd_code":"USA_R194968_20","nbhd_name":"Census Tract 104.05"},"geometry":{"type":"MultiPolygon","coordinates":[[[[-96.811,43.6088,0.0],[-96.8011,43.6091,0.0],[-96.7911,43.6108,0.0],[-96.7861,43.6118,0.0],[-96.7794,43.6127,0.0],[-96.7707,43.6129,0.0],[-96.759,43.6128,0.0],[-96.7447,43.6104,0.0],[-96.7449,43.6084,0.0],[-96.7463,43.6056,0.0],[-96.7443,43.6052,0.0],[-96.741,43.6057,0.0],[-96.7401,43.6043,0.0],[-96.7403,43.602,0.0],[-96.741,43.5998,0.0],[-96.7433,43.5989,0.0],[-96.7441,43.5974,0.0],[-96.7431,43.594,0.0],[-96.7435,43.5926,0.0],[-96.7615,43.5761,0.0],[-96.764,43.5729,0.0],[-96.7715,43.5729,0.0],[-96.7726,43.5721,0.0],[-96.7753,43.5726,0.0],[-96.7782,43.5687,0.0],[-96.7796,43.5588,0.0],[-96.7819,43.5589,0.0],[-96.7864,43.5584,0.0],[-96.791,43.5584,0.0],[-96.8015,43.5584,0.0],[-96.806,43.5584,0.0],[-96.8109,43.5584,0.0],[-96.811,43.5799,0.0],[-96.811,43.5874,0.0],[-96.811,43.6088,0.0]]]]}},{"type":"Feature","properties":{"uesi_id":"USA_R194968","nbhd_code":"USA_R194968_21","nbhd_name":"Census Tract 10.01"},"geometry":{"type":"MultiPolygon","coordinates":[[[[-96.8308,43.5583,0.0],[-96.8226,43.5583,0.0],[-96.8209,43.5583,0.0],[-96.8109,43.5584,0.0],[-96.806,43.5584,0.0],[-96.8015,43.5584,0.0],[-96.791,43.5584,0.0],[-96.7864,43.5584,0.0],[-96.7819,43.5589,0.0],[-96.7796,43.5588,0.0],[-96.7801,43.5564,0.0],[-96.7807,43.5516,0.0],[-96.7806,43.5477,0.0],[-96.7691,43.5477,0.0],[-96.7691,43.5471,0.0],[-96.7709,43.5439,0.0],[-96.7801,43.5439,0.0],[-96.7804,43.5439,0.0],[-96.7909,43.5439,0.0],[-96.8008,43.5439,0.0],[-96.8082,43.5439,0.0],[-96.8149,43.5439,0.0],[-96.8209,43.5439,0.0],[-96.8272,43.5439,0.0],[-96.8307,43.5439,0.0],[-96.8308,43.546,0.0],[-96.8308,43.5479,0.0],[-96.8308,43.551,0.0],[-96.8308,43.5583,0.0]]]]}},{"type":"Feature","properties":{"uesi_id":"USA_R194968","nbhd_code":"USA_R194968_22","nbhd_name":"Census Tract 104.03"},"geometry":{"type":"MultiPolygon","coordinates":[[[[-96.6545,43.5872,0.0],[-96.6533,43.5931,0.0],[-96.6524,43.5954,0.0],[-96.652,43.5963,0.0],[-96.6517,43.5977,0.0],[-96.6517,43.5981,0.0],[-96.6516,43.6088,0.0],[-96.6398,43.6105,0.0],[-96.6219,43.6104,0.0],[-96.6119,43.6097,0.0],[-96.6063,43.6094,0.0],[-96.592,43.6094,0.0],[-96.5915,43.6094,0.0],[-96.5919,43.6037,0.0],[-96.5919,43.5969,0.0],[-96.5919,43.5946,0.0],[-96.5969,43.5946,0.0],[-96.5987,43.5932,0.0],[-96.5991,43.5914,0.0],[-96.6011,43.5898,0.0],[-96.6004,43.5874,0.0],[-96.602,43.5872,0.0],[-96.6026,43.5867,0.0],[-96.6011,43.5838,0.0],[-96.5984,43.584,0.0],[-96.5998,43.5821,0.0],[-96.6031,43.5815,0.0],[-96.6016,43.5794,0.0],[-96.6051,43.5783,0.0],[-96.6049,43.5762,0.0],[-96.6039,43.5752,0.0],[-96.6033,43.5751,0.0],[-96.6025,43.5751,0.0],[-96.6015,43.5754,0.0],[-96.6009,43.5753,0.0],[-96.6003,43.5749,0.0],[-96.5997,43.5739,0.0],[-96.6,43.5727,0.0],[-96.601,43.5694,0.0],[-96.603,43.5663,0.0],[-96.6017,43.5638,0.0],[-96.5979,43.5626,0.0],[-96.5967,43.5611,0.0],[-96.5935,43.5611,0.0],[-96.5939,43.5595,0.0],[-96.5913,43.5585,0.0],[-96.5915,43.5571,0.0],[-96.5937,43.5564,0.0],[-96.5958,43.5544,0.0],[-96.5983,43.5546,0.0],[-96.5996,43.5517,0.0],[-96.5995,43.5498,0.0],[-96.5967,43.5491,0.0],[-96.5991,43.5476,0.0],[-96.6002,43.546,0.0],[-96.6003,43.5438,0.0],[-96.602,43.5419,0.0],[-96.6057,43.5398,0.0],[-96.6091,43.5391,0.0],[-96.6106,43.5366,0.0],[-96.6107,43.5364,0.0],[-96.6107,43.5362,0.0],[-96.6106,43.5361,0.0],[-96.6096,43.533,0.0],[-96.6061,43.5313,0.0],[-96.6042,43.5315,0.0],[-96.6021,43.5309,0.0],[-96.6003,43.5291,0.0],[-96.6007,43.529,0.0],[-96.6034,43.5311,0.0],[-96.6061,43.531,0.0],[-96.6079,43.5318,0.0],[-96.6097,43.5328,0.0],[-96.6101,43.5332,0.0],[-96.6106,43.536,0.0],[-96.6124,43.5366,0.0],[-96.6122,43.5393,0.0],[-96.6142,43.5419,0.0],[-96.6158,43.5428,0.0],[-96.6318,43.5429,0.0],[-96.6515,43.5439,0.0],[-96.6515,43.5444,0.0],[-96.6515,43.5475,0.0],[-96.6515,43.5584,0.0],[-96.6516,43.5658,0.0],[-96.6516,43.5689,0.0],[-96.6516,43.573,0.0],[-96.6544,43.573,0.0],[-96.6545,43.5872,0.0]]]]}},{"type":"Feature","properties":{"uesi_id":"USA_R194968","nbhd_code":"USA_R194968_23","nbhd_name":"Census Tract 17"},"geometry":{"type":"MultiPolygon","coordinates":[[[[-96.7163,43.5331,0.0],[-96.7137,43.534,0.0],[-96.7113,43.5339,0.0],[-96.7088,43.5339,0.0],[-96.7063,43.5328,0.0],[-96.7059,43.5378,0.0],[-96.7035,43.5366,0.0],[-96.6996,43.5366,0.0],[-96.6971,43.5345,0.0],[-96.6962,43.5331,0.0],[-96.701,43.5293,0.0],[-96.7022,43.5276,0.0],[-96.7047,43.5221,0.0],[-96.7065,43.5181,0.0],[-96.7089,43.5161,0.0],[-96.7116,43.5153,0.0],[-96.7112,43.5165,0.0],[-96.7112,43.5185,0.0],[-96.7112,43.5221,0.0],[-96.7113,43.5293,0.0],[-96.7125,43.5294,0.0],[-96.7163,43.5294,0.0],[-96.7163,43.5331,0.0]]]]}},{"type":"Feature","properties":{"uesi_id":"USA_R194968","nbhd_code":"USA_R194968_24","nbhd_name":"Census Tract 106"},"geometry":{"type":"MultiPolygon","coordinates":[[[[-96.7512,43.5331,0.0],[-96.7512,43.5349,0.0],[-96.7512,43.5367,0.0],[-96.7512,43.5403,0.0],[-96.7487,43.5402,0.0],[-96.7413,43.5402,0.0],[-96.7412,43.5358,0.0],[-96.7413,43.5351,0.0],[-96.7413,43.533,0.0],[-96.7413,43.5294,0.0],[-96.7412,43.526,0.0],[-96.74,43.526,0.0],[-96.74,43.5273,0.0],[-96.7363,43.5273,0.0],[-96.7362,43.526,0.0],[-96.7362,43.5221,0.0],[-96.7382,43.5221,0.0],[-96.7381,43.5185,0.0],[-96.7387,43.5185,0.0],[-96.7387,43.5171,0.0],[-96.7409,43.5171,0.0],[-96.7412,43.5149,0.0],[-96.7511,43.5149,0.0],[-96.7511,43.5185,0.0],[-96.7511,43.5221,0.0],[-96.7512,43.5258,0.0],[-96.7512,43.5294,0.0],[-96.7512,43.5331,0.0]]]]}},{"type":"Feature","properties":{"uesi_id":"USA_R194968","nbhd_code":"USA_R194968_25","nbhd_name":"Census Tract 12"},"geometry":{"type":"MultiPolygon","coordinates":[[[[-96.7716,43.5293,0.0],[-96.7678,43.5367,0.0],[-96.7675,43.5388,0.0],[-96.7706,43.5426,0.0],[-96.7709,43.5439,0.0],[-96.7611,43.5439,0.0],[-96.7612,43.5403,0.0],[-96.7512,43.5403,0.0],[-96.7512,43.5367,0.0],[-96.7512,43.5349,0.0],[-96.7512,43.5331,0.0],[-96.7512,43.5294,0.0],[-96.7512,43.5258,0.0],[-96.7511,43.5221,0.0],[-96.7511,43.5185,0.0],[-96.7511,43.5149,0.0],[-96.7655,43.515,0.0],[-96.7675,43.5173,0.0],[-96.771,43.5231,0.0],[-96.7715,43.5264,0.0],[-96.7716,43.5293,0.0]]]]}},{"type":"Feature","properties":{"uesi_id":"USA_R194968","nbhd_code":"USA_R194968_26","nbhd_name":"Census Tract 4.08"},"geometry":{"type":"MultiPolygon","coordinates":[[[[-96.6939,43.5512,0.0],[-96.6936,43.5627,0.0],[-96.6932,43.5628,0.0],[-96.6834,43.566,0.0],[-96.6789,43.5679,0.0],[-96.6712,43.5734,0.0],[-96.6704,43.5741,0.0],[-96.6664,43.5809,0.0],[-96.6524,43.5954,0.0],[-96.6533,43.5931,0.0],[-96.6545,43.5872,0.0],[-96.6544,43.573,0.0],[-96.6516,43.573,0.0],[-96.6516,43.5689,0.0],[-96.6516,43.5658,0.0],[-96.6515,43.5584,0.0],[-96.6572,43.5584,0.0],[-96.6621,43.5585,0.0],[-96.6716,43.5585,0.0],[-96.6715,43.5512,0.0],[-96.6937,43.5512,0.0],[-96.6939,43.5512,0.0]]]]}},{"type":"Feature","properties":{"uesi_id":"USA_R194968","nbhd_code":"USA_R194968_27","nbhd_name":"Census Tract 9"},"geometry":{"type":"MultiPolygon","coordinates":[[[[-96.7691,43.5471,0.0],[-96.7691,43.5477,0.0],[-96.7611,43.5474,0.0],[-96.7536,43.5473,0.0],[-96.7512,43.547,0.0],[-96.7513,43.5511,0.0],[-96.7513,43.5541,0.0],[-96.7473,43.5514,0.0],[-96.7468,43.5511,0.0],[-96.7427,43.5512,0.0],[-96.7426,43.546,0.0],[-96.7426,43.544,0.0],[-96.7412,43.5434,0.0],[-96.7413,43.5402,0.0],[-96.7487,43.5402,0.0],[-96.7512,43.5403,0.0],[-96.7612,43.5403,0.0],[-96.7611,43.5439,0.0],[-96.7709,43.5439,0.0],[-96.7691,43.5471,0.0]]]]}},{"type":"Feature","properties":{"uesi_id":"USA_R194968","nbhd_code":"USA_R194968_28","nbhd_name":"Census Tract 18.01"},"geometry":{"type":"MultiPolygon","coordinates":[[[[-96.6949,43.5278,0.0],[-96.6949,43.5293,0.0],[-96.6962,43.5331,0.0],[-96.6946,43.5347,0.0],[-96.694,43.5367,0.0],[-96.6859,43.5367,0.0],[-96.6839,43.5373,0.0],[-96.6815,43.5367,0.0],[-96.6814,43.5293,0.0],[-96.6814,43.5257,0.0],[-96.6814,43.522,0.0],[-96.6813,43.5171,0.0],[-96.6813,43.5148,0.0],[-96.6813,43.5075,0.0],[-96.6814,43.5003,0.0],[-96.6962,43.5004,0.0],[-96.6954,43.5021,0.0],[-96.6904,43.5075,0.0],[-96.6896,43.5102,0.0],[-96.6898,43.5146,0.0],[-96.6911,43.517,0.0],[-96.6966,43.522,0.0],[-96.6949,43.5278,0.0]]]]}},{"type":"Feature","properties":{"uesi_id":"USA_R194968","nbhd_code":"USA_R194968_29","nbhd_name":"Census Tract 104.02"},"geometry":{"type":"MultiPolygon","coordinates":[[[[-96.6107,43.5364,0.0],[-96.6106,43.5366,0.0],[-96.6091,43.5391,0.0],[-96.6057,43.5398,0.0],[-96.602,43.5419,0.0],[-96.6003,43.5438,0.0],[-96.6002,43.546,0.0],[-96.5991,43.5476,0.0],[-96.5967,43.5491,0.0],[-96.5995,43.5498,0.0],[-96.5996,43.5517,0.0],[-96.5983,43.5546,0.0],[-96.5958,43.5544,0.0],[-96.5937,43.5564,0.0],[-96.5915,43.5571,0.0],[-96.5913,43.5585,0.0],[-96.5907,43.5586,0.0],[-96.5874,43.5582,0.0],[-96.5845,43.5586,0.0],[-96.5784,43.5589,0.0],[-96.5762,43.5585,0.0],[-96.5616,43.5582,0.0],[-96.5602,43.5587,0.0],[-96.5545,43.5576,0.0],[-96.5516,43.5583,0.0],[-96.5321,43.5584,0.0],[-96.5321,43.5612,0.0],[-96.5321,43.5646,0.0],[-96.5323,43.5873,0.0],[-96.5321,43.6085,0.0],[-96.5427,43.6084,0.0],[-96.5722,43.6087,0.0],[-96.5755,43.6089,0.0],[-96.5808,43.6091,0.0],[-96.5915,43.6094,0.0],[-96.592,43.6094,0.0],[-96.592,43.6167,0.0],[-96.5916,43.6596,0.0],[-96.5913,43.674,0.0],[-96.5313,43.6736,0.0],[-96.4534,43.675,0.0],[-96.4534,43.6459,0.0],[-96.4534,43.6099,0.0],[-96.4534,43.6075,0.0],[-96.4534,43.5887,0.0],[-96.4534,43.5882,0.0],[-96.4534,43.5877,0.0],[-96.4534,43.587,0.0],[-96.4533,43.5812,0.0],[-96.4533,43.5004,0.0],[-96.5317,43.5005,0.0],[-96.5912,43.5005,0.0],[-96.5989,43.5005,0.0],[-96.5989,43.5004,0.0],[-96.5998,43.5014,0.0],[-96.5997,43.505,0.0],[-96.6013,43.5063,0.0],[-96.6015,43.5066,0.0],[-96.6017,43.5069,0.0],[-96.6021,43.5075,0.0],[-96.6031,43.5102,0.0],[-96.6026,43.5109,0.0],[-96.5975,43.5137,0.0],[-96.5965,43.515,0.0],[-96.5969,43.5192,0.0],[-96.5964,43.5223,0.0],[-96.5971,43.5237,0.0],[-96.5996,43.5257,0.0],[-96.5995,43.5277,0.0],[-96.6003,43.5291,0.0],[-96.6021,43.5309,0.0],[-96.6042,43.5315,0.0],[-96.6061,43.5313,0.0],[-96.6096,43.533,0.0],[-96.6106,43.5361,0.0],[-96.6107,43.5362,0.0],[-96.6107,43.5364,0.0]]]]}},{"type":"Feature","properties":{"uesi_id":"USA_R194968","nbhd_code":"USA_R194968_30","nbhd_name":"Census Tract 18.04"},"geometry":{"type":"MultiPolygon","coordinates":[[[[-96.6815,43.5367,0.0],[-96.6783,43.5367,0.0],[-96.6714,43.5367,0.0],[-96.6714,43.5294,0.0],[-96.6675,43.5294,0.0],[-96.6674,43.5233,0.0],[-96.6657,43.5219,0.0],[-96.6648,43.5199,0.0],[-96.6648,43.5154,0.0],[-96.6636,43.5155,0.0],[-96.6636,43.5148,0.0],[-96.6714,43.5148,0.0],[-96.6714,43.5221,0.0],[-96.6814,43.522,0.0],[-96.6814,43.5257,0.0],[-96.6814,43.5293,0.0],[-96.6815,43.5367,0.0]]]]}},{"type":"Feature","properties":{"uesi_id":"USA_R194968","nbhd_code":"USA_R194968_31","nbhd_name":"Census Tract 104.06"},"geometry":{"type":"MultiPolygon","coordinates":[[[[-96.8907,43.6095,0.0],[-96.8897,43.6093,0.0],[-96.8707,43.6086,0.0],[-96.8604,43.6087,0.0],[-96.8509,43.6087,0.0],[-96.8455,43.6087,0.0],[-96.811,43.6088,0.0],[-96.811,43.5874,0.0],[-96.811,43.5799,0.0],[-96.8109,43.5584,0.0],[-96.8209,43.5583,0.0],[-96.8226,43.5583,0.0],[-96.8308,43.5583,0.0],[-96.8308,43.551,0.0],[-96.8308,43.5479,0.0],[-96.8308,43.546,0.0],[-96.8307,43.5439,0.0],[-96.8307,43.5399,0.0],[-96.8307,43.5384,0.0],[-96.8307,43.533,0.0],[-96.8308,43.5305,0.0],[-96.8308,43.526,0.0],[-96.8308,43.5184,0.0],[-96.8308,43.5148,0.0],[-96.8308,43.5137,0.0],[-96.8307,43.5089,0.0],[-96.8307,43.5087,0.0],[-96.8307,43.5076,0.0],[-96.8307,43.5003,0.0],[-96.8664,43.5002,0.0],[-96.8667,43.5002,0.0],[-96.8705,43.5001,0.0],[-96.8732,43.5001,0.0],[-96.8813,43.5001,0.0],[-96.8824,43.5001,0.0],[-96.8842,43.5001,0.0],[-96.8866,43.5001,0.0],[-96.8901,43.5001,0.0],[-96.8903,43.5222,0.0],[-96.8903,43.5231,0.0],[-96.8904,43.5437,0.0],[-96.8905,43.5871,0.0],[-96.8905,43.6064,0.0],[-96.8908,43.6092,0.0],[-96.8907,43.6095,0.0]]]]}},{"type":"Feature","properties":{"uesi_id":"USA_R194968","nbhd_code":"USA_R194968_32","nbhd_name":"Census Tract 101.04"},"geometry":{"type":"MultiPolygon","coordinates":[[[[-96.748,43.5004,0.0],[-96.7311,43.5003,0.0],[-96.7077,43.5004,0.0],[-96.6962,43.5004,0.0],[-96.6814,43.5003,0.0],[-96.6713,43.5003,0.0],[-96.6688,43.5003,0.0],[-96.6688,43.4908,0.0],[-96.6688,43.4905,0.0],[-96.6688,43.4895,0.0],[-96.6687,43.4604,0.0],[-96.7275,43.4607,0.0],[-96.7474,43.4607,0.0],[-96.7474,43.4653,0.0],[-96.7474,43.4679,0.0],[-96.7473,43.4708,0.0],[-96.7473,43.4715,0.0],[-96.7473,43.4818,0.0],[-96.7473,43.4896,0.0],[-96.7477,43.4995,0.0],[-96.748,43.5004,0.0]]]]}},{"type":"Feature","properties":{"uesi_id":"USA_R194968","nbhd_code":"USA_R194968_33","nbhd_name":"Census Tract 101.05"},"geometry":{"type":"MultiPolygon","coordinates":[[[[-96.9249,43.4757,0.0],[-96.9248,43.5,0.0],[-96.9103,43.5,0.0],[-96.8901,43.5001,0.0],[-96.8866,43.5001,0.0],[-96.8842,43.5001,0.0],[-96.8824,43.5001,0.0],[-96.8813,43.5001,0.0],[-96.8732,43.5001,0.0],[-96.8705,43.5001,0.0],[-96.8667,43.5002,0.0],[-96.8664,43.5002,0.0],[-96.8307,43.5003,0.0],[-96.8265,43.5003,0.0],[-96.8265,43.4991,0.0],[-96.8265,43.4983,0.0],[-96.8265,43.4974,0.0],[-96.8264,43.4963,0.0],[-96.8264,43.4956,0.0],[-96.8264,43.4946,0.0],[-96.8264,43.4938,0.0],[-96.8263,43.4925,0.0],[-96.8263,43.4901,0.0],[-96.8083,43.4901,0.0],[-96.8063,43.4901,0.0],[-96.8009,43.4899,0.0],[-96.7972,43.4899,0.0],[-96.7962,43.4899,0.0],[-96.7939,43.49,0.0],[-96.7962,43.4839,0.0],[-96.7966,43.4819,0.0],[-96.7968,43.4755,0.0],[-96.8063,43.4755,0.0],[-96.8662,43.4756,0.0],[-96.8662,43.4647,0.0],[-96.8644,43.4611,0.0],[-96.8661,43.4611,0.0],[-96.8662,43.4538,0.0],[-96.8661,43.4465,0.0],[-96.8661,43.4392,0.0],[-96.8662,43.432,0.0],[-96.9248,43.4322,0.0],[-96.9248,43.4707,0.0],[-96.9249,43.4757,0.0]]]]}},{"type":"Feature","properties":{"uesi_id":"USA_R194968","nbhd_code":"USA_R194968_34","nbhd_name":"Census Tract 1"},"geometry":{"type":"MultiPolygon","coordinates":[[[[-96.7657,43.5696,0.0],[-96.764,43.5729,0.0],[-96.7615,43.5761,0.0],[-96.7435,43.5926,0.0],[-96.7431,43.594,0.0],[-96.7441,43.5974,0.0],[-96.7433,43.5989,0.0],[-96.741,43.5998,0.0],[-96.7403,43.602,0.0],[-96.7401,43.6043,0.0],[-96.741,43.6057,0.0],[-96.7443,43.6052,0.0],[-96.7463,43.6056,0.0],[-96.7449,43.6084,0.0],[-96.7447,43.6104,0.0],[-96.7281,43.6073,0.0],[-96.7172,43.606,0.0],[-96.7032,43.6058,0.0],[-96.7014,43.6059,0.0],[-96.6909,43.6068,0.0],[-96.6909,43.602,0.0],[-96.6909,43.6019,0.0],[-96.6909,43.5946,0.0],[-96.6915,43.5905,0.0],[-96.6933,43.583,0.0],[-96.6936,43.5802,0.0],[-96.6936,43.573,0.0],[-96.6936,43.5696,0.0],[-96.6973,43.5718,0.0],[-96.6998,43.5724,0.0],[-96.7046,43.572,0.0],[-96.71,43.5673,0.0],[-96.7114,43.567,0.0],[-96.7136,43.5667,0.0],[-96.7195,43.5674,0.0],[-96.7234,43.5646,0.0],[-96.7238,43.5627,0.0],[-96.721,43.5604,0.0],[-96.7214,43.5574,0.0],[-96.7239,43.5553,0.0],[-96.7241,43.5512,0.0],[-96.7314,43.5512,0.0],[-96.7314,43.5577,0.0],[-96.7313,43.5642,0.0],[-96.7319,43.5643,0.0],[-96.7344,43.5642,0.0],[-96.7366,43.5638,0.0],[-96.737,43.5636,0.0],[-96.7371,43.5636,0.0],[-96.7471,43.5635,0.0],[-96.7566,43.5641,0.0],[-96.7629,43.5646,0.0],[-96.7656,43.5659,0.0],[-96.7657,43.5696,0.0]]]]}},{"type":"Feature","properties":{"uesi_id":"USA_R194968","nbhd_code":"USA_R194968_35","nbhd_name":"Census Tract 4.07"},"geometry":{"type":"MultiPolygon","coordinates":[[[[-96.6783,43.5439,0.0],[-96.6732,43.544,0.0],[-96.6715,43.5436,0.0],[-96.6694,43.5433,0.0],[-96.6616,43.5439,0.0],[-96.6522,43.5439,0.0],[-96.652,43.5427,0.0],[-96.6518,43.5294,0.0],[-96.6614,43.5294,0.0],[-96.6675,43.5294,0.0],[-96.6714,43.5294,0.0],[-96.6714,43.5367,0.0],[-96.6783,43.5367,0.0],[-96.6776,43.5408,0.0],[-96.6784,43.5412,0.0],[-96.6783,43.5439,0.0]]]]}},{"type":"Feature","properties":{"uesi_id":"USA_R194968","nbhd_code":"USA_R194968_36","nbhd_name":"Census Tract 5"},"geometry":{"type":"MultiPolygon","coordinates":[[[[-96.725,43.5492,0.0],[-96.7241,43.5512,0.0],[-96.7114,43.5512,0.0],[-96.7077,43.5512,0.0],[-96.7014,43.5512,0.0],[-96.7014,43.5485,0.0],[-96.6989,43.5485,0.0],[-96.6989,43.5467,0.0],[-96.7014,43.5467,0.0],[-96.7014,43.5439,0.0],[-96.7027,43.5439,0.0],[-96.7026,43.5391,0.0],[-96.6996,43.5366,0.0],[-96.7035,43.5366,0.0],[-96.7059,43.5378,0.0],[-96.7063,43.5328,0.0],[-96.7088,43.5339,0.0],[-96.7113,43.5339,0.0],[-96.7137,43.534,0.0],[-96.7163,43.5331,0.0],[-96.7163,43.5346,0.0],[-96.7163,43.5405,0.0],[-96.7179,43.5405,0.0],[-96.7209,43.5403,0.0],[-96.72,43.5414,0.0],[-96.7195,43.5424,0.0],[-96.7195,43.5434,0.0],[-96.7197,43.5448,0.0],[-96.7221,43.5456,0.0],[-96.7255,43.5486,0.0],[-96.725,43.5492,0.0]]]]}},{"type":"Feature","properties":{"uesi_id":"USA_R194968","nbhd_code":"USA_R194968_37","nbhd_name":"Census Tract 10.02"},"geometry":{"type":"MultiPolygon","coordinates":[[[[-96.8127,43.5415,0.0],[-96.8105,43.5419,0.0],[-96.8101,43.5431,0.0],[-96.8082,43.5439,0.0],[-96.8008,43.5439,0.0],[-96.7909,43.5439,0.0],[-96.7804,43.5439,0.0],[-96.7801,43.5439,0.0],[-96.7709,43.5439,0.0],[-96.7706,43.5426,0.0],[-96.7675,43.5388,0.0],[-96.7678,43.5367,0.0],[-96.7716,43.5293,0.0],[-96.7715,43.5264,0.0],[-96.7765,43.5279,0.0],[-96.7807,43.5308,0.0],[-96.7857,43.5308,0.0],[-96.7891,43.5334,0.0],[-96.7909,43.5339,0.0],[-96.7972,43.534,0.0],[-96.7988,43.5347,0.0],[-96.802,43.5343,0.0],[-96.8031,43.5358,0.0],[-96.8059,43.5369,0.0],[-96.8057,43.5386,0.0],[-96.8092,43.5382,0.0],[-96.8097,43.5383,0.0],[-96.8108,43.5388,0.0],[-96.8109,43.5388,0.0],[-96.8127,43.5415,0.0]]]]}},{"type":"Feature","properties":{"uesi_id":"USA_R194968","nbhd_code":"USA_R194968_38","nbhd_name":"Census Tract 11.01"},"geometry":{"type":"MultiPolygon","coordinates":[[[[-96.7882,43.5003,0.0],[-96.7835,43.5076,0.0],[-96.781,43.5119,0.0],[-96.7806,43.5148,0.0],[-96.7806,43.5224,0.0],[-96.7807,43.5308,0.0],[-96.7765,43.5279,0.0],[-96.7715,43.5264,0.0],[-96.771,43.5231,0.0],[-96.7675,43.5173,0.0],[-96.7655,43.515,0.0],[-96.7511,43.5149,0.0],[-96.7511,43.5084,0.0],[-96.7492,43.5034,0.0],[-96.748,43.5004,0.0],[-96.771,43.5003,0.0],[-96.7878,43.5003,0.0],[-96.7882,43.5003,0.0]]]]}},{"type":"Feature","properties":{"uesi_id":"USA_R194968","nbhd_code":"USA_R194968_39","nbhd_name":"Census Tract 11.06"},"geometry":{"type":"MultiPolygon","coordinates":[[[[-96.8308,43.5184,0.0],[-96.8308,43.526,0.0],[-96.8308,43.5305,0.0],[-96.8307,43.533,0.0],[-96.8307,43.5384,0.0],[-96.8307,43.5399,0.0],[-96.8307,43.5439,0.0],[-96.8272,43.5439,0.0],[-96.8209,43.5439,0.0],[-96.8149,43.5439,0.0],[-96.8082,43.5439,0.0],[-96.8101,43.5431,0.0],[-96.8105,43.5419,0.0],[-96.8127,43.5415,0.0],[-96.8109,43.5388,0.0],[-96.8108,43.5388,0.0],[-96.8097,43.5383,0.0],[-96.8092,43.5382,0.0],[-96.8057,43.5386,0.0],[-96.8059,43.5369,0.0],[-96.8031,43.5358,0.0],[-96.802,43.5343,0.0],[-96.7988,43.5347,0.0],[-96.7972,43.534,0.0],[-96.7909,43.5339,0.0],[-96.7909,43.5293,0.0],[-96.8009,43.5293,0.0],[-96.8009,43.5225,0.0],[-96.8009,43.5148,0.0],[-96.8109,43.5148,0.0],[-96.8291,43.5148,0.0],[-96.8308,43.5148,0.0],[-96.8308,43.5184,0.0]]]]}},{"type":"Feature","properties":{"uesi_id":"USA_R194968","nbhd_code":"USA_R194968_40","nbhd_name":"Census Tract 16"},"geometry":{"type":"MultiPolygon","coordinates":[[[[-96.73,43.5331,0.0],[-96.73,43.5349,0.0],[-96.7253,43.5346,0.0],[-96.7163,43.5346,0.0],[-96.7163,43.5331,0.0],[-96.7163,43.5294,0.0],[-96.7125,43.5294,0.0],[-96.7113,43.5293,0.0],[-96.7112,43.5221,0.0],[-96.73,43.5221,0.0],[-96.73,43.5257,0.0],[-96.7301,43.5294,0.0],[-96.73,43.5331,0.0]]]]}},{"type":"Feature","properties":{"uesi_id":"USA_R194968","nbhd_code":"USA_R194968_41","nbhd_name":"Census Tract 18.03"},"geometry":{"type":"MultiPolygon","coordinates":[[[[-96.6813,43.5075,0.0],[-96.6813,43.5148,0.0],[-96.6813,43.5171,0.0],[-96.6814,43.522,0.0],[-96.6714,43.5221,0.0],[-96.6714,43.5148,0.0],[-96.6636,43.5148,0.0],[-96.6636,43.5155,0.0],[-96.6648,43.5154,0.0],[-96.6648,43.5199,0.0],[-96.6657,43.5219,0.0],[-96.6674,43.5233,0.0],[-96.6675,43.5294,0.0],[-96.6614,43.5294,0.0],[-96.6518,43.5294,0.0],[-96.6517,43.5222,0.0],[-96.6517,43.5149,0.0],[-96.6516,43.5082,0.0],[-96.6508,43.5041,0.0],[-96.6498,43.5004,0.0],[-96.6501,43.5004,0.0],[-96.6514,43.5003,0.0],[-96.654,43.5003,0.0],[-96.6639,43.5003,0.0],[-96.6688,43.5003,0.0],[-96.6713,43.5003,0.0],[-96.6814,43.5003,0.0],[-96.6813,43.5075,0.0]]]]}}]}