{"type":"FeatureCollection","name":"USA_R179860","crs":{"type":"name","properties":{"name":"urn:ogc:def:crs:OGC:1.3:CRS84"}},"features":[{"type":"Feature","properties":{"uesi_id":"USA_R179860","nbhd_code":"USA_R179860_1","nbhd_name":"37135011800"},"geometry":{"type":"MultiPolygon","coordinates":[[[[-79.05837,35.94943,0.0],[-79.05848,35.94848,0.0],[-79.05854,35.9478,0.0],[-79.05854,35.9473,0.0],[-79.05834,35.9463,0.0],[-79.05833,35.94622,0.0],[-79.05832,35.94618,0.0],[-79.0582,35.94557,0.0],[-79.0581,35.9451,0.0],[-79.05792,35.94418,0.0],[-79.05766,35.94289,0.0],[-79.05741,35.94161,0.0],[-79.05695,35.93929,0.0],[-79.05645,35.93677,0.0],[-79.0564,35.93655,0.0],[-79.05613,35.9352,0.0],[-79.05584,35.93376,0.0],[-79.05576,35.93339,0.0],[-79.05555,35.9323,0.0],[-79.05543,35.93167,0.0],[-79.055,35.93047,0.0],[-79.05489,35.93012,0.0],[-79.05445,35.92878,0.0],[-79.05433,35.9284,0.0],[-79.05429,35.92831,0.0],[-79.05402,35.92761,0.0],[-79.05399,35.92751,0.0],[-79.05389,35.92706,0.0],[-79.05388,35.92686,0.0],[-79.05387,35.92665,0.0],[-79.05386,35.92651,0.0],[-79.0539,35.92598,0.0],[-79.0539,35.92597,0.0],[-79.05391,35.92586,0.0],[-79.05394,35.92571,0.0],[-79.05397,35.92571,0.0],[-79.05408,35.92571,0.0],[-79.05415,35.92571,0.0],[-79.05425,35.92571,0.0],[-79.05431,35.92572,0.0],[-79.05437,35.92572,0.0],[-79.05442,35.92571,0.0],[-79.05461,35.92571,0.0],[-79.05471,35.9257,0.0],[-79.05476,35.9257,0.0],[-79.05481,35.92571,0.0],[-79.05506,35.92569,0.0],[-79.0552,35.92569,0.0],[-79.05526,35.92568,0.0],[-79.05533,35.92567,0.0],[-79.05538,35.92563,0.0],[-79.05544,35.92563,0.0],[-79.05548,35.92562,0.0],[-79.05569,35.92555,0.0],[-79.05574,35.92553,0.0],[-79.05578,35.92552,0.0],[-79.05584,35.92549,0.0],[-79.05588,35.92546,0.0],[-79.05593,35.92544,0.0],[-79.05602,35.92537,0.0],[-79.05608,35.92531,0.0],[-79.05615,35.92525,0.0],[-79.05622,35.92521,0.0],[-79.05629,35.92517,0.0],[-79.05644,35.92509,0.0],[-79.05648,35.92506,0.0],[-79.0565,35.92504,0.0],[-79.05661,35.92497,0.0],[-79.05672,35.92489,0.0],[-79.05682,35.9248,0.0],[-79.05692,35.92472,0.0],[-79.05698,35.92466,0.0],[-79.057,35.92463,0.0],[-79.05704,35.9246,0.0],[-79.05713,35.92451,0.0],[-79.0573,35.92436,0.0],[-79.05746,35.92428,0.0],[-79.05749,35.92426,0.0],[-79.05756,35.92423,0.0],[-79.05769,35.92418,0.0],[-79.05773,35.92415,0.0],[-79.05781,35.9241,0.0],[-79.05799,35.92396,0.0],[-79.05804,35.9239,0.0],[-79.05808,35.92384,0.0],[-79.05814,35.92378,0.0],[-79.05818,35.92372,0.0],[-79.05827,35.92362,0.0],[-79.05829,35.92357,0.0],[-79.05834,35.92353,0.0],[-79.05837,35.9235,0.0],[-79.05842,35.92345,0.0],[-79.05843,35.92343,0.0],[-79.0585,35.92337,0.0],[-79.05858,35.92329,0.0],[-79.05862,35.92323,0.0],[-79.05869,35.92316,0.0],[-79.05883,35.9231,0.0],[-79.05885,35.92309,0.0],[-79.05892,35.92305,0.0],[-79.05899,35.92302,0.0],[-79.05905,35.92298,0.0],[-79.05912,35.92296,0.0],[-79.05925,35.92291,0.0],[-79.05929,35.9229,0.0],[-79.05933,35.92288,0.0],[-79.05947,35.92285,0.0],[-79.05958,35.92283,0.0],[-79.05969,35.92279,0.0],[-79.05981,35.92276,0.0],[-79.05995,35.92272,0.0],[-79.06008,35.92265,0.0],[-79.06011,35.92265,0.0],[-79.06021,35.92261,0.0],[-79.06039,35.92254,0.0],[-79.06058,35.92248,0.0],[-79.06062,35.92246,0.0],[-79.06078,35.92241,0.0],[-79.06082,35.92241,0.0],[-79.06091,35.92238,0.0],[-79.06093,35.92237,0.0],[-79.06099,35.92235,0.0],[-79.06102,35.92233,0.0],[-79.06105,35.92231,0.0],[-79.06116,35.92226,0.0],[-79.06131,35.92219,0.0],[-79.06154,35.92201,0.0],[-79.06163,35.92196,0.0],[-79.0618,35.92189,0.0],[-79.06197,35.92182,0.0],[-79.06203,35.92179,0.0],[-79.06213,35.92176,0.0],[-79.06233,35.92166,0.0],[-79.06245,35.92161,0.0],[-79.06262,35.92152,0.0],[-79.06266,35.92149,0.0],[-79.06272,35.92144,0.0],[-79.06279,35.92139,0.0],[-79.06292,35.92128,0.0],[-79.06299,35.92123,0.0],[-79.06316,35.92113,0.0],[-79.06322,35.92108,0.0],[-79.06345,35.92096,0.0],[-79.06349,35.92094,0.0],[-79.06361,35.92088,0.0],[-79.06367,35.92085,0.0],[-79.0637,35.92084,0.0],[-79.06382,35.92075,0.0],[-79.06397,35.92064,0.0],[-79.06426,35.92052,0.0],[-79.0643,35.9205,0.0],[-79.06444,35.92039,0.0],[-79.0645,35.92034,0.0],[-79.06455,35.9203,0.0],[-79.06462,35.92024,0.0],[-79.06465,35.92022,0.0],[-79.06469,35.92019,0.0],[-79.0648,35.92011,0.0],[-79.06484,35.92005,0.0],[-79.0649,35.91999,0.0],[-79.06506,35.91983,0.0],[-79.06516,35.91971,0.0],[-79.06518,35.91967,0.0],[-79.06526,35.91957,0.0],[-79.06528,35.91955,0.0],[-79.06534,35.91946,0.0],[-79.06545,35.91927,0.0],[-79.06546,35.91925,0.0],[-79.0655,35.91918,0.0],[-79.06554,35.91914,0.0],[-79.0656,35.91906,0.0],[-79.0657,35.91897,0.0],[-79.06599,35.91876,0.0],[-79.06609,35.91868,0.0],[-79.06618,35.91859,0.0],[-79.06623,35.91852,0.0],[-79.06628,35.91846,0.0],[-79.06633,35.9184,0.0],[-79.06637,35.91833,0.0],[-79.06639,35.91828,0.0],[-79.06645,35.91821,0.0],[-79.06647,35.91819,0.0],[-79.06649,35.91817,0.0],[-79.06651,35.91815,0.0],[-79.06653,35.91807,0.0],[-79.06655,35.918,0.0],[-79.06656,35.91796,0.0],[-79.06657,35.91791,0.0],[-79.06659,35.91786,0.0],[-79.06663,35.9178,0.0],[-79.06666,35.91776,0.0],[-79.0667,35.91772,0.0],[-79.06673,35.91768,0.0],[-79.06684,35.91753,0.0],[-79.06689,35.91748,0.0],[-79.06692,35.91746,0.0],[-79.06699,35.91741,0.0],[-79.06704,35.91735,0.0],[-79.06705,35.91732,0.0],[-79.06719,35.91711,0.0],[-79.06726,35.91704,0.0],[-79.06732,35.91694,0.0],[-79.06736,35.91689,0.0],[-79.06742,35.91679,0.0],[-79.06745,35.91672,0.0],[-79.06751,35.91661,0.0],[-79.06757,35.91654,0.0],[-79.06759,35.91651,0.0],[-79.06767,35.91645,0.0],[-79.06779,35.91633,0.0],[-79.06797,35.91618,0.0],[-79.06799,35.91615,0.0],[-79.06806,35.91666,0.0],[-79.06866,35.91661,0.0],[-79.06876,35.91704,0.0],[-79.06837,35.91757,0.0],[-79.06819,35.91775,0.0],[-79.06797,35.91801,0.0],[-79.06781,35.91822,0.0],[-79.06777,35.91843,0.0],[-79.06775,35.9187,0.0],[-79.06775,35.91891,0.0],[-79.06787,35.91913,0.0],[-79.06793,35.91931,0.0],[-79.06803,35.91953,0.0],[-79.06825,35.91978,0.0],[-79.06842,35.91995,0.0],[-79.0688,35.9203,0.0],[-79.06933,35.9208,0.0],[-79.06971,35.92117,0.0],[-79.07087,35.92232,0.0],[-79.07157,35.92287,0.0],[-79.07166,35.92294,0.0],[-79.07296,35.92436,0.0],[-79.07367,35.9252,0.0],[-79.07382,35.92536,0.0],[-79.07384,35.92539,0.0],[-79.0739,35.92561,0.0],[-79.07392,35.92573,0.0],[-79.07394,35.92591,0.0],[-79.07395,35.92634,0.0],[-79.07384,35.92848,0.0],[-79.07384,35.92933,0.0],[-79.07394,35.92997,0.0],[-79.07421,35.93032,0.0],[-79.07439,35.93075,0.0],[-79.07452,35.93107,0.0],[-79.07457,35.93169,0.0],[-79.07525,35.93229,0.0],[-79.07549,35.93268,0.0],[-79.07566,35.93299,0.0],[-79.07586,35.93355,0.0],[-79.07602,35.93404,0.0],[-79.07605,35.93422,0.0],[-79.07607,35.93436,0.0],[-79.07622,35.9347,0.0],[-79.0762,35.93525,0.0],[-79.07622,35.93573,0.0],[-79.07628,35.93618,0.0],[-79.07631,35.93751,0.0],[-79.07625,35.93832,0.0],[-79.07632,35.93949,0.0],[-79.07631,35.94067,0.0],[-79.07619,35.94124,0.0],[-79.07597,35.94175,0.0],[-79.07576,35.94214,0.0],[-79.07544,35.94279,0.0],[-79.07479,35.94366,0.0],[-79.07366,35.94469,0.0],[-79.07291,35.94543,0.0],[-79.07232,35.94603,0.0],[-79.07209,35.94632,0.0],[-79.07192,35.94654,0.0],[-79.07177,35.94686,0.0],[-79.07177,35.94724,0.0],[-79.07177,35.94725,0.0],[-79.07183,35.94758,0.0],[-79.07188,35.94818,0.0],[-79.07198,35.94874,0.0],[-79.07209,35.94913,0.0],[-79.07214,35.94944,0.0],[-79.07214,35.95009,0.0],[-79.0722,35.95052,0.0],[-79.07209,35.95099,0.0],[-79.07203,35.95138,0.0],[-79.07188,35.95182,0.0],[-79.06724,35.95162,0.0],[-79.06708,35.95162,0.0],[-79.06608,35.95158,0.0],[-79.06505,35.95151,0.0],[-79.06385,35.95134,0.0],[-79.06263,35.95114,0.0],[-79.06209,35.95105,0.0],[-79.06158,35.95087,0.0],[-79.06112,35.95066,0.0],[-79.06103,35.95062,0.0],[-79.05988,35.9501,0.0],[-79.05905,35.94972,0.0],[-79.05837,35.94943,0.0]]]]}},{"type":"Feature","properties":{"uesi_id":"USA_R179860","nbhd_code":"USA_R179860_2","nbhd_name":"37135011500"},"geometry":{"type":"MultiPolygon","coordinates":[[[[-79.04022,35.9014,0.0],[-79.04026,35.90141,0.0],[-79.04033,35.90148,0.0],[-79.04035,35.9015,0.0],[-79.04037,35.90153,0.0],[-79.04039,35.90155,0.0],[-79.04045,35.90164,0.0],[-79.04049,35.90172,0.0],[-79.04053,35.90176,0.0],[-79.0406,35.9019,0.0],[-79.0407,35.90206,0.0],[-79.04075,35.90214,0.0],[-79.04078,35.90222,0.0],[-79.04089,35.9024,0.0],[-79.0409,35.90248,0.0],[-79.0409,35.90252,0.0],[-79.04093,35.90259,0.0],[-79.04096,35.90265,0.0],[-79.04096,35.90272,0.0],[-79.04095,35.9028,0.0],[-79.04093,35.90284,0.0],[-79.04091,35.90286,0.0],[-79.04089,35.90291,0.0],[-79.04088,35.90294,0.0],[-79.04088,35.90301,0.0],[-79.04087,35.90304,0.0],[-79.04087,35.90308,0.0],[-79.04082,35.90332,0.0],[-79.04082,35.90335,0.0],[-79.0408,35.90343,0.0],[-79.04078,35.90349,0.0],[-79.04074,35.90359,0.0],[-79.04073,35.90361,0.0],[-79.04069,35.90367,0.0],[-79.04057,35.90382,0.0],[-79.04052,35.90392,0.0],[-79.04047,35.904,0.0],[-79.04038,35.90424,0.0],[-79.04037,35.90429,0.0],[-79.04037,35.90437,0.0],[-79.04039,35.90442,0.0],[-79.04043,35.90456,0.0],[-79.04047,35.90465,0.0],[-79.04053,35.90474,0.0],[-79.04057,35.90478,0.0],[-79.0406,35.90482,0.0],[-79.04072,35.90492,0.0],[-79.04081,35.90503,0.0],[-79.04084,35.90507,0.0],[-79.04086,35.90509,0.0],[-79.0409,35.90511,0.0],[-79.04142,35.90615,0.0],[-79.04155,35.90689,0.0],[-79.04156,35.90743,0.0],[-79.04151,35.90852,0.0],[-79.04148,35.90893,0.0],[-79.04144,35.90914,0.0],[-79.04141,35.90933,0.0],[-79.04139,35.90973,0.0],[-79.04139,35.90996,0.0],[-79.04134,35.91017,0.0],[-79.0412,35.91049,0.0],[-79.04174,35.91092,0.0],[-79.0426,35.91174,0.0],[-79.04331,35.91225,0.0],[-79.04396,35.9126,0.0],[-79.04443,35.91285,0.0],[-79.04475,35.91297,0.0],[-79.04508,35.91308,0.0],[-79.04534,35.91317,0.0],[-79.04574,35.91328,0.0],[-79.04606,35.91336,0.0],[-79.04624,35.91338,0.0],[-79.04653,35.91343,0.0],[-79.04659,35.91358,0.0],[-79.04707,35.91439,0.0],[-79.04737,35.91492,0.0],[-79.04754,35.91523,0.0],[-79.04795,35.91593,0.0],[-79.04805,35.91611,0.0],[-79.04587,35.91694,0.0],[-79.04527,35.91719,0.0],[-79.04514,35.91723,0.0],[-79.045,35.91724,0.0],[-79.04491,35.91723,0.0],[-79.0448,35.91721,0.0],[-79.04461,35.91714,0.0],[-79.04449,35.9171,0.0],[-79.04371,35.91685,0.0],[-79.04339,35.91681,0.0],[-79.0432,35.91681,0.0],[-79.04297,35.91683,0.0],[-79.04268,35.91686,0.0],[-79.0423,35.91696,0.0],[-79.04172,35.91721,0.0],[-79.04106,35.91752,0.0],[-79.04101,35.91755,0.0],[-79.04032,35.918,0.0],[-79.04003,35.91825,0.0],[-79.03969,35.91854,0.0],[-79.0391,35.91902,0.0],[-79.03896,35.91914,0.0],[-79.03886,35.91927,0.0],[-79.03879,35.91946,0.0],[-79.03877,35.9196,0.0],[-79.03876,35.91973,0.0],[-79.03886,35.92024,0.0],[-79.0389,35.9205,0.0],[-79.0389,35.92072,0.0],[-79.03885,35.92095,0.0],[-79.03874,35.92134,0.0],[-79.03871,35.92149,0.0],[-79.0387,35.92177,0.0],[-79.03874,35.9222,0.0],[-79.03878,35.92255,0.0],[-79.03878,35.92258,0.0],[-79.03877,35.92273,0.0],[-79.03857,35.92348,0.0],[-79.03841,35.92397,0.0],[-79.03823,35.92433,0.0],[-79.03808,35.92454,0.0],[-79.03796,35.92469,0.0],[-79.0375,35.92522,0.0],[-79.03699,35.92574,0.0],[-79.03569,35.92697,0.0],[-79.03565,35.92702,0.0],[-79.0354,35.92733,0.0],[-79.03513,35.92766,0.0],[-79.03507,35.92774,0.0],[-79.03489,35.92801,0.0],[-79.03465,35.92848,0.0],[-79.0345,35.92883,0.0],[-79.03429,35.92928,0.0],[-79.0337,35.92888,0.0],[-79.0332,35.92852,0.0],[-79.03281,35.92821,0.0],[-79.03252,35.92805,0.0],[-79.03212,35.92791,0.0],[-79.03168,35.9278,0.0],[-79.03113,35.9277,0.0],[-79.03059,35.92765,0.0],[-79.03025,35.9276,0.0],[-79.03018,35.92759,0.0],[-79.02984,35.92742,0.0],[-79.02813,35.92647,0.0],[-79.02719,35.92594,0.0],[-79.02666,35.9256,0.0],[-79.02635,35.92544,0.0],[-79.02597,35.92528,0.0],[-79.0255,35.92518,0.0],[-79.02498,35.92509,0.0],[-79.02479,35.92504,0.0],[-79.02488,35.92458,0.0],[-79.02537,35.92222,0.0],[-79.02558,35.92122,0.0],[-79.02568,35.92069,0.0],[-79.02608,35.91862,0.0],[-79.02613,35.91833,0.0],[-79.02613,35.91831,0.0],[-79.02617,35.91806,0.0],[-79.0262,35.91774,0.0],[-79.02626,35.91631,0.0],[-79.02631,35.91519,0.0],[-79.02637,35.91229,0.0],[-79.0264,35.91168,0.0],[-79.02648,35.91087,0.0],[-79.02663,35.91015,0.0],[-79.02678,35.90957,0.0],[-79.02705,35.90881,0.0],[-79.02707,35.90876,0.0],[-79.02709,35.90871,0.0],[-79.02746,35.90798,0.0],[-79.02762,35.9077,0.0],[-79.02769,35.90756,0.0],[-79.02797,35.90711,0.0],[-79.02842,35.9065,0.0],[-79.02892,35.90587,0.0],[-79.02907,35.90569,0.0],[-79.02926,35.90546,0.0],[-79.03272,35.90141,0.0],[-79.03353,35.90045,0.0],[-79.03431,35.89963,0.0],[-79.03485,35.89921,0.0],[-79.03537,35.89886,0.0],[-79.03553,35.89891,0.0],[-79.03559,35.89893,0.0],[-79.03569,35.89895,0.0],[-79.03573,35.89897,0.0],[-79.03585,35.89904,0.0],[-79.03588,35.89905,0.0],[-79.03592,35.89908,0.0],[-79.03597,35.8991,0.0],[-79.036,35.89913,0.0],[-79.03608,35.89917,0.0],[-79.03613,35.89919,0.0],[-79.03617,35.89921,0.0],[-79.0363,35.89932,0.0],[-79.03676,35.89965,0.0],[-79.03689,35.89975,0.0],[-79.03692,35.89979,0.0],[-79.03693,35.89981,0.0],[-79.03699,35.89987,0.0],[-79.03707,35.89994,0.0],[-79.03709,35.89995,0.0],[-79.03717,35.9,0.0],[-79.03729,35.90004,0.0],[-79.03733,35.90006,0.0],[-79.0374,35.90009,0.0],[-79.03746,35.90013,0.0],[-79.03748,35.90014,0.0],[-79.03752,35.90019,0.0],[-79.03757,35.90024,0.0],[-79.03761,35.90025,0.0],[-79.03768,35.90028,0.0],[-79.0379,35.90037,0.0],[-79.03794,35.90039,0.0],[-79.03798,35.90041,0.0],[-79.03806,35.90045,0.0],[-79.03813,35.90049,0.0],[-79.0382,35.90055,0.0],[-79.03831,35.90061,0.0],[-79.03846,35.90068,0.0],[-79.0385,35.90069,0.0],[-79.03853,35.90071,0.0],[-79.03856,35.90071,0.0],[-79.03865,35.90079,0.0],[-79.0387,35.90083,0.0],[-79.03879,35.90089,0.0],[-79.03881,35.9009,0.0],[-79.03891,35.90096,0.0],[-79.03901,35.90101,0.0],[-79.03907,35.90105,0.0],[-79.03925,35.90113,0.0],[-79.03935,35.90119,0.0],[-79.03938,35.90122,0.0],[-79.03969,35.90133,0.0],[-79.03972,35.90133,0.0],[-79.03981,35.90135,0.0],[-79.03987,35.90136,0.0],[-79.03991,35.90136,0.0],[-79.04007,35.90138,0.0],[-79.04018,35.9014,0.0],[-79.04022,35.9014,0.0]]]]}},{"type":"Feature","properties":{"uesi_id":"USA_R179860","nbhd_code":"USA_R179860_3","nbhd_name":"37135010703"},"geometry":{"type":"MultiPolygon","coordinates":[[[[-79.07479,35.90166,0.0],[-79.07483,35.90167,0.0],[-79.07521,35.9018,0.0],[-79.07632,35.90217,0.0],[-79.07741,35.90255,0.0],[-79.07748,35.90257,0.0],[-79.07771,35.90262,0.0],[-79.07782,35.90265,0.0],[-79.0785,35.90284,0.0],[-79.07882,35.9029,0.0],[-79.07887,35.9029,0.0],[-79.07932,35.90295,0.0],[-79.08011,35.90305,0.0],[-79.08083,35.90311,0.0],[-79.08135,35.90319,0.0],[-79.08171,35.90323,0.0],[-79.0824,35.90333,0.0],[-79.08271,35.90338,0.0],[-79.08298,35.90343,0.0],[-79.08303,35.90344,0.0],[-79.08331,35.90352,0.0],[-79.08364,35.90364,0.0],[-79.08399,35.9038,0.0],[-79.08421,35.90391,0.0],[-79.08433,35.90396,0.0],[-79.08472,35.90417,0.0],[-79.085,35.90435,0.0],[-79.0851,35.90442,0.0],[-79.08543,35.90467,0.0],[-79.08577,35.90492,0.0],[-79.08607,35.90521,0.0],[-79.08637,35.90553,0.0],[-79.08656,35.90572,0.0],[-79.08741,35.90546,0.0],[-79.08798,35.90528,0.0],[-79.08825,35.90519,0.0],[-79.08832,35.90517,0.0],[-79.08857,35.90507,0.0],[-79.08886,35.90495,0.0],[-79.08921,35.90479,0.0],[-79.0895,35.90464,0.0],[-79.09056,35.90405,0.0],[-79.09072,35.90395,0.0],[-79.09092,35.90385,0.0],[-79.09109,35.90378,0.0],[-79.09115,35.90375,0.0],[-79.09152,35.90491,0.0],[-79.09186,35.90595,0.0],[-79.09301,35.90946,0.0],[-79.09357,35.91108,0.0],[-79.0936,35.91119,0.0],[-79.09367,35.91138,0.0],[-79.09373,35.91152,0.0],[-79.09381,35.9117,0.0],[-79.09393,35.9119,0.0],[-79.09408,35.91212,0.0],[-79.09423,35.9123,0.0],[-79.09483,35.91305,0.0],[-79.09564,35.91416,0.0],[-79.09697,35.91598,0.0],[-79.09724,35.91634,0.0],[-79.0977,35.91701,0.0],[-79.09891,35.91879,0.0],[-79.09899,35.9189,0.0],[-79.09921,35.9193,0.0],[-79.09758,35.91886,0.0],[-79.09607,35.91839,0.0],[-79.09537,35.91815,0.0],[-79.09527,35.91821,0.0],[-79.0949,35.91809,0.0],[-79.09435,35.91789,0.0],[-79.09405,35.9178,0.0],[-79.09395,35.91781,0.0],[-79.09381,35.91781,0.0],[-79.09363,35.9178,0.0],[-79.09343,35.91775,0.0],[-79.09335,35.91772,0.0],[-79.09318,35.91767,0.0],[-79.09287,35.91759,0.0],[-79.09199,35.91734,0.0],[-79.09131,35.91715,0.0],[-79.09094,35.91704,0.0],[-79.0907,35.91697,0.0],[-79.09046,35.9169,0.0],[-79.09003,35.91677,0.0],[-79.08922,35.91654,0.0],[-79.08876,35.91641,0.0],[-79.08829,35.91628,0.0],[-79.0871,35.91595,0.0],[-79.08666,35.91583,0.0],[-79.08495,35.91535,0.0],[-79.08442,35.91521,0.0],[-79.08236,35.91463,0.0],[-79.08193,35.91452,0.0],[-79.08153,35.91439,0.0],[-79.08109,35.91424,0.0],[-79.08062,35.91406,0.0],[-79.08025,35.91391,0.0],[-79.07988,35.91374,0.0],[-79.07958,35.91359,0.0],[-79.07886,35.91314,0.0],[-79.07842,35.91281,0.0],[-79.07813,35.91257,0.0],[-79.07783,35.91233,0.0],[-79.07744,35.91199,0.0],[-79.0772,35.9118,0.0],[-79.07703,35.91164,0.0],[-79.07657,35.91122,0.0],[-79.07636,35.91103,0.0],[-79.07574,35.91038,0.0],[-79.07567,35.91031,0.0],[-79.07557,35.91023,0.0],[-79.07545,35.91016,0.0],[-79.07531,35.91008,0.0],[-79.07515,35.91002,0.0],[-79.07508,35.90999,0.0],[-79.07506,35.90998,0.0],[-79.07415,35.91007,0.0],[-79.07227,35.9103,0.0],[-79.07227,35.91012,0.0],[-79.07229,35.90964,0.0],[-79.0723,35.90935,0.0],[-79.07231,35.90908,0.0],[-79.07234,35.90869,0.0],[-79.07236,35.90842,0.0],[-79.0724,35.90657,0.0],[-79.07243,35.90586,0.0],[-79.07245,35.90492,0.0],[-79.07244,35.90368,0.0],[-79.07245,35.90345,0.0],[-79.07246,35.90327,0.0],[-79.07248,35.90316,0.0],[-79.07251,35.90298,0.0],[-79.07252,35.90292,0.0],[-79.0726,35.90263,0.0],[-79.07269,35.90237,0.0],[-79.07278,35.90214,0.0],[-79.07281,35.90209,0.0],[-79.07286,35.90198,0.0],[-79.073,35.90176,0.0],[-79.07307,35.90165,0.0],[-79.07308,35.90156,0.0],[-79.07318,35.90141,0.0],[-79.07328,35.90127,0.0],[-79.07332,35.90122,0.0],[-79.07333,35.90115,0.0],[-79.07391,35.90135,0.0],[-79.07408,35.9014,0.0],[-79.07479,35.90166,0.0]]]]}},{"type":"Feature","properties":{"uesi_id":"USA_R179860","nbhd_code":"USA_R179860_4","nbhd_name":"37135011300"},"geometry":{"type":"MultiPolygon","coordinates":[[[[-79.05628,35.91908,0.0],[-79.05632,35.91888,0.0],[-79.05649,35.91796,0.0],[-79.05663,35.91718,0.0],[-79.05697,35.91519,0.0],[-79.05663,35.91459,0.0],[-79.05633,35.91405,0.0],[-79.0576,35.91357,0.0],[-79.05831,35.9133,0.0],[-79.05866,35.91317,0.0],[-79.05959,35.91282,0.0],[-79.06029,35.91255,0.0],[-79.06056,35.91245,0.0],[-79.06117,35.91221,0.0],[-79.06148,35.91208,0.0],[-79.06243,35.91171,0.0],[-79.06269,35.9116,0.0],[-79.06376,35.91119,0.0],[-79.06403,35.91117,0.0],[-79.06493,35.91109,0.0],[-79.06528,35.91105,0.0],[-79.0658,35.91101,0.0],[-79.06585,35.911,0.0],[-79.0658,35.91159,0.0],[-79.06618,35.91158,0.0],[-79.06626,35.91206,0.0],[-79.06654,35.91204,0.0],[-79.06655,35.9123,0.0],[-79.06655,35.91266,0.0],[-79.06684,35.91267,0.0],[-79.06709,35.91367,0.0],[-79.0676,35.91362,0.0],[-79.06768,35.9141,0.0],[-79.06772,35.91441,0.0],[-79.06785,35.91525,0.0],[-79.06799,35.91615,0.0],[-79.06797,35.91618,0.0],[-79.06779,35.91633,0.0],[-79.06767,35.91645,0.0],[-79.06759,35.91651,0.0],[-79.06757,35.91654,0.0],[-79.06751,35.91661,0.0],[-79.06745,35.91672,0.0],[-79.06742,35.91679,0.0],[-79.06736,35.91689,0.0],[-79.06732,35.91694,0.0],[-79.06726,35.91704,0.0],[-79.06719,35.91711,0.0],[-79.06705,35.91732,0.0],[-79.06704,35.91735,0.0],[-79.06699,35.91741,0.0],[-79.06692,35.91746,0.0],[-79.06689,35.91748,0.0],[-79.06684,35.91753,0.0],[-79.06673,35.91768,0.0],[-79.0667,35.91772,0.0],[-79.06666,35.91776,0.0],[-79.06663,35.9178,0.0],[-79.06659,35.91786,0.0],[-79.06657,35.91791,0.0],[-79.06656,35.91796,0.0],[-79.06655,35.918,0.0],[-79.06653,35.91807,0.0],[-79.06651,35.91815,0.0],[-79.06649,35.91817,0.0],[-79.06647,35.91819,0.0],[-79.06645,35.91821,0.0],[-79.06639,35.91828,0.0],[-79.06637,35.91833,0.0],[-79.06633,35.9184,0.0],[-79.06628,35.91846,0.0],[-79.06623,35.91852,0.0],[-79.06618,35.91859,0.0],[-79.06609,35.91868,0.0],[-79.06599,35.91876,0.0],[-79.0657,35.91897,0.0],[-79.0656,35.91906,0.0],[-79.06554,35.91914,0.0],[-79.0655,35.91918,0.0],[-79.06546,35.91925,0.0],[-79.06545,35.91927,0.0],[-79.06534,35.91946,0.0],[-79.06528,35.91955,0.0],[-79.06526,35.91957,0.0],[-79.06518,35.91967,0.0],[-79.06516,35.91971,0.0],[-79.06506,35.91983,0.0],[-79.0649,35.91999,0.0],[-79.06484,35.92005,0.0],[-79.0648,35.92011,0.0],[-79.06469,35.92019,0.0],[-79.06465,35.92022,0.0],[-79.06462,35.92024,0.0],[-79.06455,35.9203,0.0],[-79.0645,35.92034,0.0],[-79.06444,35.92039,0.0],[-79.0643,35.9205,0.0],[-79.06426,35.92052,0.0],[-79.06397,35.92064,0.0],[-79.06382,35.92075,0.0],[-79.0637,35.92084,0.0],[-79.06367,35.92085,0.0],[-79.06361,35.92088,0.0],[-79.06349,35.92094,0.0],[-79.06345,35.92096,0.0],[-79.06322,35.92108,0.0],[-79.06316,35.92113,0.0],[-79.06299,35.92123,0.0],[-79.06292,35.92128,0.0],[-79.06279,35.92139,0.0],[-79.06272,35.92144,0.0],[-79.06266,35.92149,0.0],[-79.06262,35.92152,0.0],[-79.06245,35.92161,0.0],[-79.06233,35.92166,0.0],[-79.06213,35.92176,0.0],[-79.06203,35.92179,0.0],[-79.06197,35.92182,0.0],[-79.0618,35.92189,0.0],[-79.06163,35.92196,0.0],[-79.06154,35.92201,0.0],[-79.06131,35.92219,0.0],[-79.06116,35.92226,0.0],[-79.06105,35.92231,0.0],[-79.06102,35.92233,0.0],[-79.06099,35.92235,0.0],[-79.06093,35.92237,0.0],[-79.06091,35.92238,0.0],[-79.06082,35.92241,0.0],[-79.06078,35.92241,0.0],[-79.06062,35.92246,0.0],[-79.06058,35.92248,0.0],[-79.06039,35.92254,0.0],[-79.06021,35.92261,0.0],[-79.06011,35.92265,0.0],[-79.06008,35.92265,0.0],[-79.05995,35.92272,0.0],[-79.05981,35.92276,0.0],[-79.05969,35.92279,0.0],[-79.05958,35.92283,0.0],[-79.05947,35.92285,0.0],[-79.05933,35.92288,0.0],[-79.05929,35.9229,0.0],[-79.05925,35.92291,0.0],[-79.05912,35.92296,0.0],[-79.05905,35.92298,0.0],[-79.05899,35.92302,0.0],[-79.05892,35.92305,0.0],[-79.05885,35.92309,0.0],[-79.05883,35.9231,0.0],[-79.05869,35.92316,0.0],[-79.05862,35.92323,0.0],[-79.05858,35.92329,0.0],[-79.0585,35.92337,0.0],[-79.05843,35.92343,0.0],[-79.05842,35.92345,0.0],[-79.05837,35.9235,0.0],[-79.05834,35.92353,0.0],[-79.05829,35.92357,0.0],[-79.05827,35.92362,0.0],[-79.05818,35.92372,0.0],[-79.05814,35.92378,0.0],[-79.05808,35.92384,0.0],[-79.05804,35.9239,0.0],[-79.05799,35.92396,0.0],[-79.05781,35.9241,0.0],[-79.05773,35.92415,0.0],[-79.05769,35.92418,0.0],[-79.05756,35.92423,0.0],[-79.05749,35.92426,0.0],[-79.05746,35.92428,0.0],[-79.0573,35.92436,0.0],[-79.05713,35.92451,0.0],[-79.05704,35.9246,0.0],[-79.057,35.92463,0.0],[-79.05698,35.92466,0.0],[-79.05692,35.92472,0.0],[-79.05682,35.9248,0.0],[-79.05672,35.92489,0.0],[-79.05661,35.92497,0.0],[-79.0565,35.92504,0.0],[-79.05648,35.92506,0.0],[-79.05644,35.92509,0.0],[-79.05629,35.92517,0.0],[-79.05622,35.92521,0.0],[-79.05615,35.92525,0.0],[-79.05608,35.92531,0.0],[-79.05602,35.92537,0.0],[-79.05593,35.92544,0.0],[-79.05588,35.92546,0.0],[-79.05584,35.92549,0.0],[-79.05578,35.92552,0.0],[-79.05574,35.92553,0.0],[-79.05569,35.92555,0.0],[-79.05548,35.92562,0.0],[-79.05544,35.92563,0.0],[-79.05538,35.92563,0.0],[-79.05533,35.92567,0.0],[-79.05526,35.92568,0.0],[-79.0552,35.92569,0.0],[-79.05506,35.92569,0.0],[-79.05481,35.92571,0.0],[-79.05476,35.9257,0.0],[-79.05471,35.9257,0.0],[-79.05461,35.92571,0.0],[-79.05442,35.92571,0.0],[-79.05437,35.92572,0.0],[-79.05431,35.92572,0.0],[-79.05425,35.92571,0.0],[-79.05415,35.92571,0.0],[-79.05408,35.92571,0.0],[-79.05397,35.92571,0.0],[-79.05394,35.92571,0.0],[-79.05395,35.92558,0.0],[-79.0541,35.92508,0.0],[-79.05423,35.92471,0.0],[-79.05462,35.9239,0.0],[-79.05506,35.92296,0.0],[-79.05531,35.92245,0.0],[-79.05569,35.92158,0.0],[-79.05587,35.92115,0.0],[-79.05592,35.92098,0.0],[-79.05608,35.92021,0.0],[-79.05613,35.91991,0.0],[-79.05615,35.91981,0.0],[-79.05628,35.91908,0.0]]]]}},{"type":"Feature","properties":{"uesi_id":"USA_R179860","nbhd_code":"USA_R179860_5","nbhd_name":"37135012100"},"geometry":{"type":"MultiPolygon","coordinates":[[[[-79.0087,35.90797,0.0],[-79.00871,35.90789,0.0],[-79.00872,35.90785,0.0],[-79.00874,35.90774,0.0],[-79.00874,35.9077,0.0],[-79.00874,35.90769,0.0],[-79.00875,35.90766,0.0],[-79.00875,35.90763,0.0],[-79.00875,35.90762,0.0],[-79.00876,35.9076,0.0],[-79.00876,35.90759,0.0],[-79.00876,35.90759,0.0],[-79.00876,35.90758,0.0],[-79.00876,35.90755,0.0],[-79.0088,35.90728,0.0],[-79.00889,35.90669,0.0],[-79.00898,35.9061,0.0],[-79.00901,35.90593,0.0],[-79.00902,35.90588,0.0],[-79.00903,35.90582,0.0],[-79.00903,35.90582,0.0],[-79.00904,35.90574,0.0],[-79.00908,35.90548,0.0],[-79.00912,35.90523,0.0],[-79.00917,35.90487,0.0],[-79.00919,35.90473,0.0],[-79.0092,35.90471,0.0],[-79.0092,35.90468,0.0],[-79.0092,35.90467,0.0],[-79.0092,35.90466,0.0],[-79.0092,35.90466,0.0],[-79.0092,35.90466,0.0],[-79.00923,35.90451,0.0],[-79.00923,35.9045,0.0],[-79.00923,35.90447,0.0],[-79.00939,35.90345,0.0],[-79.00955,35.9024,0.0],[-79.00956,35.90234,0.0],[-79.00957,35.90228,0.0],[-79.00958,35.90218,0.0],[-79.00962,35.9022,0.0],[-79.01061,35.90269,0.0],[-79.01107,35.90289,0.0],[-79.01892,35.90624,0.0],[-79.02092,35.90711,0.0],[-79.02199,35.90752,0.0],[-79.02201,35.90753,0.0],[-79.02306,35.9078,0.0],[-79.02383,35.908,0.0],[-79.02451,35.90814,0.0],[-79.02596,35.90846,0.0],[-79.02638,35.90855,0.0],[-79.02661,35.9086,0.0],[-79.02709,35.90871,0.0],[-79.02707,35.90876,0.0],[-79.02705,35.90881,0.0],[-79.02678,35.90957,0.0],[-79.02663,35.91015,0.0],[-79.02648,35.91087,0.0],[-79.0264,35.91168,0.0],[-79.02637,35.91229,0.0],[-79.02631,35.91519,0.0],[-79.02626,35.91631,0.0],[-79.0262,35.91774,0.0],[-79.02617,35.91806,0.0],[-79.02613,35.91831,0.0],[-79.02613,35.91833,0.0],[-79.02608,35.91862,0.0],[-79.02568,35.92069,0.0],[-79.02558,35.92122,0.0],[-79.02537,35.92222,0.0],[-79.02488,35.92458,0.0],[-79.02479,35.92504,0.0],[-79.02498,35.92509,0.0],[-79.0255,35.92518,0.0],[-79.02597,35.92528,0.0],[-79.02635,35.92544,0.0],[-79.02666,35.9256,0.0],[-79.02719,35.92594,0.0],[-79.02813,35.92647,0.0],[-79.02984,35.92742,0.0],[-79.03018,35.92759,0.0],[-79.03025,35.9276,0.0],[-79.03059,35.92765,0.0],[-79.03113,35.9277,0.0],[-79.03168,35.9278,0.0],[-79.03212,35.92791,0.0],[-79.03252,35.92805,0.0],[-79.03281,35.92821,0.0],[-79.0332,35.92852,0.0],[-79.0337,35.92888,0.0],[-79.03429,35.92928,0.0],[-79.03388,35.93024,0.0],[-79.03363,35.93068,0.0],[-79.03344,35.9309,0.0],[-79.03314,35.93126,0.0],[-79.03147,35.93296,0.0],[-79.0302,35.93426,0.0],[-79.02945,35.93503,0.0],[-79.02705,35.93632,0.0],[-79.02655,35.93659,0.0],[-79.02628,35.9367,0.0],[-79.02578,35.93702,0.0],[-79.0256,35.93714,0.0],[-79.02516,35.93743,0.0],[-79.02402,35.93814,0.0],[-79.02338,35.93859,0.0],[-79.02329,35.93863,0.0],[-79.02191,35.93952,0.0],[-79.01823,35.94196,0.0],[-79.01748,35.94243,0.0],[-79.01671,35.94283,0.0],[-79.01477,35.94366,0.0],[-79.01371,35.94415,0.0],[-79.01265,35.94463,0.0],[-79.01053,35.9456,0.0],[-79.00714,35.94712,0.0],[-79.00259,35.94919,0.0],[-79.00174,35.94955,0.0],[-79.00175,35.94948,0.0],[-79.00177,35.94925,0.0],[-79.0018,35.94903,0.0],[-79.0018,35.94901,0.0],[-79.0018,35.94899,0.0],[-79.0018,35.94899,0.0],[-79.0018,35.94898,0.0],[-79.00187,35.94792,0.0],[-79.00187,35.94788,0.0],[-79.00193,35.94744,0.0],[-79.00198,35.94711,0.0],[-79.00201,35.94694,0.0],[-79.00203,35.94685,0.0],[-79.00203,35.94683,0.0],[-79.00205,35.9467,0.0],[-79.00213,35.94608,0.0],[-79.00214,35.94605,0.0],[-79.00214,35.94602,0.0],[-79.00213,35.94602,0.0],[-79.00213,35.946,0.0],[-79.00213,35.946,0.0],[-79.00213,35.946,0.0],[-79.00213,35.94599,0.0],[-79.00214,35.94599,0.0],[-79.00214,35.94599,0.0],[-79.00214,35.94599,0.0],[-79.00214,35.94598,0.0],[-79.00214,35.94598,0.0],[-79.00214,35.94597,0.0],[-79.00214,35.94597,0.0],[-79.00214,35.94597,0.0],[-79.00214,35.94596,0.0],[-79.00214,35.94595,0.0],[-79.00214,35.94594,0.0],[-79.00215,35.94592,0.0],[-79.00215,35.94591,0.0],[-79.00245,35.94475,0.0],[-79.00246,35.9447,0.0],[-79.00247,35.94468,0.0],[-79.00247,35.94467,0.0],[-79.00247,35.94465,0.0],[-79.00248,35.9446,0.0],[-79.00249,35.9446,0.0],[-79.00249,35.94459,0.0],[-79.0025,35.94454,0.0],[-79.00369,35.93878,0.0],[-79.00374,35.93854,0.0],[-79.00382,35.93807,0.0],[-79.00392,35.93751,0.0],[-79.00407,35.93654,0.0],[-79.00408,35.93651,0.0],[-79.00444,35.93427,0.0],[-79.00445,35.93421,0.0],[-79.00445,35.93421,0.0],[-79.00454,35.93395,0.0],[-79.00454,35.93395,0.0],[-79.00462,35.93369,0.0],[-79.00467,35.9334,0.0],[-79.00467,35.93337,0.0],[-79.00467,35.93336,0.0],[-79.00471,35.93317,0.0],[-79.00475,35.93287,0.0],[-79.00476,35.93286,0.0],[-79.00493,35.9318,0.0],[-79.00494,35.9318,0.0],[-79.00502,35.93128,0.0],[-79.00511,35.93073,0.0],[-79.00511,35.9307,0.0],[-79.00524,35.92989,0.0],[-79.00525,35.92983,0.0],[-79.00541,35.92885,0.0],[-79.0055,35.92828,0.0],[-79.00579,35.92654,0.0],[-79.00583,35.9263,0.0],[-79.00615,35.92428,0.0],[-79.00637,35.92294,0.0],[-79.00637,35.92293,0.0],[-79.0065,35.92214,0.0],[-79.0065,35.92212,0.0],[-79.0065,35.92211,0.0],[-79.00651,35.92209,0.0],[-79.00652,35.92201,0.0],[-79.00652,35.922,0.0],[-79.00652,35.922,0.0],[-79.00652,35.92199,0.0],[-79.00652,35.92199,0.0],[-79.00652,35.92199,0.0],[-79.00652,35.92199,0.0],[-79.00653,35.92197,0.0],[-79.00653,35.92194,0.0],[-79.00655,35.92182,0.0],[-79.00659,35.92156,0.0],[-79.00667,35.92106,0.0],[-79.00679,35.92034,0.0],[-79.00681,35.9202,0.0],[-79.00682,35.92018,0.0],[-79.00682,35.92016,0.0],[-79.00682,35.92015,0.0],[-79.00682,35.92015,0.0],[-79.00682,35.92013,0.0],[-79.00683,35.92006,0.0],[-79.00684,35.92004,0.0],[-79.00687,35.91988,0.0],[-79.00728,35.91732,0.0],[-79.00735,35.91683,0.0],[-79.00743,35.91635,0.0],[-79.00778,35.91403,0.0],[-79.00813,35.9117,0.0],[-79.00826,35.91085,0.0],[-79.00839,35.91,0.0],[-79.00861,35.90856,0.0],[-79.00868,35.90812,0.0],[-79.00869,35.90805,0.0],[-79.0087,35.90797,0.0]]]]}},{"type":"Feature","properties":{"uesi_id":"USA_R179860","nbhd_code":"USA_R179860_6","nbhd_name":"37135011400"},"geometry":{"type":"MultiPolygon","coordinates":[[[[-79.05387,35.92665,0.0],[-79.05388,35.92686,0.0],[-79.05389,35.92706,0.0],[-79.05399,35.92751,0.0],[-79.05402,35.92761,0.0],[-79.05429,35.92831,0.0],[-79.05433,35.9284,0.0],[-79.05445,35.92878,0.0],[-79.05489,35.93012,0.0],[-79.055,35.93047,0.0],[-79.05543,35.93167,0.0],[-79.05555,35.9323,0.0],[-79.05576,35.93339,0.0],[-79.05584,35.93376,0.0],[-79.05613,35.9352,0.0],[-79.05172,35.93518,0.0],[-79.05076,35.93518,0.0],[-79.04919,35.93517,0.0],[-79.0479,35.93516,0.0],[-79.04687,35.93515,0.0],[-79.04562,35.93514,0.0],[-79.04495,35.93513,0.0],[-79.04454,35.93512,0.0],[-79.0443,35.93512,0.0],[-79.044,35.93507,0.0],[-79.04372,35.93499,0.0],[-79.0435,35.93487,0.0],[-79.04322,35.93459,0.0],[-79.04264,35.93406,0.0],[-79.04237,35.93384,0.0],[-79.04211,35.93368,0.0],[-79.04114,35.93311,0.0],[-79.04031,35.93264,0.0],[-79.03975,35.93238,0.0],[-79.03907,35.93209,0.0],[-79.03888,35.93196,0.0],[-79.03866,35.9318,0.0],[-79.03811,35.93121,0.0],[-79.03758,35.93058,0.0],[-79.03745,35.93044,0.0],[-79.03727,35.93032,0.0],[-79.03702,35.93018,0.0],[-79.03686,35.93011,0.0],[-79.03664,35.93,0.0],[-79.03589,35.92976,0.0],[-79.03585,35.92975,0.0],[-79.03515,35.92954,0.0],[-79.03478,35.92945,0.0],[-79.03429,35.92928,0.0],[-79.0345,35.92883,0.0],[-79.03465,35.92848,0.0],[-79.03489,35.92801,0.0],[-79.03507,35.92774,0.0],[-79.03513,35.92766,0.0],[-79.0354,35.92733,0.0],[-79.03565,35.92702,0.0],[-79.03569,35.92697,0.0],[-79.03699,35.92574,0.0],[-79.0375,35.92522,0.0],[-79.03796,35.92469,0.0],[-79.03808,35.92454,0.0],[-79.03823,35.92433,0.0],[-79.03841,35.92397,0.0],[-79.03857,35.92348,0.0],[-79.03877,35.92273,0.0],[-79.03878,35.92258,0.0],[-79.03878,35.92255,0.0],[-79.03874,35.9222,0.0],[-79.0387,35.92177,0.0],[-79.03871,35.92149,0.0],[-79.03874,35.92134,0.0],[-79.03885,35.92095,0.0],[-79.0389,35.92072,0.0],[-79.0389,35.9205,0.0],[-79.03886,35.92024,0.0],[-79.03876,35.91973,0.0],[-79.03877,35.9196,0.0],[-79.03879,35.91946,0.0],[-79.03886,35.91927,0.0],[-79.03896,35.91914,0.0],[-79.0391,35.91902,0.0],[-79.03969,35.91854,0.0],[-79.04003,35.91825,0.0],[-79.04032,35.918,0.0],[-79.04101,35.91755,0.0],[-79.04106,35.91752,0.0],[-79.04172,35.91721,0.0],[-79.0423,35.91696,0.0],[-79.04268,35.91686,0.0],[-79.04297,35.91683,0.0],[-79.0432,35.91681,0.0],[-79.04339,35.91681,0.0],[-79.04371,35.91685,0.0],[-79.04449,35.9171,0.0],[-79.04461,35.91714,0.0],[-79.0448,35.91721,0.0],[-79.04491,35.91723,0.0],[-79.045,35.91724,0.0],[-79.04514,35.91723,0.0],[-79.04527,35.91719,0.0],[-79.04587,35.91694,0.0],[-79.04805,35.91611,0.0],[-79.04925,35.91565,0.0],[-79.05062,35.91513,0.0],[-79.05067,35.91511,0.0],[-79.05205,35.91458,0.0],[-79.05285,35.91428,0.0],[-79.05453,35.91363,0.0],[-79.0558,35.91314,0.0],[-79.05633,35.91405,0.0],[-79.05663,35.91459,0.0],[-79.05697,35.91519,0.0],[-79.05663,35.91718,0.0],[-79.05649,35.91796,0.0],[-79.05632,35.91888,0.0],[-79.05628,35.91908,0.0],[-79.05615,35.91981,0.0],[-79.05613,35.91991,0.0],[-79.05608,35.92021,0.0],[-79.05592,35.92098,0.0],[-79.05587,35.92115,0.0],[-79.05569,35.92158,0.0],[-79.05531,35.92245,0.0],[-79.05506,35.92296,0.0],[-79.05462,35.9239,0.0],[-79.05423,35.92471,0.0],[-79.0541,35.92508,0.0],[-79.05395,35.92558,0.0],[-79.05394,35.92571,0.0],[-79.05391,35.92586,0.0],[-79.0539,35.92597,0.0],[-79.0539,35.92598,0.0],[-79.05386,35.92651,0.0],[-79.05387,35.92665,0.0]]]]}},{"type":"Feature","properties":{"uesi_id":"USA_R179860","nbhd_code":"USA_R179860_7","nbhd_name":"37135011700"},"geometry":{"type":"MultiPolygon","coordinates":[[[[-79.07067,35.90118,0.0],[-79.07055,35.90119,0.0],[-79.06989,35.90129,0.0],[-79.06986,35.9013,0.0],[-79.0697,35.90135,0.0],[-79.06953,35.9014,0.0],[-79.06921,35.90149,0.0],[-79.06898,35.90157,0.0],[-79.06862,35.90167,0.0],[-79.06844,35.90174,0.0],[-79.06827,35.90183,0.0],[-79.06787,35.90212,0.0],[-79.06762,35.90233,0.0],[-79.06737,35.90254,0.0],[-79.06715,35.90269,0.0],[-79.06666,35.90306,0.0],[-79.06641,35.90322,0.0],[-79.06594,35.90341,0.0],[-79.06516,35.90368,0.0],[-79.06504,35.90377,0.0],[-79.06496,35.90386,0.0],[-79.06475,35.90414,0.0],[-79.06455,35.90457,0.0],[-79.0644,35.90489,0.0],[-79.06425,35.90524,0.0],[-79.0641,35.90552,0.0],[-79.06405,35.90563,0.0],[-79.064,35.90584,0.0],[-79.06393,35.90647,0.0],[-79.0639,35.90667,0.0],[-79.06389,35.90683,0.0],[-79.06389,35.90687,0.0],[-79.06388,35.90704,0.0],[-79.06387,35.90706,0.0],[-79.06391,35.90716,0.0],[-79.06398,35.90733,0.0],[-79.0642,35.90779,0.0],[-79.06466,35.90874,0.0],[-79.06505,35.90964,0.0],[-79.0658,35.91101,0.0],[-79.06528,35.91105,0.0],[-79.06493,35.91109,0.0],[-79.06403,35.91117,0.0],[-79.06376,35.91119,0.0],[-79.06269,35.9116,0.0],[-79.06243,35.91171,0.0],[-79.06148,35.91208,0.0],[-79.06117,35.91221,0.0],[-79.06056,35.91245,0.0],[-79.06029,35.91255,0.0],[-79.05959,35.91282,0.0],[-79.05866,35.91317,0.0],[-79.05831,35.9133,0.0],[-79.0576,35.91357,0.0],[-79.05633,35.91405,0.0],[-79.0558,35.91314,0.0],[-79.05483,35.91151,0.0],[-79.05433,35.9107,0.0],[-79.05549,35.91024,0.0],[-79.05486,35.90914,0.0],[-79.0548,35.90904,0.0],[-79.05471,35.9089,0.0],[-79.05467,35.90876,0.0],[-79.05464,35.90857,0.0],[-79.05463,35.90818,0.0],[-79.05469,35.9075,0.0],[-79.05479,35.90703,0.0],[-79.05488,35.90667,0.0],[-79.05498,35.90599,0.0],[-79.055,35.9057,0.0],[-79.055,35.90553,0.0],[-79.05502,35.90524,0.0],[-79.05504,35.90506,0.0],[-79.05514,35.90422,0.0],[-79.05515,35.90409,0.0],[-79.05543,35.90381,0.0],[-79.05705,35.90203,0.0],[-79.05599,35.9021,0.0],[-79.05518,35.90217,0.0],[-79.05501,35.90218,0.0],[-79.05468,35.9022,0.0],[-79.05425,35.90219,0.0],[-79.05396,35.90218,0.0],[-79.05382,35.90216,0.0],[-79.05345,35.90209,0.0],[-79.05243,35.90178,0.0],[-79.05205,35.9015,0.0],[-79.05198,35.90141,0.0],[-79.05194,35.90137,0.0],[-79.05181,35.90113,0.0],[-79.05165,35.90082,0.0],[-79.05133,35.9002,0.0],[-79.05125,35.90009,0.0],[-79.05118,35.89999,0.0],[-79.05092,35.89973,0.0],[-79.05063,35.89944,0.0],[-79.05033,35.89915,0.0],[-79.05013,35.89905,0.0],[-79.04991,35.89891,0.0],[-79.04957,35.89872,0.0],[-79.04894,35.89849,0.0],[-79.04822,35.89831,0.0],[-79.04747,35.89809,0.0],[-79.04732,35.89805,0.0],[-79.04689,35.89794,0.0],[-79.04651,35.89787,0.0],[-79.04599,35.8978,0.0],[-79.04405,35.89764,0.0],[-79.04366,35.89762,0.0],[-79.04311,35.89762,0.0],[-79.043,35.89765,0.0],[-79.04283,35.8977,0.0],[-79.04264,35.89773,0.0],[-79.04243,35.89773,0.0],[-79.04225,35.89772,0.0],[-79.04145,35.89762,0.0],[-79.04102,35.89756,0.0],[-79.04086,35.89752,0.0],[-79.04076,35.89748,0.0],[-79.0407,35.89743,0.0],[-79.04047,35.89716,0.0],[-79.04032,35.89705,0.0],[-79.04051,35.89701,0.0],[-79.04149,35.89681,0.0],[-79.04218,35.89666,0.0],[-79.04577,35.89586,0.0],[-79.04842,35.89529,0.0],[-79.05043,35.89485,0.0],[-79.05237,35.89445,0.0],[-79.05337,35.89424,0.0],[-79.05478,35.89391,0.0],[-79.05572,35.89366,0.0],[-79.05652,35.89352,0.0],[-79.05657,35.89351,0.0],[-79.05703,35.89347,0.0],[-79.05744,35.89346,0.0],[-79.05782,35.89348,0.0],[-79.05852,35.89355,0.0],[-79.05948,35.89375,0.0],[-79.06021,35.89401,0.0],[-79.06078,35.89425,0.0],[-79.0612,35.89453,0.0],[-79.06238,35.89539,0.0],[-79.06406,35.89663,0.0],[-79.0651,35.8974,0.0],[-79.06608,35.89813,0.0],[-79.06677,35.89864,0.0],[-79.06762,35.89912,0.0],[-79.06881,35.89959,0.0],[-79.06998,35.9,0.0],[-79.07333,35.90115,0.0],[-79.07332,35.90122,0.0],[-79.07328,35.90127,0.0],[-79.07318,35.90141,0.0],[-79.07308,35.90156,0.0],[-79.07291,35.9015,0.0],[-79.07255,35.90136,0.0],[-79.07208,35.90127,0.0],[-79.07205,35.90127,0.0],[-79.07161,35.90118,0.0],[-79.07142,35.90117,0.0],[-79.0711,35.90116,0.0],[-79.07067,35.90118,0.0]]]]}},{"type":"Feature","properties":{"uesi_id":"USA_R179860","nbhd_code":"USA_R179860_8","nbhd_name":"37135010706"},"geometry":{"type":"MultiPolygon","coordinates":[[[[-79.07649,35.92436,0.0],[-79.07657,35.92434,0.0],[-79.0767,35.92429,0.0],[-79.07681,35.92423,0.0],[-79.07685,35.9242,0.0],[-79.07689,35.92419,0.0],[-79.07696,35.92416,0.0],[-79.07713,35.92406,0.0],[-79.07716,35.92403,0.0],[-79.07719,35.924,0.0],[-79.07725,35.92395,0.0],[-79.0773,35.92391,0.0],[-79.07733,35.92388,0.0],[-79.07738,35.92385,0.0],[-79.0775,35.92374,0.0],[-79.0776,35.92364,0.0],[-79.07763,35.92363,0.0],[-79.07773,35.9236,0.0],[-79.07777,35.92359,0.0],[-79.0778,35.9236,0.0],[-79.07782,35.92361,0.0],[-79.07785,35.92362,0.0],[-79.07789,35.92364,0.0],[-79.07795,35.92367,0.0],[-79.07809,35.9237,0.0],[-79.07812,35.92373,0.0],[-79.07816,35.92375,0.0],[-79.07821,35.92376,0.0],[-79.07825,35.92377,0.0],[-79.07829,35.92377,0.0],[-79.07835,35.92379,0.0],[-79.07839,35.92379,0.0],[-79.07841,35.9238,0.0],[-79.07858,35.92384,0.0],[-79.07863,35.92386,0.0],[-79.07869,35.92387,0.0],[-79.07888,35.92391,0.0],[-79.07904,35.92392,0.0],[-79.07917,35.92395,0.0],[-79.07925,35.92395,0.0],[-79.07949,35.92388,0.0],[-79.07966,35.92383,0.0],[-79.08003,35.92378,0.0],[-79.08044,35.92367,0.0],[-79.08102,35.92354,0.0],[-79.08149,35.92341,0.0],[-79.0816,35.92327,0.0],[-79.08176,35.92303,0.0],[-79.08184,35.92287,0.0],[-79.08194,35.92267,0.0],[-79.08202,35.92245,0.0],[-79.08208,35.92224,0.0],[-79.08218,35.92193,0.0],[-79.08227,35.92165,0.0],[-79.08248,35.92094,0.0],[-79.08248,35.92085,0.0],[-79.08385,35.92101,0.0],[-79.08404,35.92103,0.0],[-79.08407,35.92104,0.0],[-79.08426,35.92105,0.0],[-79.0847,35.92112,0.0],[-79.0852,35.92121,0.0],[-79.08547,35.92128,0.0],[-79.0862,35.92146,0.0],[-79.08635,35.9215,0.0],[-79.08656,35.92156,0.0],[-79.08673,35.92163,0.0],[-79.08682,35.92168,0.0],[-79.08685,35.92168,0.0],[-79.08687,35.9217,0.0],[-79.08705,35.92181,0.0],[-79.08707,35.92183,0.0],[-79.08736,35.92201,0.0],[-79.08756,35.92213,0.0],[-79.08773,35.92223,0.0],[-79.08804,35.9224,0.0],[-79.08877,35.9228,0.0],[-79.08902,35.92294,0.0],[-79.08927,35.92309,0.0],[-79.08969,35.92337,0.0],[-79.09001,35.92362,0.0],[-79.09027,35.92383,0.0],[-79.09042,35.92397,0.0],[-79.09055,35.92409,0.0],[-79.09076,35.92432,0.0],[-79.09095,35.92454,0.0],[-79.09136,35.92504,0.0],[-79.09217,35.92605,0.0],[-79.09265,35.92664,0.0],[-79.09271,35.92672,0.0],[-79.09302,35.92711,0.0],[-79.09316,35.92727,0.0],[-79.09326,35.92737,0.0],[-79.09342,35.92753,0.0],[-79.09343,35.92754,0.0],[-79.09357,35.92766,0.0],[-79.0938,35.92785,0.0],[-79.09398,35.92798,0.0],[-79.09416,35.9281,0.0],[-79.09428,35.92819,0.0],[-79.09633,35.92969,0.0],[-79.09646,35.92979,0.0],[-79.09654,35.92985,0.0],[-79.09716,35.93035,0.0],[-79.09768,35.93085,0.0],[-79.0978,35.93097,0.0],[-79.09796,35.93113,0.0],[-79.09815,35.93129,0.0],[-79.09836,35.93146,0.0],[-79.09866,35.93168,0.0],[-79.09893,35.93185,0.0],[-79.09933,35.93214,0.0],[-79.10068,35.93315,0.0],[-79.10111,35.93346,0.0],[-79.10168,35.9339,0.0],[-79.10211,35.9342,0.0],[-79.10215,35.93424,0.0],[-79.10234,35.93468,0.0],[-79.10246,35.93506,0.0],[-79.10255,35.93544,0.0],[-79.10263,35.93572,0.0],[-79.10279,35.93606,0.0],[-79.10294,35.93626,0.0],[-79.10302,35.93637,0.0],[-79.10337,35.93674,0.0],[-79.10356,35.93693,0.0],[-79.10447,35.93785,0.0],[-79.10582,35.93922,0.0],[-79.10716,35.94059,0.0],[-79.10733,35.94076,0.0],[-79.10829,35.94163,0.0],[-79.10928,35.94256,0.0],[-79.10935,35.94266,0.0],[-79.10919,35.94265,0.0],[-79.10828,35.94245,0.0],[-79.1075,35.94231,0.0],[-79.10731,35.9423,0.0],[-79.1071,35.9423,0.0],[-79.10688,35.94231,0.0],[-79.10669,35.94234,0.0],[-79.10657,35.94236,0.0],[-79.10624,35.94242,0.0],[-79.10559,35.94253,0.0],[-79.10492,35.94266,0.0],[-79.10463,35.9427,0.0],[-79.10444,35.94272,0.0],[-79.102,35.94275,0.0],[-79.10171,35.94277,0.0],[-79.10151,35.9428,0.0],[-79.1013,35.94284,0.0],[-79.10105,35.9429,0.0],[-79.10083,35.94296,0.0],[-79.10059,35.94305,0.0],[-79.10035,35.94315,0.0],[-79.10029,35.94316,0.0],[-79.0998,35.94329,0.0],[-79.09959,35.94336,0.0],[-79.09927,35.94344,0.0],[-79.09912,35.94349,0.0],[-79.09902,35.94351,0.0],[-79.09879,35.94356,0.0],[-79.09865,35.94358,0.0],[-79.09847,35.94359,0.0],[-79.09803,35.94356,0.0],[-79.09795,35.94355,0.0],[-79.09776,35.94353,0.0],[-79.09727,35.94342,0.0],[-79.09654,35.94327,0.0],[-79.09551,35.94304,0.0],[-79.09515,35.94294,0.0],[-79.0949,35.94286,0.0],[-79.09462,35.94276,0.0],[-79.09444,35.94269,0.0],[-79.09383,35.94235,0.0],[-79.09292,35.94186,0.0],[-79.09279,35.9418,0.0],[-79.09263,35.94173,0.0],[-79.09244,35.94167,0.0],[-79.09227,35.94163,0.0],[-79.09207,35.9416,0.0],[-79.092,35.94159,0.0],[-79.09129,35.94147,0.0],[-79.09079,35.94139,0.0],[-79.09059,35.94136,0.0],[-79.09026,35.94136,0.0],[-79.08996,35.94137,0.0],[-79.08966,35.9414,0.0],[-79.08939,35.94143,0.0],[-79.08916,35.94147,0.0],[-79.08863,35.94165,0.0],[-79.08846,35.94171,0.0],[-79.08823,35.94179,0.0],[-79.08804,35.94185,0.0],[-79.08758,35.942,0.0],[-79.08709,35.94215,0.0],[-79.08663,35.94235,0.0],[-79.08594,35.94272,0.0],[-79.08547,35.943,0.0],[-79.08534,35.94309,0.0],[-79.08516,35.9432,0.0],[-79.08501,35.94331,0.0],[-79.08487,35.94343,0.0],[-79.08474,35.94356,0.0],[-79.08465,35.94365,0.0],[-79.08454,35.94379,0.0],[-79.08444,35.94394,0.0],[-79.08443,35.94396,0.0],[-79.08436,35.94409,0.0],[-79.08429,35.94424,0.0],[-79.08426,35.9443,0.0],[-79.0842,35.9445,0.0],[-79.08368,35.94581,0.0],[-79.08351,35.94625,0.0],[-79.08348,35.94631,0.0],[-79.08339,35.94657,0.0],[-79.08317,35.94716,0.0],[-79.08312,35.94731,0.0],[-79.08299,35.94764,0.0],[-79.08284,35.94804,0.0],[-79.08258,35.94875,0.0],[-79.08242,35.94908,0.0],[-79.08223,35.94933,0.0],[-79.0819,35.94963,0.0],[-79.08151,35.94998,0.0],[-79.08126,35.9502,0.0],[-79.08019,35.95111,0.0],[-79.08017,35.95112,0.0],[-79.07954,35.95148,0.0],[-79.07878,35.95178,0.0],[-79.0781,35.95193,0.0],[-79.07778,35.95196,0.0],[-79.07571,35.95193,0.0],[-79.07556,35.95192,0.0],[-79.07512,35.95192,0.0],[-79.07463,35.95191,0.0],[-79.07372,35.9519,0.0],[-79.0731,35.95187,0.0],[-79.0725,35.95185,0.0],[-79.07224,35.95183,0.0],[-79.07188,35.95182,0.0],[-79.07203,35.95138,0.0],[-79.07209,35.95099,0.0],[-79.0722,35.95052,0.0],[-79.07214,35.95009,0.0],[-79.07214,35.94944,0.0],[-79.07209,35.94913,0.0],[-79.07198,35.94874,0.0],[-79.07188,35.94818,0.0],[-79.07183,35.94758,0.0],[-79.07177,35.94725,0.0],[-79.07177,35.94724,0.0],[-79.07177,35.94686,0.0],[-79.07192,35.94654,0.0],[-79.07209,35.94632,0.0],[-79.07232,35.94603,0.0],[-79.07291,35.94543,0.0],[-79.07366,35.94469,0.0],[-79.07479,35.94366,0.0],[-79.07544,35.94279,0.0],[-79.07576,35.94214,0.0],[-79.07597,35.94175,0.0],[-79.07619,35.94124,0.0],[-79.07631,35.94067,0.0],[-79.07632,35.93949,0.0],[-79.07625,35.93832,0.0],[-79.07631,35.93751,0.0],[-79.07628,35.93618,0.0],[-79.07622,35.93573,0.0],[-79.0762,35.93525,0.0],[-79.07622,35.9347,0.0],[-79.07607,35.93436,0.0],[-79.07605,35.93422,0.0],[-79.07602,35.93404,0.0],[-79.07586,35.93355,0.0],[-79.07566,35.93299,0.0],[-79.07549,35.93268,0.0],[-79.07525,35.93229,0.0],[-79.07457,35.93169,0.0],[-79.07452,35.93107,0.0],[-79.07439,35.93075,0.0],[-79.07421,35.93032,0.0],[-79.07394,35.92997,0.0],[-79.07384,35.92933,0.0],[-79.07384,35.92848,0.0],[-79.07395,35.92634,0.0],[-79.07394,35.92591,0.0],[-79.07392,35.92573,0.0],[-79.0739,35.92561,0.0],[-79.07384,35.92539,0.0],[-79.07382,35.92536,0.0],[-79.07367,35.9252,0.0],[-79.07296,35.92436,0.0],[-79.07305,35.92434,0.0],[-79.07313,35.9243,0.0],[-79.07319,35.92429,0.0],[-79.07327,35.92425,0.0],[-79.07344,35.92423,0.0],[-79.07361,35.92423,0.0],[-79.07369,35.92424,0.0],[-79.07381,35.92428,0.0],[-79.07393,35.92433,0.0],[-79.07395,35.92434,0.0],[-79.07402,35.92438,0.0],[-79.07405,35.9244,0.0],[-79.0741,35.92446,0.0],[-79.07413,35.9245,0.0],[-79.07417,35.92469,0.0],[-79.07418,35.92473,0.0],[-79.07422,35.92489,0.0],[-79.07423,35.92491,0.0],[-79.07426,35.92498,0.0],[-79.07427,35.92502,0.0],[-79.07427,35.92514,0.0],[-79.07428,35.92518,0.0],[-79.07427,35.92529,0.0],[-79.0744,35.92529,0.0],[-79.07451,35.92527,0.0],[-79.07455,35.92525,0.0],[-79.07463,35.92523,0.0],[-79.07475,35.92518,0.0],[-79.07478,35.92516,0.0],[-79.07484,35.92512,0.0],[-79.07488,35.92506,0.0],[-79.07503,35.92491,0.0],[-79.07532,35.92467,0.0],[-79.07551,35.92454,0.0],[-79.07596,35.92448,0.0],[-79.07649,35.92436,0.0]]]]}},{"type":"Feature","properties":{"uesi_id":"USA_R179860","nbhd_code":"USA_R179860_9","nbhd_name":"37135010705"},"geometry":{"type":"MultiPolygon","coordinates":[[[[-79.09945,35.9198,0.0],[-79.09959,35.92031,0.0],[-79.09976,35.92089,0.0],[-79.09981,35.92111,0.0],[-79.09985,35.92132,0.0],[-79.09988,35.92155,0.0],[-79.09988,35.92189,0.0],[-79.09992,35.92235,0.0],[-79.09995,35.92273,0.0],[-79.10012,35.92435,0.0],[-79.10015,35.92481,0.0],[-79.10017,35.92525,0.0],[-79.1002,35.9258,0.0],[-79.10025,35.92666,0.0],[-79.10025,35.92671,0.0],[-79.10029,35.92728,0.0],[-79.10031,35.92788,0.0],[-79.1004,35.92844,0.0],[-79.10049,35.92888,0.0],[-79.10059,35.92918,0.0],[-79.10075,35.92979,0.0],[-79.10103,35.9309,0.0],[-79.1012,35.93154,0.0],[-79.10124,35.93169,0.0],[-79.1017,35.93303,0.0],[-79.10188,35.93344,0.0],[-79.10207,35.93404,0.0],[-79.10215,35.93424,0.0],[-79.10211,35.9342,0.0],[-79.10168,35.9339,0.0],[-79.10111,35.93346,0.0],[-79.10068,35.93315,0.0],[-79.09933,35.93214,0.0],[-79.09893,35.93185,0.0],[-79.09866,35.93168,0.0],[-79.09836,35.93146,0.0],[-79.09815,35.93129,0.0],[-79.09796,35.93113,0.0],[-79.0978,35.93097,0.0],[-79.09768,35.93085,0.0],[-79.09716,35.93035,0.0],[-79.09654,35.92985,0.0],[-79.09646,35.92979,0.0],[-79.09633,35.92969,0.0],[-79.09428,35.92819,0.0],[-79.09416,35.9281,0.0],[-79.09398,35.92798,0.0],[-79.0938,35.92785,0.0],[-79.09357,35.92766,0.0],[-79.09343,35.92754,0.0],[-79.09342,35.92753,0.0],[-79.09326,35.92737,0.0],[-79.09316,35.92727,0.0],[-79.09302,35.92711,0.0],[-79.09271,35.92672,0.0],[-79.09265,35.92664,0.0],[-79.09217,35.92605,0.0],[-79.09136,35.92504,0.0],[-79.09095,35.92454,0.0],[-79.09076,35.92432,0.0],[-79.09055,35.92409,0.0],[-79.09042,35.92397,0.0],[-79.09027,35.92383,0.0],[-79.09001,35.92362,0.0],[-79.08969,35.92337,0.0],[-79.08927,35.92309,0.0],[-79.08902,35.92294,0.0],[-79.08877,35.9228,0.0],[-79.08804,35.9224,0.0],[-79.08773,35.92223,0.0],[-79.08756,35.92213,0.0],[-79.08736,35.92201,0.0],[-79.08707,35.92183,0.0],[-79.08705,35.92181,0.0],[-79.08687,35.9217,0.0],[-79.08685,35.92168,0.0],[-79.08682,35.92168,0.0],[-79.08673,35.92163,0.0],[-79.08656,35.92156,0.0],[-79.08635,35.9215,0.0],[-79.0862,35.92146,0.0],[-79.08547,35.92128,0.0],[-79.0852,35.92121,0.0],[-79.0847,35.92112,0.0],[-79.08426,35.92105,0.0],[-79.08407,35.92104,0.0],[-79.08404,35.92103,0.0],[-79.08385,35.92101,0.0],[-79.08248,35.92085,0.0],[-79.08248,35.92094,0.0],[-79.08227,35.92165,0.0],[-79.08218,35.92193,0.0],[-79.08208,35.92224,0.0],[-79.08202,35.92245,0.0],[-79.08194,35.92267,0.0],[-79.08184,35.92287,0.0],[-79.08176,35.92303,0.0],[-79.0816,35.92327,0.0],[-79.08149,35.92341,0.0],[-79.08102,35.92354,0.0],[-79.08044,35.92367,0.0],[-79.08003,35.92378,0.0],[-79.07966,35.92383,0.0],[-79.07949,35.92388,0.0],[-79.07925,35.92395,0.0],[-79.07917,35.92395,0.0],[-79.07904,35.92392,0.0],[-79.07888,35.92391,0.0],[-79.07869,35.92387,0.0],[-79.07863,35.92386,0.0],[-79.07858,35.92384,0.0],[-79.07841,35.9238,0.0],[-79.07839,35.92379,0.0],[-79.07835,35.92379,0.0],[-79.07829,35.92377,0.0],[-79.07825,35.92377,0.0],[-79.07821,35.92376,0.0],[-79.07816,35.92375,0.0],[-79.07812,35.92373,0.0],[-79.07809,35.9237,0.0],[-79.07795,35.92367,0.0],[-79.07789,35.92364,0.0],[-79.07785,35.92362,0.0],[-79.07782,35.92361,0.0],[-79.0778,35.9236,0.0],[-79.07777,35.92359,0.0],[-79.07773,35.9236,0.0],[-79.07763,35.92363,0.0],[-79.0776,35.92364,0.0],[-79.0775,35.92374,0.0],[-79.07738,35.92385,0.0],[-79.07733,35.92388,0.0],[-79.0773,35.92391,0.0],[-79.07725,35.92395,0.0],[-79.07719,35.924,0.0],[-79.07716,35.92403,0.0],[-79.07713,35.92406,0.0],[-79.07696,35.92416,0.0],[-79.07689,35.92419,0.0],[-79.07685,35.9242,0.0],[-79.07681,35.92423,0.0],[-79.0767,35.92429,0.0],[-79.07657,35.92434,0.0],[-79.07649,35.92436,0.0],[-79.07596,35.92448,0.0],[-79.07551,35.92454,0.0],[-79.07532,35.92467,0.0],[-79.07503,35.92491,0.0],[-79.07488,35.92506,0.0],[-79.07484,35.92512,0.0],[-79.07478,35.92516,0.0],[-79.07475,35.92518,0.0],[-79.07463,35.92523,0.0],[-79.07455,35.92525,0.0],[-79.07451,35.92527,0.0],[-79.0744,35.92529,0.0],[-79.07427,35.92529,0.0],[-79.07428,35.92518,0.0],[-79.07427,35.92514,0.0],[-79.07427,35.92502,0.0],[-79.07426,35.92498,0.0],[-79.07423,35.92491,0.0],[-79.07422,35.92489,0.0],[-79.07418,35.92473,0.0],[-79.07417,35.92469,0.0],[-79.07413,35.9245,0.0],[-79.0741,35.92446,0.0],[-79.07405,35.9244,0.0],[-79.07402,35.92438,0.0],[-79.07395,35.92434,0.0],[-79.07393,35.92433,0.0],[-79.07381,35.92428,0.0],[-79.07369,35.92424,0.0],[-79.07361,35.92423,0.0],[-79.07344,35.92423,0.0],[-79.07327,35.92425,0.0],[-79.07319,35.92429,0.0],[-79.07313,35.9243,0.0],[-79.07305,35.92434,0.0],[-79.07296,35.92436,0.0],[-79.07166,35.92294,0.0],[-79.07157,35.92287,0.0],[-79.07087,35.92232,0.0],[-79.06971,35.92117,0.0],[-79.06933,35.9208,0.0],[-79.0688,35.9203,0.0],[-79.06842,35.91995,0.0],[-79.06825,35.91978,0.0],[-79.06803,35.91953,0.0],[-79.06793,35.91931,0.0],[-79.06787,35.91913,0.0],[-79.06775,35.91891,0.0],[-79.06775,35.9187,0.0],[-79.06777,35.91843,0.0],[-79.06781,35.91822,0.0],[-79.06797,35.91801,0.0],[-79.06819,35.91775,0.0],[-79.06837,35.91757,0.0],[-79.06876,35.91704,0.0],[-79.06866,35.91661,0.0],[-79.06806,35.91666,0.0],[-79.06799,35.91615,0.0],[-79.06785,35.91525,0.0],[-79.06772,35.91441,0.0],[-79.06768,35.9141,0.0],[-79.0676,35.91362,0.0],[-79.06709,35.91367,0.0],[-79.06684,35.91267,0.0],[-79.06655,35.91266,0.0],[-79.06655,35.9123,0.0],[-79.06654,35.91204,0.0],[-79.06626,35.91206,0.0],[-79.06618,35.91158,0.0],[-79.0658,35.91159,0.0],[-79.06585,35.911,0.0],[-79.0658,35.91101,0.0],[-79.06505,35.90964,0.0],[-79.06466,35.90874,0.0],[-79.0642,35.90779,0.0],[-79.06398,35.90733,0.0],[-79.06391,35.90716,0.0],[-79.06387,35.90706,0.0],[-79.06388,35.90704,0.0],[-79.06389,35.90687,0.0],[-79.06389,35.90683,0.0],[-79.0639,35.90667,0.0],[-79.06393,35.90647,0.0],[-79.064,35.90584,0.0],[-79.06405,35.90563,0.0],[-79.0641,35.90552,0.0],[-79.06425,35.90524,0.0],[-79.0644,35.90489,0.0],[-79.06455,35.90457,0.0],[-79.06475,35.90414,0.0],[-79.06496,35.90386,0.0],[-79.06504,35.90377,0.0],[-79.06516,35.90368,0.0],[-79.06594,35.90341,0.0],[-79.06641,35.90322,0.0],[-79.06666,35.90306,0.0],[-79.06715,35.90269,0.0],[-79.06737,35.90254,0.0],[-79.06762,35.90233,0.0],[-79.06787,35.90212,0.0],[-79.06827,35.90183,0.0],[-79.06844,35.90174,0.0],[-79.06862,35.90167,0.0],[-79.06898,35.90157,0.0],[-79.06921,35.90149,0.0],[-79.06953,35.9014,0.0],[-79.0697,35.90135,0.0],[-79.06986,35.9013,0.0],[-79.06989,35.90129,0.0],[-79.07055,35.90119,0.0],[-79.07067,35.90118,0.0],[-79.0711,35.90116,0.0],[-79.07142,35.90117,0.0],[-79.07161,35.90118,0.0],[-79.07205,35.90127,0.0],[-79.07208,35.90127,0.0],[-79.07255,35.90136,0.0],[-79.07291,35.9015,0.0],[-79.07308,35.90156,0.0],[-79.07307,35.90165,0.0],[-79.073,35.90176,0.0],[-79.07286,35.90198,0.0],[-79.07281,35.90209,0.0],[-79.07278,35.90214,0.0],[-79.07269,35.90237,0.0],[-79.0726,35.90263,0.0],[-79.07252,35.90292,0.0],[-79.07251,35.90298,0.0],[-79.07248,35.90316,0.0],[-79.07246,35.90327,0.0],[-79.07245,35.90345,0.0],[-79.07244,35.90368,0.0],[-79.07245,35.90492,0.0],[-79.07243,35.90586,0.0],[-79.0724,35.90657,0.0],[-79.07236,35.90842,0.0],[-79.07234,35.90869,0.0],[-79.07231,35.90908,0.0],[-79.0723,35.90935,0.0],[-79.07229,35.90964,0.0],[-79.07227,35.91012,0.0],[-79.07227,35.9103,0.0],[-79.07415,35.91007,0.0],[-79.07506,35.90998,0.0],[-79.07508,35.90999,0.0],[-79.07515,35.91002,0.0],[-79.07531,35.91008,0.0],[-79.07545,35.91016,0.0],[-79.07557,35.91023,0.0],[-79.07567,35.91031,0.0],[-79.07574,35.91038,0.0],[-79.07636,35.91103,0.0],[-79.07657,35.91122,0.0],[-79.07703,35.91164,0.0],[-79.0772,35.9118,0.0],[-79.07744,35.91199,0.0],[-79.07783,35.91233,0.0],[-79.07813,35.91257,0.0],[-79.07842,35.91281,0.0],[-79.07886,35.91314,0.0],[-79.07958,35.91359,0.0],[-79.07988,35.91374,0.0],[-79.08025,35.91391,0.0],[-79.08062,35.91406,0.0],[-79.08109,35.91424,0.0],[-79.08153,35.91439,0.0],[-79.08193,35.91452,0.0],[-79.08236,35.91463,0.0],[-79.08442,35.91521,0.0],[-79.08495,35.91535,0.0],[-79.08666,35.91583,0.0],[-79.0871,35.91595,0.0],[-79.08829,35.91628,0.0],[-79.08876,35.91641,0.0],[-79.08922,35.91654,0.0],[-79.09003,35.91677,0.0],[-79.09046,35.9169,0.0],[-79.0907,35.91697,0.0],[-79.09094,35.91704,0.0],[-79.09131,35.91715,0.0],[-79.09199,35.91734,0.0],[-79.09287,35.91759,0.0],[-79.09318,35.91767,0.0],[-79.09335,35.91772,0.0],[-79.09343,35.91775,0.0],[-79.09363,35.9178,0.0],[-79.09381,35.91781,0.0],[-79.09395,35.91781,0.0],[-79.09405,35.9178,0.0],[-79.09435,35.91789,0.0],[-79.0949,35.91809,0.0],[-79.09527,35.91821,0.0],[-79.09537,35.91815,0.0],[-79.09607,35.91839,0.0],[-79.09758,35.91886,0.0],[-79.09921,35.9193,0.0],[-79.0993,35.91947,0.0],[-79.09941,35.91967,0.0],[-79.09945,35.9198,0.0]]]]}},{"type":"Feature","properties":{"uesi_id":"USA_R179860","nbhd_code":"USA_R179860_10","nbhd_name":"37135011205"},"geometry":{"type":"MultiPolygon","coordinates":[[[[-79.05744,35.96115,0.0],[-79.05737,35.96087,0.0],[-79.0573,35.96044,0.0],[-79.05727,35.96004,0.0],[-79.05728,35.95985,0.0],[-79.05729,35.95966,0.0],[-79.05729,35.95952,0.0],[-79.05732,35.95905,0.0],[-79.05732,35.95887,0.0],[-79.05734,35.95865,0.0],[-79.05736,35.95842,0.0],[-79.05737,35.95835,0.0],[-79.05746,35.95794,0.0],[-79.05752,35.9577,0.0],[-79.05759,35.95742,0.0],[-79.05768,35.95706,0.0],[-79.05777,35.95671,0.0],[-79.05781,35.95639,0.0],[-79.05781,35.95638,0.0],[-79.05783,35.95586,0.0],[-79.05783,35.95584,0.0],[-79.05785,35.95514,0.0],[-79.05786,35.95418,0.0],[-79.05777,35.95377,0.0],[-79.05769,35.95343,0.0],[-79.05761,35.95293,0.0],[-79.0576,35.9527,0.0],[-79.0576,35.95264,0.0],[-79.05763,35.95239,0.0],[-79.05795,35.95146,0.0],[-79.05812,35.95088,0.0],[-79.05821,35.95037,0.0],[-79.05835,35.94957,0.0],[-79.05837,35.94943,0.0],[-79.05905,35.94972,0.0],[-79.05988,35.9501,0.0],[-79.06103,35.95062,0.0],[-79.06112,35.95066,0.0],[-79.06158,35.95087,0.0],[-79.06209,35.95105,0.0],[-79.06263,35.95114,0.0],[-79.06385,35.95134,0.0],[-79.06505,35.95151,0.0],[-79.06608,35.95158,0.0],[-79.06708,35.95162,0.0],[-79.06724,35.95162,0.0],[-79.07188,35.95182,0.0],[-79.07185,35.95199,0.0],[-79.07182,35.9522,0.0],[-79.07171,35.95247,0.0],[-79.07015,35.95572,0.0],[-79.06857,35.95901,0.0],[-79.06836,35.95946,0.0],[-79.06828,35.9598,0.0],[-79.06826,35.96,0.0],[-79.06824,35.96014,0.0],[-79.06827,35.96061,0.0],[-79.06842,35.96148,0.0],[-79.06854,35.96182,0.0],[-79.06871,35.96226,0.0],[-79.06913,35.96285,0.0],[-79.0696,35.96331,0.0],[-79.07026,35.96379,0.0],[-79.07063,35.96409,0.0],[-79.07094,35.96456,0.0],[-79.07153,35.96591,0.0],[-79.07167,35.96632,0.0],[-79.07206,35.96702,0.0],[-79.07211,35.9671,0.0],[-79.07241,35.96739,0.0],[-79.0727,35.96763,0.0],[-79.07338,35.96821,0.0],[-79.07404,35.96869,0.0],[-79.07453,35.96907,0.0],[-79.07491,35.96938,0.0],[-79.07506,35.96955,0.0],[-79.07523,35.96974,0.0],[-79.07546,35.96992,0.0],[-79.07568,35.97013,0.0],[-79.07573,35.97042,0.0],[-79.07605,35.97156,0.0],[-79.07615,35.97274,0.0],[-79.07634,35.97383,0.0],[-79.07644,35.97524,0.0],[-79.07642,35.97643,0.0],[-79.07645,35.97727,0.0],[-79.07614,35.978,0.0],[-79.07613,35.97864,0.0],[-79.07609,35.97951,0.0],[-79.07593,35.98266,0.0],[-79.07583,35.98492,0.0],[-79.07577,35.98523,0.0],[-79.07573,35.98546,0.0],[-79.07554,35.98584,0.0],[-79.07534,35.98615,0.0],[-79.07522,35.98651,0.0],[-79.0752,35.98655,0.0],[-79.075,35.98692,0.0],[-79.07498,35.98687,0.0],[-79.07474,35.98622,0.0],[-79.07424,35.98507,0.0],[-79.07401,35.98453,0.0],[-79.07289,35.98224,0.0],[-79.07193,35.98054,0.0],[-79.07187,35.98044,0.0],[-79.07174,35.98024,0.0],[-79.07121,35.97936,0.0],[-79.07018,35.97778,0.0],[-79.07009,35.97757,0.0],[-79.06957,35.97673,0.0],[-79.06897,35.97572,0.0],[-79.06891,35.97565,0.0],[-79.06875,35.97542,0.0],[-79.06781,35.97447,0.0],[-79.06672,35.9736,0.0],[-79.06493,35.97266,0.0],[-79.06286,35.97159,0.0],[-79.06185,35.97108,0.0],[-79.05978,35.97027,0.0],[-79.0596,35.9702,0.0],[-79.05936,35.97011,0.0],[-79.05782,35.9695,0.0],[-79.05727,35.96929,0.0],[-79.05482,35.96839,0.0],[-79.05221,35.96763,0.0],[-79.05041,35.96733,0.0],[-79.04842,35.96728,0.0],[-79.047,35.96754,0.0],[-79.04569,35.96791,0.0],[-79.04461,35.96835,0.0],[-79.04239,35.96923,0.0],[-79.04048,35.96969,0.0],[-79.03835,35.97002,0.0],[-79.03638,35.97,0.0],[-79.03392,35.96953,0.0],[-79.02968,35.96868,0.0],[-79.02966,35.96867,0.0],[-79.0289,35.9684,0.0],[-79.02887,35.96839,0.0],[-79.0286,35.9683,0.0],[-79.02756,35.96794,0.0],[-79.02557,35.96708,0.0],[-79.02436,35.96645,0.0],[-79.01985,35.96408,0.0],[-79.0186,35.96339,0.0],[-79.01231,35.95996,0.0],[-79.01068,35.95909,0.0],[-79.01031,35.9589,0.0],[-79.00793,35.95762,0.0],[-79.00745,35.95736,0.0],[-79.00599,35.95653,0.0],[-79.00474,35.95572,0.0],[-79.00327,35.95469,0.0],[-79.00294,35.95446,0.0],[-79.00229,35.95397,0.0],[-79.00177,35.95355,0.0],[-79.00173,35.95352,0.0],[-79.00171,35.95351,0.0],[-79.00126,35.95315,0.0],[-79.00129,35.95292,0.0],[-79.00129,35.9529,0.0],[-79.0013,35.95289,0.0],[-79.00131,35.95279,0.0],[-79.00133,35.95268,0.0],[-79.00138,35.95228,0.0],[-79.00144,35.95189,0.0],[-79.00145,35.95184,0.0],[-79.00149,35.95151,0.0],[-79.00172,35.94997,0.0],[-79.00172,35.94993,0.0],[-79.00172,35.94972,0.0],[-79.00172,35.94969,0.0],[-79.00173,35.94962,0.0],[-79.00174,35.94956,0.0],[-79.00174,35.94956,0.0],[-79.00174,35.94956,0.0],[-79.00174,35.94955,0.0],[-79.00174,35.94955,0.0],[-79.00259,35.94919,0.0],[-79.00714,35.94712,0.0],[-79.01053,35.9456,0.0],[-79.01265,35.94463,0.0],[-79.01371,35.94415,0.0],[-79.01477,35.94366,0.0],[-79.01671,35.94283,0.0],[-79.01748,35.94243,0.0],[-79.01823,35.94196,0.0],[-79.01831,35.94224,0.0],[-79.01846,35.94258,0.0],[-79.01866,35.94305,0.0],[-79.01917,35.94431,0.0],[-79.01931,35.94489,0.0],[-79.01951,35.94573,0.0],[-79.01963,35.94608,0.0],[-79.01996,35.94667,0.0],[-79.02029,35.94734,0.0],[-79.02041,35.94763,0.0],[-79.02043,35.94782,0.0],[-79.0204,35.94806,0.0],[-79.02029,35.94825,0.0],[-79.02012,35.94849,0.0],[-79.01984,35.94873,0.0],[-79.01946,35.94902,0.0],[-79.01982,35.94979,0.0],[-79.01988,35.94992,0.0],[-79.0203,35.95091,0.0],[-79.02092,35.95235,0.0],[-79.02115,35.95302,0.0],[-79.02144,35.95416,0.0],[-79.02171,35.95496,0.0],[-79.02186,35.95529,0.0],[-79.02211,35.95567,0.0],[-79.02244,35.95603,0.0],[-79.02316,35.95667,0.0],[-79.0234,35.95691,0.0],[-79.02375,35.95719,0.0],[-79.02408,35.95741,0.0],[-79.02442,35.95759,0.0],[-79.02481,35.95774,0.0],[-79.02485,35.95775,0.0],[-79.02519,35.95784,0.0],[-79.02559,35.95789,0.0],[-79.02596,35.9579,0.0],[-79.02665,35.95786,0.0],[-79.02692,35.95785,0.0],[-79.02743,35.95783,0.0],[-79.02793,35.95785,0.0],[-79.0284,35.95793,0.0],[-79.02886,35.95807,0.0],[-79.02897,35.95812,0.0],[-79.02922,35.95822,0.0],[-79.02949,35.95837,0.0],[-79.02975,35.95855,0.0],[-79.03,35.95879,0.0],[-79.03103,35.95979,0.0],[-79.03175,35.9605,0.0],[-79.03207,35.96075,0.0],[-79.0324,35.96098,0.0],[-79.03277,35.9612,0.0],[-79.03318,35.96138,0.0],[-79.03351,35.96151,0.0],[-79.03357,35.96153,0.0],[-79.03402,35.96167,0.0],[-79.03442,35.96174,0.0],[-79.03631,35.96198,0.0],[-79.03651,35.962,0.0],[-79.03676,35.96204,0.0],[-79.0371,35.96212,0.0],[-79.03727,35.96218,0.0],[-79.03742,35.96224,0.0],[-79.0378,35.96245,0.0],[-79.03852,35.9629,0.0],[-79.03884,35.96313,0.0],[-79.03923,35.96334,0.0],[-79.03966,35.96355,0.0],[-79.03993,35.96362,0.0],[-79.04026,35.96372,0.0],[-79.04058,35.96378,0.0],[-79.04101,35.96381,0.0],[-79.04198,35.96388,0.0],[-79.04352,35.96399,0.0],[-79.04358,35.964,0.0],[-79.04436,35.96406,0.0],[-79.04518,35.96406,0.0],[-79.04558,35.96403,0.0],[-79.04599,35.96399,0.0],[-79.04639,35.96394,0.0],[-79.04695,35.96388,0.0],[-79.04757,35.96385,0.0],[-79.04763,35.96385,0.0],[-79.04839,35.96386,0.0],[-79.04894,35.96387,0.0],[-79.04902,35.96387,0.0],[-79.05196,35.96388,0.0],[-79.05265,35.96388,0.0],[-79.05311,35.96388,0.0],[-79.05346,35.96389,0.0],[-79.05507,35.96392,0.0],[-79.05574,35.96393,0.0],[-79.05639,35.96395,0.0],[-79.05834,35.96399,0.0],[-79.05793,35.96301,0.0],[-79.05769,35.96223,0.0],[-79.05768,35.96221,0.0],[-79.05744,35.96115,0.0]]]]}},{"type":"Feature","properties":{"uesi_id":"USA_R179860","nbhd_code":"USA_R179860_11","nbhd_name":"37135012202"},"geometry":{"type":"MultiPolygon","coordinates":[[[[-79.06159,35.8874,0.0],[-79.06164,35.88709,0.0],[-79.06165,35.88681,0.0],[-79.06159,35.88629,0.0],[-79.06154,35.88608,0.0],[-79.0615,35.88585,0.0],[-79.06142,35.88563,0.0],[-79.06109,35.88473,0.0],[-79.06074,35.88413,0.0],[-79.06058,35.88368,0.0],[-79.06058,35.88366,0.0],[-79.06056,35.88334,0.0],[-79.06067,35.88305,0.0],[-79.06068,35.88302,0.0],[-79.06087,35.88272,0.0],[-79.06157,35.8819,0.0],[-79.06302,35.88017,0.0],[-79.06335,35.87978,0.0],[-79.06388,35.87912,0.0],[-79.06423,35.8787,0.0],[-79.06437,35.87846,0.0],[-79.06461,35.87797,0.0],[-79.06506,35.87694,0.0],[-79.06619,35.8741,0.0],[-79.06631,35.87373,0.0],[-79.06644,35.87345,0.0],[-79.06652,35.87329,0.0],[-79.06673,35.87289,0.0],[-79.06733,35.87225,0.0],[-79.06834,35.87131,0.0],[-79.06852,35.87112,0.0],[-79.06938,35.87034,0.0],[-79.06964,35.87011,0.0],[-79.07008,35.86976,0.0],[-79.0703,35.86963,0.0],[-79.0705,35.8695,0.0],[-79.0709,35.86926,0.0],[-79.07133,35.869,0.0],[-79.07213,35.86856,0.0],[-79.07241,35.86839,0.0],[-79.07288,35.86812,0.0],[-79.0738,35.86752,0.0],[-79.07414,35.8673,0.0],[-79.0746,35.86688,0.0],[-79.07474,35.86673,0.0],[-79.07527,35.86614,0.0],[-79.07573,35.86539,0.0],[-79.07611,35.8647,0.0],[-79.07637,35.86433,0.0],[-79.07663,35.86402,0.0],[-79.07702,35.86368,0.0],[-79.07742,35.86339,0.0],[-79.07799,35.86314,0.0],[-79.07864,35.86293,0.0],[-79.07924,35.86275,0.0],[-79.07974,35.86257,0.0],[-79.08007,35.86237,0.0],[-79.0802,35.86228,0.0],[-79.08031,35.86218,0.0],[-79.08134,35.86132,0.0],[-79.08179,35.86092,0.0],[-79.08199,35.86068,0.0],[-79.08217,35.86067,0.0],[-79.08217,35.8607,0.0],[-79.08215,35.86098,0.0],[-79.08204,35.86159,0.0],[-79.08195,35.86195,0.0],[-79.08182,35.86229,0.0],[-79.08151,35.86292,0.0],[-79.08099,35.86391,0.0],[-79.08078,35.8644,0.0],[-79.0807,35.86481,0.0],[-79.08069,35.86503,0.0],[-79.08069,35.86644,0.0],[-79.08064,35.86949,0.0],[-79.08061,35.87104,0.0],[-79.08057,35.87321,0.0],[-79.08053,35.87385,0.0],[-79.08054,35.87417,0.0],[-79.08059,35.8745,0.0],[-79.08065,35.87494,0.0],[-79.08073,35.87518,0.0],[-79.08104,35.87581,0.0],[-79.08129,35.87619,0.0],[-79.0819,35.87719,0.0],[-79.08197,35.87735,0.0],[-79.08205,35.87753,0.0],[-79.08215,35.87786,0.0],[-79.08265,35.87968,0.0],[-79.08283,35.88036,0.0],[-79.08299,35.88094,0.0],[-79.08302,35.88111,0.0],[-79.08303,35.88131,0.0],[-79.08302,35.88147,0.0],[-79.083,35.8817,0.0],[-79.08294,35.88207,0.0],[-79.08288,35.88238,0.0],[-79.08281,35.88285,0.0],[-79.0828,35.88338,0.0],[-79.08284,35.88412,0.0],[-79.08294,35.8854,0.0],[-79.08295,35.88565,0.0],[-79.08292,35.88611,0.0],[-79.08288,35.88632,0.0],[-79.0828,35.8866,0.0],[-79.08272,35.8869,0.0],[-79.08252,35.88742,0.0],[-79.08235,35.88775,0.0],[-79.08214,35.88811,0.0],[-79.08183,35.88859,0.0],[-79.08157,35.88896,0.0],[-79.08122,35.88951,0.0],[-79.08093,35.88997,0.0],[-79.08091,35.89,0.0],[-79.0803,35.89088,0.0],[-79.07985,35.8916,0.0],[-79.07967,35.8918,0.0],[-79.07923,35.89223,0.0],[-79.07895,35.89246,0.0],[-79.07847,35.89287,0.0],[-79.07834,35.89298,0.0],[-79.07826,35.89304,0.0],[-79.07773,35.89346,0.0],[-79.07753,35.89363,0.0],[-79.07736,35.89377,0.0],[-79.07721,35.89393,0.0],[-79.07688,35.8944,0.0],[-79.07668,35.89472,0.0],[-79.07655,35.89498,0.0],[-79.07644,35.89523,0.0],[-79.07636,35.89547,0.0],[-79.0763,35.89564,0.0],[-79.07614,35.89605,0.0],[-79.0759,35.89665,0.0],[-79.0755,35.8976,0.0],[-79.07525,35.89814,0.0],[-79.07495,35.89862,0.0],[-79.07427,35.89971,0.0],[-79.07392,35.90026,0.0],[-79.07385,35.90036,0.0],[-79.07365,35.90065,0.0],[-79.07333,35.90115,0.0],[-79.06998,35.9,0.0],[-79.06881,35.89959,0.0],[-79.06762,35.89912,0.0],[-79.06677,35.89864,0.0],[-79.06608,35.89813,0.0],[-79.0651,35.8974,0.0],[-79.06406,35.89663,0.0],[-79.06238,35.89539,0.0],[-79.0612,35.89453,0.0],[-79.06078,35.89425,0.0],[-79.06021,35.89401,0.0],[-79.05948,35.89375,0.0],[-79.05852,35.89355,0.0],[-79.05782,35.89348,0.0],[-79.05744,35.89346,0.0],[-79.05751,35.8931,0.0],[-79.05759,35.89288,0.0],[-79.05809,35.8924,0.0],[-79.05858,35.89208,0.0],[-79.05896,35.89187,0.0],[-79.05913,35.89178,0.0],[-79.05959,35.89151,0.0],[-79.05962,35.89149,0.0],[-79.05991,35.89134,0.0],[-79.06049,35.89098,0.0],[-79.06068,35.89083,0.0],[-79.06083,35.8907,0.0],[-79.06097,35.89054,0.0],[-79.06118,35.89011,0.0],[-79.06123,35.88987,0.0],[-79.06129,35.88952,0.0],[-79.06159,35.8874,0.0]]]]}},{"type":"Feature","properties":{"uesi_id":"USA_R179860","nbhd_code":"USA_R179860_12","nbhd_name":"37135011902"},"geometry":{"type":"MultiPolygon","coordinates":[[[[-79.01823,35.94196,0.0],[-79.02191,35.93952,0.0],[-79.02329,35.93863,0.0],[-79.02338,35.93859,0.0],[-79.02402,35.93814,0.0],[-79.02516,35.93743,0.0],[-79.0256,35.93714,0.0],[-79.02578,35.93702,0.0],[-79.02628,35.9367,0.0],[-79.02655,35.93659,0.0],[-79.02705,35.93632,0.0],[-79.02945,35.93503,0.0],[-79.0302,35.93426,0.0],[-79.03147,35.93296,0.0],[-79.03314,35.93126,0.0],[-79.03344,35.9309,0.0],[-79.03363,35.93068,0.0],[-79.03388,35.93024,0.0],[-79.03429,35.92928,0.0],[-79.03478,35.92945,0.0],[-79.03515,35.92954,0.0],[-79.03585,35.92975,0.0],[-79.03589,35.92976,0.0],[-79.03664,35.93,0.0],[-79.03686,35.93011,0.0],[-79.03702,35.93018,0.0],[-79.03727,35.93032,0.0],[-79.03745,35.93044,0.0],[-79.03758,35.93058,0.0],[-79.03811,35.93121,0.0],[-79.03866,35.9318,0.0],[-79.03888,35.93196,0.0],[-79.03907,35.93209,0.0],[-79.03975,35.93238,0.0],[-79.04031,35.93264,0.0],[-79.04114,35.93311,0.0],[-79.04211,35.93368,0.0],[-79.04237,35.93384,0.0],[-79.04264,35.93406,0.0],[-79.04322,35.93459,0.0],[-79.04298,35.93477,0.0],[-79.04287,35.93489,0.0],[-79.0428,35.93498,0.0],[-79.04277,35.93508,0.0],[-79.04277,35.93518,0.0],[-79.04268,35.93518,0.0],[-79.04188,35.93516,0.0],[-79.04183,35.93626,0.0],[-79.0418,35.93636,0.0],[-79.04176,35.93649,0.0],[-79.04163,35.9368,0.0],[-79.04142,35.93729,0.0],[-79.04136,35.93747,0.0],[-79.04132,35.93772,0.0],[-79.0413,35.9378,0.0],[-79.04129,35.93786,0.0],[-79.04127,35.93802,0.0],[-79.0412,35.93819,0.0],[-79.04104,35.93841,0.0],[-79.04078,35.93868,0.0],[-79.0405,35.9389,0.0],[-79.04045,35.93895,0.0],[-79.04035,35.93907,0.0],[-79.04025,35.93923,0.0],[-79.04014,35.93953,0.0],[-79.0401,35.93979,0.0],[-79.04012,35.93992,0.0],[-79.04012,35.93998,0.0],[-79.04019,35.9402,0.0],[-79.04019,35.94027,0.0],[-79.04019,35.9404,0.0],[-79.04014,35.94062,0.0],[-79.04001,35.94089,0.0],[-79.03996,35.94094,0.0],[-79.03987,35.94105,0.0],[-79.03971,35.94127,0.0],[-79.03923,35.94234,0.0],[-79.03896,35.94283,0.0],[-79.03815,35.94414,0.0],[-79.03813,35.94416,0.0],[-79.0379,35.94439,0.0],[-79.03765,35.94456,0.0],[-79.03738,35.94472,0.0],[-79.03716,35.94486,0.0],[-79.03703,35.94498,0.0],[-79.03693,35.94516,0.0],[-79.03685,35.94542,0.0],[-79.03678,35.94562,0.0],[-79.03669,35.94581,0.0],[-79.03653,35.94602,0.0],[-79.0363,35.94621,0.0],[-79.036,35.94639,0.0],[-79.03595,35.94642,0.0],[-79.03572,35.94658,0.0],[-79.0356,35.94673,0.0],[-79.03552,35.94692,0.0],[-79.03537,35.94748,0.0],[-79.0353,35.94779,0.0],[-79.03521,35.94803,0.0],[-79.03506,35.94827,0.0],[-79.0349,35.94851,0.0],[-79.0346,35.94877,0.0],[-79.03431,35.94898,0.0],[-79.03391,35.94926,0.0],[-79.03374,35.94941,0.0],[-79.03361,35.94958,0.0],[-79.03349,35.94981,0.0],[-79.03349,35.94989,0.0],[-79.03347,35.95011,0.0],[-79.03348,35.9507,0.0],[-79.03353,35.95101,0.0],[-79.03353,35.95107,0.0],[-79.03353,35.95115,0.0],[-79.03373,35.95125,0.0],[-79.034,35.95138,0.0],[-79.0343,35.95148,0.0],[-79.03464,35.95158,0.0],[-79.03489,35.95166,0.0],[-79.03502,35.95167,0.0],[-79.03518,35.95168,0.0],[-79.03536,35.95167,0.0],[-79.03638,35.95155,0.0],[-79.03642,35.95176,0.0],[-79.03644,35.95184,0.0],[-79.03662,35.95219,0.0],[-79.03682,35.95249,0.0],[-79.03706,35.95273,0.0],[-79.03779,35.95328,0.0],[-79.03799,35.9535,0.0],[-79.03812,35.95376,0.0],[-79.03817,35.95399,0.0],[-79.03816,35.95446,0.0],[-79.03831,35.95667,0.0],[-79.03831,35.95693,0.0],[-79.03826,35.95708,0.0],[-79.03818,35.95723,0.0],[-79.03804,35.95735,0.0],[-79.0379,35.95745,0.0],[-79.03736,35.95776,0.0],[-79.03712,35.95793,0.0],[-79.03691,35.95809,0.0],[-79.03667,35.95835,0.0],[-79.03664,35.95837,0.0],[-79.03645,35.95854,0.0],[-79.03634,35.95863,0.0],[-79.03627,35.95866,0.0],[-79.03628,35.95869,0.0],[-79.03633,35.95884,0.0],[-79.03636,35.95896,0.0],[-79.03637,35.95976,0.0],[-79.03638,35.96032,0.0],[-79.03639,35.96047,0.0],[-79.03645,35.96081,0.0],[-79.0365,35.96104,0.0],[-79.03649,35.9612,0.0],[-79.03634,35.96185,0.0],[-79.03631,35.96198,0.0],[-79.03442,35.96174,0.0],[-79.03402,35.96167,0.0],[-79.03357,35.96153,0.0],[-79.03351,35.96151,0.0],[-79.03318,35.96138,0.0],[-79.03277,35.9612,0.0],[-79.0324,35.96098,0.0],[-79.03207,35.96075,0.0],[-79.03175,35.9605,0.0],[-79.03103,35.95979,0.0],[-79.03,35.95879,0.0],[-79.02975,35.95855,0.0],[-79.02949,35.95837,0.0],[-79.02922,35.95822,0.0],[-79.02897,35.95812,0.0],[-79.02886,35.95807,0.0],[-79.0284,35.95793,0.0],[-79.02793,35.95785,0.0],[-79.02743,35.95783,0.0],[-79.02692,35.95785,0.0],[-79.02665,35.95786,0.0],[-79.02596,35.9579,0.0],[-79.02559,35.95789,0.0],[-79.02519,35.95784,0.0],[-79.02485,35.95775,0.0],[-79.02481,35.95774,0.0],[-79.02442,35.95759,0.0],[-79.02408,35.95741,0.0],[-79.02375,35.95719,0.0],[-79.0234,35.95691,0.0],[-79.02316,35.95667,0.0],[-79.02244,35.95603,0.0],[-79.02211,35.95567,0.0],[-79.02186,35.95529,0.0],[-79.02171,35.95496,0.0],[-79.02144,35.95416,0.0],[-79.02115,35.95302,0.0],[-79.02092,35.95235,0.0],[-79.0203,35.95091,0.0],[-79.01988,35.94992,0.0],[-79.01982,35.94979,0.0],[-79.01946,35.94902,0.0],[-79.01984,35.94873,0.0],[-79.02012,35.94849,0.0],[-79.02029,35.94825,0.0],[-79.0204,35.94806,0.0],[-79.02043,35.94782,0.0],[-79.02041,35.94763,0.0],[-79.02029,35.94734,0.0],[-79.01996,35.94667,0.0],[-79.01963,35.94608,0.0],[-79.01951,35.94573,0.0],[-79.01931,35.94489,0.0],[-79.01917,35.94431,0.0],[-79.01866,35.94305,0.0],[-79.01846,35.94258,0.0],[-79.01831,35.94224,0.0],[-79.01823,35.94196,0.0]]]]}},{"type":"Feature","properties":{"uesi_id":"USA_R179860","nbhd_code":"USA_R179860_13","nbhd_name":"37135011602"},"geometry":{"type":"MultiPolygon","coordinates":[[[[-79.04264,35.89773,0.0],[-79.04283,35.8977,0.0],[-79.043,35.89765,0.0],[-79.04311,35.89762,0.0],[-79.04366,35.89762,0.0],[-79.04405,35.89764,0.0],[-79.04599,35.8978,0.0],[-79.04651,35.89787,0.0],[-79.04689,35.89794,0.0],[-79.04732,35.89805,0.0],[-79.04747,35.89809,0.0],[-79.04822,35.89831,0.0],[-79.04894,35.89849,0.0],[-79.04957,35.89872,0.0],[-79.04991,35.89891,0.0],[-79.05013,35.89905,0.0],[-79.05033,35.89915,0.0],[-79.05063,35.89944,0.0],[-79.05092,35.89973,0.0],[-79.05118,35.89999,0.0],[-79.05125,35.90009,0.0],[-79.05133,35.9002,0.0],[-79.05165,35.90082,0.0],[-79.05181,35.90113,0.0],[-79.05194,35.90137,0.0],[-79.05198,35.90141,0.0],[-79.05205,35.9015,0.0],[-79.05243,35.90178,0.0],[-79.05345,35.90209,0.0],[-79.05382,35.90216,0.0],[-79.05396,35.90218,0.0],[-79.05425,35.90219,0.0],[-79.05468,35.9022,0.0],[-79.05501,35.90218,0.0],[-79.05518,35.90217,0.0],[-79.05599,35.9021,0.0],[-79.05705,35.90203,0.0],[-79.05543,35.90381,0.0],[-79.05515,35.90409,0.0],[-79.05454,35.90456,0.0],[-79.05404,35.90495,0.0],[-79.05369,35.90524,0.0],[-79.05346,35.90545,0.0],[-79.05331,35.90562,0.0],[-79.05321,35.90578,0.0],[-79.05309,35.90603,0.0],[-79.05298,35.90634,0.0],[-79.05295,35.90645,0.0],[-79.05284,35.90716,0.0],[-79.05281,35.90737,0.0],[-79.05279,35.90761,0.0],[-79.05281,35.90797,0.0],[-79.05283,35.90813,0.0],[-79.05284,35.90819,0.0],[-79.0529,35.90842,0.0],[-79.05301,35.90868,0.0],[-79.05287,35.90865,0.0],[-79.05272,35.90862,0.0],[-79.05253,35.90863,0.0],[-79.05231,35.90866,0.0],[-79.05178,35.9087,0.0],[-79.05093,35.90864,0.0],[-79.05059,35.90863,0.0],[-79.05033,35.90866,0.0],[-79.05009,35.90872,0.0],[-79.0499,35.90875,0.0],[-79.04949,35.90892,0.0],[-79.04876,35.90919,0.0],[-79.0481,35.90953,0.0],[-79.04773,35.90969,0.0],[-79.04739,35.9098,0.0],[-79.04716,35.90987,0.0],[-79.04665,35.90998,0.0],[-79.04504,35.91026,0.0],[-79.04243,35.91077,0.0],[-79.04174,35.91092,0.0],[-79.0412,35.91049,0.0],[-79.04134,35.91017,0.0],[-79.04139,35.90996,0.0],[-79.04139,35.90973,0.0],[-79.04141,35.90933,0.0],[-79.04144,35.90914,0.0],[-79.04148,35.90893,0.0],[-79.04151,35.90852,0.0],[-79.04156,35.90743,0.0],[-79.04155,35.90689,0.0],[-79.04142,35.90615,0.0],[-79.0409,35.90511,0.0],[-79.04086,35.90509,0.0],[-79.04084,35.90507,0.0],[-79.04081,35.90503,0.0],[-79.04072,35.90492,0.0],[-79.0406,35.90482,0.0],[-79.04057,35.90478,0.0],[-79.04053,35.90474,0.0],[-79.04047,35.90465,0.0],[-79.04043,35.90456,0.0],[-79.04039,35.90442,0.0],[-79.04037,35.90437,0.0],[-79.04037,35.90429,0.0],[-79.04038,35.90424,0.0],[-79.04047,35.904,0.0],[-79.04052,35.90392,0.0],[-79.04057,35.90382,0.0],[-79.04069,35.90367,0.0],[-79.04073,35.90361,0.0],[-79.04074,35.90359,0.0],[-79.04078,35.90349,0.0],[-79.0408,35.90343,0.0],[-79.04082,35.90335,0.0],[-79.04082,35.90332,0.0],[-79.04087,35.90308,0.0],[-79.04087,35.90304,0.0],[-79.04088,35.90301,0.0],[-79.04088,35.90294,0.0],[-79.04089,35.90291,0.0],[-79.04091,35.90286,0.0],[-79.04093,35.90284,0.0],[-79.04095,35.9028,0.0],[-79.04096,35.90272,0.0],[-79.04096,35.90265,0.0],[-79.04093,35.90259,0.0],[-79.0409,35.90252,0.0],[-79.0409,35.90248,0.0],[-79.04089,35.9024,0.0],[-79.04078,35.90222,0.0],[-79.04075,35.90214,0.0],[-79.0407,35.90206,0.0],[-79.0406,35.9019,0.0],[-79.04053,35.90176,0.0],[-79.04049,35.90172,0.0],[-79.04045,35.90164,0.0],[-79.04039,35.90155,0.0],[-79.04037,35.90153,0.0],[-79.04035,35.9015,0.0],[-79.04033,35.90148,0.0],[-79.04026,35.90141,0.0],[-79.04022,35.9014,0.0],[-79.04018,35.9014,0.0],[-79.04007,35.90138,0.0],[-79.03991,35.90136,0.0],[-79.03987,35.90136,0.0],[-79.03981,35.90135,0.0],[-79.03972,35.90133,0.0],[-79.03969,35.90133,0.0],[-79.03938,35.90122,0.0],[-79.03935,35.90119,0.0],[-79.03925,35.90113,0.0],[-79.03907,35.90105,0.0],[-79.03901,35.90101,0.0],[-79.03891,35.90096,0.0],[-79.03881,35.9009,0.0],[-79.03879,35.90089,0.0],[-79.0387,35.90083,0.0],[-79.03865,35.90079,0.0],[-79.03856,35.90071,0.0],[-79.03853,35.90071,0.0],[-79.0385,35.90069,0.0],[-79.03846,35.90068,0.0],[-79.03831,35.90061,0.0],[-79.0382,35.90055,0.0],[-79.03813,35.90049,0.0],[-79.03806,35.90045,0.0],[-79.03798,35.90041,0.0],[-79.03794,35.90039,0.0],[-79.0379,35.90037,0.0],[-79.03768,35.90028,0.0],[-79.03761,35.90025,0.0],[-79.03757,35.90024,0.0],[-79.03752,35.90019,0.0],[-79.03748,35.90014,0.0],[-79.03746,35.90013,0.0],[-79.0374,35.90009,0.0],[-79.03733,35.90006,0.0],[-79.03729,35.90004,0.0],[-79.03717,35.9,0.0],[-79.03709,35.89995,0.0],[-79.03707,35.89994,0.0],[-79.03699,35.89987,0.0],[-79.03693,35.89981,0.0],[-79.03692,35.89979,0.0],[-79.03689,35.89975,0.0],[-79.03676,35.89965,0.0],[-79.0363,35.89932,0.0],[-79.03617,35.89921,0.0],[-79.03613,35.89919,0.0],[-79.03608,35.89917,0.0],[-79.036,35.89913,0.0],[-79.03597,35.8991,0.0],[-79.03592,35.89908,0.0],[-79.03588,35.89905,0.0],[-79.03585,35.89904,0.0],[-79.03573,35.89897,0.0],[-79.03569,35.89895,0.0],[-79.03559,35.89893,0.0],[-79.03553,35.89891,0.0],[-79.03537,35.89886,0.0],[-79.03569,35.89865,0.0],[-79.0361,35.8984,0.0],[-79.03734,35.89785,0.0],[-79.03761,35.89774,0.0],[-79.03822,35.89752,0.0],[-79.03931,35.89724,0.0],[-79.04032,35.89705,0.0],[-79.04047,35.89716,0.0],[-79.0407,35.89743,0.0],[-79.04076,35.89748,0.0],[-79.04086,35.89752,0.0],[-79.04102,35.89756,0.0],[-79.04145,35.89762,0.0],[-79.04225,35.89772,0.0],[-79.04243,35.89773,0.0],[-79.04264,35.89773,0.0]]]]}},{"type":"Feature","properties":{"uesi_id":"USA_R179860","nbhd_code":"USA_R179860_14","nbhd_name":"37135012201"},"geometry":{"type":"MultiPolygon","coordinates":[[[[-79.04542,35.86214,0.0],[-79.05027,35.86196,0.0],[-79.05028,35.86196,0.0],[-79.05029,35.86196,0.0],[-79.05059,35.86195,0.0],[-79.05062,35.86195,0.0],[-79.05063,35.86195,0.0],[-79.05316,35.86185,0.0],[-79.05326,35.86185,0.0],[-79.05341,35.86184,0.0],[-79.05512,35.86178,0.0],[-79.05515,35.86178,0.0],[-79.06028,35.86158,0.0],[-79.06129,35.86155,0.0],[-79.06155,35.86154,0.0],[-79.06182,35.86153,0.0],[-79.06471,35.86142,0.0],[-79.06486,35.86141,0.0],[-79.06493,35.86141,0.0],[-79.0675,35.86129,0.0],[-79.06883,35.86123,0.0],[-79.06897,35.86123,0.0],[-79.06945,35.86121,0.0],[-79.07085,35.86115,0.0],[-79.07755,35.86086,0.0],[-79.07847,35.86083,0.0],[-79.07893,35.86081,0.0],[-79.08199,35.86068,0.0],[-79.08179,35.86092,0.0],[-79.08134,35.86132,0.0],[-79.08031,35.86218,0.0],[-79.0802,35.86228,0.0],[-79.08007,35.86237,0.0],[-79.07974,35.86257,0.0],[-79.07924,35.86275,0.0],[-79.07864,35.86293,0.0],[-79.07799,35.86314,0.0],[-79.07742,35.86339,0.0],[-79.07702,35.86368,0.0],[-79.07663,35.86402,0.0],[-79.07637,35.86433,0.0],[-79.07611,35.8647,0.0],[-79.07573,35.86539,0.0],[-79.07527,35.86614,0.0],[-79.07474,35.86673,0.0],[-79.0746,35.86688,0.0],[-79.07414,35.8673,0.0],[-79.0738,35.86752,0.0],[-79.07288,35.86812,0.0],[-79.07241,35.86839,0.0],[-79.07213,35.86856,0.0],[-79.07133,35.869,0.0],[-79.0709,35.86926,0.0],[-79.0705,35.8695,0.0],[-79.0703,35.86963,0.0],[-79.07008,35.86976,0.0],[-79.06964,35.87011,0.0],[-79.06938,35.87034,0.0],[-79.06852,35.87112,0.0],[-79.06834,35.87131,0.0],[-79.06733,35.87225,0.0],[-79.06673,35.87289,0.0],[-79.06652,35.87329,0.0],[-79.06644,35.87345,0.0],[-79.06631,35.87373,0.0],[-79.06619,35.8741,0.0],[-79.06506,35.87694,0.0],[-79.06461,35.87797,0.0],[-79.06437,35.87846,0.0],[-79.06423,35.8787,0.0],[-79.06388,35.87912,0.0],[-79.06335,35.87978,0.0],[-79.06302,35.88017,0.0],[-79.06157,35.8819,0.0],[-79.06087,35.88272,0.0],[-79.06068,35.88302,0.0],[-79.06067,35.88305,0.0],[-79.06056,35.88334,0.0],[-79.06058,35.88366,0.0],[-79.06058,35.88368,0.0],[-79.06074,35.88413,0.0],[-79.06109,35.88473,0.0],[-79.06142,35.88563,0.0],[-79.0615,35.88585,0.0],[-79.06154,35.88608,0.0],[-79.06159,35.88629,0.0],[-79.06165,35.88681,0.0],[-79.06164,35.88709,0.0],[-79.06159,35.8874,0.0],[-79.06129,35.88952,0.0],[-79.06123,35.88987,0.0],[-79.06118,35.89011,0.0],[-79.06097,35.89054,0.0],[-79.06083,35.8907,0.0],[-79.06068,35.89083,0.0],[-79.06049,35.89098,0.0],[-79.05991,35.89134,0.0],[-79.05962,35.89149,0.0],[-79.05959,35.89151,0.0],[-79.05913,35.89178,0.0],[-79.05896,35.89187,0.0],[-79.05858,35.89208,0.0],[-79.05809,35.8924,0.0],[-79.05759,35.89288,0.0],[-79.05751,35.8931,0.0],[-79.05744,35.89346,0.0],[-79.05703,35.89347,0.0],[-79.05657,35.89351,0.0],[-79.05652,35.89352,0.0],[-79.05572,35.89366,0.0],[-79.05478,35.89391,0.0],[-79.05337,35.89424,0.0],[-79.05237,35.89445,0.0],[-79.05043,35.89485,0.0],[-79.04842,35.89529,0.0],[-79.04577,35.89586,0.0],[-79.04218,35.89666,0.0],[-79.04149,35.89681,0.0],[-79.04051,35.89701,0.0],[-79.04032,35.89705,0.0],[-79.03931,35.89724,0.0],[-79.03822,35.89752,0.0],[-79.03761,35.89774,0.0],[-79.03734,35.89785,0.0],[-79.0361,35.8984,0.0],[-79.03569,35.89865,0.0],[-79.03537,35.89886,0.0],[-79.03485,35.89921,0.0],[-79.03431,35.89963,0.0],[-79.03353,35.90045,0.0],[-79.03272,35.90141,0.0],[-79.02926,35.90546,0.0],[-79.02907,35.90569,0.0],[-79.02892,35.90587,0.0],[-79.02842,35.9065,0.0],[-79.02797,35.90711,0.0],[-79.02769,35.90756,0.0],[-79.02762,35.9077,0.0],[-79.02746,35.90798,0.0],[-79.02709,35.90871,0.0],[-79.02661,35.9086,0.0],[-79.02638,35.90855,0.0],[-79.02596,35.90846,0.0],[-79.02451,35.90814,0.0],[-79.02383,35.908,0.0],[-79.02306,35.9078,0.0],[-79.02201,35.90753,0.0],[-79.02199,35.90752,0.0],[-79.02092,35.90711,0.0],[-79.01892,35.90624,0.0],[-79.01107,35.90289,0.0],[-79.01061,35.90269,0.0],[-79.00962,35.9022,0.0],[-79.00958,35.90218,0.0],[-79.00959,35.90216,0.0],[-79.00959,35.90215,0.0],[-79.00959,35.90215,0.0],[-79.00959,35.90215,0.0],[-79.00959,35.90213,0.0],[-79.00983,35.90058,0.0],[-79.00985,35.90048,0.0],[-79.00989,35.90023,0.0],[-79.0099,35.90015,0.0],[-79.0099,35.90013,0.0],[-79.0099,35.90013,0.0],[-79.0099,35.90012,0.0],[-79.01006,35.89909,0.0],[-79.01008,35.89902,0.0],[-79.01011,35.89882,0.0],[-79.01011,35.8988,0.0],[-79.01017,35.89844,0.0],[-79.01019,35.89832,0.0],[-79.01037,35.89713,0.0],[-79.01038,35.89707,0.0],[-79.01055,35.89597,0.0],[-79.01056,35.89595,0.0],[-79.01073,35.89486,0.0],[-79.01111,35.89243,0.0],[-79.01139,35.89033,0.0],[-79.01166,35.88855,0.0],[-79.01183,35.88743,0.0],[-79.01231,35.8844,0.0],[-79.01271,35.8819,0.0],[-79.01341,35.87745,0.0],[-79.01372,35.87558,0.0],[-79.01371,35.87548,0.0],[-79.01367,35.87515,0.0],[-79.01356,35.87422,0.0],[-79.01396,35.87311,0.0],[-79.01422,35.87238,0.0],[-79.01436,35.87165,0.0],[-79.01468,35.87061,0.0],[-79.0167,35.8632,0.0],[-79.01688,35.86319,0.0],[-79.01769,35.86316,0.0],[-79.02031,35.86309,0.0],[-79.02179,35.86304,0.0],[-79.02183,35.86304,0.0],[-79.02223,35.86303,0.0],[-79.024,35.86298,0.0],[-79.02538,35.86294,0.0],[-79.02652,35.86291,0.0],[-79.02663,35.86291,0.0],[-79.02969,35.86275,0.0],[-79.03114,35.8627,0.0],[-79.03115,35.8627,0.0],[-79.0319,35.86267,0.0],[-79.03193,35.86267,0.0],[-79.03243,35.86265,0.0],[-79.0325,35.86265,0.0],[-79.03262,35.86264,0.0],[-79.03266,35.86264,0.0],[-79.03269,35.86264,0.0],[-79.03271,35.86264,0.0],[-79.03273,35.86264,0.0],[-79.03287,35.86263,0.0],[-79.03374,35.86258,0.0],[-79.03376,35.86258,0.0],[-79.03377,35.86258,0.0],[-79.03618,35.86249,0.0],[-79.03624,35.86248,0.0],[-79.03625,35.86248,0.0],[-79.03628,35.86248,0.0],[-79.03628,35.86248,0.0],[-79.03631,35.86248,0.0],[-79.03637,35.86248,0.0],[-79.03637,35.86248,0.0],[-79.03702,35.86246,0.0],[-79.03908,35.86238,0.0],[-79.03917,35.86238,0.0],[-79.03932,35.86237,0.0],[-79.03936,35.86237,0.0],[-79.03937,35.86237,0.0],[-79.03939,35.86237,0.0],[-79.04114,35.8623,0.0],[-79.04156,35.86228,0.0],[-79.04157,35.86228,0.0],[-79.04195,35.86227,0.0],[-79.04196,35.86227,0.0],[-79.04199,35.86227,0.0],[-79.04411,35.86219,0.0],[-79.04535,35.86214,0.0],[-79.04542,35.86214,0.0]]]]}},{"type":"Feature","properties":{"uesi_id":"USA_R179860","nbhd_code":"USA_R179860_15","nbhd_name":"37135011901"},"geometry":{"type":"MultiPolygon","coordinates":[[[[-79.05833,35.94622,0.0],[-79.05834,35.9463,0.0],[-79.05854,35.9473,0.0],[-79.05854,35.9478,0.0],[-79.05848,35.94848,0.0],[-79.05837,35.94943,0.0],[-79.05835,35.94957,0.0],[-79.05821,35.95037,0.0],[-79.05812,35.95088,0.0],[-79.05795,35.95146,0.0],[-79.05763,35.95239,0.0],[-79.0576,35.95264,0.0],[-79.0576,35.9527,0.0],[-79.05761,35.95293,0.0],[-79.05769,35.95343,0.0],[-79.05777,35.95377,0.0],[-79.05786,35.95418,0.0],[-79.05785,35.95514,0.0],[-79.05783,35.95584,0.0],[-79.05783,35.95586,0.0],[-79.05781,35.95638,0.0],[-79.05781,35.95639,0.0],[-79.05777,35.95671,0.0],[-79.05768,35.95706,0.0],[-79.05759,35.95742,0.0],[-79.05752,35.9577,0.0],[-79.05746,35.95794,0.0],[-79.05737,35.95835,0.0],[-79.05736,35.95842,0.0],[-79.05734,35.95865,0.0],[-79.05732,35.95887,0.0],[-79.05732,35.95905,0.0],[-79.05729,35.95952,0.0],[-79.05729,35.95966,0.0],[-79.05728,35.95985,0.0],[-79.05727,35.96004,0.0],[-79.0573,35.96044,0.0],[-79.05737,35.96087,0.0],[-79.05744,35.96115,0.0],[-79.05768,35.96221,0.0],[-79.05769,35.96223,0.0],[-79.05793,35.96301,0.0],[-79.05834,35.96399,0.0],[-79.05639,35.96395,0.0],[-79.05574,35.96393,0.0],[-79.05507,35.96392,0.0],[-79.05346,35.96389,0.0],[-79.05311,35.96388,0.0],[-79.05265,35.96388,0.0],[-79.05196,35.96388,0.0],[-79.04902,35.96387,0.0],[-79.04894,35.96387,0.0],[-79.04839,35.96386,0.0],[-79.04763,35.96385,0.0],[-79.04757,35.96385,0.0],[-79.04695,35.96388,0.0],[-79.04639,35.96394,0.0],[-79.04599,35.96399,0.0],[-79.04558,35.96403,0.0],[-79.04518,35.96406,0.0],[-79.04436,35.96406,0.0],[-79.04358,35.964,0.0],[-79.04352,35.96399,0.0],[-79.04198,35.96388,0.0],[-79.04101,35.96381,0.0],[-79.04058,35.96378,0.0],[-79.04026,35.96372,0.0],[-79.03993,35.96362,0.0],[-79.03966,35.96355,0.0],[-79.03923,35.96334,0.0],[-79.03884,35.96313,0.0],[-79.03852,35.9629,0.0],[-79.0378,35.96245,0.0],[-79.03742,35.96224,0.0],[-79.03727,35.96218,0.0],[-79.0371,35.96212,0.0],[-79.03676,35.96204,0.0],[-79.03651,35.962,0.0],[-79.03631,35.96198,0.0],[-79.03634,35.96185,0.0],[-79.03649,35.9612,0.0],[-79.0365,35.96104,0.0],[-79.03645,35.96081,0.0],[-79.03639,35.96047,0.0],[-79.03638,35.96032,0.0],[-79.03637,35.95976,0.0],[-79.03636,35.95896,0.0],[-79.03633,35.95884,0.0],[-79.03628,35.95869,0.0],[-79.03627,35.95866,0.0],[-79.03634,35.95863,0.0],[-79.03645,35.95854,0.0],[-79.03664,35.95837,0.0],[-79.03667,35.95835,0.0],[-79.03691,35.95809,0.0],[-79.03712,35.95793,0.0],[-79.03736,35.95776,0.0],[-79.0379,35.95745,0.0],[-79.03804,35.95735,0.0],[-79.03818,35.95723,0.0],[-79.03826,35.95708,0.0],[-79.03831,35.95693,0.0],[-79.03831,35.95667,0.0],[-79.03816,35.95446,0.0],[-79.03817,35.95399,0.0],[-79.03812,35.95376,0.0],[-79.03799,35.9535,0.0],[-79.03779,35.95328,0.0],[-79.03706,35.95273,0.0],[-79.03682,35.95249,0.0],[-79.03662,35.95219,0.0],[-79.03644,35.95184,0.0],[-79.03642,35.95176,0.0],[-79.03638,35.95155,0.0],[-79.03536,35.95167,0.0],[-79.03518,35.95168,0.0],[-79.03502,35.95167,0.0],[-79.03489,35.95166,0.0],[-79.03464,35.95158,0.0],[-79.0343,35.95148,0.0],[-79.034,35.95138,0.0],[-79.03373,35.95125,0.0],[-79.03353,35.95115,0.0],[-79.03353,35.95107,0.0],[-79.03353,35.95101,0.0],[-79.03348,35.9507,0.0],[-79.03347,35.95011,0.0],[-79.03349,35.94989,0.0],[-79.03349,35.94981,0.0],[-79.03361,35.94958,0.0],[-79.03374,35.94941,0.0],[-79.03391,35.94926,0.0],[-79.03431,35.94898,0.0],[-79.0346,35.94877,0.0],[-79.0349,35.94851,0.0],[-79.03506,35.94827,0.0],[-79.03521,35.94803,0.0],[-79.0353,35.94779,0.0],[-79.03537,35.94748,0.0],[-79.03552,35.94692,0.0],[-79.0356,35.94673,0.0],[-79.03572,35.94658,0.0],[-79.03595,35.94642,0.0],[-79.036,35.94639,0.0],[-79.0363,35.94621,0.0],[-79.03653,35.94602,0.0],[-79.03669,35.94581,0.0],[-79.03678,35.94562,0.0],[-79.03685,35.94542,0.0],[-79.03693,35.94516,0.0],[-79.03703,35.94498,0.0],[-79.03716,35.94486,0.0],[-79.03738,35.94472,0.0],[-79.03765,35.94456,0.0],[-79.0379,35.94439,0.0],[-79.03813,35.94416,0.0],[-79.03815,35.94414,0.0],[-79.03896,35.94283,0.0],[-79.03923,35.94234,0.0],[-79.03971,35.94127,0.0],[-79.03987,35.94105,0.0],[-79.03996,35.94094,0.0],[-79.04001,35.94089,0.0],[-79.04014,35.94062,0.0],[-79.04019,35.9404,0.0],[-79.04019,35.94027,0.0],[-79.04019,35.9402,0.0],[-79.04012,35.93998,0.0],[-79.04012,35.93992,0.0],[-79.0401,35.93979,0.0],[-79.04014,35.93953,0.0],[-79.04025,35.93923,0.0],[-79.04035,35.93907,0.0],[-79.04045,35.93895,0.0],[-79.0405,35.9389,0.0],[-79.04078,35.93868,0.0],[-79.04104,35.93841,0.0],[-79.0412,35.93819,0.0],[-79.04127,35.93802,0.0],[-79.04129,35.93786,0.0],[-79.0413,35.9378,0.0],[-79.04132,35.93772,0.0],[-79.04136,35.93747,0.0],[-79.04142,35.93729,0.0],[-79.04163,35.9368,0.0],[-79.04176,35.93649,0.0],[-79.0418,35.93636,0.0],[-79.04183,35.93626,0.0],[-79.04188,35.93516,0.0],[-79.04268,35.93518,0.0],[-79.04277,35.93518,0.0],[-79.04277,35.93508,0.0],[-79.0428,35.93498,0.0],[-79.04287,35.93489,0.0],[-79.04298,35.93477,0.0],[-79.04322,35.93459,0.0],[-79.0435,35.93487,0.0],[-79.04372,35.93499,0.0],[-79.044,35.93507,0.0],[-79.0443,35.93512,0.0],[-79.04454,35.93512,0.0],[-79.04495,35.93513,0.0],[-79.04562,35.93514,0.0],[-79.04687,35.93515,0.0],[-79.0479,35.93516,0.0],[-79.04919,35.93517,0.0],[-79.05076,35.93518,0.0],[-79.05172,35.93518,0.0],[-79.05613,35.9352,0.0],[-79.0564,35.93655,0.0],[-79.05645,35.93677,0.0],[-79.05695,35.93929,0.0],[-79.05741,35.94161,0.0],[-79.05766,35.94289,0.0],[-79.05792,35.94418,0.0],[-79.0581,35.9451,0.0],[-79.0582,35.94557,0.0],[-79.05832,35.94618,0.0],[-79.05833,35.94622,0.0]]]]}},{"type":"Feature","properties":{"uesi_id":"USA_R179860","nbhd_code":"USA_R179860_16","nbhd_name":"37135011601"},"geometry":{"type":"MultiPolygon","coordinates":[[[[-79.055,35.90553,0.0],[-79.055,35.9057,0.0],[-79.05498,35.90599,0.0],[-79.05488,35.90667,0.0],[-79.05479,35.90703,0.0],[-79.05469,35.9075,0.0],[-79.05463,35.90818,0.0],[-79.05464,35.90857,0.0],[-79.05467,35.90876,0.0],[-79.05471,35.9089,0.0],[-79.0548,35.90904,0.0],[-79.05486,35.90914,0.0],[-79.05549,35.91024,0.0],[-79.05433,35.9107,0.0],[-79.05483,35.91151,0.0],[-79.0558,35.91314,0.0],[-79.05453,35.91363,0.0],[-79.05285,35.91428,0.0],[-79.05205,35.91458,0.0],[-79.05067,35.91511,0.0],[-79.05062,35.91513,0.0],[-79.04925,35.91565,0.0],[-79.04805,35.91611,0.0],[-79.04795,35.91593,0.0],[-79.04754,35.91523,0.0],[-79.04737,35.91492,0.0],[-79.04707,35.91439,0.0],[-79.04659,35.91358,0.0],[-79.04653,35.91343,0.0],[-79.04624,35.91338,0.0],[-79.04606,35.91336,0.0],[-79.04574,35.91328,0.0],[-79.04534,35.91317,0.0],[-79.04508,35.91308,0.0],[-79.04475,35.91297,0.0],[-79.04443,35.91285,0.0],[-79.04396,35.9126,0.0],[-79.04331,35.91225,0.0],[-79.0426,35.91174,0.0],[-79.04174,35.91092,0.0],[-79.04243,35.91077,0.0],[-79.04504,35.91026,0.0],[-79.04665,35.90998,0.0],[-79.04716,35.90987,0.0],[-79.04739,35.9098,0.0],[-79.04773,35.90969,0.0],[-79.0481,35.90953,0.0],[-79.04876,35.90919,0.0],[-79.04949,35.90892,0.0],[-79.0499,35.90875,0.0],[-79.05009,35.90872,0.0],[-79.05033,35.90866,0.0],[-79.05059,35.90863,0.0],[-79.05093,35.90864,0.0],[-79.05178,35.9087,0.0],[-79.05231,35.90866,0.0],[-79.05253,35.90863,0.0],[-79.05272,35.90862,0.0],[-79.05287,35.90865,0.0],[-79.05301,35.90868,0.0],[-79.0529,35.90842,0.0],[-79.05284,35.90819,0.0],[-79.05283,35.90813,0.0],[-79.05281,35.90797,0.0],[-79.05279,35.90761,0.0],[-79.05281,35.90737,0.0],[-79.05284,35.90716,0.0],[-79.05295,35.90645,0.0],[-79.05298,35.90634,0.0],[-79.05309,35.90603,0.0],[-79.05321,35.90578,0.0],[-79.05331,35.90562,0.0],[-79.05346,35.90545,0.0],[-79.05369,35.90524,0.0],[-79.05404,35.90495,0.0],[-79.05454,35.90456,0.0],[-79.05515,35.90409,0.0],[-79.05514,35.90422,0.0],[-79.05504,35.90506,0.0],[-79.05502,35.90524,0.0],[-79.055,35.90553,0.0]]]]}}]}