{"type":"FeatureCollection","name":"USA_R127319","crs":{"type":"name","properties":{"name":"urn:ogc:def:crs:OGC:1.3:CRS84"}},"features":[{"type":"Feature","properties":{"uesi_id":"USA_R127319","nbhd_code":"USA_R127319_1","nbhd_name":"Census Tract 38.03"},"geometry":{"type":"MultiPolygon","coordinates":[[[[-87.4743,37.9656,0.0],[-87.4744,37.9657,0.0],[-87.4743,37.9694,0.0],[-87.4741,37.9767,0.0],[-87.4596,37.9768,0.0],[-87.45,37.9768,0.0],[-87.4502,37.9695,0.0],[-87.4505,37.9575,0.0],[-87.4512,37.9579,0.0],[-87.4579,37.9592,0.0],[-87.463,37.9597,0.0],[-87.4646,37.9598,0.0],[-87.4654,37.96,0.0],[-87.4688,37.9621,0.0],[-87.4744,37.9621,0.0],[-87.4743,37.9656,0.0]]]]}},{"type":"Feature","properties":{"uesi_id":"USA_R127319","nbhd_code":"USA_R127319_2","nbhd_name":"Census Tract 35"},"geometry":{"type":"MultiPolygon","coordinates":[[[[-87.5623,38.0311,0.0],[-87.5623,38.0324,0.0],[-87.5621,38.0337,0.0],[-87.5597,38.0338,0.0],[-87.5557,38.0374,0.0],[-87.5478,38.0376,0.0],[-87.5424,38.0401,0.0],[-87.5412,38.0409,0.0],[-87.5409,38.04,0.0],[-87.5389,38.034,0.0],[-87.5388,38.0281,0.0],[-87.5392,38.0084,0.0],[-87.5383,38.0042,0.0],[-87.5401,38.004,0.0],[-87.5427,38.0062,0.0],[-87.5466,38.0073,0.0],[-87.5482,38.009,0.0],[-87.551,38.0097,0.0],[-87.5527,38.0092,0.0],[-87.555,38.0079,0.0],[-87.5564,38.0104,0.0],[-87.5567,38.0112,0.0],[-87.557,38.0117,0.0],[-87.5609,38.0139,0.0],[-87.5621,38.0204,0.0],[-87.5622,38.0212,0.0],[-87.5623,38.0256,0.0],[-87.5623,38.0311,0.0]]]]}},{"type":"Feature","properties":{"uesi_id":"USA_R127319","nbhd_code":"USA_R127319_3","nbhd_name":"Census Tract 13"},"geometry":{"type":"MultiPolygon","coordinates":[[[[-87.557,37.9605,0.0],[-87.5569,37.9629,0.0],[-87.5569,37.9647,0.0],[-87.5525,37.9647,0.0],[-87.5477,37.9646,0.0],[-87.5478,37.9628,0.0],[-87.548,37.9565,0.0],[-87.5525,37.9565,0.0],[-87.5542,37.9565,0.0],[-87.5571,37.9568,0.0],[-87.557,37.9605,0.0]]]]}},{"type":"Feature","properties":{"uesi_id":"USA_R127319","nbhd_code":"USA_R127319_4","nbhd_name":"Census Tract 36"},"geometry":{"type":"MultiPolygon","coordinates":[[[[-87.5299,37.9361,0.0],[-87.5299,37.9426,0.0],[-87.5299,37.9445,0.0],[-87.5298,37.9481,0.0],[-87.5206,37.948,0.0],[-87.5205,37.948,0.0],[-87.5113,37.948,0.0],[-87.5073,37.948,0.0],[-87.5068,37.9479,0.0],[-87.501,37.9479,0.0],[-87.4929,37.9478,0.0],[-87.493,37.9394,0.0],[-87.4955,37.9391,0.0],[-87.4984,37.9389,0.0],[-87.5024,37.9389,0.0],[-87.5133,37.9396,0.0],[-87.5161,37.9393,0.0],[-87.5268,37.936,0.0],[-87.5299,37.9357,0.0],[-87.5299,37.9361,0.0]]]]}},{"type":"Feature","properties":{"uesi_id":"USA_R127319","nbhd_code":"USA_R127319_5","nbhd_name":"Census Tract 1"},"geometry":{"type":"MultiPolygon","coordinates":[[[[-87.5472,37.9992,0.0],[-87.5471,38.0022,0.0],[-87.547,38.0068,0.0],[-87.5466,38.0073,0.0],[-87.5427,38.0062,0.0],[-87.5401,38.004,0.0],[-87.5383,38.0042,0.0],[-87.5364,38.0059,0.0],[-87.5343,38.006,0.0],[-87.5299,38.0036,0.0],[-87.5271,38.0002,0.0],[-87.5274,37.9979,0.0],[-87.5269,37.9969,0.0],[-87.5249,37.9961,0.0],[-87.5251,37.9958,0.0],[-87.5264,37.9917,0.0],[-87.5292,37.9917,0.0],[-87.5383,37.9918,0.0],[-87.5388,37.9918,0.0],[-87.5475,37.9921,0.0],[-87.5472,37.9992,0.0]]]]}},{"type":"Feature","properties":{"uesi_id":"USA_R127319","nbhd_code":"USA_R127319_6","nbhd_name":"Census Tract 9"},"geometry":{"type":"MultiPolygon","coordinates":[[[[-87.5298,37.9536,0.0],[-87.5298,37.9553,0.0],[-87.5297,37.9571,0.0],[-87.5297,37.9627,0.0],[-87.5204,37.9627,0.0],[-87.5157,37.9626,0.0],[-87.5112,37.9625,0.0],[-87.5113,37.955,0.0],[-87.5113,37.948,0.0],[-87.5205,37.948,0.0],[-87.5206,37.948,0.0],[-87.5298,37.9481,0.0],[-87.5298,37.9536,0.0]]]]}},{"type":"Feature","properties":{"uesi_id":"USA_R127319","nbhd_code":"USA_R127319_7","nbhd_name":"Census Tract 19"},"geometry":{"type":"MultiPolygon","coordinates":[[[[-87.5905,37.9856,0.0],[-87.5811,37.9855,0.0],[-87.581,37.9857,0.0],[-87.5777,37.9859,0.0],[-87.5749,37.9859,0.0],[-87.5738,37.9849,0.0],[-87.5732,37.9848,0.0],[-87.5735,37.9776,0.0],[-87.5794,37.9779,0.0],[-87.5866,37.978,0.0],[-87.589,37.9815,0.0],[-87.5905,37.9856,0.0]]]]}},{"type":"Feature","properties":{"uesi_id":"USA_R127319","nbhd_code":"USA_R127319_8","nbhd_name":"Census Tract 20"},"geometry":{"type":"MultiPolygon","coordinates":[[[[-87.5738,37.9858,0.0],[-87.568,37.9857,0.0],[-87.5638,37.9856,0.0],[-87.5638,37.9847,0.0],[-87.564,37.9774,0.0],[-87.5735,37.9776,0.0],[-87.5732,37.9848,0.0],[-87.5738,37.9849,0.0],[-87.5738,37.9858,0.0]]]]}},{"type":"Feature","properties":{"uesi_id":"USA_R127319","nbhd_code":"USA_R127319_9","nbhd_name":"Census Tract 29"},"geometry":{"type":"MultiPolygon","coordinates":[[[[-87.6099,37.9713,0.0],[-87.6097,37.9782,0.0],[-87.6089,37.9783,0.0],[-87.6006,37.9779,0.0],[-87.6007,37.9729,0.0],[-87.6014,37.9725,0.0],[-87.6038,37.9689,0.0],[-87.6045,37.967,0.0],[-87.6072,37.9671,0.0],[-87.6101,37.9632,0.0],[-87.6099,37.9713,0.0]]]]}},{"type":"Feature","properties":{"uesi_id":"USA_R127319","nbhd_code":"USA_R127319_10","nbhd_name":"Census Tract 37.01"},"geometry":{"type":"MultiPolygon","coordinates":[[[[-87.5111,37.9661,0.0],[-87.511,37.9698,0.0],[-87.511,37.9734,0.0],[-87.5109,37.9769,0.0],[-87.4958,37.9766,0.0],[-87.4926,37.9768,0.0],[-87.4927,37.9695,0.0],[-87.4927,37.968,0.0],[-87.4927,37.9624,0.0],[-87.4996,37.9624,0.0],[-87.5112,37.9625,0.0],[-87.5111,37.9661,0.0]]]]}},{"type":"Feature","properties":{"uesi_id":"USA_R127319","nbhd_code":"USA_R127319_11","nbhd_name":"Census Tract 39"},"geometry":{"type":"MultiPolygon","coordinates":[[[[-87.5883,38.0367,0.0],[-87.5822,38.0364,0.0],[-87.5821,38.036,0.0],[-87.5796,38.0369,0.0],[-87.5772,38.0391,0.0],[-87.5737,38.04,0.0],[-87.5735,38.0389,0.0],[-87.5739,38.0253,0.0],[-87.574,38.0214,0.0],[-87.5741,38.0142,0.0],[-87.5811,38.0144,0.0],[-87.5873,38.0148,0.0],[-87.5874,38.0148,0.0],[-87.5879,38.0257,0.0],[-87.5884,38.0367,0.0],[-87.5883,38.0367,0.0]]]]}},{"type":"Feature","properties":{"uesi_id":"USA_R127319","nbhd_code":"USA_R127319_12","nbhd_name":"Census Tract 10"},"geometry":{"type":"MultiPolygon","coordinates":[[[[-87.5482,37.9426,0.0],[-87.5481,37.9483,0.0],[-87.548,37.9556,0.0],[-87.5436,37.9555,0.0],[-87.5422,37.9556,0.0],[-87.5388,37.9555,0.0],[-87.5306,37.9555,0.0],[-87.5298,37.9553,0.0],[-87.5298,37.9536,0.0],[-87.5298,37.9481,0.0],[-87.5299,37.9445,0.0],[-87.5299,37.9426,0.0],[-87.5299,37.9361,0.0],[-87.5299,37.9357,0.0],[-87.5307,37.9357,0.0],[-87.5329,37.9359,0.0],[-87.5348,37.9363,0.0],[-87.5482,37.9418,0.0],[-87.5482,37.9426,0.0]]]]}},{"type":"Feature","properties":{"uesi_id":"USA_R127319","nbhd_code":"USA_R127319_13","nbhd_name":"Census Tract 15"},"geometry":{"type":"MultiPolygon","coordinates":[[[[-87.5591,37.9685,0.0],[-87.5591,37.9701,0.0],[-87.5477,37.97,0.0],[-87.542,37.97,0.0],[-87.542,37.9664,0.0],[-87.5417,37.9646,0.0],[-87.542,37.9628,0.0],[-87.5428,37.9628,0.0],[-87.5478,37.9628,0.0],[-87.5477,37.9646,0.0],[-87.5525,37.9647,0.0],[-87.5569,37.9647,0.0],[-87.5592,37.9647,0.0],[-87.5591,37.9685,0.0]]]]}},{"type":"Feature","properties":{"uesi_id":"USA_R127319","nbhd_code":"USA_R127319_14","nbhd_name":"Census Tract 21"},"geometry":{"type":"MultiPolygon","coordinates":[[[[-87.5638,37.9847,0.0],[-87.5612,37.9847,0.0],[-87.5589,37.9847,0.0],[-87.5566,37.9847,0.0],[-87.5525,37.9847,0.0],[-87.5521,37.9847,0.0],[-87.5471,37.9848,0.0],[-87.5415,37.9846,0.0],[-87.5416,37.9813,0.0],[-87.5385,37.9816,0.0],[-87.5385,37.9801,0.0],[-87.5386,37.9772,0.0],[-87.5393,37.9772,0.0],[-87.5477,37.9772,0.0],[-87.5478,37.9773,0.0],[-87.5477,37.9774,0.0],[-87.5544,37.9773,0.0],[-87.559,37.9773,0.0],[-87.5613,37.9774,0.0],[-87.564,37.9774,0.0],[-87.5638,37.9847,0.0]]]]}},{"type":"Feature","properties":{"uesi_id":"USA_R127319","nbhd_code":"USA_R127319_15","nbhd_name":"Census Tract 28"},"geometry":{"type":"MultiPolygon","coordinates":[[[[-87.6111,38.0078,0.0],[-87.5999,38.0077,0.0],[-87.587,38.0076,0.0],[-87.5869,38.0076,0.0],[-87.5869,38.0069,0.0],[-87.5851,38.0038,0.0],[-87.5849,38.0032,0.0],[-87.5863,38.0029,0.0],[-87.588,38.0001,0.0],[-87.5893,37.9973,0.0],[-87.5893,37.9966,0.0],[-87.5893,37.9941,0.0],[-87.5899,37.9929,0.0],[-87.5925,37.9895,0.0],[-87.5926,37.9884,0.0],[-87.5914,37.9874,0.0],[-87.5905,37.9856,0.0],[-87.589,37.9815,0.0],[-87.5866,37.978,0.0],[-87.5869,37.9768,0.0],[-87.5879,37.9757,0.0],[-87.5898,37.976,0.0],[-87.5929,37.9758,0.0],[-87.5967,37.9748,0.0],[-87.6007,37.9729,0.0],[-87.6006,37.9779,0.0],[-87.6005,37.9784,0.0],[-87.6005,37.9821,0.0],[-87.6005,37.9857,0.0],[-87.6004,37.9879,0.0],[-87.6029,37.991,0.0],[-87.6046,37.9947,0.0],[-87.6059,37.9956,0.0],[-87.6078,37.9985,0.0],[-87.6102,38.0018,0.0],[-87.6102,38.0032,0.0],[-87.6102,38.004,0.0],[-87.6111,38.0078,0.0]]]]}},{"type":"Feature","properties":{"uesi_id":"USA_R127319","nbhd_code":"USA_R127319_16","nbhd_name":"Census Tract 30"},"geometry":{"type":"MultiPolygon","coordinates":[[[[-87.6279,37.9882,0.0],[-87.6275,37.9925,0.0],[-87.6183,37.995,0.0],[-87.6182,37.9978,0.0],[-87.6182,37.9989,0.0],[-87.6143,37.9988,0.0],[-87.6143,37.9976,0.0],[-87.6143,37.9971,0.0],[-87.6137,37.9971,0.0],[-87.6097,37.9969,0.0],[-87.6078,37.9985,0.0],[-87.6059,37.9956,0.0],[-87.6046,37.9947,0.0],[-87.6029,37.991,0.0],[-87.6004,37.9879,0.0],[-87.6005,37.9857,0.0],[-87.6005,37.9821,0.0],[-87.6005,37.9784,0.0],[-87.6006,37.9779,0.0],[-87.6089,37.9783,0.0],[-87.6097,37.9782,0.0],[-87.6097,37.9785,0.0],[-87.6195,37.9787,0.0],[-87.6194,37.983,0.0],[-87.6248,37.9857,0.0],[-87.6276,37.9867,0.0],[-87.6282,37.9869,0.0],[-87.6279,37.9882,0.0]]]]}},{"type":"Feature","properties":{"uesi_id":"USA_R127319","nbhd_code":"USA_R127319_17","nbhd_name":"Census Tract 37.02"},"geometry":{"type":"MultiPolygon","coordinates":[[[[-87.5113,37.955,0.0],[-87.5112,37.9625,0.0],[-87.4996,37.9624,0.0],[-87.4927,37.9624,0.0],[-87.4928,37.955,0.0],[-87.4929,37.9478,0.0],[-87.501,37.9479,0.0],[-87.5068,37.9479,0.0],[-87.5073,37.948,0.0],[-87.5113,37.948,0.0],[-87.5113,37.955,0.0]]]]}},{"type":"Feature","properties":{"uesi_id":"USA_R127319","nbhd_code":"USA_R127319_19","nbhd_name":"Census Tract 102.03"},"geometry":{"type":"MultiPolygon","coordinates":[[[[-87.5994,38.0259,0.0],[-87.5992,38.029,0.0],[-87.599,38.0368,0.0],[-87.5986,38.0513,0.0],[-87.589,38.0511,0.0],[-87.589,38.0579,0.0],[-87.5881,38.0593,0.0],[-87.5869,38.0603,0.0],[-87.582,38.0623,0.0],[-87.5777,38.0627,0.0],[-87.5734,38.0626,0.0],[-87.5632,38.0648,0.0],[-87.561,38.0648,0.0],[-87.552,38.0645,0.0],[-87.5507,38.064,0.0],[-87.5498,38.0633,0.0],[-87.5476,38.0576,0.0],[-87.547,38.0576,0.0],[-87.5443,38.0502,0.0],[-87.5412,38.0409,0.0],[-87.5424,38.0401,0.0],[-87.5478,38.0376,0.0],[-87.5557,38.0374,0.0],[-87.5597,38.0338,0.0],[-87.5621,38.0337,0.0],[-87.564,38.0347,0.0],[-87.5642,38.0357,0.0],[-87.5683,38.0361,0.0],[-87.5705,38.0372,0.0],[-87.5727,38.0387,0.0],[-87.5735,38.0389,0.0],[-87.5737,38.04,0.0],[-87.5772,38.0391,0.0],[-87.5796,38.0369,0.0],[-87.5821,38.036,0.0],[-87.5822,38.0364,0.0],[-87.5883,38.0367,0.0],[-87.5884,38.0367,0.0],[-87.5879,38.0257,0.0],[-87.5874,38.0148,0.0],[-87.587,38.0076,0.0],[-87.5999,38.0077,0.0],[-87.5994,38.0259,0.0]]]]}},{"type":"Feature","properties":{"uesi_id":"USA_R127319","nbhd_code":"USA_R127319_20","nbhd_name":"Census Tract 2.02"},"geometry":{"type":"MultiPolygon","coordinates":[[[[-87.5415,37.9846,0.0],[-87.5385,37.9848,0.0],[-87.5383,37.9918,0.0],[-87.5292,37.9917,0.0],[-87.5264,37.9917,0.0],[-87.52,37.9916,0.0],[-87.5044,37.9914,0.0],[-87.4934,37.9912,0.0],[-87.4926,37.9913,0.0],[-87.4927,37.9848,0.0],[-87.4926,37.9768,0.0],[-87.4958,37.9766,0.0],[-87.5109,37.9769,0.0],[-87.5202,37.9769,0.0],[-87.5201,37.9858,0.0],[-87.5241,37.9834,0.0],[-87.5256,37.9832,0.0],[-87.5293,37.9828,0.0],[-87.532,37.9825,0.0],[-87.5331,37.9823,0.0],[-87.5385,37.9801,0.0],[-87.5385,37.9816,0.0],[-87.5416,37.9813,0.0],[-87.5415,37.9846,0.0]]]]}},{"type":"Feature","properties":{"uesi_id":"USA_R127319","nbhd_code":"USA_R127319_21","nbhd_name":"Census Tract 25"},"geometry":{"type":"MultiPolygon","coordinates":[[[[-87.5746,37.9954,0.0],[-87.573,37.9939,0.0],[-87.5683,37.9948,0.0],[-87.5666,37.9963,0.0],[-87.5663,37.9996,0.0],[-87.5633,37.9995,0.0],[-87.5631,37.9986,0.0],[-87.5625,37.9968,0.0],[-87.5609,37.9966,0.0],[-87.5609,37.9948,0.0],[-87.561,37.9924,0.0],[-87.561,37.9912,0.0],[-87.5612,37.9847,0.0],[-87.5638,37.9847,0.0],[-87.5638,37.9856,0.0],[-87.568,37.9857,0.0],[-87.5738,37.9858,0.0],[-87.5736,37.9904,0.0],[-87.5747,37.9913,0.0],[-87.5746,37.9954,0.0]]]]}},{"type":"Feature","properties":{"uesi_id":"USA_R127319","nbhd_code":"USA_R127319_22","nbhd_name":"Census Tract 3"},"geometry":{"type":"MultiPolygon","coordinates":[[[[-87.5393,37.9767,0.0],[-87.5393,37.9772,0.0],[-87.5386,37.9772,0.0],[-87.5385,37.9801,0.0],[-87.5331,37.9823,0.0],[-87.532,37.9825,0.0],[-87.5293,37.9828,0.0],[-87.5256,37.9832,0.0],[-87.5241,37.9834,0.0],[-87.5201,37.9858,0.0],[-87.5202,37.9769,0.0],[-87.5248,37.977,0.0],[-87.5293,37.977,0.0],[-87.5294,37.9699,0.0],[-87.5393,37.97,0.0],[-87.5393,37.9767,0.0]]]]}},{"type":"Feature","properties":{"uesi_id":"USA_R127319","nbhd_code":"USA_R127319_23","nbhd_name":"Census Tract 5"},"geometry":{"type":"MultiPolygon","coordinates":[[[[-87.5295,37.9663,0.0],[-87.5294,37.9699,0.0],[-87.5233,37.9699,0.0],[-87.511,37.9698,0.0],[-87.5111,37.9661,0.0],[-87.5112,37.9625,0.0],[-87.5157,37.9626,0.0],[-87.5204,37.9627,0.0],[-87.5297,37.9627,0.0],[-87.5295,37.9663,0.0]]]]}},{"type":"Feature","properties":{"uesi_id":"USA_R127319","nbhd_code":"USA_R127319_24","nbhd_name":"Census Tract 8"},"geometry":{"type":"MultiPolygon","coordinates":[[[[-87.548,37.9565,0.0],[-87.5478,37.9628,0.0],[-87.5428,37.9628,0.0],[-87.542,37.9628,0.0],[-87.5386,37.9627,0.0],[-87.5297,37.9627,0.0],[-87.5297,37.9571,0.0],[-87.5298,37.9553,0.0],[-87.5306,37.9555,0.0],[-87.5388,37.9555,0.0],[-87.5422,37.9556,0.0],[-87.5436,37.9555,0.0],[-87.548,37.9556,0.0],[-87.548,37.9565,0.0]]]]}},{"type":"Feature","properties":{"uesi_id":"USA_R127319","nbhd_code":"USA_R127319_25","nbhd_name":"Census Tract 11"},"geometry":{"type":"MultiPolygon","coordinates":[[[[-87.5728,37.95,0.0],[-87.5722,37.9508,0.0],[-87.5722,37.9601,0.0],[-87.5718,37.9604,0.0],[-87.569,37.9614,0.0],[-87.5677,37.9617,0.0],[-87.5663,37.9619,0.0],[-87.566,37.9614,0.0],[-87.5663,37.9571,0.0],[-87.5651,37.9559,0.0],[-87.5627,37.9557,0.0],[-87.5614,37.9557,0.0],[-87.5614,37.9568,0.0],[-87.5596,37.9568,0.0],[-87.5571,37.9568,0.0],[-87.5542,37.9565,0.0],[-87.5525,37.9565,0.0],[-87.548,37.9565,0.0],[-87.548,37.9556,0.0],[-87.5481,37.9483,0.0],[-87.5482,37.9426,0.0],[-87.5482,37.9418,0.0],[-87.5482,37.9408,0.0],[-87.5485,37.924,0.0],[-87.5513,37.9254,0.0],[-87.5593,37.9311,0.0],[-87.5659,37.9379,0.0],[-87.5684,37.9412,0.0],[-87.572,37.9475,0.0],[-87.5728,37.95,0.0]]]]}},{"type":"Feature","properties":{"uesi_id":"USA_R127319","nbhd_code":"USA_R127319_26","nbhd_name":"Census Tract 14"},"geometry":{"type":"MultiPolygon","coordinates":[[[[-87.559,37.9771,0.0],[-87.559,37.9773,0.0],[-87.5544,37.9773,0.0],[-87.5477,37.9774,0.0],[-87.5478,37.9773,0.0],[-87.5477,37.9772,0.0],[-87.5393,37.9772,0.0],[-87.5393,37.9767,0.0],[-87.5393,37.97,0.0],[-87.542,37.97,0.0],[-87.5477,37.97,0.0],[-87.5591,37.9701,0.0],[-87.559,37.9771,0.0]]]]}},{"type":"Feature","properties":{"uesi_id":"USA_R127319","nbhd_code":"USA_R127319_27","nbhd_name":"Census Tract 17"},"geometry":{"type":"MultiPolygon","coordinates":[[[[-87.5746,37.9674,0.0],[-87.5654,37.9721,0.0],[-87.5613,37.9738,0.0],[-87.5613,37.9771,0.0],[-87.5613,37.9774,0.0],[-87.559,37.9773,0.0],[-87.559,37.9771,0.0],[-87.5591,37.9701,0.0],[-87.5591,37.9685,0.0],[-87.5592,37.9647,0.0],[-87.5615,37.9647,0.0],[-87.566,37.9648,0.0],[-87.566,37.9629,0.0],[-87.566,37.962,0.0],[-87.566,37.9614,0.0],[-87.5663,37.9619,0.0],[-87.5677,37.9617,0.0],[-87.569,37.9614,0.0],[-87.5718,37.9604,0.0],[-87.5722,37.9601,0.0],[-87.5722,37.9508,0.0],[-87.5728,37.95,0.0],[-87.5729,37.9502,0.0],[-87.5743,37.9548,0.0],[-87.5734,37.9626,0.0],[-87.5746,37.9674,0.0]]]]}},{"type":"Feature","properties":{"uesi_id":"USA_R127319","nbhd_code":"USA_R127319_28","nbhd_name":"Census Tract 23"},"geometry":{"type":"MultiPolygon","coordinates":[[[[-87.561,37.9912,0.0],[-87.561,37.9924,0.0],[-87.5609,37.9948,0.0],[-87.5558,37.9949,0.0],[-87.552,37.9948,0.0],[-87.5519,37.9975,0.0],[-87.5495,37.9975,0.0],[-87.5495,37.9993,0.0],[-87.5472,37.9992,0.0],[-87.5475,37.9921,0.0],[-87.5388,37.9918,0.0],[-87.5383,37.9918,0.0],[-87.5385,37.9848,0.0],[-87.5415,37.9846,0.0],[-87.5471,37.9848,0.0],[-87.5521,37.9847,0.0],[-87.5525,37.9847,0.0],[-87.5566,37.9847,0.0],[-87.5589,37.9847,0.0],[-87.5612,37.9847,0.0],[-87.561,37.9912,0.0]]]]}},{"type":"Feature","properties":{"uesi_id":"USA_R127319","nbhd_code":"USA_R127319_29","nbhd_name":"Census Tract 26"},"geometry":{"type":"MultiPolygon","coordinates":[[[[-87.5925,37.9895,0.0],[-87.5899,37.9929,0.0],[-87.5893,37.9941,0.0],[-87.5893,37.9966,0.0],[-87.5893,37.9973,0.0],[-87.588,38.0001,0.0],[-87.5863,38.0029,0.0],[-87.5849,38.0032,0.0],[-87.5789,38.0016,0.0],[-87.5783,38.001,0.0],[-87.5779,37.9979,0.0],[-87.5746,37.9954,0.0],[-87.5747,37.9913,0.0],[-87.5736,37.9904,0.0],[-87.5738,37.9858,0.0],[-87.5738,37.9849,0.0],[-87.5749,37.9859,0.0],[-87.5777,37.9859,0.0],[-87.581,37.9857,0.0],[-87.5811,37.9855,0.0],[-87.5905,37.9856,0.0],[-87.5914,37.9874,0.0],[-87.5926,37.9884,0.0],[-87.5925,37.9895,0.0]]]]}},{"type":"Feature","properties":{"uesi_id":"USA_R127319","nbhd_code":"USA_R127319_30","nbhd_name":"Census Tract 31"},"geometry":{"type":"MultiPolygon","coordinates":[[[[-87.6241,37.9557,0.0],[-87.6222,37.9565,0.0],[-87.6233,37.9582,0.0],[-87.6224,37.9595,0.0],[-87.6235,37.9608,0.0],[-87.6222,37.9611,0.0],[-87.6194,37.9606,0.0],[-87.6191,37.9714,0.0],[-87.619,37.976,0.0],[-87.6196,37.9765,0.0],[-87.6195,37.9787,0.0],[-87.6097,37.9785,0.0],[-87.6097,37.9782,0.0],[-87.6099,37.9713,0.0],[-87.6101,37.9632,0.0],[-87.6102,37.9597,0.0],[-87.6104,37.9595,0.0],[-87.6102,37.9582,0.0],[-87.6103,37.9576,0.0],[-87.6132,37.9558,0.0],[-87.6166,37.9534,0.0],[-87.617,37.9532,0.0],[-87.6237,37.9533,0.0],[-87.6241,37.9557,0.0]]]]}},{"type":"Feature","properties":{"uesi_id":"USA_R127319","nbhd_code":"USA_R127319_31","nbhd_name":"Census Tract 32"},"geometry":{"type":"MultiPolygon","coordinates":[[[[-87.6373,37.9596,0.0],[-87.6368,37.975,0.0],[-87.637,37.9766,0.0],[-87.6368,37.9795,0.0],[-87.6364,37.9867,0.0],[-87.6346,37.9882,0.0],[-87.6343,37.9894,0.0],[-87.6282,37.9869,0.0],[-87.6276,37.9867,0.0],[-87.6248,37.9857,0.0],[-87.6194,37.983,0.0],[-87.6195,37.9787,0.0],[-87.6196,37.9765,0.0],[-87.619,37.976,0.0],[-87.6191,37.9714,0.0],[-87.6194,37.9606,0.0],[-87.6222,37.9611,0.0],[-87.6235,37.9608,0.0],[-87.6224,37.9595,0.0],[-87.6233,37.9582,0.0],[-87.6222,37.9565,0.0],[-87.6241,37.9557,0.0],[-87.6237,37.9533,0.0],[-87.6375,37.9538,0.0],[-87.6373,37.9596,0.0]]]]}},{"type":"Feature","properties":{"uesi_id":"USA_R127319","nbhd_code":"USA_R127319_32","nbhd_name":"Census Tract 34"},"geometry":{"type":"MultiPolygon","coordinates":[[[[-87.574,38.0214,0.0],[-87.5739,38.0253,0.0],[-87.5735,38.0389,0.0],[-87.5727,38.0387,0.0],[-87.5705,38.0372,0.0],[-87.5683,38.0361,0.0],[-87.5642,38.0357,0.0],[-87.564,38.0347,0.0],[-87.5621,38.0337,0.0],[-87.5623,38.0324,0.0],[-87.5623,38.0311,0.0],[-87.5623,38.0256,0.0],[-87.5622,38.0212,0.0],[-87.5621,38.0204,0.0],[-87.5609,38.0139,0.0],[-87.5651,38.014,0.0],[-87.5741,38.0142,0.0],[-87.574,38.0214,0.0]]]]}},{"type":"Feature","properties":{"uesi_id":"USA_R127319","nbhd_code":"USA_R127319_33","nbhd_name":"Census Tract 38.01"},"geometry":{"type":"MultiPolygon","coordinates":[[[[-87.4927,37.9624,0.0],[-87.4927,37.968,0.0],[-87.4927,37.9695,0.0],[-87.4926,37.9768,0.0],[-87.487,37.9768,0.0],[-87.4741,37.9767,0.0],[-87.4743,37.9694,0.0],[-87.4744,37.9657,0.0],[-87.4743,37.9656,0.0],[-87.4744,37.9621,0.0],[-87.4745,37.9621,0.0],[-87.4745,37.9552,0.0],[-87.4744,37.9548,0.0],[-87.4812,37.9549,0.0],[-87.4882,37.955,0.0],[-87.4928,37.955,0.0],[-87.4927,37.9624,0.0]]]]}},{"type":"Feature","properties":{"uesi_id":"USA_R127319","nbhd_code":"USA_R127319_34","nbhd_name":"Census Tract 38.04"},"geometry":{"type":"MultiPolygon","coordinates":[[[[-87.4929,37.9478,0.0],[-87.4928,37.955,0.0],[-87.4882,37.955,0.0],[-87.4812,37.9549,0.0],[-87.4744,37.9548,0.0],[-87.4745,37.9552,0.0],[-87.4745,37.9621,0.0],[-87.4744,37.9621,0.0],[-87.4688,37.9621,0.0],[-87.4654,37.96,0.0],[-87.4646,37.9598,0.0],[-87.463,37.9597,0.0],[-87.4579,37.9592,0.0],[-87.4512,37.9579,0.0],[-87.4505,37.9575,0.0],[-87.4506,37.955,0.0],[-87.4507,37.9478,0.0],[-87.4509,37.9425,0.0],[-87.4512,37.9411,0.0],[-87.4655,37.9337,0.0],[-87.481,37.9237,0.0],[-87.4819,37.9239,0.0],[-87.4834,37.9265,0.0],[-87.4929,37.9279,0.0],[-87.493,37.9394,0.0],[-87.4929,37.9478,0.0]]]]}},{"type":"Feature","properties":{"uesi_id":"USA_R127319","nbhd_code":"USA_R127319_35","nbhd_name":"Census Tract 102.01"},"geometry":{"type":"MultiPolygon","coordinates":[[[[-87.598,38.08,0.0],[-87.5888,38.0799,0.0],[-87.5883,38.0798,0.0],[-87.5844,38.0798,0.0],[-87.5843,38.0798,0.0],[-87.5762,38.0796,0.0],[-87.5708,38.0796,0.0],[-87.5559,38.0795,0.0],[-87.5548,38.0795,0.0],[-87.5547,38.0794,0.0],[-87.5164,38.0788,0.0],[-87.4995,38.0785,0.0],[-87.4725,38.0782,0.0],[-87.473,38.0494,0.0],[-87.4732,38.0423,0.0],[-87.473,38.0362,0.0],[-87.473,38.0351,0.0],[-87.4707,38.035,0.0],[-87.4706,38.0336,0.0],[-87.4717,38.0327,0.0],[-87.4746,38.0333,0.0],[-87.4756,38.0323,0.0],[-87.4759,38.0307,0.0],[-87.4791,38.0302,0.0],[-87.4793,38.0266,0.0],[-87.4801,38.026,0.0],[-87.4811,38.0259,0.0],[-87.4836,38.0271,0.0],[-87.4849,38.0288,0.0],[-87.4865,38.0293,0.0],[-87.4892,38.0287,0.0],[-87.4922,38.0271,0.0],[-87.4926,38.0266,0.0],[-87.4946,38.0269,0.0],[-87.4961,38.0276,0.0],[-87.4994,38.0248,0.0],[-87.5085,38.0285,0.0],[-87.5101,38.0299,0.0],[-87.5099,38.0352,0.0],[-87.5096,38.0494,0.0],[-87.509,38.0506,0.0],[-87.5075,38.0514,0.0],[-87.5142,38.0538,0.0],[-87.5156,38.054,0.0],[-87.518,38.0515,0.0],[-87.5208,38.0497,0.0],[-87.5216,38.0493,0.0],[-87.524,38.0489,0.0],[-87.5353,38.0492,0.0],[-87.539,38.0502,0.0],[-87.5391,38.0502,0.0],[-87.5425,38.0503,0.0],[-87.5443,38.0502,0.0],[-87.547,38.0576,0.0],[-87.5476,38.0576,0.0],[-87.5498,38.0633,0.0],[-87.5507,38.064,0.0],[-87.552,38.0645,0.0],[-87.561,38.0648,0.0],[-87.5632,38.0648,0.0],[-87.5734,38.0626,0.0],[-87.5777,38.0627,0.0],[-87.582,38.0623,0.0],[-87.5869,38.0603,0.0],[-87.5881,38.0593,0.0],[-87.589,38.0579,0.0],[-87.589,38.0511,0.0],[-87.5986,38.0513,0.0],[-87.598,38.08,0.0]]]]}},{"type":"Feature","properties":{"uesi_id":"USA_R127319","nbhd_code":"USA_R127319_37","nbhd_name":"Census Tract 18"},"geometry":{"type":"MultiPolygon","coordinates":[[[[-87.5869,37.9768,0.0],[-87.5866,37.978,0.0],[-87.5794,37.9779,0.0],[-87.5735,37.9776,0.0],[-87.564,37.9774,0.0],[-87.5613,37.9774,0.0],[-87.5613,37.9771,0.0],[-87.5613,37.9738,0.0],[-87.5654,37.9721,0.0],[-87.5746,37.9674,0.0],[-87.5747,37.9677,0.0],[-87.5779,37.9715,0.0],[-87.5811,37.9734,0.0],[-87.5859,37.9754,0.0],[-87.5879,37.9757,0.0],[-87.5869,37.9768,0.0]]]]}},{"type":"Feature","properties":{"uesi_id":"USA_R127319","nbhd_code":"USA_R127319_38","nbhd_name":"Census Tract 2.01"},"geometry":{"type":"MultiPolygon","coordinates":[[[[-87.5251,37.9958,0.0],[-87.5249,37.9961,0.0],[-87.5205,38.001,0.0],[-87.5193,38.003,0.0],[-87.5164,38.0059,0.0],[-87.5109,38.0132,0.0],[-87.5105,38.0147,0.0],[-87.5104,38.0205,0.0],[-87.5102,38.0278,0.0],[-87.5101,38.0299,0.0],[-87.5085,38.0285,0.0],[-87.4994,38.0248,0.0],[-87.4961,38.0276,0.0],[-87.4946,38.0269,0.0],[-87.4926,38.0266,0.0],[-87.4922,38.0271,0.0],[-87.4922,38.0207,0.0],[-87.4922,38.0128,0.0],[-87.4924,38.0021,0.0],[-87.4925,37.9955,0.0],[-87.4926,37.9913,0.0],[-87.4934,37.9912,0.0],[-87.5044,37.9914,0.0],[-87.52,37.9916,0.0],[-87.5264,37.9917,0.0],[-87.5251,37.9958,0.0]]]]}},{"type":"Feature","properties":{"uesi_id":"USA_R127319","nbhd_code":"USA_R127319_39","nbhd_name":"Census Tract 102.02"},"geometry":{"type":"MultiPolygon","coordinates":[[[[-87.5425,38.0503,0.0],[-87.5391,38.0502,0.0],[-87.539,38.0502,0.0],[-87.5353,38.0492,0.0],[-87.524,38.0489,0.0],[-87.5216,38.0493,0.0],[-87.5208,38.0497,0.0],[-87.518,38.0515,0.0],[-87.5156,38.054,0.0],[-87.5142,38.0538,0.0],[-87.5075,38.0514,0.0],[-87.509,38.0506,0.0],[-87.5096,38.0494,0.0],[-87.5099,38.0352,0.0],[-87.5101,38.0299,0.0],[-87.5102,38.0278,0.0],[-87.5104,38.0205,0.0],[-87.5105,38.0147,0.0],[-87.5109,38.0132,0.0],[-87.5164,38.0059,0.0],[-87.5193,38.003,0.0],[-87.5205,38.001,0.0],[-87.5249,37.9961,0.0],[-87.5269,37.9969,0.0],[-87.5274,37.9979,0.0],[-87.5271,38.0002,0.0],[-87.5299,38.0036,0.0],[-87.5343,38.006,0.0],[-87.5364,38.0059,0.0],[-87.5383,38.0042,0.0],[-87.5392,38.0084,0.0],[-87.5388,38.0281,0.0],[-87.5389,38.034,0.0],[-87.5409,38.04,0.0],[-87.5412,38.0409,0.0],[-87.5443,38.0502,0.0],[-87.5425,38.0503,0.0]]]]}},{"type":"Feature","properties":{"uesi_id":"USA_R127319","nbhd_code":"USA_R127319_41","nbhd_name":"Census Tract 6"},"geometry":{"type":"MultiPolygon","coordinates":[[[[-87.542,37.97,0.0],[-87.5393,37.97,0.0],[-87.5294,37.9699,0.0],[-87.5295,37.9663,0.0],[-87.5297,37.9627,0.0],[-87.5386,37.9627,0.0],[-87.542,37.9628,0.0],[-87.5417,37.9646,0.0],[-87.542,37.9664,0.0],[-87.542,37.97,0.0]]]]}},{"type":"Feature","properties":{"uesi_id":"USA_R127319","nbhd_code":"USA_R127319_42","nbhd_name":"Census Tract 24"},"geometry":{"type":"MultiPolygon","coordinates":[[[[-87.567,38.0028,0.0],[-87.5643,38.0044,0.0],[-87.5634,38.0073,0.0],[-87.5572,38.0064,0.0],[-87.555,38.0079,0.0],[-87.5527,38.0092,0.0],[-87.551,38.0097,0.0],[-87.5482,38.009,0.0],[-87.5466,38.0073,0.0],[-87.547,38.0068,0.0],[-87.5471,38.0022,0.0],[-87.5472,37.9992,0.0],[-87.5495,37.9993,0.0],[-87.5495,37.9975,0.0],[-87.5519,37.9975,0.0],[-87.552,37.9948,0.0],[-87.5558,37.9949,0.0],[-87.5609,37.9948,0.0],[-87.5609,37.9966,0.0],[-87.5625,37.9968,0.0],[-87.5631,37.9986,0.0],[-87.5633,37.9995,0.0],[-87.5663,37.9996,0.0],[-87.567,38.0028,0.0]]]]}},{"type":"Feature","properties":{"uesi_id":"USA_R127319","nbhd_code":"USA_R127319_43","nbhd_name":"Census Tract 101"},"geometry":{"type":"MultiPolygon","coordinates":[[[[-87.4927,37.9848,0.0],[-87.4926,37.9913,0.0],[-87.4925,37.9955,0.0],[-87.4924,38.0021,0.0],[-87.4922,38.0128,0.0],[-87.4922,38.0207,0.0],[-87.4922,38.0271,0.0],[-87.4892,38.0287,0.0],[-87.4865,38.0293,0.0],[-87.4849,38.0288,0.0],[-87.4836,38.0271,0.0],[-87.4811,38.0259,0.0],[-87.4801,38.026,0.0],[-87.4793,38.0266,0.0],[-87.4791,38.0302,0.0],[-87.4759,38.0307,0.0],[-87.4756,38.0323,0.0],[-87.4746,38.0333,0.0],[-87.4717,38.0327,0.0],[-87.4706,38.0336,0.0],[-87.4707,38.035,0.0],[-87.4612,38.0349,0.0],[-87.4499,38.0352,0.0],[-87.45,38.0344,0.0],[-87.45,38.0339,0.0],[-87.4494,38.0045,0.0],[-87.4494,38.004,0.0],[-87.4495,38.0034,0.0],[-87.4499,37.9912,0.0],[-87.4503,37.9837,0.0],[-87.45,37.9768,0.0],[-87.4596,37.9768,0.0],[-87.4741,37.9767,0.0],[-87.487,37.9768,0.0],[-87.4926,37.9768,0.0],[-87.4927,37.9848,0.0]]]]}},{"type":"Feature","properties":{"uesi_id":"USA_R127319","nbhd_code":"USA_R127319_44","nbhd_name":"Census Tract 4"},"geometry":{"type":"MultiPolygon","coordinates":[[[[-87.5293,37.977,0.0],[-87.5248,37.977,0.0],[-87.5202,37.9769,0.0],[-87.5109,37.9769,0.0],[-87.511,37.9734,0.0],[-87.511,37.9698,0.0],[-87.5233,37.9699,0.0],[-87.5294,37.9699,0.0],[-87.5293,37.977,0.0]]]]}},{"type":"Feature","properties":{"uesi_id":"USA_R127319","nbhd_code":"USA_R127319_45","nbhd_name":"Census Tract 12"},"geometry":{"type":"MultiPolygon","coordinates":[[[[-87.566,37.9614,0.0],[-87.566,37.962,0.0],[-87.566,37.9629,0.0],[-87.566,37.9648,0.0],[-87.5615,37.9647,0.0],[-87.5592,37.9647,0.0],[-87.5569,37.9647,0.0],[-87.5569,37.9629,0.0],[-87.557,37.9605,0.0],[-87.5571,37.9568,0.0],[-87.5596,37.9568,0.0],[-87.5614,37.9568,0.0],[-87.5614,37.9557,0.0],[-87.5627,37.9557,0.0],[-87.5651,37.9559,0.0],[-87.5663,37.9571,0.0],[-87.566,37.9614,0.0]]]]}},{"type":"Feature","properties":{"uesi_id":"USA_R127319","nbhd_code":"USA_R127319_46","nbhd_name":"Census Tract 33"},"geometry":{"type":"MultiPolygon","coordinates":[[[[-87.5873,38.0148,0.0],[-87.5811,38.0144,0.0],[-87.5741,38.0142,0.0],[-87.5651,38.014,0.0],[-87.5609,38.0139,0.0],[-87.557,38.0117,0.0],[-87.5567,38.0112,0.0],[-87.5564,38.0104,0.0],[-87.555,38.0079,0.0],[-87.5572,38.0064,0.0],[-87.5634,38.0073,0.0],[-87.5643,38.0044,0.0],[-87.567,38.0028,0.0],[-87.5663,37.9996,0.0],[-87.5666,37.9963,0.0],[-87.5683,37.9948,0.0],[-87.573,37.9939,0.0],[-87.5746,37.9954,0.0],[-87.5779,37.9979,0.0],[-87.5783,38.001,0.0],[-87.5789,38.0016,0.0],[-87.5849,38.0032,0.0],[-87.5851,38.0038,0.0],[-87.5869,38.0069,0.0],[-87.5869,38.0076,0.0],[-87.587,38.0076,0.0],[-87.5874,38.0148,0.0],[-87.5873,38.0148,0.0]]]]}}]}