{"type":"FeatureCollection","name":"USA_R184985","crs":{"type":"name","properties":{"name":"urn:ogc:def:crs:OGC:1.3:CRS84"}},"features":[{"type":"Feature","properties":{"uesi_id":"USA_R184985","nbhd_code":"USA_R184985_1","nbhd_name":"Census Tract 76.30"},"geometry":{"type":"MultiPolygon","coordinates":[[[[-95.8865,36.0218,0.0],[-95.8865,36.0254,0.0],[-95.8865,36.0318,0.0],[-95.8773,36.0319,0.0],[-95.8755,36.0317,0.0],[-95.8685,36.0319,0.0],[-95.8685,36.0273,0.0],[-95.8685,36.0254,0.0],[-95.8685,36.0176,0.0],[-95.8685,36.0174,0.0],[-95.8776,36.0174,0.0],[-95.8864,36.0173,0.0],[-95.8865,36.0173,0.0],[-95.8865,36.0177,0.0],[-95.8865,36.0218,0.0]]]]}},{"type":"Feature","properties":{"uesi_id":"USA_R184985","nbhd_code":"USA_R184985_2","nbhd_name":"Census Tract 304.03"},"geometry":{"type":"MultiPolygon","coordinates":[[[[-95.7617,36.1337,0.0],[-95.7617,36.1516,0.0],[-95.7617,36.154,0.0],[-95.7616,36.1548,0.0],[-95.7617,36.1606,0.0],[-95.7616,36.162,0.0],[-95.7616,36.1628,0.0],[-95.7575,36.1628,0.0],[-95.7566,36.163,0.0],[-95.7546,36.1624,0.0],[-95.7452,36.1626,0.0],[-95.744,36.1625,0.0],[-95.733,36.1625,0.0],[-95.7303,36.1623,0.0],[-95.7264,36.1625,0.0],[-95.7262,36.119,0.0],[-95.7352,36.119,0.0],[-95.7526,36.119,0.0],[-95.7616,36.119,0.0],[-95.7617,36.1335,0.0],[-95.7617,36.1337,0.0]]]]}},{"type":"Feature","properties":{"uesi_id":"USA_R184985","nbhd_code":"USA_R184985_3","nbhd_name":"Census Tract 4"},"geometry":{"type":"MultiPolygon","coordinates":[[[[-95.9582,36.1808,0.0],[-95.9582,36.1901,0.0],[-95.9561,36.191,0.0],[-95.9555,36.1916,0.0],[-95.9547,36.1916,0.0],[-95.9504,36.1916,0.0],[-95.9403,36.1916,0.0],[-95.9403,36.1839,0.0],[-95.9403,36.1807,0.0],[-95.9403,36.1771,0.0],[-95.9521,36.1771,0.0],[-95.9532,36.1771,0.0],[-95.9582,36.1771,0.0],[-95.9582,36.1808,0.0]]]]}},{"type":"Feature","properties":{"uesi_id":"USA_R184985","nbhd_code":"USA_R184985_4","nbhd_name":"Census Tract 6"},"geometry":{"type":"MultiPolygon","coordinates":[[[[-95.9863,36.181,0.0],[-95.9836,36.1824,0.0],[-95.9836,36.1843,0.0],[-95.9846,36.186,0.0],[-95.9844,36.1874,0.0],[-95.9845,36.1915,0.0],[-95.9766,36.1914,0.0],[-95.9759,36.1914,0.0],[-95.9759,36.1842,0.0],[-95.9756,36.1769,0.0],[-95.9767,36.1769,0.0],[-95.9833,36.177,0.0],[-95.9862,36.1769,0.0],[-95.9863,36.181,0.0]]]]}},{"type":"Feature","properties":{"uesi_id":"USA_R184985","nbhd_code":"USA_R184985_5","nbhd_name":"Census Tract 40"},"geometry":{"type":"MultiPolygon","coordinates":[[[[-95.9403,36.1188,0.0],[-95.9224,36.1188,0.0],[-95.9224,36.1116,0.0],[-95.9223,36.1044,0.0],[-95.9299,36.1043,0.0],[-95.9313,36.1043,0.0],[-95.9402,36.1043,0.0],[-95.9402,36.1115,0.0],[-95.9403,36.1188,0.0]]]]}},{"type":"Feature","properties":{"uesi_id":"USA_R184985","nbhd_code":"USA_R184985_6","nbhd_name":"Census Tract 52"},"geometry":{"type":"MultiPolygon","coordinates":[[[[-95.9402,36.1043,0.0],[-95.9313,36.1043,0.0],[-95.9299,36.1043,0.0],[-95.9223,36.1044,0.0],[-95.9223,36.096,0.0],[-95.9222,36.0948,0.0],[-95.9222,36.0898,0.0],[-95.9316,36.0898,0.0],[-95.9401,36.0898,0.0],[-95.9401,36.0906,0.0],[-95.9402,36.0952,0.0],[-95.9402,36.1043,0.0]]]]}},{"type":"Feature","properties":{"uesi_id":"USA_R184985","nbhd_code":"USA_R184985_7","nbhd_name":"Census Tract 74.10"},"geometry":{"type":"MultiPolygon","coordinates":[[[[-95.8686,36.0754,0.0],[-95.8593,36.0754,0.0],[-95.8567,36.0754,0.0],[-95.8555,36.0754,0.0],[-95.8539,36.0755,0.0],[-95.8512,36.0754,0.0],[-95.851,36.0754,0.0],[-95.851,36.0681,0.0],[-95.851,36.0678,0.0],[-95.851,36.0609,0.0],[-95.8512,36.0609,0.0],[-95.8593,36.0609,0.0],[-95.8685,36.0609,0.0],[-95.8686,36.0697,0.0],[-95.8686,36.0754,0.0]]]]}},{"type":"Feature","properties":{"uesi_id":"USA_R184985","nbhd_code":"USA_R184985_8","nbhd_name":"Census Tract 80.02"},"geometry":{"type":"MultiPolygon","coordinates":[[[[-96.0014,36.2206,0.0],[-95.9957,36.2205,0.0],[-95.991,36.2205,0.0],[-95.989,36.2205,0.0],[-95.9845,36.2205,0.0],[-95.9755,36.2205,0.0],[-95.9754,36.2059,0.0],[-95.9795,36.2059,0.0],[-95.9846,36.206,0.0],[-95.9857,36.206,0.0],[-96.0014,36.2059,0.0],[-96.0013,36.213,0.0],[-96.0015,36.2193,0.0],[-96.0014,36.2206,0.0]]]]}},{"type":"Feature","properties":{"uesi_id":"USA_R184985","nbhd_code":"USA_R184985_9","nbhd_name":"Census Tract 17"},"geometry":{"type":"MultiPolygon","coordinates":[[[[-95.9225,36.159,0.0],[-95.9225,36.1607,0.0],[-95.9145,36.1608,0.0],[-95.9141,36.1608,0.0],[-95.9135,36.1608,0.0],[-95.9046,36.1607,0.0],[-95.9046,36.1534,0.0],[-95.9045,36.1479,0.0],[-95.9135,36.1479,0.0],[-95.9143,36.1479,0.0],[-95.9151,36.1479,0.0],[-95.9158,36.1478,0.0],[-95.9225,36.1478,0.0],[-95.9225,36.159,0.0]]]]}},{"type":"Feature","properties":{"uesi_id":"USA_R184985","nbhd_code":"USA_R184985_10","nbhd_name":"Census Tract 9"},"geometry":{"type":"MultiPolygon","coordinates":[[[[-96.0012,36.1689,0.0],[-96.0014,36.1769,0.0],[-96.0007,36.177,0.0],[-95.9935,36.1769,0.0],[-95.9935,36.1715,0.0],[-95.9935,36.1635,0.0],[-95.9929,36.1622,0.0],[-95.9942,36.1618,0.0],[-95.9979,36.161,0.0],[-95.998,36.1612,0.0],[-95.9994,36.1613,0.0],[-96.0011,36.1613,0.0],[-96.0012,36.1624,0.0],[-96.0015,36.165,0.0],[-96.0012,36.1689,0.0]]]]}},{"type":"Feature","properties":{"uesi_id":"USA_R184985","nbhd_code":"USA_R184985_11","nbhd_name":"Census Tract 20"},"geometry":{"type":"MultiPolygon","coordinates":[[[[-95.9582,36.1607,0.0],[-95.9582,36.161,0.0],[-95.957,36.1608,0.0],[-95.9492,36.1608,0.0],[-95.9403,36.1608,0.0],[-95.9403,36.1594,0.0],[-95.9403,36.1547,0.0],[-95.9492,36.1547,0.0],[-95.9492,36.1549,0.0],[-95.9554,36.1546,0.0],[-95.9582,36.1547,0.0],[-95.9582,36.1607,0.0]]]]}},{"type":"Feature","properties":{"uesi_id":"USA_R184985","nbhd_code":"USA_R184985_12","nbhd_name":"Census Tract 31"},"geometry":{"type":"MultiPolygon","coordinates":[[[[-96.0057,36.143,0.0],[-96.0031,36.1467,0.0],[-96.0027,36.1478,0.0],[-96.0026,36.147,0.0],[-96.0018,36.146,0.0],[-96.0,36.1455,0.0],[-95.996,36.1455,0.0],[-95.9947,36.1452,0.0],[-95.9924,36.1442,0.0],[-95.9873,36.1438,0.0],[-95.9873,36.1436,0.0],[-95.9873,36.1397,0.0],[-95.9874,36.1361,0.0],[-95.989,36.1334,0.0],[-95.9903,36.1328,0.0],[-95.9922,36.1318,0.0],[-96.0008,36.14,0.0],[-96.0047,36.1426,0.0],[-96.0057,36.143,0.0]]]]}},{"type":"Feature","properties":{"uesi_id":"USA_R184985","nbhd_code":"USA_R184985_13","nbhd_name":"Census Tract 41.01"},"geometry":{"type":"MultiPolygon","coordinates":[[[[-95.9582,36.1188,0.0],[-95.9568,36.1187,0.0],[-95.9537,36.1188,0.0],[-95.9501,36.1188,0.0],[-95.9403,36.1188,0.0],[-95.9402,36.1115,0.0],[-95.9402,36.1043,0.0],[-95.9492,36.1043,0.0],[-95.9514,36.1043,0.0],[-95.9524,36.1043,0.0],[-95.958,36.1043,0.0],[-95.9581,36.1115,0.0],[-95.9582,36.1188,0.0]]]]}},{"type":"Feature","properties":{"uesi_id":"USA_R184985","nbhd_code":"USA_R184985_14","nbhd_name":"Census Tract 44"},"geometry":{"type":"MultiPolygon","coordinates":[[[[-95.987,36.119,0.0],[-95.9839,36.1189,0.0],[-95.9757,36.1189,0.0],[-95.9757,36.1116,0.0],[-95.9757,36.107,0.0],[-95.9757,36.1061,0.0],[-95.9757,36.1043,0.0],[-95.9792,36.1044,0.0],[-95.9835,36.1043,0.0],[-95.9859,36.1043,0.0],[-95.987,36.119,0.0]]]]}},{"type":"Feature","properties":{"uesi_id":"USA_R184985","nbhd_code":"USA_R184985_15","nbhd_name":"Census Tract 50.01"},"geometry":{"type":"MultiPolygon","coordinates":[[[[-95.9867,36.0983,0.0],[-95.9859,36.1043,0.0],[-95.9835,36.1043,0.0],[-95.9792,36.1044,0.0],[-95.9757,36.1043,0.0],[-95.9757,36.0983,0.0],[-95.9757,36.0976,0.0],[-95.9757,36.0897,0.0],[-95.9844,36.09,0.0],[-95.9853,36.09,0.0],[-95.988,36.09,0.0],[-95.9867,36.0983,0.0]]]]}},{"type":"Feature","properties":{"uesi_id":"USA_R184985","nbhd_code":"USA_R184985_16","nbhd_name":"Census Tract 67.05"},"geometry":{"type":"MultiPolygon","coordinates":[[[[-96.0296,36.0754,0.0],[-96.0235,36.0753,0.0],[-96.0117,36.0753,0.0],[-95.9861,36.0752,0.0],[-95.979,36.0608,0.0],[-95.9787,36.06,0.0],[-95.9766,36.0514,0.0],[-95.9763,36.0501,0.0],[-95.9763,36.0467,0.0],[-95.9759,36.043,0.0],[-95.9759,36.032,0.0],[-95.9843,36.0319,0.0],[-95.9855,36.0318,0.0],[-95.9859,36.0316,0.0],[-95.9878,36.0306,0.0],[-95.9916,36.0319,0.0],[-95.9937,36.0319,0.0],[-96.0295,36.032,0.0],[-96.0296,36.0464,0.0],[-96.0295,36.05,0.0],[-96.0295,36.061,0.0],[-96.0296,36.0663,0.0],[-96.0296,36.0754,0.0]]]]}},{"type":"Feature","properties":{"uesi_id":"USA_R184985","nbhd_code":"USA_R184985_17","nbhd_name":"Census Tract 69.02"},"geometry":{"type":"MultiPolygon","coordinates":[[[[-95.9222,36.0898,0.0],[-95.92,36.0899,0.0],[-95.9162,36.0898,0.0],[-95.9156,36.0898,0.0],[-95.9134,36.0899,0.0],[-95.9044,36.0899,0.0],[-95.9044,36.083,0.0],[-95.9043,36.0776,0.0],[-95.9043,36.0754,0.0],[-95.9221,36.0753,0.0],[-95.9224,36.0806,0.0],[-95.9222,36.0898,0.0]]]]}},{"type":"Feature","properties":{"uesi_id":"USA_R184985","nbhd_code":"USA_R184985_18","nbhd_name":"Census Tract 69.06"},"geometry":{"type":"MultiPolygon","coordinates":[[[[-95.8866,36.1044,0.0],[-95.8798,36.1044,0.0],[-95.8777,36.1045,0.0],[-95.8771,36.1045,0.0],[-95.8731,36.1045,0.0],[-95.8687,36.1045,0.0],[-95.8686,36.09,0.0],[-95.8774,36.09,0.0],[-95.8865,36.0899,0.0],[-95.8865,36.093,0.0],[-95.8866,36.1044,0.0]]]]}},{"type":"Feature","properties":{"uesi_id":"USA_R184985","nbhd_code":"USA_R184985_19","nbhd_name":"Census Tract 73.12"},"geometry":{"type":"MultiPolygon","coordinates":[[[[-95.8332,36.1258,0.0],[-95.8332,36.1334,0.0],[-95.8304,36.1335,0.0],[-95.8235,36.1334,0.0],[-95.8154,36.1335,0.0],[-95.8154,36.1189,0.0],[-95.8211,36.119,0.0],[-95.8238,36.1189,0.0],[-95.8248,36.1189,0.0],[-95.8264,36.119,0.0],[-95.8332,36.1189,0.0],[-95.8332,36.1258,0.0]]]]}},{"type":"Feature","properties":{"uesi_id":"USA_R184985","nbhd_code":"USA_R184985_20","nbhd_name":"Census Tract 76.08"},"geometry":{"type":"MultiPolygon","coordinates":[[[[-95.9845,36.0753,0.0],[-95.9795,36.0752,0.0],[-95.9758,36.0752,0.0],[-95.9757,36.0698,0.0],[-95.9758,36.0674,0.0],[-95.9758,36.0661,0.0],[-95.9765,36.0625,0.0],[-95.9758,36.0607,0.0],[-95.979,36.0608,0.0],[-95.9861,36.0752,0.0],[-95.9845,36.0753,0.0]]]]}},{"type":"Feature","properties":{"uesi_id":"USA_R184985","nbhd_code":"USA_R184985_21","nbhd_name":"Census Tract 76.19"},"geometry":{"type":"MultiPolygon","coordinates":[[[[-95.9042,36.0547,0.0],[-95.9042,36.0559,0.0],[-95.9042,36.0609,0.0],[-95.8955,36.0609,0.0],[-95.8864,36.0609,0.0],[-95.8862,36.0538,0.0],[-95.8862,36.0533,0.0],[-95.8862,36.053,0.0],[-95.8862,36.0464,0.0],[-95.8959,36.0464,0.0],[-95.9042,36.0463,0.0],[-95.9043,36.0537,0.0],[-95.9042,36.0547,0.0]]]]}},{"type":"Feature","properties":{"uesi_id":"USA_R184985","nbhd_code":"USA_R184985_22","nbhd_name":"Census Tract 76.41"},"geometry":{"type":"MultiPolygon","coordinates":[[[[-95.9691,36.048,0.0],[-95.9688,36.0486,0.0],[-95.9666,36.0514,0.0],[-95.9666,36.0536,0.0],[-95.9681,36.0572,0.0],[-95.9671,36.0608,0.0],[-95.9579,36.0608,0.0],[-95.9579,36.0602,0.0],[-95.9579,36.058,0.0],[-95.9578,36.0464,0.0],[-95.9641,36.0464,0.0],[-95.9654,36.0466,0.0],[-95.9672,36.0463,0.0],[-95.9698,36.0463,0.0],[-95.9691,36.048,0.0]]]]}},{"type":"Feature","properties":{"uesi_id":"USA_R184985","nbhd_code":"USA_R184985_23","nbhd_name":"Census Tract 83"},"geometry":{"type":"MultiPolygon","coordinates":[[[[-95.8867,36.1607,0.0],[-95.8778,36.1607,0.0],[-95.8698,36.1607,0.0],[-95.8682,36.161,0.0],[-95.8682,36.1607,0.0],[-95.8687,36.16,0.0],[-95.8688,36.1552,0.0],[-95.8688,36.148,0.0],[-95.8777,36.148,0.0],[-95.8867,36.148,0.0],[-95.8867,36.1552,0.0],[-95.8867,36.1607,0.0]]]]}},{"type":"Feature","properties":{"uesi_id":"USA_R184985","nbhd_code":"USA_R184985_24","nbhd_name":"Census Tract 90.09"},"geometry":{"type":"MultiPolygon","coordinates":[[[[-95.8331,36.1045,0.0],[-95.8258,36.1045,0.0],[-95.8153,36.1044,0.0],[-95.8063,36.1044,0.0],[-95.7974,36.1044,0.0],[-95.7618,36.1044,0.0],[-95.7617,36.1044,0.0],[-95.7617,36.0925,0.0],[-95.7617,36.0903,0.0],[-95.7617,36.09,0.0],[-95.7797,36.0899,0.0],[-95.7954,36.09,0.0],[-95.7974,36.09,0.0],[-95.8153,36.0899,0.0],[-95.8192,36.0899,0.0],[-95.8332,36.0899,0.0],[-95.8331,36.1045,0.0]]]]}},{"type":"Feature","properties":{"uesi_id":"USA_R184985","nbhd_code":"USA_R184985_25","nbhd_name":"Census Tract 2"},"geometry":{"type":"MultiPolygon","coordinates":[[[[-95.9755,36.198,0.0],[-95.9744,36.198,0.0],[-95.9724,36.1987,0.0],[-95.9582,36.2048,0.0],[-95.9557,36.2061,0.0],[-95.947,36.2061,0.0],[-95.9225,36.2061,0.0],[-95.9225,36.2056,0.0],[-95.9224,36.1916,0.0],[-95.9313,36.1916,0.0],[-95.932,36.1916,0.0],[-95.9403,36.1916,0.0],[-95.9504,36.1916,0.0],[-95.9547,36.1916,0.0],[-95.9555,36.1916,0.0],[-95.9582,36.1916,0.0],[-95.9759,36.1914,0.0],[-95.9755,36.198,0.0]]]]}},{"type":"Feature","properties":{"uesi_id":"USA_R184985","nbhd_code":"USA_R184985_26","nbhd_name":"Census Tract 3"},"geometry":{"type":"MultiPolygon","coordinates":[[[[-95.9403,36.1839,0.0],[-95.9403,36.1916,0.0],[-95.932,36.1916,0.0],[-95.9313,36.1916,0.0],[-95.9224,36.1916,0.0],[-95.9225,36.182,0.0],[-95.9226,36.1815,0.0],[-95.9225,36.1802,0.0],[-95.9225,36.1799,0.0],[-95.9225,36.1771,0.0],[-95.9252,36.1771,0.0],[-95.9276,36.1771,0.0],[-95.9278,36.1771,0.0],[-95.9328,36.1772,0.0],[-95.934,36.1771,0.0],[-95.9351,36.1772,0.0],[-95.9403,36.1771,0.0],[-95.9403,36.1807,0.0],[-95.9403,36.1839,0.0]]]]}},{"type":"Feature","properties":{"uesi_id":"USA_R184985","nbhd_code":"USA_R184985_27","nbhd_name":"Census Tract 14"},"geometry":{"type":"MultiPolygon","coordinates":[[[[-95.9582,36.1771,0.0],[-95.9532,36.1771,0.0],[-95.9521,36.1771,0.0],[-95.9403,36.1771,0.0],[-95.9403,36.1748,0.0],[-95.9403,36.1663,0.0],[-95.9403,36.1608,0.0],[-95.9492,36.1608,0.0],[-95.957,36.1608,0.0],[-95.9582,36.161,0.0],[-95.9582,36.1663,0.0],[-95.9582,36.1698,0.0],[-95.9582,36.1753,0.0],[-95.9582,36.1771,0.0]]]]}},{"type":"Feature","properties":{"uesi_id":"USA_R184985","nbhd_code":"USA_R184985_28","nbhd_name":"Census Tract 18"},"geometry":{"type":"MultiPolygon","coordinates":[[[[-95.9314,36.1527,0.0],[-95.9314,36.1607,0.0],[-95.931,36.1608,0.0],[-95.9225,36.1607,0.0],[-95.9225,36.159,0.0],[-95.9225,36.1478,0.0],[-95.9304,36.1478,0.0],[-95.9315,36.1478,0.0],[-95.9314,36.1527,0.0]]]]}},{"type":"Feature","properties":{"uesi_id":"USA_R184985","nbhd_code":"USA_R184985_29","nbhd_name":"Census Tract 62"},"geometry":{"type":"MultiPolygon","coordinates":[[[[-96.0014,36.2059,0.0],[-95.9857,36.206,0.0],[-95.9846,36.206,0.0],[-95.9795,36.2059,0.0],[-95.9754,36.2059,0.0],[-95.9583,36.2061,0.0],[-95.9582,36.2048,0.0],[-95.9724,36.1987,0.0],[-95.9744,36.198,0.0],[-95.9755,36.198,0.0],[-95.9759,36.1914,0.0],[-95.9766,36.1914,0.0],[-95.9845,36.1915,0.0],[-95.9935,36.1915,0.0],[-95.9958,36.1917,0.0],[-96.0011,36.1917,0.0],[-96.0014,36.2053,0.0],[-96.0014,36.2059,0.0]]]]}},{"type":"Feature","properties":{"uesi_id":"USA_R184985","nbhd_code":"USA_R184985_30","nbhd_name":"Census Tract 68.01"},"geometry":{"type":"MultiPolygon","coordinates":[[[[-95.988,36.09,0.0],[-95.9853,36.09,0.0],[-95.9844,36.09,0.0],[-95.9757,36.0897,0.0],[-95.9757,36.0891,0.0],[-95.9758,36.0831,0.0],[-95.9758,36.0825,0.0],[-95.9758,36.0752,0.0],[-95.9795,36.0752,0.0],[-95.9845,36.0753,0.0],[-95.9861,36.0752,0.0],[-95.988,36.09,0.0]]]]}},{"type":"Feature","properties":{"uesi_id":"USA_R184985","nbhd_code":"USA_R184985_31","nbhd_name":"Census Tract 69.01"},"geometry":{"type":"MultiPolygon","coordinates":[[[[-95.9401,36.0898,0.0],[-95.9316,36.0898,0.0],[-95.9222,36.0898,0.0],[-95.9224,36.0806,0.0],[-95.9221,36.0753,0.0],[-95.925,36.0754,0.0],[-95.9281,36.0753,0.0],[-95.9339,36.0753,0.0],[-95.9345,36.0754,0.0],[-95.9401,36.0753,0.0],[-95.9401,36.0826,0.0],[-95.9401,36.0847,0.0],[-95.9401,36.0898,0.0]]]]}},{"type":"Feature","properties":{"uesi_id":"USA_R184985","nbhd_code":"USA_R184985_32","nbhd_name":"Census Tract 71.01"},"geometry":{"type":"MultiPolygon","coordinates":[[[[-95.9045,36.1407,0.0],[-95.9045,36.1479,0.0],[-95.8978,36.148,0.0],[-95.8946,36.148,0.0],[-95.8867,36.148,0.0],[-95.8867,36.1335,0.0],[-95.894,36.1335,0.0],[-95.8956,36.1334,0.0],[-95.9046,36.1334,0.0],[-95.9045,36.1407,0.0]]]]}},{"type":"Feature","properties":{"uesi_id":"USA_R184985","nbhd_code":"USA_R184985_33","nbhd_name":"Census Tract 73.08"},"geometry":{"type":"MultiPolygon","coordinates":[[[[-95.8154,36.1606,0.0],[-95.7796,36.1606,0.0],[-95.7617,36.1606,0.0],[-95.7616,36.1548,0.0],[-95.7617,36.154,0.0],[-95.7617,36.1516,0.0],[-95.7617,36.1337,0.0],[-95.7617,36.1335,0.0],[-95.7616,36.119,0.0],[-95.7619,36.1189,0.0],[-95.7796,36.1189,0.0],[-95.7863,36.119,0.0],[-95.7883,36.1189,0.0],[-95.8084,36.1188,0.0],[-95.8126,36.119,0.0],[-95.8154,36.1189,0.0],[-95.8154,36.1335,0.0],[-95.8154,36.148,0.0],[-95.8154,36.1606,0.0]]]]}},{"type":"Feature","properties":{"uesi_id":"USA_R184985","nbhd_code":"USA_R184985_34","nbhd_name":"Census Tract 74.11"},"geometry":{"type":"MultiPolygon","coordinates":[[[[-95.8685,36.0609,0.0],[-95.8593,36.0609,0.0],[-95.8512,36.0609,0.0],[-95.851,36.0609,0.0],[-95.8509,36.0562,0.0],[-95.851,36.0463,0.0],[-95.8512,36.0463,0.0],[-95.859,36.0464,0.0],[-95.8685,36.0464,0.0],[-95.8685,36.0609,0.0]]]]}},{"type":"Feature","properties":{"uesi_id":"USA_R184985","nbhd_code":"USA_R184985_35","nbhd_name":"Census Tract 76.11"},"geometry":{"type":"MultiPolygon","coordinates":[[[[-95.958,36.0753,0.0],[-95.953,36.0753,0.0],[-95.9507,36.0753,0.0],[-95.9489,36.0769,0.0],[-95.9434,36.0772,0.0],[-95.9401,36.0753,0.0],[-95.94,36.0682,0.0],[-95.9399,36.0608,0.0],[-95.9469,36.0609,0.0],[-95.9579,36.0608,0.0],[-95.958,36.0753,0.0]]]]}},{"type":"Feature","properties":{"uesi_id":"USA_R184985","nbhd_code":"USA_R184985_36","nbhd_name":"Census Tract 76.20"},"geometry":{"type":"MultiPolygon","coordinates":[[[[-95.922,36.0514,0.0],[-95.9221,36.0526,0.0],[-95.9221,36.0536,0.0],[-95.9221,36.0608,0.0],[-95.9149,36.0608,0.0],[-95.9042,36.0609,0.0],[-95.9042,36.0559,0.0],[-95.9042,36.0547,0.0],[-95.9043,36.0537,0.0],[-95.9042,36.0463,0.0],[-95.9086,36.0464,0.0],[-95.9125,36.0464,0.0],[-95.9221,36.0464,0.0],[-95.922,36.0514,0.0]]]]}},{"type":"Feature","properties":{"uesi_id":"USA_R184985","nbhd_code":"USA_R184985_37","nbhd_name":"Census Tract 76.32"},"geometry":{"type":"MultiPolygon","coordinates":[[[[-95.9221,36.0464,0.0],[-95.9125,36.0464,0.0],[-95.9086,36.0464,0.0],[-95.9042,36.0463,0.0],[-95.9042,36.0387,0.0],[-95.9043,36.0318,0.0],[-95.9093,36.0319,0.0],[-95.9105,36.0319,0.0],[-95.9222,36.0319,0.0],[-95.922,36.0372,0.0],[-95.9226,36.0383,0.0],[-95.9216,36.0418,0.0],[-95.9227,36.0438,0.0],[-95.9221,36.0464,0.0]]]]}},{"type":"Feature","properties":{"uesi_id":"USA_R184985","nbhd_code":"USA_R184985_38","nbhd_name":"Census Tract 76.39"},"geometry":{"type":"MultiPolygon","coordinates":[[[[-95.9042,36.0387,0.0],[-95.9042,36.0463,0.0],[-95.8959,36.0464,0.0],[-95.8862,36.0464,0.0],[-95.8862,36.039,0.0],[-95.8865,36.0318,0.0],[-95.9043,36.0318,0.0],[-95.9042,36.0387,0.0]]]]}},{"type":"Feature","properties":{"uesi_id":"USA_R184985","nbhd_code":"USA_R184985_39","nbhd_name":"Census Tract 80.01"},"geometry":{"type":"MultiPolygon","coordinates":[[[[-95.9755,36.2205,0.0],[-95.9661,36.2206,0.0],[-95.9583,36.2207,0.0],[-95.9527,36.2206,0.0],[-95.9511,36.2191,0.0],[-95.9491,36.2214,0.0],[-95.9493,36.2232,0.0],[-95.9476,36.2233,0.0],[-95.9453,36.2251,0.0],[-95.9445,36.2169,0.0],[-95.9446,36.2154,0.0],[-95.947,36.2061,0.0],[-95.9557,36.2061,0.0],[-95.9582,36.2048,0.0],[-95.9583,36.2061,0.0],[-95.9754,36.2059,0.0],[-95.9755,36.2205,0.0]]]]}},{"type":"Feature","properties":{"uesi_id":"USA_R184985","nbhd_code":"USA_R184985_40","nbhd_name":"Census Tract 90.04"},"geometry":{"type":"MultiPolygon","coordinates":[[[[-95.8687,36.1111,0.0],[-95.8687,36.1162,0.0],[-95.8687,36.1175,0.0],[-95.8687,36.119,0.0],[-95.8664,36.1189,0.0],[-95.8656,36.1189,0.0],[-95.8636,36.119,0.0],[-95.8613,36.119,0.0],[-95.8598,36.119,0.0],[-95.8596,36.119,0.0],[-95.8511,36.119,0.0],[-95.8511,36.1112,0.0],[-95.8511,36.1045,0.0],[-95.8558,36.1045,0.0],[-95.8578,36.1045,0.0],[-95.8595,36.1045,0.0],[-95.8598,36.1045,0.0],[-95.8673,36.1045,0.0],[-95.8687,36.1045,0.0],[-95.8687,36.1111,0.0]]]]}},{"type":"Feature","properties":{"uesi_id":"USA_R184985","nbhd_code":"USA_R184985_41","nbhd_name":"Census Tract 304.05"},"geometry":{"type":"MultiPolygon","coordinates":[[[[-95.7616,36.119,0.0],[-95.7526,36.119,0.0],[-95.7352,36.119,0.0],[-95.7262,36.119,0.0],[-95.7211,36.1189,0.0],[-95.7201,36.1189,0.0],[-95.7202,36.1187,0.0],[-95.7212,36.1167,0.0],[-95.7216,36.1162,0.0],[-95.7261,36.1134,0.0],[-95.7261,36.1084,0.0],[-95.7261,36.1044,0.0],[-95.7617,36.1044,0.0],[-95.7616,36.119,0.0]]]]}},{"type":"Feature","properties":{"uesi_id":"USA_R184985","nbhd_code":"USA_R184985_42","nbhd_name":"Census Tract 1"},"geometry":{"type":"MultiPolygon","coordinates":[[[[-95.9226,36.1815,0.0],[-95.9225,36.182,0.0],[-95.9224,36.1916,0.0],[-95.9225,36.2056,0.0],[-95.9225,36.2061,0.0],[-95.9191,36.2065,0.0],[-95.9183,36.2061,0.0],[-95.9046,36.2061,0.0],[-95.9046,36.1771,0.0],[-95.9129,36.1771,0.0],[-95.9225,36.1771,0.0],[-95.9225,36.1799,0.0],[-95.9225,36.1802,0.0],[-95.9226,36.1815,0.0]]]]}},{"type":"Feature","properties":{"uesi_id":"USA_R184985","nbhd_code":"USA_R184985_43","nbhd_name":"Census Tract 43.02"},"geometry":{"type":"MultiPolygon","coordinates":[[[[-95.9757,36.1189,0.0],[-95.9742,36.1189,0.0],[-95.9677,36.1188,0.0],[-95.9671,36.1188,0.0],[-95.9582,36.1188,0.0],[-95.9581,36.1115,0.0],[-95.958,36.1043,0.0],[-95.9675,36.1043,0.0],[-95.9681,36.1043,0.0],[-95.9757,36.1043,0.0],[-95.9757,36.1061,0.0],[-95.9757,36.107,0.0],[-95.9757,36.1116,0.0],[-95.9757,36.1189,0.0]]]]}},{"type":"Feature","properties":{"uesi_id":"USA_R184985","nbhd_code":"USA_R184985_44","nbhd_name":"Census Tract 68.04"},"geometry":{"type":"MultiPolygon","coordinates":[[[[-95.9758,36.0825,0.0],[-95.9758,36.0831,0.0],[-95.9757,36.0891,0.0],[-95.9735,36.0893,0.0],[-95.9669,36.0892,0.0],[-95.967,36.0832,0.0],[-95.9669,36.0821,0.0],[-95.9669,36.0763,0.0],[-95.9664,36.0753,0.0],[-95.9713,36.0753,0.0],[-95.9758,36.0752,0.0],[-95.9758,36.0825,0.0]]]]}},{"type":"Feature","properties":{"uesi_id":"USA_R184985","nbhd_code":"USA_R184985_45","nbhd_name":"Census Tract 12"},"geometry":{"type":"MultiPolygon","coordinates":[[[[-95.9847,36.164,0.0],[-95.9833,36.177,0.0],[-95.9767,36.1769,0.0],[-95.9756,36.1769,0.0],[-95.9732,36.177,0.0],[-95.9661,36.182,0.0],[-95.9656,36.1814,0.0],[-95.9671,36.1804,0.0],[-95.9672,36.1752,0.0],[-95.9671,36.1592,0.0],[-95.9756,36.1594,0.0],[-95.9793,36.1595,0.0],[-95.981,36.1598,0.0],[-95.9839,36.1606,0.0],[-95.9847,36.1626,0.0],[-95.9847,36.164,0.0]]]]}},{"type":"Feature","properties":{"uesi_id":"USA_R184985","nbhd_code":"USA_R184985_46","nbhd_name":"Census Tract 23.01"},"geometry":{"type":"MultiPolygon","coordinates":[[[[-95.981,36.1598,0.0],[-95.9793,36.1595,0.0],[-95.9756,36.1594,0.0],[-95.9671,36.1592,0.0],[-95.9621,36.1608,0.0],[-95.9582,36.1607,0.0],[-95.9582,36.1547,0.0],[-95.9582,36.1517,0.0],[-95.9582,36.1508,0.0],[-95.9582,36.1478,0.0],[-95.96,36.1478,0.0],[-95.9671,36.1479,0.0],[-95.9756,36.1479,0.0],[-95.9799,36.1479,0.0],[-95.9803,36.1479,0.0],[-95.9809,36.1592,0.0],[-95.981,36.1598,0.0]]]]}},{"type":"Feature","properties":{"uesi_id":"USA_R184985","nbhd_code":"USA_R184985_47","nbhd_name":"Census Tract 504.05"},"geometry":{"type":"MultiPolygon","coordinates":[[[[-95.7763,36.2785,0.0],[-95.7763,36.3074,0.0],[-95.7763,36.3111,0.0],[-95.7763,36.3118,0.0],[-95.7763,36.3122,0.0],[-95.7763,36.3126,0.0],[-95.7763,36.3219,0.0],[-95.7761,36.3219,0.0],[-95.7636,36.3219,0.0],[-95.7623,36.3219,0.0],[-95.7565,36.3219,0.0],[-95.7403,36.322,0.0],[-95.7304,36.322,0.0],[-95.7286,36.3216,0.0],[-95.7171,36.314,0.0],[-95.7158,36.3134,0.0],[-95.7137,36.3092,0.0],[-95.7099,36.3073,0.0],[-95.7089,36.3064,0.0],[-95.7085,36.3062,0.0],[-95.7053,36.3074,0.0],[-95.6987,36.3075,0.0],[-95.7001,36.3045,0.0],[-95.704,36.3002,0.0],[-95.7042,36.2992,0.0],[-95.7007,36.2977,0.0],[-95.691,36.292,0.0],[-95.6866,36.2883,0.0],[-95.6819,36.2854,0.0],[-95.6796,36.2825,0.0],[-95.6791,36.28,0.0],[-95.6794,36.2784,0.0],[-95.6812,36.2741,0.0],[-95.6818,36.2719,0.0],[-95.6843,36.2684,0.0],[-95.6867,36.2664,0.0],[-95.6884,36.2636,0.0],[-95.6898,36.2625,0.0],[-95.6923,36.2627,0.0],[-95.6935,36.2638,0.0],[-95.6943,36.2651,0.0],[-95.6954,36.2658,0.0],[-95.6971,36.2658,0.0],[-95.6983,36.2663,0.0],[-95.6999,36.269,0.0],[-95.7015,36.2708,0.0],[-95.703,36.272,0.0],[-95.7042,36.2724,0.0],[-95.7085,36.2726,0.0],[-95.7121,36.2734,0.0],[-95.7134,36.2734,0.0],[-95.7145,36.2733,0.0],[-95.717,36.2724,0.0],[-95.7181,36.2715,0.0],[-95.7199,36.2703,0.0],[-95.7214,36.2701,0.0],[-95.7228,36.2704,0.0],[-95.7241,36.2705,0.0],[-95.7267,36.2697,0.0],[-95.7277,36.2693,0.0],[-95.729,36.2684,0.0],[-95.7311,36.2661,0.0],[-95.7328,36.2658,0.0],[-95.7367,36.2663,0.0],[-95.7398,36.2671,0.0],[-95.741,36.267,0.0],[-95.7423,36.2666,0.0],[-95.7439,36.2652,0.0],[-95.7439,36.2646,0.0],[-95.7431,36.2638,0.0],[-95.7412,36.2626,0.0],[-95.7398,36.2613,0.0],[-95.7373,36.2593,0.0],[-95.7345,36.2577,0.0],[-95.7334,36.2559,0.0],[-95.7332,36.2535,0.0],[-95.7342,36.2501,0.0],[-95.7339,36.2497,0.0],[-95.734,36.2495,0.0],[-95.7448,36.2495,0.0],[-95.7456,36.2494,0.0],[-95.7457,36.2493,0.0],[-95.7473,36.2486,0.0],[-95.7555,36.2418,0.0],[-95.7589,36.2362,0.0],[-95.759,36.235,0.0],[-95.759,36.2328,0.0],[-95.7598,36.2326,0.0],[-95.76,36.2325,0.0],[-95.76,36.2352,0.0],[-95.7605,36.2398,0.0],[-95.7584,36.243,0.0],[-95.7584,36.2462,0.0],[-95.7584,36.2465,0.0],[-95.7584,36.2495,0.0],[-95.7584,36.2502,0.0],[-95.7584,36.2585,0.0],[-95.7583,36.2633,0.0],[-95.7586,36.264,0.0],[-95.7761,36.264,0.0],[-95.7763,36.264,0.0],[-95.7763,36.2785,0.0]]]]}},{"type":"Feature","properties":{"uesi_id":"USA_R184985","nbhd_code":"USA_R184985_48","nbhd_name":"Census Tract 5"},"geometry":{"type":"MultiPolygon","coordinates":[[[[-95.9759,36.1914,0.0],[-95.9582,36.1916,0.0],[-95.9555,36.1916,0.0],[-95.9561,36.191,0.0],[-95.9582,36.1901,0.0],[-95.9594,36.1894,0.0],[-95.9607,36.186,0.0],[-95.9626,36.1843,0.0],[-95.9661,36.182,0.0],[-95.9732,36.177,0.0],[-95.9756,36.1769,0.0],[-95.9759,36.1842,0.0],[-95.9759,36.1914,0.0]]]]}},{"type":"Feature","properties":{"uesi_id":"USA_R184985","nbhd_code":"USA_R184985_49","nbhd_name":"Census Tract 10"},"geometry":{"type":"MultiPolygon","coordinates":[[[[-95.9935,36.1769,0.0],[-95.9874,36.177,0.0],[-95.9862,36.1769,0.0],[-95.9833,36.177,0.0],[-95.9847,36.164,0.0],[-95.9847,36.1626,0.0],[-95.9839,36.1606,0.0],[-95.9902,36.1623,0.0],[-95.9929,36.1622,0.0],[-95.9935,36.1635,0.0],[-95.9935,36.1715,0.0],[-95.9935,36.1769,0.0]]]]}},{"type":"Feature","properties":{"uesi_id":"USA_R184985","nbhd_code":"USA_R184985_50","nbhd_name":"Census Tract 13"},"geometry":{"type":"MultiPolygon","coordinates":[[[[-95.9672,36.1752,0.0],[-95.9671,36.1804,0.0],[-95.9656,36.1814,0.0],[-95.9661,36.182,0.0],[-95.9626,36.1843,0.0],[-95.9607,36.186,0.0],[-95.9594,36.1894,0.0],[-95.9582,36.1901,0.0],[-95.9582,36.1808,0.0],[-95.9582,36.1771,0.0],[-95.9582,36.1753,0.0],[-95.9582,36.1698,0.0],[-95.9582,36.1663,0.0],[-95.9582,36.161,0.0],[-95.9582,36.1607,0.0],[-95.9621,36.1608,0.0],[-95.9671,36.1592,0.0],[-95.9672,36.1752,0.0]]]]}},{"type":"Feature","properties":{"uesi_id":"USA_R184985","nbhd_code":"USA_R184985_51","nbhd_name":"Census Tract 16"},"geometry":{"type":"MultiPolygon","coordinates":[[[[-95.9225,36.1771,0.0],[-95.9129,36.1771,0.0],[-95.9046,36.1771,0.0],[-95.9046,36.173,0.0],[-95.9046,36.1707,0.0],[-95.9046,36.1688,0.0],[-95.9046,36.165,0.0],[-95.9046,36.1636,0.0],[-95.9046,36.1629,0.0],[-95.9046,36.1607,0.0],[-95.9135,36.1608,0.0],[-95.9141,36.1608,0.0],[-95.9145,36.1608,0.0],[-95.9225,36.1607,0.0],[-95.9225,36.1699,0.0],[-95.9225,36.1771,0.0]]]]}},{"type":"Feature","properties":{"uesi_id":"USA_R184985","nbhd_code":"USA_R184985_52","nbhd_name":"Census Tract 25"},"geometry":{"type":"MultiPolygon","coordinates":[[[[-96.0027,36.1484,0.0],[-96.0027,36.1502,0.0],[-96.0015,36.1552,0.0],[-96.0017,36.1561,0.0],[-96.0015,36.1564,0.0],[-96.0009,36.158,0.0],[-95.999,36.1605,0.0],[-95.9979,36.161,0.0],[-95.9942,36.1618,0.0],[-95.9929,36.1622,0.0],[-95.9902,36.1623,0.0],[-95.9839,36.1606,0.0],[-95.981,36.1598,0.0],[-95.9809,36.1592,0.0],[-95.9803,36.1479,0.0],[-95.9801,36.1443,0.0],[-95.9814,36.1428,0.0],[-95.9831,36.1424,0.0],[-95.9873,36.1438,0.0],[-95.9924,36.1442,0.0],[-95.9947,36.1452,0.0],[-95.996,36.1455,0.0],[-96.0,36.1455,0.0],[-96.0018,36.146,0.0],[-96.0026,36.147,0.0],[-96.0027,36.1478,0.0],[-96.0027,36.1484,0.0]]]]}},{"type":"Feature","properties":{"uesi_id":"USA_R184985","nbhd_code":"USA_R184985_53","nbhd_name":"Census Tract 27"},"geometry":{"type":"MultiPolygon","coordinates":[[[[-96.0293,36.1507,0.0],[-96.0293,36.1529,0.0],[-96.0293,36.1543,0.0],[-96.0292,36.1552,0.0],[-96.0292,36.1569,0.0],[-96.0233,36.156,0.0],[-96.0204,36.1561,0.0],[-96.0203,36.1566,0.0],[-96.0244,36.1563,0.0],[-96.0279,36.1569,0.0],[-96.0291,36.1574,0.0],[-96.0292,36.1612,0.0],[-96.0199,36.1613,0.0],[-96.0149,36.1613,0.0],[-96.011,36.1613,0.0],[-96.0011,36.1613,0.0],[-95.9994,36.1613,0.0],[-95.998,36.1612,0.0],[-95.9979,36.161,0.0],[-95.999,36.1605,0.0],[-96.0009,36.158,0.0],[-96.0015,36.1564,0.0],[-96.0017,36.1561,0.0],[-96.0015,36.1552,0.0],[-96.0027,36.1502,0.0],[-96.0027,36.1484,0.0],[-96.0027,36.1478,0.0],[-96.0031,36.1467,0.0],[-96.0057,36.143,0.0],[-96.0068,36.1439,0.0],[-96.0108,36.1457,0.0],[-96.0119,36.1459,0.0],[-96.0205,36.1459,0.0],[-96.0262,36.1452,0.0],[-96.0293,36.1443,0.0],[-96.0292,36.145,0.0],[-96.0293,36.1484,0.0],[-96.0293,36.1496,0.0],[-96.0293,36.1507,0.0]]]]}},{"type":"Feature","properties":{"uesi_id":"USA_R184985","nbhd_code":"USA_R184985_54","nbhd_name":"Census Tract 30"},"geometry":{"type":"MultiPolygon","coordinates":[[[[-96.0474,36.1407,0.0],[-96.0474,36.142,0.0],[-96.0472,36.1434,0.0],[-96.0472,36.1438,0.0],[-96.0473,36.1444,0.0],[-96.0472,36.1499,0.0],[-96.0472,36.1528,0.0],[-96.045,36.1535,0.0],[-96.045,36.1516,0.0],[-96.0438,36.1538,0.0],[-96.0383,36.1548,0.0],[-96.0382,36.1562,0.0],[-96.0335,36.1573,0.0],[-96.0315,36.1573,0.0],[-96.0292,36.1569,0.0],[-96.0292,36.1552,0.0],[-96.0293,36.1543,0.0],[-96.0293,36.1529,0.0],[-96.0293,36.1507,0.0],[-96.0293,36.1496,0.0],[-96.0293,36.1484,0.0],[-96.0292,36.145,0.0],[-96.0293,36.1443,0.0],[-96.0411,36.1408,0.0],[-96.0462,36.1403,0.0],[-96.0474,36.1403,0.0],[-96.0474,36.1407,0.0]]]]}},{"type":"Feature","properties":{"uesi_id":"USA_R184985","nbhd_code":"USA_R184985_55","nbhd_name":"Census Tract 32"},"geometry":{"type":"MultiPolygon","coordinates":[[[[-95.9874,36.1361,0.0],[-95.9873,36.1397,0.0],[-95.9873,36.1436,0.0],[-95.9873,36.1438,0.0],[-95.9831,36.1424,0.0],[-95.9814,36.1428,0.0],[-95.9801,36.1443,0.0],[-95.9803,36.1479,0.0],[-95.9799,36.1479,0.0],[-95.9756,36.1479,0.0],[-95.9756,36.1442,0.0],[-95.9756,36.1434,0.0],[-95.9756,36.1431,0.0],[-95.9756,36.1428,0.0],[-95.9757,36.1406,0.0],[-95.9757,36.1369,0.0],[-95.9756,36.1334,0.0],[-95.9805,36.1333,0.0],[-95.9834,36.1334,0.0],[-95.989,36.1334,0.0],[-95.9874,36.1361,0.0]]]]}},{"type":"Feature","properties":{"uesi_id":"USA_R184985","nbhd_code":"USA_R184985_56","nbhd_name":"Census Tract 35"},"geometry":{"type":"MultiPolygon","coordinates":[[[[-95.9582,36.1433,0.0],[-95.9582,36.1478,0.0],[-95.9571,36.1478,0.0],[-95.9515,36.1478,0.0],[-95.9493,36.1478,0.0],[-95.9484,36.1478,0.0],[-95.9461,36.1478,0.0],[-95.9404,36.1478,0.0],[-95.9403,36.1406,0.0],[-95.946,36.1406,0.0],[-95.9515,36.1405,0.0],[-95.9535,36.1405,0.0],[-95.9546,36.1405,0.0],[-95.9582,36.1405,0.0],[-95.9582,36.1433,0.0]]]]}},{"type":"Feature","properties":{"uesi_id":"USA_R184985","nbhd_code":"USA_R184985_57","nbhd_name":"Census Tract 60"},"geometry":{"type":"MultiPolygon","coordinates":[[[[-95.9046,36.1636,0.0],[-95.9046,36.165,0.0],[-95.9046,36.1688,0.0],[-95.9046,36.1707,0.0],[-95.9046,36.173,0.0],[-95.9046,36.1771,0.0],[-95.8979,36.1771,0.0],[-95.8867,36.1771,0.0],[-95.8868,36.175,0.0],[-95.8867,36.1734,0.0],[-95.8867,36.1618,0.0],[-95.8867,36.1607,0.0],[-95.8946,36.1607,0.0],[-95.8956,36.1607,0.0],[-95.9046,36.1607,0.0],[-95.9046,36.1629,0.0],[-95.9046,36.1636,0.0]]]]}},{"type":"Feature","properties":{"uesi_id":"USA_R184985","nbhd_code":"USA_R184985_58","nbhd_name":"Census Tract 67.01"},"geometry":{"type":"MultiPolygon","coordinates":[[[[-96.0538,36.0755,0.0],[-96.0499,36.078,0.0],[-96.0453,36.083,0.0],[-96.0403,36.0887,0.0],[-96.0396,36.0893,0.0],[-96.0385,36.0892,0.0],[-96.0356,36.0891,0.0],[-96.0343,36.0891,0.0],[-96.0318,36.089,0.0],[-96.0296,36.089,0.0],[-96.0117,36.089,0.0],[-96.0018,36.089,0.0],[-95.9954,36.09,0.0],[-95.988,36.09,0.0],[-95.9861,36.0752,0.0],[-96.0117,36.0753,0.0],[-96.0235,36.0753,0.0],[-96.0296,36.0754,0.0],[-96.0304,36.0754,0.0],[-96.0453,36.0755,0.0],[-96.0508,36.0754,0.0],[-96.0528,36.0755,0.0],[-96.0538,36.0755,0.0]]]]}},{"type":"Feature","properties":{"uesi_id":"USA_R184985","nbhd_code":"USA_R184985_59","nbhd_name":"Census Tract 29"},"geometry":{"type":"MultiPolygon","coordinates":[[[[-96.0837,36.16,0.0],[-96.0833,36.1609,0.0],[-96.0829,36.161,0.0],[-96.0825,36.161,0.0],[-96.0817,36.161,0.0],[-96.0813,36.161,0.0],[-96.0806,36.161,0.0],[-96.0792,36.161,0.0],[-96.0755,36.1611,0.0],[-96.0745,36.1612,0.0],[-96.0736,36.161,0.0],[-96.0734,36.1611,0.0],[-96.0725,36.1611,0.0],[-96.063,36.1609,0.0],[-96.0562,36.1611,0.0],[-96.0553,36.1611,0.0],[-96.0478,36.1611,0.0],[-96.0473,36.1611,0.0],[-96.0438,36.1611,0.0],[-96.0292,36.1612,0.0],[-96.0291,36.1574,0.0],[-96.0279,36.1569,0.0],[-96.0244,36.1563,0.0],[-96.0203,36.1566,0.0],[-96.0204,36.1561,0.0],[-96.0233,36.156,0.0],[-96.0292,36.1569,0.0],[-96.0315,36.1573,0.0],[-96.0335,36.1573,0.0],[-96.0382,36.1562,0.0],[-96.0383,36.1548,0.0],[-96.0438,36.1538,0.0],[-96.045,36.1516,0.0],[-96.045,36.1535,0.0],[-96.0472,36.1528,0.0],[-96.0495,36.1513,0.0],[-96.0529,36.1515,0.0],[-96.054,36.1512,0.0],[-96.054,36.1498,0.0],[-96.0562,36.1498,0.0],[-96.0562,36.1505,0.0],[-96.0616,36.1485,0.0],[-96.0652,36.1478,0.0],[-96.0656,36.1477,0.0],[-96.0676,36.1471,0.0],[-96.0679,36.147,0.0],[-96.0729,36.1455,0.0],[-96.0753,36.1447,0.0],[-96.0757,36.1445,0.0],[-96.0762,36.1444,0.0],[-96.0812,36.143,0.0],[-96.0834,36.1422,0.0],[-96.0834,36.1427,0.0],[-96.0834,36.1432,0.0],[-96.0834,36.1447,0.0],[-96.0835,36.1549,0.0],[-96.0835,36.1556,0.0],[-96.0835,36.1561,0.0],[-96.0837,36.16,0.0]]]]}},{"type":"Feature","properties":{"uesi_id":"USA_R184985","nbhd_code":"USA_R184985_60","nbhd_name":"Census Tract 36"},"geometry":{"type":"MultiPolygon","coordinates":[[[[-95.9582,36.1405,0.0],[-95.9546,36.1405,0.0],[-95.9535,36.1405,0.0],[-95.9515,36.1405,0.0],[-95.946,36.1406,0.0],[-95.9403,36.1406,0.0],[-95.9403,36.1369,0.0],[-95.9404,36.1332,0.0],[-95.9471,36.1333,0.0],[-95.9487,36.1333,0.0],[-95.9491,36.1333,0.0],[-95.9582,36.1332,0.0],[-95.9582,36.135,0.0],[-95.9582,36.1405,0.0]]]]}},{"type":"Feature","properties":{"uesi_id":"USA_R184985","nbhd_code":"USA_R184985_61","nbhd_name":"Census Tract 37"},"geometry":{"type":"MultiPolygon","coordinates":[[[[-95.9404,36.1478,0.0],[-95.9392,36.1479,0.0],[-95.9337,36.1478,0.0],[-95.9315,36.1478,0.0],[-95.9304,36.1478,0.0],[-95.9225,36.1478,0.0],[-95.9225,36.1442,0.0],[-95.9225,36.1405,0.0],[-95.9225,36.1333,0.0],[-95.9314,36.1333,0.0],[-95.938,36.1333,0.0],[-95.9404,36.1332,0.0],[-95.9403,36.1369,0.0],[-95.9403,36.1406,0.0],[-95.9404,36.1478,0.0]]]]}},{"type":"Feature","properties":{"uesi_id":"USA_R184985","nbhd_code":"USA_R184985_62","nbhd_name":"Census Tract 38"},"geometry":{"type":"MultiPolygon","coordinates":[[[[-95.9225,36.1442,0.0],[-95.9225,36.1478,0.0],[-95.9158,36.1478,0.0],[-95.9151,36.1479,0.0],[-95.9143,36.1479,0.0],[-95.9135,36.1479,0.0],[-95.9045,36.1479,0.0],[-95.9045,36.1407,0.0],[-95.9046,36.1334,0.0],[-95.918,36.1333,0.0],[-95.9225,36.1333,0.0],[-95.9225,36.1405,0.0],[-95.9225,36.1442,0.0]]]]}},{"type":"Feature","properties":{"uesi_id":"USA_R184985","nbhd_code":"USA_R184985_63","nbhd_name":"Census Tract 42"},"geometry":{"type":"MultiPolygon","coordinates":[[[[-95.9582,36.1332,0.0],[-95.9491,36.1333,0.0],[-95.9487,36.1333,0.0],[-95.9471,36.1333,0.0],[-95.9404,36.1332,0.0],[-95.9403,36.1262,0.0],[-95.9403,36.1252,0.0],[-95.9403,36.1188,0.0],[-95.9501,36.1188,0.0],[-95.9537,36.1188,0.0],[-95.9568,36.1187,0.0],[-95.9582,36.1188,0.0],[-95.9582,36.126,0.0],[-95.9582,36.1262,0.0],[-95.9582,36.1332,0.0]]]]}},{"type":"Feature","properties":{"uesi_id":"USA_R184985","nbhd_code":"USA_R184985_64","nbhd_name":"Census Tract 43.01"},"geometry":{"type":"MultiPolygon","coordinates":[[[[-95.9757,36.1237,0.0],[-95.9756,36.1334,0.0],[-95.9673,36.1333,0.0],[-95.962,36.1333,0.0],[-95.9601,36.1333,0.0],[-95.9582,36.1332,0.0],[-95.9582,36.1262,0.0],[-95.9582,36.126,0.0],[-95.9582,36.1188,0.0],[-95.9671,36.1188,0.0],[-95.9677,36.1188,0.0],[-95.9742,36.1189,0.0],[-95.9757,36.1189,0.0],[-95.9757,36.1237,0.0]]]]}},{"type":"Feature","properties":{"uesi_id":"USA_R184985","nbhd_code":"USA_R184985_65","nbhd_name":"Census Tract 46"},"geometry":{"type":"MultiPolygon","coordinates":[[[[-96.0091,36.1302,0.0],[-96.0073,36.1407,0.0],[-96.0059,36.1427,0.0],[-96.0057,36.143,0.0],[-96.0047,36.1426,0.0],[-96.0008,36.14,0.0],[-95.9922,36.1318,0.0],[-95.9958,36.1299,0.0],[-95.9994,36.1298,0.0],[-95.9995,36.1262,0.0],[-96.007,36.1263,0.0],[-96.0075,36.1281,0.0],[-96.0087,36.1274,0.0],[-96.0091,36.1302,0.0]]]]}},{"type":"Feature","properties":{"uesi_id":"USA_R184985","nbhd_code":"USA_R184985_66","nbhd_name":"Census Tract 49"},"geometry":{"type":"MultiPolygon","coordinates":[[[[-96.0122,36.1107,0.0],[-96.0112,36.1146,0.0],[-96.009,36.1188,0.0],[-96.0087,36.1274,0.0],[-96.0075,36.1281,0.0],[-96.007,36.1263,0.0],[-95.9995,36.1262,0.0],[-95.9994,36.1298,0.0],[-95.9958,36.1299,0.0],[-95.9922,36.1318,0.0],[-95.9874,36.1212,0.0],[-95.987,36.119,0.0],[-95.9859,36.1043,0.0],[-95.9867,36.0983,0.0],[-95.988,36.09,0.0],[-95.9954,36.09,0.0],[-96.0018,36.089,0.0],[-96.0117,36.089,0.0],[-96.0117,36.0935,0.0],[-96.0116,36.1081,0.0],[-96.0122,36.1107,0.0]]]]}},{"type":"Feature","properties":{"uesi_id":"USA_R184985","nbhd_code":"USA_R184985_67","nbhd_name":"Census Tract 50.02"},"geometry":{"type":"MultiPolygon","coordinates":[[[[-95.9757,36.0897,0.0],[-95.9757,36.0976,0.0],[-95.9757,36.0983,0.0],[-95.9757,36.1043,0.0],[-95.9681,36.1043,0.0],[-95.9675,36.1043,0.0],[-95.958,36.1043,0.0],[-95.958,36.091,0.0],[-95.958,36.0907,0.0],[-95.9579,36.0902,0.0],[-95.9603,36.0902,0.0],[-95.9645,36.0894,0.0],[-95.9669,36.0892,0.0],[-95.9735,36.0893,0.0],[-95.9757,36.0891,0.0],[-95.9757,36.0897,0.0]]]]}},{"type":"Feature","properties":{"uesi_id":"USA_R184985","nbhd_code":"USA_R184985_68","nbhd_name":"Census Tract 51"},"geometry":{"type":"MultiPolygon","coordinates":[[[[-95.958,36.1043,0.0],[-95.9524,36.1043,0.0],[-95.9514,36.1043,0.0],[-95.9492,36.1043,0.0],[-95.9402,36.1043,0.0],[-95.9402,36.0952,0.0],[-95.9401,36.0906,0.0],[-95.9528,36.0904,0.0],[-95.958,36.0907,0.0],[-95.958,36.091,0.0],[-95.958,36.1043,0.0]]]]}},{"type":"Feature","properties":{"uesi_id":"USA_R184985","nbhd_code":"USA_R184985_69","nbhd_name":"Census Tract 504.06"},"geometry":{"type":"MultiPolygon","coordinates":[[[[-95.8153,36.2495,0.0],[-95.8121,36.2495,0.0],[-95.8122,36.2637,0.0],[-95.8122,36.264,0.0],[-95.8121,36.2643,0.0],[-95.8122,36.276,0.0],[-95.8123,36.2778,0.0],[-95.8122,36.2785,0.0],[-95.8105,36.2785,0.0],[-95.7959,36.2785,0.0],[-95.7942,36.2785,0.0],[-95.7767,36.2785,0.0],[-95.7763,36.2785,0.0],[-95.7763,36.264,0.0],[-95.7761,36.264,0.0],[-95.7586,36.264,0.0],[-95.7583,36.2633,0.0],[-95.7584,36.2585,0.0],[-95.7584,36.2502,0.0],[-95.7584,36.2495,0.0],[-95.7584,36.2465,0.0],[-95.7584,36.2462,0.0],[-95.7584,36.243,0.0],[-95.7605,36.2398,0.0],[-95.76,36.2352,0.0],[-95.76,36.2325,0.0],[-95.7602,36.2325,0.0],[-95.7613,36.2322,0.0],[-95.7685,36.2308,0.0],[-95.8021,36.2258,0.0],[-95.8114,36.2251,0.0],[-95.8153,36.2245,0.0],[-95.8153,36.226,0.0],[-95.8153,36.2266,0.0],[-95.815,36.2294,0.0],[-95.8152,36.2351,0.0],[-95.8153,36.2475,0.0],[-95.8153,36.2479,0.0],[-95.8153,36.2483,0.0],[-95.8153,36.2485,0.0],[-95.8153,36.2495,0.0]]]]}},{"type":"Feature","properties":{"uesi_id":"USA_R184985","nbhd_code":"USA_R184985_70","nbhd_name":"Census Tract 504.08"},"geometry":{"type":"MultiPolygon","coordinates":[[[[-95.7592,36.185,0.0],[-95.7583,36.1916,0.0],[-95.7582,36.195,0.0],[-95.7588,36.2078,0.0],[-95.759,36.2328,0.0],[-95.759,36.235,0.0],[-95.7589,36.2362,0.0],[-95.7555,36.2418,0.0],[-95.7473,36.2486,0.0],[-95.7457,36.2493,0.0],[-95.7456,36.2494,0.0],[-95.7448,36.2495,0.0],[-95.734,36.2495,0.0],[-95.7335,36.2461,0.0],[-95.7321,36.244,0.0],[-95.7306,36.2428,0.0],[-95.7282,36.2417,0.0],[-95.7252,36.2427,0.0],[-95.724,36.2445,0.0],[-95.7222,36.2456,0.0],[-95.7204,36.2447,0.0],[-95.7197,36.2427,0.0],[-95.7206,36.2393,0.0],[-95.7217,36.2378,0.0],[-95.7234,36.2336,0.0],[-95.7267,36.2282,0.0],[-95.7274,36.2262,0.0],[-95.7259,36.2213,0.0],[-95.7287,36.2216,0.0],[-95.729,36.2193,0.0],[-95.7289,36.2147,0.0],[-95.7279,36.2105,0.0],[-95.7258,36.2097,0.0],[-95.7256,36.2096,0.0],[-95.7244,36.209,0.0],[-95.7223,36.2088,0.0],[-95.7174,36.2106,0.0],[-95.7162,36.2105,0.0],[-95.7072,36.2041,0.0],[-95.7264,36.1884,0.0],[-95.7266,36.1883,0.0],[-95.7296,36.1859,0.0],[-95.7311,36.1843,0.0],[-95.7395,36.1773,0.0],[-95.7426,36.1771,0.0],[-95.7441,36.177,0.0],[-95.7608,36.177,0.0],[-95.7592,36.185,0.0]]]]}},{"type":"Feature","properties":{"uesi_id":"USA_R184985","nbhd_code":"USA_R184985_71","nbhd_name":"Census Tract 67.03"},"geometry":{"type":"MultiPolygon","coordinates":[[[[-95.994,36.0166,0.0],[-95.9938,36.0246,0.0],[-95.9937,36.0319,0.0],[-95.9916,36.0319,0.0],[-95.9878,36.0306,0.0],[-95.9859,36.0316,0.0],[-95.9855,36.0318,0.0],[-95.9843,36.0319,0.0],[-95.9759,36.032,0.0],[-95.9759,36.043,0.0],[-95.9763,36.0467,0.0],[-95.9763,36.0501,0.0],[-95.9758,36.048,0.0],[-95.9745,36.0463,0.0],[-95.9711,36.0449,0.0],[-95.9689,36.0436,0.0],[-95.9636,36.0385,0.0],[-95.9628,36.036,0.0],[-95.9627,36.035,0.0],[-95.9624,36.0337,0.0],[-95.9621,36.0331,0.0],[-95.9617,36.0327,0.0],[-95.9604,36.0322,0.0],[-95.9594,36.032,0.0],[-95.9588,36.0318,0.0],[-95.9574,36.0309,0.0],[-95.9568,36.0304,0.0],[-95.9546,36.0283,0.0],[-95.9545,36.0273,0.0],[-95.9539,36.0264,0.0],[-95.9531,36.0254,0.0],[-95.9523,36.025,0.0],[-95.9519,36.025,0.0],[-95.9513,36.0233,0.0],[-95.9505,36.0188,0.0],[-95.9505,36.0172,0.0],[-95.9496,36.0106,0.0],[-95.9498,36.0086,0.0],[-95.9478,36.0041,0.0],[-95.9519,36.0034,0.0],[-95.9531,36.0035,0.0],[-95.9558,36.0037,0.0],[-95.9578,36.0026,0.0],[-95.9589,36.001,0.0],[-95.9605,36.0009,0.0],[-95.9631,36.0019,0.0],[-95.9643,36.0034,0.0],[-95.9662,36.008,0.0],[-95.968,36.0096,0.0],[-95.9701,36.0124,0.0],[-95.9726,36.0134,0.0],[-95.9759,36.0129,0.0],[-95.9765,36.013,0.0],[-95.9782,36.0155,0.0],[-95.9809,36.0161,0.0],[-95.9828,36.016,0.0],[-95.9864,36.0177,0.0],[-95.9868,36.0189,0.0],[-95.9841,36.0217,0.0],[-95.9842,36.0224,0.0],[-95.9869,36.0235,0.0],[-95.9887,36.0236,0.0],[-95.9901,36.0226,0.0],[-95.9929,36.0191,0.0],[-95.9931,36.0162,0.0],[-95.9938,36.0158,0.0],[-95.994,36.0166,0.0]]]]}},{"type":"Feature","properties":{"uesi_id":"USA_R184985","nbhd_code":"USA_R184985_72","nbhd_name":"Census Tract 68.03"},"geometry":{"type":"MultiPolygon","coordinates":[[[[-95.9669,36.0892,0.0],[-95.9645,36.0894,0.0],[-95.9603,36.0902,0.0],[-95.9579,36.0902,0.0],[-95.958,36.0843,0.0],[-95.9579,36.0834,0.0],[-95.958,36.0753,0.0],[-95.96,36.0753,0.0],[-95.9664,36.0753,0.0],[-95.9669,36.0763,0.0],[-95.9669,36.0821,0.0],[-95.967,36.0832,0.0],[-95.9669,36.0892,0.0]]]]}},{"type":"Feature","properties":{"uesi_id":"USA_R184985","nbhd_code":"USA_R184985_73","nbhd_name":"Census Tract 69.03"},"geometry":{"type":"MultiPolygon","coordinates":[[[[-95.9044,36.0899,0.0],[-95.9026,36.0899,0.0],[-95.9019,36.0898,0.0],[-95.8971,36.0899,0.0],[-95.8865,36.0899,0.0],[-95.8865,36.0826,0.0],[-95.8864,36.0753,0.0],[-95.8872,36.0754,0.0],[-95.8915,36.0754,0.0],[-95.8932,36.0754,0.0],[-95.9043,36.0754,0.0],[-95.9043,36.0776,0.0],[-95.9044,36.083,0.0],[-95.9044,36.0899,0.0]]]]}},{"type":"Feature","properties":{"uesi_id":"USA_R184985","nbhd_code":"USA_R184985_74","nbhd_name":"Census Tract 69.05"},"geometry":{"type":"MultiPolygon","coordinates":[[[[-95.9045,36.1044,0.0],[-95.8866,36.1044,0.0],[-95.8865,36.093,0.0],[-95.8865,36.0899,0.0],[-95.8971,36.0899,0.0],[-95.9019,36.0898,0.0],[-95.9026,36.0899,0.0],[-95.9044,36.0899,0.0],[-95.9045,36.0962,0.0],[-95.9045,36.0967,0.0],[-95.9045,36.1044,0.0]]]]}},{"type":"Feature","properties":{"uesi_id":"USA_R184985","nbhd_code":"USA_R184985_75","nbhd_name":"Census Tract 71.02"},"geometry":{"type":"MultiPolygon","coordinates":[[[[-95.8867,36.148,0.0],[-95.8777,36.148,0.0],[-95.8688,36.148,0.0],[-95.8674,36.148,0.0],[-95.8646,36.148,0.0],[-95.8645,36.1368,0.0],[-95.8668,36.1351,0.0],[-95.8692,36.1335,0.0],[-95.8703,36.1335,0.0],[-95.8777,36.1334,0.0],[-95.8867,36.1335,0.0],[-95.8867,36.148,0.0]]]]}},{"type":"Feature","properties":{"uesi_id":"USA_R184985","nbhd_code":"USA_R184985_76","nbhd_name":"Census Tract 73.04"},"geometry":{"type":"MultiPolygon","coordinates":[[[[-95.8692,36.1335,0.0],[-95.8668,36.1351,0.0],[-95.8645,36.1368,0.0],[-95.8646,36.148,0.0],[-95.8605,36.148,0.0],[-95.8603,36.148,0.0],[-95.8512,36.148,0.0],[-95.8511,36.1458,0.0],[-95.8511,36.1456,0.0],[-95.8511,36.1426,0.0],[-95.8511,36.138,0.0],[-95.8511,36.1335,0.0],[-95.853,36.1335,0.0],[-95.8592,36.1335,0.0],[-95.8598,36.1335,0.0],[-95.86,36.1335,0.0],[-95.8646,36.1335,0.0],[-95.8682,36.1335,0.0],[-95.8692,36.1335,0.0]]]]}},{"type":"Feature","properties":{"uesi_id":"USA_R184985","nbhd_code":"USA_R184985_77","nbhd_name":"Census Tract 73.05"},"geometry":{"type":"MultiPolygon","coordinates":[[[[-95.8703,36.1335,0.0],[-95.8692,36.1335,0.0],[-95.8682,36.1335,0.0],[-95.8646,36.1335,0.0],[-95.86,36.1335,0.0],[-95.8598,36.1335,0.0],[-95.8592,36.1335,0.0],[-95.853,36.1335,0.0],[-95.8511,36.1335,0.0],[-95.8511,36.123,0.0],[-95.8511,36.119,0.0],[-95.8596,36.119,0.0],[-95.8598,36.119,0.0],[-95.8613,36.119,0.0],[-95.8636,36.119,0.0],[-95.8656,36.1189,0.0],[-95.8664,36.1189,0.0],[-95.8687,36.119,0.0],[-95.8699,36.119,0.0],[-95.8697,36.1251,0.0],[-95.8692,36.1257,0.0],[-95.8702,36.132,0.0],[-95.8703,36.1323,0.0],[-95.8703,36.1335,0.0]]]]}},{"type":"Feature","properties":{"uesi_id":"USA_R184985","nbhd_code":"USA_R184985_78","nbhd_name":"Census Tract 73.11"},"geometry":{"type":"MultiPolygon","coordinates":[[[[-95.8334,36.1606,0.0],[-95.8154,36.1606,0.0],[-95.8154,36.148,0.0],[-95.8154,36.1335,0.0],[-95.8235,36.1334,0.0],[-95.8304,36.1335,0.0],[-95.8332,36.1334,0.0],[-95.8333,36.148,0.0],[-95.8334,36.1606,0.0]]]]}},{"type":"Feature","properties":{"uesi_id":"USA_R184985","nbhd_code":"USA_R184985_79","nbhd_name":"Census Tract 75.08"},"geometry":{"type":"MultiPolygon","coordinates":[[[[-95.8685,36.0254,0.0],[-95.8685,36.0273,0.0],[-95.8685,36.0319,0.0],[-95.8512,36.0319,0.0],[-95.851,36.0319,0.0],[-95.8407,36.0319,0.0],[-95.8332,36.0319,0.0],[-95.8318,36.0319,0.0],[-95.8153,36.0319,0.0],[-95.8154,36.0279,0.0],[-95.8153,36.0238,0.0],[-95.8153,36.0174,0.0],[-95.8181,36.0175,0.0],[-95.8224,36.0175,0.0],[-95.8331,36.0174,0.0],[-95.8332,36.0174,0.0],[-95.8353,36.0174,0.0],[-95.851,36.0173,0.0],[-95.8685,36.0174,0.0],[-95.8685,36.0176,0.0],[-95.8685,36.0254,0.0]]]]}},{"type":"Feature","properties":{"uesi_id":"USA_R184985","nbhd_code":"USA_R184985_80","nbhd_name":"Census Tract 75.24"},"geometry":{"type":"MultiPolygon","coordinates":[[[[-95.8862,36.039,0.0],[-95.8862,36.0464,0.0],[-95.8804,36.0464,0.0],[-95.8685,36.0464,0.0],[-95.859,36.0464,0.0],[-95.8512,36.0463,0.0],[-95.851,36.0463,0.0],[-95.851,36.0423,0.0],[-95.851,36.0319,0.0],[-95.8512,36.0319,0.0],[-95.8685,36.0319,0.0],[-95.8755,36.0317,0.0],[-95.8773,36.0319,0.0],[-95.8865,36.0318,0.0],[-95.8862,36.039,0.0]]]]}},{"type":"Feature","properties":{"uesi_id":"USA_R184985","nbhd_code":"USA_R184985_81","nbhd_name":"Census Tract 76.09"},"geometry":{"type":"MultiPolygon","coordinates":[[[[-95.9765,36.0625,0.0],[-95.9758,36.0661,0.0],[-95.9758,36.0674,0.0],[-95.9757,36.0698,0.0],[-95.9758,36.0752,0.0],[-95.9713,36.0753,0.0],[-95.9664,36.0753,0.0],[-95.96,36.0753,0.0],[-95.958,36.0753,0.0],[-95.9579,36.0608,0.0],[-95.9671,36.0608,0.0],[-95.969,36.0607,0.0],[-95.9749,36.0607,0.0],[-95.9755,36.0607,0.0],[-95.9758,36.0607,0.0],[-95.9765,36.0625,0.0]]]]}},{"type":"Feature","properties":{"uesi_id":"USA_R184985","nbhd_code":"USA_R184985_82","nbhd_name":"Census Tract 76.15"},"geometry":{"type":"MultiPolygon","coordinates":[[[[-95.9221,36.0753,0.0],[-95.9043,36.0754,0.0],[-95.9042,36.0677,0.0],[-95.9042,36.0609,0.0],[-95.9149,36.0608,0.0],[-95.9221,36.0608,0.0],[-95.9221,36.0682,0.0],[-95.9221,36.0753,0.0]]]]}},{"type":"Feature","properties":{"uesi_id":"USA_R184985","nbhd_code":"USA_R184985_83","nbhd_name":"Census Tract 76.16"},"geometry":{"type":"MultiPolygon","coordinates":[[[[-95.9043,36.0754,0.0],[-95.8932,36.0754,0.0],[-95.8915,36.0754,0.0],[-95.8872,36.0754,0.0],[-95.8864,36.0753,0.0],[-95.8863,36.0733,0.0],[-95.8864,36.0678,0.0],[-95.8864,36.0609,0.0],[-95.8955,36.0609,0.0],[-95.9042,36.0609,0.0],[-95.9042,36.0677,0.0],[-95.9043,36.0754,0.0]]]]}},{"type":"Feature","properties":{"uesi_id":"USA_R184985","nbhd_code":"USA_R184985_84","nbhd_name":"Census Tract 76.29"},"geometry":{"type":"MultiPolygon","coordinates":[[[[-95.9042,36.023,0.0],[-95.9043,36.0318,0.0],[-95.8865,36.0318,0.0],[-95.8865,36.0254,0.0],[-95.8865,36.0218,0.0],[-95.8865,36.0177,0.0],[-95.8865,36.0173,0.0],[-95.8868,36.0173,0.0],[-95.9013,36.0174,0.0],[-95.9042,36.0173,0.0],[-95.9043,36.0222,0.0],[-95.9042,36.023,0.0]]]]}},{"type":"Feature","properties":{"uesi_id":"USA_R184985","nbhd_code":"USA_R184985_85","nbhd_name":"Census Tract 76.36"},"geometry":{"type":"MultiPolygon","coordinates":[[[[-95.9043,35.9956,0.0],[-95.9043,36.0028,0.0],[-95.9043,36.0032,0.0],[-95.9044,36.0058,0.0],[-95.9043,36.0107,0.0],[-95.9042,36.0173,0.0],[-95.9013,36.0174,0.0],[-95.8868,36.0173,0.0],[-95.8865,36.0173,0.0],[-95.8866,36.0089,0.0],[-95.8866,36.0058,0.0],[-95.8866,36.0028,0.0],[-95.8865,35.9883,0.0],[-95.9044,35.9883,0.0],[-95.9043,35.9956,0.0]]]]}},{"type":"Feature","properties":{"uesi_id":"USA_R184985","nbhd_code":"USA_R184985_86","nbhd_name":"Census Tract 76.37"},"geometry":{"type":"MultiPolygon","coordinates":[[[[-95.9223,36.0028,0.0],[-95.9222,36.011,0.0],[-95.9222,36.0173,0.0],[-95.9042,36.0173,0.0],[-95.9043,36.0107,0.0],[-95.9044,36.0058,0.0],[-95.9043,36.0032,0.0],[-95.9043,36.0028,0.0],[-95.9043,35.9956,0.0],[-95.9044,35.9883,0.0],[-95.9047,35.9883,0.0],[-95.9223,35.9884,0.0],[-95.9222,35.9956,0.0],[-95.9223,36.0028,0.0]]]]}},{"type":"Feature","properties":{"uesi_id":"USA_R184985","nbhd_code":"USA_R184985_87","nbhd_name":"Census Tract 76.42"},"geometry":{"type":"MultiPolygon","coordinates":[[[[-95.979,36.0608,0.0],[-95.9758,36.0607,0.0],[-95.9755,36.0607,0.0],[-95.9749,36.0607,0.0],[-95.969,36.0607,0.0],[-95.9671,36.0608,0.0],[-95.9681,36.0572,0.0],[-95.9666,36.0536,0.0],[-95.9666,36.0514,0.0],[-95.9688,36.0486,0.0],[-95.9691,36.048,0.0],[-95.9698,36.0463,0.0],[-95.9718,36.0463,0.0],[-95.9722,36.0463,0.0],[-95.9745,36.0463,0.0],[-95.9758,36.048,0.0],[-95.9763,36.0501,0.0],[-95.9766,36.0514,0.0],[-95.9787,36.06,0.0],[-95.979,36.0608,0.0]]]]}},{"type":"Feature","properties":{"uesi_id":"USA_R184985","nbhd_code":"USA_R184985_88","nbhd_name":"Census Tract 79"},"geometry":{"type":"MultiPolygon","coordinates":[[[[-96.0014,36.2308,0.0],[-96.0014,36.235,0.0],[-95.9959,36.2349,0.0],[-95.9937,36.2349,0.0],[-95.9935,36.2349,0.0],[-95.9858,36.2349,0.0],[-95.9845,36.2349,0.0],[-95.9803,36.2349,0.0],[-95.9755,36.235,0.0],[-95.9755,36.2289,0.0],[-95.9755,36.2282,0.0],[-95.9755,36.2205,0.0],[-95.9845,36.2205,0.0],[-95.989,36.2205,0.0],[-95.991,36.2205,0.0],[-95.9957,36.2205,0.0],[-96.0014,36.2206,0.0],[-96.0014,36.2238,0.0],[-96.0015,36.227,0.0],[-96.0014,36.2308,0.0]]]]}},{"type":"Feature","properties":{"uesi_id":"USA_R184985","nbhd_code":"USA_R184985_89","nbhd_name":"Census Tract 82"},"geometry":{"type":"MultiPolygon","coordinates":[[[[-95.8867,36.1771,0.0],[-95.8687,36.1771,0.0],[-95.8687,36.1616,0.0],[-95.8682,36.161,0.0],[-95.8698,36.1607,0.0],[-95.8778,36.1607,0.0],[-95.8867,36.1607,0.0],[-95.8867,36.1618,0.0],[-95.8867,36.1734,0.0],[-95.8868,36.175,0.0],[-95.8867,36.1771,0.0]]]]}},{"type":"Feature","properties":{"uesi_id":"USA_R184985","nbhd_code":"USA_R184985_90","nbhd_name":"Census Tract 84"},"geometry":{"type":"MultiPolygon","coordinates":[[[[-95.9046,36.1334,0.0],[-95.8956,36.1334,0.0],[-95.894,36.1335,0.0],[-95.8867,36.1335,0.0],[-95.8867,36.1289,0.0],[-95.8866,36.1207,0.0],[-95.8866,36.1189,0.0],[-95.8892,36.1189,0.0],[-95.8911,36.1189,0.0],[-95.9045,36.1189,0.0],[-95.9046,36.1235,0.0],[-95.9046,36.1238,0.0],[-95.9045,36.1257,0.0],[-95.9046,36.1266,0.0],[-95.9046,36.1299,0.0],[-95.9046,36.1334,0.0]]]]}},{"type":"Feature","properties":{"uesi_id":"USA_R184985","nbhd_code":"USA_R184985_91","nbhd_name":"Census Tract 56"},"geometry":{"type":"MultiPolygon","coordinates":[[[[-96.0015,36.3326,0.0],[-96.0014,36.3345,0.0],[-95.9992,36.3351,0.0],[-95.9992,36.3335,0.0],[-95.9978,36.3324,0.0],[-95.9959,36.3319,0.0],[-95.9956,36.3298,0.0],[-95.9938,36.3301,0.0],[-95.9939,36.329,0.0],[-95.9914,36.3279,0.0],[-95.9914,36.3366,0.0],[-95.9847,36.3366,0.0],[-95.9791,36.3366,0.0],[-95.9562,36.3367,0.0],[-95.9471,36.3366,0.0],[-95.9381,36.3367,0.0],[-95.9373,36.3367,0.0],[-95.9354,36.3367,0.0],[-95.9325,36.3366,0.0],[-95.9246,36.3366,0.0],[-95.9243,36.3366,0.0],[-95.9243,36.3365,0.0],[-95.9243,36.3364,0.0],[-95.9241,36.2862,0.0],[-95.924,36.2786,0.0],[-95.9277,36.2785,0.0],[-95.9371,36.2785,0.0],[-95.9374,36.2785,0.0],[-95.9378,36.2785,0.0],[-95.9537,36.2785,0.0],[-95.9737,36.2786,0.0],[-95.9912,36.2786,0.0],[-95.9917,36.2778,0.0],[-95.9922,36.2768,0.0],[-95.9934,36.2781,0.0],[-95.9957,36.278,0.0],[-95.998,36.2784,0.0],[-96.0014,36.2794,0.0],[-96.0015,36.2855,0.0],[-96.0015,36.2923,0.0],[-96.0015,36.2924,0.0],[-96.0015,36.3034,0.0],[-96.0015,36.3074,0.0],[-96.0015,36.3179,0.0],[-96.0015,36.3181,0.0],[-96.0014,36.3222,0.0],[-96.0008,36.3222,0.0],[-96.0016,36.3235,0.0],[-96.0015,36.3326,0.0]]]]}},{"type":"Feature","properties":{"uesi_id":"USA_R184985","nbhd_code":"USA_R184985_92","nbhd_name":"Census Tract 58.01"},"geometry":{"type":"MultiPolygon","coordinates":[[[[-95.8715,36.257,0.0],[-95.8683,36.2603,0.0],[-95.8696,36.2634,0.0],[-95.8692,36.2638,0.0],[-95.8691,36.2641,0.0],[-95.8691,36.2647,0.0],[-95.8692,36.2651,0.0],[-95.8692,36.2652,0.0],[-95.8689,36.2655,0.0],[-95.868,36.2657,0.0],[-95.8675,36.2663,0.0],[-95.8672,36.2664,0.0],[-95.8669,36.2666,0.0],[-95.8668,36.267,0.0],[-95.8656,36.269,0.0],[-95.867,36.2712,0.0],[-95.8673,36.2722,0.0],[-95.8656,36.2744,0.0],[-95.8654,36.2745,0.0],[-95.8638,36.2761,0.0],[-95.8621,36.2785,0.0],[-95.8603,36.281,0.0],[-95.8589,36.2819,0.0],[-95.8576,36.2843,0.0],[-95.8545,36.2882,0.0],[-95.8505,36.2903,0.0],[-95.8481,36.2913,0.0],[-95.8483,36.2811,0.0],[-95.8502,36.2793,0.0],[-95.8505,36.2786,0.0],[-95.8481,36.2786,0.0],[-95.8482,36.2713,0.0],[-95.8482,36.2641,0.0],[-95.8482,36.2528,0.0],[-95.8484,36.2529,0.0],[-95.8512,36.2529,0.0],[-95.8529,36.253,0.0],[-95.8534,36.2532,0.0],[-95.8539,36.2536,0.0],[-95.8542,36.2539,0.0],[-95.8545,36.2548,0.0],[-95.8545,36.2561,0.0],[-95.855,36.2566,0.0],[-95.8563,36.2568,0.0],[-95.8571,36.2566,0.0],[-95.8579,36.2558,0.0],[-95.8597,36.2497,0.0],[-95.8598,36.2497,0.0],[-95.8599,36.25,0.0],[-95.86,36.2501,0.0],[-95.8607,36.2503,0.0],[-95.8611,36.2503,0.0],[-95.8617,36.25,0.0],[-95.8621,36.2499,0.0],[-95.8622,36.2497,0.0],[-95.8623,36.2495,0.0],[-95.8632,36.249,0.0],[-95.8635,36.2488,0.0],[-95.8647,36.2481,0.0],[-95.8674,36.2482,0.0],[-95.8671,36.2486,0.0],[-95.8669,36.2488,0.0],[-95.8668,36.249,0.0],[-95.8664,36.2498,0.0],[-95.8659,36.2516,0.0],[-95.8664,36.2535,0.0],[-95.8696,36.2542,0.0],[-95.8687,36.2556,0.0],[-95.8699,36.2559,0.0],[-95.871,36.2546,0.0],[-95.8715,36.257,0.0]]]]}},{"type":"Feature","properties":{"uesi_id":"USA_R184985","nbhd_code":"USA_R184985_93","nbhd_name":"Census Tract 59"},"geometry":{"type":"MultiPolygon","coordinates":[[[[-95.8688,36.2453,0.0],[-95.8674,36.2482,0.0],[-95.8647,36.2481,0.0],[-95.8635,36.2488,0.0],[-95.8632,36.249,0.0],[-95.8623,36.2495,0.0],[-95.8622,36.2497,0.0],[-95.8621,36.2499,0.0],[-95.8617,36.25,0.0],[-95.8611,36.2503,0.0],[-95.8607,36.2503,0.0],[-95.86,36.2501,0.0],[-95.8599,36.25,0.0],[-95.8598,36.2497,0.0],[-95.8597,36.2497,0.0],[-95.8579,36.2558,0.0],[-95.8571,36.2566,0.0],[-95.8563,36.2568,0.0],[-95.855,36.2566,0.0],[-95.8545,36.2561,0.0],[-95.8545,36.2548,0.0],[-95.8542,36.2539,0.0],[-95.8539,36.2536,0.0],[-95.8534,36.2532,0.0],[-95.8529,36.253,0.0],[-95.8512,36.2529,0.0],[-95.8484,36.2529,0.0],[-95.8482,36.2528,0.0],[-95.8482,36.2497,0.0],[-95.8482,36.2495,0.0],[-95.8476,36.2495,0.0],[-95.8302,36.2495,0.0],[-95.8153,36.2495,0.0],[-95.8153,36.2485,0.0],[-95.8153,36.2483,0.0],[-95.8153,36.2479,0.0],[-95.8153,36.2475,0.0],[-95.8152,36.2351,0.0],[-95.815,36.2294,0.0],[-95.8153,36.2266,0.0],[-95.8153,36.226,0.0],[-95.8153,36.2245,0.0],[-95.815,36.2223,0.0],[-95.8153,36.2061,0.0],[-95.8153,36.1877,0.0],[-95.8154,36.1626,0.0],[-95.7944,36.1626,0.0],[-95.7796,36.1626,0.0],[-95.7621,36.1627,0.0],[-95.7616,36.1628,0.0],[-95.7616,36.162,0.0],[-95.7617,36.1606,0.0],[-95.7796,36.1606,0.0],[-95.8154,36.1606,0.0],[-95.8334,36.1606,0.0],[-95.8512,36.1607,0.0],[-95.861,36.1607,0.0],[-95.8675,36.1607,0.0],[-95.8682,36.161,0.0],[-95.8687,36.1616,0.0],[-95.8687,36.1771,0.0],[-95.8687,36.184,0.0],[-95.8688,36.2129,0.0],[-95.8688,36.2341,0.0],[-95.8688,36.235,0.0],[-95.8688,36.2453,0.0]]]]}},{"type":"Feature","properties":{"uesi_id":"USA_R184985","nbhd_code":"USA_R184985_94","nbhd_name":"Census Tract 66"},"geometry":{"type":"MultiPolygon","coordinates":[[[[-96.0909,36.1285,0.0],[-96.088,36.1289,0.0],[-96.0877,36.129,0.0],[-96.0867,36.1294,0.0],[-96.0834,36.1309,0.0],[-96.0781,36.1327,0.0],[-96.0692,36.1364,0.0],[-96.0572,36.1383,0.0],[-96.0562,36.1384,0.0],[-96.0527,36.139,0.0],[-96.0519,36.139,0.0],[-96.0508,36.1389,0.0],[-96.0474,36.1403,0.0],[-96.0462,36.1403,0.0],[-96.0411,36.1408,0.0],[-96.0293,36.1443,0.0],[-96.0262,36.1452,0.0],[-96.0205,36.1459,0.0],[-96.0119,36.1459,0.0],[-96.0108,36.1457,0.0],[-96.0068,36.1439,0.0],[-96.0057,36.143,0.0],[-96.0059,36.1427,0.0],[-96.0073,36.1407,0.0],[-96.0091,36.1302,0.0],[-96.0087,36.1274,0.0],[-96.009,36.1188,0.0],[-96.0112,36.1146,0.0],[-96.013,36.1122,0.0],[-96.0184,36.1081,0.0],[-96.0205,36.1066,0.0],[-96.0205,36.1076,0.0],[-96.0217,36.1076,0.0],[-96.0217,36.1087,0.0],[-96.0281,36.1087,0.0],[-96.0282,36.1076,0.0],[-96.0307,36.1077,0.0],[-96.0307,36.1045,0.0],[-96.034,36.1045,0.0],[-96.0354,36.1045,0.0],[-96.0371,36.1045,0.0],[-96.0383,36.1045,0.0],[-96.0474,36.1045,0.0],[-96.0474,36.0973,0.0],[-96.0474,36.0907,0.0],[-96.0474,36.0906,0.0],[-96.0474,36.0899,0.0],[-96.0474,36.0885,0.0],[-96.0474,36.0882,0.0],[-96.0475,36.0877,0.0],[-96.0475,36.0855,0.0],[-96.0475,36.0827,0.0],[-96.0453,36.083,0.0],[-96.0499,36.078,0.0],[-96.0538,36.0755,0.0],[-96.0544,36.0755,0.0],[-96.0565,36.0755,0.0],[-96.0654,36.0755,0.0],[-96.0654,36.0828,0.0],[-96.0654,36.0901,0.0],[-96.0654,36.0938,0.0],[-96.0653,36.0973,0.0],[-96.0653,36.102,0.0],[-96.0652,36.1021,0.0],[-96.063,36.1035,0.0],[-96.0628,36.1041,0.0],[-96.063,36.1046,0.0],[-96.0636,36.1046,0.0],[-96.0639,36.1051,0.0],[-96.0652,36.1058,0.0],[-96.0652,36.1196,0.0],[-96.0652,36.1228,0.0],[-96.0697,36.1228,0.0],[-96.0697,36.1245,0.0],[-96.0707,36.1246,0.0],[-96.0741,36.1246,0.0],[-96.0764,36.1246,0.0],[-96.0764,36.1209,0.0],[-96.0786,36.1209,0.0],[-96.0786,36.1227,0.0],[-96.0833,36.1228,0.0],[-96.0833,36.1264,0.0],[-96.0876,36.1264,0.0],[-96.0877,36.1276,0.0],[-96.088,36.1274,0.0],[-96.088,36.1264,0.0],[-96.0904,36.126,0.0],[-96.0919,36.1283,0.0],[-96.0909,36.1285,0.0]]]]}},{"type":"Feature","properties":{"uesi_id":"USA_R184985","nbhd_code":"USA_R184985_95","nbhd_name":"Census Tract 72"},"geometry":{"type":"MultiPolygon","coordinates":[[[[-95.9046,36.1607,0.0],[-95.8956,36.1607,0.0],[-95.8946,36.1607,0.0],[-95.8867,36.1607,0.0],[-95.8867,36.1552,0.0],[-95.8867,36.148,0.0],[-95.8946,36.148,0.0],[-95.8978,36.148,0.0],[-95.9045,36.1479,0.0],[-95.9046,36.1534,0.0],[-95.9046,36.1607,0.0]]]]}},{"type":"Feature","properties":{"uesi_id":"USA_R184985","nbhd_code":"USA_R184985_96","nbhd_name":"Census Tract 19"},"geometry":{"type":"MultiPolygon","coordinates":[[[[-95.9403,36.1527,0.0],[-95.9403,36.1547,0.0],[-95.9403,36.1594,0.0],[-95.9403,36.1608,0.0],[-95.9335,36.1608,0.0],[-95.9314,36.1607,0.0],[-95.9314,36.1527,0.0],[-95.9315,36.1478,0.0],[-95.9337,36.1478,0.0],[-95.9392,36.1479,0.0],[-95.9404,36.1478,0.0],[-95.9403,36.1527,0.0]]]]}},{"type":"Feature","properties":{"uesi_id":"USA_R184985","nbhd_code":"USA_R184985_97","nbhd_name":"Census Tract 45"},"geometry":{"type":"MultiPolygon","coordinates":[[[[-95.9903,36.1328,0.0],[-95.989,36.1334,0.0],[-95.9834,36.1334,0.0],[-95.9805,36.1333,0.0],[-95.9756,36.1334,0.0],[-95.9757,36.1237,0.0],[-95.9757,36.1189,0.0],[-95.9839,36.1189,0.0],[-95.987,36.119,0.0],[-95.9874,36.1212,0.0],[-95.9922,36.1318,0.0],[-95.9903,36.1328,0.0]]]]}},{"type":"Feature","properties":{"uesi_id":"USA_R184985","nbhd_code":"USA_R184985_98","nbhd_name":"Census Tract 73.09"},"geometry":{"type":"MultiPolygon","coordinates":[[[[-95.8513,36.1567,0.0],[-95.8512,36.1607,0.0],[-95.8334,36.1606,0.0],[-95.8333,36.148,0.0],[-95.8378,36.148,0.0],[-95.8477,36.148,0.0],[-95.8481,36.148,0.0],[-95.8487,36.148,0.0],[-95.8512,36.148,0.0],[-95.8511,36.1542,0.0],[-95.8512,36.1549,0.0],[-95.8513,36.1567,0.0]]]]}},{"type":"Feature","properties":{"uesi_id":"USA_R184985","nbhd_code":"USA_R184985_99","nbhd_name":"Census Tract 76.14"},"geometry":{"type":"MultiPolygon","coordinates":[[[[-95.9407,36.0539,0.0],[-95.94,36.055,0.0],[-95.9399,36.0608,0.0],[-95.9349,36.0609,0.0],[-95.9316,36.0608,0.0],[-95.9221,36.0608,0.0],[-95.9221,36.0536,0.0],[-95.9221,36.0526,0.0],[-95.922,36.0514,0.0],[-95.9221,36.0464,0.0],[-95.927,36.0464,0.0],[-95.938,36.0464,0.0],[-95.94,36.0464,0.0],[-95.9412,36.0528,0.0],[-95.9407,36.0539,0.0]]]]}},{"type":"Feature","properties":{"uesi_id":"USA_R184985","nbhd_code":"USA_R184985_100","nbhd_name":"Census Tract 76.17"},"geometry":{"type":"MultiPolygon","coordinates":[[[[-95.8864,36.0678,0.0],[-95.8863,36.0733,0.0],[-95.8864,36.0753,0.0],[-95.8776,36.0754,0.0],[-95.8686,36.0754,0.0],[-95.8686,36.0697,0.0],[-95.8685,36.0609,0.0],[-95.8736,36.0609,0.0],[-95.8775,36.0609,0.0],[-95.8834,36.061,0.0],[-95.8864,36.0609,0.0],[-95.8864,36.0678,0.0]]]]}},{"type":"Feature","properties":{"uesi_id":"USA_R184985","nbhd_code":"USA_R184985_101","nbhd_name":"Census Tract 76.25"},"geometry":{"type":"MultiPolygon","coordinates":[[[[-95.9722,36.0463,0.0],[-95.9718,36.0463,0.0],[-95.9698,36.0463,0.0],[-95.9672,36.0463,0.0],[-95.9654,36.0466,0.0],[-95.9641,36.0464,0.0],[-95.9578,36.0464,0.0],[-95.9489,36.0464,0.0],[-95.947,36.0464,0.0],[-95.9461,36.0465,0.0],[-95.9443,36.0464,0.0],[-95.94,36.0464,0.0],[-95.9399,36.0436,0.0],[-95.94,36.0337,0.0],[-95.94,36.0319,0.0],[-95.9489,36.0318,0.0],[-95.9521,36.0319,0.0],[-95.9546,36.0318,0.0],[-95.9551,36.0308,0.0],[-95.9555,36.0314,0.0],[-95.9558,36.0318,0.0],[-95.9577,36.0318,0.0],[-95.9588,36.0318,0.0],[-95.9594,36.032,0.0],[-95.9604,36.0322,0.0],[-95.9617,36.0327,0.0],[-95.9621,36.0331,0.0],[-95.9624,36.0337,0.0],[-95.9627,36.035,0.0],[-95.9628,36.036,0.0],[-95.9636,36.0385,0.0],[-95.9689,36.0436,0.0],[-95.9711,36.0449,0.0],[-95.9745,36.0463,0.0],[-95.9722,36.0463,0.0]]]]}},{"type":"Feature","properties":{"uesi_id":"USA_R184985","nbhd_code":"USA_R184985_102","nbhd_name":"Census Tract 76.38"},"geometry":{"type":"MultiPolygon","coordinates":[[[[-95.9499,36.0172,0.0],[-95.9499,36.0173,0.0],[-95.9496,36.0172,0.0],[-95.9355,36.0174,0.0],[-95.9339,36.0174,0.0],[-95.9222,36.0173,0.0],[-95.9222,36.011,0.0],[-95.9223,36.0028,0.0],[-95.9222,35.9956,0.0],[-95.9223,35.9884,0.0],[-95.9047,35.9883,0.0],[-95.9044,35.9883,0.0],[-95.9045,35.9737,0.0],[-95.9046,35.9695,0.0],[-95.9044,35.9684,0.0],[-95.9045,35.9654,0.0],[-95.9057,35.9674,0.0],[-95.9098,35.9688,0.0],[-95.9112,35.9715,0.0],[-95.9136,35.9725,0.0],[-95.9154,35.9728,0.0],[-95.9159,35.9729,0.0],[-95.9164,35.9735,0.0],[-95.9174,35.9739,0.0],[-95.9192,35.9744,0.0],[-95.922,35.9755,0.0],[-95.9252,35.9779,0.0],[-95.9266,35.9804,0.0],[-95.9269,35.9808,0.0],[-95.9277,35.9836,0.0],[-95.9304,35.9866,0.0],[-95.9311,35.9883,0.0],[-95.9312,35.9886,0.0],[-95.9322,35.9895,0.0],[-95.9382,35.9916,0.0],[-95.9398,35.9924,0.0],[-95.9459,35.9973,0.0],[-95.9485,35.9999,0.0],[-95.9488,36.0008,0.0],[-95.9478,36.0041,0.0],[-95.9498,36.0086,0.0],[-95.9496,36.0106,0.0],[-95.9505,36.0172,0.0],[-95.9499,36.0172,0.0]]]]}},{"type":"Feature","properties":{"uesi_id":"USA_R184985","nbhd_code":"USA_R184985_103","nbhd_name":"Census Tract 85.01"},"geometry":{"type":"MultiPolygon","coordinates":[[[[-95.8867,36.1335,0.0],[-95.8777,36.1334,0.0],[-95.8703,36.1335,0.0],[-95.8703,36.1323,0.0],[-95.8702,36.132,0.0],[-95.8692,36.1257,0.0],[-95.8697,36.1251,0.0],[-95.8699,36.119,0.0],[-95.8782,36.1189,0.0],[-95.8866,36.1189,0.0],[-95.8866,36.1207,0.0],[-95.8867,36.1289,0.0],[-95.8867,36.1335,0.0]]]]}},{"type":"Feature","properties":{"uesi_id":"USA_R184985","nbhd_code":"USA_R184985_104","nbhd_name":"Census Tract 86"},"geometry":{"type":"MultiPolygon","coordinates":[[[[-95.9223,36.1044,0.0],[-95.9132,36.1044,0.0],[-95.9104,36.1044,0.0],[-95.9094,36.1044,0.0],[-95.9086,36.1044,0.0],[-95.9045,36.1044,0.0],[-95.9045,36.0967,0.0],[-95.9045,36.0962,0.0],[-95.9044,36.0899,0.0],[-95.9134,36.0899,0.0],[-95.9156,36.0898,0.0],[-95.9162,36.0898,0.0],[-95.92,36.0899,0.0],[-95.9222,36.0898,0.0],[-95.9222,36.0948,0.0],[-95.9223,36.096,0.0],[-95.9223,36.1044,0.0]]]]}},{"type":"Feature","properties":{"uesi_id":"USA_R184985","nbhd_code":"USA_R184985_105","nbhd_name":"Census Tract 89"},"geometry":{"type":"MultiPolygon","coordinates":[[[[-95.8688,36.1552,0.0],[-95.8687,36.16,0.0],[-95.8682,36.1607,0.0],[-95.8682,36.161,0.0],[-95.8675,36.1607,0.0],[-95.861,36.1607,0.0],[-95.8512,36.1607,0.0],[-95.8513,36.1567,0.0],[-95.8512,36.1549,0.0],[-95.8511,36.1542,0.0],[-95.8512,36.148,0.0],[-95.8603,36.148,0.0],[-95.8605,36.148,0.0],[-95.8646,36.148,0.0],[-95.8674,36.148,0.0],[-95.8688,36.148,0.0],[-95.8688,36.1552,0.0]]]]}},{"type":"Feature","properties":{"uesi_id":"USA_R184985","nbhd_code":"USA_R184985_106","nbhd_name":"Census Tract 90.06"},"geometry":{"type":"MultiPolygon","coordinates":[[[[-95.8511,36.119,0.0],[-95.8417,36.119,0.0],[-95.8332,36.1189,0.0],[-95.8333,36.1144,0.0],[-95.8332,36.1112,0.0],[-95.8332,36.1095,0.0],[-95.8331,36.1045,0.0],[-95.8407,36.1045,0.0],[-95.8416,36.1045,0.0],[-95.8511,36.1045,0.0],[-95.8511,36.1112,0.0],[-95.8511,36.119,0.0]]]]}},{"type":"Feature","properties":{"uesi_id":"USA_R184985","nbhd_code":"USA_R184985_107","nbhd_name":"Census Tract 90.08"},"geometry":{"type":"MultiPolygon","coordinates":[[[[-95.8687,36.1045,0.0],[-95.8673,36.1045,0.0],[-95.8598,36.1045,0.0],[-95.8595,36.1045,0.0],[-95.8578,36.1045,0.0],[-95.8558,36.1045,0.0],[-95.8511,36.1045,0.0],[-95.8416,36.1045,0.0],[-95.8407,36.1045,0.0],[-95.8331,36.1045,0.0],[-95.8332,36.0899,0.0],[-95.8511,36.09,0.0],[-95.8686,36.09,0.0],[-95.8687,36.1045,0.0]]]]}},{"type":"Feature","properties":{"uesi_id":"USA_R184985","nbhd_code":"USA_R184985_108","nbhd_name":"Census Tract 91.01"},"geometry":{"type":"MultiPolygon","coordinates":[[[[-96.0014,36.2455,0.0],[-96.0014,36.2493,0.0],[-96.0013,36.25,0.0],[-96.0014,36.2794,0.0],[-95.998,36.2784,0.0],[-95.9957,36.278,0.0],[-95.9934,36.2781,0.0],[-95.9922,36.2768,0.0],[-95.9917,36.2778,0.0],[-95.9912,36.2786,0.0],[-95.9737,36.2786,0.0],[-95.9737,36.2734,0.0],[-95.9737,36.264,0.0],[-95.9737,36.2514,0.0],[-95.9739,36.2509,0.0],[-95.9747,36.2497,0.0],[-95.9748,36.2496,0.0],[-95.9754,36.2495,0.0],[-95.9755,36.2494,0.0],[-95.9755,36.2405,0.0],[-95.9755,36.235,0.0],[-95.9803,36.2349,0.0],[-95.9845,36.2349,0.0],[-95.9858,36.2349,0.0],[-95.9935,36.2349,0.0],[-95.9937,36.2349,0.0],[-95.9959,36.2349,0.0],[-96.0014,36.235,0.0],[-96.0014,36.2421,0.0],[-96.0014,36.2444,0.0],[-96.0014,36.2452,0.0],[-96.0014,36.2455,0.0]]]]}},{"type":"Feature","properties":{"uesi_id":"USA_R184985","nbhd_code":"USA_R184985_109","nbhd_name":"Census Tract 7"},"geometry":{"type":"MultiPolygon","coordinates":[[[[-95.9935,36.1842,0.0],[-95.9935,36.1915,0.0],[-95.9845,36.1915,0.0],[-95.9844,36.1874,0.0],[-95.9846,36.186,0.0],[-95.9836,36.1843,0.0],[-95.9836,36.1824,0.0],[-95.9863,36.181,0.0],[-95.9862,36.1769,0.0],[-95.9874,36.177,0.0],[-95.9935,36.1769,0.0],[-95.9936,36.1824,0.0],[-95.9935,36.1842,0.0]]]]}},{"type":"Feature","properties":{"uesi_id":"USA_R184985","nbhd_code":"USA_R184985_110","nbhd_name":"Census Tract 69.07"},"geometry":{"type":"MultiPolygon","coordinates":[[[[-95.8865,36.0899,0.0],[-95.8774,36.09,0.0],[-95.8686,36.09,0.0],[-95.8686,36.0826,0.0],[-95.8686,36.0754,0.0],[-95.8776,36.0754,0.0],[-95.8864,36.0753,0.0],[-95.8865,36.0826,0.0],[-95.8865,36.0899,0.0]]]]}},{"type":"Feature","properties":{"uesi_id":"USA_R184985","nbhd_code":"USA_R184985_111","nbhd_name":"Census Tract 76.13"},"geometry":{"type":"MultiPolygon","coordinates":[[[[-95.9401,36.0753,0.0],[-95.9345,36.0754,0.0],[-95.9339,36.0753,0.0],[-95.9281,36.0753,0.0],[-95.925,36.0754,0.0],[-95.9221,36.0753,0.0],[-95.9221,36.0682,0.0],[-95.9221,36.0608,0.0],[-95.9316,36.0608,0.0],[-95.9349,36.0609,0.0],[-95.9399,36.0608,0.0],[-95.94,36.0682,0.0],[-95.9401,36.0753,0.0]]]]}},{"type":"Feature","properties":{"uesi_id":"USA_R184985","nbhd_code":"USA_R184985_112","nbhd_name":"Census Tract 76.31"},"geometry":{"type":"MultiPolygon","coordinates":[[[[-95.94,36.0337,0.0],[-95.9399,36.0436,0.0],[-95.94,36.0464,0.0],[-95.938,36.0464,0.0],[-95.927,36.0464,0.0],[-95.9221,36.0464,0.0],[-95.9227,36.0438,0.0],[-95.9216,36.0418,0.0],[-95.9226,36.0383,0.0],[-95.922,36.0372,0.0],[-95.9222,36.0319,0.0],[-95.94,36.0319,0.0],[-95.94,36.0337,0.0]]]]}},{"type":"Feature","properties":{"uesi_id":"USA_R184985","nbhd_code":"USA_R184985_113","nbhd_name":"Census Tract 85.02"},"geometry":{"type":"MultiPolygon","coordinates":[[[[-95.9046,36.1155,0.0],[-95.9045,36.1189,0.0],[-95.8911,36.1189,0.0],[-95.8892,36.1189,0.0],[-95.8866,36.1189,0.0],[-95.8782,36.1189,0.0],[-95.8699,36.119,0.0],[-95.8687,36.119,0.0],[-95.8687,36.1175,0.0],[-95.8687,36.1162,0.0],[-95.8687,36.1111,0.0],[-95.8687,36.1045,0.0],[-95.8731,36.1045,0.0],[-95.8771,36.1045,0.0],[-95.8777,36.1045,0.0],[-95.8798,36.1044,0.0],[-95.8866,36.1044,0.0],[-95.9045,36.1044,0.0],[-95.9045,36.1078,0.0],[-95.9045,36.112,0.0],[-95.9046,36.1155,0.0]]]]}},{"type":"Feature","properties":{"uesi_id":"USA_R184985","nbhd_code":"USA_R184985_114","nbhd_name":"Census Tract 90.03"},"geometry":{"type":"MultiPolygon","coordinates":[[[[-95.8686,36.09,0.0],[-95.8511,36.09,0.0],[-95.8332,36.0899,0.0],[-95.8192,36.0899,0.0],[-95.8153,36.0899,0.0],[-95.7974,36.09,0.0],[-95.7954,36.09,0.0],[-95.7797,36.0899,0.0],[-95.7617,36.09,0.0],[-95.7617,36.0755,0.0],[-95.7795,36.0754,0.0],[-95.7804,36.0755,0.0],[-95.7831,36.0755,0.0],[-95.7917,36.0726,0.0],[-95.7927,36.0726,0.0],[-95.7937,36.0731,0.0],[-95.7951,36.0749,0.0],[-95.7963,36.0754,0.0],[-95.7974,36.0754,0.0],[-95.8119,36.0755,0.0],[-95.8153,36.0754,0.0],[-95.8173,36.0754,0.0],[-95.8463,36.0754,0.0],[-95.851,36.0754,0.0],[-95.8512,36.0754,0.0],[-95.8539,36.0755,0.0],[-95.8555,36.0754,0.0],[-95.8567,36.0754,0.0],[-95.8593,36.0754,0.0],[-95.8686,36.0754,0.0],[-95.8686,36.0826,0.0],[-95.8686,36.09,0.0]]]]}},{"type":"Feature","properties":{"uesi_id":"USA_R184985","nbhd_code":"USA_R184985_115","nbhd_name":"Census Tract 90.07"},"geometry":{"type":"MultiPolygon","coordinates":[[[[-95.8332,36.1189,0.0],[-95.8264,36.119,0.0],[-95.8248,36.1189,0.0],[-95.8238,36.1189,0.0],[-95.8211,36.119,0.0],[-95.8154,36.1189,0.0],[-95.8126,36.119,0.0],[-95.8084,36.1188,0.0],[-95.7883,36.1189,0.0],[-95.7863,36.119,0.0],[-95.7796,36.1189,0.0],[-95.7619,36.1189,0.0],[-95.7616,36.119,0.0],[-95.7617,36.1044,0.0],[-95.7618,36.1044,0.0],[-95.7974,36.1044,0.0],[-95.8063,36.1044,0.0],[-95.8153,36.1044,0.0],[-95.8258,36.1045,0.0],[-95.8331,36.1045,0.0],[-95.8332,36.1095,0.0],[-95.8332,36.1112,0.0],[-95.8333,36.1144,0.0],[-95.8332,36.1189,0.0]]]]}},{"type":"Feature","properties":{"uesi_id":"USA_R184985","nbhd_code":"USA_R184985_116","nbhd_name":"Census Tract 111"},"geometry":{"type":"MultiPolygon","coordinates":[[[[-95.9446,36.2154,0.0],[-95.9445,36.2169,0.0],[-95.9453,36.2251,0.0],[-95.9452,36.2352,0.0],[-95.9285,36.2351,0.0],[-95.9264,36.2347,0.0],[-95.9228,36.2314,0.0],[-95.92,36.23,0.0],[-95.9191,36.2289,0.0],[-95.9216,36.2258,0.0],[-95.9207,36.2241,0.0],[-95.918,36.2233,0.0],[-95.9161,36.2221,0.0],[-95.9108,36.2233,0.0],[-95.9083,36.2269,0.0],[-95.9044,36.2261,0.0],[-95.905,36.23,0.0],[-95.9028,36.2295,0.0],[-95.9009,36.2281,0.0],[-95.8978,36.2285,0.0],[-95.895,36.2327,0.0],[-95.8932,36.2328,0.0],[-95.8902,36.2304,0.0],[-95.8872,36.2317,0.0],[-95.8868,36.2328,0.0],[-95.8866,36.2332,0.0],[-95.8864,36.2347,0.0],[-95.8866,36.2351,0.0],[-95.886,36.2351,0.0],[-95.8837,36.2339,0.0],[-95.8803,36.234,0.0],[-95.8776,36.2334,0.0],[-95.8698,36.2333,0.0],[-95.8691,36.2336,0.0],[-95.8688,36.2341,0.0],[-95.8688,36.2129,0.0],[-95.8687,36.184,0.0],[-95.8687,36.1771,0.0],[-95.8867,36.1771,0.0],[-95.8979,36.1771,0.0],[-95.9046,36.1771,0.0],[-95.9046,36.2061,0.0],[-95.9183,36.2061,0.0],[-95.9191,36.2065,0.0],[-95.9225,36.2061,0.0],[-95.947,36.2061,0.0],[-95.9446,36.2154,0.0]]]]}},{"type":"Feature","properties":{"uesi_id":"USA_R184985","nbhd_code":"USA_R184985_117","nbhd_name":"Census Tract 9400.05"},"geometry":{"type":"MultiPolygon","coordinates":[[[[-96.124,36.2503,0.0],[-96.1228,36.2519,0.0],[-96.1222,36.2545,0.0],[-96.1213,36.2566,0.0],[-96.1213,36.2652,0.0],[-96.1183,36.2661,0.0],[-96.1129,36.2669,0.0],[-96.1094,36.267,0.0],[-96.106,36.2684,0.0],[-96.1033,36.2686,0.0],[-96.1002,36.2672,0.0],[-96.0868,36.2671,0.0],[-96.0779,36.2682,0.0],[-96.0764,36.2678,0.0],[-96.0699,36.2676,0.0],[-96.0679,36.2677,0.0],[-96.0675,36.2677,0.0],[-96.0675,36.2679,0.0],[-96.0674,36.2743,0.0],[-96.0671,36.2783,0.0],[-96.0675,36.2783,0.0],[-96.0674,36.3034,0.0],[-96.0324,36.3034,0.0],[-96.0312,36.3033,0.0],[-96.0252,36.3034,0.0],[-96.0071,36.3034,0.0],[-96.0058,36.3034,0.0],[-96.0015,36.3034,0.0],[-96.0015,36.2924,0.0],[-96.0015,36.2923,0.0],[-96.0015,36.2855,0.0],[-96.0014,36.2794,0.0],[-96.0013,36.25,0.0],[-96.0014,36.2493,0.0],[-96.0014,36.2455,0.0],[-96.0014,36.2452,0.0],[-96.0014,36.2444,0.0],[-96.0014,36.2421,0.0],[-96.0014,36.235,0.0],[-96.0014,36.2308,0.0],[-96.0015,36.227,0.0],[-96.0014,36.2238,0.0],[-96.0014,36.2206,0.0],[-96.0015,36.2193,0.0],[-96.0013,36.213,0.0],[-96.0014,36.2059,0.0],[-96.0014,36.2053,0.0],[-96.0011,36.1917,0.0],[-96.004,36.1919,0.0],[-96.0073,36.1911,0.0],[-96.0107,36.1892,0.0],[-96.0144,36.1873,0.0],[-96.0207,36.1874,0.0],[-96.0285,36.1871,0.0],[-96.0288,36.1627,0.0],[-96.0292,36.1612,0.0],[-96.0438,36.1611,0.0],[-96.0473,36.1611,0.0],[-96.0478,36.1611,0.0],[-96.0553,36.1611,0.0],[-96.0562,36.1611,0.0],[-96.063,36.1609,0.0],[-96.0725,36.1611,0.0],[-96.0734,36.1611,0.0],[-96.0736,36.161,0.0],[-96.0745,36.1612,0.0],[-96.0755,36.1611,0.0],[-96.0792,36.161,0.0],[-96.0806,36.161,0.0],[-96.0813,36.161,0.0],[-96.0817,36.161,0.0],[-96.0825,36.161,0.0],[-96.0829,36.161,0.0],[-96.089,36.1611,0.0],[-96.0908,36.1611,0.0],[-96.1055,36.1611,0.0],[-96.1046,36.1621,0.0],[-96.1046,36.1657,0.0],[-96.1043,36.1664,0.0],[-96.1027,36.168,0.0],[-96.1025,36.1685,0.0],[-96.1023,36.1699,0.0],[-96.1023,36.1703,0.0],[-96.1021,36.1724,0.0],[-96.1009,36.1759,0.0],[-96.1012,36.1762,0.0],[-96.1016,36.1765,0.0],[-96.0988,36.179,0.0],[-96.0982,36.18,0.0],[-96.098,36.1824,0.0],[-96.0981,36.1884,0.0],[-96.0999,36.1928,0.0],[-96.1001,36.1948,0.0],[-96.1,36.202,0.0],[-96.1003,36.2086,0.0],[-96.1007,36.2092,0.0],[-96.1042,36.2092,0.0],[-96.1051,36.2098,0.0],[-96.1052,36.2129,0.0],[-96.1072,36.2147,0.0],[-96.1096,36.2151,0.0],[-96.1116,36.2152,0.0],[-96.1138,36.2162,0.0],[-96.1143,36.2194,0.0],[-96.1145,36.2232,0.0],[-96.1139,36.2272,0.0],[-96.1138,36.2311,0.0],[-96.1177,36.2392,0.0],[-96.1205,36.2407,0.0],[-96.1235,36.2447,0.0],[-96.1236,36.2456,0.0],[-96.124,36.2503,0.0]]]]}},{"type":"Feature","properties":{"uesi_id":"USA_R184985","nbhd_code":"USA_R184985_118","nbhd_name":"Census Tract 9400.06"},"geometry":{"type":"MultiPolygon","coordinates":[[[[-96.0288,36.1627,0.0],[-96.0285,36.1871,0.0],[-96.0207,36.1874,0.0],[-96.0144,36.1873,0.0],[-96.0107,36.1892,0.0],[-96.0073,36.1911,0.0],[-96.004,36.1919,0.0],[-96.0011,36.1917,0.0],[-96.0012,36.1806,0.0],[-96.0014,36.1769,0.0],[-96.0012,36.1689,0.0],[-96.0015,36.165,0.0],[-96.0012,36.1624,0.0],[-96.0011,36.1613,0.0],[-96.011,36.1613,0.0],[-96.0149,36.1613,0.0],[-96.0199,36.1613,0.0],[-96.0292,36.1612,0.0],[-96.0288,36.1627,0.0]]]]}},{"type":"Feature","properties":{"uesi_id":"USA_R184985","nbhd_code":"USA_R184985_119","nbhd_name":"Census Tract 34"},"geometry":{"type":"MultiPolygon","coordinates":[[[[-95.9756,36.1428,0.0],[-95.9756,36.1431,0.0],[-95.9756,36.1434,0.0],[-95.9756,36.1442,0.0],[-95.9756,36.1479,0.0],[-95.9671,36.1479,0.0],[-95.96,36.1478,0.0],[-95.9582,36.1478,0.0],[-95.9582,36.1433,0.0],[-95.9582,36.1405,0.0],[-95.9671,36.1406,0.0],[-95.9744,36.1407,0.0],[-95.9757,36.1406,0.0],[-95.9756,36.1428,0.0]]]]}},{"type":"Feature","properties":{"uesi_id":"USA_R184985","nbhd_code":"USA_R184985_120","nbhd_name":"Census Tract 39"},"geometry":{"type":"MultiPolygon","coordinates":[[[[-95.9404,36.1332,0.0],[-95.938,36.1333,0.0],[-95.9314,36.1333,0.0],[-95.9225,36.1333,0.0],[-95.9224,36.1257,0.0],[-95.9224,36.1195,0.0],[-95.9224,36.1188,0.0],[-95.9403,36.1188,0.0],[-95.9403,36.1252,0.0],[-95.9403,36.1262,0.0],[-95.9404,36.1332,0.0]]]]}},{"type":"Feature","properties":{"uesi_id":"USA_R184985","nbhd_code":"USA_R184985_121","nbhd_name":"Census Tract 48"},"geometry":{"type":"MultiPolygon","coordinates":[[[[-96.0389,36.0899,0.0],[-96.0388,36.09,0.0],[-96.0381,36.0908,0.0],[-96.0376,36.0914,0.0],[-96.036,36.0931,0.0],[-96.0346,36.0941,0.0],[-96.0343,36.0943,0.0],[-96.0317,36.0959,0.0],[-96.0295,36.0978,0.0],[-96.0251,36.1015,0.0],[-96.0215,36.1041,0.0],[-96.021,36.1046,0.0],[-96.0195,36.1069,0.0],[-96.0184,36.1081,0.0],[-96.013,36.1122,0.0],[-96.0112,36.1146,0.0],[-96.0122,36.1107,0.0],[-96.0116,36.1081,0.0],[-96.0117,36.0935,0.0],[-96.0117,36.089,0.0],[-96.0296,36.089,0.0],[-96.0318,36.089,0.0],[-96.0343,36.0891,0.0],[-96.0356,36.0891,0.0],[-96.0385,36.0892,0.0],[-96.0396,36.0893,0.0],[-96.0389,36.0899,0.0]]]]}},{"type":"Feature","properties":{"uesi_id":"USA_R184985","nbhd_code":"USA_R184985_122","nbhd_name":"Census Tract 53"},"geometry":{"type":"MultiPolygon","coordinates":[[[[-95.9225,36.1333,0.0],[-95.918,36.1333,0.0],[-95.9046,36.1334,0.0],[-95.9046,36.1299,0.0],[-95.9046,36.1266,0.0],[-95.9045,36.1257,0.0],[-95.9046,36.1238,0.0],[-95.9046,36.1235,0.0],[-95.9045,36.1189,0.0],[-95.9135,36.1189,0.0],[-95.9208,36.1189,0.0],[-95.9212,36.1188,0.0],[-95.9224,36.1188,0.0],[-95.9224,36.1195,0.0],[-95.9224,36.1257,0.0],[-95.9225,36.1333,0.0]]]]}},{"type":"Feature","properties":{"uesi_id":"USA_R184985","nbhd_code":"USA_R184985_123","nbhd_name":"Census Tract 73.06"},"geometry":{"type":"MultiPolygon","coordinates":[[[[-95.8511,36.123,0.0],[-95.8511,36.1335,0.0],[-95.8461,36.1335,0.0],[-95.8417,36.1335,0.0],[-95.8394,36.1334,0.0],[-95.8332,36.1334,0.0],[-95.8332,36.1258,0.0],[-95.8332,36.1189,0.0],[-95.8417,36.119,0.0],[-95.8511,36.119,0.0],[-95.8511,36.123,0.0]]]]}},{"type":"Feature","properties":{"uesi_id":"USA_R184985","nbhd_code":"USA_R184985_124","nbhd_name":"Census Tract 76.12"},"geometry":{"type":"MultiPolygon","coordinates":[[[[-95.9579,36.0608,0.0],[-95.9469,36.0609,0.0],[-95.9399,36.0608,0.0],[-95.94,36.055,0.0],[-95.9407,36.0539,0.0],[-95.9412,36.0528,0.0],[-95.94,36.0464,0.0],[-95.9443,36.0464,0.0],[-95.9461,36.0465,0.0],[-95.947,36.0464,0.0],[-95.9489,36.0464,0.0],[-95.9578,36.0464,0.0],[-95.9579,36.058,0.0],[-95.9579,36.0602,0.0],[-95.9579,36.0608,0.0]]]]}},{"type":"Feature","properties":{"uesi_id":"USA_R184985","nbhd_code":"USA_R184985_125","nbhd_name":"Census Tract 87"},"geometry":{"type":"MultiPolygon","coordinates":[[[[-95.9579,36.0834,0.0],[-95.958,36.0843,0.0],[-95.9579,36.0902,0.0],[-95.958,36.0907,0.0],[-95.9528,36.0904,0.0],[-95.9401,36.0906,0.0],[-95.9401,36.0898,0.0],[-95.9401,36.0847,0.0],[-95.9401,36.0826,0.0],[-95.9401,36.0753,0.0],[-95.9434,36.0772,0.0],[-95.9489,36.0769,0.0],[-95.9507,36.0753,0.0],[-95.953,36.0753,0.0],[-95.958,36.0753,0.0],[-95.9579,36.0834,0.0]]]]}},{"type":"Feature","properties":{"uesi_id":"USA_R184985","nbhd_code":"USA_R184985_126","nbhd_name":"Census Tract 8"},"geometry":{"type":"MultiPolygon","coordinates":[[[[-96.0012,36.1806,0.0],[-96.0011,36.1917,0.0],[-95.9958,36.1917,0.0],[-95.9935,36.1915,0.0],[-95.9935,36.1842,0.0],[-95.9936,36.1824,0.0],[-95.9935,36.1769,0.0],[-96.0007,36.177,0.0],[-96.0014,36.1769,0.0],[-96.0012,36.1806,0.0]]]]}},{"type":"Feature","properties":{"uesi_id":"USA_R184985","nbhd_code":"USA_R184985_127","nbhd_name":"Census Tract 504.07"},"geometry":{"type":"MultiPolygon","coordinates":[[[[-95.8153,36.1877,0.0],[-95.8153,36.2061,0.0],[-95.815,36.2223,0.0],[-95.8153,36.2245,0.0],[-95.8114,36.2251,0.0],[-95.8021,36.2258,0.0],[-95.7685,36.2308,0.0],[-95.7613,36.2322,0.0],[-95.7602,36.2325,0.0],[-95.76,36.2325,0.0],[-95.7598,36.2326,0.0],[-95.759,36.2328,0.0],[-95.7588,36.2078,0.0],[-95.7582,36.195,0.0],[-95.7583,36.1916,0.0],[-95.7592,36.185,0.0],[-95.7608,36.177,0.0],[-95.7616,36.177,0.0],[-95.7614,36.1728,0.0],[-95.7616,36.1633,0.0],[-95.7621,36.1627,0.0],[-95.7796,36.1626,0.0],[-95.7944,36.1626,0.0],[-95.8154,36.1626,0.0],[-95.8153,36.1877,0.0]]]]}},{"type":"Feature","properties":{"uesi_id":"USA_R184985","nbhd_code":"USA_R184985_128","nbhd_name":"Census Tract 76.18"},"geometry":{"type":"MultiPolygon","coordinates":[[[[-95.8864,36.0609,0.0],[-95.8834,36.061,0.0],[-95.8775,36.0609,0.0],[-95.8736,36.0609,0.0],[-95.8685,36.0609,0.0],[-95.8685,36.0464,0.0],[-95.8804,36.0464,0.0],[-95.8862,36.0464,0.0],[-95.8862,36.053,0.0],[-95.8862,36.0533,0.0],[-95.8862,36.0538,0.0],[-95.8864,36.0609,0.0]]]]}},{"type":"Feature","properties":{"uesi_id":"USA_R184985","nbhd_code":"USA_R184985_129","nbhd_name":"Census Tract 76.34"},"geometry":{"type":"MultiPolygon","coordinates":[[[[-95.9577,36.0318,0.0],[-95.9558,36.0318,0.0],[-95.9555,36.0314,0.0],[-95.9551,36.0308,0.0],[-95.9546,36.0318,0.0],[-95.9521,36.0319,0.0],[-95.9489,36.0318,0.0],[-95.94,36.0319,0.0],[-95.9222,36.0319,0.0],[-95.9221,36.0237,0.0],[-95.9222,36.0173,0.0],[-95.9339,36.0174,0.0],[-95.9355,36.0174,0.0],[-95.9496,36.0172,0.0],[-95.9499,36.0173,0.0],[-95.9499,36.0172,0.0],[-95.9505,36.0172,0.0],[-95.9505,36.0188,0.0],[-95.9513,36.0233,0.0],[-95.9519,36.025,0.0],[-95.9523,36.025,0.0],[-95.9531,36.0254,0.0],[-95.9539,36.0264,0.0],[-95.9545,36.0273,0.0],[-95.9546,36.0283,0.0],[-95.9568,36.0304,0.0],[-95.9574,36.0309,0.0],[-95.9588,36.0318,0.0],[-95.9577,36.0318,0.0]]]]}},{"type":"Feature","properties":{"uesi_id":"USA_R184985","nbhd_code":"USA_R184985_130","nbhd_name":"Census Tract 57"},"geometry":{"type":"MultiPolygon","coordinates":[[[[-95.9755,36.235,0.0],[-95.9673,36.2351,0.0],[-95.9588,36.2351,0.0],[-95.9584,36.2351,0.0],[-95.9452,36.2352,0.0],[-95.9453,36.2251,0.0],[-95.9476,36.2233,0.0],[-95.9493,36.2232,0.0],[-95.9491,36.2214,0.0],[-95.9511,36.2191,0.0],[-95.9527,36.2206,0.0],[-95.9583,36.2207,0.0],[-95.9661,36.2206,0.0],[-95.9755,36.2205,0.0],[-95.9755,36.2282,0.0],[-95.9755,36.2289,0.0],[-95.9755,36.235,0.0]]]]}},{"type":"Feature","properties":{"uesi_id":"USA_R184985","nbhd_code":"USA_R184985_131","nbhd_name":"Census Tract 91.04"},"geometry":{"type":"MultiPolygon","coordinates":[[[[-95.9755,36.2405,0.0],[-95.9755,36.2494,0.0],[-95.9754,36.2495,0.0],[-95.9748,36.2496,0.0],[-95.9747,36.2497,0.0],[-95.9739,36.2509,0.0],[-95.9737,36.2514,0.0],[-95.9737,36.264,0.0],[-95.9737,36.2734,0.0],[-95.9737,36.2786,0.0],[-95.9537,36.2785,0.0],[-95.9378,36.2785,0.0],[-95.9374,36.2785,0.0],[-95.9371,36.2785,0.0],[-95.9277,36.2785,0.0],[-95.924,36.2786,0.0],[-95.924,36.264,0.0],[-95.9246,36.2599,0.0],[-95.9268,36.2552,0.0],[-95.9284,36.2531,0.0],[-95.9324,36.2495,0.0],[-95.937,36.2459,0.0],[-95.9428,36.2412,0.0],[-95.9437,36.2402,0.0],[-95.9449,36.2383,0.0],[-95.9452,36.2352,0.0],[-95.9584,36.2351,0.0],[-95.9588,36.2351,0.0],[-95.9673,36.2351,0.0],[-95.9755,36.235,0.0],[-95.9755,36.2405,0.0]]]]}},{"type":"Feature","properties":{"uesi_id":"USA_R184985","nbhd_code":"USA_R184985_132","nbhd_name":"Census Tract 15"},"geometry":{"type":"MultiPolygon","coordinates":[[[[-95.9403,36.1663,0.0],[-95.9403,36.1748,0.0],[-95.9403,36.1771,0.0],[-95.9351,36.1772,0.0],[-95.934,36.1771,0.0],[-95.9328,36.1772,0.0],[-95.9278,36.1771,0.0],[-95.9276,36.1771,0.0],[-95.9252,36.1771,0.0],[-95.9225,36.1771,0.0],[-95.9225,36.1699,0.0],[-95.9225,36.1607,0.0],[-95.931,36.1608,0.0],[-95.9314,36.1607,0.0],[-95.9335,36.1608,0.0],[-95.9403,36.1608,0.0],[-95.9403,36.1663,0.0]]]]}},{"type":"Feature","properties":{"uesi_id":"USA_R184985","nbhd_code":"USA_R184985_133","nbhd_name":"Census Tract 47"},"geometry":{"type":"MultiPolygon","coordinates":[[[[-96.0475,36.0855,0.0],[-96.0475,36.0877,0.0],[-96.0474,36.0882,0.0],[-96.0474,36.0885,0.0],[-96.0474,36.0899,0.0],[-96.0474,36.0906,0.0],[-96.0474,36.0907,0.0],[-96.0474,36.0973,0.0],[-96.0474,36.1045,0.0],[-96.0383,36.1045,0.0],[-96.0371,36.1045,0.0],[-96.0354,36.1045,0.0],[-96.034,36.1045,0.0],[-96.0307,36.1045,0.0],[-96.0307,36.1077,0.0],[-96.0282,36.1076,0.0],[-96.0281,36.1087,0.0],[-96.0217,36.1087,0.0],[-96.0217,36.1076,0.0],[-96.0205,36.1076,0.0],[-96.0205,36.1066,0.0],[-96.0184,36.1081,0.0],[-96.0195,36.1069,0.0],[-96.021,36.1046,0.0],[-96.0215,36.1041,0.0],[-96.0251,36.1015,0.0],[-96.0295,36.0978,0.0],[-96.0317,36.0959,0.0],[-96.0343,36.0943,0.0],[-96.0346,36.0941,0.0],[-96.036,36.0931,0.0],[-96.0376,36.0914,0.0],[-96.0381,36.0908,0.0],[-96.0388,36.09,0.0],[-96.0389,36.0899,0.0],[-96.0396,36.0893,0.0],[-96.0403,36.0887,0.0],[-96.0453,36.083,0.0],[-96.0475,36.0827,0.0],[-96.0475,36.0855,0.0]]]]}},{"type":"Feature","properties":{"uesi_id":"USA_R184985","nbhd_code":"USA_R184985_134","nbhd_name":"Census Tract 70"},"geometry":{"type":"MultiPolygon","coordinates":[[[[-95.9224,36.1188,0.0],[-95.9212,36.1188,0.0],[-95.9208,36.1189,0.0],[-95.9135,36.1189,0.0],[-95.9045,36.1189,0.0],[-95.9046,36.1155,0.0],[-95.9045,36.112,0.0],[-95.9045,36.1078,0.0],[-95.9045,36.1044,0.0],[-95.9086,36.1044,0.0],[-95.9094,36.1044,0.0],[-95.9104,36.1044,0.0],[-95.9132,36.1044,0.0],[-95.9223,36.1044,0.0],[-95.9224,36.1116,0.0],[-95.9224,36.1188,0.0]]]]}},{"type":"Feature","properties":{"uesi_id":"USA_R184985","nbhd_code":"USA_R184985_135","nbhd_name":"Census Tract 76.33"},"geometry":{"type":"MultiPolygon","coordinates":[[[[-95.9221,36.0237,0.0],[-95.9222,36.0319,0.0],[-95.9105,36.0319,0.0],[-95.9093,36.0319,0.0],[-95.9043,36.0318,0.0],[-95.9042,36.023,0.0],[-95.9043,36.0222,0.0],[-95.9042,36.0173,0.0],[-95.9222,36.0173,0.0],[-95.9221,36.0237,0.0]]]]}},{"type":"Feature","properties":{"uesi_id":"USA_R184985","nbhd_code":"USA_R184985_136","nbhd_name":"Census Tract 33"},"geometry":{"type":"MultiPolygon","coordinates":[[[[-95.9757,36.1406,0.0],[-95.9744,36.1407,0.0],[-95.9671,36.1406,0.0],[-95.9582,36.1405,0.0],[-95.9582,36.135,0.0],[-95.9582,36.1332,0.0],[-95.9601,36.1333,0.0],[-95.962,36.1333,0.0],[-95.9673,36.1333,0.0],[-95.9756,36.1334,0.0],[-95.9757,36.1369,0.0],[-95.9757,36.1406,0.0]]]]}},{"type":"Feature","properties":{"uesi_id":"USA_R184985","nbhd_code":"USA_R184985_137","nbhd_name":"Census Tract 58.08"},"geometry":{"type":"MultiPolygon","coordinates":[[[[-95.9449,36.2383,0.0],[-95.9437,36.2402,0.0],[-95.9428,36.2412,0.0],[-95.937,36.2459,0.0],[-95.9324,36.2495,0.0],[-95.9284,36.2531,0.0],[-95.9268,36.2552,0.0],[-95.9246,36.2599,0.0],[-95.924,36.264,0.0],[-95.924,36.2786,0.0],[-95.9241,36.2862,0.0],[-95.9243,36.3364,0.0],[-95.9243,36.3365,0.0],[-95.9201,36.3365,0.0],[-95.9196,36.3366,0.0],[-95.8844,36.3366,0.0],[-95.8821,36.3367,0.0],[-95.8663,36.3367,0.0],[-95.8519,36.3366,0.0],[-95.852,36.3364,0.0],[-95.8575,36.3292,0.0],[-95.8586,36.3273,0.0],[-95.8596,36.3249,0.0],[-95.8656,36.3075,0.0],[-95.8662,36.3058,0.0],[-95.8662,36.3057,0.0],[-95.8662,36.3056,0.0],[-95.8693,36.2967,0.0],[-95.8706,36.293,0.0],[-95.8717,36.2887,0.0],[-95.8709,36.2856,0.0],[-95.8693,36.2822,0.0],[-95.8676,36.2786,0.0],[-95.8675,36.2785,0.0],[-95.8656,36.2744,0.0],[-95.8673,36.2722,0.0],[-95.867,36.2712,0.0],[-95.8656,36.269,0.0],[-95.8668,36.267,0.0],[-95.8669,36.2666,0.0],[-95.8672,36.2664,0.0],[-95.8675,36.2663,0.0],[-95.868,36.2657,0.0],[-95.8689,36.2655,0.0],[-95.8692,36.2652,0.0],[-95.8692,36.2651,0.0],[-95.8691,36.2647,0.0],[-95.8691,36.2641,0.0],[-95.8692,36.2638,0.0],[-95.8696,36.2634,0.0],[-95.8683,36.2603,0.0],[-95.8715,36.257,0.0],[-95.871,36.2546,0.0],[-95.8699,36.2559,0.0],[-95.8687,36.2556,0.0],[-95.8696,36.2542,0.0],[-95.8664,36.2535,0.0],[-95.8659,36.2516,0.0],[-95.8664,36.2498,0.0],[-95.8668,36.249,0.0],[-95.8669,36.2488,0.0],[-95.8671,36.2486,0.0],[-95.8674,36.2482,0.0],[-95.8688,36.2453,0.0],[-95.8688,36.235,0.0],[-95.8688,36.2341,0.0],[-95.8691,36.2336,0.0],[-95.8698,36.2333,0.0],[-95.8776,36.2334,0.0],[-95.8803,36.234,0.0],[-95.8837,36.2339,0.0],[-95.886,36.2351,0.0],[-95.8866,36.2351,0.0],[-95.8864,36.2347,0.0],[-95.8866,36.2332,0.0],[-95.8868,36.2328,0.0],[-95.8872,36.2317,0.0],[-95.8902,36.2304,0.0],[-95.8932,36.2328,0.0],[-95.895,36.2327,0.0],[-95.8978,36.2285,0.0],[-95.9009,36.2281,0.0],[-95.9028,36.2295,0.0],[-95.905,36.23,0.0],[-95.9044,36.2261,0.0],[-95.9083,36.2269,0.0],[-95.9108,36.2233,0.0],[-95.9161,36.2221,0.0],[-95.918,36.2233,0.0],[-95.9207,36.2241,0.0],[-95.9216,36.2258,0.0],[-95.9191,36.2289,0.0],[-95.92,36.23,0.0],[-95.9228,36.2314,0.0],[-95.9264,36.2347,0.0],[-95.9285,36.2351,0.0],[-95.9452,36.2352,0.0],[-95.9449,36.2383,0.0]]]]}},{"type":"Feature","properties":{"uesi_id":"USA_R184985","nbhd_code":"USA_R184985_138","nbhd_name":"Census Tract 73.10"},"geometry":{"type":"MultiPolygon","coordinates":[[[[-95.8512,36.148,0.0],[-95.8487,36.148,0.0],[-95.8481,36.148,0.0],[-95.8477,36.148,0.0],[-95.8378,36.148,0.0],[-95.8333,36.148,0.0],[-95.8332,36.1334,0.0],[-95.8394,36.1334,0.0],[-95.8417,36.1335,0.0],[-95.8461,36.1335,0.0],[-95.8511,36.1335,0.0],[-95.8511,36.138,0.0],[-95.8511,36.1426,0.0],[-95.8511,36.1456,0.0],[-95.8511,36.1458,0.0],[-95.8512,36.148,0.0]]]]}},{"type":"Feature","properties":{"uesi_id":"USA_R184985","nbhd_code":"USA_R184985_139","nbhd_name":"Census Tract 88"},"geometry":{"type":"MultiPolygon","coordinates":[[[[-96.0835,36.1338,0.0],[-96.0834,36.1346,0.0],[-96.0834,36.1355,0.0],[-96.0834,36.1422,0.0],[-96.0812,36.143,0.0],[-96.0762,36.1444,0.0],[-96.0757,36.1445,0.0],[-96.0753,36.1447,0.0],[-96.0729,36.1455,0.0],[-96.0679,36.147,0.0],[-96.0676,36.1471,0.0],[-96.0656,36.1477,0.0],[-96.0652,36.1478,0.0],[-96.0616,36.1485,0.0],[-96.0562,36.1505,0.0],[-96.0562,36.1498,0.0],[-96.054,36.1498,0.0],[-96.054,36.1512,0.0],[-96.0529,36.1515,0.0],[-96.0495,36.1513,0.0],[-96.0472,36.1528,0.0],[-96.0472,36.1499,0.0],[-96.0473,36.1444,0.0],[-96.0472,36.1438,0.0],[-96.0472,36.1434,0.0],[-96.0474,36.142,0.0],[-96.0474,36.1407,0.0],[-96.0474,36.1403,0.0],[-96.0508,36.1389,0.0],[-96.0519,36.139,0.0],[-96.0527,36.139,0.0],[-96.0562,36.1384,0.0],[-96.0572,36.1383,0.0],[-96.0692,36.1364,0.0],[-96.0781,36.1327,0.0],[-96.0834,36.1309,0.0],[-96.0835,36.1326,0.0],[-96.0835,36.1328,0.0],[-96.0835,36.1338,0.0]]]]}},{"type":"Feature","properties":{"uesi_id":"USA_R184985","nbhd_code":"USA_R184985_140","nbhd_name":"Census Tract 304.02"},"geometry":{"type":"MultiPolygon","coordinates":[[[[-95.7264,36.1625,0.0],[-95.7214,36.1621,0.0],[-95.7128,36.1619,0.0],[-95.7084,36.1619,0.0],[-95.6996,36.1624,0.0],[-95.6905,36.1624,0.0],[-95.6727,36.1623,0.0],[-95.6369,36.1625,0.0],[-95.6369,36.1552,0.0],[-95.6369,36.1526,0.0],[-95.6374,36.1515,0.0],[-95.6368,36.1496,0.0],[-95.6368,36.1481,0.0],[-95.6368,36.1405,0.0],[-95.6368,36.1334,0.0],[-95.6367,36.1189,0.0],[-95.6365,36.0901,0.0],[-95.6365,36.0896,0.0],[-95.6365,36.0891,0.0],[-95.6366,36.0837,0.0],[-95.6372,36.0783,0.0],[-95.6366,36.0753,0.0],[-95.6366,36.061,0.0],[-95.6366,36.0608,0.0],[-95.6545,36.0607,0.0],[-95.6724,36.0607,0.0],[-95.6724,36.0609,0.0],[-95.6724,36.0714,0.0],[-95.6724,36.0753,0.0],[-95.6726,36.0753,0.0],[-95.6903,36.0753,0.0],[-95.7078,36.0754,0.0],[-95.7082,36.0754,0.0],[-95.7082,36.0831,0.0],[-95.7082,36.0898,0.0],[-95.7117,36.0899,0.0],[-95.7131,36.0899,0.0],[-95.7173,36.0899,0.0],[-95.7261,36.0899,0.0],[-95.7261,36.1044,0.0],[-95.7261,36.1084,0.0],[-95.7261,36.1134,0.0],[-95.7216,36.1162,0.0],[-95.7212,36.1167,0.0],[-95.7202,36.1187,0.0],[-95.7201,36.1189,0.0],[-95.7211,36.1189,0.0],[-95.7262,36.119,0.0],[-95.7264,36.1625,0.0]]]]}},{"type":"Feature","properties":{"uesi_id":"USA_R184985","nbhd_code":"USA_R184985_141","nbhd_name":"Census Tract 21"},"geometry":{"type":"MultiPolygon","coordinates":[[[[-95.9582,36.1517,0.0],[-95.9582,36.1547,0.0],[-95.9554,36.1546,0.0],[-95.9492,36.1549,0.0],[-95.9492,36.1547,0.0],[-95.9403,36.1547,0.0],[-95.9403,36.1527,0.0],[-95.9404,36.1478,0.0],[-95.9461,36.1478,0.0],[-95.9484,36.1478,0.0],[-95.9493,36.1478,0.0],[-95.9515,36.1478,0.0],[-95.9571,36.1478,0.0],[-95.9582,36.1478,0.0],[-95.9582,36.1508,0.0],[-95.9582,36.1517,0.0]]]]}}]}