{"type":"FeatureCollection","name":"USA_R129814","crs":{"type":"name","properties":{"name":"urn:ogc:def:crs:OGC:1.3:CRS84"}},"features":[{"type":"Feature","properties":{"uesi_id":"USA_R129814","nbhd_code":"USA_R129814_1","nbhd_name":"Census Tract 77"},"geometry":{"type":"MultiPolygon","coordinates":[[[[-97.2991,37.73,0.0],[-97.299,37.7417,0.0],[-97.2946,37.7435,0.0],[-97.2806,37.7493,0.0],[-97.2806,37.7455,0.0],[-97.2806,37.7376,0.0],[-97.2623,37.7376,0.0],[-97.2623,37.7288,0.0],[-97.2623,37.723,0.0],[-97.2807,37.7229,0.0],[-97.299,37.7228,0.0],[-97.299,37.7264,0.0],[-97.2991,37.73,0.0]]]]}},{"type":"Feature","properties":{"uesi_id":"USA_R129814","nbhd_code":"USA_R129814_2","nbhd_name":"Census Tract 95.04"},"geometry":{"type":"MultiPolygon","coordinates":[[[[-97.4627,37.7227,0.0],[-97.4523,37.7229,0.0],[-97.4445,37.723,0.0],[-97.4446,37.7164,0.0],[-97.4446,37.7159,0.0],[-97.4446,37.7153,0.0],[-97.4443,37.7088,0.0],[-97.4529,37.7087,0.0],[-97.4599,37.7084,0.0],[-97.4627,37.7083,0.0],[-97.4627,37.7159,0.0],[-97.4627,37.7227,0.0]]]]}},{"type":"Feature","properties":{"uesi_id":"USA_R129814","nbhd_code":"USA_R129814_3","nbhd_name":"Census Tract 24"},"geometry":{"type":"MultiPolygon","coordinates":[[[[-97.3276,37.6787,0.0],[-97.3275,37.6826,0.0],[-97.3263,37.6826,0.0],[-97.3264,37.6861,0.0],[-97.3172,37.6861,0.0],[-97.3141,37.6862,0.0],[-97.313,37.6862,0.0],[-97.3126,37.6845,0.0],[-97.3126,37.6791,0.0],[-97.3126,37.6789,0.0],[-97.3125,37.6718,0.0],[-97.3172,37.6718,0.0],[-97.3172,37.6762,0.0],[-97.3212,37.6761,0.0],[-97.3276,37.6761,0.0],[-97.3276,37.6787,0.0]]]]}},{"type":"Feature","properties":{"uesi_id":"USA_R129814","nbhd_code":"USA_R129814_4","nbhd_name":"Census Tract 69"},"geometry":{"type":"MultiPolygon","coordinates":[[[[-97.2713,37.6756,0.0],[-97.2713,37.6795,0.0],[-97.2621,37.6795,0.0],[-97.2621,37.6737,0.0],[-97.2621,37.6719,0.0],[-97.2621,37.6701,0.0],[-97.2621,37.6646,0.0],[-97.2673,37.6647,0.0],[-97.2713,37.6647,0.0],[-97.2713,37.6719,0.0],[-97.2713,37.6756,0.0]]]]}},{"type":"Feature","properties":{"uesi_id":"USA_R129814","nbhd_code":"USA_R129814_5","nbhd_name":"Census Tract 108.02"},"geometry":{"type":"MultiPolygon","coordinates":[[[[-97.2806,37.7493,0.0],[-97.2737,37.7522,0.0],[-97.2624,37.7569,0.0],[-97.2624,37.7522,0.0],[-97.2359,37.7523,0.0],[-97.233,37.7524,0.0],[-97.2264,37.7523,0.0],[-97.2263,37.7375,0.0],[-97.234,37.7435,0.0],[-97.2359,37.7442,0.0],[-97.2448,37.7444,0.0],[-97.2537,37.7453,0.0],[-97.2623,37.7454,0.0],[-97.2625,37.7454,0.0],[-97.2806,37.7455,0.0],[-97.2806,37.7493,0.0]]]]}},{"type":"Feature","properties":{"uesi_id":"USA_R129814","nbhd_code":"USA_R129814_6","nbhd_name":"Census Tract 8"},"geometry":{"type":"MultiPolygon","coordinates":[[[[-97.3105,37.7154,0.0],[-97.3059,37.7155,0.0],[-97.3013,37.7155,0.0],[-97.3013,37.7137,0.0],[-97.3013,37.71,0.0],[-97.3013,37.7082,0.0],[-97.3013,37.7046,0.0],[-97.299,37.7046,0.0],[-97.2991,37.701,0.0],[-97.3059,37.7009,0.0],[-97.3105,37.7009,0.0],[-97.3105,37.7154,0.0]]]]}},{"type":"Feature","properties":{"uesi_id":"USA_R129814","nbhd_code":"USA_R129814_7","nbhd_name":"Census Tract 62"},"geometry":{"type":"MultiPolygon","coordinates":[[[[-97.3171,37.6572,0.0],[-97.3123,37.6571,0.0],[-97.312,37.6572,0.0],[-97.3122,37.6608,0.0],[-97.3116,37.6609,0.0],[-97.308,37.6609,0.0],[-97.2988,37.6609,0.0],[-97.2988,37.6573,0.0],[-97.2988,37.6537,0.0],[-97.2988,37.6516,0.0],[-97.2987,37.65,0.0],[-97.3051,37.65,0.0],[-97.3079,37.6499,0.0],[-97.31,37.6499,0.0],[-97.3156,37.6499,0.0],[-97.3171,37.6527,0.0],[-97.3171,37.6572,0.0]]]]}},{"type":"Feature","properties":{"uesi_id":"USA_R129814","nbhd_code":"USA_R129814_8","nbhd_name":"Census Tract 93.01"},"geometry":{"type":"MultiPolygon","coordinates":[[[[-97.4443,37.7088,0.0],[-97.43,37.7088,0.0],[-97.4261,37.7088,0.0],[-97.4237,37.7089,0.0],[-97.414,37.709,0.0],[-97.4124,37.7091,0.0],[-97.4114,37.7097,0.0],[-97.4046,37.7157,0.0],[-97.4031,37.717,0.0],[-97.401,37.7155,0.0],[-97.3995,37.7141,0.0],[-97.405,37.7093,0.0],[-97.4072,37.7073,0.0],[-97.4078,37.7066,0.0],[-97.4131,37.7022,0.0],[-97.4143,37.6945,0.0],[-97.4158,37.6946,0.0],[-97.4228,37.6944,0.0],[-97.4262,37.6944,0.0],[-97.4444,37.6941,0.0],[-97.4443,37.7088,0.0]]]]}},{"type":"Feature","properties":{"uesi_id":"USA_R129814","nbhd_code":"USA_R129814_9","nbhd_name":"Census Tract 10"},"geometry":{"type":"MultiPolygon","coordinates":[[[[-97.2935,37.6992,0.0],[-97.2917,37.6992,0.0],[-97.2917,37.7057,0.0],[-97.2906,37.7083,0.0],[-97.2852,37.7083,0.0],[-97.2841,37.7083,0.0],[-97.2829,37.7083,0.0],[-97.2806,37.7084,0.0],[-97.2806,37.7029,0.0],[-97.2783,37.7029,0.0],[-97.276,37.7011,0.0],[-97.276,37.7029,0.0],[-97.2714,37.7029,0.0],[-97.2714,37.7011,0.0],[-97.2714,37.6993,0.0],[-97.2714,37.6938,0.0],[-97.2771,37.6938,0.0],[-97.2805,37.6938,0.0],[-97.2828,37.6938,0.0],[-97.2875,37.6938,0.0],[-97.2875,37.6956,0.0],[-97.2917,37.6956,0.0],[-97.2918,37.6971,0.0],[-97.2935,37.6974,0.0],[-97.2935,37.6992,0.0]]]]}},{"type":"Feature","properties":{"uesi_id":"USA_R129814","nbhd_code":"USA_R129814_10","nbhd_name":"Census Tract 38"},"geometry":{"type":"MultiPolygon","coordinates":[[[[-97.3172,37.6718,0.0],[-97.3125,37.6718,0.0],[-97.31,37.6718,0.0],[-97.3025,37.6718,0.0],[-97.2988,37.6718,0.0],[-97.2988,37.6646,0.0],[-97.2988,37.6609,0.0],[-97.308,37.6609,0.0],[-97.3116,37.6609,0.0],[-97.3122,37.6608,0.0],[-97.312,37.6572,0.0],[-97.3123,37.6571,0.0],[-97.3171,37.6572,0.0],[-97.3172,37.6608,0.0],[-97.3172,37.6644,0.0],[-97.3172,37.6681,0.0],[-97.3172,37.6718,0.0]]]]}},{"type":"Feature","properties":{"uesi_id":"USA_R129814","nbhd_code":"USA_R129814_11","nbhd_name":"Census Tract 43"},"geometry":{"type":"MultiPolygon","coordinates":[[[[-97.3543,37.6957,0.0],[-97.3527,37.6964,0.0],[-97.3482,37.6946,0.0],[-97.3464,37.6947,0.0],[-97.3437,37.6959,0.0],[-97.343,37.6975,0.0],[-97.3417,37.6975,0.0],[-97.3407,37.6975,0.0],[-97.3382,37.6975,0.0],[-97.3369,37.6975,0.0],[-97.333,37.6976,0.0],[-97.3304,37.6976,0.0],[-97.3289,37.6976,0.0],[-97.3266,37.6976,0.0],[-97.3265,37.6935,0.0],[-97.3264,37.6861,0.0],[-97.3263,37.6826,0.0],[-97.3275,37.6826,0.0],[-97.3316,37.6824,0.0],[-97.3316,37.6811,0.0],[-97.3368,37.6811,0.0],[-97.3381,37.6811,0.0],[-97.3411,37.6811,0.0],[-97.3428,37.6808,0.0],[-97.353,37.6805,0.0],[-97.353,37.684,0.0],[-97.3531,37.6907,0.0],[-97.3531,37.6911,0.0],[-97.3531,37.6913,0.0],[-97.3491,37.6908,0.0],[-97.3517,37.6934,0.0],[-97.3544,37.6951,0.0],[-97.3543,37.6957,0.0]]]]}},{"type":"Feature","properties":{"uesi_id":"USA_R129814","nbhd_code":"USA_R129814_12","nbhd_name":"Census Tract 59"},"geometry":{"type":"MultiPolygon","coordinates":[[[[-97.3285,37.6226,0.0],[-97.3158,37.6227,0.0],[-97.3159,37.6246,0.0],[-97.3171,37.6307,0.0],[-97.3171,37.6365,0.0],[-97.3171,37.6423,0.0],[-97.3115,37.6423,0.0],[-97.3106,37.6427,0.0],[-97.3094,37.6418,0.0],[-97.3033,37.6352,0.0],[-97.2981,37.6297,0.0],[-97.2965,37.628,0.0],[-97.2958,37.6268,0.0],[-97.2954,37.6257,0.0],[-97.2953,37.6252,0.0],[-97.2985,37.6247,0.0],[-97.2982,37.6232,0.0],[-97.2988,37.6215,0.0],[-97.3,37.62,0.0],[-97.3024,37.6158,0.0],[-97.3025,37.6137,0.0],[-97.304,37.611,0.0],[-97.3066,37.6071,0.0],[-97.3083,37.6076,0.0],[-97.3097,37.6079,0.0],[-97.3108,37.608,0.0],[-97.3125,37.6054,0.0],[-97.3158,37.6039,0.0],[-97.3209,37.6029,0.0],[-97.3228,37.6016,0.0],[-97.3244,37.6051,0.0],[-97.3255,37.608,0.0],[-97.3269,37.612,0.0],[-97.3286,37.6214,0.0],[-97.3285,37.6226,0.0]]]]}},{"type":"Feature","properties":{"uesi_id":"USA_R129814","nbhd_code":"USA_R129814_13","nbhd_name":"Census Tract 14"},"geometry":{"type":"MultiPolygon","coordinates":[[[[-97.3726,37.7004,0.0],[-97.3715,37.7022,0.0],[-97.3642,37.7073,0.0],[-97.3635,37.7082,0.0],[-97.3617,37.708,0.0],[-97.3584,37.7119,0.0],[-97.3564,37.7124,0.0],[-97.3552,37.7117,0.0],[-97.3505,37.7117,0.0],[-97.3493,37.7099,0.0],[-97.3482,37.708,0.0],[-97.3484,37.7065,0.0],[-97.3484,37.7063,0.0],[-97.3483,37.7056,0.0],[-97.3483,37.7043,0.0],[-97.3445,37.7044,0.0],[-97.3445,37.7012,0.0],[-97.342,37.7012,0.0],[-97.3417,37.6975,0.0],[-97.343,37.6975,0.0],[-97.3437,37.6959,0.0],[-97.3464,37.6947,0.0],[-97.3482,37.6946,0.0],[-97.3527,37.6964,0.0],[-97.3543,37.6957,0.0],[-97.3544,37.6951,0.0],[-97.3517,37.6934,0.0],[-97.3491,37.6908,0.0],[-97.3531,37.6913,0.0],[-97.3579,37.6924,0.0],[-97.3653,37.6928,0.0],[-97.3669,37.6934,0.0],[-97.3693,37.6951,0.0],[-97.3723,37.6987,0.0],[-97.3726,37.7004,0.0]]]]}},{"type":"Feature","properties":{"uesi_id":"USA_R129814","nbhd_code":"USA_R129814_14","nbhd_name":"Census Tract 27"},"geometry":{"type":"MultiPolygon","coordinates":[[[[-97.3576,37.684,0.0],[-97.353,37.684,0.0],[-97.353,37.6805,0.0],[-97.3428,37.6808,0.0],[-97.3427,37.6789,0.0],[-97.3427,37.6787,0.0],[-97.3438,37.6717,0.0],[-97.3461,37.6718,0.0],[-97.3493,37.6732,0.0],[-97.3529,37.6733,0.0],[-97.3574,37.6733,0.0],[-97.3574,37.6766,0.0],[-97.3575,37.6779,0.0],[-97.3576,37.6822,0.0],[-97.3576,37.684,0.0]]]]}},{"type":"Feature","properties":{"uesi_id":"USA_R129814","nbhd_code":"USA_R129814_15","nbhd_name":"Census Tract 64"},"geometry":{"type":"MultiPolygon","coordinates":[[[[-97.2988,37.6573,0.0],[-97.2942,37.6573,0.0],[-97.2839,37.6574,0.0],[-97.2804,37.6574,0.0],[-97.2804,37.6538,0.0],[-97.2804,37.6501,0.0],[-97.2805,37.6434,0.0],[-97.2838,37.6457,0.0],[-97.2845,37.6465,0.0],[-97.2852,37.6472,0.0],[-97.2888,37.6501,0.0],[-97.2931,37.65,0.0],[-97.2987,37.65,0.0],[-97.2988,37.6516,0.0],[-97.2988,37.6537,0.0],[-97.2988,37.6573,0.0]]]]}},{"type":"Feature","properties":{"uesi_id":"USA_R129814","nbhd_code":"USA_R129814_16","nbhd_name":"Census Tract 67"},"geometry":{"type":"MultiPolygon","coordinates":[[[[-97.2805,37.6434,0.0],[-97.2804,37.6501,0.0],[-97.2804,37.6538,0.0],[-97.2804,37.6574,0.0],[-97.2723,37.6574,0.0],[-97.2713,37.6574,0.0],[-97.2621,37.6574,0.0],[-97.2621,37.6565,0.0],[-97.2621,37.6559,0.0],[-97.2713,37.6503,0.0],[-97.2717,37.6501,0.0],[-97.2739,37.6486,0.0],[-97.2805,37.6432,0.0],[-97.2805,37.6434,0.0]]]]}},{"type":"Feature","properties":{"uesi_id":"USA_R129814","nbhd_code":"USA_R129814_17","nbhd_name":"Census Tract 72.03"},"geometry":{"type":"MultiPolygon","coordinates":[[[[-97.2621,37.6559,0.0],[-97.255,37.6602,0.0],[-97.2502,37.6647,0.0],[-97.2489,37.6647,0.0],[-97.2367,37.6647,0.0],[-97.233,37.6646,0.0],[-97.2262,37.6647,0.0],[-97.2261,37.6573,0.0],[-97.2262,37.6537,0.0],[-97.2262,37.6513,0.0],[-97.2262,37.6501,0.0],[-97.2347,37.6501,0.0],[-97.2368,37.6501,0.0],[-97.2377,37.6501,0.0],[-97.2391,37.6506,0.0],[-97.2396,37.6501,0.0],[-97.2445,37.6501,0.0],[-97.2445,37.6547,0.0],[-97.2621,37.6546,0.0],[-97.2621,37.6559,0.0]]]]}},{"type":"Feature","properties":{"uesi_id":"USA_R129814","nbhd_code":"USA_R129814_18","nbhd_name":"Census Tract 75"},"geometry":{"type":"MultiPolygon","coordinates":[[[[-97.2909,37.7083,0.0],[-97.2895,37.7109,0.0],[-97.2875,37.7129,0.0],[-97.284,37.7147,0.0],[-97.2806,37.7154,0.0],[-97.2755,37.7156,0.0],[-97.2744,37.7148,0.0],[-97.2744,37.7084,0.0],[-97.2737,37.7084,0.0],[-97.2737,37.7063,0.0],[-97.2755,37.7049,0.0],[-97.276,37.7029,0.0],[-97.276,37.7011,0.0],[-97.2783,37.7029,0.0],[-97.2806,37.7029,0.0],[-97.2806,37.7084,0.0],[-97.2829,37.7083,0.0],[-97.2841,37.7083,0.0],[-97.2852,37.7083,0.0],[-97.2906,37.7083,0.0],[-97.2909,37.7083,0.0]]]]}},{"type":"Feature","properties":{"uesi_id":"USA_R129814","nbhd_code":"USA_R129814_19","nbhd_name":"Census Tract 78"},"geometry":{"type":"MultiPolygon","coordinates":[[[[-97.3175,37.736,0.0],[-97.3154,37.7371,0.0],[-97.299,37.7417,0.0],[-97.2991,37.73,0.0],[-97.299,37.7264,0.0],[-97.299,37.7228,0.0],[-97.3082,37.7227,0.0],[-97.3082,37.7264,0.0],[-97.3082,37.73,0.0],[-97.3156,37.7299,0.0],[-97.3173,37.7286,0.0],[-97.3168,37.7328,0.0],[-97.3175,37.736,0.0]]]]}},{"type":"Feature","properties":{"uesi_id":"USA_R129814","nbhd_code":"USA_R129814_20","nbhd_name":"Census Tract 89"},"geometry":{"type":"MultiPolygon","coordinates":[[[[-97.4143,37.6945,0.0],[-97.4093,37.6946,0.0],[-97.4049,37.6946,0.0],[-97.4047,37.6946,0.0],[-97.396,37.6947,0.0],[-97.3895,37.6948,0.0],[-97.3894,37.6875,0.0],[-97.3894,37.6839,0.0],[-97.3894,37.6767,0.0],[-97.3893,37.6736,0.0],[-97.4015,37.6733,0.0],[-97.4021,37.6762,0.0],[-97.4049,37.6801,0.0],[-97.4051,37.6801,0.0],[-97.4064,37.6802,0.0],[-97.4125,37.6871,0.0],[-97.4134,37.6883,0.0],[-97.4158,37.6946,0.0],[-97.4143,37.6945,0.0]]]]}},{"type":"Feature","properties":{"uesi_id":"USA_R129814","nbhd_code":"USA_R129814_21","nbhd_name":"Census Tract 91"},"geometry":{"type":"MultiPolygon","coordinates":[[[[-97.4015,37.6733,0.0],[-97.3893,37.6736,0.0],[-97.3892,37.6658,0.0],[-97.3736,37.6659,0.0],[-97.3711,37.6659,0.0],[-97.371,37.6605,0.0],[-97.371,37.6587,0.0],[-97.3709,37.6514,0.0],[-97.3708,37.6442,0.0],[-97.3708,37.6441,0.0],[-97.3708,37.6389,0.0],[-97.3708,37.6369,0.0],[-97.3708,37.6333,0.0],[-97.3707,37.6286,0.0],[-97.3707,37.6284,0.0],[-97.3749,37.6285,0.0],[-97.3831,37.629,0.0],[-97.3871,37.6302,0.0],[-97.3892,37.6307,0.0],[-97.3901,37.6312,0.0],[-97.3928,37.6335,0.0],[-97.3938,37.6346,0.0],[-97.3948,37.637,0.0],[-97.3969,37.6428,0.0],[-97.3989,37.6465,0.0],[-97.3989,37.6467,0.0],[-97.4,37.6495,0.0],[-97.4011,37.654,0.0],[-97.4013,37.6559,0.0],[-97.4015,37.6733,0.0]]]]}},{"type":"Feature","properties":{"uesi_id":"USA_R129814","nbhd_code":"USA_R129814_22","nbhd_name":"Census Tract 95.07"},"geometry":{"type":"MultiPolygon","coordinates":[[[[-97.5895,37.7357,0.0],[-97.5355,37.7361,0.0],[-97.4991,37.7366,0.0],[-97.4901,37.7367,0.0],[-97.4857,37.7368,0.0],[-97.481,37.7369,0.0],[-97.481,37.7328,0.0],[-97.4812,37.7297,0.0],[-97.4812,37.7295,0.0],[-97.4811,37.7242,0.0],[-97.4811,37.7224,0.0],[-97.4815,37.7086,0.0],[-97.4808,37.7022,0.0],[-97.4807,37.7015,0.0],[-97.4807,37.7007,0.0],[-97.4807,37.6935,0.0],[-97.4896,37.6933,0.0],[-97.4923,37.6932,0.0],[-97.493,37.6933,0.0],[-97.4934,37.6925,0.0],[-97.4987,37.6924,0.0],[-97.4987,37.6932,0.0],[-97.5078,37.6932,0.0],[-97.5168,37.6931,0.0],[-97.535,37.693,0.0],[-97.5531,37.6929,0.0],[-97.5799,37.6928,0.0],[-97.5892,37.6928,0.0],[-97.5895,37.7357,0.0]]]]}},{"type":"Feature","properties":{"uesi_id":"USA_R129814","nbhd_code":"USA_R129814_23","nbhd_name":"Census Tract 95.10"},"geometry":{"type":"MultiPolygon","coordinates":[[[[-97.4986,37.6787,0.0],[-97.4987,37.6924,0.0],[-97.4934,37.6925,0.0],[-97.493,37.6933,0.0],[-97.4923,37.6932,0.0],[-97.4896,37.6933,0.0],[-97.4807,37.6935,0.0],[-97.4807,37.679,0.0],[-97.4806,37.6717,0.0],[-97.4806,37.6647,0.0],[-97.4806,37.6646,0.0],[-97.4807,37.6573,0.0],[-97.4808,37.6556,0.0],[-97.4808,37.6542,0.0],[-97.4808,37.6518,0.0],[-97.4809,37.6501,0.0],[-97.4809,37.65,0.0],[-97.4832,37.65,0.0],[-97.4935,37.6499,0.0],[-97.4985,37.6499,0.0],[-97.4986,37.6583,0.0],[-97.4986,37.659,0.0],[-97.4986,37.6593,0.0],[-97.4986,37.6604,0.0],[-97.4986,37.6644,0.0],[-97.4986,37.6714,0.0],[-97.4984,37.674,0.0],[-97.4989,37.675,0.0],[-97.4986,37.6787,0.0]]]]}},{"type":"Feature","properties":{"uesi_id":"USA_R129814","nbhd_code":"USA_R129814_24","nbhd_name":"Census Tract 97"},"geometry":{"type":"MultiPolygon","coordinates":[[[[-97.4798,37.5629,0.0],[-97.3977,37.5641,0.0],[-97.3796,37.5642,0.0],[-97.3704,37.5643,0.0],[-97.3704,37.5589,0.0],[-97.3704,37.5571,0.0],[-97.3704,37.5516,0.0],[-97.3703,37.5498,0.0],[-97.3554,37.5499,0.0],[-97.3431,37.5499,0.0],[-97.3397,37.5499,0.0],[-97.3339,37.5498,0.0],[-97.3259,37.5498,0.0],[-97.3259,37.5571,0.0],[-97.3259,37.5644,0.0],[-97.3174,37.5644,0.0],[-97.3106,37.5644,0.0],[-97.304,37.5644,0.0],[-97.291,37.5644,0.0],[-97.2896,37.5646,0.0],[-97.2896,37.5645,0.0],[-97.288,37.5645,0.0],[-97.288,37.5626,0.0],[-97.2866,37.5591,0.0],[-97.2851,37.5566,0.0],[-97.2842,37.5502,0.0],[-97.2786,37.5465,0.0],[-97.2767,37.5443,0.0],[-97.2744,37.5399,0.0],[-97.2743,37.5378,0.0],[-97.2779,37.5319,0.0],[-97.2782,37.5294,0.0],[-97.2777,37.5257,0.0],[-97.2778,37.525,0.0],[-97.2768,37.5205,0.0],[-97.2766,37.5196,0.0],[-97.2792,37.5159,0.0],[-97.2803,37.5124,0.0],[-97.279,37.5103,0.0],[-97.275,37.5091,0.0],[-97.2706,37.5102,0.0],[-97.2683,37.5095,0.0],[-97.2669,37.5088,0.0],[-97.2635,37.5059,0.0],[-97.2606,37.5028,0.0],[-97.259,37.499,0.0],[-97.259,37.4922,0.0],[-97.2602,37.4895,0.0],[-97.2604,37.4862,0.0],[-97.26,37.4825,0.0],[-97.2611,37.4763,0.0],[-97.2608,37.4755,0.0],[-97.2618,37.4756,0.0],[-97.263,37.4756,0.0],[-97.2649,37.4756,0.0],[-97.2778,37.4758,0.0],[-97.278,37.4758,0.0],[-97.3053,37.4763,0.0],[-97.3144,37.4765,0.0],[-97.3228,37.4766,0.0],[-97.3326,37.4768,0.0],[-97.3417,37.4769,0.0],[-97.3508,37.477,0.0],[-97.369,37.4773,0.0],[-97.3871,37.477,0.0],[-97.3872,37.477,0.0],[-97.4782,37.4758,0.0],[-97.4785,37.5049,0.0],[-97.4794,37.5484,0.0],[-97.4798,37.5629,0.0]]]]}},{"type":"Feature","properties":{"uesi_id":"USA_R129814","nbhd_code":"USA_R129814_25","nbhd_name":"Census Tract 107"},"geometry":{"type":"MultiPolygon","coordinates":[[[[-97.8083,37.6468,0.0],[-97.788,37.647,0.0],[-97.783,37.6471,0.0],[-97.7764,37.6471,0.0],[-97.7719,37.6472,0.0],[-97.7533,37.6473,0.0],[-97.7348,37.6476,0.0],[-97.7261,37.6477,0.0],[-97.6977,37.6483,0.0],[-97.698,37.605,0.0],[-97.6981,37.5798,0.0],[-97.6983,37.5618,0.0],[-97.6936,37.5619,0.0],[-97.616,37.5623,0.0],[-97.6067,37.5623,0.0],[-97.5976,37.5624,0.0],[-97.5884,37.5624,0.0],[-97.5879,37.4973,0.0],[-97.5879,37.4956,0.0],[-97.5879,37.4773,0.0],[-97.5878,37.4752,0.0],[-97.5971,37.4751,0.0],[-97.6062,37.4751,0.0],[-97.643,37.4749,0.0],[-97.6977,37.4745,0.0],[-97.7251,37.4744,0.0],[-97.7343,37.4744,0.0],[-97.771,37.4743,0.0],[-97.8076,37.4742,0.0],[-97.8076,37.5037,0.0],[-97.8077,37.5182,0.0],[-97.8077,37.5618,0.0],[-97.808,37.5762,0.0],[-97.8081,37.5885,0.0],[-97.8083,37.6468,0.0]]]]}},{"type":"Feature","properties":{"uesi_id":"USA_R129814","nbhd_code":"USA_R129814_26","nbhd_name":"Census Tract 7"},"geometry":{"type":"MultiPolygon","coordinates":[[[[-97.3188,37.7227,0.0],[-97.3179,37.7256,0.0],[-97.3173,37.7286,0.0],[-97.3156,37.7299,0.0],[-97.3082,37.73,0.0],[-97.3082,37.7264,0.0],[-97.3082,37.7227,0.0],[-97.299,37.7228,0.0],[-97.299,37.7155,0.0],[-97.3013,37.7155,0.0],[-97.3059,37.7155,0.0],[-97.3105,37.7154,0.0],[-97.314,37.7154,0.0],[-97.3173,37.7154,0.0],[-97.3174,37.7213,0.0],[-97.3174,37.7215,0.0],[-97.3184,37.7215,0.0],[-97.3187,37.7215,0.0],[-97.3188,37.7227,0.0]]]]}},{"type":"Feature","properties":{"uesi_id":"USA_R129814","nbhd_code":"USA_R129814_27","nbhd_name":"Census Tract 21"},"geometry":{"type":"MultiPolygon","coordinates":[[[[-97.2805,37.6938,0.0],[-97.2771,37.6938,0.0],[-97.2714,37.6938,0.0],[-97.2622,37.6938,0.0],[-97.2622,37.6902,0.0],[-97.2661,37.6902,0.0],[-97.2674,37.6883,0.0],[-97.2674,37.6865,0.0],[-97.2622,37.6865,0.0],[-97.2622,37.6797,0.0],[-97.2621,37.6795,0.0],[-97.2713,37.6795,0.0],[-97.2804,37.6795,0.0],[-97.2805,37.68,0.0],[-97.2805,37.6865,0.0],[-97.2805,37.6938,0.0]]]]}},{"type":"Feature","properties":{"uesi_id":"USA_R129814","nbhd_code":"USA_R129814_28","nbhd_name":"Census Tract 30"},"geometry":{"type":"MultiPolygon","coordinates":[[[[-97.3736,37.6694,0.0],[-97.3736,37.6731,0.0],[-97.3688,37.6732,0.0],[-97.3626,37.6732,0.0],[-97.3574,37.6733,0.0],[-97.3529,37.6733,0.0],[-97.3529,37.6698,0.0],[-97.3539,37.6692,0.0],[-97.3574,37.6676,0.0],[-97.3626,37.6648,0.0],[-97.371,37.6605,0.0],[-97.3711,37.6659,0.0],[-97.3736,37.6659,0.0],[-97.3736,37.6694,0.0]]]]}},{"type":"Feature","properties":{"uesi_id":"USA_R129814","nbhd_code":"USA_R129814_29","nbhd_name":"Census Tract 61"},"geometry":{"type":"MultiPolygon","coordinates":[[[[-97.3156,37.6499,0.0],[-97.31,37.6499,0.0],[-97.3079,37.6499,0.0],[-97.3051,37.65,0.0],[-97.2987,37.65,0.0],[-97.2988,37.6419,0.0],[-97.2988,37.6406,0.0],[-97.2989,37.6351,0.0],[-97.2943,37.6351,0.0],[-97.2933,37.6351,0.0],[-97.2862,37.6351,0.0],[-97.2903,37.628,0.0],[-97.2905,37.6278,0.0],[-97.2926,37.6261,0.0],[-97.2953,37.6252,0.0],[-97.2954,37.6257,0.0],[-97.2958,37.6268,0.0],[-97.2965,37.628,0.0],[-97.2981,37.6297,0.0],[-97.3033,37.6352,0.0],[-97.3094,37.6418,0.0],[-97.3106,37.6427,0.0],[-97.3123,37.6445,0.0],[-97.3156,37.6499,0.0]]]]}},{"type":"Feature","properties":{"uesi_id":"USA_R129814","nbhd_code":"USA_R129814_30","nbhd_name":"Census Tract 73.02"},"geometry":{"type":"MultiPolygon","coordinates":[[[[-97.2622,37.6938,0.0],[-97.2531,37.6938,0.0],[-97.2445,37.6938,0.0],[-97.2262,37.694,0.0],[-97.2262,37.6866,0.0],[-97.2262,37.6819,0.0],[-97.2261,37.6793,0.0],[-97.2306,37.6793,0.0],[-97.2372,37.6794,0.0],[-97.2511,37.6795,0.0],[-97.2536,37.6795,0.0],[-97.2548,37.6798,0.0],[-97.2548,37.6827,0.0],[-97.2536,37.6828,0.0],[-97.2537,37.6902,0.0],[-97.2622,37.6902,0.0],[-97.2622,37.6938,0.0]]]]}},{"type":"Feature","properties":{"uesi_id":"USA_R129814","nbhd_code":"USA_R129814_31","nbhd_name":"Census Tract 86"},"geometry":{"type":"MultiPolygon","coordinates":[[[[-97.405,37.7093,0.0],[-97.3995,37.7141,0.0],[-97.3897,37.7227,0.0],[-97.3868,37.7253,0.0],[-97.3865,37.7257,0.0],[-97.3807,37.721,0.0],[-97.3807,37.7205,0.0],[-97.3806,37.7159,0.0],[-97.3806,37.7088,0.0],[-97.3842,37.7088,0.0],[-97.3897,37.7088,0.0],[-97.3941,37.7089,0.0],[-97.4011,37.709,0.0],[-97.4045,37.709,0.0],[-97.405,37.7093,0.0]]]]}},{"type":"Feature","properties":{"uesi_id":"USA_R129814","nbhd_code":"USA_R129814_32","nbhd_name":"Census Tract 94.02"},"geometry":{"type":"MultiPolygon","coordinates":[[[[-97.4628,37.6937,0.0],[-97.4576,37.6939,0.0],[-97.4498,37.694,0.0],[-97.4483,37.694,0.0],[-97.4444,37.6941,0.0],[-97.4443,37.6869,0.0],[-97.4442,37.6795,0.0],[-97.4533,37.6794,0.0],[-97.4555,37.6794,0.0],[-97.4561,37.6794,0.0],[-97.4625,37.6793,0.0],[-97.4628,37.6937,0.0]]]]}},{"type":"Feature","properties":{"uesi_id":"USA_R129814","nbhd_code":"USA_R129814_33","nbhd_name":"Census Tract 101.07"},"geometry":{"type":"MultiPolygon","coordinates":[[[[-97.2623,37.7376,0.0],[-97.2541,37.7376,0.0],[-97.2447,37.7377,0.0],[-97.2446,37.723,0.0],[-97.2536,37.723,0.0],[-97.2539,37.723,0.0],[-97.2623,37.723,0.0],[-97.2623,37.7288,0.0],[-97.2623,37.7376,0.0]]]]}},{"type":"Feature","properties":{"uesi_id":"USA_R129814","nbhd_code":"USA_R129814_34","nbhd_name":"Census Tract 101.10"},"geometry":{"type":"MultiPolygon","coordinates":[[[[-97.2623,37.7156,0.0],[-97.2262,37.7156,0.0],[-97.2262,37.7084,0.0],[-97.2447,37.7084,0.0],[-97.2623,37.7084,0.0],[-97.2623,37.7156,0.0]]]]}},{"type":"Feature","properties":{"uesi_id":"USA_R129814","nbhd_code":"USA_R129814_35","nbhd_name":"Census Tract 9"},"geometry":{"type":"MultiPolygon","coordinates":[[[[-97.3013,37.7155,0.0],[-97.299,37.7155,0.0],[-97.299,37.7228,0.0],[-97.2807,37.7229,0.0],[-97.2806,37.7156,0.0],[-97.2806,37.7154,0.0],[-97.284,37.7147,0.0],[-97.2875,37.7129,0.0],[-97.2895,37.7109,0.0],[-97.2909,37.7083,0.0],[-97.2931,37.7039,0.0],[-97.2946,37.7024,0.0],[-97.2973,37.701,0.0],[-97.2991,37.701,0.0],[-97.299,37.7046,0.0],[-97.3013,37.7046,0.0],[-97.3013,37.7082,0.0],[-97.3013,37.71,0.0],[-97.3013,37.7137,0.0],[-97.3013,37.7155,0.0]]]]}},{"type":"Feature","properties":{"uesi_id":"USA_R129814","nbhd_code":"USA_R129814_36","nbhd_name":"Census Tract 22"},"geometry":{"type":"MultiPolygon","coordinates":[[[[-97.2944,37.6864,0.0],[-97.2922,37.6865,0.0],[-97.2874,37.6865,0.0],[-97.2851,37.6865,0.0],[-97.2805,37.6865,0.0],[-97.2805,37.68,0.0],[-97.2804,37.6795,0.0],[-97.2828,37.6794,0.0],[-97.2828,37.6774,0.0],[-97.2851,37.6774,0.0],[-97.2863,37.6774,0.0],[-97.2908,37.6774,0.0],[-97.2937,37.6767,0.0],[-97.2939,37.6789,0.0],[-97.2941,37.6793,0.0],[-97.2943,37.6828,0.0],[-97.2943,37.6834,0.0],[-97.2944,37.6864,0.0]]]]}},{"type":"Feature","properties":{"uesi_id":"USA_R129814","nbhd_code":"USA_R129814_37","nbhd_name":"Census Tract 31"},"geometry":{"type":"MultiPolygon","coordinates":[[[[-97.371,37.6605,0.0],[-97.3626,37.6648,0.0],[-97.3574,37.6676,0.0],[-97.3539,37.6692,0.0],[-97.3529,37.6698,0.0],[-97.3529,37.6733,0.0],[-97.3493,37.6732,0.0],[-97.3461,37.6718,0.0],[-97.3438,37.6717,0.0],[-97.3462,37.6645,0.0],[-97.3488,37.666,0.0],[-97.3528,37.666,0.0],[-97.3527,37.6588,0.0],[-97.3573,37.6588,0.0],[-97.3613,37.6587,0.0],[-97.3625,37.6587,0.0],[-97.3676,37.6587,0.0],[-97.371,37.6587,0.0],[-97.371,37.6605,0.0]]]]}},{"type":"Feature","properties":{"uesi_id":"USA_R129814","nbhd_code":"USA_R129814_38","nbhd_name":"Census Tract 40"},"geometry":{"type":"MultiPolygon","coordinates":[[[[-97.3488,37.657,0.0],[-97.3479,37.6608,0.0],[-97.3462,37.6645,0.0],[-97.3452,37.6643,0.0],[-97.3465,37.6614,0.0],[-97.3469,37.6606,0.0],[-97.3432,37.6606,0.0],[-97.3394,37.6607,0.0],[-97.3381,37.6607,0.0],[-97.3316,37.6607,0.0],[-97.3316,37.6534,0.0],[-97.3316,37.6497,0.0],[-97.3292,37.6498,0.0],[-97.3311,37.6424,0.0],[-97.3315,37.641,0.0],[-97.3355,37.6448,0.0],[-97.3427,37.6487,0.0],[-97.3467,37.6516,0.0],[-97.3487,37.6561,0.0],[-97.3488,37.657,0.0]]]]}},{"type":"Feature","properties":{"uesi_id":"USA_R129814","nbhd_code":"USA_R129814_39","nbhd_name":"Census Tract 63"},"geometry":{"type":"MultiPolygon","coordinates":[[[[-97.2988,37.6718,0.0],[-97.2946,37.6719,0.0],[-97.2939,37.6734,0.0],[-97.2905,37.6737,0.0],[-97.2896,37.6722,0.0],[-97.2874,37.6719,0.0],[-97.2876,37.6697,0.0],[-97.2894,37.6678,0.0],[-97.2896,37.6646,0.0],[-97.2867,37.6646,0.0],[-97.2804,37.6647,0.0],[-97.2804,37.661,0.0],[-97.2804,37.6574,0.0],[-97.2839,37.6574,0.0],[-97.2942,37.6573,0.0],[-97.2988,37.6573,0.0],[-97.2988,37.6609,0.0],[-97.2988,37.6646,0.0],[-97.2988,37.6718,0.0]]]]}},{"type":"Feature","properties":{"uesi_id":"USA_R129814","nbhd_code":"USA_R129814_40","nbhd_name":"Census Tract 68"},"geometry":{"type":"MultiPolygon","coordinates":[[[[-97.2805,37.6719,0.0],[-97.2759,37.6719,0.0],[-97.2713,37.6719,0.0],[-97.2713,37.6647,0.0],[-97.2673,37.6647,0.0],[-97.2621,37.6646,0.0],[-97.2621,37.661,0.0],[-97.2621,37.6574,0.0],[-97.2713,37.6574,0.0],[-97.2723,37.6574,0.0],[-97.2804,37.6574,0.0],[-97.2804,37.661,0.0],[-97.2804,37.6647,0.0],[-97.2805,37.6719,0.0]]]]}},{"type":"Feature","properties":{"uesi_id":"USA_R129814","nbhd_code":"USA_R129814_41","nbhd_name":"Census Tract 73.01"},"geometry":{"type":"MultiPolygon","coordinates":[[[[-97.2623,37.7084,0.0],[-97.2447,37.7084,0.0],[-97.2262,37.7084,0.0],[-97.2262,37.7012,0.0],[-97.2262,37.694,0.0],[-97.2445,37.6938,0.0],[-97.2531,37.6938,0.0],[-97.2532,37.6964,0.0],[-97.2553,37.6993,0.0],[-97.2554,37.7011,0.0],[-97.2622,37.7011,0.0],[-97.2623,37.7084,0.0]]]]}},{"type":"Feature","properties":{"uesi_id":"USA_R129814","nbhd_code":"USA_R129814_42","nbhd_name":"Census Tract 90"},"geometry":{"type":"MultiPolygon","coordinates":[[[[-97.3895,37.6948,0.0],[-97.3804,37.6948,0.0],[-97.3804,37.6876,0.0],[-97.3815,37.6876,0.0],[-97.3815,37.684,0.0],[-97.3803,37.6838,0.0],[-97.3803,37.6822,0.0],[-97.3803,37.6767,0.0],[-97.3802,37.6733,0.0],[-97.3793,37.674,0.0],[-97.3767,37.674,0.0],[-97.3746,37.6731,0.0],[-97.3736,37.6731,0.0],[-97.3736,37.6694,0.0],[-97.3736,37.6659,0.0],[-97.3892,37.6658,0.0],[-97.3893,37.6736,0.0],[-97.3894,37.6767,0.0],[-97.3894,37.6839,0.0],[-97.3894,37.6875,0.0],[-97.3895,37.6948,0.0]]]]}},{"type":"Feature","properties":{"uesi_id":"USA_R129814","nbhd_code":"USA_R129814_43","nbhd_name":"Census Tract 95.06"},"geometry":{"type":"MultiPolygon","coordinates":[[[[-97.4811,37.7224,0.0],[-97.4734,37.7225,0.0],[-97.4627,37.7227,0.0],[-97.4627,37.7159,0.0],[-97.4627,37.7083,0.0],[-97.474,37.7087,0.0],[-97.4795,37.7087,0.0],[-97.4815,37.7086,0.0],[-97.4811,37.7224,0.0]]]]}},{"type":"Feature","properties":{"uesi_id":"USA_R129814","nbhd_code":"USA_R129814_44","nbhd_name":"Census Tract 95.13"},"geometry":{"type":"MultiPolygon","coordinates":[[[[-97.4446,37.7164,0.0],[-97.4445,37.723,0.0],[-97.4262,37.7232,0.0],[-97.4261,37.7169,0.0],[-97.4261,37.7163,0.0],[-97.4261,37.7088,0.0],[-97.43,37.7088,0.0],[-97.4443,37.7088,0.0],[-97.4446,37.7153,0.0],[-97.4446,37.7159,0.0],[-97.4446,37.7164,0.0]]]]}},{"type":"Feature","properties":{"uesi_id":"USA_R129814","nbhd_code":"USA_R129814_45","nbhd_name":"Census Tract 100.03"},"geometry":{"type":"MultiPolygon","coordinates":[[[[-97.2445,37.6501,0.0],[-97.2396,37.6501,0.0],[-97.2391,37.6506,0.0],[-97.2377,37.6501,0.0],[-97.2368,37.6501,0.0],[-97.2347,37.6501,0.0],[-97.2262,37.6501,0.0],[-97.2262,37.6464,0.0],[-97.2263,37.6355,0.0],[-97.2336,37.6355,0.0],[-97.2337,37.6369,0.0],[-97.2337,37.6378,0.0],[-97.2337,37.6391,0.0],[-97.2338,37.6428,0.0],[-97.2345,37.6428,0.0],[-97.2364,37.6428,0.0],[-97.2445,37.6428,0.0],[-97.2445,37.6501,0.0]]]]}},{"type":"Feature","properties":{"uesi_id":"USA_R129814","nbhd_code":"USA_R129814_46","nbhd_name":"Census Tract 101.08"},"geometry":{"type":"MultiPolygon","coordinates":[[[[-97.2447,37.7377,0.0],[-97.2359,37.7377,0.0],[-97.2351,37.7378,0.0],[-97.2285,37.7377,0.0],[-97.2263,37.7374,0.0],[-97.2263,37.7304,0.0],[-97.2263,37.723,0.0],[-97.2363,37.723,0.0],[-97.2446,37.723,0.0],[-97.2447,37.7377,0.0]]]]}},{"type":"Feature","properties":{"uesi_id":"USA_R129814","nbhd_code":"USA_R129814_47","nbhd_name":"Census Tract 105"},"geometry":{"type":"MultiPolygon","coordinates":[[[[-97.6997,37.8252,0.0],[-97.6517,37.8251,0.0],[-97.5921,37.8252,0.0],[-97.5903,37.8252,0.0],[-97.5188,37.825,0.0],[-97.5072,37.8251,0.0],[-97.5037,37.8252,0.0],[-97.4913,37.825,0.0],[-97.4819,37.8251,0.0],[-97.4816,37.7978,0.0],[-97.4809,37.7957,0.0],[-97.4814,37.7949,0.0],[-97.4815,37.7943,0.0],[-97.4814,37.7913,0.0],[-97.4814,37.7898,0.0],[-97.4814,37.7889,0.0],[-97.4813,37.7879,0.0],[-97.4813,37.7859,0.0],[-97.4812,37.7804,0.0],[-97.4811,37.7786,0.0],[-97.481,37.7763,0.0],[-97.481,37.773,0.0],[-97.4809,37.7693,0.0],[-97.4808,37.7577,0.0],[-97.4808,37.7514,0.0],[-97.4808,37.7478,0.0],[-97.4809,37.7442,0.0],[-97.481,37.7369,0.0],[-97.4857,37.7368,0.0],[-97.4901,37.7367,0.0],[-97.4991,37.7366,0.0],[-97.5355,37.7361,0.0],[-97.5895,37.7357,0.0],[-97.6987,37.7351,0.0],[-97.6994,37.808,0.0],[-97.6997,37.8252,0.0]]]]}},{"type":"Feature","properties":{"uesi_id":"USA_R129814","nbhd_code":"USA_R129814_48","nbhd_name":"Census Tract 19"},"geometry":{"type":"MultiPolygon","coordinates":[[[[-97.3078,37.6936,0.0],[-97.3059,37.6937,0.0],[-97.3016,37.6937,0.0],[-97.299,37.6937,0.0],[-97.2935,37.6937,0.0],[-97.2932,37.6883,0.0],[-97.2922,37.6865,0.0],[-97.2944,37.6864,0.0],[-97.299,37.6863,0.0],[-97.3012,37.6863,0.0],[-97.3078,37.6862,0.0],[-97.3078,37.69,0.0],[-97.3078,37.6936,0.0]]]]}},{"type":"Feature","properties":{"uesi_id":"USA_R129814","nbhd_code":"USA_R129814_49","nbhd_name":"Census Tract 71.02"},"geometry":{"type":"MultiPolygon","coordinates":[[[[-97.2502,37.6647,0.0],[-97.2464,37.6683,0.0],[-97.2444,37.6694,0.0],[-97.235,37.6739,0.0],[-97.2312,37.6749,0.0],[-97.2261,37.6751,0.0],[-97.2261,37.6719,0.0],[-97.2261,37.6691,0.0],[-97.2262,37.6647,0.0],[-97.233,37.6646,0.0],[-97.2367,37.6647,0.0],[-97.2489,37.6647,0.0],[-97.2502,37.6647,0.0]]]]}},{"type":"Feature","properties":{"uesi_id":"USA_R129814","nbhd_code":"USA_R129814_50","nbhd_name":"Census Tract 93.02"},"geometry":{"type":"MultiPolygon","coordinates":[[[[-97.4444,37.6941,0.0],[-97.4262,37.6944,0.0],[-97.4228,37.6944,0.0],[-97.4158,37.6946,0.0],[-97.4134,37.6883,0.0],[-97.4125,37.6871,0.0],[-97.4064,37.6802,0.0],[-97.4083,37.68,0.0],[-97.4124,37.68,0.0],[-97.4226,37.6799,0.0],[-97.426,37.6799,0.0],[-97.4442,37.6795,0.0],[-97.4443,37.6869,0.0],[-97.4444,37.6941,0.0]]]]}},{"type":"Feature","properties":{"uesi_id":"USA_R129814","nbhd_code":"USA_R129814_51","nbhd_name":"Census Tract 32"},"geometry":{"type":"MultiPolygon","coordinates":[[[[-97.3465,37.6614,0.0],[-97.3452,37.6643,0.0],[-97.3462,37.6645,0.0],[-97.3438,37.6717,0.0],[-97.3394,37.6716,0.0],[-97.3368,37.6716,0.0],[-97.3316,37.6717,0.0],[-97.3316,37.6698,0.0],[-97.3316,37.6644,0.0],[-97.3316,37.6607,0.0],[-97.3381,37.6607,0.0],[-97.3394,37.6607,0.0],[-97.3432,37.6606,0.0],[-97.3469,37.6606,0.0],[-97.3465,37.6614,0.0]]]]}},{"type":"Feature","properties":{"uesi_id":"USA_R129814","nbhd_code":"USA_R129814_52","nbhd_name":"Census Tract 1"},"geometry":{"type":"MultiPolygon","coordinates":[[[[-97.3539,37.7262,0.0],[-97.3494,37.7262,0.0],[-97.3494,37.7298,0.0],[-97.346,37.7298,0.0],[-97.3448,37.7298,0.0],[-97.3448,37.7335,0.0],[-97.337,37.7335,0.0],[-97.3371,37.7355,0.0],[-97.3359,37.7355,0.0],[-97.3359,37.7299,0.0],[-97.3359,37.7244,0.0],[-97.3356,37.7226,0.0],[-97.3413,37.7226,0.0],[-97.346,37.7226,0.0],[-97.3493,37.7226,0.0],[-97.3493,37.7218,0.0],[-97.3511,37.7229,0.0],[-97.3521,37.723,0.0],[-97.3532,37.7223,0.0],[-97.3539,37.722,0.0],[-97.3539,37.7262,0.0]]]]}},{"type":"Feature","properties":{"uesi_id":"USA_R129814","nbhd_code":"USA_R129814_53","nbhd_name":"Census Tract 36"},"geometry":{"type":"MultiPolygon","coordinates":[[[[-97.2942,37.6766,0.0],[-97.2937,37.6767,0.0],[-97.2908,37.6774,0.0],[-97.2863,37.6774,0.0],[-97.2851,37.6774,0.0],[-97.2828,37.6774,0.0],[-97.2828,37.6794,0.0],[-97.2804,37.6795,0.0],[-97.2713,37.6795,0.0],[-97.2713,37.6756,0.0],[-97.2713,37.6719,0.0],[-97.2759,37.6719,0.0],[-97.2805,37.6719,0.0],[-97.2837,37.6719,0.0],[-97.2862,37.6719,0.0],[-97.2874,37.6719,0.0],[-97.2896,37.6722,0.0],[-97.2905,37.6737,0.0],[-97.2939,37.6734,0.0],[-97.2942,37.6766,0.0]]]]}},{"type":"Feature","properties":{"uesi_id":"USA_R129814","nbhd_code":"USA_R129814_54","nbhd_name":"Census Tract 56"},"geometry":{"type":"MultiPolygon","coordinates":[[[[-97.3523,37.5935,0.0],[-97.3439,37.5935,0.0],[-97.3341,37.5935,0.0],[-97.3268,37.5936,0.0],[-97.3242,37.5936,0.0],[-97.3242,37.5993,0.0],[-97.3228,37.6016,0.0],[-97.3209,37.6029,0.0],[-97.3158,37.6039,0.0],[-97.3125,37.6054,0.0],[-97.3108,37.608,0.0],[-97.3097,37.6079,0.0],[-97.3083,37.6076,0.0],[-97.3066,37.6071,0.0],[-97.3076,37.6028,0.0],[-97.3074,37.6017,0.0],[-97.3031,37.5906,0.0],[-97.3028,37.5864,0.0],[-97.303,37.5839,0.0],[-97.3042,37.5803,0.0],[-97.3044,37.5791,0.0],[-97.3037,37.577,0.0],[-97.2939,37.571,0.0],[-97.2881,37.5693,0.0],[-97.2871,37.568,0.0],[-97.288,37.5645,0.0],[-97.2896,37.5645,0.0],[-97.2896,37.5646,0.0],[-97.291,37.5644,0.0],[-97.304,37.5644,0.0],[-97.3106,37.5644,0.0],[-97.3174,37.5644,0.0],[-97.3259,37.5644,0.0],[-97.3259,37.5711,0.0],[-97.3259,37.5735,0.0],[-97.3259,37.5788,0.0],[-97.334,37.579,0.0],[-97.3474,37.5789,0.0],[-97.3523,37.5789,0.0],[-97.3523,37.5935,0.0]]]]}},{"type":"Feature","properties":{"uesi_id":"USA_R129814","nbhd_code":"USA_R129814_55","nbhd_name":"Census Tract 81"},"geometry":{"type":"MultiPolygon","coordinates":[[[[-97.3745,37.7615,0.0],[-97.3718,37.7616,0.0],[-97.3718,37.7669,0.0],[-97.3718,37.7686,0.0],[-97.3735,37.7686,0.0],[-97.3741,37.7689,0.0],[-97.3742,37.7693,0.0],[-97.3742,37.7724,0.0],[-97.3719,37.7725,0.0],[-97.3719,37.7778,0.0],[-97.3719,37.7796,0.0],[-97.3719,37.7814,0.0],[-97.3719,37.7893,0.0],[-97.3719,37.7923,0.0],[-97.3719,37.7981,0.0],[-97.3719,37.7989,0.0],[-97.372,37.807,0.0],[-97.372,37.8105,0.0],[-97.3636,37.8105,0.0],[-97.3624,37.8105,0.0],[-97.3543,37.8105,0.0],[-97.3534,37.8105,0.0],[-97.3525,37.8105,0.0],[-97.3452,37.8105,0.0],[-97.3359,37.8105,0.0],[-97.3359,37.8068,0.0],[-97.3359,37.803,0.0],[-97.3358,37.7814,0.0],[-97.3243,37.7813,0.0],[-97.3213,37.7814,0.0],[-97.3174,37.7813,0.0],[-97.3174,37.7751,0.0],[-97.3174,37.7741,0.0],[-97.3174,37.7668,0.0],[-97.3174,37.7648,0.0],[-97.3174,37.7632,0.0],[-97.3175,37.7576,0.0],[-97.3174,37.7434,0.0],[-97.3173,37.7408,0.0],[-97.3186,37.7386,0.0],[-97.3175,37.736,0.0],[-97.3168,37.7328,0.0],[-97.3173,37.7286,0.0],[-97.3179,37.7256,0.0],[-97.3188,37.7227,0.0],[-97.3246,37.7227,0.0],[-97.3282,37.7226,0.0],[-97.3321,37.7175,0.0],[-97.3344,37.7208,0.0],[-97.3343,37.7226,0.0],[-97.3356,37.7226,0.0],[-97.3359,37.7244,0.0],[-97.3359,37.7299,0.0],[-97.3359,37.7355,0.0],[-97.3359,37.7375,0.0],[-97.336,37.7533,0.0],[-97.3405,37.7531,0.0],[-97.3428,37.752,0.0],[-97.3449,37.7524,0.0],[-97.3483,37.753,0.0],[-97.3501,37.7542,0.0],[-97.3482,37.7549,0.0],[-97.346,37.7565,0.0],[-97.3541,37.757,0.0],[-97.3688,37.7577,0.0],[-97.371,37.7573,0.0],[-97.3716,37.7596,0.0],[-97.3745,37.7595,0.0],[-97.3745,37.7615,0.0]]]]}},{"type":"Feature","properties":{"uesi_id":"USA_R129814","nbhd_code":"USA_R129814_56","nbhd_name":"Census Tract 95.12"},"geometry":{"type":"MultiPolygon","coordinates":[[[[-97.4807,37.6935,0.0],[-97.476,37.6936,0.0],[-97.4695,37.6937,0.0],[-97.4667,37.6937,0.0],[-97.4628,37.6937,0.0],[-97.4625,37.6793,0.0],[-97.4699,37.6791,0.0],[-97.4769,37.679,0.0],[-97.4807,37.679,0.0],[-97.4807,37.6935,0.0]]]]}},{"type":"Feature","properties":{"uesi_id":"USA_R129814","nbhd_code":"USA_R129814_57","nbhd_name":"Census Tract 100.05"},"geometry":{"type":"MultiPolygon","coordinates":[[[[-97.304,37.5791,0.0],[-97.294,37.5791,0.0],[-97.2904,37.5786,0.0],[-97.2825,37.577,0.0],[-97.2801,37.577,0.0],[-97.2798,37.577,0.0],[-97.2711,37.577,0.0],[-97.262,37.577,0.0],[-97.262,37.5762,0.0],[-97.2607,37.574,0.0],[-97.2614,37.5702,0.0],[-97.2619,37.5689,0.0],[-97.262,37.566,0.0],[-97.2621,37.5625,0.0],[-97.2713,37.5625,0.0],[-97.2759,37.5625,0.0],[-97.2768,37.5625,0.0],[-97.2803,37.5625,0.0],[-97.2805,37.5625,0.0],[-97.288,37.5626,0.0],[-97.288,37.5645,0.0],[-97.2871,37.568,0.0],[-97.2881,37.5693,0.0],[-97.2939,37.571,0.0],[-97.3037,37.577,0.0],[-97.3044,37.5791,0.0],[-97.304,37.5791,0.0]]]]}},{"type":"Feature","properties":{"uesi_id":"USA_R129814","nbhd_code":"USA_R129814_58","nbhd_name":"Census Tract 15"},"geometry":{"type":"MultiPolygon","coordinates":[[[[-97.3804,37.6948,0.0],[-97.3793,37.6949,0.0],[-97.3759,37.6949,0.0],[-97.3725,37.6949,0.0],[-97.3709,37.6949,0.0],[-97.3702,37.6947,0.0],[-97.3693,37.6951,0.0],[-97.3669,37.6934,0.0],[-97.3653,37.6928,0.0],[-97.3579,37.6924,0.0],[-97.3531,37.6913,0.0],[-97.3531,37.6911,0.0],[-97.3531,37.6907,0.0],[-97.353,37.684,0.0],[-97.3576,37.684,0.0],[-97.3576,37.6878,0.0],[-97.3615,37.6877,0.0],[-97.3641,37.6877,0.0],[-97.3712,37.6877,0.0],[-97.3725,37.6876,0.0],[-97.3804,37.6876,0.0],[-97.3804,37.6948,0.0]]]]}},{"type":"Feature","properties":{"uesi_id":"USA_R129814","nbhd_code":"USA_R129814_59","nbhd_name":"Census Tract 101.13"},"geometry":{"type":"MultiPolygon","coordinates":[[[[-97.372,37.825,0.0],[-97.3635,37.825,0.0],[-97.3585,37.825,0.0],[-97.3583,37.825,0.0],[-97.3537,37.825,0.0],[-97.3498,37.825,0.0],[-97.3414,37.825,0.0],[-97.3406,37.825,0.0],[-97.3375,37.825,0.0],[-97.336,37.825,0.0],[-97.3359,37.825,0.0],[-97.3175,37.825,0.0],[-97.3166,37.825,0.0],[-97.3084,37.825,0.0],[-97.3079,37.825,0.0],[-97.3034,37.825,0.0],[-97.2988,37.825,0.0],[-97.2932,37.825,0.0],[-97.2902,37.825,0.0],[-97.2896,37.825,0.0],[-97.2627,37.825,0.0],[-97.2627,37.8104,0.0],[-97.2626,37.8,0.0],[-97.2626,37.7983,0.0],[-97.2626,37.7981,0.0],[-97.2626,37.7929,0.0],[-97.2626,37.7886,0.0],[-97.2625,37.7814,0.0],[-97.2688,37.7814,0.0],[-97.2717,37.7814,0.0],[-97.2751,37.7813,0.0],[-97.2767,37.7813,0.0],[-97.2808,37.7813,0.0],[-97.2808,37.7713,0.0],[-97.2806,37.7523,0.0],[-97.2737,37.7522,0.0],[-97.2806,37.7493,0.0],[-97.2946,37.7435,0.0],[-97.299,37.7417,0.0],[-97.3154,37.7371,0.0],[-97.3175,37.736,0.0],[-97.3186,37.7386,0.0],[-97.3173,37.7408,0.0],[-97.3174,37.7434,0.0],[-97.3175,37.7576,0.0],[-97.3174,37.7632,0.0],[-97.3174,37.7648,0.0],[-97.3174,37.7668,0.0],[-97.3174,37.7741,0.0],[-97.3174,37.7751,0.0],[-97.3174,37.7813,0.0],[-97.3174,37.785,0.0],[-97.3174,37.7886,0.0],[-97.3174,37.7957,0.0],[-97.3174,37.7959,0.0],[-97.3037,37.7959,0.0],[-97.3026,37.7959,0.0],[-97.2992,37.7959,0.0],[-97.2993,37.8032,0.0],[-97.2993,37.8105,0.0],[-97.3174,37.8105,0.0],[-97.3249,37.8105,0.0],[-97.3266,37.8105,0.0],[-97.327,37.8105,0.0],[-97.3313,37.8105,0.0],[-97.3331,37.8105,0.0],[-97.3333,37.8105,0.0],[-97.3359,37.8105,0.0],[-97.3452,37.8105,0.0],[-97.3525,37.8105,0.0],[-97.3534,37.8105,0.0],[-97.3543,37.8105,0.0],[-97.3624,37.8105,0.0],[-97.3636,37.8105,0.0],[-97.372,37.8105,0.0],[-97.372,37.825,0.0]]]]}},{"type":"Feature","properties":{"uesi_id":"USA_R129814","nbhd_code":"USA_R129814_60","nbhd_name":"Census Tract 88"},"geometry":{"type":"MultiPolygon","coordinates":[[[[-97.4131,37.7022,0.0],[-97.4078,37.7066,0.0],[-97.4072,37.7073,0.0],[-97.405,37.7093,0.0],[-97.4045,37.709,0.0],[-97.4011,37.709,0.0],[-97.3941,37.7089,0.0],[-97.3897,37.7047,0.0],[-97.3865,37.7016,0.0],[-97.3801,37.6955,0.0],[-97.3793,37.6949,0.0],[-97.3804,37.6948,0.0],[-97.3895,37.6948,0.0],[-97.396,37.6947,0.0],[-97.4047,37.6946,0.0],[-97.4049,37.6946,0.0],[-97.4093,37.6946,0.0],[-97.4143,37.6945,0.0],[-97.4131,37.7022,0.0]]]]}},{"type":"Feature","properties":{"uesi_id":"USA_R129814","nbhd_code":"USA_R129814_61","nbhd_name":"Census Tract 4"},"geometry":{"type":"MultiPolygon","coordinates":[[[[-97.3386,37.7117,0.0],[-97.3356,37.7117,0.0],[-97.3356,37.7131,0.0],[-97.3356,37.7153,0.0],[-97.3356,37.7171,0.0],[-97.3356,37.719,0.0],[-97.3356,37.7226,0.0],[-97.3343,37.7226,0.0],[-97.3344,37.7208,0.0],[-97.3321,37.7175,0.0],[-97.3282,37.7226,0.0],[-97.3246,37.7227,0.0],[-97.3224,37.7159,0.0],[-97.3199,37.7081,0.0],[-97.3176,37.7005,0.0],[-97.3154,37.6936,0.0],[-97.3173,37.6936,0.0],[-97.3265,37.6935,0.0],[-97.3266,37.6976,0.0],[-97.3289,37.6976,0.0],[-97.3304,37.6976,0.0],[-97.333,37.6976,0.0],[-97.3369,37.6975,0.0],[-97.3369,37.7044,0.0],[-97.3369,37.708,0.0],[-97.3386,37.708,0.0],[-97.3386,37.7117,0.0]]]]}},{"type":"Feature","properties":{"uesi_id":"USA_R129814","nbhd_code":"USA_R129814_62","nbhd_name":"Census Tract 52"},"geometry":{"type":"MultiPolygon","coordinates":[[[[-97.371,37.6587,0.0],[-97.3676,37.6587,0.0],[-97.3625,37.6587,0.0],[-97.3613,37.6587,0.0],[-97.3573,37.6588,0.0],[-97.3527,37.6588,0.0],[-97.3527,37.6552,0.0],[-97.3527,37.6516,0.0],[-97.3613,37.6514,0.0],[-97.3618,37.6514,0.0],[-97.3618,37.6451,0.0],[-97.3617,37.6442,0.0],[-97.3708,37.6441,0.0],[-97.3708,37.6442,0.0],[-97.3709,37.6514,0.0],[-97.371,37.6587,0.0]]]]}},{"type":"Feature","properties":{"uesi_id":"USA_R129814","nbhd_code":"USA_R129814_63","nbhd_name":"Census Tract 84"},"geometry":{"type":"MultiPolygon","coordinates":[[[[-97.3831,37.7293,0.0],[-97.3816,37.7307,0.0],[-97.3805,37.7315,0.0],[-97.3778,37.7303,0.0],[-97.3731,37.7302,0.0],[-97.3696,37.7301,0.0],[-97.3664,37.7301,0.0],[-97.3601,37.73,0.0],[-97.3589,37.7264,0.0],[-97.3582,37.7221,0.0],[-97.3572,37.7215,0.0],[-97.3579,37.7215,0.0],[-97.3577,37.717,0.0],[-97.3618,37.717,0.0],[-97.3626,37.7162,0.0],[-97.3631,37.7168,0.0],[-97.3678,37.7197,0.0],[-97.3716,37.72,0.0],[-97.3771,37.7198,0.0],[-97.3807,37.721,0.0],[-97.3865,37.7257,0.0],[-97.3831,37.7293,0.0]]]]}},{"type":"Feature","properties":{"uesi_id":"USA_R129814","nbhd_code":"USA_R129814_64","nbhd_name":"Census Tract 95.05"},"geometry":{"type":"MultiPolygon","coordinates":[[[[-97.4815,37.7086,0.0],[-97.4795,37.7087,0.0],[-97.474,37.7087,0.0],[-97.4627,37.7083,0.0],[-97.4624,37.7017,0.0],[-97.4628,37.6937,0.0],[-97.4667,37.6937,0.0],[-97.4695,37.6937,0.0],[-97.476,37.6936,0.0],[-97.4807,37.6935,0.0],[-97.4807,37.7007,0.0],[-97.4807,37.7015,0.0],[-97.4808,37.7022,0.0],[-97.4815,37.7086,0.0]]]]}},{"type":"Feature","properties":{"uesi_id":"USA_R129814","nbhd_code":"USA_R129814_65","nbhd_name":"Census Tract 100.02"},"geometry":{"type":"MultiPolygon","coordinates":[[[[-97.1898,37.6795,0.0],[-97.1895,37.6805,0.0],[-97.1896,37.685,0.0],[-97.1896,37.6866,0.0],[-97.1895,37.6866,0.0],[-97.1896,37.6902,0.0],[-97.1896,37.6903,0.0],[-97.1896,37.6949,0.0],[-97.1896,37.6967,0.0],[-97.1896,37.7085,0.0],[-97.1805,37.7086,0.0],[-97.1799,37.7086,0.0],[-97.1798,37.7086,0.0],[-97.1759,37.7086,0.0],[-97.1713,37.7086,0.0],[-97.1713,37.6923,0.0],[-97.1713,37.6917,0.0],[-97.1713,37.6867,0.0],[-97.1713,37.6795,0.0],[-97.1713,37.6793,0.0],[-97.1713,37.6792,0.0],[-97.1713,37.6722,0.0],[-97.1713,37.6649,0.0],[-97.1713,37.6616,0.0],[-97.1713,37.6576,0.0],[-97.1713,37.6533,0.0],[-97.1712,37.6526,0.0],[-97.1712,37.6503,0.0],[-97.176,37.6502,0.0],[-97.1895,37.6501,0.0],[-97.1895,37.6538,0.0],[-97.1895,37.6556,0.0],[-97.1895,37.6648,0.0],[-97.1895,37.6791,0.0],[-97.1895,37.6793,0.0],[-97.1895,37.6794,0.0],[-97.1898,37.6794,0.0],[-97.1898,37.6795,0.0]]]]}},{"type":"Feature","properties":{"uesi_id":"USA_R129814","nbhd_code":"USA_R129814_66","nbhd_name":"Census Tract 23"},"geometry":{"type":"MultiPolygon","coordinates":[[[[-97.313,37.6862,0.0],[-97.3078,37.6862,0.0],[-97.3012,37.6863,0.0],[-97.299,37.6863,0.0],[-97.2944,37.6864,0.0],[-97.2943,37.6834,0.0],[-97.2943,37.6828,0.0],[-97.2941,37.6793,0.0],[-97.2989,37.6793,0.0],[-97.3029,37.6793,0.0],[-97.3078,37.6792,0.0],[-97.3082,37.6793,0.0],[-97.3126,37.6791,0.0],[-97.3126,37.6845,0.0],[-97.313,37.6862,0.0]]]]}},{"type":"Feature","properties":{"uesi_id":"USA_R129814","nbhd_code":"USA_R129814_67","nbhd_name":"Census Tract 35"},"geometry":{"type":"MultiPolygon","coordinates":[[[[-97.3126,37.6791,0.0],[-97.3082,37.6793,0.0],[-97.3078,37.6792,0.0],[-97.3029,37.6793,0.0],[-97.2989,37.6793,0.0],[-97.2941,37.6793,0.0],[-97.2939,37.6789,0.0],[-97.2937,37.6767,0.0],[-97.2942,37.6766,0.0],[-97.2939,37.6734,0.0],[-97.2946,37.6719,0.0],[-97.2988,37.6718,0.0],[-97.3025,37.6718,0.0],[-97.31,37.6718,0.0],[-97.3125,37.6718,0.0],[-97.3126,37.6789,0.0],[-97.3126,37.6791,0.0]]]]}},{"type":"Feature","properties":{"uesi_id":"USA_R129814","nbhd_code":"USA_R129814_68","nbhd_name":"Census Tract 54"},"geometry":{"type":"MultiPolygon","coordinates":[[[[-97.4036,37.6369,0.0],[-97.4035,37.6375,0.0],[-97.4035,37.6443,0.0],[-97.3989,37.6467,0.0],[-97.3989,37.6465,0.0],[-97.3969,37.6428,0.0],[-97.3948,37.637,0.0],[-97.3938,37.6346,0.0],[-97.3928,37.6335,0.0],[-97.3901,37.6312,0.0],[-97.3892,37.6307,0.0],[-97.3871,37.6302,0.0],[-97.3831,37.629,0.0],[-97.3749,37.6285,0.0],[-97.3707,37.6284,0.0],[-97.3707,37.6286,0.0],[-97.3672,37.6283,0.0],[-97.3525,37.6278,0.0],[-97.3524,37.6225,0.0],[-97.3523,37.6172,0.0],[-97.3523,37.6152,0.0],[-97.3523,37.6116,0.0],[-97.3523,37.6079,0.0],[-97.3523,37.5991,0.0],[-97.3523,37.5962,0.0],[-97.3523,37.5935,0.0],[-97.3523,37.5789,0.0],[-97.3523,37.5749,0.0],[-97.3523,37.5738,0.0],[-97.3594,37.5739,0.0],[-97.3641,37.5754,0.0],[-97.3661,37.5765,0.0],[-97.3687,37.5788,0.0],[-97.3705,37.5804,0.0],[-97.3829,37.5933,0.0],[-97.3899,37.6006,0.0],[-97.3959,37.6084,0.0],[-97.399,37.6143,0.0],[-97.4023,37.6223,0.0],[-97.4019,37.6236,0.0],[-97.4033,37.6266,0.0],[-97.403,37.629,0.0],[-97.4037,37.6341,0.0],[-97.4036,37.6369,0.0]]]]}},{"type":"Feature","properties":{"uesi_id":"USA_R129814","nbhd_code":"USA_R129814_69","nbhd_name":"Census Tract 71.01"},"geometry":{"type":"MultiPolygon","coordinates":[[[[-97.2536,37.6791,0.0],[-97.2536,37.6795,0.0],[-97.2511,37.6795,0.0],[-97.2372,37.6794,0.0],[-97.2306,37.6793,0.0],[-97.2261,37.6793,0.0],[-97.2261,37.6751,0.0],[-97.2312,37.6749,0.0],[-97.235,37.6739,0.0],[-97.2444,37.6694,0.0],[-97.2444,37.6695,0.0],[-97.2444,37.672,0.0],[-97.2535,37.672,0.0],[-97.2536,37.672,0.0],[-97.2536,37.6791,0.0]]]]}},{"type":"Feature","properties":{"uesi_id":"USA_R129814","nbhd_code":"USA_R129814_70","nbhd_name":"Census Tract 82"},"geometry":{"type":"MultiPolygon","coordinates":[[[[-97.361,37.7493,0.0],[-97.3501,37.7542,0.0],[-97.3483,37.753,0.0],[-97.3449,37.7524,0.0],[-97.3428,37.752,0.0],[-97.3405,37.7531,0.0],[-97.336,37.7533,0.0],[-97.3359,37.7375,0.0],[-97.3359,37.7355,0.0],[-97.3371,37.7355,0.0],[-97.337,37.7335,0.0],[-97.3448,37.7335,0.0],[-97.3448,37.7298,0.0],[-97.346,37.7298,0.0],[-97.3494,37.7298,0.0],[-97.3494,37.7262,0.0],[-97.3539,37.7262,0.0],[-97.3539,37.722,0.0],[-97.3553,37.7219,0.0],[-97.3572,37.7215,0.0],[-97.3582,37.7221,0.0],[-97.3589,37.7264,0.0],[-97.3601,37.73,0.0],[-97.3595,37.7327,0.0],[-97.3554,37.7329,0.0],[-97.3534,37.7343,0.0],[-97.3541,37.7359,0.0],[-97.357,37.7375,0.0],[-97.3584,37.7392,0.0],[-97.357,37.7419,0.0],[-97.3529,37.7452,0.0],[-97.3534,37.7473,0.0],[-97.3567,37.747,0.0],[-97.3592,37.7475,0.0],[-97.361,37.7493,0.0]]]]}},{"type":"Feature","properties":{"uesi_id":"USA_R129814","nbhd_code":"USA_R129814_71","nbhd_name":"Census Tract 96.05"},"geometry":{"type":"MultiPolygon","coordinates":[[[[-97.5892,37.6496,0.0],[-97.5811,37.6496,0.0],[-97.5713,37.6496,0.0],[-97.5655,37.6496,0.0],[-97.5645,37.6496,0.0],[-97.5615,37.6496,0.0],[-97.553,37.6497,0.0],[-97.5348,37.6499,0.0],[-97.4985,37.6499,0.0],[-97.4935,37.6499,0.0],[-97.4832,37.65,0.0],[-97.4809,37.65,0.0],[-97.4759,37.6501,0.0],[-97.471,37.6502,0.0],[-97.4636,37.6503,0.0],[-97.4619,37.6503,0.0],[-97.4524,37.6505,0.0],[-97.452,37.6462,0.0],[-97.4491,37.6441,0.0],[-97.4458,37.6447,0.0],[-97.4463,37.6431,0.0],[-97.4458,37.6417,0.0],[-97.4487,37.6375,0.0],[-97.4505,37.6359,0.0],[-97.4526,37.6352,0.0],[-97.4542,37.6345,0.0],[-97.4556,37.6329,0.0],[-97.4559,37.6322,0.0],[-97.4558,37.6303,0.0],[-97.4551,37.6288,0.0],[-97.4525,37.6295,0.0],[-97.4258,37.6357,0.0],[-97.4258,37.6352,0.0],[-97.4257,37.6293,0.0],[-97.4256,37.628,0.0],[-97.4256,37.6257,0.0],[-97.4259,37.6078,0.0],[-97.4073,37.6077,0.0],[-97.3982,37.6078,0.0],[-97.397,37.6072,0.0],[-97.3959,37.6084,0.0],[-97.3899,37.6006,0.0],[-97.3829,37.5933,0.0],[-97.3705,37.5804,0.0],[-97.3705,37.5788,0.0],[-97.3705,37.5679,0.0],[-97.3705,37.5669,0.0],[-97.3704,37.5643,0.0],[-97.3796,37.5642,0.0],[-97.3977,37.5641,0.0],[-97.4798,37.5629,0.0],[-97.4794,37.5484,0.0],[-97.5001,37.5481,0.0],[-97.5013,37.5481,0.0],[-97.5148,37.5481,0.0],[-97.5146,37.5187,0.0],[-97.5153,37.5046,0.0],[-97.5151,37.4993,0.0],[-97.5151,37.4973,0.0],[-97.5151,37.4957,0.0],[-97.5152,37.4954,0.0],[-97.515,37.4953,0.0],[-97.515,37.4949,0.0],[-97.5147,37.4756,0.0],[-97.531,37.4755,0.0],[-97.532,37.4754,0.0],[-97.5329,37.4755,0.0],[-97.5878,37.4752,0.0],[-97.5879,37.4773,0.0],[-97.5879,37.4956,0.0],[-97.5879,37.4973,0.0],[-97.5884,37.5624,0.0],[-97.5884,37.5695,0.0],[-97.5884,37.5696,0.0],[-97.5892,37.6496,0.0]]]]}},{"type":"Feature","properties":{"uesi_id":"USA_R129814","nbhd_code":"USA_R129814_72","nbhd_name":"Census Tract 101.06"},"geometry":{"type":"MultiPolygon","coordinates":[[[[-97.2624,37.7569,0.0],[-97.2538,37.7604,0.0],[-97.2483,37.7627,0.0],[-97.2447,37.7643,0.0],[-97.2387,37.7668,0.0],[-97.2359,37.7681,0.0],[-97.2356,37.7685,0.0],[-97.2356,37.7683,0.0],[-97.2265,37.7726,0.0],[-97.2264,37.7705,0.0],[-97.2265,37.7705,0.0],[-97.2265,37.7668,0.0],[-97.2264,37.7523,0.0],[-97.233,37.7524,0.0],[-97.2359,37.7523,0.0],[-97.2624,37.7522,0.0],[-97.2624,37.7569,0.0]]]]}},{"type":"Feature","properties":{"uesi_id":"USA_R129814","nbhd_code":"USA_R129814_73","nbhd_name":"Census Tract 103"},"geometry":{"type":"MultiPolygon","coordinates":[[[[-97.4819,37.8251,0.0],[-97.4663,37.8248,0.0],[-97.4269,37.825,0.0],[-97.4137,37.8249,0.0],[-97.4064,37.825,0.0],[-97.4047,37.825,0.0],[-97.3995,37.825,0.0],[-97.396,37.825,0.0],[-97.3903,37.825,0.0],[-97.3812,37.825,0.0],[-97.372,37.825,0.0],[-97.372,37.8105,0.0],[-97.372,37.807,0.0],[-97.3719,37.7989,0.0],[-97.3719,37.7981,0.0],[-97.3719,37.7923,0.0],[-97.3719,37.7893,0.0],[-97.3719,37.7814,0.0],[-97.3719,37.7796,0.0],[-97.3719,37.7778,0.0],[-97.3719,37.7725,0.0],[-97.3742,37.7724,0.0],[-97.3742,37.7693,0.0],[-97.3741,37.7689,0.0],[-97.3735,37.7686,0.0],[-97.3718,37.7686,0.0],[-97.3718,37.7669,0.0],[-97.3718,37.7616,0.0],[-97.3745,37.7615,0.0],[-97.3745,37.7595,0.0],[-97.3716,37.7596,0.0],[-97.371,37.7573,0.0],[-97.3724,37.7566,0.0],[-97.3739,37.7553,0.0],[-97.3749,37.7533,0.0],[-97.3749,37.7407,0.0],[-97.3749,37.7401,0.0],[-97.3749,37.7378,0.0],[-97.3755,37.7378,0.0],[-97.3755,37.7376,0.0],[-97.3823,37.7377,0.0],[-97.3989,37.7378,0.0],[-97.408,37.7378,0.0],[-97.412,37.7378,0.0],[-97.4171,37.7378,0.0],[-97.4262,37.7377,0.0],[-97.4354,37.7376,0.0],[-97.4374,37.7376,0.0],[-97.4445,37.7375,0.0],[-97.4534,37.7374,0.0],[-97.4626,37.7372,0.0],[-97.4638,37.7372,0.0],[-97.481,37.7369,0.0],[-97.4809,37.7442,0.0],[-97.4808,37.7478,0.0],[-97.4808,37.7514,0.0],[-97.4808,37.7577,0.0],[-97.4809,37.7693,0.0],[-97.481,37.773,0.0],[-97.481,37.7763,0.0],[-97.4811,37.7786,0.0],[-97.4812,37.7804,0.0],[-97.4813,37.7859,0.0],[-97.4813,37.7879,0.0],[-97.4814,37.7889,0.0],[-97.4814,37.7898,0.0],[-97.4814,37.7913,0.0],[-97.4815,37.7943,0.0],[-97.4814,37.7949,0.0],[-97.4809,37.7957,0.0],[-97.4816,37.7978,0.0],[-97.4819,37.8251,0.0]]]]}},{"type":"Feature","properties":{"uesi_id":"USA_R129814","nbhd_code":"USA_R129814_74","nbhd_name":"Census Tract 60"},"geometry":{"type":"MultiPolygon","coordinates":[[[[-97.3355,37.6448,0.0],[-97.3315,37.641,0.0],[-97.3311,37.6424,0.0],[-97.3264,37.6423,0.0],[-97.3264,37.6459,0.0],[-97.325,37.6459,0.0],[-97.3223,37.6459,0.0],[-97.3193,37.646,0.0],[-97.3171,37.646,0.0],[-97.3164,37.6499,0.0],[-97.3156,37.6499,0.0],[-97.3123,37.6445,0.0],[-97.3106,37.6427,0.0],[-97.3115,37.6423,0.0],[-97.3171,37.6423,0.0],[-97.3171,37.6365,0.0],[-97.3171,37.6307,0.0],[-97.3159,37.6246,0.0],[-97.3158,37.6227,0.0],[-97.3285,37.6226,0.0],[-97.3298,37.6179,0.0],[-97.3319,37.617,0.0],[-97.3341,37.6174,0.0],[-97.3342,37.6272,0.0],[-97.3338,37.6292,0.0],[-97.3346,37.6314,0.0],[-97.3344,37.6343,0.0],[-97.3344,37.6372,0.0],[-97.3355,37.6424,0.0],[-97.3355,37.6448,0.0]]]]}},{"type":"Feature","properties":{"uesi_id":"USA_R129814","nbhd_code":"USA_R129814_75","nbhd_name":"Census Tract 65"},"geometry":{"type":"MultiPolygon","coordinates":[[[[-97.2988,37.6406,0.0],[-97.2988,37.6419,0.0],[-97.2987,37.65,0.0],[-97.2931,37.65,0.0],[-97.2888,37.6501,0.0],[-97.2852,37.6472,0.0],[-97.2845,37.6465,0.0],[-97.2838,37.6457,0.0],[-97.2805,37.6434,0.0],[-97.2805,37.6432,0.0],[-97.2827,37.6409,0.0],[-97.2862,37.6351,0.0],[-97.2933,37.6351,0.0],[-97.2943,37.6351,0.0],[-97.2989,37.6351,0.0],[-97.2988,37.6406,0.0]]]]}},{"type":"Feature","properties":{"uesi_id":"USA_R129814","nbhd_code":"USA_R129814_76","nbhd_name":"Census Tract 66"},"geometry":{"type":"MultiPolygon","coordinates":[[[[-97.2926,37.6261,0.0],[-97.2905,37.6278,0.0],[-97.2903,37.628,0.0],[-97.2862,37.6351,0.0],[-97.2827,37.6409,0.0],[-97.2805,37.6432,0.0],[-97.2739,37.6486,0.0],[-97.2717,37.6501,0.0],[-97.2713,37.6503,0.0],[-97.2621,37.6559,0.0],[-97.2621,37.6546,0.0],[-97.2445,37.6547,0.0],[-97.2445,37.6501,0.0],[-97.2445,37.6428,0.0],[-97.2364,37.6428,0.0],[-97.2345,37.6428,0.0],[-97.2338,37.6428,0.0],[-97.2337,37.6391,0.0],[-97.2337,37.6378,0.0],[-97.2337,37.6369,0.0],[-97.2336,37.6355,0.0],[-97.2444,37.6355,0.0],[-97.2443,37.6209,0.0],[-97.2443,37.6064,0.0],[-97.2621,37.6062,0.0],[-97.262,37.5916,0.0],[-97.2654,37.5916,0.0],[-97.2799,37.5916,0.0],[-97.2803,37.5949,0.0],[-97.2804,37.5997,0.0],[-97.2804,37.6035,0.0],[-97.2804,37.6057,0.0],[-97.2816,37.606,0.0],[-97.2908,37.6059,0.0],[-97.2953,37.6252,0.0],[-97.2926,37.6261,0.0]]]]}},{"type":"Feature","properties":{"uesi_id":"USA_R129814","nbhd_code":"USA_R129814_77","nbhd_name":"Census Tract 70"},"geometry":{"type":"MultiPolygon","coordinates":[[[[-97.2622,37.6797,0.0],[-97.2548,37.6798,0.0],[-97.2536,37.6795,0.0],[-97.2536,37.6791,0.0],[-97.2536,37.672,0.0],[-97.2535,37.672,0.0],[-97.2444,37.672,0.0],[-97.2444,37.6695,0.0],[-97.2444,37.6694,0.0],[-97.2464,37.6683,0.0],[-97.2502,37.6647,0.0],[-97.255,37.6602,0.0],[-97.2621,37.6559,0.0],[-97.2621,37.6565,0.0],[-97.2621,37.6574,0.0],[-97.2621,37.661,0.0],[-97.2621,37.6646,0.0],[-97.2621,37.6701,0.0],[-97.2621,37.6719,0.0],[-97.2621,37.6737,0.0],[-97.2621,37.6795,0.0],[-97.2622,37.6797,0.0]]]]}},{"type":"Feature","properties":{"uesi_id":"USA_R129814","nbhd_code":"USA_R129814_78","nbhd_name":"Census Tract 72.01"},"geometry":{"type":"MultiPolygon","coordinates":[[[[-97.2262,37.7084,0.0],[-97.2099,37.7085,0.0],[-97.2019,37.7086,0.0],[-97.1994,37.7086,0.0],[-97.1989,37.7086,0.0],[-97.1988,37.7086,0.0],[-97.1972,37.7085,0.0],[-97.1896,37.7085,0.0],[-97.1896,37.6967,0.0],[-97.1896,37.6949,0.0],[-97.1896,37.6903,0.0],[-97.1896,37.6902,0.0],[-97.1895,37.6866,0.0],[-97.1896,37.6866,0.0],[-97.1896,37.685,0.0],[-97.1895,37.6805,0.0],[-97.1898,37.6795,0.0],[-97.1898,37.6794,0.0],[-97.1906,37.6794,0.0],[-97.1962,37.6794,0.0],[-97.2078,37.6794,0.0],[-97.2124,37.6793,0.0],[-97.2132,37.6792,0.0],[-97.2221,37.6793,0.0],[-97.2261,37.6793,0.0],[-97.2262,37.6819,0.0],[-97.2262,37.6866,0.0],[-97.2262,37.694,0.0],[-97.2262,37.7012,0.0],[-97.2262,37.7084,0.0]]]]}},{"type":"Feature","properties":{"uesi_id":"USA_R129814","nbhd_code":"USA_R129814_79","nbhd_name":"Census Tract 72.04"},"geometry":{"type":"MultiPolygon","coordinates":[[[[-97.2262,37.6513,0.0],[-97.2262,37.6537,0.0],[-97.2261,37.6573,0.0],[-97.2262,37.6647,0.0],[-97.2261,37.6691,0.0],[-97.2261,37.6719,0.0],[-97.2261,37.6751,0.0],[-97.2261,37.6793,0.0],[-97.2221,37.6793,0.0],[-97.2132,37.6792,0.0],[-97.2124,37.6793,0.0],[-97.2078,37.6794,0.0],[-97.1962,37.6794,0.0],[-97.1906,37.6794,0.0],[-97.1898,37.6794,0.0],[-97.1895,37.6794,0.0],[-97.1895,37.6793,0.0],[-97.1895,37.6791,0.0],[-97.1895,37.6648,0.0],[-97.1895,37.6556,0.0],[-97.1895,37.6538,0.0],[-97.1895,37.6501,0.0],[-97.1987,37.6501,0.0],[-97.2078,37.6501,0.0],[-97.2125,37.6501,0.0],[-97.217,37.6501,0.0],[-97.2216,37.6501,0.0],[-97.2262,37.6501,0.0],[-97.2262,37.6513,0.0]]]]}},{"type":"Feature","properties":{"uesi_id":"USA_R129814","nbhd_code":"USA_R129814_80","nbhd_name":"Census Tract 76"},"geometry":{"type":"MultiPolygon","coordinates":[[[[-97.2807,37.7229,0.0],[-97.2623,37.723,0.0],[-97.2623,37.7156,0.0],[-97.2623,37.7084,0.0],[-97.2622,37.7011,0.0],[-97.2554,37.7011,0.0],[-97.2553,37.6993,0.0],[-97.2532,37.6964,0.0],[-97.2531,37.6938,0.0],[-97.2622,37.6938,0.0],[-97.2714,37.6938,0.0],[-97.2714,37.6993,0.0],[-97.2714,37.7011,0.0],[-97.2714,37.7029,0.0],[-97.276,37.7029,0.0],[-97.2755,37.7049,0.0],[-97.2737,37.7063,0.0],[-97.2737,37.7084,0.0],[-97.2744,37.7084,0.0],[-97.2744,37.7148,0.0],[-97.2755,37.7156,0.0],[-97.2806,37.7154,0.0],[-97.2806,37.7156,0.0],[-97.2807,37.7229,0.0]]]]}},{"type":"Feature","properties":{"uesi_id":"USA_R129814","nbhd_code":"USA_R129814_81","nbhd_name":"Census Tract 83"},"geometry":{"type":"MultiPolygon","coordinates":[[[[-97.3805,37.7315,0.0],[-97.3759,37.7354,0.0],[-97.3749,37.7376,0.0],[-97.3749,37.7378,0.0],[-97.3749,37.7401,0.0],[-97.3749,37.7407,0.0],[-97.3749,37.7533,0.0],[-97.3739,37.7553,0.0],[-97.3724,37.7566,0.0],[-97.371,37.7573,0.0],[-97.3688,37.7577,0.0],[-97.3541,37.757,0.0],[-97.346,37.7565,0.0],[-97.3482,37.7549,0.0],[-97.3501,37.7542,0.0],[-97.361,37.7493,0.0],[-97.3592,37.7475,0.0],[-97.3567,37.747,0.0],[-97.3534,37.7473,0.0],[-97.3529,37.7452,0.0],[-97.357,37.7419,0.0],[-97.3584,37.7392,0.0],[-97.357,37.7375,0.0],[-97.3541,37.7359,0.0],[-97.3534,37.7343,0.0],[-97.3554,37.7329,0.0],[-97.3595,37.7327,0.0],[-97.3601,37.73,0.0],[-97.3664,37.7301,0.0],[-97.3696,37.7301,0.0],[-97.3731,37.7302,0.0],[-97.3778,37.7303,0.0],[-97.3805,37.7315,0.0]]]]}},{"type":"Feature","properties":{"uesi_id":"USA_R129814","nbhd_code":"USA_R129814_82","nbhd_name":"Census Tract 85"},"geometry":{"type":"MultiPolygon","coordinates":[[[[-97.3807,37.721,0.0],[-97.3771,37.7198,0.0],[-97.3716,37.72,0.0],[-97.3678,37.7197,0.0],[-97.3631,37.7168,0.0],[-97.3626,37.7162,0.0],[-97.3615,37.715,0.0],[-97.361,37.7134,0.0],[-97.3614,37.7118,0.0],[-97.3635,37.7082,0.0],[-97.3658,37.7087,0.0],[-97.3715,37.7088,0.0],[-97.376,37.7088,0.0],[-97.3806,37.7088,0.0],[-97.3806,37.7159,0.0],[-97.3807,37.7205,0.0],[-97.3807,37.721,0.0]]]]}},{"type":"Feature","properties":{"uesi_id":"USA_R129814","nbhd_code":"USA_R129814_83","nbhd_name":"Census Tract 87"},"geometry":{"type":"MultiPolygon","coordinates":[[[[-97.3941,37.7089,0.0],[-97.3897,37.7088,0.0],[-97.3842,37.7088,0.0],[-97.3806,37.7088,0.0],[-97.376,37.7088,0.0],[-97.3715,37.7088,0.0],[-97.3658,37.7087,0.0],[-97.3635,37.7082,0.0],[-97.3642,37.7073,0.0],[-97.3715,37.7022,0.0],[-97.3726,37.7004,0.0],[-97.3723,37.6987,0.0],[-97.3693,37.6951,0.0],[-97.3702,37.6947,0.0],[-97.3709,37.6949,0.0],[-97.3725,37.6949,0.0],[-97.3759,37.6949,0.0],[-97.3793,37.6949,0.0],[-97.3801,37.6955,0.0],[-97.3865,37.7016,0.0],[-97.3897,37.7047,0.0],[-97.3941,37.7089,0.0]]]]}},{"type":"Feature","properties":{"uesi_id":"USA_R129814","nbhd_code":"USA_R129814_84","nbhd_name":"Census Tract 92"},"geometry":{"type":"MultiPolygon","coordinates":[[[[-97.4625,37.6793,0.0],[-97.4561,37.6794,0.0],[-97.4555,37.6794,0.0],[-97.4533,37.6794,0.0],[-97.4442,37.6795,0.0],[-97.426,37.6799,0.0],[-97.4226,37.6799,0.0],[-97.4124,37.68,0.0],[-97.4083,37.68,0.0],[-97.4064,37.6802,0.0],[-97.4051,37.6801,0.0],[-97.4049,37.6801,0.0],[-97.4021,37.6762,0.0],[-97.4015,37.6733,0.0],[-97.4013,37.6559,0.0],[-97.4011,37.654,0.0],[-97.4,37.6495,0.0],[-97.3989,37.6467,0.0],[-97.4035,37.6443,0.0],[-97.4074,37.6423,0.0],[-97.414,37.6387,0.0],[-97.4173,37.6378,0.0],[-97.4258,37.6357,0.0],[-97.4525,37.6295,0.0],[-97.4551,37.6288,0.0],[-97.4558,37.6303,0.0],[-97.4559,37.6322,0.0],[-97.4556,37.6329,0.0],[-97.4542,37.6345,0.0],[-97.4526,37.6352,0.0],[-97.4505,37.6359,0.0],[-97.4487,37.6375,0.0],[-97.4458,37.6417,0.0],[-97.4463,37.6431,0.0],[-97.4458,37.6447,0.0],[-97.4491,37.6441,0.0],[-97.452,37.6462,0.0],[-97.4524,37.6505,0.0],[-97.4438,37.6506,0.0],[-97.4439,37.665,0.0],[-97.453,37.6649,0.0],[-97.453,37.6658,0.0],[-97.4622,37.6644,0.0],[-97.4622,37.6652,0.0],[-97.4625,37.6793,0.0]]]]}},{"type":"Feature","properties":{"uesi_id":"USA_R129814","nbhd_code":"USA_R129814_85","nbhd_name":"Census Tract 94.01"},"geometry":{"type":"MultiPolygon","coordinates":[[[[-97.4624,37.7017,0.0],[-97.4627,37.7083,0.0],[-97.4599,37.7084,0.0],[-97.4529,37.7087,0.0],[-97.4443,37.7088,0.0],[-97.4444,37.6941,0.0],[-97.4483,37.694,0.0],[-97.4498,37.694,0.0],[-97.4576,37.6939,0.0],[-97.4628,37.6937,0.0],[-97.4624,37.7017,0.0]]]]}},{"type":"Feature","properties":{"uesi_id":"USA_R129814","nbhd_code":"USA_R129814_86","nbhd_name":"Census Tract 95.03"},"geometry":{"type":"MultiPolygon","coordinates":[[[[-97.4812,37.7297,0.0],[-97.481,37.7328,0.0],[-97.481,37.7369,0.0],[-97.4638,37.7372,0.0],[-97.4626,37.7372,0.0],[-97.4534,37.7374,0.0],[-97.4445,37.7375,0.0],[-97.4374,37.7376,0.0],[-97.4354,37.7376,0.0],[-97.4262,37.7377,0.0],[-97.4171,37.7378,0.0],[-97.412,37.7378,0.0],[-97.408,37.7378,0.0],[-97.3989,37.7378,0.0],[-97.3823,37.7377,0.0],[-97.3755,37.7376,0.0],[-97.3755,37.7378,0.0],[-97.3749,37.7378,0.0],[-97.3749,37.7376,0.0],[-97.3759,37.7354,0.0],[-97.3805,37.7315,0.0],[-97.3816,37.7307,0.0],[-97.3831,37.7293,0.0],[-97.3865,37.7257,0.0],[-97.3868,37.7253,0.0],[-97.3897,37.7227,0.0],[-97.3995,37.7141,0.0],[-97.401,37.7155,0.0],[-97.4031,37.717,0.0],[-97.4046,37.7157,0.0],[-97.4114,37.7097,0.0],[-97.4124,37.7091,0.0],[-97.414,37.709,0.0],[-97.4237,37.7089,0.0],[-97.4261,37.7088,0.0],[-97.4261,37.7163,0.0],[-97.4261,37.7169,0.0],[-97.4262,37.7232,0.0],[-97.4445,37.723,0.0],[-97.4523,37.7229,0.0],[-97.4627,37.7227,0.0],[-97.4734,37.7225,0.0],[-97.4811,37.7224,0.0],[-97.4811,37.7242,0.0],[-97.4812,37.7295,0.0],[-97.4812,37.7297,0.0]]]]}},{"type":"Feature","properties":{"uesi_id":"USA_R129814","nbhd_code":"USA_R129814_87","nbhd_name":"Census Tract 2"},"geometry":{"type":"MultiPolygon","coordinates":[[[[-97.3635,37.7082,0.0],[-97.3614,37.7118,0.0],[-97.361,37.7134,0.0],[-97.3615,37.715,0.0],[-97.3626,37.7162,0.0],[-97.3618,37.717,0.0],[-97.3577,37.717,0.0],[-97.3579,37.7215,0.0],[-97.3572,37.7215,0.0],[-97.3553,37.7219,0.0],[-97.3539,37.722,0.0],[-97.3532,37.7223,0.0],[-97.3521,37.723,0.0],[-97.3511,37.7229,0.0],[-97.3493,37.7218,0.0],[-97.3466,37.7195,0.0],[-97.3456,37.7171,0.0],[-97.3457,37.7156,0.0],[-97.3469,37.7118,0.0],[-97.3461,37.7074,0.0],[-97.3469,37.7068,0.0],[-97.3484,37.7063,0.0],[-97.3484,37.7065,0.0],[-97.3482,37.708,0.0],[-97.3493,37.7099,0.0],[-97.3505,37.7117,0.0],[-97.3552,37.7117,0.0],[-97.3564,37.7124,0.0],[-97.3584,37.7119,0.0],[-97.3617,37.708,0.0],[-97.3635,37.7082,0.0]]]]}},{"type":"Feature","properties":{"uesi_id":"USA_R129814","nbhd_code":"USA_R129814_88","nbhd_name":"Census Tract 3"},"geometry":{"type":"MultiPolygon","coordinates":[[[[-97.3493,37.7226,0.0],[-97.346,37.7226,0.0],[-97.3413,37.7226,0.0],[-97.3356,37.7226,0.0],[-97.3356,37.719,0.0],[-97.3356,37.7171,0.0],[-97.3356,37.7153,0.0],[-97.3356,37.7131,0.0],[-97.3356,37.7117,0.0],[-97.3386,37.7117,0.0],[-97.3386,37.708,0.0],[-97.3369,37.708,0.0],[-97.3369,37.7044,0.0],[-97.3369,37.6975,0.0],[-97.3382,37.6975,0.0],[-97.3407,37.6975,0.0],[-97.3417,37.6975,0.0],[-97.342,37.7012,0.0],[-97.3445,37.7012,0.0],[-97.3445,37.7044,0.0],[-97.3483,37.7043,0.0],[-97.3483,37.7056,0.0],[-97.3484,37.7063,0.0],[-97.3469,37.7068,0.0],[-97.3461,37.7074,0.0],[-97.3469,37.7118,0.0],[-97.3457,37.7156,0.0],[-97.3456,37.7171,0.0],[-97.3466,37.7195,0.0],[-97.3493,37.7218,0.0],[-97.3493,37.7226,0.0]]]]}},{"type":"Feature","properties":{"uesi_id":"USA_R129814","nbhd_code":"USA_R129814_89","nbhd_name":"Census Tract 6"},"geometry":{"type":"MultiPolygon","coordinates":[[[[-97.3246,37.7227,0.0],[-97.3188,37.7227,0.0],[-97.3187,37.7215,0.0],[-97.3184,37.7215,0.0],[-97.3174,37.7215,0.0],[-97.3174,37.7213,0.0],[-97.3173,37.7154,0.0],[-97.314,37.7154,0.0],[-97.3105,37.7154,0.0],[-97.3105,37.7009,0.0],[-97.3127,37.7009,0.0],[-97.3139,37.7009,0.0],[-97.3161,37.7008,0.0],[-97.3176,37.7005,0.0],[-97.3199,37.7081,0.0],[-97.3224,37.7159,0.0],[-97.3246,37.7227,0.0]]]]}},{"type":"Feature","properties":{"uesi_id":"USA_R129814","nbhd_code":"USA_R129814_90","nbhd_name":"Census Tract 11"},"geometry":{"type":"MultiPolygon","coordinates":[[[[-97.3127,37.7009,0.0],[-97.3105,37.7009,0.0],[-97.3059,37.7009,0.0],[-97.2991,37.701,0.0],[-97.2973,37.701,0.0],[-97.2946,37.7024,0.0],[-97.2931,37.7039,0.0],[-97.2909,37.7083,0.0],[-97.2906,37.7083,0.0],[-97.2917,37.7057,0.0],[-97.2917,37.6992,0.0],[-97.2935,37.6992,0.0],[-97.2935,37.6974,0.0],[-97.2935,37.6937,0.0],[-97.299,37.6937,0.0],[-97.3016,37.6937,0.0],[-97.3059,37.6937,0.0],[-97.3078,37.6936,0.0],[-97.3082,37.6977,0.0],[-97.3128,37.6977,0.0],[-97.3127,37.7009,0.0]]]]}},{"type":"Feature","properties":{"uesi_id":"USA_R129814","nbhd_code":"USA_R129814_91","nbhd_name":"Census Tract 18"},"geometry":{"type":"MultiPolygon","coordinates":[[[[-97.3265,37.6935,0.0],[-97.3173,37.6936,0.0],[-97.3154,37.6936,0.0],[-97.3176,37.7005,0.0],[-97.3161,37.7008,0.0],[-97.3139,37.7009,0.0],[-97.3127,37.7009,0.0],[-97.3128,37.6977,0.0],[-97.3082,37.6977,0.0],[-97.3078,37.6936,0.0],[-97.3078,37.69,0.0],[-97.3078,37.6862,0.0],[-97.313,37.6862,0.0],[-97.3141,37.6862,0.0],[-97.3172,37.6861,0.0],[-97.3264,37.6861,0.0],[-97.3265,37.6935,0.0]]]]}},{"type":"Feature","properties":{"uesi_id":"USA_R129814","nbhd_code":"USA_R129814_92","nbhd_name":"Census Tract 20"},"geometry":{"type":"MultiPolygon","coordinates":[[[[-97.2935,37.6974,0.0],[-97.2918,37.6971,0.0],[-97.2917,37.6956,0.0],[-97.2875,37.6956,0.0],[-97.2875,37.6938,0.0],[-97.2828,37.6938,0.0],[-97.2805,37.6938,0.0],[-97.2805,37.6865,0.0],[-97.2851,37.6865,0.0],[-97.2874,37.6865,0.0],[-97.2922,37.6865,0.0],[-97.2932,37.6883,0.0],[-97.2935,37.6937,0.0],[-97.2935,37.6974,0.0]]]]}},{"type":"Feature","properties":{"uesi_id":"USA_R129814","nbhd_code":"USA_R129814_93","nbhd_name":"Census Tract 26"},"geometry":{"type":"MultiPolygon","coordinates":[[[[-97.3427,37.6787,0.0],[-97.3427,37.6789,0.0],[-97.3428,37.6808,0.0],[-97.3411,37.6811,0.0],[-97.3381,37.6811,0.0],[-97.3368,37.6811,0.0],[-97.3316,37.6811,0.0],[-97.3316,37.6824,0.0],[-97.3275,37.6826,0.0],[-97.3276,37.6787,0.0],[-97.3276,37.6761,0.0],[-97.328,37.6747,0.0],[-97.3316,37.6746,0.0],[-97.3316,37.6717,0.0],[-97.3368,37.6716,0.0],[-97.3394,37.6716,0.0],[-97.3438,37.6717,0.0],[-97.3427,37.6787,0.0]]]]}},{"type":"Feature","properties":{"uesi_id":"USA_R129814","nbhd_code":"USA_R129814_94","nbhd_name":"Census Tract 28"},"geometry":{"type":"MultiPolygon","coordinates":[[[[-97.3712,37.6877,0.0],[-97.3641,37.6877,0.0],[-97.3615,37.6877,0.0],[-97.3576,37.6878,0.0],[-97.3576,37.684,0.0],[-97.3576,37.6822,0.0],[-97.3575,37.6779,0.0],[-97.3574,37.6766,0.0],[-97.3574,37.6733,0.0],[-97.3626,37.6732,0.0],[-97.3688,37.6732,0.0],[-97.3689,37.6766,0.0],[-97.3689,37.6804,0.0],[-97.3682,37.6804,0.0],[-97.3682,37.6822,0.0],[-97.3712,37.6822,0.0],[-97.3712,37.6877,0.0]]]]}},{"type":"Feature","properties":{"uesi_id":"USA_R129814","nbhd_code":"USA_R129814_95","nbhd_name":"Census Tract 29"},"geometry":{"type":"MultiPolygon","coordinates":[[[[-97.3815,37.6876,0.0],[-97.3804,37.6876,0.0],[-97.3725,37.6876,0.0],[-97.3712,37.6877,0.0],[-97.3712,37.6822,0.0],[-97.3682,37.6822,0.0],[-97.3682,37.6804,0.0],[-97.3689,37.6804,0.0],[-97.3689,37.6766,0.0],[-97.3688,37.6732,0.0],[-97.3736,37.6731,0.0],[-97.3746,37.6731,0.0],[-97.3767,37.674,0.0],[-97.3793,37.674,0.0],[-97.3802,37.6733,0.0],[-97.3803,37.6767,0.0],[-97.3803,37.6822,0.0],[-97.3803,37.6838,0.0],[-97.3815,37.684,0.0],[-97.3815,37.6876,0.0]]]]}},{"type":"Feature","properties":{"uesi_id":"USA_R129814","nbhd_code":"USA_R129814_96","nbhd_name":"Census Tract 34"},"geometry":{"type":"MultiPolygon","coordinates":[[[[-97.3316,37.6746,0.0],[-97.328,37.6747,0.0],[-97.3276,37.6761,0.0],[-97.3212,37.6761,0.0],[-97.3172,37.6762,0.0],[-97.3172,37.6718,0.0],[-97.3172,37.6681,0.0],[-97.3172,37.6644,0.0],[-97.3172,37.6608,0.0],[-97.3217,37.6608,0.0],[-97.3226,37.6607,0.0],[-97.3264,37.6607,0.0],[-97.3316,37.6607,0.0],[-97.3316,37.6644,0.0],[-97.3316,37.6698,0.0],[-97.3316,37.6717,0.0],[-97.3316,37.6746,0.0]]]]}},{"type":"Feature","properties":{"uesi_id":"USA_R129814","nbhd_code":"USA_R129814_97","nbhd_name":"Census Tract 37"},"geometry":{"type":"MultiPolygon","coordinates":[[[[-97.2894,37.6678,0.0],[-97.2876,37.6697,0.0],[-97.2874,37.6719,0.0],[-97.2862,37.6719,0.0],[-97.2837,37.6719,0.0],[-97.2805,37.6719,0.0],[-97.2804,37.6647,0.0],[-97.2867,37.6646,0.0],[-97.2896,37.6646,0.0],[-97.2894,37.6678,0.0]]]]}},{"type":"Feature","properties":{"uesi_id":"USA_R129814","nbhd_code":"USA_R129814_98","nbhd_name":"Census Tract 39"},"geometry":{"type":"MultiPolygon","coordinates":[[[[-97.3316,37.6607,0.0],[-97.3264,37.6607,0.0],[-97.3226,37.6607,0.0],[-97.3217,37.6608,0.0],[-97.3172,37.6608,0.0],[-97.3171,37.6572,0.0],[-97.3171,37.6527,0.0],[-97.3156,37.6499,0.0],[-97.3164,37.6499,0.0],[-97.3171,37.646,0.0],[-97.3193,37.646,0.0],[-97.3223,37.6459,0.0],[-97.325,37.6459,0.0],[-97.3264,37.6459,0.0],[-97.3264,37.6423,0.0],[-97.3311,37.6424,0.0],[-97.3292,37.6498,0.0],[-97.3316,37.6497,0.0],[-97.3316,37.6534,0.0],[-97.3316,37.6607,0.0]]]]}},{"type":"Feature","properties":{"uesi_id":"USA_R129814","nbhd_code":"USA_R129814_99","nbhd_name":"Census Tract 51"},"geometry":{"type":"MultiPolygon","coordinates":[[[[-97.3528,37.666,0.0],[-97.3488,37.666,0.0],[-97.3462,37.6645,0.0],[-97.3479,37.6608,0.0],[-97.3488,37.657,0.0],[-97.3487,37.6561,0.0],[-97.3467,37.6516,0.0],[-97.3427,37.6487,0.0],[-97.3355,37.6448,0.0],[-97.3355,37.6424,0.0],[-97.3344,37.6372,0.0],[-97.3344,37.6343,0.0],[-97.3346,37.6314,0.0],[-97.3338,37.6292,0.0],[-97.3342,37.6272,0.0],[-97.3341,37.6174,0.0],[-97.3353,37.6178,0.0],[-97.3372,37.6191,0.0],[-97.3385,37.6203,0.0],[-97.3407,37.6248,0.0],[-97.343,37.6265,0.0],[-97.3454,37.6274,0.0],[-97.3525,37.6278,0.0],[-97.3526,37.6301,0.0],[-97.3526,37.6387,0.0],[-97.3526,37.6397,0.0],[-97.3526,37.6442,0.0],[-97.3526,37.6452,0.0],[-97.3526,37.6492,0.0],[-97.3527,37.6516,0.0],[-97.3527,37.6552,0.0],[-97.3527,37.6588,0.0],[-97.3528,37.666,0.0]]]]}},{"type":"Feature","properties":{"uesi_id":"USA_R129814","nbhd_code":"USA_R129814_100","nbhd_name":"Census Tract 53"},"geometry":{"type":"MultiPolygon","coordinates":[[[[-97.3708,37.6441,0.0],[-97.3617,37.6442,0.0],[-97.3618,37.6451,0.0],[-97.3618,37.6514,0.0],[-97.3613,37.6514,0.0],[-97.3527,37.6516,0.0],[-97.3526,37.6492,0.0],[-97.3526,37.6452,0.0],[-97.3526,37.6442,0.0],[-97.3526,37.6397,0.0],[-97.3526,37.6387,0.0],[-97.3526,37.6301,0.0],[-97.3525,37.6278,0.0],[-97.3672,37.6283,0.0],[-97.3707,37.6286,0.0],[-97.3708,37.6333,0.0],[-97.3708,37.6369,0.0],[-97.3708,37.6389,0.0],[-97.3708,37.6441,0.0]]]]}},{"type":"Feature","properties":{"uesi_id":"USA_R129814","nbhd_code":"USA_R129814_101","nbhd_name":"Census Tract 57"},"geometry":{"type":"MultiPolygon","coordinates":[[[[-97.3525,37.6278,0.0],[-97.3454,37.6274,0.0],[-97.343,37.6265,0.0],[-97.3407,37.6248,0.0],[-97.3385,37.6203,0.0],[-97.3372,37.6191,0.0],[-97.3353,37.6178,0.0],[-97.3341,37.6174,0.0],[-97.3319,37.617,0.0],[-97.3298,37.6179,0.0],[-97.3285,37.6226,0.0],[-97.3286,37.6214,0.0],[-97.3269,37.612,0.0],[-97.3255,37.608,0.0],[-97.3244,37.6051,0.0],[-97.3228,37.6016,0.0],[-97.3242,37.5993,0.0],[-97.3242,37.5936,0.0],[-97.3268,37.5936,0.0],[-97.3341,37.5935,0.0],[-97.3439,37.5935,0.0],[-97.3523,37.5935,0.0],[-97.3523,37.5962,0.0],[-97.3523,37.5991,0.0],[-97.3523,37.6079,0.0],[-97.3523,37.6116,0.0],[-97.3523,37.6152,0.0],[-97.3523,37.6172,0.0],[-97.3524,37.6225,0.0],[-97.3525,37.6278,0.0]]]]}},{"type":"Feature","properties":{"uesi_id":"USA_R129814","nbhd_code":"USA_R129814_102","nbhd_name":"Census Tract 58"},"geometry":{"type":"MultiPolygon","coordinates":[[[[-97.3076,37.6028,0.0],[-97.3066,37.6071,0.0],[-97.304,37.611,0.0],[-97.3025,37.6137,0.0],[-97.3024,37.6158,0.0],[-97.3,37.62,0.0],[-97.2988,37.6215,0.0],[-97.2982,37.6232,0.0],[-97.2985,37.6247,0.0],[-97.2953,37.6252,0.0],[-97.2908,37.6059,0.0],[-97.2816,37.606,0.0],[-97.2804,37.6057,0.0],[-97.2804,37.6035,0.0],[-97.2804,37.5997,0.0],[-97.2803,37.5949,0.0],[-97.2799,37.5916,0.0],[-97.2799,37.5857,0.0],[-97.2793,37.5839,0.0],[-97.2781,37.5827,0.0],[-97.2723,37.5803,0.0],[-97.2711,37.577,0.0],[-97.2798,37.577,0.0],[-97.2801,37.577,0.0],[-97.2825,37.577,0.0],[-97.2904,37.5786,0.0],[-97.294,37.5791,0.0],[-97.304,37.5791,0.0],[-97.3044,37.5791,0.0],[-97.3042,37.5803,0.0],[-97.303,37.5839,0.0],[-97.3028,37.5864,0.0],[-97.3031,37.5906,0.0],[-97.3074,37.6017,0.0],[-97.3076,37.6028,0.0]]]]}},{"type":"Feature","properties":{"uesi_id":"USA_R129814","nbhd_code":"USA_R129814_103","nbhd_name":"Census Tract 95.09"},"geometry":{"type":"MultiPolygon","coordinates":[[[[-97.5531,37.6929,0.0],[-97.535,37.693,0.0],[-97.5168,37.6931,0.0],[-97.5078,37.6932,0.0],[-97.4987,37.6932,0.0],[-97.4987,37.6924,0.0],[-97.4986,37.6787,0.0],[-97.4989,37.675,0.0],[-97.4984,37.674,0.0],[-97.4986,37.6714,0.0],[-97.4986,37.6644,0.0],[-97.4986,37.6604,0.0],[-97.4986,37.6593,0.0],[-97.4986,37.659,0.0],[-97.4986,37.6583,0.0],[-97.4985,37.6499,0.0],[-97.5348,37.6499,0.0],[-97.553,37.6497,0.0],[-97.5531,37.6571,0.0],[-97.5531,37.6642,0.0],[-97.5531,37.6786,0.0],[-97.5531,37.6821,0.0],[-97.5531,37.6929,0.0]]]]}},{"type":"Feature","properties":{"uesi_id":"USA_R129814","nbhd_code":"USA_R129814_104","nbhd_name":"Census Tract 95.11"},"geometry":{"type":"MultiPolygon","coordinates":[[[[-97.4809,37.6501,0.0],[-97.4808,37.6518,0.0],[-97.4808,37.6542,0.0],[-97.4808,37.6556,0.0],[-97.4807,37.6573,0.0],[-97.4806,37.6646,0.0],[-97.4806,37.6647,0.0],[-97.4806,37.6717,0.0],[-97.4807,37.679,0.0],[-97.4769,37.679,0.0],[-97.4699,37.6791,0.0],[-97.4625,37.6793,0.0],[-97.4622,37.6652,0.0],[-97.4622,37.6644,0.0],[-97.453,37.6658,0.0],[-97.453,37.6649,0.0],[-97.4439,37.665,0.0],[-97.4438,37.6506,0.0],[-97.4524,37.6505,0.0],[-97.4619,37.6503,0.0],[-97.4636,37.6503,0.0],[-97.471,37.6502,0.0],[-97.4759,37.6501,0.0],[-97.4809,37.65,0.0],[-97.4809,37.6501,0.0]]]]}},{"type":"Feature","properties":{"uesi_id":"USA_R129814","nbhd_code":"USA_R129814_105","nbhd_name":"Census Tract 96.03"},"geometry":{"type":"MultiPolygon","coordinates":[[[[-97.4256,37.6257,0.0],[-97.4256,37.628,0.0],[-97.4257,37.6293,0.0],[-97.4258,37.6352,0.0],[-97.4258,37.6357,0.0],[-97.4173,37.6378,0.0],[-97.414,37.6387,0.0],[-97.4074,37.6423,0.0],[-97.4035,37.6443,0.0],[-97.4035,37.6375,0.0],[-97.4036,37.6369,0.0],[-97.4037,37.6341,0.0],[-97.403,37.629,0.0],[-97.4033,37.6266,0.0],[-97.4019,37.6236,0.0],[-97.4023,37.6223,0.0],[-97.399,37.6143,0.0],[-97.3959,37.6084,0.0],[-97.397,37.6072,0.0],[-97.3982,37.6078,0.0],[-97.4073,37.6077,0.0],[-97.4259,37.6078,0.0],[-97.4256,37.6257,0.0]]]]}},{"type":"Feature","properties":{"uesi_id":"USA_R129814","nbhd_code":"USA_R129814_106","nbhd_name":"Census Tract 100.01"},"geometry":{"type":"MultiPolygon","coordinates":[[[[-97.1713,37.6722,0.0],[-97.1713,37.6792,0.0],[-97.1713,37.6793,0.0],[-97.1713,37.6795,0.0],[-97.1713,37.6867,0.0],[-97.1713,37.6917,0.0],[-97.1713,37.6923,0.0],[-97.1713,37.7086,0.0],[-97.1576,37.7087,0.0],[-97.1532,37.7087,0.0],[-97.153,37.7087,0.0],[-97.1531,37.7019,0.0],[-97.153,37.7013,0.0],[-97.153,37.6941,0.0],[-97.153,37.6866,0.0],[-97.153,37.6795,0.0],[-97.153,37.6794,0.0],[-97.153,37.6722,0.0],[-97.1532,37.6721,0.0],[-97.1531,37.6662,0.0],[-97.1529,37.6649,0.0],[-97.1529,37.6576,0.0],[-97.153,37.6503,0.0],[-97.1712,37.6503,0.0],[-97.1712,37.6526,0.0],[-97.1713,37.6533,0.0],[-97.1713,37.6576,0.0],[-97.1713,37.6616,0.0],[-97.1713,37.6649,0.0],[-97.1713,37.6722,0.0]]]]}},{"type":"Feature","properties":{"uesi_id":"USA_R129814","nbhd_code":"USA_R129814_107","nbhd_name":"Census Tract 100.04"},"geometry":{"type":"MultiPolygon","coordinates":[[[[-97.2799,37.5916,0.0],[-97.2654,37.5916,0.0],[-97.262,37.5916,0.0],[-97.2621,37.6062,0.0],[-97.2443,37.6064,0.0],[-97.2443,37.6209,0.0],[-97.2444,37.6355,0.0],[-97.2336,37.6355,0.0],[-97.2263,37.6355,0.0],[-97.2262,37.6464,0.0],[-97.2262,37.6501,0.0],[-97.2216,37.6501,0.0],[-97.217,37.6501,0.0],[-97.2125,37.6501,0.0],[-97.2078,37.6501,0.0],[-97.1987,37.6501,0.0],[-97.1895,37.6501,0.0],[-97.176,37.6502,0.0],[-97.1712,37.6503,0.0],[-97.153,37.6503,0.0],[-97.1531,37.6282,0.0],[-97.153,37.6139,0.0],[-97.1529,37.6067,0.0],[-97.1529,37.5922,0.0],[-97.1528,37.5776,0.0],[-97.1528,37.571,0.0],[-97.1528,37.563,0.0],[-97.1894,37.5628,0.0],[-97.1984,37.5628,0.0],[-97.226,37.5626,0.0],[-97.2306,37.5626,0.0],[-97.2401,37.5625,0.0],[-97.2444,37.5625,0.0],[-97.2588,37.5625,0.0],[-97.2604,37.5625,0.0],[-97.2621,37.5625,0.0],[-97.262,37.566,0.0],[-97.2619,37.5689,0.0],[-97.2614,37.5702,0.0],[-97.2607,37.574,0.0],[-97.262,37.5762,0.0],[-97.262,37.577,0.0],[-97.2711,37.577,0.0],[-97.2723,37.5803,0.0],[-97.2781,37.5827,0.0],[-97.2793,37.5839,0.0],[-97.2799,37.5857,0.0],[-97.2799,37.5916,0.0]]]]}},{"type":"Feature","properties":{"uesi_id":"USA_R129814","nbhd_code":"USA_R129814_108","nbhd_name":"Census Tract 101.09"},"geometry":{"type":"MultiPolygon","coordinates":[[[[-97.2623,37.723,0.0],[-97.2539,37.723,0.0],[-97.2536,37.723,0.0],[-97.2446,37.723,0.0],[-97.2363,37.723,0.0],[-97.2263,37.723,0.0],[-97.2262,37.7156,0.0],[-97.2623,37.7156,0.0],[-97.2623,37.723,0.0]]]]}},{"type":"Feature","properties":{"uesi_id":"USA_R129814","nbhd_code":"USA_R129814_109","nbhd_name":"Census Tract 101.11"},"geometry":{"type":"MultiPolygon","coordinates":[[[[-97.2808,37.7813,0.0],[-97.2767,37.7813,0.0],[-97.2751,37.7813,0.0],[-97.2717,37.7814,0.0],[-97.2688,37.7814,0.0],[-97.2625,37.7814,0.0],[-97.2561,37.7814,0.0],[-97.2542,37.7814,0.0],[-97.2451,37.7814,0.0],[-97.2359,37.7814,0.0],[-97.2357,37.7742,0.0],[-97.2449,37.7742,0.0],[-97.2447,37.7643,0.0],[-97.2483,37.7627,0.0],[-97.2538,37.7604,0.0],[-97.2624,37.7569,0.0],[-97.2737,37.7522,0.0],[-97.2806,37.7523,0.0],[-97.2808,37.7713,0.0],[-97.2808,37.7813,0.0]]]]}},{"type":"Feature","properties":{"uesi_id":"USA_R129814","nbhd_code":"USA_R129814_110","nbhd_name":"Census Tract 101.15"},"geometry":{"type":"MultiPolygon","coordinates":[[[[-97.2263,37.7304,0.0],[-97.1896,37.7307,0.0],[-97.1896,37.7304,0.0],[-97.1713,37.7305,0.0],[-97.1713,37.7232,0.0],[-97.1622,37.7233,0.0],[-97.1557,37.7233,0.0],[-97.1529,37.7233,0.0],[-97.153,37.716,0.0],[-97.153,37.7087,0.0],[-97.1532,37.7087,0.0],[-97.1576,37.7087,0.0],[-97.1713,37.7086,0.0],[-97.1759,37.7086,0.0],[-97.1798,37.7086,0.0],[-97.1799,37.7086,0.0],[-97.1805,37.7086,0.0],[-97.1896,37.7085,0.0],[-97.1972,37.7085,0.0],[-97.1988,37.7086,0.0],[-97.1989,37.7086,0.0],[-97.1994,37.7086,0.0],[-97.2019,37.7086,0.0],[-97.2099,37.7085,0.0],[-97.2262,37.7084,0.0],[-97.2262,37.7156,0.0],[-97.2263,37.723,0.0],[-97.2263,37.7304,0.0]]]]}},{"type":"Feature","properties":{"uesi_id":"USA_R129814","nbhd_code":"USA_R129814_111","nbhd_name":"Census Tract 101.16"},"geometry":{"type":"MultiPolygon","coordinates":[[[[-97.2632,37.9123,0.0],[-97.2443,37.9124,0.0],[-97.1525,37.9127,0.0],[-97.1523,37.8468,0.0],[-97.1523,37.8321,0.0],[-97.1521,37.8252,0.0],[-97.1534,37.8252,0.0],[-97.1531,37.774,0.0],[-97.1529,37.7379,0.0],[-97.1529,37.7306,0.0],[-97.1529,37.7288,0.0],[-97.1529,37.7279,0.0],[-97.1529,37.7233,0.0],[-97.1557,37.7233,0.0],[-97.1622,37.7233,0.0],[-97.1713,37.7232,0.0],[-97.1713,37.7305,0.0],[-97.1896,37.7304,0.0],[-97.1896,37.7307,0.0],[-97.2263,37.7304,0.0],[-97.2263,37.7374,0.0],[-97.2263,37.7375,0.0],[-97.2264,37.7523,0.0],[-97.2265,37.7668,0.0],[-97.2265,37.7705,0.0],[-97.2264,37.7705,0.0],[-97.2265,37.7726,0.0],[-97.2356,37.7683,0.0],[-97.2356,37.7685,0.0],[-97.2359,37.7681,0.0],[-97.2387,37.7668,0.0],[-97.2447,37.7643,0.0],[-97.2449,37.7742,0.0],[-97.2357,37.7742,0.0],[-97.2359,37.7814,0.0],[-97.2451,37.7814,0.0],[-97.2542,37.7814,0.0],[-97.2561,37.7814,0.0],[-97.2625,37.7814,0.0],[-97.2626,37.7886,0.0],[-97.2626,37.7929,0.0],[-97.2626,37.7981,0.0],[-97.2626,37.7983,0.0],[-97.2626,37.8,0.0],[-97.2627,37.8104,0.0],[-97.2627,37.825,0.0],[-97.2621,37.825,0.0],[-97.2635,37.9041,0.0],[-97.2632,37.9123,0.0]]]]}},{"type":"Feature","properties":{"uesi_id":"USA_R129814","nbhd_code":"USA_R129814_112","nbhd_name":"Census Tract 108.01"},"geometry":{"type":"MultiPolygon","coordinates":[[[[-97.2806,37.7455,0.0],[-97.2625,37.7454,0.0],[-97.2623,37.7454,0.0],[-97.2537,37.7453,0.0],[-97.2448,37.7444,0.0],[-97.2359,37.7442,0.0],[-97.234,37.7435,0.0],[-97.2263,37.7375,0.0],[-97.2263,37.7374,0.0],[-97.2285,37.7377,0.0],[-97.2351,37.7378,0.0],[-97.2359,37.7377,0.0],[-97.2447,37.7377,0.0],[-97.2541,37.7376,0.0],[-97.2623,37.7376,0.0],[-97.2806,37.7376,0.0],[-97.2806,37.7455,0.0]]]]}}]}