{"type":"FeatureCollection","name":"USA_R194119","crs":{"type":"name","properties":{"name":"urn:ogc:def:crs:OGC:1.3:CRS84"}},"features":[{"type":"Feature","properties":{"uesi_id":"USA_R194119","nbhd_code":"USA_R194119_1","nbhd_name":"Census Tract 2"},"geometry":{"type":"MultiPolygon","coordinates":[[[[-79.9354,32.7707,0.0],[-79.9338,32.772,0.0],[-79.9342,32.7742,0.0],[-79.9343,32.7743,0.0],[-79.9347,32.7761,0.0],[-79.9348,32.7776,0.0],[-79.9329,32.7778,0.0],[-79.9236,32.7793,0.0],[-79.9244,32.775,0.0],[-79.9274,32.7725,0.0],[-79.9288,32.7691,0.0],[-79.9287,32.763,0.0],[-79.9362,32.7631,0.0],[-79.9354,32.7707,0.0]]]]}},{"type":"Feature","properties":{"uesi_id":"USA_R194119","nbhd_code":"USA_R194119_2","nbhd_name":"Census Tract 5"},"geometry":{"type":"MultiPolygon","coordinates":[[[[-79.955,32.7808,0.0],[-79.9469,32.7829,0.0],[-79.9456,32.7833,0.0],[-79.941,32.7844,0.0],[-79.9394,32.7816,0.0],[-79.9383,32.7795,0.0],[-79.9411,32.7784,0.0],[-79.9448,32.777,0.0],[-79.9444,32.7762,0.0],[-79.9495,32.7737,0.0],[-79.9568,32.7797,0.0],[-79.955,32.7808,0.0]]]]}},{"type":"Feature","properties":{"uesi_id":"USA_R194119","nbhd_code":"USA_R194119_3","nbhd_name":"Census Tract 15"},"geometry":{"type":"MultiPolygon","coordinates":[[[[-79.9549,32.8124,0.0],[-79.9527,32.8124,0.0],[-79.9502,32.8105,0.0],[-79.949,32.8075,0.0],[-79.9495,32.8073,0.0],[-79.9508,32.8065,0.0],[-79.9511,32.8035,0.0],[-79.9495,32.8012,0.0],[-79.9519,32.7999,0.0],[-79.9535,32.8031,0.0],[-79.9541,32.8059,0.0],[-79.9551,32.8104,0.0],[-79.9549,32.8124,0.0]]]]}},{"type":"Feature","properties":{"uesi_id":"USA_R194119","nbhd_code":"USA_R194119_4","nbhd_name":"Census Tract 30"},"geometry":{"type":"MultiPolygon","coordinates":[[[[-79.9926,32.7832,0.0],[-79.9876,32.7823,0.0],[-79.9874,32.7823,0.0],[-79.9852,32.7819,0.0],[-79.9844,32.7828,0.0],[-79.9836,32.7832,0.0],[-79.9829,32.7835,0.0],[-79.9819,32.784,0.0],[-79.9817,32.7841,0.0],[-79.979,32.7853,0.0],[-79.9786,32.7856,0.0],[-79.9774,32.7861,0.0],[-79.9768,32.7857,0.0],[-79.9744,32.7877,0.0],[-79.9703,32.7869,0.0],[-79.967,32.7886,0.0],[-79.961,32.7835,0.0],[-79.9568,32.7797,0.0],[-79.9495,32.7737,0.0],[-79.9638,32.7681,0.0],[-79.9701,32.7674,0.0],[-79.9729,32.7664,0.0],[-79.974,32.7664,0.0],[-79.9831,32.7664,0.0],[-79.9823,32.7674,0.0],[-79.9861,32.7725,0.0],[-79.9875,32.771,0.0],[-79.9883,32.771,0.0],[-79.99,32.772,0.0],[-79.9916,32.7736,0.0],[-79.9904,32.7747,0.0],[-79.9916,32.7762,0.0],[-79.9911,32.7766,0.0],[-79.9917,32.7816,0.0],[-79.9938,32.7834,0.0],[-79.9926,32.7832,0.0]]]]}},{"type":"Feature","properties":{"uesi_id":"USA_R194119","nbhd_code":"USA_R194119_5","nbhd_name":"Census Tract 52"},"geometry":{"type":"MultiPolygon","coordinates":[[[[-79.9723,32.7986,0.0],[-79.9705,32.8037,0.0],[-79.9641,32.8047,0.0],[-79.9599,32.8036,0.0],[-79.9566,32.8044,0.0],[-79.9568,32.8053,0.0],[-79.9562,32.8055,0.0],[-79.9541,32.8059,0.0],[-79.9535,32.8031,0.0],[-79.9519,32.7999,0.0],[-79.9507,32.7976,0.0],[-79.952,32.7968,0.0],[-79.9573,32.7941,0.0],[-79.9595,32.7923,0.0],[-79.967,32.7886,0.0],[-79.971,32.7935,0.0],[-79.972,32.797,0.0],[-79.9723,32.7986,0.0]]]]}},{"type":"Feature","properties":{"uesi_id":"USA_R194119","nbhd_code":"USA_R194119_6","nbhd_name":"Census Tract 204.03"},"geometry":{"type":"MultiPolygon","coordinates":[[[[-79.9646,32.8816,0.0],[-79.9627,32.8911,0.0],[-79.9581,32.8905,0.0],[-79.9581,32.8904,0.0],[-79.9467,32.8887,0.0],[-79.9442,32.888,0.0],[-79.9428,32.8873,0.0],[-79.9374,32.8834,0.0],[-79.9315,32.8789,0.0],[-79.9269,32.8756,0.0],[-79.9221,32.8734,0.0],[-79.9214,32.874,0.0],[-79.9218,32.8753,0.0],[-79.9205,32.8775,0.0],[-79.9184,32.8772,0.0],[-79.9176,32.878,0.0],[-79.9167,32.8774,0.0],[-79.9159,32.8789,0.0],[-79.9169,32.8796,0.0],[-79.9167,32.8838,0.0],[-79.916,32.8848,0.0],[-79.9132,32.8864,0.0],[-79.9099,32.8905,0.0],[-79.9054,32.8921,0.0],[-79.9044,32.8934,0.0],[-79.9038,32.8956,0.0],[-79.9012,32.8986,0.0],[-79.8994,32.8995,0.0],[-79.8975,32.8996,0.0],[-79.8964,32.8989,0.0],[-79.8955,32.8968,0.0],[-79.8939,32.8955,0.0],[-79.8932,32.8958,0.0],[-79.8916,32.8983,0.0],[-79.8892,32.9005,0.0],[-79.8854,32.9009,0.0],[-79.8828,32.8991,0.0],[-79.8816,32.8971,0.0],[-79.8802,32.8933,0.0],[-79.8765,32.885,0.0],[-79.8758,32.8816,0.0],[-79.876,32.8716,0.0],[-79.8759,32.8681,0.0],[-79.8829,32.8685,0.0],[-79.8836,32.8683,0.0],[-79.8853,32.8675,0.0],[-79.8939,32.8619,0.0],[-79.8962,32.86,0.0],[-79.898,32.8575,0.0],[-79.8985,32.8552,0.0],[-79.8971,32.8491,0.0],[-79.8952,32.8431,0.0],[-79.8952,32.8387,0.0],[-79.8953,32.8373,0.0],[-79.8963,32.8312,0.0],[-79.8967,32.8305,0.0],[-79.8978,32.8289,0.0],[-79.899,32.8275,0.0],[-79.9019,32.8252,0.0],[-79.9061,32.8232,0.0],[-79.9083,32.8225,0.0],[-79.9113,32.8193,0.0],[-79.9143,32.8189,0.0],[-79.9151,32.8188,0.0],[-79.9192,32.819,0.0],[-79.9283,32.824,0.0],[-79.9294,32.825,0.0],[-79.9304,32.8263,0.0],[-79.931,32.829,0.0],[-79.9316,32.8351,0.0],[-79.9314,32.8385,0.0],[-79.9299,32.8434,0.0],[-79.9301,32.8471,0.0],[-79.9316,32.8497,0.0],[-79.9335,32.8518,0.0],[-79.9368,32.8538,0.0],[-79.9409,32.855,0.0],[-79.9494,32.8563,0.0],[-79.9519,32.8571,0.0],[-79.9552,32.8588,0.0],[-79.9564,32.8598,0.0],[-79.9596,32.8638,0.0],[-79.961,32.8663,0.0],[-79.9641,32.8759,0.0],[-79.9645,32.878,0.0],[-79.9646,32.8816,0.0]]]]}},{"type":"Feature","properties":{"uesi_id":"USA_R194119","nbhd_code":"USA_R194119_7","nbhd_name":"Census Tract 204.05"},"geometry":{"type":"MultiPolygon","coordinates":[[[[-79.937,33.0559,0.0],[-79.9365,33.0568,0.0],[-79.935,33.057,0.0],[-79.9309,33.0551,0.0],[-79.9282,33.0546,0.0],[-79.9264,33.055,0.0],[-79.9238,33.0585,0.0],[-79.9221,33.0628,0.0],[-79.9222,33.0654,0.0],[-79.9233,33.0664,0.0],[-79.9225,33.0672,0.0],[-79.9216,33.0684,0.0],[-79.9179,33.069,0.0],[-79.9165,33.0672,0.0],[-79.9174,33.0653,0.0],[-79.9172,33.0639,0.0],[-79.9138,33.0631,0.0],[-79.9101,33.0618,0.0],[-79.8995,33.0658,0.0],[-79.8976,33.0649,0.0],[-79.8967,33.0631,0.0],[-79.894,33.062,0.0],[-79.8907,33.0672,0.0],[-79.8899,33.0677,0.0],[-79.8867,33.0674,0.0],[-79.884,33.0675,0.0],[-79.8831,33.0681,0.0],[-79.8829,33.0725,0.0],[-79.8822,33.0739,0.0],[-79.8798,33.0741,0.0],[-79.8768,33.0707,0.0],[-79.8759,33.0707,0.0],[-79.8744,33.0742,0.0],[-79.8734,33.0749,0.0],[-79.8715,33.0749,0.0],[-79.8703,33.074,0.0],[-79.8691,33.0712,0.0],[-79.8679,33.0704,0.0],[-79.865,33.0707,0.0],[-79.8614,33.0701,0.0],[-79.8606,33.0705,0.0],[-79.8594,33.0744,0.0],[-79.8578,33.0761,0.0],[-79.855,33.0773,0.0],[-79.8526,33.0811,0.0],[-79.8508,33.082,0.0],[-79.8489,33.0852,0.0],[-79.8468,33.0865,0.0],[-79.8446,33.0872,0.0],[-79.8403,33.087,0.0],[-79.8394,33.0873,0.0],[-79.8385,33.0894,0.0],[-79.8358,33.0907,0.0],[-79.8336,33.0925,0.0],[-79.8283,33.0947,0.0],[-79.8261,33.0973,0.0],[-79.8269,33.0995,0.0],[-79.826,33.1005,0.0],[-79.824,33.101,0.0],[-79.8209,33.1015,0.0],[-79.8183,33.1004,0.0],[-79.8157,33.1012,0.0],[-79.8133,33.099,0.0],[-79.8117,33.0996,0.0],[-79.81,33.0979,0.0],[-79.808,33.0943,0.0],[-79.8071,33.0935,0.0],[-79.8071,33.0907,0.0],[-79.8041,33.0894,0.0],[-79.8018,33.089,0.0],[-79.7983,33.0857,0.0],[-79.7968,33.0858,0.0],[-79.7898,33.0833,0.0],[-79.786,33.0788,0.0],[-79.7813,33.076,0.0],[-79.7781,33.0774,0.0],[-79.7747,33.0747,0.0],[-79.7739,33.0725,0.0],[-79.7702,33.0672,0.0],[-79.7684,33.0642,0.0],[-79.7648,33.0603,0.0],[-79.7643,33.0584,0.0],[-79.7622,33.0567,0.0],[-79.7592,33.0517,0.0],[-79.7581,33.051,0.0],[-79.7539,33.0464,0.0],[-79.7515,33.0454,0.0],[-79.7498,33.0437,0.0],[-79.7458,33.0417,0.0],[-79.7356,33.0376,0.0],[-79.7362,33.034,0.0],[-79.7361,33.0309,0.0],[-79.7355,33.0278,0.0],[-79.7323,33.0233,0.0],[-79.7309,33.0207,0.0],[-79.7286,33.0199,0.0],[-79.7265,33.02,0.0],[-79.729,33.0141,0.0],[-79.7303,33.0126,0.0],[-79.743,33.0054,0.0],[-79.7489,33.0002,0.0],[-79.7515,32.9988,0.0],[-79.7553,32.996,0.0],[-79.7586,32.992,0.0],[-79.7621,32.9891,0.0],[-79.7668,32.9795,0.0],[-79.7685,32.9755,0.0],[-79.7678,32.9737,0.0],[-79.7693,32.9716,0.0],[-79.7693,32.9685,0.0],[-79.7659,32.9641,0.0],[-79.7645,32.9601,0.0],[-79.7636,32.9582,0.0],[-79.7636,32.9563,0.0],[-79.7652,32.9566,0.0],[-79.7661,32.9546,0.0],[-79.7677,32.955,0.0],[-79.7675,32.9528,0.0],[-79.7691,32.9515,0.0],[-79.7704,32.9467,0.0],[-79.7718,32.9439,0.0],[-79.771,32.9419,0.0],[-79.7747,32.9416,0.0],[-79.7789,32.9437,0.0],[-79.7812,32.9438,0.0],[-79.7831,32.9432,0.0],[-79.7921,32.9371,0.0],[-79.7962,32.9351,0.0],[-79.7982,32.9338,0.0],[-79.8011,32.9307,0.0],[-79.8022,32.9299,0.0],[-79.8032,32.9292,0.0],[-79.8094,32.9289,0.0],[-79.8149,32.9274,0.0],[-79.8164,32.926,0.0],[-79.8192,32.9218,0.0],[-79.8216,32.9203,0.0],[-79.8225,32.9213,0.0],[-79.8244,32.9199,0.0],[-79.8259,32.9187,0.0],[-79.8286,32.919,0.0],[-79.8293,32.919,0.0],[-79.8292,32.9195,0.0],[-79.8286,32.9211,0.0],[-79.8275,32.9223,0.0],[-79.8235,32.9257,0.0],[-79.8208,32.9282,0.0],[-79.8203,32.93,0.0],[-79.8206,32.9313,0.0],[-79.8222,32.9329,0.0],[-79.8233,32.9333,0.0],[-79.8256,32.9335,0.0],[-79.8318,32.9338,0.0],[-79.832,32.9341,0.0],[-79.838,32.9421,0.0],[-79.8399,32.9442,0.0],[-79.8448,32.9498,0.0],[-79.8513,32.9535,0.0],[-79.8525,32.9546,0.0],[-79.8529,32.9545,0.0],[-79.8533,32.9544,0.0],[-79.8537,32.9545,0.0],[-79.8544,32.955,0.0],[-79.8547,32.9551,0.0],[-79.8551,32.9551,0.0],[-79.8556,32.9549,0.0],[-79.8563,32.9547,0.0],[-79.8567,32.955,0.0],[-79.8578,32.9553,0.0],[-79.8628,32.9608,0.0],[-79.8641,32.9615,0.0],[-79.8653,32.962,0.0],[-79.8652,32.9626,0.0],[-79.8677,32.9638,0.0],[-79.8734,32.9635,0.0],[-79.8744,32.9644,0.0],[-79.877,32.9642,0.0],[-79.8774,32.9645,0.0],[-79.879,32.9662,0.0],[-79.8799,32.9649,0.0],[-79.8801,32.9649,0.0],[-79.8803,32.9651,0.0],[-79.8803,32.9658,0.0],[-79.8806,32.9667,0.0],[-79.881,32.9669,0.0],[-79.8838,32.9664,0.0],[-79.885,32.9655,0.0],[-79.8852,32.964,0.0],[-79.8859,32.9637,0.0],[-79.8871,32.9656,0.0],[-79.8886,32.9641,0.0],[-79.8893,32.9621,0.0],[-79.8899,32.9619,0.0],[-79.8913,32.9624,0.0],[-79.8933,32.9615,0.0],[-79.8939,32.9622,0.0],[-79.8934,32.9639,0.0],[-79.8944,32.9647,0.0],[-79.8974,32.9645,0.0],[-79.9003,32.9613,0.0],[-79.8985,32.9593,0.0],[-79.8991,32.9591,0.0],[-79.9003,32.9593,0.0],[-79.902,32.9599,0.0],[-79.9024,32.9606,0.0],[-79.9018,32.9625,0.0],[-79.9036,32.9637,0.0],[-79.902,32.9675,0.0],[-79.9037,32.9708,0.0],[-79.9036,32.9723,0.0],[-79.9058,32.9731,0.0],[-79.9081,32.9717,0.0],[-79.911,32.9723,0.0],[-79.9121,32.9742,0.0],[-79.9107,32.9769,0.0],[-79.9117,32.9804,0.0],[-79.9128,32.9823,0.0],[-79.9176,32.9835,0.0],[-79.9223,32.9838,0.0],[-79.9235,32.9843,0.0],[-79.9247,32.9857,0.0],[-79.9251,32.9912,0.0],[-79.9248,32.9928,0.0],[-79.9237,32.9941,0.0],[-79.9215,32.9947,0.0],[-79.9162,32.9936,0.0],[-79.9139,32.9936,0.0],[-79.9111,32.9945,0.0],[-79.9087,32.9961,0.0],[-79.9045,33.0001,0.0],[-79.9008,33.0057,0.0],[-79.9005,33.0087,0.0],[-79.902,33.0098,0.0],[-79.9049,33.0098,0.0],[-79.914,33.0077,0.0],[-79.9184,33.0079,0.0],[-79.9201,33.0093,0.0],[-79.9213,33.0111,0.0],[-79.922,33.0141,0.0],[-79.9204,33.0159,0.0],[-79.918,33.0159,0.0],[-79.915,33.0144,0.0],[-79.9116,33.0135,0.0],[-79.9094,33.014,0.0],[-79.9083,33.0153,0.0],[-79.9075,33.0175,0.0],[-79.9081,33.0184,0.0],[-79.9155,33.0206,0.0],[-79.9172,33.0226,0.0],[-79.9166,33.0241,0.0],[-79.9119,33.028,0.0],[-79.9108,33.0297,0.0],[-79.9107,33.031,0.0],[-79.9134,33.0335,0.0],[-79.9149,33.0339,0.0],[-79.9161,33.0357,0.0],[-79.9168,33.0386,0.0],[-79.9191,33.0398,0.0],[-79.9244,33.0399,0.0],[-79.9256,33.0402,0.0],[-79.9291,33.0426,0.0],[-79.9305,33.0431,0.0],[-79.9331,33.0451,0.0],[-79.9344,33.0473,0.0],[-79.9367,33.0533,0.0],[-79.937,33.0559,0.0]]]]}},{"type":"Feature","properties":{"uesi_id":"USA_R194119","nbhd_code":"USA_R194119_8","nbhd_name":"Census Tract 28.01"},"geometry":{"type":"MultiPolygon","coordinates":[[[[-80.0566,32.7936,0.0],[-80.0492,32.7928,0.0],[-80.0471,32.7926,0.0],[-80.0465,32.7925,0.0],[-80.0435,32.7921,0.0],[-80.0424,32.7919,0.0],[-80.0418,32.7918,0.0],[-80.0323,32.7902,0.0],[-80.0318,32.7901,0.0],[-80.0307,32.7899,0.0],[-80.0303,32.7898,0.0],[-80.0292,32.7896,0.0],[-80.0277,32.7894,0.0],[-80.0276,32.7893,0.0],[-80.0249,32.7889,0.0],[-80.023,32.7885,0.0],[-80.0228,32.7885,0.0],[-80.0207,32.7881,0.0],[-80.0205,32.787,0.0],[-80.0194,32.7788,0.0],[-80.0191,32.7774,0.0],[-80.0188,32.7768,0.0],[-80.0183,32.776,0.0],[-80.018,32.7756,0.0],[-80.0169,32.775,0.0],[-80.0177,32.7723,0.0],[-80.0177,32.7717,0.0],[-80.018,32.7684,0.0],[-80.0222,32.7683,0.0],[-80.0321,32.7703,0.0],[-80.0353,32.7719,0.0],[-80.0389,32.7739,0.0],[-80.0432,32.7762,0.0],[-80.0472,32.7781,0.0],[-80.051,32.7787,0.0],[-80.0535,32.7787,0.0],[-80.0538,32.7787,0.0],[-80.0538,32.7811,0.0],[-80.0562,32.7914,0.0],[-80.0564,32.7926,0.0],[-80.0566,32.7936,0.0]]]]}},{"type":"Feature","properties":{"uesi_id":"USA_R194119","nbhd_code":"USA_R194119_9","nbhd_name":"Census Tract 6"},"geometry":{"type":"MultiPolygon","coordinates":[[[[-79.961,32.7835,0.0],[-79.9566,32.7853,0.0],[-79.951,32.7885,0.0],[-79.9492,32.7893,0.0],[-79.9473,32.7902,0.0],[-79.9458,32.787,0.0],[-79.9433,32.7877,0.0],[-79.9419,32.7861,0.0],[-79.941,32.7844,0.0],[-79.9456,32.7833,0.0],[-79.9469,32.7829,0.0],[-79.955,32.7808,0.0],[-79.9568,32.7797,0.0],[-79.961,32.7835,0.0]]]]}},{"type":"Feature","properties":{"uesi_id":"USA_R194119","nbhd_code":"USA_R194119_10","nbhd_name":"Census Tract 9"},"geometry":{"type":"MultiPolygon","coordinates":[[[[-79.94,32.7977,0.0],[-79.9352,32.8003,0.0],[-79.9365,32.8028,0.0],[-79.9358,32.8042,0.0],[-79.9336,32.8049,0.0],[-79.9335,32.8049,0.0],[-79.9308,32.8049,0.0],[-79.9244,32.804,0.0],[-79.9157,32.8029,0.0],[-79.9164,32.7962,0.0],[-79.9254,32.7923,0.0],[-79.9302,32.7902,0.0],[-79.9311,32.7921,0.0],[-79.9322,32.7941,0.0],[-79.937,32.7923,0.0],[-79.9373,32.7929,0.0],[-79.9386,32.7953,0.0],[-79.9393,32.7966,0.0],[-79.94,32.7977,0.0]]]]}},{"type":"Feature","properties":{"uesi_id":"USA_R194119","nbhd_code":"USA_R194119_11","nbhd_name":"Census Tract 19.01"},"geometry":{"type":"MultiPolygon","coordinates":[[[[-80.0089,32.7574,0.0],[-80.0086,32.7578,0.0],[-80.0035,32.7633,0.0],[-80.0034,32.7641,0.0],[-80.004,32.7658,0.0],[-80.0019,32.767,0.0],[-80.0011,32.7672,0.0],[-79.9965,32.7679,0.0],[-79.9929,32.7686,0.0],[-79.9927,32.7687,0.0],[-79.9913,32.7692,0.0],[-79.9905,32.7692,0.0],[-79.9887,32.7678,0.0],[-79.9862,32.7661,0.0],[-79.984,32.7661,0.0],[-79.9831,32.7664,0.0],[-79.974,32.7664,0.0],[-79.9745,32.7634,0.0],[-79.9758,32.7627,0.0],[-79.9809,32.7628,0.0],[-79.9821,32.7628,0.0],[-79.9825,32.7596,0.0],[-79.9826,32.7587,0.0],[-79.9832,32.7543,0.0],[-79.9835,32.751,0.0],[-79.9832,32.7501,0.0],[-79.9814,32.7457,0.0],[-79.9813,32.7456,0.0],[-79.9824,32.7451,0.0],[-79.9829,32.7444,0.0],[-79.9814,32.7435,0.0],[-79.9815,32.7431,0.0],[-79.9815,32.7428,0.0],[-79.9813,32.7425,0.0],[-79.9811,32.7424,0.0],[-79.9807,32.7425,0.0],[-79.9805,32.7424,0.0],[-79.9807,32.7423,0.0],[-79.9807,32.7422,0.0],[-79.9807,32.7418,0.0],[-79.9806,32.7415,0.0],[-79.9801,32.7412,0.0],[-79.9792,32.7401,0.0],[-79.9791,32.7393,0.0],[-79.9806,32.7359,0.0],[-79.9823,32.7337,0.0],[-79.9889,32.7304,0.0],[-79.9921,32.7293,0.0],[-79.9946,32.7295,0.0],[-79.9952,32.7272,0.0],[-79.993,32.7267,0.0],[-79.9938,32.7256,0.0],[-79.9951,32.7258,0.0],[-79.9963,32.7214,0.0],[-79.997,32.7216,0.0],[-79.999,32.722,0.0],[-80.0,32.7222,0.0],[-80.0047,32.7231,0.0],[-80.0053,32.7234,0.0],[-80.0074,32.7253,0.0],[-80.0094,32.7287,0.0],[-80.0098,32.7329,0.0],[-80.0096,32.7355,0.0],[-80.0083,32.7419,0.0],[-80.0085,32.745,0.0],[-80.0101,32.753,0.0],[-80.0089,32.7574,0.0]]]]}},{"type":"Feature","properties":{"uesi_id":"USA_R194119","nbhd_code":"USA_R194119_12","nbhd_name":"Census Tract 21.01"},"geometry":{"type":"MultiPolygon","coordinates":[[[[-80.1703,32.7382,0.0],[-80.1678,32.7417,0.0],[-80.1661,32.7432,0.0],[-80.1657,32.7437,0.0],[-80.1654,32.7438,0.0],[-80.1647,32.7444,0.0],[-80.1639,32.7466,0.0],[-80.1629,32.7479,0.0],[-80.1604,32.7493,0.0],[-80.159,32.7498,0.0],[-80.1575,32.7499,0.0],[-80.1555,32.7499,0.0],[-80.1513,32.748,0.0],[-80.1475,32.7475,0.0],[-80.1406,32.7471,0.0],[-80.1372,32.7487,0.0],[-80.1361,32.7526,0.0],[-80.1359,32.7546,0.0],[-80.1347,32.7561,0.0],[-80.132,32.7578,0.0],[-80.1313,32.759,0.0],[-80.1314,32.7606,0.0],[-80.1333,32.7653,0.0],[-80.1334,32.7684,0.0],[-80.1279,32.777,0.0],[-80.1248,32.7789,0.0],[-80.1214,32.7799,0.0],[-80.121,32.7809,0.0],[-80.1195,32.7804,0.0],[-80.1115,32.7831,0.0],[-80.1072,32.7857,0.0],[-80.1019,32.7871,0.0],[-80.0999,32.7866,0.0],[-80.096,32.783,0.0],[-80.0889,32.779,0.0],[-80.0828,32.7784,0.0],[-80.0793,32.7776,0.0],[-80.0758,32.7754,0.0],[-80.0725,32.7721,0.0],[-80.0706,32.7709,0.0],[-80.0689,32.7708,0.0],[-80.0671,32.7713,0.0],[-80.0612,32.7757,0.0],[-80.0571,32.7775,0.0],[-80.0538,32.7787,0.0],[-80.0535,32.7787,0.0],[-80.051,32.7787,0.0],[-80.0472,32.7781,0.0],[-80.0432,32.7762,0.0],[-80.0389,32.7739,0.0],[-80.0353,32.7719,0.0],[-80.0321,32.7703,0.0],[-80.0222,32.7683,0.0],[-80.018,32.7684,0.0],[-80.0087,32.7687,0.0],[-80.004,32.7658,0.0],[-80.0034,32.7641,0.0],[-80.0035,32.7633,0.0],[-80.0086,32.7578,0.0],[-80.0089,32.7574,0.0],[-80.0101,32.753,0.0],[-80.0224,32.7516,0.0],[-80.0267,32.7517,0.0],[-80.0289,32.7517,0.0],[-80.0302,32.7512,0.0],[-80.0378,32.7439,0.0],[-80.0383,32.7436,0.0],[-80.0378,32.7429,0.0],[-80.0364,32.741,0.0],[-80.0323,32.7356,0.0],[-80.0314,32.7344,0.0],[-80.0301,32.7327,0.0],[-80.0299,32.7324,0.0],[-80.0292,32.7318,0.0],[-80.0284,32.7311,0.0],[-80.0264,32.7292,0.0],[-80.026,32.7289,0.0],[-80.0239,32.7258,0.0],[-80.0215,32.7187,0.0],[-80.0219,32.7185,0.0],[-80.0266,32.7154,0.0],[-80.0322,32.7142,0.0],[-80.0394,32.712,0.0],[-80.0414,32.7115,0.0],[-80.0461,32.7095,0.0],[-80.0543,32.7079,0.0],[-80.061,32.7079,0.0],[-80.0691,32.7092,0.0],[-80.0689,32.7084,0.0],[-80.0692,32.7068,0.0],[-80.0708,32.7069,0.0],[-80.072,32.7063,0.0],[-80.0726,32.7048,0.0],[-80.0743,32.7032,0.0],[-80.0755,32.7002,0.0],[-80.0776,32.7023,0.0],[-80.0803,32.7064,0.0],[-80.0811,32.7085,0.0],[-80.0826,32.7095,0.0],[-80.0834,32.7116,0.0],[-80.0855,32.7132,0.0],[-80.0916,32.7144,0.0],[-80.0927,32.715,0.0],[-80.0937,32.7151,0.0],[-80.0942,32.715,0.0],[-80.0951,32.7152,0.0],[-80.096,32.7159,0.0],[-80.0977,32.7166,0.0],[-80.0986,32.7172,0.0],[-80.0993,32.7173,0.0],[-80.1033,32.717,0.0],[-80.1051,32.7177,0.0],[-80.1062,32.7161,0.0],[-80.1097,32.7141,0.0],[-80.1109,32.7139,0.0],[-80.1127,32.7126,0.0],[-80.1184,32.7109,0.0],[-80.1202,32.709,0.0],[-80.1258,32.7055,0.0],[-80.1283,32.7055,0.0],[-80.1301,32.7071,0.0],[-80.1323,32.7081,0.0],[-80.1356,32.709,0.0],[-80.1389,32.7113,0.0],[-80.1398,32.7114,0.0],[-80.1483,32.7096,0.0],[-80.1514,32.7075,0.0],[-80.1552,32.7068,0.0],[-80.1575,32.7044,0.0],[-80.1595,32.7046,0.0],[-80.161,32.7074,0.0],[-80.1626,32.7077,0.0],[-80.1659,32.7068,0.0],[-80.1695,32.7083,0.0],[-80.1716,32.7079,0.0],[-80.1713,32.7109,0.0],[-80.1702,32.7126,0.0],[-80.1665,32.7168,0.0],[-80.1643,32.7201,0.0],[-80.1638,32.7219,0.0],[-80.164,32.7227,0.0],[-80.167,32.7241,0.0],[-80.1675,32.7255,0.0],[-80.1688,32.7312,0.0],[-80.172,32.7345,0.0],[-80.1703,32.7382,0.0]]]]}},{"type":"Feature","properties":{"uesi_id":"USA_R194119","nbhd_code":"USA_R194119_13","nbhd_name":"Census Tract 4"},"geometry":{"type":"MultiPolygon","coordinates":[[[[-79.941,32.7844,0.0],[-79.9394,32.7847,0.0],[-79.9377,32.7853,0.0],[-79.9343,32.7867,0.0],[-79.9319,32.7877,0.0],[-79.9315,32.7858,0.0],[-79.9298,32.7833,0.0],[-79.9334,32.7815,0.0],[-79.9333,32.7811,0.0],[-79.9329,32.7778,0.0],[-79.9348,32.7776,0.0],[-79.9375,32.7774,0.0],[-79.9383,32.7795,0.0],[-79.9394,32.7816,0.0],[-79.941,32.7844,0.0]]]]}},{"type":"Feature","properties":{"uesi_id":"USA_R194119","nbhd_code":"USA_R194119_14","nbhd_name":"Census Tract 11"},"geometry":{"type":"MultiPolygon","coordinates":[[[[-79.967,32.7886,0.0],[-79.9595,32.7923,0.0],[-79.9573,32.7941,0.0],[-79.952,32.7968,0.0],[-79.9507,32.7976,0.0],[-79.9486,32.793,0.0],[-79.9479,32.7916,0.0],[-79.9473,32.7902,0.0],[-79.9492,32.7893,0.0],[-79.951,32.7885,0.0],[-79.9566,32.7853,0.0],[-79.961,32.7835,0.0],[-79.967,32.7886,0.0]]]]}},{"type":"Feature","properties":{"uesi_id":"USA_R194119","nbhd_code":"USA_R194119_15","nbhd_name":"Census Tract 26.04"},"geometry":{"type":"MultiPolygon","coordinates":[[[[-80.0157,32.8251,0.0],[-80.0148,32.828,0.0],[-80.013,32.8267,0.0],[-80.0069,32.8305,0.0],[-80.0031,32.8328,0.0],[-79.9936,32.8363,0.0],[-79.9881,32.8373,0.0],[-79.9846,32.8369,0.0],[-79.9859,32.8348,0.0],[-79.9878,32.8317,0.0],[-79.9897,32.8286,0.0],[-79.9924,32.8202,0.0],[-79.9928,32.8188,0.0],[-79.9946,32.8165,0.0],[-79.9972,32.8147,0.0],[-80.009,32.807,0.0],[-80.0099,32.8095,0.0],[-80.01,32.8098,0.0],[-80.0101,32.81,0.0],[-80.0104,32.8104,0.0],[-80.0121,32.812,0.0],[-80.0133,32.8132,0.0],[-80.0112,32.8143,0.0],[-80.0101,32.8186,0.0],[-80.0122,32.8187,0.0],[-80.0113,32.8197,0.0],[-80.0122,32.8213,0.0],[-80.0137,32.8205,0.0],[-80.0139,32.8206,0.0],[-80.014,32.821,0.0],[-80.0139,32.8212,0.0],[-80.0137,32.8215,0.0],[-80.0133,32.8221,0.0],[-80.0129,32.8222,0.0],[-80.0125,32.8222,0.0],[-80.0124,32.8225,0.0],[-80.0127,32.8228,0.0],[-80.0135,32.8232,0.0],[-80.0137,32.8234,0.0],[-80.0136,32.8238,0.0],[-80.0136,32.8241,0.0],[-80.0138,32.8243,0.0],[-80.0152,32.8245,0.0],[-80.0157,32.8251,0.0]]]]}},{"type":"Feature","properties":{"uesi_id":"USA_R194119","nbhd_code":"USA_R194119_16","nbhd_name":"Census Tract 27.02"},"geometry":{"type":"MultiPolygon","coordinates":[[[[-80.0207,32.7884,0.0],[-80.0205,32.7896,0.0],[-80.0164,32.7958,0.0],[-80.0152,32.8003,0.0],[-80.015,32.801,0.0],[-80.0148,32.802,0.0],[-80.0134,32.8023,0.0],[-80.013,32.8023,0.0],[-80.0112,32.8026,0.0],[-80.0076,32.8031,0.0],[-80.0075,32.803,0.0],[-80.0072,32.8022,0.0],[-80.0063,32.7996,0.0],[-80.0061,32.7987,0.0],[-80.0017,32.7979,0.0],[-80.0017,32.7973,0.0],[-80.0,32.7919,0.0],[-79.9966,32.785,0.0],[-79.9968,32.784,0.0],[-80.0003,32.7846,0.0],[-80.0026,32.785,0.0],[-80.0134,32.7869,0.0],[-80.0207,32.7881,0.0],[-80.0207,32.7884,0.0]]]]}},{"type":"Feature","properties":{"uesi_id":"USA_R194119","nbhd_code":"USA_R194119_17","nbhd_name":"Census Tract 29"},"geometry":{"type":"MultiPolygon","coordinates":[[[[-79.9972,32.7923,0.0],[-79.9949,32.7928,0.0],[-79.9854,32.7943,0.0],[-79.972,32.797,0.0],[-79.971,32.7935,0.0],[-79.967,32.7886,0.0],[-79.9703,32.7869,0.0],[-79.9744,32.7877,0.0],[-79.9768,32.7857,0.0],[-79.9774,32.7861,0.0],[-79.9786,32.7856,0.0],[-79.979,32.7853,0.0],[-79.9817,32.7841,0.0],[-79.9819,32.784,0.0],[-79.9829,32.7835,0.0],[-79.9836,32.7832,0.0],[-79.9844,32.7828,0.0],[-79.9852,32.7819,0.0],[-79.9874,32.7823,0.0],[-79.9876,32.7823,0.0],[-79.9926,32.7832,0.0],[-79.9938,32.7834,0.0],[-79.9968,32.784,0.0],[-79.9966,32.785,0.0],[-80.0,32.7919,0.0],[-79.9972,32.7923,0.0]]]]}},{"type":"Feature","properties":{"uesi_id":"USA_R194119","nbhd_code":"USA_R194119_18","nbhd_name":"Census Tract 26.06"},"geometry":{"type":"MultiPolygon","coordinates":[[[[-79.9954,32.8099,0.0],[-79.9953,32.8103,0.0],[-79.9928,32.8188,0.0],[-79.9924,32.8202,0.0],[-79.9897,32.8286,0.0],[-79.9878,32.8317,0.0],[-79.9859,32.8348,0.0],[-79.9846,32.8369,0.0],[-79.9784,32.8345,0.0],[-79.9736,32.8328,0.0],[-79.9698,32.8314,0.0],[-79.9686,32.8306,0.0],[-79.9672,32.8276,0.0],[-79.9666,32.8248,0.0],[-79.9664,32.8128,0.0],[-79.9705,32.8037,0.0],[-79.9723,32.7986,0.0],[-79.978,32.7992,0.0],[-79.9801,32.8017,0.0],[-79.9835,32.8005,0.0],[-79.9837,32.7993,0.0],[-79.9867,32.7978,0.0],[-79.9869,32.7978,0.0],[-79.9871,32.798,0.0],[-79.987,32.7983,0.0],[-79.9868,32.7987,0.0],[-79.9866,32.7991,0.0],[-79.9886,32.7994,0.0],[-79.9895,32.8007,0.0],[-79.9882,32.8015,0.0],[-79.9899,32.8039,0.0],[-79.9899,32.8063,0.0],[-79.9933,32.809,0.0],[-79.9954,32.8099,0.0]]]]}},{"type":"Feature","properties":{"uesi_id":"USA_R194119","nbhd_code":"USA_R194119_19","nbhd_name":"Census Tract 26.12"},"geometry":{"type":"MultiPolygon","coordinates":[[[[-80.0325,32.8165,0.0],[-80.0309,32.8197,0.0],[-80.0297,32.8287,0.0],[-80.0292,32.83,0.0],[-80.025,32.8351,0.0],[-80.0247,32.8349,0.0],[-80.0223,32.8338,0.0],[-80.0175,32.8299,0.0],[-80.0148,32.828,0.0],[-80.0157,32.8251,0.0],[-80.0152,32.8245,0.0],[-80.0138,32.8243,0.0],[-80.0136,32.8241,0.0],[-80.0136,32.8238,0.0],[-80.0137,32.8234,0.0],[-80.0135,32.8232,0.0],[-80.0127,32.8228,0.0],[-80.0124,32.8225,0.0],[-80.0125,32.8222,0.0],[-80.0129,32.8222,0.0],[-80.0133,32.8221,0.0],[-80.0137,32.8215,0.0],[-80.0139,32.8212,0.0],[-80.014,32.821,0.0],[-80.0139,32.8206,0.0],[-80.0137,32.8205,0.0],[-80.0122,32.8213,0.0],[-80.0113,32.8197,0.0],[-80.0122,32.8187,0.0],[-80.0101,32.8186,0.0],[-80.0112,32.8143,0.0],[-80.0133,32.8132,0.0],[-80.0121,32.812,0.0],[-80.0104,32.8104,0.0],[-80.0101,32.81,0.0],[-80.01,32.8098,0.0],[-80.0099,32.8095,0.0],[-80.009,32.807,0.0],[-80.0087,32.8062,0.0],[-80.0078,32.8039,0.0],[-80.0076,32.8031,0.0],[-80.0112,32.8026,0.0],[-80.013,32.8023,0.0],[-80.0134,32.8023,0.0],[-80.0148,32.802,0.0],[-80.015,32.801,0.0],[-80.0152,32.8003,0.0],[-80.0153,32.8004,0.0],[-80.0154,32.8005,0.0],[-80.0164,32.8014,0.0],[-80.0171,32.8019,0.0],[-80.0192,32.8037,0.0],[-80.0206,32.8049,0.0],[-80.0212,32.8055,0.0],[-80.0221,32.8062,0.0],[-80.0229,32.8069,0.0],[-80.0235,32.8075,0.0],[-80.0249,32.8087,0.0],[-80.0261,32.8096,0.0],[-80.0281,32.8114,0.0],[-80.0288,32.8119,0.0],[-80.0299,32.8129,0.0],[-80.0311,32.8142,0.0],[-80.0324,32.8162,0.0],[-80.0325,32.8165,0.0]]]]}},{"type":"Feature","properties":{"uesi_id":"USA_R194119","nbhd_code":"USA_R194119_20","nbhd_name":"Census Tract 51"},"geometry":{"type":"MultiPolygon","coordinates":[[[[-79.937,32.7923,0.0],[-79.9322,32.7941,0.0],[-79.9311,32.7921,0.0],[-79.9302,32.7902,0.0],[-79.9254,32.7923,0.0],[-79.9164,32.7962,0.0],[-79.9169,32.7911,0.0],[-79.9172,32.7829,0.0],[-79.9232,32.7818,0.0],[-79.9236,32.7793,0.0],[-79.9329,32.7778,0.0],[-79.9333,32.7811,0.0],[-79.9334,32.7815,0.0],[-79.9298,32.7833,0.0],[-79.9315,32.7858,0.0],[-79.9319,32.7877,0.0],[-79.9317,32.7878,0.0],[-79.9338,32.7895,0.0],[-79.9341,32.7899,0.0],[-79.9354,32.792,0.0],[-79.937,32.7923,0.0]]]]}},{"type":"Feature","properties":{"uesi_id":"USA_R194119","nbhd_code":"USA_R194119_21","nbhd_name":"Census Tract 27.01"},"geometry":{"type":"MultiPolygon","coordinates":[[[[-80.0431,32.7928,0.0],[-80.0427,32.7935,0.0],[-80.0425,32.7939,0.0],[-80.0415,32.7956,0.0],[-80.0412,32.7961,0.0],[-80.0411,32.7964,0.0],[-80.041,32.7967,0.0],[-80.0411,32.7997,0.0],[-80.041,32.8001,0.0],[-80.0405,32.8009,0.0],[-80.0386,32.8043,0.0],[-80.0356,32.8058,0.0],[-80.0298,32.8061,0.0],[-80.0235,32.8066,0.0],[-80.0229,32.8069,0.0],[-80.0221,32.8062,0.0],[-80.0212,32.8055,0.0],[-80.0206,32.8049,0.0],[-80.0192,32.8037,0.0],[-80.0171,32.8019,0.0],[-80.0164,32.8014,0.0],[-80.0154,32.8005,0.0],[-80.0153,32.8004,0.0],[-80.0152,32.8003,0.0],[-80.0164,32.7958,0.0],[-80.0205,32.7896,0.0],[-80.0207,32.7884,0.0],[-80.0207,32.7881,0.0],[-80.0228,32.7885,0.0],[-80.023,32.7885,0.0],[-80.0249,32.7889,0.0],[-80.0276,32.7893,0.0],[-80.0277,32.7894,0.0],[-80.0292,32.7896,0.0],[-80.0303,32.7898,0.0],[-80.0307,32.7899,0.0],[-80.0318,32.7901,0.0],[-80.0323,32.7902,0.0],[-80.0418,32.7918,0.0],[-80.0424,32.7919,0.0],[-80.0435,32.7921,0.0],[-80.0431,32.7928,0.0]]]]}},{"type":"Feature","properties":{"uesi_id":"USA_R194119","nbhd_code":"USA_R194119_22","nbhd_name":"Census Tract 57"},"geometry":{"type":"MultiPolygon","coordinates":[[[[-80.16342,32.85455,0.0],[-80.1635,32.8545,0.0],[-80.16355,32.85455,0.0],[-80.16342,32.85455,0.0]]],[[[-80.1741,32.8655,0.0],[-80.1713,32.863,0.0],[-80.16355,32.85455,0.0],[-80.1695,32.8546,0.0],[-80.1761,32.8573,0.0],[-80.1819,32.8609,0.0],[-80.1816,32.8629,0.0],[-80.1825,32.8631,0.0],[-80.1767,32.8671,0.0],[-80.1741,32.8655,0.0]]],[[[-80.1552,32.8648,0.0],[-80.1558,32.8662,0.0],[-80.1622,32.8746,0.0],[-80.1497,32.8789,0.0],[-80.1448,32.8876,0.0],[-80.1375,32.8877,0.0],[-80.1383,32.884,0.0],[-80.1285,32.8885,0.0],[-80.1285,32.89,0.0],[-80.1284,32.8904,0.0],[-80.1272,32.89,0.0],[-80.1263,32.8898,0.0],[-80.1232,32.8971,0.0],[-80.1228,32.9018,0.0],[-80.1187,32.9015,0.0],[-80.1172,32.8982,0.0],[-80.1198,32.8948,0.0],[-80.1195,32.8936,0.0],[-80.1151,32.8922,0.0],[-80.1125,32.8918,0.0],[-80.1079,32.893,0.0],[-80.1058,32.8934,0.0],[-80.1037,32.8933,0.0],[-80.102,32.893,0.0],[-80.1002,32.8921,0.0],[-80.0992,32.8909,0.0],[-80.0974,32.8862,0.0],[-80.0967,32.8848,0.0],[-80.0941,32.8829,0.0],[-80.0915,32.883,0.0],[-80.0861,32.8853,0.0],[-80.0807,32.8869,0.0],[-80.0771,32.8872,0.0],[-80.0758,32.8864,0.0],[-80.0755,32.886,0.0],[-80.0762,32.8841,0.0],[-80.0802,32.8806,0.0],[-80.0815,32.8788,0.0],[-80.0818,32.8778,0.0],[-80.0816,32.8762,0.0],[-80.0816,32.876,0.0],[-80.0807,32.8749,0.0],[-80.08,32.8746,0.0],[-80.0793,32.8743,0.0],[-80.0785,32.8739,0.0],[-80.0766,32.8732,0.0],[-80.0672,32.8714,0.0],[-80.0644,32.8702,0.0],[-80.0635,32.8692,0.0],[-80.0623,32.8674,0.0],[-80.0601,32.8651,0.0],[-80.0594,32.8614,0.0],[-80.0581,32.8579,0.0],[-80.0567,32.856,0.0],[-80.0561,32.8552,0.0],[-80.0527,32.8502,0.0],[-80.0515,32.8486,0.0],[-80.0503,32.8475,0.0],[-80.0561,32.8418,0.0],[-80.0606,32.8374,0.0],[-80.0627,32.8354,0.0],[-80.0661,32.8362,0.0],[-80.0677,32.8341,0.0],[-80.0776,32.8282,0.0],[-80.0854,32.835,0.0],[-80.0886,32.8376,0.0],[-80.0869,32.8406,0.0],[-80.09,32.8416,0.0],[-80.0922,32.8408,0.0],[-80.0955,32.8437,0.0],[-80.1005,32.8479,0.0],[-80.1024,32.849,0.0],[-80.126,32.8626,0.0],[-80.1284,32.8642,0.0],[-80.131,32.8609,0.0],[-80.1333,32.8604,0.0],[-80.1382,32.861,0.0],[-80.1417,32.8608,0.0],[-80.1507,32.8628,0.0],[-80.1537,32.8582,0.0],[-80.1562,32.8549,0.0],[-80.1574,32.8545,0.0],[-80.16342,32.85455,0.0],[-80.1613,32.8559,0.0],[-80.1552,32.8648,0.0]]]]}},{"type":"Feature","properties":{"uesi_id":"USA_R194119","nbhd_code":"USA_R194119_23","nbhd_name":"Census Tract 204.04"},"geometry":{"type":"MultiPolygon","coordinates":[[[[-79.9616,32.8934,0.0],[-79.9528,32.9038,0.0],[-79.9481,32.9072,0.0],[-79.9488,32.9081,0.0],[-79.9463,32.9091,0.0],[-79.9383,32.9109,0.0],[-79.9307,32.9136,0.0],[-79.9293,32.9145,0.0],[-79.9289,32.9173,0.0],[-79.9316,32.9222,0.0],[-79.9371,32.9283,0.0],[-79.9381,32.9307,0.0],[-79.938,32.9317,0.0],[-79.9366,32.9339,0.0],[-79.9354,32.9352,0.0],[-79.9306,32.9384,0.0],[-79.9275,32.941,0.0],[-79.9268,32.9423,0.0],[-79.9272,32.9442,0.0],[-79.9292,32.9482,0.0],[-79.9295,32.9517,0.0],[-79.929,32.9526,0.0],[-79.9252,32.9555,0.0],[-79.9208,32.9584,0.0],[-79.9192,32.9608,0.0],[-79.919,32.9621,0.0],[-79.9204,32.9639,0.0],[-79.9268,32.9686,0.0],[-79.9266,32.9719,0.0],[-79.9251,32.9737,0.0],[-79.9228,32.9742,0.0],[-79.9175,32.9724,0.0],[-79.9156,32.9725,0.0],[-79.9121,32.9742,0.0],[-79.911,32.9723,0.0],[-79.9081,32.9717,0.0],[-79.9058,32.9731,0.0],[-79.9036,32.9723,0.0],[-79.9037,32.9708,0.0],[-79.902,32.9675,0.0],[-79.9036,32.9637,0.0],[-79.9018,32.9625,0.0],[-79.9024,32.9606,0.0],[-79.902,32.9599,0.0],[-79.9003,32.9593,0.0],[-79.8991,32.9591,0.0],[-79.8985,32.9593,0.0],[-79.9003,32.9613,0.0],[-79.8974,32.9645,0.0],[-79.8944,32.9647,0.0],[-79.8934,32.9639,0.0],[-79.8939,32.9622,0.0],[-79.8933,32.9615,0.0],[-79.8913,32.9624,0.0],[-79.8899,32.9619,0.0],[-79.8893,32.9621,0.0],[-79.8886,32.9641,0.0],[-79.8871,32.9656,0.0],[-79.8859,32.9637,0.0],[-79.8852,32.964,0.0],[-79.885,32.9655,0.0],[-79.8838,32.9664,0.0],[-79.881,32.9669,0.0],[-79.8806,32.9667,0.0],[-79.8803,32.9658,0.0],[-79.8803,32.9651,0.0],[-79.8801,32.9649,0.0],[-79.8799,32.9649,0.0],[-79.879,32.9662,0.0],[-79.8774,32.9645,0.0],[-79.877,32.9642,0.0],[-79.8744,32.9644,0.0],[-79.8734,32.9635,0.0],[-79.8677,32.9638,0.0],[-79.8652,32.9626,0.0],[-79.8653,32.962,0.0],[-79.8641,32.9615,0.0],[-79.8628,32.9608,0.0],[-79.8578,32.9553,0.0],[-79.8567,32.955,0.0],[-79.8563,32.9547,0.0],[-79.8556,32.9549,0.0],[-79.8551,32.9551,0.0],[-79.8547,32.9551,0.0],[-79.8544,32.955,0.0],[-79.8537,32.9545,0.0],[-79.8533,32.9544,0.0],[-79.8529,32.9545,0.0],[-79.8525,32.9546,0.0],[-79.8513,32.9535,0.0],[-79.8448,32.9498,0.0],[-79.8399,32.9442,0.0],[-79.838,32.9421,0.0],[-79.832,32.9341,0.0],[-79.8318,32.9338,0.0],[-79.8256,32.9335,0.0],[-79.8233,32.9333,0.0],[-79.8222,32.9329,0.0],[-79.8206,32.9313,0.0],[-79.8203,32.93,0.0],[-79.8208,32.9282,0.0],[-79.8235,32.9257,0.0],[-79.8275,32.9223,0.0],[-79.8286,32.9211,0.0],[-79.8292,32.9195,0.0],[-79.8293,32.919,0.0],[-79.8364,32.9196,0.0],[-79.8387,32.9167,0.0],[-79.8411,32.9125,0.0],[-79.8412,32.9082,0.0],[-79.84,32.9045,0.0],[-79.8405,32.9019,0.0],[-79.8433,32.8937,0.0],[-79.8456,32.8891,0.0],[-79.8477,32.8859,0.0],[-79.8493,32.8824,0.0],[-79.8497,32.8814,0.0],[-79.8528,32.877,0.0],[-79.8551,32.8739,0.0],[-79.8586,32.8717,0.0],[-79.8614,32.8705,0.0],[-79.8635,32.8699,0.0],[-79.867,32.869,0.0],[-79.8738,32.8682,0.0],[-79.8759,32.8681,0.0],[-79.876,32.8716,0.0],[-79.8758,32.8816,0.0],[-79.8765,32.885,0.0],[-79.8802,32.8933,0.0],[-79.8816,32.8971,0.0],[-79.8828,32.8991,0.0],[-79.8854,32.9009,0.0],[-79.8892,32.9005,0.0],[-79.8916,32.8983,0.0],[-79.8932,32.8958,0.0],[-79.8939,32.8955,0.0],[-79.8955,32.8968,0.0],[-79.8964,32.8989,0.0],[-79.8975,32.8996,0.0],[-79.8994,32.8995,0.0],[-79.9012,32.8986,0.0],[-79.9038,32.8956,0.0],[-79.9044,32.8934,0.0],[-79.9054,32.8921,0.0],[-79.9099,32.8905,0.0],[-79.9132,32.8864,0.0],[-79.916,32.8848,0.0],[-79.9167,32.8838,0.0],[-79.9169,32.8796,0.0],[-79.9159,32.8789,0.0],[-79.9167,32.8774,0.0],[-79.9176,32.878,0.0],[-79.9184,32.8772,0.0],[-79.9205,32.8775,0.0],[-79.9218,32.8753,0.0],[-79.9214,32.874,0.0],[-79.9221,32.8734,0.0],[-79.9269,32.8756,0.0],[-79.9315,32.8789,0.0],[-79.9374,32.8834,0.0],[-79.9428,32.8873,0.0],[-79.9442,32.888,0.0],[-79.9467,32.8887,0.0],[-79.9581,32.8904,0.0],[-79.9581,32.8905,0.0],[-79.9627,32.8911,0.0],[-79.9616,32.8934,0.0]]]]}},{"type":"Feature","properties":{"uesi_id":"USA_R194119","nbhd_code":"USA_R194119_24","nbhd_name":"Census Tract 20.03"},"geometry":{"type":"MultiPolygon","coordinates":[[[[-80.0175,32.6437,0.0],[-80.0155,32.6493,0.0],[-80.0129,32.6527,0.0],[-80.0096,32.6576,0.0],[-80.0069,32.6593,0.0],[-80.0037,32.6619,0.0],[-80.0023,32.6639,0.0],[-80.0005,32.6675,0.0],[-80.0003,32.6685,0.0],[-80.0004,32.6712,0.0],[-80.0034,32.6778,0.0],[-80.0039,32.6797,0.0],[-80.0038,32.6845,0.0],[-80.0016,32.6874,0.0],[-79.9924,32.6898,0.0],[-79.9905,32.6909,0.0],[-79.9885,32.694,0.0],[-79.9881,32.6962,0.0],[-79.9881,32.6967,0.0],[-79.9881,32.6972,0.0],[-79.9881,32.6977,0.0],[-79.9881,32.6985,0.0],[-79.9881,32.6989,0.0],[-79.9882,32.6998,0.0],[-79.9886,32.7018,0.0],[-79.9886,32.7023,0.0],[-79.9886,32.7079,0.0],[-79.9872,32.7113,0.0],[-79.9874,32.7154,0.0],[-79.9876,32.7161,0.0],[-79.9882,32.7172,0.0],[-79.9894,32.7184,0.0],[-79.9909,32.7196,0.0],[-79.9933,32.7204,0.0],[-79.9956,32.7213,0.0],[-79.9963,32.7214,0.0],[-79.9951,32.7258,0.0],[-79.9938,32.7256,0.0],[-79.993,32.7267,0.0],[-79.9952,32.7272,0.0],[-79.9946,32.7295,0.0],[-79.9921,32.7293,0.0],[-79.9889,32.7304,0.0],[-79.9823,32.7337,0.0],[-79.9818,32.7334,0.0],[-79.9794,32.7351,0.0],[-79.9752,32.735,0.0],[-79.9746,32.735,0.0],[-79.9729,32.7351,0.0],[-79.9688,32.7343,0.0],[-79.9692,32.7333,0.0],[-79.9682,32.7282,0.0],[-79.9682,32.7279,0.0],[-79.9662,32.7193,0.0],[-79.9656,32.7168,0.0],[-79.9631,32.7183,0.0],[-79.96,32.7194,0.0],[-79.9598,32.7195,0.0],[-79.9579,32.7202,0.0],[-79.9575,32.7203,0.0],[-79.9567,32.7206,0.0],[-79.9566,32.7158,0.0],[-79.9585,32.7116,0.0],[-79.9573,32.7098,0.0],[-79.9573,32.7079,0.0],[-79.9573,32.7069,0.0],[-79.9573,32.704,0.0],[-79.9529,32.7053,0.0],[-79.9491,32.7054,0.0],[-79.9489,32.7061,0.0],[-79.9489,32.7064,0.0],[-79.9487,32.7067,0.0],[-79.9483,32.7067,0.0],[-79.9474,32.7064,0.0],[-79.9472,32.7064,0.0],[-79.9472,32.7067,0.0],[-79.947,32.7069,0.0],[-79.9451,32.7087,0.0],[-79.9431,32.708,0.0],[-79.9427,32.7094,0.0],[-79.9428,32.7095,0.0],[-79.9426,32.7101,0.0],[-79.9419,32.7109,0.0],[-79.9413,32.7109,0.0],[-79.9404,32.7108,0.0],[-79.935,32.7131,0.0],[-79.9242,32.7188,0.0],[-79.9182,32.721,0.0],[-79.915,32.7213,0.0],[-79.9099,32.7205,0.0],[-79.9049,32.7223,0.0],[-79.9032,32.7257,0.0],[-79.9014,32.7267,0.0],[-79.8987,32.7269,0.0],[-79.8949,32.7251,0.0],[-79.8931,32.7253,0.0],[-79.8918,32.727,0.0],[-79.8914,32.73,0.0],[-79.8908,32.7311,0.0],[-79.8843,32.7381,0.0],[-79.873,32.7445,0.0],[-79.8709,32.7424,0.0],[-79.8694,32.7336,0.0],[-79.8701,32.73,0.0],[-79.871,32.7289,0.0],[-79.8758,32.722,0.0],[-79.8801,32.716,0.0],[-79.8836,32.7093,0.0],[-79.8871,32.7019,0.0],[-79.8878,32.697,0.0],[-79.888,32.6952,0.0],[-79.888,32.6951,0.0],[-79.888,32.6943,0.0],[-79.888,32.6902,0.0],[-79.8889,32.6907,0.0],[-79.8962,32.697,0.0],[-79.8983,32.6977,0.0],[-79.8993,32.6968,0.0],[-79.8976,32.6932,0.0],[-79.896,32.6889,0.0],[-79.897,32.6883,0.0],[-79.899,32.6885,0.0],[-79.9018,32.6863,0.0],[-79.9014,32.6849,0.0],[-79.8997,32.6841,0.0],[-79.9009,32.6825,0.0],[-79.9013,32.6797,0.0],[-79.9018,32.6794,0.0],[-79.9067,32.6789,0.0],[-79.9109,32.679,0.0],[-79.9129,32.6787,0.0],[-79.9145,32.6792,0.0],[-79.9141,32.6751,0.0],[-79.9132,32.6744,0.0],[-79.9104,32.6735,0.0],[-79.9103,32.6729,0.0],[-79.9145,32.6715,0.0],[-79.9174,32.6695,0.0],[-79.9191,32.6688,0.0],[-79.9231,32.6684,0.0],[-79.9255,32.6673,0.0],[-79.9295,32.6659,0.0],[-79.9336,32.6649,0.0],[-79.9405,32.662,0.0],[-79.9436,32.6614,0.0],[-79.9469,32.6609,0.0],[-79.9522,32.6597,0.0],[-79.9536,32.6589,0.0],[-79.9545,32.6581,0.0],[-79.9598,32.6524,0.0],[-79.9626,32.6505,0.0],[-79.9686,32.6474,0.0],[-79.9727,32.6457,0.0],[-79.9748,32.6442,0.0],[-79.9806,32.6394,0.0],[-79.9835,32.6365,0.0],[-79.9862,32.6344,0.0],[-79.993,32.6287,0.0],[-79.9946,32.6272,0.0],[-79.9973,32.6298,0.0],[-80.0004,32.6314,0.0],[-80.0063,32.6341,0.0],[-80.0098,32.6355,0.0],[-80.0124,32.636,0.0],[-80.0159,32.6371,0.0],[-80.0174,32.6396,0.0],[-80.0179,32.642,0.0],[-80.0175,32.6437,0.0]]]]}},{"type":"Feature","properties":{"uesi_id":"USA_R194119","nbhd_code":"USA_R194119_25","nbhd_name":"Census Tract 44"},"geometry":{"type":"MultiPolygon","coordinates":[[[[-79.9794,32.8457,0.0],[-79.9794,32.847,0.0],[-79.9795,32.8497,0.0],[-79.9786,32.8518,0.0],[-79.9729,32.8501,0.0],[-79.9691,32.8465,0.0],[-79.9669,32.844,0.0],[-79.965,32.8418,0.0],[-79.9638,32.8413,0.0],[-79.9627,32.84,0.0],[-79.9633,32.8398,0.0],[-79.9609,32.8371,0.0],[-79.9607,32.8371,0.0],[-79.9604,32.8368,0.0],[-79.9597,32.8363,0.0],[-79.9591,32.836,0.0],[-79.9576,32.8353,0.0],[-79.9561,32.8345,0.0],[-79.9549,32.8336,0.0],[-79.9532,32.8314,0.0],[-79.9528,32.8298,0.0],[-79.9523,32.8217,0.0],[-79.9516,32.8188,0.0],[-79.9509,32.8125,0.0],[-79.9527,32.8124,0.0],[-79.9549,32.8124,0.0],[-79.9576,32.8124,0.0],[-79.9603,32.8124,0.0],[-79.9664,32.8128,0.0],[-79.9666,32.8248,0.0],[-79.9672,32.8276,0.0],[-79.9686,32.8306,0.0],[-79.9698,32.8314,0.0],[-79.9736,32.8328,0.0],[-79.9784,32.8345,0.0],[-79.9846,32.8369,0.0],[-79.9794,32.8457,0.0]]]]}},{"type":"Feature","properties":{"uesi_id":"USA_R194119","nbhd_code":"USA_R194119_26","nbhd_name":"Census Tract 7"},"geometry":{"type":"MultiPolygon","coordinates":[[[[-79.9437,32.7919,0.0],[-79.9418,32.7938,0.0],[-79.9386,32.7953,0.0],[-79.9373,32.7929,0.0],[-79.937,32.7923,0.0],[-79.9354,32.792,0.0],[-79.9341,32.7899,0.0],[-79.9338,32.7895,0.0],[-79.9317,32.7878,0.0],[-79.9319,32.7877,0.0],[-79.9343,32.7867,0.0],[-79.9377,32.7853,0.0],[-79.9394,32.7847,0.0],[-79.941,32.7844,0.0],[-79.9419,32.7861,0.0],[-79.9433,32.7877,0.0],[-79.9413,32.7882,0.0],[-79.9431,32.7909,0.0],[-79.9437,32.7919,0.0]]]]}},{"type":"Feature","properties":{"uesi_id":"USA_R194119","nbhd_code":"USA_R194119_27","nbhd_name":"Census Tract 10"},"geometry":{"type":"MultiPolygon","coordinates":[[[[-79.9486,32.793,0.0],[-79.9464,32.7947,0.0],[-79.9434,32.7956,0.0],[-79.9428,32.7951,0.0],[-79.9393,32.7966,0.0],[-79.9386,32.7953,0.0],[-79.9418,32.7938,0.0],[-79.9437,32.7919,0.0],[-79.9431,32.7909,0.0],[-79.9413,32.7882,0.0],[-79.9433,32.7877,0.0],[-79.9458,32.787,0.0],[-79.9473,32.7902,0.0],[-79.9479,32.7916,0.0],[-79.9486,32.793,0.0]]]]}},{"type":"Feature","properties":{"uesi_id":"USA_R194119","nbhd_code":"USA_R194119_28","nbhd_name":"Census Tract 16"},"geometry":{"type":"MultiPolygon","coordinates":[[[[-79.9664,32.8128,0.0],[-79.9603,32.8124,0.0],[-79.9576,32.8124,0.0],[-79.9549,32.8124,0.0],[-79.9551,32.8104,0.0],[-79.9541,32.8059,0.0],[-79.9562,32.8055,0.0],[-79.9568,32.8053,0.0],[-79.9566,32.8044,0.0],[-79.9599,32.8036,0.0],[-79.9641,32.8047,0.0],[-79.9705,32.8037,0.0],[-79.9664,32.8128,0.0]]]]}},{"type":"Feature","properties":{"uesi_id":"USA_R194119","nbhd_code":"USA_R194119_29","nbhd_name":"Census Tract 19.02"},"geometry":{"type":"MultiPolygon","coordinates":[[[[-79.9835,32.751,0.0],[-79.9832,32.7543,0.0],[-79.9826,32.7587,0.0],[-79.9825,32.7596,0.0],[-79.9821,32.7628,0.0],[-79.9809,32.7628,0.0],[-79.9758,32.7627,0.0],[-79.9745,32.7634,0.0],[-79.974,32.7664,0.0],[-79.9729,32.7664,0.0],[-79.9701,32.7674,0.0],[-79.9638,32.7681,0.0],[-79.9495,32.7737,0.0],[-79.9434,32.7684,0.0],[-79.9409,32.7645,0.0],[-79.9426,32.7611,0.0],[-79.9439,32.7593,0.0],[-79.9436,32.7554,0.0],[-79.9439,32.7544,0.0],[-79.9445,32.7538,0.0],[-79.95,32.7515,0.0],[-79.9501,32.7507,0.0],[-79.9482,32.7472,0.0],[-79.9481,32.7458,0.0],[-79.9487,32.7454,0.0],[-79.9508,32.7453,0.0],[-79.9512,32.7449,0.0],[-79.9522,32.7451,0.0],[-79.9524,32.7456,0.0],[-79.9575,32.747,0.0],[-79.9595,32.7463,0.0],[-79.9638,32.7464,0.0],[-79.9669,32.7477,0.0],[-79.9669,32.7456,0.0],[-79.9714,32.7445,0.0],[-79.9716,32.7445,0.0],[-79.9717,32.7443,0.0],[-79.9719,32.7441,0.0],[-79.972,32.7438,0.0],[-79.972,32.7434,0.0],[-79.9721,32.7432,0.0],[-79.9734,32.7425,0.0],[-79.9735,32.7425,0.0],[-79.974,32.7424,0.0],[-79.9754,32.7414,0.0],[-79.9775,32.7411,0.0],[-79.9791,32.7393,0.0],[-79.9792,32.7401,0.0],[-79.9801,32.7412,0.0],[-79.9806,32.7415,0.0],[-79.9807,32.7418,0.0],[-79.9807,32.7422,0.0],[-79.9807,32.7423,0.0],[-79.9805,32.7424,0.0],[-79.9807,32.7425,0.0],[-79.9811,32.7424,0.0],[-79.9813,32.7425,0.0],[-79.9815,32.7428,0.0],[-79.9815,32.7431,0.0],[-79.9814,32.7435,0.0],[-79.9829,32.7444,0.0],[-79.9824,32.7451,0.0],[-79.9813,32.7456,0.0],[-79.9814,32.7457,0.0],[-79.9832,32.7501,0.0],[-79.9835,32.751,0.0]]]]}},{"type":"Feature","properties":{"uesi_id":"USA_R194119","nbhd_code":"USA_R194119_30","nbhd_name":"Census Tract 20.06"},"geometry":{"type":"MultiPolygon","coordinates":[[[[-79.9549,32.7396,0.0],[-79.9543,32.741,0.0],[-79.9533,32.7418,0.0],[-79.9521,32.7436,0.0],[-79.9521,32.744,0.0],[-79.9529,32.7445,0.0],[-79.9522,32.7451,0.0],[-79.9512,32.7449,0.0],[-79.9508,32.7453,0.0],[-79.9487,32.7454,0.0],[-79.9481,32.7458,0.0],[-79.9482,32.7472,0.0],[-79.9501,32.7507,0.0],[-79.9469,32.7501,0.0],[-79.9459,32.7497,0.0],[-79.9444,32.7485,0.0],[-79.944,32.7482,0.0],[-79.942,32.7465,0.0],[-79.9415,32.746,0.0],[-79.9409,32.7456,0.0],[-79.9385,32.7436,0.0],[-79.9378,32.7432,0.0],[-79.9365,32.7426,0.0],[-79.9334,32.7423,0.0],[-79.9316,32.7422,0.0],[-79.9276,32.742,0.0],[-79.9257,32.7418,0.0],[-79.9224,32.7418,0.0],[-79.9221,32.7418,0.0],[-79.9204,32.7418,0.0],[-79.9192,32.7417,0.0],[-79.9183,32.7416,0.0],[-79.9154,32.7413,0.0],[-79.9166,32.7402,0.0],[-79.9171,32.74,0.0],[-79.9183,32.7397,0.0],[-79.9207,32.739,0.0],[-79.9211,32.7388,0.0],[-79.9276,32.7309,0.0],[-79.9293,32.7305,0.0],[-79.9302,32.7305,0.0],[-79.9311,32.7304,0.0],[-79.9338,32.7302,0.0],[-79.9354,32.7295,0.0],[-79.9371,32.7287,0.0],[-79.9399,32.7273,0.0],[-79.9405,32.7268,0.0],[-79.9421,32.7258,0.0],[-79.9482,32.7235,0.0],[-79.9503,32.7229,0.0],[-79.9488,32.7263,0.0],[-79.9487,32.7263,0.0],[-79.9484,32.727,0.0],[-79.9464,32.7313,0.0],[-79.9463,32.7314,0.0],[-79.9506,32.7344,0.0],[-79.9525,32.7349,0.0],[-79.9539,32.7355,0.0],[-79.9531,32.737,0.0],[-79.9559,32.7391,0.0],[-79.9549,32.7396,0.0]]]]}},{"type":"Feature","properties":{"uesi_id":"USA_R194119","nbhd_code":"USA_R194119_31","nbhd_name":"Census Tract 20.07"},"geometry":{"type":"MultiPolygon","coordinates":[[[[-79.95,32.7515,0.0],[-79.9445,32.7538,0.0],[-79.9439,32.7544,0.0],[-79.9436,32.7554,0.0],[-79.9439,32.7593,0.0],[-79.9426,32.7611,0.0],[-79.9409,32.7645,0.0],[-79.9362,32.7631,0.0],[-79.9287,32.763,0.0],[-79.9285,32.7542,0.0],[-79.9268,32.7538,0.0],[-79.9232,32.753,0.0],[-79.9184,32.7543,0.0],[-79.918,32.7544,0.0],[-79.9169,32.7541,0.0],[-79.9155,32.7536,0.0],[-79.9095,32.7518,0.0],[-79.9089,32.7516,0.0],[-79.9076,32.7515,0.0],[-79.9051,32.7513,0.0],[-79.9011,32.751,0.0],[-79.8991,32.7533,0.0],[-79.8986,32.753,0.0],[-79.8985,32.7513,0.0],[-79.8992,32.7505,0.0],[-79.9051,32.7483,0.0],[-79.9075,32.7469,0.0],[-79.9095,32.7459,0.0],[-79.9096,32.7458,0.0],[-79.9126,32.7435,0.0],[-79.9154,32.7413,0.0],[-79.9183,32.7416,0.0],[-79.9192,32.7417,0.0],[-79.9204,32.7418,0.0],[-79.9221,32.7418,0.0],[-79.9224,32.7418,0.0],[-79.9257,32.7418,0.0],[-79.9276,32.742,0.0],[-79.9316,32.7422,0.0],[-79.9334,32.7423,0.0],[-79.9365,32.7426,0.0],[-79.9378,32.7432,0.0],[-79.9385,32.7436,0.0],[-79.9409,32.7456,0.0],[-79.9415,32.746,0.0],[-79.942,32.7465,0.0],[-79.944,32.7482,0.0],[-79.9444,32.7485,0.0],[-79.9459,32.7497,0.0],[-79.9469,32.7501,0.0],[-79.9501,32.7507,0.0],[-79.95,32.7515,0.0]]]]}},{"type":"Feature","properties":{"uesi_id":"USA_R194119","nbhd_code":"USA_R194119_32","nbhd_name":"Census Tract 21.03"},"geometry":{"type":"MultiPolygon","coordinates":[[[[-80.1663,32.6164,0.0],[-80.1641,32.6234,0.0],[-80.1662,32.6283,0.0],[-80.1661,32.6308,0.0],[-80.1633,32.637,0.0],[-80.1623,32.6383,0.0],[-80.1593,32.6396,0.0],[-80.1582,32.6409,0.0],[-80.1572,32.6445,0.0],[-80.1523,32.649,0.0],[-80.1471,32.6517,0.0],[-80.1464,32.6544,0.0],[-80.1448,32.6565,0.0],[-80.1428,32.6582,0.0],[-80.1416,32.6591,0.0],[-80.1361,32.6629,0.0],[-80.1326,32.6661,0.0],[-80.1284,32.6672,0.0],[-80.1248,32.6686,0.0],[-80.1216,32.6713,0.0],[-80.1163,32.6734,0.0],[-80.1149,32.6745,0.0],[-80.1134,32.6771,0.0],[-80.1105,32.6784,0.0],[-80.1046,32.6796,0.0],[-80.1032,32.6803,0.0],[-80.1013,32.6829,0.0],[-80.0996,32.6836,0.0],[-80.0949,32.6838,0.0],[-80.0936,32.6843,0.0],[-80.0913,32.6868,0.0],[-80.0857,32.6887,0.0],[-80.08,32.693,0.0],[-80.0778,32.6955,0.0],[-80.0763,32.6977,0.0],[-80.0755,32.7002,0.0],[-80.0743,32.7032,0.0],[-80.0726,32.7048,0.0],[-80.072,32.7063,0.0],[-80.0708,32.7069,0.0],[-80.0692,32.7068,0.0],[-80.0689,32.7084,0.0],[-80.0691,32.7092,0.0],[-80.061,32.7079,0.0],[-80.0543,32.7079,0.0],[-80.0461,32.7095,0.0],[-80.0414,32.7115,0.0],[-80.0394,32.712,0.0],[-80.0322,32.7142,0.0],[-80.0266,32.7154,0.0],[-80.0219,32.7185,0.0],[-80.0215,32.7187,0.0],[-80.0239,32.7258,0.0],[-80.026,32.7289,0.0],[-80.0264,32.7292,0.0],[-80.0284,32.7311,0.0],[-80.0292,32.7318,0.0],[-80.0299,32.7324,0.0],[-80.0301,32.7327,0.0],[-80.0314,32.7344,0.0],[-80.0323,32.7356,0.0],[-80.0364,32.741,0.0],[-80.0378,32.7429,0.0],[-80.0383,32.7436,0.0],[-80.0378,32.7439,0.0],[-80.0302,32.7512,0.0],[-80.0289,32.7517,0.0],[-80.0267,32.7517,0.0],[-80.0224,32.7516,0.0],[-80.0101,32.753,0.0],[-80.0085,32.745,0.0],[-80.0083,32.7419,0.0],[-80.0096,32.7355,0.0],[-80.0098,32.7329,0.0],[-80.0094,32.7287,0.0],[-80.0074,32.7253,0.0],[-80.0053,32.7234,0.0],[-80.0047,32.7231,0.0],[-80.0,32.7222,0.0],[-79.999,32.722,0.0],[-79.997,32.7216,0.0],[-79.9963,32.7214,0.0],[-79.9956,32.7213,0.0],[-79.9933,32.7204,0.0],[-79.9909,32.7196,0.0],[-79.9894,32.7184,0.0],[-79.9882,32.7172,0.0],[-79.9876,32.7161,0.0],[-79.9874,32.7154,0.0],[-79.9872,32.7113,0.0],[-79.9886,32.7079,0.0],[-79.9886,32.7023,0.0],[-79.9886,32.7018,0.0],[-79.9882,32.6998,0.0],[-79.9881,32.6989,0.0],[-79.9881,32.6985,0.0],[-79.9881,32.6977,0.0],[-79.9881,32.6972,0.0],[-79.9881,32.6967,0.0],[-79.9881,32.6962,0.0],[-79.9885,32.694,0.0],[-79.9905,32.6909,0.0],[-79.9924,32.6898,0.0],[-80.0016,32.6874,0.0],[-80.0038,32.6845,0.0],[-80.0039,32.6797,0.0],[-80.0034,32.6778,0.0],[-80.0004,32.6712,0.0],[-80.0003,32.6685,0.0],[-80.0005,32.6675,0.0],[-80.0023,32.6639,0.0],[-80.0037,32.6619,0.0],[-80.0069,32.6593,0.0],[-80.0096,32.6576,0.0],[-80.0129,32.6527,0.0],[-80.0155,32.6493,0.0],[-80.0175,32.6437,0.0],[-80.0179,32.642,0.0],[-80.0174,32.6396,0.0],[-80.0221,32.6395,0.0],[-80.0525,32.6375,0.0],[-80.0555,32.6366,0.0],[-80.0613,32.6321,0.0],[-80.0737,32.6256,0.0],[-80.0753,32.6252,0.0],[-80.0798,32.6223,0.0],[-80.0837,32.6204,0.0],[-80.0891,32.6191,0.0],[-80.0957,32.6185,0.0],[-80.108,32.6154,0.0],[-80.1088,32.6152,0.0],[-80.1088,32.6153,0.0],[-80.117,32.6138,0.0],[-80.1235,32.611,0.0],[-80.1262,32.609,0.0],[-80.1276,32.6071,0.0],[-80.1296,32.6064,0.0],[-80.1298,32.6038,0.0],[-80.132,32.6039,0.0],[-80.1322,32.6039,0.0],[-80.133,32.6046,0.0],[-80.1333,32.6048,0.0],[-80.1343,32.6049,0.0],[-80.1369,32.6037,0.0],[-80.1379,32.6037,0.0],[-80.1394,32.6044,0.0],[-80.1427,32.6081,0.0],[-80.1433,32.6085,0.0],[-80.1437,32.6087,0.0],[-80.1471,32.609,0.0],[-80.1495,32.6085,0.0],[-80.1503,32.6085,0.0],[-80.1505,32.6088,0.0],[-80.1524,32.6109,0.0],[-80.1559,32.6106,0.0],[-80.1568,32.6108,0.0],[-80.1595,32.612,0.0],[-80.1642,32.6132,0.0],[-80.1658,32.614,0.0],[-80.1663,32.6164,0.0]]]]}},{"type":"Feature","properties":{"uesi_id":"USA_R194119","nbhd_code":"USA_R194119_33","nbhd_name":"Census Tract 26.05"},"geometry":{"type":"MultiPolygon","coordinates":[[[[-80.009,32.807,0.0],[-79.9972,32.8147,0.0],[-79.9946,32.8165,0.0],[-79.9928,32.8188,0.0],[-79.9953,32.8103,0.0],[-79.9954,32.8099,0.0],[-79.9933,32.809,0.0],[-79.9899,32.8063,0.0],[-79.9899,32.8039,0.0],[-79.9882,32.8015,0.0],[-79.9895,32.8007,0.0],[-79.9886,32.7994,0.0],[-79.9866,32.7991,0.0],[-79.9868,32.7987,0.0],[-79.987,32.7983,0.0],[-79.9871,32.798,0.0],[-79.9869,32.7978,0.0],[-79.9867,32.7978,0.0],[-79.9837,32.7993,0.0],[-79.9835,32.8005,0.0],[-79.9801,32.8017,0.0],[-79.978,32.7992,0.0],[-79.9723,32.7986,0.0],[-79.972,32.797,0.0],[-79.9854,32.7943,0.0],[-79.9949,32.7928,0.0],[-79.9972,32.7923,0.0],[-80.0,32.7919,0.0],[-80.0017,32.7973,0.0],[-80.0017,32.7979,0.0],[-80.0061,32.7987,0.0],[-80.0063,32.7996,0.0],[-80.0072,32.8022,0.0],[-80.0075,32.803,0.0],[-80.0076,32.8031,0.0],[-80.0078,32.8039,0.0],[-80.0087,32.8062,0.0],[-80.009,32.807,0.0]]]]}},{"type":"Feature","properties":{"uesi_id":"USA_R194119","nbhd_code":"USA_R194119_34","nbhd_name":"Census Tract 26.11"},"geometry":{"type":"MultiPolygon","coordinates":[[[[-80.0561,32.8418,0.0],[-80.0503,32.8475,0.0],[-80.0485,32.8463,0.0],[-80.0468,32.8463,0.0],[-80.0406,32.8478,0.0],[-80.0388,32.8467,0.0],[-80.0388,32.8462,0.0],[-80.0379,32.8447,0.0],[-80.0358,32.8424,0.0],[-80.0305,32.8378,0.0],[-80.025,32.8351,0.0],[-80.0292,32.83,0.0],[-80.0297,32.8287,0.0],[-80.0309,32.8197,0.0],[-80.0325,32.8165,0.0],[-80.037,32.8225,0.0],[-80.0374,32.823,0.0],[-80.0377,32.8235,0.0],[-80.0378,32.8237,0.0],[-80.0387,32.825,0.0],[-80.0392,32.8255,0.0],[-80.0411,32.828,0.0],[-80.0426,32.83,0.0],[-80.0428,32.8303,0.0],[-80.0433,32.831,0.0],[-80.0441,32.8321,0.0],[-80.0471,32.8359,0.0],[-80.0478,32.8365,0.0],[-80.0493,32.8376,0.0],[-80.0518,32.839,0.0],[-80.0549,32.8409,0.0],[-80.0561,32.8418,0.0]]]]}},{"type":"Feature","properties":{"uesi_id":"USA_R194119","nbhd_code":"USA_R194119_35","nbhd_name":"Census Tract 26.13"},"geometry":{"type":"MultiPolygon","coordinates":[[[[-80.058,32.8279,0.0],[-80.0547,32.8294,0.0],[-80.0533,32.8305,0.0],[-80.049,32.832,0.0],[-80.0486,32.8321,0.0],[-80.0485,32.8323,0.0],[-80.0486,32.8324,0.0],[-80.0489,32.8326,0.0],[-80.0489,32.8327,0.0],[-80.0488,32.8328,0.0],[-80.0485,32.8329,0.0],[-80.0481,32.8328,0.0],[-80.048,32.833,0.0],[-80.048,32.8334,0.0],[-80.0479,32.8342,0.0],[-80.0478,32.8361,0.0],[-80.0479,32.8365,0.0],[-80.0478,32.8365,0.0],[-80.0471,32.8359,0.0],[-80.0441,32.8321,0.0],[-80.0433,32.831,0.0],[-80.0428,32.8303,0.0],[-80.0426,32.83,0.0],[-80.0411,32.828,0.0],[-80.0392,32.8255,0.0],[-80.0387,32.825,0.0],[-80.0378,32.8237,0.0],[-80.0377,32.8235,0.0],[-80.0374,32.823,0.0],[-80.037,32.8225,0.0],[-80.0325,32.8165,0.0],[-80.0324,32.8162,0.0],[-80.0311,32.8142,0.0],[-80.0299,32.8129,0.0],[-80.0288,32.8119,0.0],[-80.0281,32.8114,0.0],[-80.0261,32.8096,0.0],[-80.0249,32.8087,0.0],[-80.0235,32.8075,0.0],[-80.0308,32.8074,0.0],[-80.0334,32.8083,0.0],[-80.0345,32.8087,0.0],[-80.0365,32.8095,0.0],[-80.0448,32.8122,0.0],[-80.047,32.8122,0.0],[-80.0496,32.8118,0.0],[-80.0495,32.8128,0.0],[-80.0504,32.8141,0.0],[-80.0506,32.8144,0.0],[-80.0516,32.8162,0.0],[-80.0522,32.8174,0.0],[-80.053,32.8189,0.0],[-80.0534,32.8203,0.0],[-80.0552,32.8229,0.0],[-80.0578,32.8247,0.0],[-80.058,32.8279,0.0]]]]}},{"type":"Feature","properties":{"uesi_id":"USA_R194119","nbhd_code":"USA_R194119_36","nbhd_name":"Census Tract 28.02"},"geometry":{"type":"MultiPolygon","coordinates":[[[[-80.0207,32.7881,0.0],[-80.0134,32.7869,0.0],[-80.0026,32.785,0.0],[-80.0003,32.7846,0.0],[-79.9968,32.784,0.0],[-79.9938,32.7834,0.0],[-79.9917,32.7816,0.0],[-79.9911,32.7766,0.0],[-79.9916,32.7762,0.0],[-79.9904,32.7747,0.0],[-79.9916,32.7736,0.0],[-79.99,32.772,0.0],[-79.9883,32.771,0.0],[-79.9875,32.771,0.0],[-79.9861,32.7725,0.0],[-79.9823,32.7674,0.0],[-79.9831,32.7664,0.0],[-79.984,32.7661,0.0],[-79.9862,32.7661,0.0],[-79.9887,32.7678,0.0],[-79.9905,32.7692,0.0],[-79.9913,32.7692,0.0],[-79.9927,32.7687,0.0],[-79.9929,32.7686,0.0],[-79.9965,32.7679,0.0],[-80.0011,32.7672,0.0],[-80.0019,32.767,0.0],[-80.004,32.7658,0.0],[-80.0087,32.7687,0.0],[-80.018,32.7684,0.0],[-80.0177,32.7717,0.0],[-80.0177,32.7723,0.0],[-80.0169,32.775,0.0],[-80.018,32.7756,0.0],[-80.0183,32.776,0.0],[-80.0188,32.7768,0.0],[-80.0191,32.7774,0.0],[-80.0194,32.7788,0.0],[-80.0205,32.787,0.0],[-80.0207,32.7881,0.0]]]]}},{"type":"Feature","properties":{"uesi_id":"USA_R194119","nbhd_code":"USA_R194119_37","nbhd_name":"Census Tract 54"},"geometry":{"type":"MultiPolygon","coordinates":[[[[-79.9627,32.84,0.0],[-79.9606,32.8403,0.0],[-79.9571,32.842,0.0],[-79.9565,32.8423,0.0],[-79.9576,32.8472,0.0],[-79.9581,32.8482,0.0],[-79.9587,32.8489,0.0],[-79.9589,32.8492,0.0],[-79.9583,32.8496,0.0],[-79.9559,32.8496,0.0],[-79.9557,32.8493,0.0],[-79.9529,32.8438,0.0],[-79.947,32.8403,0.0],[-79.9466,32.8386,0.0],[-79.9431,32.8348,0.0],[-79.9413,32.8334,0.0],[-79.9395,32.83,0.0],[-79.9361,32.8293,0.0],[-79.931,32.829,0.0],[-79.9304,32.8263,0.0],[-79.9294,32.825,0.0],[-79.9283,32.824,0.0],[-79.9192,32.819,0.0],[-79.9151,32.8188,0.0],[-79.9143,32.8189,0.0],[-79.9113,32.8193,0.0],[-79.9129,32.8175,0.0],[-79.9154,32.8124,0.0],[-79.9157,32.8037,0.0],[-79.9157,32.8029,0.0],[-79.9244,32.804,0.0],[-79.9308,32.8049,0.0],[-79.9335,32.8049,0.0],[-79.9336,32.8049,0.0],[-79.9338,32.805,0.0],[-79.9387,32.8044,0.0],[-79.9427,32.8038,0.0],[-79.946,32.8032,0.0],[-79.9478,32.8038,0.0],[-79.949,32.8075,0.0],[-79.9502,32.8105,0.0],[-79.9527,32.8124,0.0],[-79.9509,32.8125,0.0],[-79.9516,32.8188,0.0],[-79.9523,32.8217,0.0],[-79.9528,32.8298,0.0],[-79.9532,32.8314,0.0],[-79.9549,32.8336,0.0],[-79.9561,32.8345,0.0],[-79.9576,32.8353,0.0],[-79.9591,32.836,0.0],[-79.9597,32.8363,0.0],[-79.9604,32.8368,0.0],[-79.9607,32.8371,0.0],[-79.9609,32.8371,0.0],[-79.9633,32.8398,0.0],[-79.9627,32.84,0.0]]]]}},{"type":"Feature","properties":{"uesi_id":"USA_R194119","nbhd_code":"USA_R194119_38","nbhd_name":"Census Tract 56"},"geometry":{"type":"MultiPolygon","coordinates":[[[[-80.1343,32.7961,0.0],[-80.122,32.8028,0.0],[-80.1206,32.8034,0.0],[-80.1093,32.81,0.0],[-80.1034,32.8133,0.0],[-80.0975,32.8167,0.0],[-80.0925,32.8196,0.0],[-80.0911,32.8204,0.0],[-80.0802,32.8267,0.0],[-80.0776,32.8282,0.0],[-80.0677,32.8341,0.0],[-80.0661,32.8362,0.0],[-80.0627,32.8354,0.0],[-80.0606,32.8374,0.0],[-80.0561,32.8418,0.0],[-80.0549,32.8409,0.0],[-80.0518,32.839,0.0],[-80.0493,32.8376,0.0],[-80.0478,32.8365,0.0],[-80.0479,32.8365,0.0],[-80.0478,32.8361,0.0],[-80.0479,32.8342,0.0],[-80.048,32.8334,0.0],[-80.048,32.833,0.0],[-80.0481,32.8328,0.0],[-80.0485,32.8329,0.0],[-80.0488,32.8328,0.0],[-80.0489,32.8327,0.0],[-80.0489,32.8326,0.0],[-80.0486,32.8324,0.0],[-80.0485,32.8323,0.0],[-80.0486,32.8321,0.0],[-80.049,32.832,0.0],[-80.0533,32.8305,0.0],[-80.0547,32.8294,0.0],[-80.058,32.8279,0.0],[-80.0578,32.8247,0.0],[-80.0552,32.8229,0.0],[-80.0534,32.8203,0.0],[-80.053,32.8189,0.0],[-80.0522,32.8174,0.0],[-80.0516,32.8162,0.0],[-80.0506,32.8144,0.0],[-80.0504,32.8141,0.0],[-80.0495,32.8128,0.0],[-80.0496,32.8118,0.0],[-80.0498,32.8116,0.0],[-80.0494,32.8104,0.0],[-80.0491,32.8101,0.0],[-80.0489,32.8097,0.0],[-80.0488,32.8094,0.0],[-80.0484,32.8086,0.0],[-80.0484,32.808,0.0],[-80.0497,32.8061,0.0],[-80.0506,32.8048,0.0],[-80.0558,32.8041,0.0],[-80.0581,32.8027,0.0],[-80.0587,32.8016,0.0],[-80.0587,32.8015,0.0],[-80.0587,32.8014,0.0],[-80.0586,32.8011,0.0],[-80.0585,32.801,0.0],[-80.0582,32.8001,0.0],[-80.0578,32.7986,0.0],[-80.0579,32.7975,0.0],[-80.057,32.7958,0.0],[-80.0569,32.7951,0.0],[-80.0569,32.795,0.0],[-80.0566,32.7937,0.0],[-80.0566,32.7936,0.0],[-80.0564,32.7926,0.0],[-80.0562,32.7914,0.0],[-80.0538,32.7811,0.0],[-80.0538,32.7787,0.0],[-80.0571,32.7775,0.0],[-80.0612,32.7757,0.0],[-80.0671,32.7713,0.0],[-80.0689,32.7708,0.0],[-80.0706,32.7709,0.0],[-80.0725,32.7721,0.0],[-80.0758,32.7754,0.0],[-80.0793,32.7776,0.0],[-80.0828,32.7784,0.0],[-80.0889,32.779,0.0],[-80.096,32.783,0.0],[-80.0999,32.7866,0.0],[-80.1019,32.7871,0.0],[-80.1072,32.7857,0.0],[-80.1115,32.7831,0.0],[-80.1195,32.7804,0.0],[-80.121,32.7809,0.0],[-80.1214,32.7811,0.0],[-80.1248,32.7823,0.0],[-80.1314,32.7875,0.0],[-80.1334,32.7899,0.0],[-80.1337,32.7906,0.0],[-80.1313,32.7924,0.0],[-80.131,32.7937,0.0],[-80.1345,32.796,0.0],[-80.1343,32.7961,0.0]]]]}},{"type":"Feature","properties":{"uesi_id":"USA_R194119","nbhd_code":"USA_R194119_39","nbhd_name":"Census Tract 58"},"geometry":{"type":"MultiPolygon","coordinates":[[[[-80.2764,32.8436,0.0],[-80.1759,32.8221,0.0],[-80.1577,32.8182,0.0],[-80.1493,32.8182,0.0],[-80.1485,32.819,0.0],[-80.1508,32.8212,0.0],[-80.1533,32.8253,0.0],[-80.155,32.8257,0.0],[-80.1569,32.8267,0.0],[-80.1571,32.8283,0.0],[-80.1586,32.8301,0.0],[-80.1576,32.8321,0.0],[-80.1608,32.839,0.0],[-80.1608,32.8409,0.0],[-80.1617,32.841,0.0],[-80.1753,32.8458,0.0],[-80.1838,32.8471,0.0],[-80.1835,32.8493,0.0],[-80.1869,32.852,0.0],[-80.1857,32.8608,0.0],[-80.1825,32.8631,0.0],[-80.1816,32.8629,0.0],[-80.1819,32.8609,0.0],[-80.1761,32.8573,0.0],[-80.1695,32.8546,0.0],[-80.1574,32.8545,0.0],[-80.1562,32.8549,0.0],[-80.1537,32.8582,0.0],[-80.1507,32.8628,0.0],[-80.1417,32.8608,0.0],[-80.1382,32.861,0.0],[-80.1333,32.8604,0.0],[-80.131,32.8609,0.0],[-80.1284,32.8642,0.0],[-80.126,32.8626,0.0],[-80.1024,32.849,0.0],[-80.1005,32.8479,0.0],[-80.0955,32.8437,0.0],[-80.0922,32.8408,0.0],[-80.09,32.8416,0.0],[-80.0869,32.8406,0.0],[-80.0886,32.8376,0.0],[-80.0854,32.835,0.0],[-80.0776,32.8282,0.0],[-80.0802,32.8267,0.0],[-80.0911,32.8204,0.0],[-80.0925,32.8196,0.0],[-80.0975,32.8167,0.0],[-80.1034,32.8133,0.0],[-80.1093,32.81,0.0],[-80.1206,32.8034,0.0],[-80.122,32.8028,0.0],[-80.1343,32.7961,0.0],[-80.1345,32.796,0.0],[-80.1434,32.7908,0.0],[-80.1468,32.7852,0.0],[-80.1479,32.7837,0.0],[-80.1485,32.783,0.0],[-80.1487,32.7828,0.0],[-80.1513,32.7815,0.0],[-80.1566,32.7811,0.0],[-80.1578,32.781,0.0],[-80.18,32.78,0.0],[-80.181,32.7801,0.0],[-80.2451,32.788,0.0],[-80.2458,32.7879,0.0],[-80.2565,32.7839,0.0],[-80.2606,32.7887,0.0],[-80.2695,32.7999,0.0],[-80.2697,32.8002,0.0],[-80.2699,32.8021,0.0],[-80.2697,32.8094,0.0],[-80.2708,32.8149,0.0],[-80.2845,32.8463,0.0],[-80.2764,32.8436,0.0]]]]}},{"type":"Feature","properties":{"uesi_id":"USA_R194119","nbhd_code":"USA_R194119_40","nbhd_name":"Census Tract 1"},"geometry":{"type":"MultiPolygon","coordinates":[[[[-79.9444,32.7762,0.0],[-79.9448,32.777,0.0],[-79.9411,32.7784,0.0],[-79.9383,32.7795,0.0],[-79.9375,32.7774,0.0],[-79.9348,32.7776,0.0],[-79.9347,32.7761,0.0],[-79.9343,32.7743,0.0],[-79.9342,32.7742,0.0],[-79.9338,32.772,0.0],[-79.9354,32.7707,0.0],[-79.9362,32.7631,0.0],[-79.9409,32.7645,0.0],[-79.9434,32.7684,0.0],[-79.9495,32.7737,0.0],[-79.9444,32.7762,0.0]]]]}},{"type":"Feature","properties":{"uesi_id":"USA_R194119","nbhd_code":"USA_R194119_41","nbhd_name":"Census Tract 20.02"},"geometry":{"type":"MultiPolygon","coordinates":[[[[-79.9823,32.7337,0.0],[-79.9806,32.7359,0.0],[-79.9791,32.7393,0.0],[-79.9775,32.7411,0.0],[-79.9754,32.7414,0.0],[-79.974,32.7424,0.0],[-79.9735,32.7425,0.0],[-79.9734,32.7425,0.0],[-79.9721,32.7432,0.0],[-79.972,32.7434,0.0],[-79.972,32.7438,0.0],[-79.9719,32.7441,0.0],[-79.9717,32.7443,0.0],[-79.9716,32.7445,0.0],[-79.9714,32.7445,0.0],[-79.9669,32.7456,0.0],[-79.9669,32.7477,0.0],[-79.9638,32.7464,0.0],[-79.9595,32.7463,0.0],[-79.9575,32.747,0.0],[-79.9524,32.7456,0.0],[-79.9522,32.7451,0.0],[-79.9529,32.7445,0.0],[-79.9521,32.744,0.0],[-79.9521,32.7436,0.0],[-79.9533,32.7418,0.0],[-79.9543,32.741,0.0],[-79.9549,32.7396,0.0],[-79.9559,32.7391,0.0],[-79.9531,32.737,0.0],[-79.9539,32.7355,0.0],[-79.9525,32.7349,0.0],[-79.9506,32.7344,0.0],[-79.9463,32.7314,0.0],[-79.9464,32.7313,0.0],[-79.9484,32.727,0.0],[-79.9487,32.7263,0.0],[-79.9488,32.7263,0.0],[-79.9503,32.7229,0.0],[-79.9507,32.7227,0.0],[-79.9553,32.7211,0.0],[-79.956,32.7208,0.0],[-79.9567,32.7206,0.0],[-79.9575,32.7203,0.0],[-79.9579,32.7202,0.0],[-79.9598,32.7195,0.0],[-79.96,32.7194,0.0],[-79.9631,32.7183,0.0],[-79.9656,32.7168,0.0],[-79.9662,32.7193,0.0],[-79.9682,32.7279,0.0],[-79.9682,32.7282,0.0],[-79.9692,32.7333,0.0],[-79.9688,32.7343,0.0],[-79.9729,32.7351,0.0],[-79.9746,32.735,0.0],[-79.9752,32.735,0.0],[-79.9794,32.7351,0.0],[-79.9818,32.7334,0.0],[-79.9823,32.7337,0.0]]]]}},{"type":"Feature","properties":{"uesi_id":"USA_R194119","nbhd_code":"USA_R194119_42","nbhd_name":"Census Tract 22"},"geometry":{"type":"MultiPolygon","coordinates":[[[[-80.2713,32.6252,0.0],[-80.2699,32.6335,0.0],[-80.2658,32.6448,0.0],[-80.26,32.649,0.0],[-80.2558,32.6511,0.0],[-80.2483,32.6547,0.0],[-80.2456,32.6555,0.0],[-80.2406,32.6576,0.0],[-80.2384,32.6593,0.0],[-80.2376,32.6611,0.0],[-80.237,32.6667,0.0],[-80.2385,32.6696,0.0],[-80.2404,32.6719,0.0],[-80.2418,32.676,0.0],[-80.2416,32.6777,0.0],[-80.2411,32.6788,0.0],[-80.2395,32.68,0.0],[-80.2344,32.6809,0.0],[-80.231,32.6823,0.0],[-80.2272,32.6834,0.0],[-80.2241,32.6849,0.0],[-80.2216,32.6873,0.0],[-80.2222,32.6924,0.0],[-80.2221,32.6944,0.0],[-80.2187,32.6971,0.0],[-80.2157,32.6976,0.0],[-80.2105,32.6961,0.0],[-80.2078,32.6975,0.0],[-80.2049,32.7008,0.0],[-80.1974,32.7048,0.0],[-80.1954,32.7065,0.0],[-80.1906,32.7092,0.0],[-80.1859,32.7094,0.0],[-80.1804,32.7088,0.0],[-80.1781,32.7082,0.0],[-80.176,32.707,0.0],[-80.1743,32.7068,0.0],[-80.1716,32.7079,0.0],[-80.1695,32.7083,0.0],[-80.1659,32.7068,0.0],[-80.1626,32.7077,0.0],[-80.161,32.7074,0.0],[-80.1595,32.7046,0.0],[-80.1575,32.7044,0.0],[-80.1552,32.7068,0.0],[-80.1514,32.7075,0.0],[-80.1483,32.7096,0.0],[-80.1398,32.7114,0.0],[-80.1389,32.7113,0.0],[-80.1356,32.709,0.0],[-80.1323,32.7081,0.0],[-80.1301,32.7071,0.0],[-80.1283,32.7055,0.0],[-80.1258,32.7055,0.0],[-80.1202,32.709,0.0],[-80.1184,32.7109,0.0],[-80.1127,32.7126,0.0],[-80.1109,32.7139,0.0],[-80.1097,32.7141,0.0],[-80.1062,32.7161,0.0],[-80.1051,32.7177,0.0],[-80.1033,32.717,0.0],[-80.0993,32.7173,0.0],[-80.0986,32.7172,0.0],[-80.0977,32.7166,0.0],[-80.096,32.7159,0.0],[-80.0951,32.7152,0.0],[-80.0942,32.715,0.0],[-80.0937,32.7151,0.0],[-80.0927,32.715,0.0],[-80.0916,32.7144,0.0],[-80.0855,32.7132,0.0],[-80.0834,32.7116,0.0],[-80.0826,32.7095,0.0],[-80.0811,32.7085,0.0],[-80.0803,32.7064,0.0],[-80.0776,32.7023,0.0],[-80.0755,32.7002,0.0],[-80.0763,32.6977,0.0],[-80.0778,32.6955,0.0],[-80.08,32.693,0.0],[-80.0857,32.6887,0.0],[-80.0913,32.6868,0.0],[-80.0936,32.6843,0.0],[-80.0949,32.6838,0.0],[-80.0996,32.6836,0.0],[-80.1013,32.6829,0.0],[-80.1032,32.6803,0.0],[-80.1046,32.6796,0.0],[-80.1105,32.6784,0.0],[-80.1134,32.6771,0.0],[-80.1149,32.6745,0.0],[-80.1163,32.6734,0.0],[-80.1216,32.6713,0.0],[-80.1248,32.6686,0.0],[-80.1284,32.6672,0.0],[-80.1326,32.6661,0.0],[-80.1361,32.6629,0.0],[-80.1416,32.6591,0.0],[-80.1428,32.6582,0.0],[-80.1448,32.6565,0.0],[-80.1464,32.6544,0.0],[-80.1471,32.6517,0.0],[-80.1523,32.649,0.0],[-80.1572,32.6445,0.0],[-80.1582,32.6409,0.0],[-80.1593,32.6396,0.0],[-80.1623,32.6383,0.0],[-80.1633,32.637,0.0],[-80.1661,32.6308,0.0],[-80.1662,32.6283,0.0],[-80.1641,32.6234,0.0],[-80.1663,32.6164,0.0],[-80.1658,32.614,0.0],[-80.1642,32.6132,0.0],[-80.1595,32.612,0.0],[-80.1568,32.6108,0.0],[-80.1569,32.6071,0.0],[-80.1593,32.6056,0.0],[-80.1659,32.6037,0.0],[-80.1731,32.6029,0.0],[-80.1754,32.5995,0.0],[-80.1778,32.5947,0.0],[-80.1798,32.5947,0.0],[-80.1857,32.5977,0.0],[-80.1899,32.5993,0.0],[-80.1921,32.5989,0.0],[-80.1958,32.5954,0.0],[-80.2033,32.5895,0.0],[-80.2048,32.5875,0.0],[-80.2068,32.5837,0.0],[-80.2092,32.5794,0.0],[-80.2115,32.5808,0.0],[-80.2216,32.5855,0.0],[-80.2293,32.5976,0.0],[-80.2368,32.6058,0.0],[-80.2498,32.6107,0.0],[-80.2548,32.6122,0.0],[-80.2603,32.615,0.0],[-80.2659,32.6198,0.0],[-80.2712,32.6251,0.0],[-80.2713,32.6252,0.0]]]]}},{"type":"Feature","properties":{"uesi_id":"USA_R194119","nbhd_code":"USA_R194119_43","nbhd_name":"Census Tract 26.14"},"geometry":{"type":"MultiPolygon","coordinates":[[[[-80.0587,32.8016,0.0],[-80.0581,32.8027,0.0],[-80.0558,32.8041,0.0],[-80.0506,32.8048,0.0],[-80.0497,32.8061,0.0],[-80.0484,32.808,0.0],[-80.0484,32.8086,0.0],[-80.0488,32.8094,0.0],[-80.0489,32.8097,0.0],[-80.0491,32.8101,0.0],[-80.0494,32.8104,0.0],[-80.0498,32.8116,0.0],[-80.0496,32.8118,0.0],[-80.047,32.8122,0.0],[-80.0448,32.8122,0.0],[-80.0365,32.8095,0.0],[-80.0345,32.8087,0.0],[-80.0334,32.8083,0.0],[-80.0308,32.8074,0.0],[-80.0235,32.8075,0.0],[-80.0229,32.8069,0.0],[-80.0235,32.8066,0.0],[-80.0298,32.8061,0.0],[-80.0356,32.8058,0.0],[-80.0386,32.8043,0.0],[-80.0405,32.8009,0.0],[-80.041,32.8001,0.0],[-80.0411,32.7997,0.0],[-80.041,32.7967,0.0],[-80.0411,32.7964,0.0],[-80.0412,32.7961,0.0],[-80.0415,32.7956,0.0],[-80.0425,32.7939,0.0],[-80.0427,32.7935,0.0],[-80.0431,32.7928,0.0],[-80.0435,32.7921,0.0],[-80.0465,32.7925,0.0],[-80.0471,32.7926,0.0],[-80.0492,32.7928,0.0],[-80.0566,32.7936,0.0],[-80.0566,32.7937,0.0],[-80.0569,32.795,0.0],[-80.0569,32.7951,0.0],[-80.057,32.7958,0.0],[-80.0579,32.7975,0.0],[-80.0578,32.7986,0.0],[-80.0582,32.8001,0.0],[-80.0585,32.801,0.0],[-80.0586,32.8011,0.0],[-80.0587,32.8014,0.0],[-80.0587,32.8015,0.0],[-80.0587,32.8016,0.0]]]]}},{"type":"Feature","properties":{"uesi_id":"USA_R194119","nbhd_code":"USA_R194119_44","nbhd_name":"Census Tract 53"},"geometry":{"type":"MultiPolygon","coordinates":[[[[-79.9519,32.7999,0.0],[-79.9495,32.8012,0.0],[-79.9511,32.8035,0.0],[-79.9508,32.8065,0.0],[-79.9495,32.8073,0.0],[-79.949,32.8075,0.0],[-79.9478,32.8038,0.0],[-79.946,32.8032,0.0],[-79.9427,32.8038,0.0],[-79.9387,32.8044,0.0],[-79.9338,32.805,0.0],[-79.9336,32.8049,0.0],[-79.9358,32.8042,0.0],[-79.9365,32.8028,0.0],[-79.9352,32.8003,0.0],[-79.94,32.7977,0.0],[-79.9393,32.7966,0.0],[-79.9428,32.7951,0.0],[-79.9434,32.7956,0.0],[-79.9464,32.7947,0.0],[-79.9486,32.793,0.0],[-79.9507,32.7976,0.0],[-79.9519,32.7999,0.0]]]]}},{"type":"Feature","properties":{"uesi_id":"USA_R194119","nbhd_code":"USA_R194119_45","nbhd_name":"Census Tract 9801"},"geometry":{"type":"MultiPolygon","coordinates":[[[[-80.0018,32.9683,0.0],[-79.9994,32.9678,0.0],[-79.9869,32.9648,0.0],[-79.9752,32.9623,0.0],[-79.9722,32.9619,0.0],[-79.9678,32.9618,0.0],[-79.9671,32.9619,0.0],[-79.9591,32.9619,0.0],[-79.9426,32.9599,0.0],[-79.9381,32.9594,0.0],[-79.9362,32.9586,0.0],[-79.9355,32.9573,0.0],[-79.9357,32.9549,0.0],[-79.9371,32.9533,0.0],[-79.9418,32.9503,0.0],[-79.943,32.9484,0.0],[-79.943,32.9468,0.0],[-79.941,32.9412,0.0],[-79.9364,32.9399,0.0],[-79.9355,32.9384,0.0],[-79.9357,32.9381,0.0],[-79.9381,32.936,0.0],[-79.9383,32.9358,0.0],[-79.9389,32.9357,0.0],[-79.9395,32.9344,0.0],[-79.9397,32.934,0.0],[-79.9366,32.9339,0.0],[-79.938,32.9317,0.0],[-79.9381,32.9307,0.0],[-79.9371,32.9283,0.0],[-79.9316,32.9222,0.0],[-79.9289,32.9173,0.0],[-79.9293,32.9145,0.0],[-79.9307,32.9136,0.0],[-79.9383,32.9109,0.0],[-79.9463,32.9091,0.0],[-79.9488,32.9081,0.0],[-79.9504,32.9102,0.0],[-79.9529,32.9129,0.0],[-79.9548,32.916,0.0],[-79.9569,32.9167,0.0],[-79.9577,32.9176,0.0],[-79.957,32.9188,0.0],[-79.9575,32.9205,0.0],[-79.9582,32.921,0.0],[-79.9609,32.9199,0.0],[-79.964,32.9218,0.0],[-79.9661,32.9223,0.0],[-79.9692,32.9253,0.0],[-79.9705,32.9257,0.0],[-79.971,32.9285,0.0],[-79.9701,32.9301,0.0],[-79.9713,32.9313,0.0],[-79.9742,32.9328,0.0],[-79.9752,32.9356,0.0],[-79.974,32.9384,0.0],[-79.9752,32.9393,0.0],[-79.9738,32.9418,0.0],[-79.9742,32.9422,0.0],[-79.9764,32.9424,0.0],[-79.9776,32.9441,0.0],[-79.9826,32.9457,0.0],[-79.9832,32.9442,0.0],[-79.9849,32.9429,0.0],[-79.9846,32.9412,0.0],[-79.9823,32.9406,0.0],[-79.9831,32.9381,0.0],[-79.983,32.9374,0.0],[-79.9809,32.9352,0.0],[-79.981,32.9343,0.0],[-79.9826,32.9341,0.0],[-79.9845,32.933,0.0],[-79.9854,32.9332,0.0],[-79.9852,32.9348,0.0],[-79.9861,32.936,0.0],[-79.9886,32.9367,0.0],[-79.9917,32.9353,0.0],[-79.992,32.9349,0.0],[-79.9916,32.9332,0.0],[-79.9917,32.9307,0.0],[-79.9911,32.9298,0.0],[-79.9903,32.9296,0.0],[-79.9887,32.9298,0.0],[-79.9874,32.9292,0.0],[-79.9861,32.926,0.0],[-79.9883,32.9238,0.0],[-79.9893,32.9242,0.0],[-79.9894,32.9265,0.0],[-79.9918,32.9264,0.0],[-79.992,32.9266,0.0],[-79.9958,32.9313,0.0],[-79.9967,32.9346,0.0],[-79.9989,32.9491,0.0],[-80.0002,32.9578,0.0],[-80.0007,32.9608,0.0],[-80.0018,32.9683,0.0]]]]}},{"type":"Feature","properties":{"uesi_id":"USA_R194119","nbhd_code":"USA_R194119_46","nbhd_name":"Census Tract 20.05"},"geometry":{"type":"MultiPolygon","coordinates":[[[[-79.9585,32.7116,0.0],[-79.9566,32.7158,0.0],[-79.9567,32.7206,0.0],[-79.956,32.7208,0.0],[-79.9553,32.7211,0.0],[-79.9507,32.7227,0.0],[-79.9503,32.7229,0.0],[-79.9482,32.7235,0.0],[-79.9421,32.7258,0.0],[-79.9405,32.7268,0.0],[-79.9399,32.7273,0.0],[-79.9371,32.7287,0.0],[-79.9354,32.7295,0.0],[-79.9338,32.7302,0.0],[-79.9311,32.7304,0.0],[-79.9302,32.7305,0.0],[-79.9293,32.7305,0.0],[-79.9276,32.7309,0.0],[-79.9211,32.7388,0.0],[-79.9207,32.739,0.0],[-79.9183,32.7397,0.0],[-79.9171,32.74,0.0],[-79.9166,32.7402,0.0],[-79.9154,32.7413,0.0],[-79.9126,32.7435,0.0],[-79.9096,32.7458,0.0],[-79.9095,32.7459,0.0],[-79.9075,32.7469,0.0],[-79.9051,32.7483,0.0],[-79.8992,32.7505,0.0],[-79.8985,32.7513,0.0],[-79.8986,32.753,0.0],[-79.8976,32.7522,0.0],[-79.8973,32.752,0.0],[-79.8964,32.7497,0.0],[-79.8963,32.7495,0.0],[-79.8909,32.751,0.0],[-79.8904,32.751,0.0],[-79.8791,32.7508,0.0],[-79.873,32.7445,0.0],[-79.8843,32.7381,0.0],[-79.8908,32.7311,0.0],[-79.8914,32.73,0.0],[-79.8918,32.727,0.0],[-79.8931,32.7253,0.0],[-79.8949,32.7251,0.0],[-79.8987,32.7269,0.0],[-79.9014,32.7267,0.0],[-79.9032,32.7257,0.0],[-79.9049,32.7223,0.0],[-79.9099,32.7205,0.0],[-79.915,32.7213,0.0],[-79.9182,32.721,0.0],[-79.9242,32.7188,0.0],[-79.935,32.7131,0.0],[-79.9404,32.7108,0.0],[-79.9413,32.7109,0.0],[-79.9419,32.7109,0.0],[-79.9426,32.7101,0.0],[-79.9428,32.7095,0.0],[-79.9427,32.7094,0.0],[-79.9431,32.708,0.0],[-79.9451,32.7087,0.0],[-79.947,32.7069,0.0],[-79.9472,32.7067,0.0],[-79.9472,32.7064,0.0],[-79.9474,32.7064,0.0],[-79.9483,32.7067,0.0],[-79.9487,32.7067,0.0],[-79.9489,32.7064,0.0],[-79.9489,32.7061,0.0],[-79.9491,32.7054,0.0],[-79.9529,32.7053,0.0],[-79.9573,32.704,0.0],[-79.9573,32.7069,0.0],[-79.9573,32.7079,0.0],[-79.9573,32.7098,0.0],[-79.9585,32.7116,0.0]]]]}}]}