{"type":"FeatureCollection","name":"USA_R1180533","crs":{"type":"name","properties":{"name":"urn:ogc:def:crs:OGC:1.3:CRS84"}},"features":[{"type":"Feature","properties":{"uesi_id":"USA_R1180533","nbhd_code":"USA_R1180533_1","nbhd_name":"Census Tract 1271"},"geometry":{"type":"MultiPolygon","coordinates":[[[[-90.22,38.6495,0.0],[-90.2199,38.653,0.0],[-90.2192,38.6541,0.0],[-90.2176,38.6534,0.0],[-90.2146,38.6577,0.0],[-90.2129,38.6572,0.0],[-90.2059,38.6557,0.0],[-90.204,38.6553,0.0],[-90.2024,38.6549,0.0],[-90.2019,38.654,0.0],[-90.2028,38.6512,0.0],[-90.2044,38.6462,0.0],[-90.2052,38.644,0.0],[-90.2052,38.6435,0.0],[-90.2074,38.6439,0.0],[-90.2079,38.644,0.0],[-90.2128,38.6451,0.0],[-90.2159,38.6457,0.0],[-90.2199,38.6466,0.0],[-90.22,38.6495,0.0]]]]}},{"type":"Feature","properties":{"uesi_id":"USA_R1180533","nbhd_code":"USA_R1180533_2","nbhd_name":"Census Tract 1012"},"geometry":{"type":"MultiPolygon","coordinates":[[[[-90.2826,38.5601,0.0],[-90.2797,38.5633,0.0],[-90.2778,38.5653,0.0],[-90.2772,38.566,0.0],[-90.2738,38.5697,0.0],[-90.2699,38.5677,0.0],[-90.273,38.5639,0.0],[-90.2671,38.5608,0.0],[-90.2706,38.5577,0.0],[-90.2717,38.5568,0.0],[-90.2723,38.5562,0.0],[-90.2781,38.5564,0.0],[-90.2788,38.5567,0.0],[-90.2829,38.5598,0.0],[-90.2826,38.5601,0.0]]]]}},{"type":"Feature","properties":{"uesi_id":"USA_R1180533","nbhd_code":"USA_R1180533_3","nbhd_name":"Census Tract 1052"},"geometry":{"type":"MultiPolygon","coordinates":[[[[-90.2939,38.6531,0.0],[-90.2939,38.6536,0.0],[-90.2941,38.6549,0.0],[-90.2906,38.6545,0.0],[-90.2867,38.6541,0.0],[-90.2821,38.6537,0.0],[-90.283,38.6484,0.0],[-90.2853,38.6479,0.0],[-90.2853,38.6461,0.0],[-90.2949,38.647,0.0],[-90.2939,38.6531,0.0]]]]}},{"type":"Feature","properties":{"uesi_id":"USA_R1180533","nbhd_code":"USA_R1180533_4","nbhd_name":"Census Tract 1011"},"geometry":{"type":"MultiPolygon","coordinates":[[[[-90.2871,38.5554,0.0],[-90.2829,38.5598,0.0],[-90.2788,38.5567,0.0],[-90.2781,38.5564,0.0],[-90.2723,38.5562,0.0],[-90.2717,38.5568,0.0],[-90.2706,38.5577,0.0],[-90.2671,38.5608,0.0],[-90.2651,38.5598,0.0],[-90.2638,38.5591,0.0],[-90.2623,38.5583,0.0],[-90.2671,38.5542,0.0],[-90.2658,38.5534,0.0],[-90.2702,38.553,0.0],[-90.2715,38.5487,0.0],[-90.2727,38.5486,0.0],[-90.2777,38.5505,0.0],[-90.28,38.5518,0.0],[-90.2803,38.552,0.0],[-90.2806,38.5522,0.0],[-90.2838,38.5539,0.0],[-90.2871,38.5554,0.0]]]]}},{"type":"Feature","properties":{"uesi_id":"USA_R1180533","nbhd_code":"USA_R1180533_5","nbhd_name":"Census Tract 1045"},"geometry":{"type":"MultiPolygon","coordinates":[[[[-90.2942,38.6212,0.0],[-90.2931,38.6272,0.0],[-90.2924,38.6315,0.0],[-90.2867,38.6309,0.0],[-90.285,38.6307,0.0],[-90.2645,38.6288,0.0],[-90.265,38.6259,0.0],[-90.2655,38.6232,0.0],[-90.2701,38.6241,0.0],[-90.2757,38.6237,0.0],[-90.2802,38.6232,0.0],[-90.2881,38.6222,0.0],[-90.2901,38.622,0.0],[-90.292,38.6217,0.0],[-90.2943,38.6209,0.0],[-90.2942,38.6212,0.0]]]]}},{"type":"Feature","properties":{"uesi_id":"USA_R1180533","nbhd_code":"USA_R1180533_6","nbhd_name":"Census Tract 1181"},"geometry":{"type":"MultiPolygon","coordinates":[[[[-90.2656,38.6227,0.0],[-90.2655,38.6232,0.0],[-90.265,38.6259,0.0],[-90.2596,38.6266,0.0],[-90.259,38.6267,0.0],[-90.2569,38.627,0.0],[-90.2542,38.6273,0.0],[-90.2477,38.6282,0.0],[-90.2421,38.6271,0.0],[-90.2443,38.6218,0.0],[-90.2444,38.6213,0.0],[-90.247,38.6215,0.0],[-90.2475,38.6188,0.0],[-90.2558,38.6196,0.0],[-90.2583,38.6198,0.0],[-90.2593,38.6191,0.0],[-90.2607,38.6198,0.0],[-90.2614,38.6201,0.0],[-90.266,38.6206,0.0],[-90.2656,38.6227,0.0]]]]}},{"type":"Feature","properties":{"uesi_id":"USA_R1180533","nbhd_code":"USA_R1180533_7","nbhd_name":"Census Tract 1272"},"geometry":{"type":"MultiPolygon","coordinates":[[[[-90.2913,38.6041,0.0],[-90.2895,38.6061,0.0],[-90.2878,38.6069,0.0],[-90.2857,38.6066,0.0],[-90.2851,38.6093,0.0],[-90.2846,38.6119,0.0],[-90.2839,38.6118,0.0],[-90.2803,38.6115,0.0],[-90.2751,38.611,0.0],[-90.2737,38.6112,0.0],[-90.2676,38.6126,0.0],[-90.2682,38.6097,0.0],[-90.2692,38.605,0.0],[-90.2702,38.5997,0.0],[-90.2772,38.6005,0.0],[-90.2805,38.6008,0.0],[-90.2844,38.6012,0.0],[-90.2877,38.6015,0.0],[-90.2919,38.602,0.0],[-90.2913,38.6041,0.0]]]]}},{"type":"Feature","properties":{"uesi_id":"USA_R1180533","nbhd_code":"USA_R1180533_8","nbhd_name":"Census Tract 1021"},"geometry":{"type":"MultiPolygon","coordinates":[[[[-90.3104,38.5756,0.0],[-90.3025,38.5748,0.0],[-90.3004,38.5747,0.0],[-90.2948,38.5741,0.0],[-90.2918,38.5738,0.0],[-90.2912,38.5735,0.0],[-90.2851,38.5701,0.0],[-90.2859,38.5694,0.0],[-90.2874,38.5683,0.0],[-90.2907,38.5664,0.0],[-90.2942,38.5643,0.0],[-90.297,38.5624,0.0],[-90.307,38.5722,0.0],[-90.3072,38.5724,0.0],[-90.31,38.5752,0.0],[-90.3104,38.5756,0.0]]]]}},{"type":"Feature","properties":{"uesi_id":"USA_R1180533","nbhd_code":"USA_R1180533_9","nbhd_name":"Census Tract 1122"},"geometry":{"type":"MultiPolygon","coordinates":[[[[-90.282,38.6549,0.0],[-90.2789,38.6548,0.0],[-90.2731,38.6542,0.0],[-90.2726,38.6571,0.0],[-90.2699,38.6569,0.0],[-90.2663,38.6565,0.0],[-90.2657,38.6602,0.0],[-90.2621,38.6599,0.0],[-90.2628,38.6557,0.0],[-90.2629,38.6551,0.0],[-90.2635,38.6516,0.0],[-90.2707,38.6523,0.0],[-90.2726,38.6525,0.0],[-90.2733,38.6526,0.0],[-90.2746,38.653,0.0],[-90.2821,38.6537,0.0],[-90.282,38.6549,0.0]]]]}},{"type":"Feature","properties":{"uesi_id":"USA_R1180533","nbhd_code":"USA_R1180533_10","nbhd_name":"Census Tract 1273"},"geometry":{"type":"MultiPolygon","coordinates":[[[[-90.2453,38.6156,0.0],[-90.245,38.6177,0.0],[-90.2444,38.6213,0.0],[-90.2443,38.6218,0.0],[-90.2421,38.6271,0.0],[-90.2367,38.626,0.0],[-90.2249,38.6235,0.0],[-90.2264,38.6192,0.0],[-90.2271,38.6192,0.0],[-90.2278,38.6156,0.0],[-90.2286,38.612,0.0],[-90.24,38.6134,0.0],[-90.2455,38.614,0.0],[-90.2453,38.6156,0.0]]]]}},{"type":"Feature","properties":{"uesi_id":"USA_R1180533","nbhd_code":"USA_R1180533_11","nbhd_name":"Census Tract 1038"},"geometry":{"type":"MultiPolygon","coordinates":[[[[-90.3205,38.5942,0.0],[-90.319,38.598,0.0],[-90.3189,38.5983,0.0],[-90.3176,38.5991,0.0],[-90.3154,38.6,0.0],[-90.313,38.6011,0.0],[-90.3103,38.6038,0.0],[-90.3096,38.6037,0.0],[-90.3076,38.6035,0.0],[-90.3041,38.6032,0.0],[-90.3029,38.6031,0.0],[-90.2989,38.6027,0.0],[-90.2997,38.6009,0.0],[-90.3001,38.6001,0.0],[-90.3005,38.5975,0.0],[-90.3021,38.5924,0.0],[-90.3069,38.5929,0.0],[-90.3094,38.5931,0.0],[-90.3125,38.5934,0.0],[-90.3161,38.5938,0.0],[-90.3164,38.5922,0.0],[-90.3196,38.5922,0.0],[-90.3205,38.5942,0.0]]]]}},{"type":"Feature","properties":{"uesi_id":"USA_R1180533","nbhd_code":"USA_R1180533_12","nbhd_name":"Census Tract 1023"},"geometry":{"type":"MultiPolygon","coordinates":[[[[-90.2942,38.5643,0.0],[-90.2907,38.5664,0.0],[-90.2874,38.5683,0.0],[-90.2859,38.5694,0.0],[-90.2842,38.5679,0.0],[-90.2829,38.5687,0.0],[-90.2797,38.567,0.0],[-90.2772,38.566,0.0],[-90.2778,38.5653,0.0],[-90.2797,38.5633,0.0],[-90.2826,38.5601,0.0],[-90.2829,38.5598,0.0],[-90.2871,38.5554,0.0],[-90.2897,38.557,0.0],[-90.2924,38.559,0.0],[-90.297,38.5624,0.0],[-90.2942,38.5643,0.0]]]]}},{"type":"Feature","properties":{"uesi_id":"USA_R1180533","nbhd_code":"USA_R1180533_13","nbhd_name":"Census Tract 1042"},"geometry":{"type":"MultiPolygon","coordinates":[[[[-90.309,38.6289,0.0],[-90.3088,38.63,0.0],[-90.3078,38.6325,0.0],[-90.3064,38.6336,0.0],[-90.3045,38.6326,0.0],[-90.3017,38.6324,0.0],[-90.2965,38.6319,0.0],[-90.2924,38.6315,0.0],[-90.2931,38.6272,0.0],[-90.2942,38.6212,0.0],[-90.2943,38.6209,0.0],[-90.295,38.6206,0.0],[-90.2953,38.6209,0.0],[-90.2975,38.6239,0.0],[-90.2984,38.6243,0.0],[-90.3008,38.625,0.0],[-90.3012,38.6262,0.0],[-90.302,38.6263,0.0],[-90.3031,38.6264,0.0],[-90.3094,38.627,0.0],[-90.309,38.6289,0.0]]]]}},{"type":"Feature","properties":{"uesi_id":"USA_R1180533","nbhd_code":"USA_R1180533_14","nbhd_name":"Census Tract 1064"},"geometry":{"type":"MultiPolygon","coordinates":[[[[-90.2704,38.6725,0.0],[-90.2673,38.6767,0.0],[-90.2671,38.677,0.0],[-90.266,38.6786,0.0],[-90.2638,38.6817,0.0],[-90.2583,38.6792,0.0],[-90.2517,38.6763,0.0],[-90.2528,38.6749,0.0],[-90.2528,38.6747,0.0],[-90.2552,38.6714,0.0],[-90.2564,38.6697,0.0],[-90.2628,38.6725,0.0],[-90.2661,38.6738,0.0],[-90.2669,38.6727,0.0],[-90.2678,38.6714,0.0],[-90.2704,38.6725,0.0]]]]}},{"type":"Feature","properties":{"uesi_id":"USA_R1180533","nbhd_code":"USA_R1180533_15","nbhd_name":"Census Tract 1082"},"geometry":{"type":"MultiPolygon","coordinates":[[[[-90.2473,38.7206,0.0],[-90.2406,38.7233,0.0],[-90.2405,38.7228,0.0],[-90.2382,38.7193,0.0],[-90.2354,38.719,0.0],[-90.2293,38.7183,0.0],[-90.2299,38.7149,0.0],[-90.2331,38.7152,0.0],[-90.2337,38.7153,0.0],[-90.2349,38.7154,0.0],[-90.2381,38.7157,0.0],[-90.2391,38.7158,0.0],[-90.2402,38.7159,0.0],[-90.2414,38.7161,0.0],[-90.2518,38.7188,0.0],[-90.2473,38.7206,0.0]]]]}},{"type":"Feature","properties":{"uesi_id":"USA_R1180533","nbhd_code":"USA_R1180533_16","nbhd_name":"Census Tract 1104"},"geometry":{"type":"MultiPolygon","coordinates":[[[[-90.2271,38.6618,0.0],[-90.2265,38.6626,0.0],[-90.225,38.6648,0.0],[-90.2227,38.6637,0.0],[-90.2204,38.6627,0.0],[-90.2168,38.6611,0.0],[-90.2132,38.6596,0.0],[-90.2146,38.6577,0.0],[-90.2176,38.6534,0.0],[-90.2192,38.6541,0.0],[-90.2211,38.655,0.0],[-90.2247,38.6566,0.0],[-90.2243,38.6572,0.0],[-90.2266,38.6582,0.0],[-90.229,38.6592,0.0],[-90.2271,38.6618,0.0]]]]}},{"type":"Feature","properties":{"uesi_id":"USA_R1180533","nbhd_code":"USA_R1180533_17","nbhd_name":"Census Tract 1115"},"geometry":{"type":"MultiPolygon","coordinates":[[[[-90.2324,38.6509,0.0],[-90.2296,38.6497,0.0],[-90.2274,38.6528,0.0],[-90.2259,38.6549,0.0],[-90.2247,38.6566,0.0],[-90.2211,38.655,0.0],[-90.2192,38.6541,0.0],[-90.2199,38.653,0.0],[-90.22,38.6495,0.0],[-90.2199,38.6466,0.0],[-90.2245,38.6475,0.0],[-90.226,38.6482,0.0],[-90.2273,38.6459,0.0],[-90.2339,38.6488,0.0],[-90.2324,38.6509,0.0]]]]}},{"type":"Feature","properties":{"uesi_id":"USA_R1180533","nbhd_code":"USA_R1180533_18","nbhd_name":"Census Tract 1141.02"},"geometry":{"type":"MultiPolygon","coordinates":[[[[-90.3037,38.5879,0.0],[-90.3031,38.5919,0.0],[-90.3021,38.5924,0.0],[-90.3005,38.5975,0.0],[-90.291,38.5965,0.0],[-90.2915,38.594,0.0],[-90.2916,38.5931,0.0],[-90.2917,38.5925,0.0],[-90.2917,38.5913,0.0],[-90.2926,38.586,0.0],[-90.2933,38.582,0.0],[-90.2955,38.5816,0.0],[-90.2973,38.5817,0.0],[-90.3045,38.5825,0.0],[-90.3037,38.5879,0.0]]]]}},{"type":"Feature","properties":{"uesi_id":"USA_R1180533","nbhd_code":"USA_R1180533_19","nbhd_name":"Census Tract 1161"},"geometry":{"type":"MultiPolygon","coordinates":[[[[-90.2597,38.5899,0.0],[-90.2584,38.5898,0.0],[-90.2579,38.5925,0.0],[-90.2596,38.5927,0.0],[-90.2592,38.5953,0.0],[-90.2588,38.5978,0.0],[-90.2561,38.5975,0.0],[-90.2534,38.5972,0.0],[-90.2506,38.5969,0.0],[-90.2509,38.5945,0.0],[-90.2509,38.5944,0.0],[-90.2514,38.5939,0.0],[-90.2514,38.5919,0.0],[-90.2511,38.5915,0.0],[-90.2517,38.5891,0.0],[-90.2521,38.5868,0.0],[-90.2524,38.5862,0.0],[-90.253,38.5854,0.0],[-90.2582,38.5882,0.0],[-90.2583,38.5882,0.0],[-90.2596,38.5889,0.0],[-90.2597,38.5899,0.0]]]]}},{"type":"Feature","properties":{"uesi_id":"USA_R1180533","nbhd_code":"USA_R1180533_20","nbhd_name":"Census Tract 1163.02"},"geometry":{"type":"MultiPolygon","coordinates":[[[[-90.2521,38.5868,0.0],[-90.2517,38.5891,0.0],[-90.2511,38.5915,0.0],[-90.2514,38.5919,0.0],[-90.2514,38.5939,0.0],[-90.2509,38.5944,0.0],[-90.2509,38.5945,0.0],[-90.2475,38.5942,0.0],[-90.2436,38.5938,0.0],[-90.2439,38.5919,0.0],[-90.2445,38.5883,0.0],[-90.2447,38.5874,0.0],[-90.2449,38.5856,0.0],[-90.245,38.5852,0.0],[-90.2509,38.5859,0.0],[-90.2524,38.5862,0.0],[-90.2521,38.5868,0.0]]]]}},{"type":"Feature","properties":{"uesi_id":"USA_R1180533","nbhd_code":"USA_R1180533_21","nbhd_name":"Census Tract 1275"},"geometry":{"type":"MultiPolygon","coordinates":[[[[-90.2184,38.6331,0.0],[-90.2167,38.6387,0.0],[-90.2158,38.6385,0.0],[-90.2144,38.6391,0.0],[-90.2158,38.6394,0.0],[-90.2159,38.6457,0.0],[-90.2128,38.6451,0.0],[-90.2079,38.644,0.0],[-90.2074,38.6439,0.0],[-90.2052,38.6435,0.0],[-90.2018,38.6427,0.0],[-90.2027,38.6403,0.0],[-90.2024,38.6389,0.0],[-90.2039,38.636,0.0],[-90.205,38.6335,0.0],[-90.2057,38.6314,0.0],[-90.2059,38.6307,0.0],[-90.2063,38.6293,0.0],[-90.2105,38.6301,0.0],[-90.2155,38.6311,0.0],[-90.2173,38.6312,0.0],[-90.2168,38.6328,0.0],[-90.2184,38.6331,0.0]]]]}},{"type":"Feature","properties":{"uesi_id":"USA_R1180533","nbhd_code":"USA_R1180533_22","nbhd_name":"Census Tract 1018"},"geometry":{"type":"MultiPolygon","coordinates":[[[[-90.2691,38.5375,0.0],[-90.2628,38.5431,0.0],[-90.2579,38.5474,0.0],[-90.2571,38.5481,0.0],[-90.261,38.5506,0.0],[-90.256,38.555,0.0],[-90.252,38.5583,0.0],[-90.2505,38.5602,0.0],[-90.2494,38.5618,0.0],[-90.2464,38.5627,0.0],[-90.2461,38.5618,0.0],[-90.2431,38.5603,0.0],[-90.2417,38.5597,0.0],[-90.2381,38.5581,0.0],[-90.2402,38.5554,0.0],[-90.2489,38.5448,0.0],[-90.2503,38.5428,0.0],[-90.2578,38.532,0.0],[-90.2624,38.5339,0.0],[-90.2653,38.5337,0.0],[-90.2669,38.5342,0.0],[-90.2691,38.5375,0.0]]]]}},{"type":"Feature","properties":{"uesi_id":"USA_R1180533","nbhd_code":"USA_R1180533_23","nbhd_name":"Census Tract 1022"},"geometry":{"type":"MultiPolygon","coordinates":[[[[-90.3162,38.5847,0.0],[-90.315,38.5856,0.0],[-90.314,38.5864,0.0],[-90.3135,38.5867,0.0],[-90.3133,38.5868,0.0],[-90.313,38.587,0.0],[-90.3117,38.5852,0.0],[-90.3111,38.5842,0.0],[-90.3105,38.5832,0.0],[-90.3062,38.5827,0.0],[-90.3045,38.5825,0.0],[-90.2973,38.5817,0.0],[-90.2955,38.5816,0.0],[-90.2933,38.582,0.0],[-90.2915,38.5823,0.0],[-90.2892,38.582,0.0],[-90.2788,38.5809,0.0],[-90.2799,38.5798,0.0],[-90.281,38.5793,0.0],[-90.2821,38.5784,0.0],[-90.284,38.5751,0.0],[-90.2844,38.5742,0.0],[-90.2838,38.5713,0.0],[-90.2851,38.5701,0.0],[-90.2912,38.5735,0.0],[-90.2918,38.5738,0.0],[-90.2948,38.5741,0.0],[-90.3004,38.5747,0.0],[-90.3025,38.5748,0.0],[-90.3104,38.5756,0.0],[-90.3136,38.5788,0.0],[-90.314,38.5798,0.0],[-90.3149,38.5817,0.0],[-90.3162,38.5847,0.0]]]]}},{"type":"Feature","properties":{"uesi_id":"USA_R1180533","nbhd_code":"USA_R1180533_24","nbhd_name":"Census Tract 1055"},"geometry":{"type":"MultiPolygon","coordinates":[[[[-90.2857,38.6609,0.0],[-90.2856,38.6619,0.0],[-90.2852,38.664,0.0],[-90.2831,38.6669,0.0],[-90.2797,38.665,0.0],[-90.2762,38.6631,0.0],[-90.272,38.6609,0.0],[-90.2664,38.6603,0.0],[-90.2657,38.6602,0.0],[-90.2663,38.6565,0.0],[-90.2699,38.6569,0.0],[-90.2726,38.6571,0.0],[-90.2731,38.6542,0.0],[-90.2789,38.6548,0.0],[-90.2783,38.6581,0.0],[-90.286,38.6589,0.0],[-90.2857,38.6609,0.0]]]]}},{"type":"Feature","properties":{"uesi_id":"USA_R1180533","nbhd_code":"USA_R1180533_25","nbhd_name":"Census Tract 1083"},"geometry":{"type":"MultiPolygon","coordinates":[[[[-90.2406,38.7233,0.0],[-90.2397,38.7236,0.0],[-90.2353,38.7253,0.0],[-90.2339,38.7259,0.0],[-90.228,38.7282,0.0],[-90.2279,38.7266,0.0],[-90.2284,38.7237,0.0],[-90.2293,38.7183,0.0],[-90.2354,38.719,0.0],[-90.2382,38.7193,0.0],[-90.2405,38.7228,0.0],[-90.2406,38.7233,0.0]]]]}},{"type":"Feature","properties":{"uesi_id":"USA_R1180533","nbhd_code":"USA_R1180533_26","nbhd_name":"Census Tract 1113"},"geometry":{"type":"MultiPolygon","coordinates":[[[[-90.2469,38.6594,0.0],[-90.2458,38.661,0.0],[-90.2435,38.6643,0.0],[-90.2428,38.6652,0.0],[-90.2404,38.6642,0.0],[-90.2362,38.6624,0.0],[-90.2334,38.6611,0.0],[-90.2348,38.6593,0.0],[-90.2337,38.6588,0.0],[-90.235,38.6569,0.0],[-90.2377,38.6532,0.0],[-90.2451,38.6565,0.0],[-90.2457,38.6568,0.0],[-90.2481,38.6578,0.0],[-90.2469,38.6594,0.0]]]]}},{"type":"Feature","properties":{"uesi_id":"USA_R1180533","nbhd_code":"USA_R1180533_27","nbhd_name":"Census Tract 1154"},"geometry":{"type":"MultiPolygon","coordinates":[[[[-90.2697,38.5793,0.0],[-90.2673,38.5812,0.0],[-90.2669,38.5815,0.0],[-90.2635,38.5797,0.0],[-90.2634,38.5797,0.0],[-90.2617,38.5788,0.0],[-90.2582,38.5769,0.0],[-90.2572,38.5764,0.0],[-90.2558,38.5756,0.0],[-90.2507,38.5729,0.0],[-90.2544,38.5685,0.0],[-90.2576,38.5702,0.0],[-90.2584,38.5707,0.0],[-90.2605,38.5718,0.0],[-90.2615,38.5724,0.0],[-90.2691,38.5763,0.0],[-90.2683,38.5786,0.0],[-90.2697,38.5793,0.0]]]]}},{"type":"Feature","properties":{"uesi_id":"USA_R1180533","nbhd_code":"USA_R1180533_28","nbhd_name":"Census Tract 1184"},"geometry":{"type":"MultiPolygon","coordinates":[[[[-90.2338,38.6344,0.0],[-90.2204,38.6311,0.0],[-90.2173,38.6312,0.0],[-90.2155,38.6311,0.0],[-90.218,38.627,0.0],[-90.2181,38.624,0.0],[-90.2241,38.625,0.0],[-90.2249,38.6235,0.0],[-90.2367,38.626,0.0],[-90.2338,38.6344,0.0]]]]}},{"type":"Feature","properties":{"uesi_id":"USA_R1180533","nbhd_code":"USA_R1180533_29","nbhd_name":"Census Tract 1192"},"geometry":{"type":"MultiPolygon","coordinates":[[[[-90.2549,38.6481,0.0],[-90.2535,38.6502,0.0],[-90.2528,38.6512,0.0],[-90.2472,38.6487,0.0],[-90.2418,38.6463,0.0],[-90.2371,38.6443,0.0],[-90.2378,38.6433,0.0],[-90.2424,38.6454,0.0],[-90.2445,38.6424,0.0],[-90.2452,38.6415,0.0],[-90.2497,38.6434,0.0],[-90.2531,38.645,0.0],[-90.2562,38.6463,0.0],[-90.2549,38.6481,0.0]]]]}},{"type":"Feature","properties":{"uesi_id":"USA_R1180533","nbhd_code":"USA_R1180533_30","nbhd_name":"Census Tract 1232"},"geometry":{"type":"MultiPolygon","coordinates":[[[[-90.2209,38.6148,0.0],[-90.2199,38.6182,0.0],[-90.2134,38.6174,0.0],[-90.2131,38.6174,0.0],[-90.2112,38.6168,0.0],[-90.206,38.6154,0.0],[-90.2043,38.6148,0.0],[-90.206,38.6128,0.0],[-90.2058,38.6125,0.0],[-90.2088,38.6096,0.0],[-90.2096,38.6077,0.0],[-90.2118,38.6086,0.0],[-90.2122,38.6085,0.0],[-90.2151,38.6092,0.0],[-90.2217,38.6111,0.0],[-90.2209,38.6148,0.0]]]]}},{"type":"Feature","properties":{"uesi_id":"USA_R1180533","nbhd_code":"USA_R1180533_31","nbhd_name":"Census Tract 1256"},"geometry":{"type":"MultiPolygon","coordinates":[[[[-90.1978,38.629,0.0],[-90.1973,38.6305,0.0],[-90.1967,38.6318,0.0],[-90.1958,38.6343,0.0],[-90.1951,38.6363,0.0],[-90.1911,38.6355,0.0],[-90.1866,38.6345,0.0],[-90.1853,38.6342,0.0],[-90.178,38.6338,0.0],[-90.1788,38.6292,0.0],[-90.1824,38.618,0.0],[-90.189,38.6198,0.0],[-90.1918,38.621,0.0],[-90.1933,38.6215,0.0],[-90.2,38.623,0.0],[-90.1978,38.629,0.0]]]]}},{"type":"Feature","properties":{"uesi_id":"USA_R1180533","nbhd_code":"USA_R1180533_32","nbhd_name":"Census Tract 1013"},"geometry":{"type":"MultiPolygon","coordinates":[[[[-90.271,38.5728,0.0],[-90.2704,38.5738,0.0],[-90.2695,38.5753,0.0],[-90.2691,38.5763,0.0],[-90.2615,38.5724,0.0],[-90.2605,38.5718,0.0],[-90.2584,38.5707,0.0],[-90.2576,38.5702,0.0],[-90.2544,38.5685,0.0],[-90.2566,38.566,0.0],[-90.2587,38.5636,0.0],[-90.2596,38.5625,0.0],[-90.2576,38.5615,0.0],[-90.2551,38.5601,0.0],[-90.258,38.5582,0.0],[-90.2591,38.5567,0.0],[-90.2623,38.5583,0.0],[-90.2638,38.5591,0.0],[-90.2651,38.5598,0.0],[-90.2671,38.5608,0.0],[-90.273,38.5639,0.0],[-90.2699,38.5677,0.0],[-90.2738,38.5697,0.0],[-90.271,38.5728,0.0]]]]}},{"type":"Feature","properties":{"uesi_id":"USA_R1180533","nbhd_code":"USA_R1180533_33","nbhd_name":"Census Tract 1065"},"geometry":{"type":"MultiPolygon","coordinates":[[[[-90.273,38.6737,0.0],[-90.2704,38.6725,0.0],[-90.2678,38.6714,0.0],[-90.2669,38.6727,0.0],[-90.2661,38.6738,0.0],[-90.2628,38.6725,0.0],[-90.2564,38.6697,0.0],[-90.2571,38.6689,0.0],[-90.2584,38.6672,0.0],[-90.2602,38.6647,0.0],[-90.2615,38.6631,0.0],[-90.2649,38.6643,0.0],[-90.2677,38.6658,0.0],[-90.2724,38.6683,0.0],[-90.2756,38.6701,0.0],[-90.273,38.6737,0.0]]]]}},{"type":"Feature","properties":{"uesi_id":"USA_R1180533","nbhd_code":"USA_R1180533_34","nbhd_name":"Census Tract 1101"},"geometry":{"type":"MultiPolygon","coordinates":[[[[-90.2469,38.6694,0.0],[-90.2462,38.6703,0.0],[-90.245,38.6721,0.0],[-90.2448,38.6723,0.0],[-90.2443,38.6731,0.0],[-90.2413,38.6719,0.0],[-90.2397,38.6741,0.0],[-90.2394,38.674,0.0],[-90.2371,38.6772,0.0],[-90.2347,38.6779,0.0],[-90.2345,38.6793,0.0],[-90.2334,38.6788,0.0],[-90.2307,38.6777,0.0],[-90.233,38.6745,0.0],[-90.2338,38.6733,0.0],[-90.2365,38.6698,0.0],[-90.2386,38.6668,0.0],[-90.2404,38.6642,0.0],[-90.2428,38.6652,0.0],[-90.2434,38.6654,0.0],[-90.2482,38.6676,0.0],[-90.2469,38.6694,0.0]]]]}},{"type":"Feature","properties":{"uesi_id":"USA_R1180533","nbhd_code":"USA_R1180533_35","nbhd_name":"Census Tract 1212"},"geometry":{"type":"MultiPolygon","coordinates":[[[[-90.2293,38.6423,0.0],[-90.2273,38.6459,0.0],[-90.226,38.6482,0.0],[-90.2245,38.6475,0.0],[-90.2199,38.6466,0.0],[-90.2159,38.6457,0.0],[-90.2158,38.6394,0.0],[-90.2144,38.6391,0.0],[-90.2158,38.6385,0.0],[-90.2167,38.6387,0.0],[-90.2205,38.6394,0.0],[-90.2291,38.6412,0.0],[-90.23,38.6412,0.0],[-90.2293,38.6423,0.0]]]]}},{"type":"Feature","properties":{"uesi_id":"USA_R1180533","nbhd_code":"USA_R1180533_36","nbhd_name":"Census Tract 1066"},"geometry":{"type":"MultiPolygon","coordinates":[[[[-90.2724,38.6683,0.0],[-90.2677,38.6658,0.0],[-90.2649,38.6643,0.0],[-90.2615,38.6631,0.0],[-90.2535,38.6602,0.0],[-90.2543,38.6591,0.0],[-90.2551,38.6581,0.0],[-90.2563,38.6586,0.0],[-90.2584,38.6595,0.0],[-90.2621,38.6599,0.0],[-90.2657,38.6602,0.0],[-90.2664,38.6603,0.0],[-90.272,38.6609,0.0],[-90.2762,38.6631,0.0],[-90.2724,38.6683,0.0]]]]}},{"type":"Feature","properties":{"uesi_id":"USA_R1180533","nbhd_code":"USA_R1180533_37","nbhd_name":"Census Tract 1014"},"geometry":{"type":"MultiPolygon","coordinates":[[[[-90.2587,38.5636,0.0],[-90.2566,38.566,0.0],[-90.2544,38.5685,0.0],[-90.2523,38.5674,0.0],[-90.2506,38.5665,0.0],[-90.2487,38.5655,0.0],[-90.246,38.5641,0.0],[-90.2464,38.5627,0.0],[-90.2494,38.5618,0.0],[-90.2505,38.5602,0.0],[-90.252,38.5583,0.0],[-90.256,38.555,0.0],[-90.2591,38.5567,0.0],[-90.258,38.5582,0.0],[-90.2551,38.5601,0.0],[-90.2576,38.5615,0.0],[-90.2596,38.5625,0.0],[-90.2587,38.5636,0.0]]]]}},{"type":"Feature","properties":{"uesi_id":"USA_R1180533","nbhd_code":"USA_R1180533_38","nbhd_name":"Census Tract 1075"},"geometry":{"type":"MultiPolygon","coordinates":[[[[-90.2539,38.6901,0.0],[-90.2525,38.6909,0.0],[-90.2503,38.6921,0.0],[-90.2498,38.6924,0.0],[-90.2479,38.6934,0.0],[-90.2466,38.6941,0.0],[-90.2439,38.6956,0.0],[-90.241,38.6972,0.0],[-90.2385,38.6942,0.0],[-90.2381,38.6936,0.0],[-90.2362,38.6914,0.0],[-90.2388,38.6899,0.0],[-90.2416,38.6884,0.0],[-90.2422,38.6881,0.0],[-90.2447,38.6867,0.0],[-90.2454,38.6863,0.0],[-90.2539,38.6898,0.0],[-90.2548,38.6902,0.0],[-90.2539,38.6901,0.0]]]]}},{"type":"Feature","properties":{"uesi_id":"USA_R1180533","nbhd_code":"USA_R1180533_39","nbhd_name":"Census Tract 1076"},"geometry":{"type":"MultiPolygon","coordinates":[[[[-90.2473,38.6842,0.0],[-90.2468,38.6856,0.0],[-90.2456,38.6862,0.0],[-90.2454,38.6863,0.0],[-90.2447,38.6867,0.0],[-90.2422,38.6881,0.0],[-90.2416,38.6884,0.0],[-90.2388,38.6899,0.0],[-90.2362,38.6914,0.0],[-90.2344,38.6894,0.0],[-90.2296,38.6841,0.0],[-90.228,38.6832,0.0],[-90.2304,38.683,0.0],[-90.2302,38.6823,0.0],[-90.2328,38.682,0.0],[-90.2393,38.6826,0.0],[-90.2398,38.6819,0.0],[-90.2419,38.6791,0.0],[-90.2452,38.6806,0.0],[-90.2469,38.6813,0.0],[-90.248,38.6817,0.0],[-90.2473,38.6842,0.0]]]]}},{"type":"Feature","properties":{"uesi_id":"USA_R1180533","nbhd_code":"USA_R1180533_40","nbhd_name":"Census Tract 1096"},"geometry":{"type":"MultiPolygon","coordinates":[[[[-90.2345,38.6793,0.0],[-90.2302,38.6823,0.0],[-90.2304,38.683,0.0],[-90.228,38.6832,0.0],[-90.2265,38.6825,0.0],[-90.2245,38.6842,0.0],[-90.2182,38.6875,0.0],[-90.217,38.6863,0.0],[-90.2152,38.6872,0.0],[-90.2105,38.6897,0.0],[-90.2023,38.6935,0.0],[-90.2022,38.6935,0.0],[-90.1977,38.6897,0.0],[-90.196,38.6882,0.0],[-90.1954,38.6877,0.0],[-90.1957,38.6873,0.0],[-90.2047,38.683,0.0],[-90.2126,38.6787,0.0],[-90.2182,38.6733,0.0],[-90.2196,38.6716,0.0],[-90.2223,38.6732,0.0],[-90.2253,38.6745,0.0],[-90.2286,38.6764,0.0],[-90.2306,38.6776,0.0],[-90.2307,38.6777,0.0],[-90.2334,38.6788,0.0],[-90.2345,38.6793,0.0]]]]}},{"type":"Feature","properties":{"uesi_id":"USA_R1180533","nbhd_code":"USA_R1180533_41","nbhd_name":"Census Tract 1097"},"geometry":{"type":"MultiPolygon","coordinates":[[[[-90.2182,38.6733,0.0],[-90.2126,38.6787,0.0],[-90.2047,38.683,0.0],[-90.1957,38.6873,0.0],[-90.1954,38.6877,0.0],[-90.1952,38.6876,0.0],[-90.1868,38.6753,0.0],[-90.1864,38.6747,0.0],[-90.1855,38.6724,0.0],[-90.1951,38.6692,0.0],[-90.2,38.6666,0.0],[-90.2028,38.6656,0.0],[-90.2073,38.6641,0.0],[-90.2084,38.6663,0.0],[-90.2091,38.6677,0.0],[-90.2111,38.669,0.0],[-90.2128,38.6687,0.0],[-90.2166,38.6703,0.0],[-90.2196,38.6716,0.0],[-90.2182,38.6733,0.0]]]]}},{"type":"Feature","properties":{"uesi_id":"USA_R1180533","nbhd_code":"USA_R1180533_42","nbhd_name":"Census Tract 1105"},"geometry":{"type":"MultiPolygon","coordinates":[[[[-90.2272,38.6687,0.0],[-90.2263,38.67,0.0],[-90.222,38.6682,0.0],[-90.2196,38.6716,0.0],[-90.2166,38.6703,0.0],[-90.2128,38.6687,0.0],[-90.2111,38.669,0.0],[-90.2091,38.6677,0.0],[-90.2084,38.6663,0.0],[-90.2107,38.6632,0.0],[-90.2132,38.6596,0.0],[-90.2168,38.6611,0.0],[-90.2204,38.6627,0.0],[-90.2227,38.6637,0.0],[-90.225,38.6648,0.0],[-90.2289,38.6664,0.0],[-90.2272,38.6687,0.0]]]]}},{"type":"Feature","properties":{"uesi_id":"USA_R1180533","nbhd_code":"USA_R1180533_43","nbhd_name":"Census Tract 1112"},"geometry":{"type":"MultiPolygon","coordinates":[[[[-90.2543,38.6591,0.0],[-90.2535,38.6602,0.0],[-90.2526,38.6614,0.0],[-90.2512,38.6633,0.0],[-90.2502,38.6648,0.0],[-90.2482,38.6676,0.0],[-90.2434,38.6654,0.0],[-90.2428,38.6652,0.0],[-90.2435,38.6643,0.0],[-90.2458,38.661,0.0],[-90.2469,38.6594,0.0],[-90.2481,38.6578,0.0],[-90.2457,38.6568,0.0],[-90.2451,38.6565,0.0],[-90.2377,38.6532,0.0],[-90.2371,38.653,0.0],[-90.2386,38.6508,0.0],[-90.2467,38.6544,0.0],[-90.248,38.6524,0.0],[-90.2484,38.6519,0.0],[-90.2513,38.6532,0.0],[-90.2496,38.6557,0.0],[-90.2525,38.6569,0.0],[-90.2532,38.6573,0.0],[-90.2551,38.6581,0.0],[-90.2543,38.6591,0.0]]]]}},{"type":"Feature","properties":{"uesi_id":"USA_R1180533","nbhd_code":"USA_R1180533_44","nbhd_name":"Census Tract 1114"},"geometry":{"type":"MultiPolygon","coordinates":[[[[-90.2371,38.653,0.0],[-90.2377,38.6532,0.0],[-90.235,38.6569,0.0],[-90.2337,38.6588,0.0],[-90.2348,38.6593,0.0],[-90.2334,38.6611,0.0],[-90.2313,38.6602,0.0],[-90.229,38.6592,0.0],[-90.2266,38.6582,0.0],[-90.2243,38.6572,0.0],[-90.2247,38.6566,0.0],[-90.2259,38.6549,0.0],[-90.2274,38.6528,0.0],[-90.2296,38.6497,0.0],[-90.2324,38.6509,0.0],[-90.2339,38.6488,0.0],[-90.2386,38.6508,0.0],[-90.2371,38.653,0.0]]]]}},{"type":"Feature","properties":{"uesi_id":"USA_R1180533","nbhd_code":"USA_R1180533_45","nbhd_name":"Census Tract 1124"},"geometry":{"type":"MultiPolygon","coordinates":[[[[-90.2659,38.6374,0.0],[-90.2648,38.6439,0.0],[-90.2648,38.6441,0.0],[-90.2645,38.6454,0.0],[-90.2641,38.6481,0.0],[-90.2637,38.6505,0.0],[-90.2635,38.6516,0.0],[-90.2576,38.6511,0.0],[-90.2549,38.6509,0.0],[-90.2535,38.6502,0.0],[-90.2549,38.6481,0.0],[-90.2562,38.6463,0.0],[-90.2569,38.6453,0.0],[-90.2574,38.6439,0.0],[-90.2579,38.6425,0.0],[-90.2617,38.6432,0.0],[-90.2619,38.6418,0.0],[-90.2621,38.6403,0.0],[-90.2626,38.6376,0.0],[-90.2632,38.6348,0.0],[-90.2663,38.6351,0.0],[-90.2659,38.6374,0.0]]]]}},{"type":"Feature","properties":{"uesi_id":"USA_R1180533","nbhd_code":"USA_R1180533_46","nbhd_name":"Census Tract 1135"},"geometry":{"type":"MultiPolygon","coordinates":[[[[-90.2834,38.6143,0.0],[-90.2829,38.6172,0.0],[-90.2809,38.6176,0.0],[-90.2809,38.6193,0.0],[-90.2804,38.6223,0.0],[-90.2802,38.6232,0.0],[-90.2757,38.6237,0.0],[-90.2701,38.6241,0.0],[-90.2655,38.6232,0.0],[-90.2656,38.6227,0.0],[-90.266,38.6206,0.0],[-90.2665,38.6185,0.0],[-90.2669,38.6162,0.0],[-90.2676,38.6126,0.0],[-90.2737,38.6112,0.0],[-90.2751,38.611,0.0],[-90.2803,38.6115,0.0],[-90.2839,38.6118,0.0],[-90.2834,38.6143,0.0]]]]}},{"type":"Feature","properties":{"uesi_id":"USA_R1180533","nbhd_code":"USA_R1180533_47","nbhd_name":"Census Tract 1143"},"geometry":{"type":"MultiPolygon","coordinates":[[[[-90.2926,38.586,0.0],[-90.2917,38.5913,0.0],[-90.2877,38.5909,0.0],[-90.2836,38.5904,0.0],[-90.2796,38.59,0.0],[-90.2747,38.5895,0.0],[-90.2762,38.5873,0.0],[-90.2763,38.5869,0.0],[-90.2767,38.5848,0.0],[-90.277,38.5842,0.0],[-90.2785,38.5816,0.0],[-90.2788,38.5809,0.0],[-90.2892,38.582,0.0],[-90.2915,38.5823,0.0],[-90.2933,38.582,0.0],[-90.2926,38.586,0.0]]]]}},{"type":"Feature","properties":{"uesi_id":"USA_R1180533","nbhd_code":"USA_R1180533_48","nbhd_name":"Census Tract 1151"},"geometry":{"type":"MultiPolygon","coordinates":[[[[-90.2785,38.5816,0.0],[-90.277,38.5842,0.0],[-90.2767,38.5848,0.0],[-90.2763,38.5869,0.0],[-90.2762,38.5873,0.0],[-90.2747,38.5895,0.0],[-90.2733,38.5915,0.0],[-90.2698,38.5911,0.0],[-90.2692,38.591,0.0],[-90.264,38.5904,0.0],[-90.265,38.5875,0.0],[-90.266,38.585,0.0],[-90.2668,38.5825,0.0],[-90.2671,38.5816,0.0],[-90.2673,38.5812,0.0],[-90.2697,38.5793,0.0],[-90.2698,38.5792,0.0],[-90.2706,38.5797,0.0],[-90.2723,38.5797,0.0],[-90.2758,38.5797,0.0],[-90.277,38.5807,0.0],[-90.2788,38.5809,0.0],[-90.2785,38.5816,0.0]]]]}},{"type":"Feature","properties":{"uesi_id":"USA_R1180533","nbhd_code":"USA_R1180533_49","nbhd_name":"Census Tract 1155"},"geometry":{"type":"MultiPolygon","coordinates":[[[[-90.2544,38.5685,0.0],[-90.2507,38.5729,0.0],[-90.2493,38.5746,0.0],[-90.2491,38.5748,0.0],[-90.2459,38.5786,0.0],[-90.2442,38.5809,0.0],[-90.2421,38.5807,0.0],[-90.2398,38.5804,0.0],[-90.2411,38.5742,0.0],[-90.2413,38.5732,0.0],[-90.2417,38.5714,0.0],[-90.2421,38.5696,0.0],[-90.2436,38.5674,0.0],[-90.2448,38.5658,0.0],[-90.246,38.5641,0.0],[-90.2487,38.5655,0.0],[-90.2506,38.5665,0.0],[-90.2523,38.5674,0.0],[-90.2544,38.5685,0.0]]]]}},{"type":"Feature","properties":{"uesi_id":"USA_R1180533","nbhd_code":"USA_R1180533_50","nbhd_name":"Census Tract 1156"},"geometry":{"type":"MultiPolygon","coordinates":[[[[-90.2464,38.5627,0.0],[-90.246,38.5641,0.0],[-90.2448,38.5658,0.0],[-90.2436,38.5674,0.0],[-90.2421,38.5696,0.0],[-90.2417,38.5714,0.0],[-90.2413,38.5732,0.0],[-90.2411,38.5742,0.0],[-90.2398,38.5804,0.0],[-90.2387,38.5802,0.0],[-90.2375,38.5801,0.0],[-90.2364,38.5799,0.0],[-90.2341,38.5797,0.0],[-90.233,38.5795,0.0],[-90.2283,38.5787,0.0],[-90.226,38.5788,0.0],[-90.2212,38.5768,0.0],[-90.2221,38.5765,0.0],[-90.2231,38.5758,0.0],[-90.2242,38.5751,0.0],[-90.2247,38.5744,0.0],[-90.2381,38.5581,0.0],[-90.2417,38.5597,0.0],[-90.2431,38.5603,0.0],[-90.2461,38.5618,0.0],[-90.2464,38.5627,0.0]]]]}},{"type":"Feature","properties":{"uesi_id":"USA_R1180533","nbhd_code":"USA_R1180533_51","nbhd_name":"Census Tract 1163.01"},"geometry":{"type":"MultiPolygon","coordinates":[[[[-90.2506,38.5969,0.0],[-90.2504,38.598,0.0],[-90.2497,38.6025,0.0],[-90.2495,38.6035,0.0],[-90.246,38.6032,0.0],[-90.2422,38.6027,0.0],[-90.2427,38.6,0.0],[-90.2431,38.5973,0.0],[-90.2436,38.5938,0.0],[-90.2475,38.5942,0.0],[-90.2509,38.5945,0.0],[-90.2506,38.5969,0.0]]]]}},{"type":"Feature","properties":{"uesi_id":"USA_R1180533","nbhd_code":"USA_R1180533_52","nbhd_name":"Census Tract 1255"},"geometry":{"type":"MultiPolygon","coordinates":[[[[-90.2113,38.6276,0.0],[-90.2105,38.6301,0.0],[-90.2063,38.6293,0.0],[-90.2059,38.6307,0.0],[-90.2057,38.6314,0.0],[-90.205,38.6335,0.0],[-90.2039,38.636,0.0],[-90.1958,38.6343,0.0],[-90.1967,38.6318,0.0],[-90.1973,38.6305,0.0],[-90.1978,38.629,0.0],[-90.2,38.623,0.0],[-90.2077,38.6249,0.0],[-90.2111,38.6261,0.0],[-90.2113,38.6276,0.0]]]]}},{"type":"Feature","properties":{"uesi_id":"USA_R1180533","nbhd_code":"USA_R1180533_53","nbhd_name":"Census Tract 1257"},"geometry":{"type":"MultiPolygon","coordinates":[[[[-90.2024,38.6389,0.0],[-90.2027,38.6403,0.0],[-90.2018,38.6427,0.0],[-90.1895,38.6402,0.0],[-90.1864,38.6395,0.0],[-90.1832,38.6405,0.0],[-90.1778,38.6412,0.0],[-90.178,38.6338,0.0],[-90.1853,38.6342,0.0],[-90.1866,38.6345,0.0],[-90.1911,38.6355,0.0],[-90.1951,38.6363,0.0],[-90.1958,38.6343,0.0],[-90.2039,38.636,0.0],[-90.2024,38.6389,0.0]]]]}},{"type":"Feature","properties":{"uesi_id":"USA_R1180533","nbhd_code":"USA_R1180533_54","nbhd_name":"Census Tract 1266"},"geometry":{"type":"MultiPolygon","coordinates":[[[[-90.2052,38.644,0.0],[-90.2044,38.6462,0.0],[-90.2028,38.6512,0.0],[-90.2019,38.654,0.0],[-90.2024,38.6549,0.0],[-90.2033,38.6562,0.0],[-90.204,38.6574,0.0],[-90.2021,38.657,0.0],[-90.1952,38.6555,0.0],[-90.195,38.6555,0.0],[-90.1938,38.6553,0.0],[-90.1859,38.6578,0.0],[-90.1848,38.6594,0.0],[-90.1812,38.6597,0.0],[-90.1811,38.6596,0.0],[-90.181,38.6593,0.0],[-90.1784,38.6461,0.0],[-90.1777,38.6427,0.0],[-90.1778,38.6412,0.0],[-90.1832,38.6405,0.0],[-90.1864,38.6395,0.0],[-90.1895,38.6402,0.0],[-90.2018,38.6427,0.0],[-90.2052,38.6435,0.0],[-90.2052,38.644,0.0]]]]}},{"type":"Feature","properties":{"uesi_id":"USA_R1180533","nbhd_code":"USA_R1180533_55","nbhd_name":"Census Tract 1268"},"geometry":{"type":"MultiPolygon","coordinates":[[[[-90.3186,38.5991,0.0],[-90.3182,38.6,0.0],[-90.3171,38.6029,0.0],[-90.3141,38.6104,0.0],[-90.3134,38.6123,0.0],[-90.3123,38.6152,0.0],[-90.3113,38.6176,0.0],[-90.3105,38.6217,0.0],[-90.3102,38.6231,0.0],[-90.31,38.6242,0.0],[-90.3094,38.627,0.0],[-90.3031,38.6264,0.0],[-90.302,38.6263,0.0],[-90.3012,38.6262,0.0],[-90.3008,38.625,0.0],[-90.2984,38.6243,0.0],[-90.2975,38.6239,0.0],[-90.2953,38.6209,0.0],[-90.295,38.6206,0.0],[-90.2943,38.6209,0.0],[-90.292,38.6217,0.0],[-90.2901,38.622,0.0],[-90.2904,38.6206,0.0],[-90.2935,38.6192,0.0],[-90.3023,38.6135,0.0],[-90.3049,38.6113,0.0],[-90.3066,38.6088,0.0],[-90.3067,38.6081,0.0],[-90.3071,38.6064,0.0],[-90.3076,38.6035,0.0],[-90.3096,38.6037,0.0],[-90.3103,38.6038,0.0],[-90.313,38.6011,0.0],[-90.3154,38.6,0.0],[-90.3176,38.5991,0.0],[-90.3189,38.5983,0.0],[-90.3186,38.5991,0.0]]]]}},{"type":"Feature","properties":{"uesi_id":"USA_R1180533","nbhd_code":"USA_R1180533_56","nbhd_name":"Census Tract 1270"},"geometry":{"type":"MultiPolygon","coordinates":[[[[-90.2385,38.6942,0.0],[-90.2319,38.6979,0.0],[-90.2296,38.6997,0.0],[-90.2296,38.7022,0.0],[-90.2293,38.7025,0.0],[-90.2301,38.7056,0.0],[-90.2304,38.7115,0.0],[-90.2299,38.7149,0.0],[-90.2293,38.7183,0.0],[-90.2284,38.7237,0.0],[-90.2279,38.7266,0.0],[-90.228,38.7282,0.0],[-90.2239,38.7294,0.0],[-90.2216,38.7304,0.0],[-90.2198,38.7323,0.0],[-90.2181,38.7335,0.0],[-90.2127,38.7362,0.0],[-90.2056,38.7418,0.0],[-90.1999,38.747,0.0],[-90.1974,38.7492,0.0],[-90.1965,38.7503,0.0],[-90.1955,38.7515,0.0],[-90.1933,38.7536,0.0],[-90.1888,38.758,0.0],[-90.1863,38.7614,0.0],[-90.1856,38.7633,0.0],[-90.1851,38.7648,0.0],[-90.1846,38.7671,0.0],[-90.1839,38.7706,0.0],[-90.184,38.7724,0.0],[-90.1842,38.7744,0.0],[-90.1821,38.7741,0.0],[-90.1666,38.7724,0.0],[-90.1713,38.7665,0.0],[-90.1747,38.7609,0.0],[-90.1751,38.7602,0.0],[-90.1754,38.759,0.0],[-90.1763,38.7544,0.0],[-90.1834,38.7468,0.0],[-90.1836,38.7468,0.0],[-90.1913,38.7429,0.0],[-90.2052,38.7321,0.0],[-90.2099,38.726,0.0],[-90.2112,38.7221,0.0],[-90.2114,38.7214,0.0],[-90.2119,38.718,0.0],[-90.212,38.7117,0.0],[-90.2092,38.7028,0.0],[-90.2023,38.6935,0.0],[-90.2105,38.6897,0.0],[-90.2152,38.6872,0.0],[-90.217,38.6863,0.0],[-90.2182,38.6875,0.0],[-90.2245,38.6842,0.0],[-90.2265,38.6825,0.0],[-90.228,38.6832,0.0],[-90.2296,38.6841,0.0],[-90.2344,38.6894,0.0],[-90.2362,38.6914,0.0],[-90.2381,38.6936,0.0],[-90.2385,38.6942,0.0]]]]}},{"type":"Feature","properties":{"uesi_id":"USA_R1180533","nbhd_code":"USA_R1180533_57","nbhd_name":"Census Tract 1025"},"geometry":{"type":"MultiPolygon","coordinates":[[[[-90.2851,38.5701,0.0],[-90.2838,38.5713,0.0],[-90.2821,38.5728,0.0],[-90.2805,38.5739,0.0],[-90.2771,38.5759,0.0],[-90.2758,38.5766,0.0],[-90.2742,38.5773,0.0],[-90.272,38.5779,0.0],[-90.2691,38.5763,0.0],[-90.2695,38.5753,0.0],[-90.2704,38.5738,0.0],[-90.271,38.5728,0.0],[-90.2738,38.5697,0.0],[-90.2772,38.566,0.0],[-90.2797,38.567,0.0],[-90.2829,38.5687,0.0],[-90.2842,38.5679,0.0],[-90.2859,38.5694,0.0],[-90.2851,38.5701,0.0]]]]}},{"type":"Feature","properties":{"uesi_id":"USA_R1180533","nbhd_code":"USA_R1180533_58","nbhd_name":"Census Tract 1034"},"geometry":{"type":"MultiPolygon","coordinates":[[[[-90.3071,38.6064,0.0],[-90.3067,38.6081,0.0],[-90.3066,38.6088,0.0],[-90.3049,38.6113,0.0],[-90.3023,38.6135,0.0],[-90.3019,38.6135,0.0],[-90.2996,38.6124,0.0],[-90.2963,38.6126,0.0],[-90.2969,38.6095,0.0],[-90.2962,38.6077,0.0],[-90.2967,38.6051,0.0],[-90.2977,38.6042,0.0],[-90.2989,38.6027,0.0],[-90.3029,38.6031,0.0],[-90.3041,38.6032,0.0],[-90.3076,38.6035,0.0],[-90.3071,38.6064,0.0]]]]}},{"type":"Feature","properties":{"uesi_id":"USA_R1180533","nbhd_code":"USA_R1180533_59","nbhd_name":"Census Tract 1053"},"geometry":{"type":"MultiPolygon","coordinates":[[[[-90.2969,38.662,0.0],[-90.2955,38.6617,0.0],[-90.2895,38.6613,0.0],[-90.2857,38.6609,0.0],[-90.286,38.6589,0.0],[-90.2783,38.6581,0.0],[-90.2789,38.6548,0.0],[-90.282,38.6549,0.0],[-90.2821,38.6537,0.0],[-90.2867,38.6541,0.0],[-90.2906,38.6545,0.0],[-90.2941,38.6549,0.0],[-90.2965,38.6596,0.0],[-90.2971,38.6617,0.0],[-90.2969,38.662,0.0]]]]}},{"type":"Feature","properties":{"uesi_id":"USA_R1180533","nbhd_code":"USA_R1180533_60","nbhd_name":"Census Tract 1063"},"geometry":{"type":"MultiPolygon","coordinates":[[[[-90.2773,38.6752,0.0],[-90.2771,38.6755,0.0],[-90.2757,38.6775,0.0],[-90.2746,38.6791,0.0],[-90.2732,38.6812,0.0],[-90.2727,38.682,0.0],[-90.2713,38.686,0.0],[-90.2683,38.6841,0.0],[-90.2662,38.6828,0.0],[-90.2638,38.6817,0.0],[-90.266,38.6786,0.0],[-90.2671,38.677,0.0],[-90.2673,38.6767,0.0],[-90.2704,38.6725,0.0],[-90.273,38.6737,0.0],[-90.2756,38.6701,0.0],[-90.2759,38.6702,0.0],[-90.2794,38.6721,0.0],[-90.2773,38.6752,0.0]]]]}},{"type":"Feature","properties":{"uesi_id":"USA_R1180533","nbhd_code":"USA_R1180533_61","nbhd_name":"Census Tract 1072"},"geometry":{"type":"MultiPolygon","coordinates":[[[[-90.2608,38.698,0.0],[-90.2601,38.6989,0.0],[-90.2544,38.7025,0.0],[-90.2529,38.7034,0.0],[-90.2504,38.7059,0.0],[-90.2495,38.7068,0.0],[-90.2456,38.7024,0.0],[-90.2458,38.7023,0.0],[-90.25,38.7,0.0],[-90.2525,38.6987,0.0],[-90.2602,38.6944,0.0],[-90.2605,38.6974,0.0],[-90.2608,38.698,0.0]]]]}},{"type":"Feature","properties":{"uesi_id":"USA_R1180533","nbhd_code":"USA_R1180533_62","nbhd_name":"Census Tract 1074"},"geometry":{"type":"MultiPolygon","coordinates":[[[[-90.2602,38.6944,0.0],[-90.2525,38.6987,0.0],[-90.25,38.7,0.0],[-90.2458,38.7023,0.0],[-90.2456,38.7024,0.0],[-90.241,38.6972,0.0],[-90.2439,38.6956,0.0],[-90.2466,38.6941,0.0],[-90.2479,38.6934,0.0],[-90.2498,38.6924,0.0],[-90.2503,38.6921,0.0],[-90.2525,38.6909,0.0],[-90.2539,38.6901,0.0],[-90.2548,38.6902,0.0],[-90.2577,38.6915,0.0],[-90.2593,38.6927,0.0],[-90.2602,38.6944,0.0]]]]}},{"type":"Feature","properties":{"uesi_id":"USA_R1180533","nbhd_code":"USA_R1180533_63","nbhd_name":"Census Tract 1103"},"geometry":{"type":"MultiPolygon","coordinates":[[[[-90.2386,38.6668,0.0],[-90.2365,38.6698,0.0],[-90.2334,38.6684,0.0],[-90.2318,38.6707,0.0],[-90.2272,38.6687,0.0],[-90.2289,38.6664,0.0],[-90.225,38.6648,0.0],[-90.2265,38.6626,0.0],[-90.2271,38.6618,0.0],[-90.229,38.6592,0.0],[-90.2313,38.6602,0.0],[-90.2334,38.6611,0.0],[-90.2362,38.6624,0.0],[-90.2404,38.6642,0.0],[-90.2386,38.6668,0.0]]]]}},{"type":"Feature","properties":{"uesi_id":"USA_R1180533","nbhd_code":"USA_R1180533_64","nbhd_name":"Census Tract 1111"},"geometry":{"type":"MultiPolygon","coordinates":[[[[-90.2517,38.6527,0.0],[-90.2513,38.6532,0.0],[-90.2484,38.6519,0.0],[-90.248,38.6524,0.0],[-90.2467,38.6544,0.0],[-90.2386,38.6508,0.0],[-90.2339,38.6488,0.0],[-90.2273,38.6459,0.0],[-90.2293,38.6423,0.0],[-90.2363,38.6454,0.0],[-90.2371,38.6443,0.0],[-90.2418,38.6463,0.0],[-90.2472,38.6487,0.0],[-90.2528,38.6512,0.0],[-90.2517,38.6527,0.0]]]]}},{"type":"Feature","properties":{"uesi_id":"USA_R1180533","nbhd_code":"USA_R1180533_65","nbhd_name":"Census Tract 1141.01"},"geometry":{"type":"MultiPolygon","coordinates":[[[[-90.2917,38.5925,0.0],[-90.2916,38.5931,0.0],[-90.2915,38.594,0.0],[-90.291,38.5965,0.0],[-90.2853,38.5959,0.0],[-90.2787,38.5952,0.0],[-90.2713,38.5944,0.0],[-90.2733,38.5915,0.0],[-90.2747,38.5895,0.0],[-90.2796,38.59,0.0],[-90.2836,38.5904,0.0],[-90.2877,38.5909,0.0],[-90.2917,38.5913,0.0],[-90.2917,38.5925,0.0]]]]}},{"type":"Feature","properties":{"uesi_id":"USA_R1180533","nbhd_code":"USA_R1180533_66","nbhd_name":"Census Tract 1142"},"geometry":{"type":"MultiPolygon","coordinates":[[[[-90.3001,38.6001,0.0],[-90.2997,38.6009,0.0],[-90.2989,38.6027,0.0],[-90.2944,38.6022,0.0],[-90.2919,38.602,0.0],[-90.2877,38.6015,0.0],[-90.2844,38.6012,0.0],[-90.2805,38.6008,0.0],[-90.2772,38.6005,0.0],[-90.2702,38.5997,0.0],[-90.2703,38.5996,0.0],[-90.2708,38.5967,0.0],[-90.271,38.5957,0.0],[-90.2713,38.5944,0.0],[-90.2787,38.5952,0.0],[-90.2853,38.5959,0.0],[-90.291,38.5965,0.0],[-90.3005,38.5975,0.0],[-90.3001,38.6001,0.0]]]]}},{"type":"Feature","properties":{"uesi_id":"USA_R1180533","nbhd_code":"USA_R1180533_67","nbhd_name":"Census Tract 1152"},"geometry":{"type":"MultiPolygon","coordinates":[[[[-90.2713,38.5944,0.0],[-90.271,38.5957,0.0],[-90.2708,38.5967,0.0],[-90.2703,38.5996,0.0],[-90.2641,38.5989,0.0],[-90.2614,38.5989,0.0],[-90.2587,38.5987,0.0],[-90.2588,38.5978,0.0],[-90.2592,38.5953,0.0],[-90.2596,38.5927,0.0],[-90.2579,38.5925,0.0],[-90.2584,38.5898,0.0],[-90.2597,38.5899,0.0],[-90.2596,38.5889,0.0],[-90.2583,38.5882,0.0],[-90.2596,38.5873,0.0],[-90.2598,38.5871,0.0],[-90.2616,38.5856,0.0],[-90.262,38.5853,0.0],[-90.2669,38.5815,0.0],[-90.2673,38.5812,0.0],[-90.2671,38.5816,0.0],[-90.2668,38.5825,0.0],[-90.266,38.585,0.0],[-90.265,38.5875,0.0],[-90.264,38.5904,0.0],[-90.2692,38.591,0.0],[-90.2698,38.5911,0.0],[-90.2733,38.5915,0.0],[-90.2713,38.5944,0.0]]]]}},{"type":"Feature","properties":{"uesi_id":"USA_R1180533","nbhd_code":"USA_R1180533_68","nbhd_name":"Census Tract 1164"},"geometry":{"type":"MultiPolygon","coordinates":[[[[-90.2449,38.5856,0.0],[-90.2447,38.5874,0.0],[-90.2445,38.5883,0.0],[-90.2439,38.5919,0.0],[-90.2436,38.5938,0.0],[-90.2431,38.5973,0.0],[-90.2388,38.5968,0.0],[-90.2382,38.5967,0.0],[-90.2331,38.5961,0.0],[-90.2335,38.5943,0.0],[-90.2346,38.5944,0.0],[-90.2349,38.5926,0.0],[-90.2357,38.589,0.0],[-90.2361,38.5872,0.0],[-90.2383,38.5875,0.0],[-90.2391,38.584,0.0],[-90.2414,38.5842,0.0],[-90.2449,38.5847,0.0],[-90.245,38.5852,0.0],[-90.2449,38.5856,0.0]]]]}},{"type":"Feature","properties":{"uesi_id":"USA_R1180533","nbhd_code":"USA_R1180533_69","nbhd_name":"Census Tract 1171"},"geometry":{"type":"MultiPolygon","coordinates":[[[[-90.2676,38.6126,0.0],[-90.2669,38.6162,0.0],[-90.2665,38.6185,0.0],[-90.266,38.6206,0.0],[-90.2614,38.6201,0.0],[-90.2607,38.6198,0.0],[-90.2593,38.6191,0.0],[-90.2583,38.6198,0.0],[-90.2558,38.6196,0.0],[-90.2564,38.6167,0.0],[-90.2571,38.6129,0.0],[-90.2579,38.6088,0.0],[-90.263,38.6093,0.0],[-90.2682,38.6097,0.0],[-90.2676,38.6126,0.0]]]]}},{"type":"Feature","properties":{"uesi_id":"USA_R1180533","nbhd_code":"USA_R1180533_70","nbhd_name":"Census Tract 1172"},"geometry":{"type":"MultiPolygon","coordinates":[[[[-90.2571,38.6129,0.0],[-90.2564,38.6167,0.0],[-90.2558,38.6196,0.0],[-90.2475,38.6188,0.0],[-90.247,38.6215,0.0],[-90.2444,38.6213,0.0],[-90.245,38.6177,0.0],[-90.2453,38.6156,0.0],[-90.2455,38.614,0.0],[-90.2457,38.613,0.0],[-90.246,38.611,0.0],[-90.2461,38.6101,0.0],[-90.2465,38.6077,0.0],[-90.2548,38.6085,0.0],[-90.2579,38.6088,0.0],[-90.2571,38.6129,0.0]]]]}},{"type":"Feature","properties":{"uesi_id":"USA_R1180533","nbhd_code":"USA_R1180533_71","nbhd_name":"Census Tract 1186"},"geometry":{"type":"MultiPolygon","coordinates":[[[[-90.2663,38.6351,0.0],[-90.2632,38.6348,0.0],[-90.2626,38.6376,0.0],[-90.2524,38.6355,0.0],[-90.2515,38.6381,0.0],[-90.2467,38.6371,0.0],[-90.2338,38.6344,0.0],[-90.2367,38.626,0.0],[-90.2421,38.6271,0.0],[-90.2477,38.6282,0.0],[-90.2542,38.6273,0.0],[-90.2569,38.627,0.0],[-90.259,38.6267,0.0],[-90.2596,38.6266,0.0],[-90.265,38.6259,0.0],[-90.2645,38.6288,0.0],[-90.2648,38.6298,0.0],[-90.2658,38.6312,0.0],[-90.2663,38.6321,0.0],[-90.2663,38.6351,0.0]]]]}},{"type":"Feature","properties":{"uesi_id":"USA_R1180533","nbhd_code":"USA_R1180533_72","nbhd_name":"Census Tract 1191.01"},"geometry":{"type":"MultiPolygon","coordinates":[[[[-90.2621,38.6403,0.0],[-90.2619,38.6418,0.0],[-90.2547,38.6403,0.0],[-90.251,38.6395,0.0],[-90.2463,38.6385,0.0],[-90.2467,38.6371,0.0],[-90.2515,38.6381,0.0],[-90.2524,38.6355,0.0],[-90.2626,38.6376,0.0],[-90.2621,38.6403,0.0]]]]}},{"type":"Feature","properties":{"uesi_id":"USA_R1180533","nbhd_code":"USA_R1180533_73","nbhd_name":"Census Tract 1202"},"geometry":{"type":"MultiPolygon","coordinates":[[[[-90.2132,38.6596,0.0],[-90.2107,38.6632,0.0],[-90.2084,38.6663,0.0],[-90.2073,38.6641,0.0],[-90.205,38.6594,0.0],[-90.204,38.6574,0.0],[-90.2033,38.6562,0.0],[-90.2024,38.6549,0.0],[-90.204,38.6553,0.0],[-90.2059,38.6557,0.0],[-90.2129,38.6572,0.0],[-90.2146,38.6577,0.0],[-90.2132,38.6596,0.0]]]]}},{"type":"Feature","properties":{"uesi_id":"USA_R1180533","nbhd_code":"USA_R1180533_74","nbhd_name":"Census Tract 1211"},"geometry":{"type":"MultiPolygon","coordinates":[[[[-90.2333,38.6357,0.0],[-90.2325,38.6376,0.0],[-90.2322,38.6381,0.0],[-90.2314,38.6393,0.0],[-90.23,38.6412,0.0],[-90.2291,38.6412,0.0],[-90.2205,38.6394,0.0],[-90.2167,38.6387,0.0],[-90.2184,38.6331,0.0],[-90.2168,38.6328,0.0],[-90.2173,38.6312,0.0],[-90.2204,38.6311,0.0],[-90.2338,38.6344,0.0],[-90.2333,38.6357,0.0]]]]}},{"type":"Feature","properties":{"uesi_id":"USA_R1180533","nbhd_code":"USA_R1180533_75","nbhd_name":"Census Tract 1231"},"geometry":{"type":"MultiPolygon","coordinates":[[[[-90.2293,38.6084,0.0],[-90.2286,38.612,0.0],[-90.2278,38.6156,0.0],[-90.2271,38.6192,0.0],[-90.2264,38.6192,0.0],[-90.2199,38.6182,0.0],[-90.2209,38.6148,0.0],[-90.2217,38.6111,0.0],[-90.2227,38.6062,0.0],[-90.223,38.6049,0.0],[-90.2234,38.6031,0.0],[-90.2257,38.6038,0.0],[-90.2265,38.6034,0.0],[-90.2268,38.6035,0.0],[-90.2301,38.6044,0.0],[-90.2293,38.6084,0.0]]]]}},{"type":"Feature","properties":{"uesi_id":"USA_R1180533","nbhd_code":"USA_R1180533_76","nbhd_name":"Census Tract 1233"},"geometry":{"type":"MultiPolygon","coordinates":[[[[-90.223,38.6049,0.0],[-90.2227,38.6062,0.0],[-90.2217,38.6111,0.0],[-90.2151,38.6092,0.0],[-90.2122,38.6085,0.0],[-90.2118,38.6086,0.0],[-90.2096,38.6077,0.0],[-90.2105,38.6058,0.0],[-90.2122,38.6021,0.0],[-90.2135,38.6003,0.0],[-90.215,38.6007,0.0],[-90.2234,38.6031,0.0],[-90.223,38.6049,0.0]]]]}},{"type":"Feature","properties":{"uesi_id":"USA_R1180533","nbhd_code":"USA_R1180533_77","nbhd_name":"Census Tract 1243"},"geometry":{"type":"MultiPolygon","coordinates":[[[[-90.2269,38.5861,0.0],[-90.2255,38.5933,0.0],[-90.2251,38.5951,0.0],[-90.2243,38.5989,0.0],[-90.2238,38.601,0.0],[-90.2234,38.6031,0.0],[-90.215,38.6007,0.0],[-90.2155,38.5987,0.0],[-90.216,38.5954,0.0],[-90.2155,38.5938,0.0],[-90.216,38.5939,0.0],[-90.2163,38.5921,0.0],[-90.2149,38.5913,0.0],[-90.2182,38.5899,0.0],[-90.2208,38.5894,0.0],[-90.2216,38.5893,0.0],[-90.222,38.5892,0.0],[-90.2257,38.587,0.0],[-90.227,38.5857,0.0],[-90.2269,38.5861,0.0]]]]}},{"type":"Feature","properties":{"uesi_id":"USA_R1180533","nbhd_code":"USA_R1180533_78","nbhd_name":"Census Tract 1246"},"geometry":{"type":"MultiPolygon","coordinates":[[[[-90.2273,38.5843,0.0],[-90.227,38.5857,0.0],[-90.2257,38.587,0.0],[-90.222,38.5892,0.0],[-90.2216,38.5893,0.0],[-90.2208,38.5894,0.0],[-90.2182,38.5899,0.0],[-90.2149,38.5913,0.0],[-90.2163,38.5921,0.0],[-90.216,38.5939,0.0],[-90.2155,38.5938,0.0],[-90.216,38.5954,0.0],[-90.2155,38.5987,0.0],[-90.215,38.6007,0.0],[-90.2135,38.6003,0.0],[-90.208,38.5987,0.0],[-90.2048,38.5966,0.0],[-90.206,38.595,0.0],[-90.2029,38.5921,0.0],[-90.2017,38.5894,0.0],[-90.2025,38.5887,0.0],[-90.2046,38.5874,0.0],[-90.2055,38.5868,0.0],[-90.2101,38.584,0.0],[-90.2167,38.5788,0.0],[-90.218,38.5782,0.0],[-90.2236,38.5803,0.0],[-90.2255,38.5804,0.0],[-90.2234,38.5822,0.0],[-90.2277,38.5825,0.0],[-90.2273,38.5843,0.0]]]]}},{"type":"Feature","properties":{"uesi_id":"USA_R1180533","nbhd_code":"USA_R1180533_79","nbhd_name":"Census Tract 1267"},"geometry":{"type":"MultiPolygon","coordinates":[[[[-90.2073,38.6641,0.0],[-90.2028,38.6656,0.0],[-90.2,38.6666,0.0],[-90.1951,38.6692,0.0],[-90.1855,38.6724,0.0],[-90.1826,38.6654,0.0],[-90.1826,38.6651,0.0],[-90.1813,38.6604,0.0],[-90.1812,38.6597,0.0],[-90.1848,38.6594,0.0],[-90.1859,38.6578,0.0],[-90.1938,38.6553,0.0],[-90.195,38.6555,0.0],[-90.1952,38.6555,0.0],[-90.2021,38.657,0.0],[-90.204,38.6574,0.0],[-90.205,38.6594,0.0],[-90.2073,38.6641,0.0]]]]}},{"type":"Feature","properties":{"uesi_id":"USA_R1180533","nbhd_code":"USA_R1180533_80","nbhd_name":"Census Tract 1274"},"geometry":{"type":"MultiPolygon","coordinates":[[[[-90.2249,38.6235,0.0],[-90.2241,38.625,0.0],[-90.2181,38.624,0.0],[-90.218,38.627,0.0],[-90.2155,38.6311,0.0],[-90.2105,38.6301,0.0],[-90.2113,38.6276,0.0],[-90.2111,38.6261,0.0],[-90.2077,38.6249,0.0],[-90.2,38.623,0.0],[-90.1933,38.6215,0.0],[-90.1918,38.621,0.0],[-90.189,38.6198,0.0],[-90.1824,38.618,0.0],[-90.1845,38.6116,0.0],[-90.185,38.6107,0.0],[-90.1951,38.6137,0.0],[-90.1965,38.6122,0.0],[-90.1969,38.6144,0.0],[-90.1994,38.6141,0.0],[-90.2036,38.6155,0.0],[-90.2043,38.6148,0.0],[-90.206,38.6154,0.0],[-90.2112,38.6168,0.0],[-90.2131,38.6174,0.0],[-90.2134,38.6174,0.0],[-90.2199,38.6182,0.0],[-90.2264,38.6192,0.0],[-90.2249,38.6235,0.0]]]]}},{"type":"Feature","properties":{"uesi_id":"USA_R1180533","nbhd_code":"USA_R1180533_81","nbhd_name":"Census Tract 1276"},"geometry":{"type":"MultiPolygon","coordinates":[[[[-90.2122,38.6021,0.0],[-90.2105,38.6058,0.0],[-90.2096,38.6077,0.0],[-90.2088,38.6096,0.0],[-90.2058,38.6125,0.0],[-90.206,38.6128,0.0],[-90.2043,38.6148,0.0],[-90.2036,38.6155,0.0],[-90.1994,38.6141,0.0],[-90.1969,38.6144,0.0],[-90.1965,38.6122,0.0],[-90.1951,38.6137,0.0],[-90.185,38.6107,0.0],[-90.1866,38.6079,0.0],[-90.1918,38.599,0.0],[-90.196,38.5945,0.0],[-90.2017,38.5894,0.0],[-90.2029,38.5921,0.0],[-90.206,38.595,0.0],[-90.2048,38.5966,0.0],[-90.208,38.5987,0.0],[-90.2135,38.6003,0.0],[-90.2122,38.6021,0.0]]]]}},{"type":"Feature","properties":{"uesi_id":"USA_R1180533","nbhd_code":"USA_R1180533_82","nbhd_name":"Census Tract 1015"},"geometry":{"type":"MultiPolygon","coordinates":[[[[-90.2727,38.5486,0.0],[-90.2715,38.5487,0.0],[-90.2702,38.553,0.0],[-90.2658,38.5534,0.0],[-90.2671,38.5542,0.0],[-90.2623,38.5583,0.0],[-90.2591,38.5567,0.0],[-90.256,38.555,0.0],[-90.261,38.5506,0.0],[-90.2571,38.5481,0.0],[-90.2579,38.5474,0.0],[-90.2628,38.5431,0.0],[-90.2691,38.5375,0.0],[-90.271,38.5386,0.0],[-90.2705,38.5415,0.0],[-90.2716,38.5447,0.0],[-90.2716,38.5448,0.0],[-90.2722,38.5481,0.0],[-90.2727,38.5486,0.0]]]]}},{"type":"Feature","properties":{"uesi_id":"USA_R1180533","nbhd_code":"USA_R1180533_83","nbhd_name":"Census Tract 1024"},"geometry":{"type":"MultiPolygon","coordinates":[[[[-90.284,38.5751,0.0],[-90.2821,38.5784,0.0],[-90.281,38.5793,0.0],[-90.2799,38.5798,0.0],[-90.2788,38.5809,0.0],[-90.277,38.5807,0.0],[-90.2758,38.5797,0.0],[-90.2723,38.5797,0.0],[-90.2706,38.5797,0.0],[-90.2698,38.5792,0.0],[-90.2697,38.5793,0.0],[-90.2683,38.5786,0.0],[-90.2691,38.5763,0.0],[-90.272,38.5779,0.0],[-90.2742,38.5773,0.0],[-90.2758,38.5766,0.0],[-90.2771,38.5759,0.0],[-90.2805,38.5739,0.0],[-90.2821,38.5728,0.0],[-90.2838,38.5713,0.0],[-90.2844,38.5742,0.0],[-90.284,38.5751,0.0]]]]}},{"type":"Feature","properties":{"uesi_id":"USA_R1180533","nbhd_code":"USA_R1180533_84","nbhd_name":"Census Tract 1036"},"geometry":{"type":"MultiPolygon","coordinates":[[[[-90.3023,38.6135,0.0],[-90.2935,38.6192,0.0],[-90.2904,38.6206,0.0],[-90.2901,38.622,0.0],[-90.2881,38.6222,0.0],[-90.2802,38.6232,0.0],[-90.2804,38.6223,0.0],[-90.2809,38.6193,0.0],[-90.2809,38.6176,0.0],[-90.2829,38.6172,0.0],[-90.2834,38.6143,0.0],[-90.2839,38.6118,0.0],[-90.2846,38.6119,0.0],[-90.2879,38.6122,0.0],[-90.2892,38.6123,0.0],[-90.2929,38.6127,0.0],[-90.2953,38.6129,0.0],[-90.2963,38.6126,0.0],[-90.2996,38.6124,0.0],[-90.3019,38.6135,0.0],[-90.3023,38.6135,0.0]]]]}},{"type":"Feature","properties":{"uesi_id":"USA_R1180533","nbhd_code":"USA_R1180533_85","nbhd_name":"Census Tract 1037"},"geometry":{"type":"MultiPolygon","coordinates":[[[[-90.2977,38.6042,0.0],[-90.2967,38.6051,0.0],[-90.2962,38.6077,0.0],[-90.2969,38.6095,0.0],[-90.2963,38.6126,0.0],[-90.2953,38.6129,0.0],[-90.2929,38.6127,0.0],[-90.2892,38.6123,0.0],[-90.2879,38.6122,0.0],[-90.2846,38.6119,0.0],[-90.2851,38.6093,0.0],[-90.2857,38.6066,0.0],[-90.2878,38.6069,0.0],[-90.2895,38.6061,0.0],[-90.2913,38.6041,0.0],[-90.2919,38.602,0.0],[-90.2944,38.6022,0.0],[-90.2989,38.6027,0.0],[-90.2977,38.6042,0.0]]]]}},{"type":"Feature","properties":{"uesi_id":"USA_R1180533","nbhd_code":"USA_R1180533_86","nbhd_name":"Census Tract 1054"},"geometry":{"type":"MultiPolygon","coordinates":[[[[-90.2969,38.662,0.0],[-90.2952,38.664,0.0],[-90.2939,38.6657,0.0],[-90.29,38.6706,0.0],[-90.2831,38.6669,0.0],[-90.2852,38.664,0.0],[-90.2856,38.6619,0.0],[-90.2857,38.6609,0.0],[-90.2895,38.6613,0.0],[-90.2955,38.6617,0.0],[-90.2969,38.662,0.0]]]]}},{"type":"Feature","properties":{"uesi_id":"USA_R1180533","nbhd_code":"USA_R1180533_87","nbhd_name":"Census Tract 1061"},"geometry":{"type":"MultiPolygon","coordinates":[[[[-90.2876,38.6736,0.0],[-90.286,38.6756,0.0],[-90.2794,38.6721,0.0],[-90.2759,38.6702,0.0],[-90.2756,38.6701,0.0],[-90.2724,38.6683,0.0],[-90.2762,38.6631,0.0],[-90.2797,38.665,0.0],[-90.2831,38.6669,0.0],[-90.29,38.6706,0.0],[-90.2876,38.6736,0.0]]]]}},{"type":"Feature","properties":{"uesi_id":"USA_R1180533","nbhd_code":"USA_R1180533_88","nbhd_name":"Census Tract 1062"},"geometry":{"type":"MultiPolygon","coordinates":[[[[-90.2844,38.6777,0.0],[-90.2838,38.6785,0.0],[-90.2828,38.6797,0.0],[-90.2814,38.6814,0.0],[-90.2799,38.6833,0.0],[-90.2788,38.6847,0.0],[-90.2752,38.6893,0.0],[-90.2723,38.6867,0.0],[-90.2713,38.686,0.0],[-90.2727,38.682,0.0],[-90.2732,38.6812,0.0],[-90.2746,38.6791,0.0],[-90.2757,38.6775,0.0],[-90.2771,38.6755,0.0],[-90.2773,38.6752,0.0],[-90.2794,38.6721,0.0],[-90.286,38.6756,0.0],[-90.2844,38.6777,0.0]]]]}},{"type":"Feature","properties":{"uesi_id":"USA_R1180533","nbhd_code":"USA_R1180533_89","nbhd_name":"Census Tract 1051.98"},"geometry":{"type":"MultiPolygon","coordinates":[[[[-90.3053,38.6397,0.0],[-90.3049,38.6418,0.0],[-90.3036,38.6449,0.0],[-90.3034,38.6462,0.0],[-90.3028,38.6496,0.0],[-90.3022,38.6536,0.0],[-90.3018,38.6556,0.0],[-90.3007,38.6571,0.0],[-90.2979,38.6607,0.0],[-90.2976,38.6611,0.0],[-90.2971,38.6617,0.0],[-90.2965,38.6596,0.0],[-90.2941,38.6549,0.0],[-90.2939,38.6536,0.0],[-90.2939,38.6531,0.0],[-90.2949,38.647,0.0],[-90.301,38.6476,0.0],[-90.3029,38.6407,0.0],[-90.3045,38.6326,0.0],[-90.3064,38.6336,0.0],[-90.3053,38.6397,0.0]]]]}},{"type":"Feature","properties":{"uesi_id":"USA_R1180533","nbhd_code":"USA_R1180533_90","nbhd_name":"Census Tract 1073"},"geometry":{"type":"MultiPolygon","coordinates":[[[[-90.2654,38.7017,0.0],[-90.265,38.7022,0.0],[-90.262,38.706,0.0],[-90.26,38.7085,0.0],[-90.2587,38.7101,0.0],[-90.2558,38.7138,0.0],[-90.254,38.716,0.0],[-90.2516,38.7148,0.0],[-90.2441,38.7123,0.0],[-90.2464,38.71,0.0],[-90.2495,38.7068,0.0],[-90.2504,38.7059,0.0],[-90.2529,38.7034,0.0],[-90.2544,38.7025,0.0],[-90.2601,38.6989,0.0],[-90.2608,38.698,0.0],[-90.2618,38.6994,0.0],[-90.2657,38.7013,0.0],[-90.2654,38.7017,0.0]]]]}},{"type":"Feature","properties":{"uesi_id":"USA_R1180533","nbhd_code":"USA_R1180533_91","nbhd_name":"Census Tract 1102"},"geometry":{"type":"MultiPolygon","coordinates":[[[[-90.2338,38.6733,0.0],[-90.233,38.6745,0.0],[-90.2307,38.6777,0.0],[-90.2306,38.6776,0.0],[-90.2286,38.6764,0.0],[-90.2253,38.6745,0.0],[-90.2223,38.6732,0.0],[-90.2196,38.6716,0.0],[-90.222,38.6682,0.0],[-90.2263,38.67,0.0],[-90.2272,38.6687,0.0],[-90.2318,38.6707,0.0],[-90.2334,38.6684,0.0],[-90.2365,38.6698,0.0],[-90.2338,38.6733,0.0]]]]}},{"type":"Feature","properties":{"uesi_id":"USA_R1180533","nbhd_code":"USA_R1180533_92","nbhd_name":"Census Tract 1153"},"geometry":{"type":"MultiPolygon","coordinates":[[[[-90.2669,38.5815,0.0],[-90.262,38.5853,0.0],[-90.2616,38.5856,0.0],[-90.2598,38.5871,0.0],[-90.2596,38.5873,0.0],[-90.2583,38.5882,0.0],[-90.2582,38.5882,0.0],[-90.253,38.5854,0.0],[-90.2485,38.5831,0.0],[-90.2442,38.5809,0.0],[-90.2459,38.5786,0.0],[-90.2491,38.5748,0.0],[-90.2493,38.5746,0.0],[-90.2507,38.5729,0.0],[-90.2558,38.5756,0.0],[-90.2572,38.5764,0.0],[-90.2582,38.5769,0.0],[-90.2617,38.5788,0.0],[-90.2634,38.5797,0.0],[-90.2635,38.5797,0.0],[-90.2669,38.5815,0.0]]]]}},{"type":"Feature","properties":{"uesi_id":"USA_R1180533","nbhd_code":"USA_R1180533_93","nbhd_name":"Census Tract 1165"},"geometry":{"type":"MultiPolygon","coordinates":[[[[-90.2427,38.6,0.0],[-90.2422,38.6027,0.0],[-90.2416,38.6062,0.0],[-90.2392,38.606,0.0],[-90.2369,38.6057,0.0],[-90.2335,38.6053,0.0],[-90.2313,38.6047,0.0],[-90.232,38.601,0.0],[-90.2331,38.5961,0.0],[-90.2382,38.5967,0.0],[-90.2388,38.5968,0.0],[-90.2431,38.5973,0.0],[-90.2427,38.6,0.0]]]]}},{"type":"Feature","properties":{"uesi_id":"USA_R1180533","nbhd_code":"USA_R1180533_94","nbhd_name":"Census Tract 1081"},"geometry":{"type":"MultiPolygon","coordinates":[[[[-90.2518,38.7188,0.0],[-90.2414,38.7161,0.0],[-90.2402,38.7159,0.0],[-90.2391,38.7158,0.0],[-90.2381,38.7157,0.0],[-90.2349,38.7154,0.0],[-90.2337,38.7153,0.0],[-90.2331,38.7152,0.0],[-90.2299,38.7149,0.0],[-90.2304,38.7115,0.0],[-90.2301,38.7056,0.0],[-90.2293,38.7025,0.0],[-90.2296,38.7022,0.0],[-90.2296,38.6997,0.0],[-90.2319,38.6979,0.0],[-90.2385,38.6942,0.0],[-90.241,38.6972,0.0],[-90.2456,38.7024,0.0],[-90.2495,38.7068,0.0],[-90.2464,38.71,0.0],[-90.2441,38.7123,0.0],[-90.2516,38.7148,0.0],[-90.254,38.716,0.0],[-90.2518,38.7188,0.0]]]]}},{"type":"Feature","properties":{"uesi_id":"USA_R1180533","nbhd_code":"USA_R1180533_95","nbhd_name":"Census Tract 1121"},"geometry":{"type":"MultiPolygon","coordinates":[[[[-90.3029,38.6407,0.0],[-90.301,38.6476,0.0],[-90.2949,38.647,0.0],[-90.2853,38.6461,0.0],[-90.2853,38.6479,0.0],[-90.283,38.6484,0.0],[-90.2821,38.6537,0.0],[-90.2746,38.653,0.0],[-90.2733,38.6526,0.0],[-90.2726,38.6525,0.0],[-90.2707,38.6523,0.0],[-90.2635,38.6516,0.0],[-90.2637,38.6505,0.0],[-90.2641,38.6481,0.0],[-90.2645,38.6454,0.0],[-90.2648,38.6441,0.0],[-90.2648,38.6439,0.0],[-90.2659,38.6374,0.0],[-90.2663,38.6351,0.0],[-90.2663,38.6321,0.0],[-90.2658,38.6312,0.0],[-90.2648,38.6298,0.0],[-90.2645,38.6288,0.0],[-90.285,38.6307,0.0],[-90.2867,38.6309,0.0],[-90.2924,38.6315,0.0],[-90.2965,38.6319,0.0],[-90.3017,38.6324,0.0],[-90.3045,38.6326,0.0],[-90.3029,38.6407,0.0]]]]}},{"type":"Feature","properties":{"uesi_id":"USA_R1180533","nbhd_code":"USA_R1180533_96","nbhd_name":"Census Tract 1162"},"geometry":{"type":"MultiPolygon","coordinates":[[[[-90.2702,38.5997,0.0],[-90.2692,38.605,0.0],[-90.2682,38.6097,0.0],[-90.263,38.6093,0.0],[-90.2579,38.6088,0.0],[-90.2548,38.6085,0.0],[-90.2465,38.6077,0.0],[-90.2414,38.6072,0.0],[-90.2416,38.6062,0.0],[-90.2422,38.6027,0.0],[-90.246,38.6032,0.0],[-90.2495,38.6035,0.0],[-90.2497,38.6025,0.0],[-90.2504,38.598,0.0],[-90.2506,38.5969,0.0],[-90.2534,38.5972,0.0],[-90.2561,38.5975,0.0],[-90.2588,38.5978,0.0],[-90.2587,38.5987,0.0],[-90.2614,38.5989,0.0],[-90.2641,38.5989,0.0],[-90.2703,38.5996,0.0],[-90.2702,38.5997,0.0]]]]}},{"type":"Feature","properties":{"uesi_id":"USA_R1180533","nbhd_code":"USA_R1180533_97","nbhd_name":"Census Tract 1193"},"geometry":{"type":"MultiPolygon","coordinates":[[[[-90.2463,38.6385,0.0],[-90.2457,38.6399,0.0],[-90.2452,38.6415,0.0],[-90.2445,38.6424,0.0],[-90.2424,38.6454,0.0],[-90.2378,38.6433,0.0],[-90.2371,38.6443,0.0],[-90.2363,38.6454,0.0],[-90.2293,38.6423,0.0],[-90.23,38.6412,0.0],[-90.2314,38.6393,0.0],[-90.2322,38.6381,0.0],[-90.2325,38.6376,0.0],[-90.2333,38.6357,0.0],[-90.2338,38.6344,0.0],[-90.2467,38.6371,0.0],[-90.2463,38.6385,0.0]]]]}},{"type":"Feature","properties":{"uesi_id":"USA_R1180533","nbhd_code":"USA_R1180533_98","nbhd_name":"Census Tract 1241"},"geometry":{"type":"MultiPolygon","coordinates":[[[[-90.2383,38.5875,0.0],[-90.2361,38.5872,0.0],[-90.2357,38.589,0.0],[-90.2349,38.5926,0.0],[-90.2346,38.5944,0.0],[-90.2335,38.5943,0.0],[-90.2323,38.5941,0.0],[-90.2289,38.5937,0.0],[-90.2255,38.5933,0.0],[-90.2269,38.5861,0.0],[-90.227,38.5857,0.0],[-90.2273,38.5843,0.0],[-90.2277,38.5825,0.0],[-90.2311,38.583,0.0],[-90.2322,38.5831,0.0],[-90.2334,38.5832,0.0],[-90.2345,38.5834,0.0],[-90.2391,38.584,0.0],[-90.2383,38.5875,0.0]]]]}},{"type":"Feature","properties":{"uesi_id":"USA_R1180533","nbhd_code":"USA_R1180533_99","nbhd_name":"Census Tract 1191.02"},"geometry":{"type":"MultiPolygon","coordinates":[[[[-90.2617,38.6432,0.0],[-90.2579,38.6425,0.0],[-90.2574,38.6439,0.0],[-90.2569,38.6453,0.0],[-90.2562,38.6463,0.0],[-90.2531,38.645,0.0],[-90.2497,38.6434,0.0],[-90.2452,38.6415,0.0],[-90.2457,38.6399,0.0],[-90.2463,38.6385,0.0],[-90.251,38.6395,0.0],[-90.2547,38.6403,0.0],[-90.2619,38.6418,0.0],[-90.2617,38.6432,0.0]]]]}},{"type":"Feature","properties":{"uesi_id":"USA_R1180533","nbhd_code":"USA_R1180533_100","nbhd_name":"Census Tract 1123"},"geometry":{"type":"MultiPolygon","coordinates":[[[[-90.2629,38.6551,0.0],[-90.2628,38.6557,0.0],[-90.2621,38.6599,0.0],[-90.2584,38.6595,0.0],[-90.2563,38.6586,0.0],[-90.2551,38.6581,0.0],[-90.2532,38.6573,0.0],[-90.2525,38.6569,0.0],[-90.2496,38.6557,0.0],[-90.2513,38.6532,0.0],[-90.2517,38.6527,0.0],[-90.2528,38.6512,0.0],[-90.2535,38.6502,0.0],[-90.2549,38.6509,0.0],[-90.2576,38.6511,0.0],[-90.2635,38.6516,0.0],[-90.2629,38.6551,0.0]]]]}},{"type":"Feature","properties":{"uesi_id":"USA_R1180533","nbhd_code":"USA_R1180533_101","nbhd_name":"Census Tract 1157"},"geometry":{"type":"MultiPolygon","coordinates":[[[[-90.2524,38.5862,0.0],[-90.2509,38.5859,0.0],[-90.245,38.5852,0.0],[-90.2449,38.5847,0.0],[-90.2414,38.5842,0.0],[-90.2391,38.584,0.0],[-90.2345,38.5834,0.0],[-90.2334,38.5832,0.0],[-90.2322,38.5831,0.0],[-90.2311,38.583,0.0],[-90.2277,38.5825,0.0],[-90.2234,38.5822,0.0],[-90.2255,38.5804,0.0],[-90.2236,38.5803,0.0],[-90.218,38.5782,0.0],[-90.2212,38.5768,0.0],[-90.226,38.5788,0.0],[-90.2283,38.5787,0.0],[-90.233,38.5795,0.0],[-90.2341,38.5797,0.0],[-90.2364,38.5799,0.0],[-90.2375,38.5801,0.0],[-90.2387,38.5802,0.0],[-90.2398,38.5804,0.0],[-90.2421,38.5807,0.0],[-90.2442,38.5809,0.0],[-90.2485,38.5831,0.0],[-90.253,38.5854,0.0],[-90.2524,38.5862,0.0]]]]}},{"type":"Feature","properties":{"uesi_id":"USA_R1180533","nbhd_code":"USA_R1180533_102","nbhd_name":"Census Tract 1174"},"geometry":{"type":"MultiPolygon","coordinates":[[[[-90.2461,38.6101,0.0],[-90.246,38.611,0.0],[-90.2457,38.613,0.0],[-90.2455,38.614,0.0],[-90.24,38.6134,0.0],[-90.2286,38.612,0.0],[-90.2293,38.6084,0.0],[-90.2301,38.6044,0.0],[-90.2313,38.6047,0.0],[-90.2335,38.6053,0.0],[-90.2369,38.6057,0.0],[-90.2392,38.606,0.0],[-90.2416,38.6062,0.0],[-90.2414,38.6072,0.0],[-90.2465,38.6077,0.0],[-90.2461,38.6101,0.0]]]]}},{"type":"Feature","properties":{"uesi_id":"USA_R1180533","nbhd_code":"USA_R1180533_103","nbhd_name":"Census Tract 1242"},"geometry":{"type":"MultiPolygon","coordinates":[[[[-90.2331,38.5961,0.0],[-90.232,38.601,0.0],[-90.2313,38.6047,0.0],[-90.2301,38.6044,0.0],[-90.2268,38.6035,0.0],[-90.2265,38.6034,0.0],[-90.2257,38.6038,0.0],[-90.2234,38.6031,0.0],[-90.2238,38.601,0.0],[-90.2243,38.5989,0.0],[-90.2251,38.5951,0.0],[-90.2255,38.5933,0.0],[-90.2289,38.5937,0.0],[-90.2323,38.5941,0.0],[-90.2335,38.5943,0.0],[-90.2331,38.5961,0.0]]]]}},{"type":"Feature","properties":{"uesi_id":"USA_R1180533","nbhd_code":"USA_R1180533_104","nbhd_name":"Census Tract 1269"},"geometry":{"type":"MultiPolygon","coordinates":[[[[-90.2752,38.6893,0.0],[-90.2657,38.7013,0.0],[-90.2618,38.6994,0.0],[-90.2608,38.698,0.0],[-90.2605,38.6974,0.0],[-90.2602,38.6944,0.0],[-90.2593,38.6927,0.0],[-90.2577,38.6915,0.0],[-90.2548,38.6902,0.0],[-90.2539,38.6898,0.0],[-90.2454,38.6863,0.0],[-90.2456,38.6862,0.0],[-90.2468,38.6856,0.0],[-90.2473,38.6842,0.0],[-90.248,38.6817,0.0],[-90.2469,38.6813,0.0],[-90.2452,38.6806,0.0],[-90.2419,38.6791,0.0],[-90.2398,38.6819,0.0],[-90.2393,38.6826,0.0],[-90.2328,38.682,0.0],[-90.2302,38.6823,0.0],[-90.2345,38.6793,0.0],[-90.2347,38.6779,0.0],[-90.2371,38.6772,0.0],[-90.2394,38.674,0.0],[-90.2397,38.6741,0.0],[-90.2413,38.6719,0.0],[-90.2443,38.6731,0.0],[-90.2517,38.6763,0.0],[-90.2583,38.6792,0.0],[-90.2638,38.6817,0.0],[-90.2662,38.6828,0.0],[-90.2683,38.6841,0.0],[-90.2713,38.686,0.0],[-90.2723,38.6867,0.0],[-90.2752,38.6893,0.0]]]]}},{"type":"Feature","properties":{"uesi_id":"USA_R1180533","nbhd_code":"USA_R1180533_105","nbhd_name":"Census Tract 1031"},"geometry":{"type":"MultiPolygon","coordinates":[[[[-90.3196,38.5922,0.0],[-90.3164,38.5922,0.0],[-90.3161,38.5938,0.0],[-90.3125,38.5934,0.0],[-90.3094,38.5931,0.0],[-90.3069,38.5929,0.0],[-90.3021,38.5924,0.0],[-90.3031,38.5919,0.0],[-90.3037,38.5879,0.0],[-90.3045,38.5825,0.0],[-90.3062,38.5827,0.0],[-90.3105,38.5832,0.0],[-90.3111,38.5842,0.0],[-90.3117,38.5852,0.0],[-90.313,38.587,0.0],[-90.3133,38.5868,0.0],[-90.3135,38.5867,0.0],[-90.314,38.5864,0.0],[-90.315,38.5856,0.0],[-90.3162,38.5847,0.0],[-90.3174,38.5874,0.0],[-90.3192,38.5913,0.0],[-90.3196,38.5922,0.0]]]]}},{"type":"Feature","properties":{"uesi_id":"USA_R1180533","nbhd_code":"USA_R1180533_106","nbhd_name":"Census Tract 1067"},"geometry":{"type":"MultiPolygon","coordinates":[[[[-90.2602,38.6647,0.0],[-90.2584,38.6672,0.0],[-90.2571,38.6689,0.0],[-90.2564,38.6697,0.0],[-90.2552,38.6714,0.0],[-90.2528,38.6747,0.0],[-90.2528,38.6749,0.0],[-90.2517,38.6763,0.0],[-90.2443,38.6731,0.0],[-90.2448,38.6723,0.0],[-90.245,38.6721,0.0],[-90.2462,38.6703,0.0],[-90.2469,38.6694,0.0],[-90.2482,38.6676,0.0],[-90.2502,38.6648,0.0],[-90.2512,38.6633,0.0],[-90.2526,38.6614,0.0],[-90.2535,38.6602,0.0],[-90.2615,38.6631,0.0],[-90.2602,38.6647,0.0]]]]}}]}