{"type":"FeatureCollection","name":"VEN_R11219583","crs":{"type":"name","properties":{"name":"urn:ogc:def:crs:OGC:1.3:CRS84"}},"features":[{"type":"Feature","properties":{"uesi_id":"VEN_R11219583","nbhd_code":"VEN_R11219583_123","nbhd_name":"Altagracia"},"geometry":{"type":"MultiPolygon","coordinates":[[[[-66.92247,10.50608,0.0],[-66.92139,10.51294,0.0],[-66.91624,10.51213,0.0],[-66.91698,10.51536,0.0],[-66.91473,10.52288,0.0],[-66.91615,10.53656,0.0],[-66.91323,10.55157,0.0],[-66.91314,10.55202,0.0],[-66.91268,10.55196,0.0],[-66.90855,10.55172,0.0],[-66.90688,10.55155,0.0],[-66.90597,10.55146,0.0],[-66.90328,10.55133,0.0],[-66.90227,10.55093,0.0],[-66.90225,10.54998,0.0],[-66.90276,10.5456,0.0],[-66.90596,10.54555,0.0],[-66.90615,10.54032,0.0],[-66.90867,10.53755,0.0],[-66.90982,10.52069,0.0],[-66.91401,10.51899,0.0],[-66.91147,10.51459,0.0],[-66.91158,10.51176,0.0],[-66.91168,10.50893,0.0],[-66.91196,10.50729,0.0],[-66.90843,10.50658,0.0],[-66.90917,10.50309,0.0],[-66.91582,10.50459,0.0],[-66.92247,10.50608,0.0]]]]}},{"type":"Feature","properties":{"uesi_id":"VEN_R11219583","nbhd_code":"VEN_R11219583_124","nbhd_name":"Antimano"},"geometry":{"type":"MultiPolygon","coordinates":[[[[-66.97017,10.44632,0.0],[-66.98747,10.44016,0.0],[-66.99541,10.44064,0.0],[-66.99949,10.44241,0.0],[-67.01302,10.44053,0.0],[-67.02142,10.44169,0.0],[-67.02422,10.43979,0.0],[-67.02572,10.44218,0.0],[-67.02908,10.44158,0.0],[-67.03023,10.4444,0.0],[-67.03707,10.44442,0.0],[-67.04578,10.44817,0.0],[-67.04839,10.45106,0.0],[-67.04797,10.45395,0.0],[-67.04154,10.45674,0.0],[-67.03757,10.4669,0.0],[-67.03207,10.47167,0.0],[-67.02301,10.46974,0.0],[-67.01824,10.47131,0.0],[-67.00715,10.46796,0.0],[-67.00637,10.46413,0.0],[-67.0039,10.46258,0.0],[-67.00356,10.4663,0.0],[-66.99431,10.46601,0.0],[-66.99431,10.4679,0.0],[-67.00312,10.47408,0.0],[-67.00209,10.47657,0.0],[-66.99402,10.47653,0.0],[-66.98886,10.47917,0.0],[-66.98162,10.49085,0.0],[-66.97572,10.49095,0.0],[-66.97203,10.489,0.0],[-66.96933,10.48404,0.0],[-66.96678,10.46821,0.0],[-66.97719,10.46228,0.0],[-66.97357,10.46181,0.0],[-66.96572,10.46531,0.0],[-66.97049,10.45483,0.0],[-66.97017,10.44632,0.0]]]]}},{"type":"Feature","properties":{"uesi_id":"VEN_R11219583","nbhd_code":"VEN_R11219583_125","nbhd_name":"Candelaria"},"geometry":{"type":"MultiPolygon","coordinates":[[[[-66.89588,10.49511,0.0],[-66.90191,10.49655,0.0],[-66.90793,10.49798,0.0],[-66.9101,10.49845,0.0],[-66.90917,10.50309,0.0],[-66.90843,10.50658,0.0],[-66.90292,10.50542,0.0],[-66.90224,10.50204,0.0],[-66.90038,10.50149,0.0],[-66.89234,10.51101,0.0],[-66.89168,10.50926,0.0],[-66.89558,10.50097,0.0],[-66.89588,10.49511,0.0]]]]}},{"type":"Feature","properties":{"uesi_id":"VEN_R11219583","nbhd_code":"VEN_R11219583_126","nbhd_name":"Caricuao"},"geometry":{"type":"MultiPolygon","coordinates":[[[[-66.95214,10.43867,0.0],[-66.95045,10.4329,0.0],[-66.95348,10.42468,0.0],[-66.95289,10.42332,0.0],[-66.95261,10.42288,0.0],[-66.95468,10.42106,0.0],[-66.95548,10.42037,0.0],[-66.95552,10.41869,0.0],[-66.95586,10.41766,0.0],[-66.9562,10.41661,0.0],[-66.95673,10.41561,0.0],[-66.95725,10.41497,0.0],[-66.9577,10.41434,0.0],[-66.9586,10.4138,0.0],[-66.96008,10.41306,0.0],[-66.96123,10.41245,0.0],[-66.96226,10.41221,0.0],[-66.96387,10.41184,0.0],[-66.96511,10.4111,0.0],[-66.96613,10.4102,0.0],[-66.9673,10.40876,0.0],[-66.96805,10.40831,0.0],[-66.9685,10.40814,0.0],[-66.96853,10.40771,0.0],[-66.96918,10.40691,0.0],[-66.96951,10.4067,0.0],[-66.96991,10.40662,0.0],[-66.97022,10.40666,0.0],[-66.97067,10.40696,0.0],[-66.97096,10.40695,0.0],[-66.97173,10.40631,0.0],[-66.97266,10.40531,0.0],[-66.9732,10.40502,0.0],[-66.9737,10.40482,0.0],[-66.97423,10.40443,0.0],[-66.97463,10.40385,0.0],[-66.97515,10.40359,0.0],[-66.97574,10.40298,0.0],[-66.97637,10.402,0.0],[-66.97678,10.40166,0.0],[-66.97706,10.40163,0.0],[-66.97759,10.40148,0.0],[-66.97812,10.40111,0.0],[-66.97849,10.40084,0.0],[-66.97908,10.40023,0.0],[-66.97928,10.4001,0.0],[-66.97959,10.40003,0.0],[-66.97989,10.4001,0.0],[-66.98016,10.40027,0.0],[-66.98052,10.40056,0.0],[-66.9809,10.4007,0.0],[-66.98124,10.40079,0.0],[-66.98163,10.40051,0.0],[-66.98218,10.39976,0.0],[-66.98263,10.39922,0.0],[-66.98265,10.39952,0.0],[-66.98303,10.41149,0.0],[-66.99194,10.41763,0.0],[-66.99657,10.41679,0.0],[-67.00597,10.42217,0.0],[-67.01218,10.42142,0.0],[-67.01738,10.42248,0.0],[-67.01926,10.42486,0.0],[-67.02056,10.43466,0.0],[-67.02422,10.43979,0.0],[-67.02142,10.44169,0.0],[-67.01302,10.44053,0.0],[-66.99949,10.44241,0.0],[-66.99541,10.44064,0.0],[-66.98747,10.44016,0.0],[-66.97017,10.44632,0.0],[-66.96774,10.44322,0.0],[-66.96414,10.44301,0.0],[-66.96269,10.44077,0.0],[-66.95214,10.43867,0.0]]]]}},{"type":"Feature","properties":{"uesi_id":"VEN_R11219583","nbhd_code":"VEN_R11219583_127","nbhd_name":"Catedral"},"geometry":{"type":"MultiPolygon","coordinates":[[[[-66.92289,10.50008,0.0],[-66.92363,10.50199,0.0],[-66.92247,10.50608,0.0],[-66.91582,10.50459,0.0],[-66.90917,10.50309,0.0],[-66.9101,10.49845,0.0],[-66.91366,10.49924,0.0],[-66.9182,10.5002,0.0],[-66.92289,10.50008,0.0]]]]}},{"type":"Feature","properties":{"uesi_id":"VEN_R11219583","nbhd_code":"VEN_R11219583_128","nbhd_name":"Coche"},"geometry":{"type":"MultiPolygon","coordinates":[[[[-66.91226,10.41089,0.0],[-66.91456,10.41256,0.0],[-66.91523,10.41119,0.0],[-66.91631,10.41203,0.0],[-66.91923,10.41315,0.0],[-66.92084,10.41442,0.0],[-66.92177,10.4148,0.0],[-66.92339,10.41526,0.0],[-66.92379,10.41509,0.0],[-66.92402,10.41481,0.0],[-66.92445,10.41461,0.0],[-66.92557,10.41471,0.0],[-66.92594,10.41446,0.0],[-66.92715,10.41416,0.0],[-66.92827,10.41389,0.0],[-66.92957,10.41396,0.0],[-66.93102,10.41366,0.0],[-66.93223,10.41406,0.0],[-66.93398,10.41605,0.0],[-66.93546,10.41741,0.0],[-66.93613,10.41831,0.0],[-66.93764,10.41931,0.0],[-66.9385,10.41993,0.0],[-66.93999,10.42003,0.0],[-66.94051,10.42047,0.0],[-66.94128,10.42211,0.0],[-66.9417,10.42288,0.0],[-66.94297,10.42344,0.0],[-66.945,10.42402,0.0],[-66.94708,10.42435,0.0],[-66.94755,10.42447,0.0],[-66.94786,10.42456,0.0],[-66.9482,10.4246,0.0],[-66.94868,10.42456,0.0],[-66.94903,10.42454,0.0],[-66.94931,10.42455,0.0],[-66.94964,10.42458,0.0],[-66.94986,10.42459,0.0],[-66.95009,10.42457,0.0],[-66.95034,10.42451,0.0],[-66.95062,10.42443,0.0],[-66.95064,10.4243,0.0],[-66.95092,10.42408,0.0],[-66.95182,10.42354,0.0],[-66.95256,10.42293,0.0],[-66.95261,10.42288,0.0],[-66.95289,10.42332,0.0],[-66.95348,10.42468,0.0],[-66.95045,10.4329,0.0],[-66.95214,10.43867,0.0],[-66.94744,10.4424,0.0],[-66.94197,10.44337,0.0],[-66.94122,10.44701,0.0],[-66.93833,10.44965,0.0],[-66.93822,10.45231,0.0],[-66.93479,10.45476,0.0],[-66.92843,10.45036,0.0],[-66.92477,10.45222,0.0],[-66.91961,10.44798,0.0],[-66.92401,10.44239,0.0],[-66.92558,10.43334,0.0],[-66.92419,10.42627,0.0],[-66.92892,10.42188,0.0],[-66.9295,10.41926,0.0],[-66.92778,10.41799,0.0],[-66.91849,10.41953,0.0],[-66.91473,10.41609,0.0],[-66.9123,10.41096,0.0],[-66.91226,10.41089,0.0]]]]}},{"type":"Feature","properties":{"uesi_id":"VEN_R11219583","nbhd_code":"VEN_R11219583_129","nbhd_name":"El Junquito"},"geometry":{"type":"MultiPolygon","coordinates":[[[[-67.02886,10.53271,0.0],[-67.02879,10.53211,0.0],[-67.02679,10.52674,0.0],[-67.01662,10.52956,0.0],[-67.01353,10.52811,0.0],[-67.01046,10.52882,0.0],[-67.00419,10.5311,0.0],[-67.00235,10.52876,0.0],[-66.99706,10.52531,0.0],[-66.99611,10.52229,0.0],[-66.99255,10.52265,0.0],[-67.00066,10.50443,0.0],[-66.99938,10.49944,0.0],[-66.99718,10.49967,0.0],[-66.99429,10.49695,0.0],[-66.99564,10.49435,0.0],[-66.99043,10.49426,0.0],[-66.99026,10.49159,0.0],[-66.98852,10.4902,0.0],[-66.98367,10.49474,0.0],[-66.97572,10.49095,0.0],[-66.98162,10.49085,0.0],[-66.98886,10.47917,0.0],[-66.99402,10.47653,0.0],[-67.00209,10.47657,0.0],[-67.00312,10.47408,0.0],[-66.99431,10.4679,0.0],[-66.99431,10.46601,0.0],[-67.00356,10.4663,0.0],[-67.0039,10.46258,0.0],[-67.00637,10.46413,0.0],[-67.00715,10.46796,0.0],[-67.01824,10.47131,0.0],[-67.02301,10.46974,0.0],[-67.03207,10.47167,0.0],[-67.03757,10.4669,0.0],[-67.04154,10.45674,0.0],[-67.04797,10.45395,0.0],[-67.04839,10.45106,0.0],[-67.05506,10.45953,0.0],[-67.0592,10.45692,0.0],[-67.06362,10.45887,0.0],[-67.06438,10.4571,0.0],[-67.06792,10.4582,0.0],[-67.0706,10.45464,0.0],[-67.07156,10.45593,0.0],[-67.07538,10.45414,0.0],[-67.07784,10.45634,0.0],[-67.08114,10.4544,0.0],[-67.0865,10.45583,0.0],[-67.08854,10.45438,0.0],[-67.08972,10.45536,0.0],[-67.09124,10.45434,0.0],[-67.09408,10.4536,0.0],[-67.10531,10.45681,0.0],[-67.10632,10.45696,0.0],[-67.10528,10.45793,0.0],[-67.10402,10.45921,0.0],[-67.10243,10.45975,0.0],[-67.10172,10.46077,0.0],[-67.1011,10.46096,0.0],[-67.10059,10.46096,0.0],[-67.10005,10.4606,0.0],[-67.09952,10.46023,0.0],[-67.09844,10.45961,0.0],[-67.0982,10.45913,0.0],[-67.09804,10.4588,0.0],[-67.09788,10.45876,0.0],[-67.09769,10.45871,0.0],[-67.09756,10.45867,0.0],[-67.09742,10.45861,0.0],[-67.09729,10.45855,0.0],[-67.09709,10.45848,0.0],[-67.0969,10.45845,0.0],[-67.0967,10.45846,0.0],[-67.09653,10.4585,0.0],[-67.09639,10.45854,0.0],[-67.09629,10.45856,0.0],[-67.0961,10.45863,0.0],[-67.09595,10.45871,0.0],[-67.09578,10.45861,0.0],[-67.09551,10.45864,0.0],[-67.09541,10.45875,0.0],[-67.09533,10.45902,0.0],[-67.09511,10.45943,0.0],[-67.09447,10.45959,0.0],[-67.09366,10.45959,0.0],[-67.09337,10.45951,0.0],[-67.09286,10.45937,0.0],[-67.0917,10.45908,0.0],[-67.08832,10.45838,0.0],[-67.08831,10.45854,0.0],[-67.0882,10.4587,0.0],[-67.08769,10.45893,0.0],[-67.08724,10.45911,0.0],[-67.08703,10.45927,0.0],[-67.08708,10.45977,0.0],[-67.08714,10.46004,0.0],[-67.08715,10.46021,0.0],[-67.08684,10.46033,0.0],[-67.08642,10.46006,0.0],[-67.08603,10.45982,0.0],[-67.08604,10.45977,0.0],[-67.08576,10.45969,0.0],[-67.08564,10.45968,0.0],[-67.08545,10.45971,0.0],[-67.08526,10.45977,0.0],[-67.08504,10.45989,0.0],[-67.08484,10.45997,0.0],[-67.08468,10.46004,0.0],[-67.08456,10.46014,0.0],[-67.08444,10.46024,0.0],[-67.08428,10.46048,0.0],[-67.08424,10.46056,0.0],[-67.08413,10.46068,0.0],[-67.08401,10.46078,0.0],[-67.08377,10.46091,0.0],[-67.08354,10.46104,0.0],[-67.08326,10.46119,0.0],[-67.08315,10.46128,0.0],[-67.08312,10.46135,0.0],[-67.08312,10.4614,0.0],[-67.08313,10.46145,0.0],[-67.08318,10.4615,0.0],[-67.08323,10.46156,0.0],[-67.08326,10.46163,0.0],[-67.08324,10.46168,0.0],[-67.08321,10.46172,0.0],[-67.08315,10.46175,0.0],[-67.08305,10.46179,0.0],[-67.08285,10.46182,0.0],[-67.0826,10.46184,0.0],[-67.08244,10.46186,0.0],[-67.08231,10.46189,0.0],[-67.08211,10.46194,0.0],[-67.08194,10.46183,0.0],[-67.08148,10.46149,0.0],[-67.08132,10.46134,0.0],[-67.08117,10.46118,0.0],[-67.08099,10.461,0.0],[-67.08086,10.46088,0.0],[-67.08069,10.46079,0.0],[-67.08053,10.46075,0.0],[-67.08037,10.46074,0.0],[-67.08013,10.46078,0.0],[-67.07992,10.46083,0.0],[-67.0798,10.46085,0.0],[-67.07952,10.46084,0.0],[-67.0794,10.46082,0.0],[-67.07926,10.46077,0.0],[-67.07913,10.4607,0.0],[-67.07904,10.46067,0.0],[-67.07898,10.46066,0.0],[-67.07886,10.46066,0.0],[-67.07876,10.46069,0.0],[-67.07835,10.46092,0.0],[-67.07752,10.46135,0.0],[-67.07669,10.4616,0.0],[-67.07578,10.46185,0.0],[-67.07542,10.46195,0.0],[-67.07517,10.46196,0.0],[-67.07484,10.46185,0.0],[-67.07466,10.46176,0.0],[-67.07428,10.4614,0.0],[-67.0736,10.46081,0.0],[-67.07325,10.46058,0.0],[-67.07295,10.46049,0.0],[-67.07262,10.46055,0.0],[-67.0721,10.46077,0.0],[-67.07173,10.4609,0.0],[-67.07133,10.46098,0.0],[-67.07048,10.46109,0.0],[-67.06996,10.46124,0.0],[-67.06941,10.46141,0.0],[-67.06896,10.46158,0.0],[-67.06883,10.46171,0.0],[-67.06868,10.46177,0.0],[-67.06836,10.46162,0.0],[-67.06828,10.46157,0.0],[-67.06809,10.46166,0.0],[-67.06775,10.46206,0.0],[-67.06768,10.46228,0.0],[-67.06747,10.46255,0.0],[-67.06712,10.46268,0.0],[-67.06658,10.46265,0.0],[-67.06607,10.46251,0.0],[-67.06563,10.46251,0.0],[-67.06533,10.46268,0.0],[-67.06475,10.46314,0.0],[-67.06427,10.46356,0.0],[-67.06398,10.46381,0.0],[-67.06386,10.46408,0.0],[-67.06378,10.46438,0.0],[-67.06359,10.46476,0.0],[-67.0635,10.46494,0.0],[-67.06292,10.46526,0.0],[-67.06263,10.46555,0.0],[-67.06255,10.46565,0.0],[-67.06197,10.46583,0.0],[-67.0617,10.46583,0.0],[-67.06136,10.46583,0.0],[-67.0612,10.466,0.0],[-67.06085,10.46633,0.0],[-67.06059,10.46675,0.0],[-67.06046,10.46706,0.0],[-67.06021,10.46708,0.0],[-67.06008,10.46717,0.0],[-67.05972,10.46716,0.0],[-67.05938,10.46725,0.0],[-67.05922,10.46731,0.0],[-67.059,10.46731,0.0],[-67.05879,10.46738,0.0],[-67.05856,10.4674,0.0],[-67.05851,10.47023,0.0],[-67.05851,10.47063,0.0],[-67.05848,10.4708,0.0],[-67.05785,10.47101,0.0],[-67.05742,10.47133,0.0],[-67.05734,10.47148,0.0],[-67.05736,10.47174,0.0],[-67.05721,10.47195,0.0],[-67.05681,10.47233,0.0],[-67.05641,10.47307,0.0],[-67.05632,10.47352,0.0],[-67.05638,10.47415,0.0],[-67.05642,10.47443,0.0],[-67.05654,10.47462,0.0],[-67.05678,10.47477,0.0],[-67.05679,10.47489,0.0],[-67.05679,10.47496,0.0],[-67.05675,10.47549,0.0],[-67.05653,10.47618,0.0],[-67.05647,10.47661,0.0],[-67.05634,10.47749,0.0],[-67.05623,10.4779,0.0],[-67.0561,10.47834,0.0],[-67.05582,10.47887,0.0],[-67.05574,10.4791,0.0],[-67.05569,10.47943,0.0],[-67.05571,10.47987,0.0],[-67.05567,10.48034,0.0],[-67.05576,10.48093,0.0],[-67.05597,10.48125,0.0],[-67.05614,10.48136,0.0],[-67.05632,10.48141,0.0],[-67.05637,10.48148,0.0],[-67.05634,10.48173,0.0],[-67.05639,10.48197,0.0],[-67.05655,10.48225,0.0],[-67.05682,10.48253,0.0],[-67.05709,10.48277,0.0],[-67.05734,10.48279,0.0],[-67.05736,10.4828,0.0],[-67.05741,10.48281,0.0],[-67.05745,10.48281,0.0],[-67.0575,10.48281,0.0],[-67.05754,10.48279,0.0],[-67.05759,10.48278,0.0],[-67.05764,10.48275,0.0],[-67.05768,10.48272,0.0],[-67.05773,10.4827,0.0],[-67.05776,10.48268,0.0],[-67.0578,10.48267,0.0],[-67.05783,10.48266,0.0],[-67.05786,10.48265,0.0],[-67.0579,10.48265,0.0],[-67.05796,10.48265,0.0],[-67.05799,10.48267,0.0],[-67.05803,10.48269,0.0],[-67.05807,10.48271,0.0],[-67.05811,10.48274,0.0],[-67.05815,10.48278,0.0],[-67.05819,10.48281,0.0],[-67.05822,10.48284,0.0],[-67.05826,10.48288,0.0],[-67.05829,10.48291,0.0],[-67.05839,10.48302,0.0],[-67.05844,10.48307,0.0],[-67.05853,10.48314,0.0],[-67.0586,10.48319,0.0],[-67.0587,10.48325,0.0],[-67.05879,10.4833,0.0],[-67.05891,10.48336,0.0],[-67.059,10.4834,0.0],[-67.05906,10.48342,0.0],[-67.05913,10.48345,0.0],[-67.05917,10.48346,0.0],[-67.05923,10.48348,0.0],[-67.05928,10.48349,0.0],[-67.05934,10.4835,0.0],[-67.05938,10.4835,0.0],[-67.05944,10.48351,0.0],[-67.05947,10.48351,0.0],[-67.05969,10.48354,0.0],[-67.0597,10.48354,0.0],[-67.05972,10.48355,0.0],[-67.05975,10.48357,0.0],[-67.05977,10.48359,0.0],[-67.05979,10.48361,0.0],[-67.05981,10.48363,0.0],[-67.05982,10.48364,0.0],[-67.05984,10.48366,0.0],[-67.05985,10.48367,0.0],[-67.05985,10.48369,0.0],[-67.05986,10.48371,0.0],[-67.05987,10.48373,0.0],[-67.05987,10.48376,0.0],[-67.05987,10.4838,0.0],[-67.05987,10.48384,0.0],[-67.05986,10.48388,0.0],[-67.05986,10.4839,0.0],[-67.05987,10.48394,0.0],[-67.05988,10.48398,0.0],[-67.0599,10.484,0.0],[-67.05991,10.48403,0.0],[-67.05993,10.48407,0.0],[-67.05995,10.4841,0.0],[-67.05996,10.48414,0.0],[-67.05997,10.48417,0.0],[-67.05997,10.48419,0.0],[-67.05997,10.48421,0.0],[-67.05997,10.48424,0.0],[-67.05996,10.48427,0.0],[-67.05996,10.48428,0.0],[-67.05994,10.48431,0.0],[-67.05992,10.48434,0.0],[-67.0599,10.48438,0.0],[-67.05989,10.4844,0.0],[-67.05988,10.48443,0.0],[-67.05987,10.48446,0.0],[-67.05986,10.48449,0.0],[-67.05985,10.48453,0.0],[-67.05984,10.48456,0.0],[-67.05983,10.48462,0.0],[-67.05982,10.48467,0.0],[-67.05982,10.48471,0.0],[-67.05981,10.48475,0.0],[-67.0598,10.4848,0.0],[-67.05979,10.48484,0.0],[-67.05977,10.48487,0.0],[-67.05976,10.48492,0.0],[-67.05974,10.48496,0.0],[-67.05972,10.48499,0.0],[-67.05972,10.485,0.0],[-67.05971,10.48501,0.0],[-67.05969,10.48503,0.0],[-67.05969,10.48505,0.0],[-67.05968,10.48507,0.0],[-67.05968,10.4851,0.0],[-67.05968,10.48513,0.0],[-67.05967,10.48517,0.0],[-67.05968,10.4853,0.0],[-67.05969,10.48548,0.0],[-67.0597,10.48552,0.0],[-67.05971,10.48557,0.0],[-67.05972,10.48565,0.0],[-67.05973,10.48569,0.0],[-67.05975,10.48573,0.0],[-67.05976,10.48576,0.0],[-67.05977,10.48579,0.0],[-67.05978,10.48582,0.0],[-67.05979,10.48585,0.0],[-67.0598,10.4859,0.0],[-67.05981,10.48594,0.0],[-67.05982,10.48598,0.0],[-67.05983,10.486,0.0],[-67.05983,10.48603,0.0],[-67.05983,10.48622,0.0],[-67.05982,10.48627,0.0],[-67.05982,10.48632,0.0],[-67.05981,10.48635,0.0],[-67.0598,10.48638,0.0],[-67.05979,10.4864,0.0],[-67.05978,10.48643,0.0],[-67.05976,10.48648,0.0],[-67.05973,10.48653,0.0],[-67.05968,10.48663,0.0],[-67.05965,10.48667,0.0],[-67.05961,10.48674,0.0],[-67.05957,10.4868,0.0],[-67.05955,10.48682,0.0],[-67.05954,10.48684,0.0],[-67.0595,10.48689,0.0],[-67.05946,10.48694,0.0],[-67.05941,10.48701,0.0],[-67.05938,10.48706,0.0],[-67.05935,10.48711,0.0],[-67.05932,10.48718,0.0],[-67.05929,10.48726,0.0],[-67.05927,10.48733,0.0],[-67.05924,10.48741,0.0],[-67.05919,10.48752,0.0],[-67.05916,10.4876,0.0],[-67.05912,10.48769,0.0],[-67.05909,10.48777,0.0],[-67.05907,10.48785,0.0],[-67.05905,10.48792,0.0],[-67.05904,10.48797,0.0],[-67.05904,10.48802,0.0],[-67.05904,10.48805,0.0],[-67.05903,10.48807,0.0],[-67.05901,10.48811,0.0],[-67.05898,10.48816,0.0],[-67.05896,10.4882,0.0],[-67.05894,10.48826,0.0],[-67.05891,10.48835,0.0],[-67.05889,10.48839,0.0],[-67.05888,10.48842,0.0],[-67.05888,10.48845,0.0],[-67.05887,10.48849,0.0],[-67.05888,10.48852,0.0],[-67.05888,10.48856,0.0],[-67.05889,10.48859,0.0],[-67.05891,10.48865,0.0],[-67.05892,10.48868,0.0],[-67.05893,10.48872,0.0],[-67.05893,10.48874,0.0],[-67.05892,10.48911,0.0],[-67.05891,10.48914,0.0],[-67.0589,10.48917,0.0],[-67.0589,10.4892,0.0],[-67.05889,10.48923,0.0],[-67.05888,10.48926,0.0],[-67.05887,10.48929,0.0],[-67.05886,10.48931,0.0],[-67.05886,10.48933,0.0],[-67.05886,10.48935,0.0],[-67.05886,10.48939,0.0],[-67.05887,10.48942,0.0],[-67.05888,10.48945,0.0],[-67.05889,10.48947,0.0],[-67.05889,10.48948,0.0],[-67.0589,10.4895,0.0],[-67.05891,10.48952,0.0],[-67.05893,10.48955,0.0],[-67.05894,10.48957,0.0],[-67.05896,10.4896,0.0],[-67.05899,10.48963,0.0],[-67.059,10.48966,0.0],[-67.05902,10.4897,0.0],[-67.05903,10.48973,0.0],[-67.05904,10.48977,0.0],[-67.05905,10.48982,0.0],[-67.05906,10.48987,0.0],[-67.05906,10.49002,0.0],[-67.05905,10.49007,0.0],[-67.05905,10.49013,0.0],[-67.05904,10.49017,0.0],[-67.05903,10.49021,0.0],[-67.05903,10.49031,0.0],[-67.05905,10.49049,0.0],[-67.05904,10.49052,0.0],[-67.05904,10.49054,0.0],[-67.05903,10.49056,0.0],[-67.05902,10.4906,0.0],[-67.059,10.49063,0.0],[-67.05898,10.49067,0.0],[-67.05897,10.49069,0.0],[-67.05896,10.49072,0.0],[-67.05895,10.49075,0.0],[-67.05893,10.49081,0.0],[-67.05892,10.49086,0.0],[-67.05889,10.49093,0.0],[-67.05887,10.49099,0.0],[-67.05886,10.49103,0.0],[-67.05883,10.49108,0.0],[-67.0588,10.49113,0.0],[-67.05877,10.49116,0.0],[-67.05874,10.49121,0.0],[-67.05869,10.4913,0.0],[-67.05864,10.49137,0.0],[-67.0586,10.49143,0.0],[-67.05857,10.49147,0.0],[-67.05854,10.4915,0.0],[-67.0585,10.49155,0.0],[-67.05843,10.49162,0.0],[-67.05836,10.49167,0.0],[-67.0583,10.49173,0.0],[-67.05824,10.49179,0.0],[-67.05821,10.49182,0.0],[-67.05818,10.49185,0.0],[-67.05815,10.49188,0.0],[-67.05813,10.49191,0.0],[-67.05811,10.49193,0.0],[-67.05809,10.49196,0.0],[-67.05807,10.492,0.0],[-67.05805,10.49204,0.0],[-67.05804,10.49207,0.0],[-67.05799,10.4922,0.0],[-67.05797,10.49225,0.0],[-67.05797,10.49228,0.0],[-67.05796,10.49232,0.0],[-67.05796,10.49235,0.0],[-67.05795,10.49239,0.0],[-67.05796,10.49245,0.0],[-67.05796,10.49249,0.0],[-67.05797,10.49254,0.0],[-67.05797,10.49266,0.0],[-67.05797,10.49273,0.0],[-67.05796,10.49276,0.0],[-67.05794,10.49283,0.0],[-67.05793,10.49288,0.0],[-67.05792,10.49293,0.0],[-67.0579,10.49297,0.0],[-67.05789,10.493,0.0],[-67.05787,10.49303,0.0],[-67.05784,10.4931,0.0],[-67.05778,10.49322,0.0],[-67.05773,10.49333,0.0],[-67.05767,10.49343,0.0],[-67.05762,10.49351,0.0],[-67.05808,10.49452,0.0],[-67.05796,10.49632,0.0],[-67.0567,10.49906,0.0],[-67.05618,10.50015,0.0],[-67.05572,10.50153,0.0],[-67.05624,10.502,0.0],[-67.05616,10.502,0.0],[-67.05598,10.5024,0.0],[-67.05714,10.50375,0.0],[-67.05871,10.50545,0.0],[-67.06119,10.5076,0.0],[-67.06236,10.50839,0.0],[-67.06414,10.51045,0.0],[-67.06586,10.51202,0.0],[-67.06714,10.51399,0.0],[-67.06726,10.51504,0.0],[-67.0668,10.51641,0.0],[-67.06555,10.51839,0.0],[-67.06419,10.51939,0.0],[-67.06194,10.51947,0.0],[-67.05802,10.51875,0.0],[-67.05396,10.51795,0.0],[-67.05305,10.51799,0.0],[-67.05281,10.51909,0.0],[-67.05249,10.52054,0.0],[-67.05192,10.52087,0.0],[-67.05093,10.52085,0.0],[-67.05043,10.52139,0.0],[-67.0505,10.52416,0.0],[-67.05057,10.52666,0.0],[-67.04963,10.52781,0.0],[-67.04906,10.52815,0.0],[-67.04851,10.52779,0.0],[-67.04809,10.52757,0.0],[-67.04732,10.52727,0.0],[-67.04648,10.52725,0.0],[-67.04463,10.52824,0.0],[-67.04255,10.5295,0.0],[-67.04083,10.53084,0.0],[-67.03934,10.53157,0.0],[-67.038,10.53153,0.0],[-67.03515,10.53284,0.0],[-67.03353,10.53308,0.0],[-67.0324,10.53312,0.0],[-67.03135,10.53323,0.0],[-67.03002,10.53271,0.0],[-67.02886,10.53271,0.0]]]]}},{"type":"Feature","properties":{"uesi_id":"VEN_R11219583","nbhd_code":"VEN_R11219583_130","nbhd_name":"El Paraiso"},"geometry":{"type":"MultiPolygon","coordinates":[[[[-66.94693,10.49718,0.0],[-66.941,10.48462,0.0],[-66.92664,10.49254,0.0],[-66.92407,10.49201,0.0],[-66.9206,10.48834,0.0],[-66.91827,10.48702,0.0],[-66.91502,10.48966,0.0],[-66.91416,10.48528,0.0],[-66.92008,10.48557,0.0],[-66.92229,10.48159,0.0],[-66.93172,10.4767,0.0],[-66.93375,10.47087,0.0],[-66.93305,10.46861,0.0],[-66.94682,10.4716,0.0],[-66.94956,10.47822,0.0],[-66.95572,10.47335,0.0],[-66.96678,10.46821,0.0],[-66.96933,10.48404,0.0],[-66.97203,10.489,0.0],[-66.97256,10.49295,0.0],[-66.97047,10.49485,0.0],[-66.96435,10.49411,0.0],[-66.95791,10.49089,0.0],[-66.94693,10.49718,0.0]]]]}},{"type":"Feature","properties":{"uesi_id":"VEN_R11219583","nbhd_code":"VEN_R11219583_131","nbhd_name":"El Recreo"},"geometry":{"type":"MultiPolygon","coordinates":[[[[-66.87271,10.54607,0.0],[-66.87247,10.5446,0.0],[-66.87196,10.54346,0.0],[-66.87175,10.54169,0.0],[-66.8717,10.54086,0.0],[-66.87146,10.53926,0.0],[-66.87187,10.53698,0.0],[-66.87159,10.53551,0.0],[-66.87059,10.53345,0.0],[-66.86973,10.53178,0.0],[-66.86882,10.5299,0.0],[-66.86823,10.52815,0.0],[-66.86763,10.52689,0.0],[-66.86674,10.52531,0.0],[-66.86621,10.52437,0.0],[-66.86521,10.52332,0.0],[-66.86412,10.52211,0.0],[-66.86335,10.52096,0.0],[-66.86332,10.51977,0.0],[-66.86408,10.51889,0.0],[-66.86403,10.51678,0.0],[-66.86391,10.51554,0.0],[-66.86392,10.51476,0.0],[-66.86369,10.51461,0.0],[-66.86237,10.51431,0.0],[-66.86194,10.51395,0.0],[-66.86159,10.51385,0.0],[-66.86146,10.51362,0.0],[-66.86152,10.51348,0.0],[-66.86143,10.51323,0.0],[-66.86148,10.51289,0.0],[-66.8615,10.5127,0.0],[-66.86135,10.51258,0.0],[-66.86146,10.51217,0.0],[-66.86141,10.51192,0.0],[-66.86173,10.51156,0.0],[-66.86179,10.51088,0.0],[-66.86178,10.5105,0.0],[-66.86215,10.51036,0.0],[-66.86208,10.50968,0.0],[-66.86262,10.50928,0.0],[-66.86261,10.50882,0.0],[-66.86281,10.5084,0.0],[-66.86317,10.50828,0.0],[-66.86314,10.50787,0.0],[-66.86337,10.5075,0.0],[-66.86347,10.50744,0.0],[-66.86386,10.50731,0.0],[-66.86409,10.50723,0.0],[-66.86408,10.50703,0.0],[-66.8643,10.50665,0.0],[-66.86417,10.50615,0.0],[-66.86414,10.50565,0.0],[-66.86429,10.50553,0.0],[-66.86443,10.50545,0.0],[-66.86485,10.50558,0.0],[-66.86509,10.50552,0.0],[-66.86534,10.50528,0.0],[-66.8655,10.50491,0.0],[-66.86575,10.50475,0.0],[-66.86576,10.5045,0.0],[-66.86586,10.50429,0.0],[-66.86578,10.50384,0.0],[-66.86582,10.5034,0.0],[-66.86604,10.50313,0.0],[-66.8662,10.50252,0.0],[-66.86654,10.50214,0.0],[-66.86707,10.5016,0.0],[-66.86723,10.50135,0.0],[-66.86721,10.50071,0.0],[-66.86732,10.50054,0.0],[-66.86762,10.49985,0.0],[-66.86794,10.49982,0.0],[-66.86835,10.49979,0.0],[-66.86855,10.49976,0.0],[-66.8688,10.49965,0.0],[-66.86885,10.49955,0.0],[-66.86902,10.49886,0.0],[-66.86908,10.49858,0.0],[-66.86939,10.49828,0.0],[-66.86911,10.49763,0.0],[-66.86939,10.49727,0.0],[-66.86963,10.49658,0.0],[-66.86986,10.49615,0.0],[-66.86994,10.49574,0.0],[-66.86986,10.49498,0.0],[-66.86967,10.49458,0.0],[-66.8697,10.49434,0.0],[-66.87009,10.49409,0.0],[-66.87047,10.49407,0.0],[-66.87061,10.49387,0.0],[-66.87025,10.49333,0.0],[-66.87005,10.49272,0.0],[-66.86951,10.49139,0.0],[-66.8695,10.49058,0.0],[-66.86959,10.4898,0.0],[-66.86961,10.48901,0.0],[-66.86952,10.48877,0.0],[-66.86928,10.48837,0.0],[-66.86909,10.48796,0.0],[-66.869,10.48751,0.0],[-66.86949,10.48761,0.0],[-66.87048,10.48768,0.0],[-66.87152,10.48752,0.0],[-66.87279,10.48732,0.0],[-66.87362,10.48734,0.0],[-66.8745,10.48765,0.0],[-66.87521,10.48814,0.0],[-66.87566,10.48853,0.0],[-66.87675,10.4894,0.0],[-66.87799,10.4902,0.0],[-66.87851,10.49055,0.0],[-66.87952,10.49079,0.0],[-66.88039,10.49074,0.0],[-66.88061,10.49057,0.0],[-66.88033,10.48962,0.0],[-66.8805,10.48954,0.0],[-66.88043,10.48931,0.0],[-66.881,10.48818,0.0],[-66.8801,10.48759,0.0],[-66.88003,10.48736,0.0],[-66.88037,10.48701,0.0],[-66.88062,10.48695,0.0],[-66.88068,10.48698,0.0],[-66.88367,10.48825,0.0],[-66.88799,10.49364,0.0],[-66.89516,10.49341,0.0],[-66.89588,10.49511,0.0],[-66.89558,10.50097,0.0],[-66.89168,10.50926,0.0],[-66.89234,10.51101,0.0],[-66.88534,10.51937,0.0],[-66.88483,10.52281,0.0],[-66.88078,10.52495,0.0],[-66.87783,10.52864,0.0],[-66.87673,10.53442,0.0],[-66.87802,10.54126,0.0],[-66.87808,10.54183,0.0],[-66.87715,10.54229,0.0],[-66.87576,10.54314,0.0],[-66.87498,10.54386,0.0],[-66.87384,10.54487,0.0],[-66.87271,10.54607,0.0]]]]}},{"type":"Feature","properties":{"uesi_id":"VEN_R11219583","nbhd_code":"VEN_R11219583_132","nbhd_name":"El Valle"},"geometry":{"type":"MultiPolygon","coordinates":[[[[-66.89636,10.46986,0.0],[-66.89212,10.46687,0.0],[-66.89156,10.46293,0.0],[-66.89155,10.46283,0.0],[-66.89206,10.4624,0.0],[-66.89229,10.46179,0.0],[-66.89206,10.46102,0.0],[-66.89205,10.46056,0.0],[-66.8923,10.46014,0.0],[-66.89231,10.45974,0.0],[-66.89257,10.45936,0.0],[-66.89259,10.45888,0.0],[-66.8925,10.45811,0.0],[-66.89252,10.45775,0.0],[-66.89217,10.45696,0.0],[-66.8922,10.45643,0.0],[-66.89325,10.45551,0.0],[-66.89334,10.45505,0.0],[-66.89334,10.45476,0.0],[-66.89357,10.45439,0.0],[-66.89392,10.45397,0.0],[-66.89445,10.45347,0.0],[-66.89476,10.45285,0.0],[-66.89561,10.45182,0.0],[-66.89572,10.45164,0.0],[-66.89571,10.45131,0.0],[-66.8955,10.45102,0.0],[-66.89491,10.45072,0.0],[-66.89464,10.45039,0.0],[-66.89477,10.44965,0.0],[-66.89559,10.44856,0.0],[-66.89633,10.44822,0.0],[-66.89649,10.44795,0.0],[-66.89605,10.44687,0.0],[-66.89594,10.4463,0.0],[-66.89613,10.44517,0.0],[-66.89604,10.44426,0.0],[-66.89608,10.44359,0.0],[-66.89602,10.44257,0.0],[-66.89573,10.44157,0.0],[-66.89569,10.4413,0.0],[-66.89581,10.44095,0.0],[-66.89582,10.44075,0.0],[-66.8957,10.44047,0.0],[-66.89564,10.43999,0.0],[-66.89654,10.43822,0.0],[-66.89681,10.4372,0.0],[-66.89676,10.43696,0.0],[-66.89645,10.43654,0.0],[-66.89638,10.43562,0.0],[-66.89715,10.43466,0.0],[-66.89747,10.43421,0.0],[-66.89797,10.43432,0.0],[-66.89811,10.43429,0.0],[-66.89818,10.43421,0.0],[-66.89822,10.43412,0.0],[-66.89831,10.43377,0.0],[-66.89771,10.43276,0.0],[-66.89815,10.43197,0.0],[-66.89831,10.4311,0.0],[-66.89938,10.43017,0.0],[-66.89977,10.42955,0.0],[-66.89968,10.42814,0.0],[-66.90009,10.42715,0.0],[-66.89998,10.42513,0.0],[-66.89929,10.42332,0.0],[-66.89821,10.42203,0.0],[-66.89564,10.41972,0.0],[-66.89648,10.41701,0.0],[-66.89653,10.41686,0.0],[-66.8962,10.41508,0.0],[-66.89555,10.41355,0.0],[-66.89567,10.41215,0.0],[-66.89568,10.41203,0.0],[-66.89694,10.41155,0.0],[-66.89812,10.41031,0.0],[-66.89881,10.40954,0.0],[-66.90018,10.40871,0.0],[-66.90393,10.40815,0.0],[-66.90947,10.40887,0.0],[-66.91226,10.41089,0.0],[-66.9123,10.41096,0.0],[-66.91473,10.41609,0.0],[-66.91849,10.41953,0.0],[-66.92778,10.41799,0.0],[-66.9295,10.41926,0.0],[-66.92892,10.42188,0.0],[-66.92419,10.42627,0.0],[-66.92558,10.43334,0.0],[-66.92401,10.44239,0.0],[-66.91961,10.44798,0.0],[-66.92477,10.45222,0.0],[-66.92843,10.45036,0.0],[-66.93479,10.45476,0.0],[-66.92852,10.46265,0.0],[-66.92615,10.46186,0.0],[-66.91832,10.46362,0.0],[-66.91179,10.46814,0.0],[-66.90537,10.46766,0.0],[-66.90105,10.4699,0.0],[-66.89636,10.46986,0.0]]]]}},{"type":"Feature","properties":{"uesi_id":"VEN_R11219583","nbhd_code":"VEN_R11219583_133","nbhd_name":"La Pastora"},"geometry":{"type":"MultiPolygon","coordinates":[[[[-66.91314,10.55202,0.0],[-66.91323,10.55157,0.0],[-66.91615,10.53656,0.0],[-66.91473,10.52288,0.0],[-66.91698,10.51536,0.0],[-66.91624,10.51213,0.0],[-66.92139,10.51294,0.0],[-66.92247,10.50608,0.0],[-66.93217,10.51031,0.0],[-66.93395,10.51717,0.0],[-66.92798,10.5366,0.0],[-66.92945,10.54024,0.0],[-66.92888,10.54966,0.0],[-66.92887,10.54991,0.0],[-66.92862,10.54996,0.0],[-66.9245,10.55078,0.0],[-66.92253,10.55153,0.0],[-66.92049,10.55195,0.0],[-66.91732,10.55265,0.0],[-66.91611,10.55268,0.0],[-66.91465,10.55222,0.0],[-66.91314,10.55202,0.0]]]]}},{"type":"Feature","properties":{"uesi_id":"VEN_R11219583","nbhd_code":"VEN_R11219583_134","nbhd_name":"La Vega"},"geometry":{"type":"MultiPolygon","coordinates":[[[[-66.93305,10.46861,0.0],[-66.92852,10.46265,0.0],[-66.93479,10.45476,0.0],[-66.93822,10.45231,0.0],[-66.93833,10.44965,0.0],[-66.94122,10.44701,0.0],[-66.94197,10.44337,0.0],[-66.94744,10.4424,0.0],[-66.95214,10.43867,0.0],[-66.96269,10.44077,0.0],[-66.96414,10.44301,0.0],[-66.96774,10.44322,0.0],[-66.97017,10.44632,0.0],[-66.97049,10.45483,0.0],[-66.96572,10.46531,0.0],[-66.97357,10.46181,0.0],[-66.97719,10.46228,0.0],[-66.96678,10.46821,0.0],[-66.95572,10.47335,0.0],[-66.94956,10.47822,0.0],[-66.94682,10.4716,0.0],[-66.93305,10.46861,0.0]]]]}},{"type":"Feature","properties":{"uesi_id":"VEN_R11219583","nbhd_code":"VEN_R11219583_135","nbhd_name":"Macarao"},"geometry":{"type":"MultiPolygon","coordinates":[[[[-67.10632,10.45696,0.0],[-67.10531,10.45681,0.0],[-67.09408,10.4536,0.0],[-67.09124,10.45434,0.0],[-67.08972,10.45536,0.0],[-67.08854,10.45438,0.0],[-67.0865,10.45583,0.0],[-67.08114,10.4544,0.0],[-67.07784,10.45634,0.0],[-67.07538,10.45414,0.0],[-67.07156,10.45593,0.0],[-67.0706,10.45464,0.0],[-67.06792,10.4582,0.0],[-67.06438,10.4571,0.0],[-67.06362,10.45887,0.0],[-67.0592,10.45692,0.0],[-67.05506,10.45953,0.0],[-67.04839,10.45106,0.0],[-67.04578,10.44817,0.0],[-67.03707,10.44442,0.0],[-67.03023,10.4444,0.0],[-67.02908,10.44158,0.0],[-67.02572,10.44218,0.0],[-67.02422,10.43979,0.0],[-67.02056,10.43466,0.0],[-67.01926,10.42486,0.0],[-67.01738,10.42248,0.0],[-67.01218,10.42142,0.0],[-67.00597,10.42217,0.0],[-66.99657,10.41679,0.0],[-66.99194,10.41763,0.0],[-66.98303,10.41149,0.0],[-66.98265,10.39952,0.0],[-66.98263,10.39922,0.0],[-66.9829,10.3989,0.0],[-66.98322,10.39849,0.0],[-66.9836,10.39837,0.0],[-66.98483,10.39842,0.0],[-66.98517,10.3978,0.0],[-66.98545,10.39728,0.0],[-66.98596,10.3969,0.0],[-66.98634,10.39671,0.0],[-66.98725,10.39614,0.0],[-66.98806,10.39551,0.0],[-66.99049,10.39487,0.0],[-66.99232,10.39447,0.0],[-66.99394,10.39373,0.0],[-66.99549,10.39232,0.0],[-66.99666,10.39066,0.0],[-66.99768,10.38847,0.0],[-66.99885,10.38741,0.0],[-67.002,10.38666,0.0],[-67.00379,10.38662,0.0],[-67.00474,10.38636,0.0],[-67.00641,10.38625,0.0],[-67.00758,10.38592,0.0],[-67.00815,10.38506,0.0],[-67.00979,10.38445,0.0],[-67.0112,10.38377,0.0],[-67.01303,10.38338,0.0],[-67.01455,10.38318,0.0],[-67.01627,10.38348,0.0],[-67.0163,10.38384,0.0],[-67.01648,10.38445,0.0],[-67.0167,10.38477,0.0],[-67.01715,10.38521,0.0],[-67.01737,10.38648,0.0],[-67.01891,10.38744,0.0],[-67.01938,10.38819,0.0],[-67.02143,10.38945,0.0],[-67.02352,10.39028,0.0],[-67.02628,10.39066,0.0],[-67.02902,10.3912,0.0],[-67.03181,10.39167,0.0],[-67.03408,10.39146,0.0],[-67.03616,10.39094,0.0],[-67.03742,10.3895,0.0],[-67.03892,10.38877,0.0],[-67.04081,10.38804,0.0],[-67.04203,10.38711,0.0],[-67.04473,10.38635,0.0],[-67.04545,10.38586,0.0],[-67.04591,10.38607,0.0],[-67.0469,10.38649,0.0],[-67.05032,10.38798,0.0],[-67.0554,10.39058,0.0],[-67.05614,10.38977,0.0],[-67.05709,10.3898,0.0],[-67.06072,10.39132,0.0],[-67.06433,10.39135,0.0],[-67.06738,10.3922,0.0],[-67.07074,10.39428,0.0],[-67.07216,10.39386,0.0],[-67.07415,10.39384,0.0],[-67.07764,10.39293,0.0],[-67.07973,10.39301,0.0],[-67.08417,10.39716,0.0],[-67.0869,10.40126,0.0],[-67.09067,10.40493,0.0],[-67.09467,10.40609,0.0],[-67.09883,10.40512,0.0],[-67.10282,10.40535,0.0],[-67.10432,10.40428,0.0],[-67.1064,10.40389,0.0],[-67.10899,10.40566,0.0],[-67.11334,10.40488,0.0],[-67.11582,10.40543,0.0],[-67.11696,10.40547,0.0],[-67.11867,10.40553,0.0],[-67.11942,10.40527,0.0],[-67.12202,10.4075,0.0],[-67.12478,10.40769,0.0],[-67.12851,10.40941,0.0],[-67.13183,10.40961,0.0],[-67.13574,10.41049,0.0],[-67.13784,10.41113,0.0],[-67.14066,10.40946,0.0],[-67.14169,10.40912,0.0],[-67.14857,10.41168,0.0],[-67.15158,10.41551,0.0],[-67.1532,10.41613,0.0],[-67.1552,10.4161,0.0],[-67.15688,10.41467,0.0],[-67.15762,10.41358,0.0],[-67.15979,10.4131,0.0],[-67.16159,10.41361,0.0],[-67.16338,10.41413,0.0],[-67.16387,10.41673,0.0],[-67.16262,10.41783,0.0],[-67.16225,10.42104,0.0],[-67.1583,10.42548,0.0],[-67.1595,10.4275,0.0],[-67.15861,10.4308,0.0],[-67.1585,10.43216,0.0],[-67.15902,10.43256,0.0],[-67.15898,10.43347,0.0],[-67.16145,10.43568,0.0],[-67.1616,10.43595,0.0],[-67.16279,10.43679,0.0],[-67.16191,10.43715,0.0],[-67.1608,10.43955,0.0],[-67.15935,10.44018,0.0],[-67.15665,10.4409,0.0],[-67.15389,10.44109,0.0],[-67.15073,10.44212,0.0],[-67.14756,10.44518,0.0],[-67.14554,10.44738,0.0],[-67.14399,10.44962,0.0],[-67.14147,10.45039,0.0],[-67.1378,10.45146,0.0],[-67.13358,10.45311,0.0],[-67.13131,10.45362,0.0],[-67.12423,10.45732,0.0],[-67.12237,10.45822,0.0],[-67.11978,10.45893,0.0],[-67.11829,10.45861,0.0],[-67.11639,10.45815,0.0],[-67.11482,10.45883,0.0],[-67.1132,10.45977,0.0],[-67.11155,10.45885,0.0],[-67.10838,10.45728,0.0],[-67.10632,10.45696,0.0]]]]}},{"type":"Feature","properties":{"uesi_id":"VEN_R11219583","nbhd_code":"VEN_R11219583_136","nbhd_name":"San Agustin"},"geometry":{"type":"MultiPolygon","coordinates":[[[[-66.90793,10.49798,0.0],[-66.90191,10.49655,0.0],[-66.89588,10.49511,0.0],[-66.89516,10.49341,0.0],[-66.89444,10.48962,0.0],[-66.8989,10.48959,0.0],[-66.91131,10.4858,0.0],[-66.9109,10.49306,0.0],[-66.90909,10.49281,0.0],[-66.90793,10.49798,0.0]]]]}},{"type":"Feature","properties":{"uesi_id":"VEN_R11219583","nbhd_code":"VEN_R11219583_137","nbhd_name":"San Benardino"},"geometry":{"type":"MultiPolygon","coordinates":[[[[-66.90292,10.50542,0.0],[-66.90982,10.52069,0.0],[-66.90867,10.53755,0.0],[-66.90615,10.54032,0.0],[-66.90596,10.54555,0.0],[-66.90276,10.5456,0.0],[-66.90225,10.54998,0.0],[-66.90227,10.55093,0.0],[-66.90126,10.55053,0.0],[-66.89862,10.54933,0.0],[-66.89625,10.54892,0.0],[-66.89391,10.54833,0.0],[-66.89231,10.54754,0.0],[-66.89031,10.54548,0.0],[-66.8888,10.54463,0.0],[-66.88754,10.54383,0.0],[-66.8862,10.5432,0.0],[-66.88339,10.54185,0.0],[-66.88137,10.54158,0.0],[-66.87988,10.54159,0.0],[-66.87808,10.54183,0.0],[-66.87802,10.54126,0.0],[-66.87673,10.53442,0.0],[-66.87783,10.52864,0.0],[-66.88078,10.52495,0.0],[-66.88483,10.52281,0.0],[-66.88534,10.51937,0.0],[-66.89234,10.51101,0.0],[-66.90038,10.50149,0.0],[-66.90224,10.50204,0.0],[-66.90292,10.50542,0.0]]]]}},{"type":"Feature","properties":{"uesi_id":"VEN_R11219583","nbhd_code":"VEN_R11219583_138","nbhd_name":"San Jose"},"geometry":{"type":"MultiPolygon","coordinates":[[[[-66.90843,10.50658,0.0],[-66.91196,10.50729,0.0],[-66.91168,10.50893,0.0],[-66.91158,10.51176,0.0],[-66.91147,10.51459,0.0],[-66.91401,10.51899,0.0],[-66.90982,10.52069,0.0],[-66.90292,10.50542,0.0],[-66.90843,10.50658,0.0]]]]}},{"type":"Feature","properties":{"uesi_id":"VEN_R11219583","nbhd_code":"VEN_R11219583_139","nbhd_name":"San Juan"},"geometry":{"type":"MultiPolygon","coordinates":[[[[-66.92289,10.50008,0.0],[-66.9182,10.5002,0.0],[-66.9206,10.48834,0.0],[-66.92407,10.49201,0.0],[-66.92664,10.49254,0.0],[-66.941,10.48462,0.0],[-66.94693,10.49718,0.0],[-66.93909,10.49996,0.0],[-66.92289,10.50008,0.0]]]]}},{"type":"Feature","properties":{"uesi_id":"VEN_R11219583","nbhd_code":"VEN_R11219583_140","nbhd_name":"San Pedro"},"geometry":{"type":"MultiPolygon","coordinates":[[[[-66.91131,10.4858,0.0],[-66.8989,10.48959,0.0],[-66.89444,10.48962,0.0],[-66.89516,10.49341,0.0],[-66.88799,10.49364,0.0],[-66.88367,10.48825,0.0],[-66.88068,10.48698,0.0],[-66.88062,10.48695,0.0],[-66.8807,10.48693,0.0],[-66.88107,10.48677,0.0],[-66.88128,10.48679,0.0],[-66.88138,10.48676,0.0],[-66.8815,10.48669,0.0],[-66.88169,10.48653,0.0],[-66.8822,10.48607,0.0],[-66.88243,10.48612,0.0],[-66.88315,10.48646,0.0],[-66.88332,10.48649,0.0],[-66.88334,10.48636,0.0],[-66.88331,10.48616,0.0],[-66.88326,10.486,0.0],[-66.88309,10.48589,0.0],[-66.88255,10.48563,0.0],[-66.8824,10.48541,0.0],[-66.8822,10.48504,0.0],[-66.88207,10.48468,0.0],[-66.88207,10.48437,0.0],[-66.88212,10.48406,0.0],[-66.8823,10.48388,0.0],[-66.88257,10.48368,0.0],[-66.88267,10.48358,0.0],[-66.88267,10.48344,0.0],[-66.88261,10.48322,0.0],[-66.88253,10.48312,0.0],[-66.88229,10.48304,0.0],[-66.88199,10.48296,0.0],[-66.88182,10.48291,0.0],[-66.88165,10.48284,0.0],[-66.88155,10.48273,0.0],[-66.88165,10.48255,0.0],[-66.88189,10.48239,0.0],[-66.88249,10.4821,0.0],[-66.88281,10.48186,0.0],[-66.88301,10.48159,0.0],[-66.88299,10.48142,0.0],[-66.88289,10.48122,0.0],[-66.88276,10.48112,0.0],[-66.88254,10.48108,0.0],[-66.88214,10.48094,0.0],[-66.88206,10.48089,0.0],[-66.88202,10.48082,0.0],[-66.88202,10.48077,0.0],[-66.88205,10.48071,0.0],[-66.88214,10.48064,0.0],[-66.88232,10.48061,0.0],[-66.88252,10.48056,0.0],[-66.88277,10.48042,0.0],[-66.88292,10.48032,0.0],[-66.88308,10.48018,0.0],[-66.88331,10.4799,0.0],[-66.88335,10.47978,0.0],[-66.88335,10.47964,0.0],[-66.88327,10.47939,0.0],[-66.88306,10.47914,0.0],[-66.88296,10.479,0.0],[-66.88291,10.47892,0.0],[-66.8829,10.47882,0.0],[-66.88292,10.47873,0.0],[-66.88297,10.47864,0.0],[-66.88306,10.47853,0.0],[-66.88321,10.47836,0.0],[-66.88347,10.47804,0.0],[-66.88361,10.47786,0.0],[-66.88365,10.47776,0.0],[-66.88364,10.47763,0.0],[-66.88359,10.47749,0.0],[-66.88355,10.47734,0.0],[-66.88353,10.47722,0.0],[-66.88352,10.47714,0.0],[-66.88352,10.47705,0.0],[-66.88352,10.47694,0.0],[-66.88352,10.47679,0.0],[-66.88352,10.47667,0.0],[-66.8835,10.47653,0.0],[-66.88341,10.47621,0.0],[-66.88327,10.47584,0.0],[-66.88319,10.47566,0.0],[-66.88299,10.47557,0.0],[-66.88279,10.47555,0.0],[-66.88265,10.47559,0.0],[-66.88243,10.47574,0.0],[-66.88212,10.47602,0.0],[-66.88202,10.47604,0.0],[-66.88189,10.47601,0.0],[-66.8818,10.47592,0.0],[-66.88173,10.4758,0.0],[-66.88172,10.47564,0.0],[-66.88174,10.47546,0.0],[-66.88182,10.47512,0.0],[-66.88187,10.47483,0.0],[-66.88187,10.47452,0.0],[-66.88173,10.47419,0.0],[-66.88153,10.47389,0.0],[-66.88139,10.4737,0.0],[-66.88128,10.47359,0.0],[-66.88122,10.47347,0.0],[-66.88121,10.47341,0.0],[-66.8812,10.47336,0.0],[-66.8812,10.47327,0.0],[-66.88119,10.47318,0.0],[-66.88119,10.4731,0.0],[-66.88117,10.47299,0.0],[-66.88116,10.47292,0.0],[-66.88114,10.47286,0.0],[-66.88113,10.47282,0.0],[-66.8811,10.47267,0.0],[-66.88106,10.47252,0.0],[-66.88102,10.47238,0.0],[-66.881,10.47229,0.0],[-66.88097,10.47222,0.0],[-66.88096,10.47216,0.0],[-66.88097,10.47208,0.0],[-66.881,10.47201,0.0],[-66.88105,10.47193,0.0],[-66.88107,10.4719,0.0],[-66.88117,10.47169,0.0],[-66.88119,10.47164,0.0],[-66.88122,10.47156,0.0],[-66.88125,10.47145,0.0],[-66.88127,10.47136,0.0],[-66.8813,10.47125,0.0],[-66.88133,10.47117,0.0],[-66.88137,10.4711,0.0],[-66.88141,10.47104,0.0],[-66.88146,10.471,0.0],[-66.88149,10.47099,0.0],[-66.88152,10.47099,0.0],[-66.88154,10.47099,0.0],[-66.88159,10.47102,0.0],[-66.88188,10.47116,0.0],[-66.88194,10.47121,0.0],[-66.88195,10.47123,0.0],[-66.88266,10.4716,0.0],[-66.88285,10.4715,0.0],[-66.88296,10.47146,0.0],[-66.88316,10.47143,0.0],[-66.88336,10.47138,0.0],[-66.88348,10.47134,0.0],[-66.88358,10.47124,0.0],[-66.88369,10.47109,0.0],[-66.88376,10.47097,0.0],[-66.88383,10.47083,0.0],[-66.88386,10.47066,0.0],[-66.88385,10.47044,0.0],[-66.88382,10.47028,0.0],[-66.8838,10.47014,0.0],[-66.88382,10.47,0.0],[-66.88391,10.46986,0.0],[-66.88404,10.46971,0.0],[-66.88426,10.46955,0.0],[-66.8844,10.46948,0.0],[-66.88457,10.4694,0.0],[-66.88482,10.46932,0.0],[-66.88503,10.46929,0.0],[-66.88527,10.46925,0.0],[-66.88535,10.46921,0.0],[-66.8854,10.46915,0.0],[-66.88548,10.46904,0.0],[-66.88559,10.46893,0.0],[-66.88569,10.46885,0.0],[-66.88584,10.46878,0.0],[-66.88593,10.46874,0.0],[-66.886,10.46869,0.0],[-66.88606,10.46862,0.0],[-66.88614,10.46847,0.0],[-66.88622,10.46832,0.0],[-66.88625,10.46828,0.0],[-66.88633,10.46817,0.0],[-66.88669,10.46779,0.0],[-66.88729,10.46728,0.0],[-66.88741,10.46718,0.0],[-66.8875,10.46709,0.0],[-66.88754,10.46702,0.0],[-66.88759,10.46691,0.0],[-66.88762,10.46677,0.0],[-66.88764,10.46662,0.0],[-66.88767,10.46654,0.0],[-66.8877,10.46645,0.0],[-66.88774,10.46638,0.0],[-66.88779,10.46633,0.0],[-66.88796,10.46625,0.0],[-66.88802,10.46622,0.0],[-66.88811,10.46613,0.0],[-66.88831,10.46591,0.0],[-66.88843,10.46581,0.0],[-66.88858,10.46571,0.0],[-66.88878,10.46554,0.0],[-66.88888,10.46539,0.0],[-66.889,10.46529,0.0],[-66.88921,10.46516,0.0],[-66.88977,10.46464,0.0],[-66.89044,10.46441,0.0],[-66.89102,10.46449,0.0],[-66.8914,10.46379,0.0],[-66.89143,10.46319,0.0],[-66.89149,10.46288,0.0],[-66.89155,10.46283,0.0],[-66.89156,10.46293,0.0],[-66.89212,10.46687,0.0],[-66.89636,10.46986,0.0],[-66.90997,10.48235,0.0],[-66.91131,10.4858,0.0]]]]}},{"type":"Feature","properties":{"uesi_id":"VEN_R11219583","nbhd_code":"VEN_R11219583_141","nbhd_name":"Santa Rosalia"},"geometry":{"type":"MultiPolygon","coordinates":[[[[-66.93305,10.46861,0.0],[-66.93375,10.47087,0.0],[-66.93172,10.4767,0.0],[-66.92229,10.48159,0.0],[-66.92008,10.48557,0.0],[-66.91416,10.48528,0.0],[-66.91502,10.48966,0.0],[-66.91366,10.49924,0.0],[-66.9101,10.49845,0.0],[-66.90793,10.49798,0.0],[-66.90909,10.49281,0.0],[-66.9109,10.49306,0.0],[-66.91131,10.4858,0.0],[-66.90997,10.48235,0.0],[-66.89636,10.46986,0.0],[-66.90105,10.4699,0.0],[-66.90537,10.46766,0.0],[-66.91179,10.46814,0.0],[-66.91832,10.46362,0.0],[-66.92615,10.46186,0.0],[-66.92852,10.46265,0.0],[-66.93305,10.46861,0.0]]]]}},{"type":"Feature","properties":{"uesi_id":"VEN_R11219583","nbhd_code":"VEN_R11219583_142","nbhd_name":"Santa Teresa"},"geometry":{"type":"MultiPolygon","coordinates":[[[[-66.9182,10.5002,0.0],[-66.91366,10.49924,0.0],[-66.91502,10.48966,0.0],[-66.91827,10.48702,0.0],[-66.9206,10.48834,0.0],[-66.9182,10.5002,0.0]]]]}},{"type":"Feature","properties":{"uesi_id":"VEN_R11219583","nbhd_code":"VEN_R11219583_143","nbhd_name":"Sucre"},"geometry":{"type":"MultiPolygon","coordinates":[[[[-67.00902,10.562,0.0],[-67.00868,10.5624,0.0],[-67.00637,10.56244,0.0],[-67.00205,10.56245,0.0],[-66.99652,10.5618,0.0],[-66.99139,10.56089,0.0],[-66.98423,10.55931,0.0],[-66.97734,10.55613,0.0],[-66.97261,10.55388,0.0],[-66.96842,10.55203,0.0],[-66.9673,10.55072,0.0],[-66.96631,10.55016,0.0],[-66.96513,10.54949,0.0],[-66.96285,10.54904,0.0],[-66.9608,10.54849,0.0],[-66.95669,10.54648,0.0],[-66.95487,10.5448,0.0],[-66.95373,10.5439,0.0],[-66.95213,10.54346,0.0],[-66.94873,10.54322,0.0],[-66.94734,10.54327,0.0],[-66.94588,10.5433,0.0],[-66.94409,10.54322,0.0],[-66.94254,10.54394,0.0],[-66.9409,10.54491,0.0],[-66.93784,10.54639,0.0],[-66.93581,10.54812,0.0],[-66.93428,10.54928,0.0],[-66.93326,10.54939,0.0],[-66.93226,10.54942,0.0],[-66.93085,10.54952,0.0],[-66.92887,10.54991,0.0],[-66.92888,10.54966,0.0],[-66.92945,10.54024,0.0],[-66.92798,10.5366,0.0],[-66.93395,10.51717,0.0],[-66.93217,10.51031,0.0],[-66.93398,10.50934,0.0],[-66.9356,10.50482,0.0],[-66.93793,10.50484,0.0],[-66.93884,10.50208,0.0],[-66.94014,10.50472,0.0],[-66.94598,10.50672,0.0],[-66.94799,10.49922,0.0],[-66.94693,10.49718,0.0],[-66.95791,10.49089,0.0],[-66.96435,10.49411,0.0],[-66.97047,10.49485,0.0],[-66.97256,10.49295,0.0],[-66.97203,10.489,0.0],[-66.97572,10.49095,0.0],[-66.98367,10.49474,0.0],[-66.98852,10.4902,0.0],[-66.99026,10.49159,0.0],[-66.99043,10.49426,0.0],[-66.99564,10.49435,0.0],[-66.99429,10.49695,0.0],[-66.99718,10.49967,0.0],[-66.99938,10.49944,0.0],[-67.00066,10.50443,0.0],[-66.99255,10.52265,0.0],[-66.99611,10.52229,0.0],[-66.99706,10.52531,0.0],[-67.00235,10.52876,0.0],[-67.00419,10.5311,0.0],[-67.01046,10.52882,0.0],[-67.01353,10.52811,0.0],[-67.01662,10.52956,0.0],[-67.02679,10.52674,0.0],[-67.02879,10.53211,0.0],[-67.02886,10.53271,0.0],[-67.0277,10.53272,0.0],[-67.03078,10.54978,0.0],[-67.03007,10.55034,0.0],[-67.02936,10.55089,0.0],[-67.02823,10.55086,0.0],[-67.02571,10.55191,0.0],[-67.02294,10.55385,0.0],[-67.01953,10.55867,0.0],[-67.01744,10.56073,0.0],[-67.01422,10.56255,0.0],[-67.01151,10.56248,0.0],[-67.00961,10.56131,0.0],[-67.00902,10.562,0.0]]]]}},{"type":"Feature","properties":{"uesi_id":"VEN_R11219583","nbhd_code":"VEN_R11219583_144","nbhd_name":"23 De Enero"},"geometry":{"type":"MultiPolygon","coordinates":[[[[-66.92289,10.50008,0.0],[-66.93909,10.49996,0.0],[-66.94693,10.49718,0.0],[-66.94799,10.49922,0.0],[-66.94598,10.50672,0.0],[-66.94014,10.50472,0.0],[-66.93884,10.50208,0.0],[-66.93793,10.50484,0.0],[-66.9356,10.50482,0.0],[-66.93398,10.50934,0.0],[-66.93217,10.51031,0.0],[-66.92247,10.50608,0.0],[-66.92363,10.50199,0.0],[-66.92289,10.50008,0.0]]]]}}]}